{"updated":1783534262,"count":87,"data":{"SBBE":{"icaoId":"SBBE","flightCategory":"MVFR","rawOb":"METAR SBBE 081700Z 34010KT 9999 BKN030 FEW035TCU 30/25 Q1014","temp":30,"dewp":25,"wdir":340,"wspd":10,"visib":"6+","altim":1014,"clouds":[{"cover":"BKN","base":3000},{"cover":"FEW","base":3500}],"obsTime":1783530000},"SBCZ":{"icaoId":"SBCZ","flightCategory":"VFR","rawOb":"METAR SBCZ 081700Z 06005KT 9999 SCT025 BKN100 29/24 Q1016","temp":29,"dewp":24,"wdir":60,"wspd":5,"visib":"6+","altim":1016,"clouds":[{"cover":"SCT","base":2500},{"cover":"BKN","base":10000}],"obsTime":1783530000},"SBNT":{"icaoId":"SBNT","flightCategory":"VFR","rawOb":"METAR SBNT 081700Z 13015KT 9999 SCT030 SCT040 28/23 Q1016","temp":28,"dewp":23,"wdir":130,"wspd":15,"visib":"6+","altim":1016,"clouds":[{"cover":"SCT","base":3000},{"cover":"SCT","base":4000}],"obsTime":1783530000},"SBRF":{"icaoId":"SBRF","flightCategory":"VFR","rawOb":"METAR SBRF 081700Z 14010KT 9999 SCT020 BKN040 27/23 Q1016","temp":27,"dewp":23,"wdir":140,"wspd":10,"visib":"6+","altim":1016,"clouds":[{"cover":"SCT","base":2000},{"cover":"BKN","base":4000}],"obsTime":1783530000},"SBBV":{"icaoId":"SBBV","flightCategory":"VFR","rawOb":"METAR SBBV 081700Z 17007KT 9999 SCT025 FEW030TCU BKN090 25/23 Q1015","temp":25,"dewp":23,"wdir":170,"wspd":7,"visib":"6+","altim":1015,"clouds":[{"cover":"SCT","base":2500},{"cover":"FEW","base":3000},{"cover":"BKN","base":9000}],"obsTime":1783530000},"SBEG":{"icaoId":"SBEG","flightCategory":"VFR","rawOb":"METAR SBEG 081700Z 28005KT 240V330 9999 SCT030 32/24 Q1013","temp":32,"dewp":24,"wdir":280,"wspd":5,"visib":"6+","altim":1013,"clouds":[{"cover":"SCT","base":3000}],"obsTime":1783530000},"SBFZ":{"icaoId":"SBFZ","flightCategory":"VFR","rawOb":"METAR SBFZ 081700Z 10014KT 9999 SCT025 BKN100 29/23 Q1015","temp":29,"dewp":23,"wdir":100,"wspd":14,"visib":"6+","altim":1015,"clouds":[{"cover":"SCT","base":2500},{"cover":"BKN","base":10000}],"obsTime":1783530000},"SBPV":{"icaoId":"SBPV","flightCategory":"VFR","rawOb":"METAR SBPV 081700Z VRB05KT 9999 SCT040 31/20 Q1014","temp":31,"dewp":20,"wdir":"VRB","wspd":5,"visib":"6+","altim":1014,"clouds":[{"cover":"SCT","base":4000}],"obsTime":1783530000},"SBBR":{"icaoId":"SBBR","flightCategory":"VFR","rawOb":"METAR SBBR 081700Z 24005KT 9999 FEW040 26/09 Q1022","temp":26,"dewp":9,"wdir":240,"wspd":5,"visib":"6+","altim":1022,"clouds":[{"cover":"FEW","base":4000}],"obsTime":1783530000},"SBSL":{"icaoId":"SBSL","flightCategory":"VFR","rawOb":"METAR SBSL 081700Z 05009KT 9999 SCT030 29/24 Q1014","temp":29,"dewp":24,"wdir":50,"wspd":9,"visib":"6+","altim":1014,"clouds":[{"cover":"SCT","base":3000}],"obsTime":1783530000},"SBRB":{"icaoId":"SBRB","flightCategory":"VFR","rawOb":"METAR SBRB 081700Z 13003KT CAVOK 26/20 Q1017","temp":26,"dewp":20,"wdir":130,"wspd":3,"visib":"6+","altim":1017,"clouds":[],"obsTime":1783530000},"SBSN":{"icaoId":"SBSN","flightCategory":"VFR","rawOb":"METAR SBSN 081700Z 09014KT 9999 SCT021 31/25 Q1013","temp":31,"dewp":25,"wdir":90,"wspd":14,"visib":"6+","altim":1013,"clouds":[{"cover":"SCT","base":2100}],"obsTime":1783530000},"SBSG":{"icaoId":"SBSG","flightCategory":"VFR","rawOb":"METAR SBSG 081700Z 11008KT 9999 BKN037 28/24 Q1016","temp":28,"dewp":24,"wdir":110,"wspd":8,"visib":"6+","altim":1016,"clouds":[{"cover":"BKN","base":3700}],"obsTime":1783530000},"SBSV":{"icaoId":"SBSV","flightCategory":"VFR","rawOb":"METAR SBSV 081700Z 14006KT 100V190 9999 FEW023 28/22 Q1016","temp":28,"dewp":22,"wdir":140,"wspd":6,"visib":"6+","altim":1016,"clouds":[{"cover":"FEW","base":2300}],"obsTime":1783530000},"SBCF":{"icaoId":"SBCF","flightCategory":"VFR","rawOb":"METAR SBCF 081700Z 28005KT 9999 FEW030 26/09 Q1021","temp":26,"dewp":9,"wdir":280,"wspd":5,"visib":"6+","altim":1021,"clouds":[{"cover":"FEW","base":3000}],"obsTime":1783530000},"SBMO":{"icaoId":"SBMO","flightCategory":"MVFR","rawOb":"METAR SBMO 081700Z 07008KT 9999 BKN030 26/21 Q1017","temp":26,"dewp":21,"wdir":70,"wspd":8,"visib":"6+","altim":1017,"clouds":[{"cover":"BKN","base":3000}],"obsTime":1783530000},"SBGO":{"icaoId":"SBGO","flightCategory":"VFR","rawOb":"METAR SBGO 081700Z 07005KT 010V140 CAVOK 30/13 Q1020","temp":30,"dewp":13,"wdir":70,"wspd":5,"visib":"6+","altim":1020,"clouds":[],"obsTime":1783530000},"SBCT":{"icaoId":"SBCT","flightCategory":"VFR","rawOb":"METAR SBCT 081700Z 30004KT CAVOK 18/03 Q1022","temp":18,"dewp":3,"wdir":300,"wspd":4,"visib":"6+","altim":1022,"clouds":[],"obsTime":1783530000},"SBMA":{"icaoId":"SBMA","flightCategory":"VFR","rawOb":"METAR SBMA 081700Z 01006KT 9999 SCT020 33/23 Q1013","temp":33,"dewp":23,"wdir":10,"wspd":6,"visib":"6+","altim":1013,"clouds":[{"cover":"SCT","base":2000}],"obsTime":1783530000},"SBTE":{"icaoId":"SBTE","flightCategory":"VFR","rawOb":"METAR SBTE 081700Z 15005KT 9999 FEW020 34/20 Q1013","temp":34,"dewp":20,"wdir":150,"wspd":5,"visib":"6+","altim":1013,"clouds":[{"cover":"FEW","base":2000}],"obsTime":1783530000},"SBPA":{"icaoId":"SBPA","flightCategory":"VFR","rawOb":"METAR SBPA 081700Z 25003KT 160V310 CAVOK 18/06 Q1019","temp":18,"dewp":6,"wdir":250,"wspd":3,"visib":"6+","altim":1019,"clouds":[],"obsTime":1783530000},"SBKP":{"icaoId":"SBKP","flightCategory":"VFR","rawOb":"METAR SBKP 081700Z 28006KT CAVOK 22/10 Q1021","temp":22,"dewp":10,"wdir":280,"wspd":6,"visib":"6+","altim":1021,"clouds":[],"obsTime":1783530000},"SBMG":{"icaoId":"SBMG","flightCategory":"VFR","rawOb":"METAR SBMG 081700Z VRB02KT CAVOK 23/01 Q1020","temp":23,"dewp":1,"wdir":"VRB","wspd":2,"visib":"6+","altim":1020,"clouds":[],"obsTime":1783530000},"SBIL":{"icaoId":"SBIL","flightCategory":"VFR","rawOb":"METAR SBIL 081700Z 08006KT 9999 FEW020 29/23 Q1017","temp":29,"dewp":23,"wdir":80,"wspd":6,"visib":"6+","altim":1017,"clouds":[{"cover":"FEW","base":2000}],"obsTime":1783530000},"SBJU":{"icaoId":"SBJU","flightCategory":"VFR","rawOb":"METAR SBJU 081700Z 00000KT 9999 SCT022 33/12 Q1016","temp":33,"dewp":12,"wdir":0,"wspd":0,"visib":"6+","altim":1016,"clouds":[{"cover":"SCT","base":2200}],"obsTime":1783530000},"SBAT":{"icaoId":"SBAT","flightCategory":"VFR","rawOb":"METAR SBAT 081700Z 19003KT 9999 FEW045 35/17 Q1015","temp":35,"dewp":17,"wdir":190,"wspd":3,"visib":"6+","altim":1015,"clouds":[{"cover":"FEW","base":4500}],"obsTime":1783530000},"SBHT":{"icaoId":"SBHT","flightCategory":"MVFR","rawOb":"METAR SBHT 081700Z 15005KT 9999 BKN030 32/25 Q1014","temp":32,"dewp":25,"wdir":150,"wspd":5,"visib":"6+","altim":1014,"clouds":[{"cover":"BKN","base":3000}],"obsTime":1783530000},"SBMQ":{"icaoId":"SBMQ","flightCategory":"VFR","rawOb":"METAR SBMQ 081700Z 05011KT 030V100 9999 SCT035 FEW040TCU 33/25 Q1014","temp":33,"dewp":25,"wdir":50,"wspd":11,"visib":"6+","altim":1014,"clouds":[{"cover":"SCT","base":3500},{"cover":"FEW","base":4000}],"obsTime":1783530000},"SBPJ":{"icaoId":"SBPJ","flightCategory":"VFR","rawOb":"METAR SBPJ 081700Z 32008KT 280V360 CAVOK 35/18 Q1014","temp":35,"dewp":18,"wdir":320,"wspd":8,"visib":"6+","altim":1014,"clouds":[],"obsTime":1783530000},"SBSP":{"icaoId":"SBSP","flightCategory":"VFR","rawOb":"METAR SBSP 081700Z VRB04KT CAVOK 21/10 Q1022","temp":21,"dewp":10,"wdir":"VRB","wspd":4,"visib":"6+","altim":1022,"clouds":[],"obsTime":1783530000},"SBFL":{"icaoId":"SBFL","flightCategory":"VFR","rawOb":"METAR SBFL 081700Z 02003KT CAVOK 19/07 Q1020","temp":19,"dewp":7,"wdir":20,"wspd":3,"visib":"6+","altim":1020,"clouds":[],"obsTime":1783530000},"SBCR":{"icaoId":"SBCR","flightCategory":"VFR","rawOb":"METAR SBCR 081700Z 05009KT CAVOK 27/18 Q1016","temp":27,"dewp":18,"wdir":50,"wspd":9,"visib":"6+","altim":1016,"clouds":[],"obsTime":1783530000},"SBGR":{"icaoId":"SBGR","flightCategory":"VFR","rawOb":"METAR SBGR 081700Z 30006KT CAVOK 21/11 Q1021","temp":21,"dewp":11,"wdir":300,"wspd":6,"visib":"6+","altim":1021,"clouds":[],"obsTime":1783530000},"SBGL":{"icaoId":"SBGL","flightCategory":"VFR","rawOb":"METAR SBGL 081700Z 13004KT 040V200 9999 SCT030 BKN050 22/15 Q1019","temp":22,"dewp":15,"wdir":130,"wspd":4,"visib":"6+","altim":1019,"clouds":[{"cover":"SCT","base":3000},{"cover":"BKN","base":5000}],"obsTime":1783530000},"SBLO":{"icaoId":"SBLO","flightCategory":"VFR","rawOb":"METAR SBLO 081700Z 01006KT 330V070 CAVOK 21/07 Q1021","temp":21,"dewp":7,"wdir":10,"wspd":6,"visib":"6+","altim":1021,"clouds":[],"obsTime":1783530000},"SBCB":{"icaoId":"SBCB","flightCategory":"VFR","rawOb":"METAR SBCB 081700Z 25012KT 9999 FEW030 SCT100 22/14 Q1020","temp":22,"dewp":14,"wdir":250,"wspd":12,"visib":"6+","altim":1020,"clouds":[{"cover":"FEW","base":3000},{"cover":"SCT","base":10000}],"obsTime":1783530000},"SBVT":{"icaoId":"SBVT","flightCategory":"VFR","rawOb":"METAR SBVT 081700Z 17013KT 9999 FEW030 24/18 Q1018","temp":24,"dewp":18,"wdir":170,"wspd":13,"visib":"6+","altim":1018,"clouds":[{"cover":"FEW","base":3000}],"obsTime":1783530000},"SBCG":{"icaoId":"SBCG","flightCategory":"VFR","rawOb":"METAR SBCG 081700Z 03009KT 360V070 CAVOK 25/15 Q1019","temp":25,"dewp":15,"wdir":30,"wspd":9,"visib":"6+","altim":1019,"clouds":[],"obsTime":1783530000},"SBFI":{"icaoId":"SBFI","flightCategory":"VFR","rawOb":"METAR SBFI 081700Z 04005KT CAVOK 21/08 Q1019","temp":21,"dewp":8,"wdir":40,"wspd":5,"visib":"6+","altim":1019,"clouds":[],"obsTime":1783530000},"SBCP":{"icaoId":"SBCP","flightCategory":"MVFR","rawOb":"METAR SBCP 081700Z 20012KT 9999 BKN030 24/17 Q1019","temp":24,"dewp":17,"wdir":200,"wspd":12,"visib":"6+","altim":1019,"clouds":[{"cover":"BKN","base":3000}],"obsTime":1783530000},"SBME":{"icaoId":"SBME","flightCategory":"MVFR","rawOb":"METAR SBME 081700Z 19010KT 9999 OVC030 22/15 Q1019","temp":22,"dewp":15,"wdir":190,"wspd":10,"visib":"6+","altim":1019,"clouds":[{"cover":"OVC","base":3000}],"obsTime":1783530000},"SBMK":{"icaoId":"SBMK","flightCategory":"VFR","rawOb":"METAR SBMK 081700Z 31004KT 9999 SCT040 30/10 Q1019","temp":30,"dewp":10,"wdir":310,"wspd":4,"visib":"6+","altim":1019,"clouds":[{"cover":"SCT","base":4000}],"obsTime":1783530000},"SBUL":{"icaoId":"SBUL","flightCategory":"VFR","rawOb":"METAR SBUL 081700Z 27004KT 9999 FEW040 24/12 Q1022","temp":24,"dewp":12,"wdir":270,"wspd":4,"visib":"6+","altim":1022,"clouds":[{"cover":"FEW","base":4000}],"obsTime":1783530000},"SBUR":{"icaoId":"SBUR","flightCategory":"VFR","rawOb":"METAR SBUR 081700Z 17007KT 9999 FEW048 25/13 Q1021","temp":25,"dewp":13,"wdir":170,"wspd":7,"visib":"6+","altim":1021,"clouds":[{"cover":"FEW","base":4800}],"obsTime":1783530000},"SBTF":{"icaoId":"SBTF","flightCategory":"VFR","rawOb":"METAR SBTF 081700Z 10005KT 9999 FEW015 33/24 Q1013","temp":33,"dewp":24,"wdir":100,"wspd":5,"visib":"6+","altim":1013,"clouds":[{"cover":"FEW","base":1500}],"obsTime":1783530000},"SBUY":{"icaoId":"SBUY","flightCategory":"VFR","rawOb":"METAR SBUY 081700Z 27003KT 9999 SCT025 30/25 Q1013","temp":30,"dewp":25,"wdir":270,"wspd":3,"visib":"6+","altim":1013,"clouds":[{"cover":"SCT","base":2500}],"obsTime":1783530000},"SBCJ":{"icaoId":"SBCJ","flightCategory":"MVFR","rawOb":"METAR SBCJ 081700Z 00000KT 9999 BKN027 30/20 Q1017","temp":30,"dewp":20,"wdir":0,"wspd":0,"visib":"6+","altim":1017,"clouds":[{"cover":"BKN","base":2700}],"obsTime":1783530000},"SBPB":{"icaoId":"SBPB","flightCategory":"VFR","rawOb":"METAR SBPB 081700Z 07015KT 9999 SCT020 SCT100 31/25 Q1013","temp":31,"dewp":25,"wdir":70,"wspd":15,"visib":"6+","altim":1013,"clouds":[{"cover":"SCT","base":2000},{"cover":"SCT","base":10000}],"obsTime":1783530000},"SBOI":{"icaoId":"SBOI","flightCategory":"VFR","rawOb":"METAR SBOI 081700Z AUTO 13007KT 090V160 9999 BKN040 29/24 Q1015","temp":29,"dewp":24,"wdir":130,"wspd":7,"visib":"6+","altim":1015,"clouds":[{"cover":"BKN","base":4000}],"obsTime":1783530000},"SBSJ":{"icaoId":"SBSJ","flightCategory":"VFR","rawOb":"METAR SBSJ 081700Z 18006KT 130V250 CAVOK 21/12 Q1021","temp":21,"dewp":12,"wdir":180,"wspd":6,"visib":"6+","altim":1021,"clouds":[],"obsTime":1783530000},"SBCA":{"icaoId":"SBCA","flightCategory":"VFR","rawOb":"METAR SBCA 081700Z 02006KT CAVOK 21/01 Q1021","temp":21,"dewp":1,"wdir":20,"wspd":6,"visib":"6+","altim":1021,"clouds":[],"obsTime":1783530000},"SBCO":{"icaoId":"SBCO","flightCategory":"VFR","rawOb":"METAR SBCO 081700Z VRB02KT CAVOK 18/06 Q1020","temp":18,"dewp":6,"wdir":"VRB","wspd":2,"visib":"6+","altim":1020,"clouds":[],"obsTime":1783530000},"SBSM":{"icaoId":"SBSM","flightCategory":"VFR","rawOb":"METAR SBSM 081700Z VRB02KT CAVOK 19/08 Q1019","temp":19,"dewp":8,"wdir":"VRB","wspd":2,"visib":"6+","altim":1019,"clouds":[],"obsTime":1783530000},"SBKG":{"icaoId":"SBKG","flightCategory":"VFR","rawOb":"METAR SBKG 081700Z 10007KT 050V160 9999 SCT028 27/21 Q1018","temp":27,"dewp":21,"wdir":100,"wspd":7,"visib":"6+","altim":1018,"clouds":[{"cover":"SCT","base":2800}],"obsTime":1783530000},"SBCC":{"icaoId":"SBCC","flightCategory":"VFR","rawOb":"METAR SBCC 081700Z 14004KT CAVOK 32/14 Q1016","temp":32,"dewp":14,"wdir":140,"wspd":4,"visib":"6+","altim":1016,"clouds":[],"obsTime":1783530000},"SBGM":{"icaoId":"SBGM","flightCategory":"VFR","rawOb":"METAR SBGM 081700Z 12004KT CAVOK 28/14 Q1016","temp":28,"dewp":14,"wdir":120,"wspd":4,"visib":"6+","altim":1016,"clouds":[],"obsTime":1783530000},"SBTU":{"icaoId":"SBTU","flightCategory":"VFR","rawOb":"METAR SBTU 081700Z AUTO VRB03KT 9999 // SCT024/// BKN034/// 30/23 Q1015","temp":30,"dewp":23,"wdir":"VRB","wspd":3,"visib":"6+","altim":1015,"clouds":[{"cover":"SCT","base":2400},{"cover":"BKN","base":3400}],"obsTime":1783530000},"SBVH":{"icaoId":"SBVH","flightCategory":"VFR","rawOb":"METAR SBVH 081700Z VRB05KT 9999 FEW020 30/18 Q1018","temp":30,"dewp":18,"wdir":"VRB","wspd":5,"visib":"6+","altim":1018,"clouds":[{"cover":"FEW","base":2000}],"obsTime":1783530000},"SBAR":{"icaoId":"SBAR","flightCategory":"VFR","rawOb":"METAR SBAR 081700Z 04003KT 9999 FEW026 28/21 Q1017","temp":28,"dewp":21,"wdir":40,"wspd":3,"visib":"6+","altim":1017,"clouds":[{"cover":"FEW","base":2600}],"obsTime":1783530000},"SBTT":{"icaoId":"SBTT","flightCategory":"IFR","rawOb":"SPECI SBTT 081619Z 18005KT 2500 -RA FEW003 BKN012 BKN070 24/23 Q1016","temp":24,"dewp":23,"wdir":180,"wspd":5,"visib":1.55,"altim":1016,"clouds":[{"cover":"FEW","base":300},{"cover":"BKN","base":1200},{"cover":"BKN","base":7000}],"obsTime":1783527540},"SBPP":{"icaoId":"SBPP","flightCategory":"VFR","rawOb":"METAR SBPP 081700Z 05014KT CAVOK 23/13 Q1019","temp":23,"dewp":13,"wdir":50,"wspd":14,"visib":"6+","altim":1019,"clouds":[],"obsTime":1783530000},"SBPL":{"icaoId":"SBPL","flightCategory":"VFR","rawOb":"METAR SBPL 081700Z 10007KT CAVOK 33/15 Q1016","temp":33,"dewp":15,"wdir":100,"wspd":7,"visib":"6+","altim":1016,"clouds":[],"obsTime":1783530000},"SBPS":{"icaoId":"SBPS","flightCategory":"VFR","rawOb":"METAR SBPS 081700Z 08008KT 9999 SCT022 28/22 Q1017","temp":28,"dewp":22,"wdir":80,"wspd":8,"visib":"6+","altim":1017,"clouds":[{"cover":"SCT","base":2200}],"obsTime":1783530000},"SBAX":{"icaoId":"SBAX","flightCategory":"VFR","rawOb":"SPECI SBAX 081705Z AUTO 24006KT 140V310 //// ///////// 24/09 Q1022","temp":24,"dewp":9,"wdir":240,"wspd":6,"visib":null,"altim":1022,"clouds":[],"obsTime":1783530300},"SBAU":{"icaoId":"SBAU","flightCategory":"VFR","rawOb":"METAR SBAU 081700Z 03006KT CAVOK 26/14 Q1020","temp":26,"dewp":14,"wdir":30,"wspd":6,"visib":"6+","altim":1020,"clouds":[],"obsTime":1783530000},"SBBH":{"icaoId":"SBBH","flightCategory":"VFR","rawOb":"METAR SBBH 081700Z 27009KT 9999 FEW043 26/08 Q1021","temp":26,"dewp":8,"wdir":270,"wspd":9,"visib":"6+","altim":1021,"clouds":[{"cover":"FEW","base":4300}],"obsTime":1783530000},"SBBQ":{"icaoId":"SBBQ","flightCategory":"VFR","rawOb":"METAR SBBQ 081700Z 28007KT 240V320 9999 FEW030 20/09 Q1024","temp":20,"dewp":9,"wdir":280,"wspd":7,"visib":"6+","altim":1024,"clouds":[{"cover":"FEW","base":3000}],"obsTime":1783530000},"SBBU":{"icaoId":"SBBU","flightCategory":"VFR","rawOb":"METAR SBBU 081700Z 00000KT CAVOK 23/13 Q1021","temp":23,"dewp":13,"wdir":0,"wspd":0,"visib":"6+","altim":1021,"clouds":[],"obsTime":1783530000},"SBDN":{"icaoId":"SBDN","flightCategory":"VFR","rawOb":"METAR SBDN 081700Z 34003KT CAVOK 25/10 Q1020","temp":25,"dewp":10,"wdir":340,"wspd":3,"visib":"6+","altim":1020,"clouds":[],"obsTime":1783530000},"SBIP":{"icaoId":"SBIP","flightCategory":"VFR","rawOb":"METAR SBIP 081700Z AUTO VRB02KT CAVOK 29/15 Q1018","temp":29,"dewp":15,"wdir":"VRB","wspd":2,"visib":"6+","altim":1018,"clouds":[],"obsTime":1783530000},"SBSC":{"icaoId":"SBSC","flightCategory":"MVFR","rawOb":"METAR SBSC 081700Z 18008KT 9999 SCT020 BKN030 BKN038 21/15 Q1020","temp":21,"dewp":15,"wdir":180,"wspd":8,"visib":"6+","altim":1020,"clouds":[{"cover":"SCT","base":2000},{"cover":"BKN","base":3000},{"cover":"BKN","base":3800}],"obsTime":1783530000},"SBSR":{"icaoId":"SBSR","flightCategory":"VFR","rawOb":"METAR SBSR 081700Z 03002KT 9999 FEW030 26/10 Q1020","temp":26,"dewp":10,"wdir":30,"wspd":2,"visib":"6+","altim":1020,"clouds":[{"cover":"FEW","base":3000}],"obsTime":1783530000},"SBES":{"icaoId":"SBES","flightCategory":"VFR","rawOb":"METAR SBES 081700Z 22011KT 190V250 9999 FEW020 SCT030 22/// Q1020","temp":null,"dewp":null,"wdir":220,"wspd":11,"visib":"6+","altim":1020,"clouds":[{"cover":"FEW","base":2000},{"cover":"SCT","base":3000}],"obsTime":1783530000},"SBJP":{"icaoId":"SBJP","flightCategory":"MVFR","rawOb":"METAR SBJP 081700Z 11011KT 9999 BKN025 BKN070 28/22 Q1016","temp":28,"dewp":22,"wdir":110,"wspd":11,"visib":"6+","altim":1016,"clouds":[{"cover":"BKN","base":2500},{"cover":"BKN","base":7000}],"obsTime":1783530000},"SBAN":{"icaoId":"SBAN","flightCategory":"VFR","rawOb":"METAR SBAN 081700Z 33005KT 9999 FEW045 SCT060 27/10 Q1023","temp":27,"dewp":10,"wdir":330,"wspd":5,"visib":"6+","altim":1023,"clouds":[{"cover":"FEW","base":4500},{"cover":"SCT","base":6000}],"obsTime":1783530000},"SBJV":{"icaoId":"SBJV","flightCategory":"VFR","rawOb":"METAR SBJV 081700Z 13007KT 100V160 9999 FEW025 19/13 Q1020","temp":19,"dewp":13,"wdir":130,"wspd":7,"visib":"6+","altim":1020,"clouds":[{"cover":"FEW","base":2500}],"obsTime":1783530000},"SBNM":{"icaoId":"SBNM","flightCategory":"VFR","rawOb":"METAR SBNM 081700Z AUTO 01005KT 330V060 CAVOK 20/01 Q1019","temp":20,"dewp":1,"wdir":10,"wspd":5,"visib":"6+","altim":1019,"clouds":[],"obsTime":1783530000},"SBPF":{"icaoId":"SBPF","flightCategory":"VFR","rawOb":"METAR SBPF 081700Z 02003KT CAVOK 16/03 Q1021","temp":16,"dewp":3,"wdir":20,"wspd":3,"visib":"6+","altim":1021,"clouds":[],"obsTime":1783530000},"SBLE":{"icaoId":"SBLE","flightCategory":"VFR","rawOb":"METAR SBLE 081700Z AUTO VRB02KT CAVOK ///// Q1019","temp":null,"dewp":null,"wdir":"VRB","wspd":2,"visib":"6+","altim":1019,"clouds":[],"obsTime":1783530000},"SBIH":{"icaoId":"SBIH","flightCategory":"VFR","rawOb":"METAR SBIH 081700Z 03010KT 9999 SCT017 34/24 Q1013","temp":34,"dewp":24,"wdir":30,"wspd":10,"visib":"6+","altim":1013,"clouds":[{"cover":"SCT","base":1700}],"obsTime":1783530000},"SBMT":{"icaoId":"SBMT","flightCategory":"VFR","rawOb":"METAR SBMT 081700Z 33003KT CAVOK 22/08 Q1021","temp":22,"dewp":8,"wdir":330,"wspd":3,"visib":"6+","altim":1021,"clouds":[],"obsTime":1783530000},"SBST":{"icaoId":"SBST","flightCategory":"MVFR","rawOb":"METAR SBST 081700Z 15005KT 9000 BKN024 18/13 Q1021","temp":18,"dewp":13,"wdir":150,"wspd":5,"visib":5.59,"altim":1021,"clouds":[{"cover":"BKN","base":2400}],"obsTime":1783530000},"SBTA":{"icaoId":"SBTA","flightCategory":"VFR","rawOb":"METAR SBTA 081700Z 23005KT 200V290 9999 FEW030 23/13 Q1019","temp":23,"dewp":13,"wdir":230,"wspd":5,"visib":"6+","altim":1019,"clouds":[{"cover":"FEW","base":3000}],"obsTime":1783530000},"SBAF":{"icaoId":"SBAF","flightCategory":"VFR","rawOb":"METAR SBAF 081700Z 19010KT 9999 FEW020 BKN035 21/17 Q1020","temp":21,"dewp":17,"wdir":190,"wspd":10,"visib":"6+","altim":1020,"clouds":[{"cover":"FEW","base":2000},{"cover":"BKN","base":3500}],"obsTime":1783530000},"SBGW":{"icaoId":"SBGW","flightCategory":"VFR","rawOb":"METAR SBGW 081700Z 18004KT 9999 FEW025 23/11 Q1020","temp":23,"dewp":11,"wdir":180,"wspd":4,"visib":"6+","altim":1020,"clouds":[{"cover":"FEW","base":2500}],"obsTime":1783530000},"SBJR":{"icaoId":"SBJR","flightCategory":"VFR","rawOb":"METAR SBJR 081700Z 20005KT 9999 SCT020 BKN035 24/15 Q1020","temp":24,"dewp":15,"wdir":200,"wspd":5,"visib":"6+","altim":1020,"clouds":[{"cover":"SCT","base":2000},{"cover":"BKN","base":3500}],"obsTime":1783530000},"SBLS":{"icaoId":"SBLS","flightCategory":"VFR","rawOb":"METAR SBLS 081700Z 28006KT 220V310 9999 SCT030 26/09 Q1021","temp":26,"dewp":9,"wdir":280,"wspd":6,"visib":"6+","altim":1021,"clouds":[{"cover":"SCT","base":3000}],"obsTime":1783530000}}}