{"updated":1783940294,"count":73,"data":{"SBTE":{"icaoId":"SBTE","flightCategory":"VFR","rawOb":"METAR SBTE 130900Z 31003KT CAVOK 24/23 Q1012","temp":24,"dewp":23,"wdir":310,"wspd":3,"visib":"6+","altim":1012,"clouds":[],"obsTime":1783933200},"SBLO":{"icaoId":"SBLO","flightCategory":"VFR","rawOb":"METAR SBLO 130900Z 20003KT CAVOK 10/07 Q1018","temp":10,"dewp":7,"wdir":200,"wspd":3,"visib":"6+","altim":1018,"clouds":[],"obsTime":1783933200},"SBPJ":{"icaoId":"SBPJ","flightCategory":"VFR","rawOb":"METAR SBPJ 130900Z 12002KT CAVOK 23/20 Q1014","temp":23,"dewp":20,"wdir":120,"wspd":2,"visib":"6+","altim":1014,"clouds":[],"obsTime":1783933200},"SBPV":{"icaoId":"SBPV","flightCategory":"VFR","rawOb":"METAR SBPV 130900Z 00000KT 9999 FEW030 22/21 Q1014","temp":22,"dewp":21,"wdir":0,"wspd":0,"visib":"6+","altim":1014,"clouds":[{"cover":"FEW","base":3000}],"obsTime":1783933200},"SBMO":{"icaoId":"SBMO","flightCategory":"VFR","rawOb":"METAR SBMO 130900Z 33004KT 9999 FEW020 19/19 Q1014","temp":19,"dewp":19,"wdir":330,"wspd":4,"visib":"6+","altim":1014,"clouds":[{"cover":"FEW","base":2000}],"obsTime":1783933200},"SBRF":{"icaoId":"SBRF","flightCategory":"VFR","rawOb":"METAR SBRF 130900Z 33003KT 9999 FEW022 21/21 Q1014","temp":21,"dewp":21,"wdir":330,"wspd":3,"visib":"6+","altim":1014,"clouds":[{"cover":"FEW","base":2200}],"obsTime":1783933200},"SBFZ":{"icaoId":"SBFZ","flightCategory":"MVFR","rawOb":"METAR SBFZ 130900Z 14006KT 9999 BKN020 BKN070 26/24 Q1013","temp":26,"dewp":24,"wdir":140,"wspd":6,"visib":"6+","altim":1013,"clouds":[{"cover":"BKN","base":2000},{"cover":"BKN","base":7000}],"obsTime":1783933200},"SBSV":{"icaoId":"SBSV","flightCategory":"VFR","rawOb":"METAR SBSV 130900Z 35003KT 9999 FEW019 SCT100 22/21 Q1014","temp":22,"dewp":21,"wdir":350,"wspd":3,"visib":"6+","altim":1014,"clouds":[{"cover":"FEW","base":1900},{"cover":"SCT","base":10000}],"obsTime":1783933200},"SBUL":{"icaoId":"SBUL","flightCategory":"VFR","rawOb":"METAR SBUL 130900Z 26008KT 9999 FEW004 SCT014 BKN070 17/17 Q1019","temp":17,"dewp":17,"wdir":260,"wspd":8,"visib":"6+","altim":1019,"clouds":[{"cover":"FEW","base":400},{"cover":"SCT","base":1400},{"cover":"BKN","base":7000}],"obsTime":1783933200},"SBUR":{"icaoId":"SBUR","flightCategory":"IFR","rawOb":"METAR SBUR 130900Z 23006KT 9999 BKN006 OVC090 18/17 Q1018","temp":18,"dewp":17,"wdir":230,"wspd":6,"visib":"6+","altim":1018,"clouds":[{"cover":"BKN","base":600},{"cover":"OVC","base":9000}],"obsTime":1783933200},"SBNT":{"icaoId":"SBNT","flightCategory":"VFR","rawOb":"METAR SBNT 130900Z 22002KT 9999 SCT020 22/21 Q1014","temp":22,"dewp":21,"wdir":220,"wspd":2,"visib":"6+","altim":1014,"clouds":[{"cover":"SCT","base":2000}],"obsTime":1783933200},"SBSG":{"icaoId":"SBSG","flightCategory":"VFR","rawOb":"METAR SBSG 130900Z 21004KT 9999 VCSH SCT023 SCT040 22/22 Q1015","temp":22,"dewp":22,"wdir":210,"wspd":4,"visib":"6+","altim":1015,"clouds":[{"cover":"SCT","base":2300},{"cover":"SCT","base":4000}],"obsTime":1783933200},"SBMA":{"icaoId":"SBMA","flightCategory":"VFR","rawOb":"METAR SBMA 130900Z 00000KT CAVOK 24/23 Q1013","temp":24,"dewp":23,"wdir":0,"wspd":0,"visib":"6+","altim":1013,"clouds":[],"obsTime":1783933200},"SBGL":{"icaoId":"SBGL","flightCategory":"MVFR","rawOb":"METAR SBGL 130900Z 28007KT 9999 -RA BKN025 OVC060 19/15 Q1017","temp":19,"dewp":15,"wdir":280,"wspd":7,"visib":"6+","altim":1017,"clouds":[{"cover":"BKN","base":2500},{"cover":"OVC","base":6000}],"obsTime":1783933200},"SBGR":{"icaoId":"SBGR","flightCategory":"MVFR","rawOb":"METAR SBGR 130900Z 16005KT 9999 OVC015 12/09 Q1019","temp":12,"dewp":9,"wdir":160,"wspd":5,"visib":"6+","altim":1019,"clouds":[{"cover":"OVC","base":1500}],"obsTime":1783933200},"SBRB":{"icaoId":"SBRB","flightCategory":"VFR","rawOb":"METAR SBRB 130900Z 15003KT 9999 FEW015 22/22 Q1016","temp":22,"dewp":22,"wdir":150,"wspd":3,"visib":"6+","altim":1016,"clouds":[{"cover":"FEW","base":1500}],"obsTime":1783933200},"SBKP":{"icaoId":"SBKP","flightCategory":"VFR","rawOb":"METAR SBKP 130900Z 15006KT 9999 BKN036 13/10 Q1018","temp":13,"dewp":10,"wdir":150,"wspd":6,"visib":"6+","altim":1018,"clouds":[{"cover":"BKN","base":3600}],"obsTime":1783933200},"SBBV":{"icaoId":"SBBV","flightCategory":"VFR","rawOb":"METAR SBBV 130900Z 26003KT 9999 SCT040 FEW045TCU BKN100 24/23 Q1014","temp":24,"dewp":23,"wdir":260,"wspd":3,"visib":"6+","altim":1014,"clouds":[{"cover":"SCT","base":4000},{"cover":"FEW","base":4500},{"cover":"BKN","base":10000}],"obsTime":1783933200},"SBGO":{"icaoId":"SBGO","flightCategory":"VFR","rawOb":"METAR SBGO 130900Z 28002KT CAVOK 18/16 Q1018","temp":18,"dewp":16,"wdir":280,"wspd":2,"visib":"6+","altim":1018,"clouds":[],"obsTime":1783933200},"SBPA":{"icaoId":"SBPA","flightCategory":"IFR","rawOb":"METAR SBPA 130900Z 28006KT 260V330 9999 OVC008 11/10 Q1022","temp":11,"dewp":10,"wdir":280,"wspd":6,"visib":"6+","altim":1022,"clouds":[{"cover":"OVC","base":800}],"obsTime":1783933200},"SBEG":{"icaoId":"SBEG","flightCategory":"VFR","rawOb":"METAR SBEG 130900Z 21002KT CAVOK 25/24 Q1013","temp":25,"dewp":24,"wdir":210,"wspd":2,"visib":"6+","altim":1013,"clouds":[],"obsTime":1783933200},"SBBR":{"icaoId":"SBBR","flightCategory":"VFR","rawOb":"METAR SBBR 130900Z 00000KT CAVOK 17/13 Q1020","temp":17,"dewp":13,"wdir":0,"wspd":0,"visib":"6+","altim":1020,"clouds":[],"obsTime":1783933200},"SBCF":{"icaoId":"SBCF","flightCategory":"VFR","rawOb":"METAR SBCF 130900Z VRB01KT CAVOK 17/13 Q1017","temp":17,"dewp":13,"wdir":"VRB","wspd":1,"visib":"6+","altim":1017,"clouds":[],"obsTime":1783933200},"SBBE":{"icaoId":"SBBE","flightCategory":"VFR","rawOb":"METAR SBBE 130900Z 05002KT CAVOK 25/24 Q1014","temp":25,"dewp":24,"wdir":50,"wspd":2,"visib":"6+","altim":1014,"clouds":[],"obsTime":1783933200},"SBSN":{"icaoId":"SBSN","flightCategory":"VFR","rawOb":"METAR SBSN 130900Z 13002KT CAVOK 23/22 Q1013","temp":23,"dewp":22,"wdir":130,"wspd":2,"visib":"6+","altim":1013,"clouds":[],"obsTime":1783933200},"SBSL":{"icaoId":"SBSL","flightCategory":"VFR","rawOb":"METAR SBSL 130900Z 05009KT 9999 FEW017 26/25 Q1013","temp":26,"dewp":25,"wdir":50,"wspd":9,"visib":"6+","altim":1013,"clouds":[{"cover":"FEW","base":1700}],"obsTime":1783933200},"SBVT":{"icaoId":"SBVT","flightCategory":"VFR","rawOb":"METAR SBVT 130900Z 22011KT 9999 FEW020 SCT040 BKN100 21/17 Q1014","temp":21,"dewp":17,"wdir":220,"wspd":11,"visib":"6+","altim":1014,"clouds":[{"cover":"FEW","base":2000},{"cover":"SCT","base":4000},{"cover":"BKN","base":10000}],"obsTime":1783933200},"SBCB":{"icaoId":"SBCB","flightCategory":"MVFR","rawOb":"METAR SBCB 130900Z 30010KT 8000 FEW009 SCT030 20/17 Q1015","temp":20,"dewp":17,"wdir":300,"wspd":10,"visib":4.97,"altim":1015,"clouds":[{"cover":"FEW","base":900},{"cover":"SCT","base":3000}],"obsTime":1783933200},"SBCT":{"icaoId":"SBCT","flightCategory":"VFR","rawOb":"METAR SBCT 130900Z 21004KT 080V220 CAVOK 06/06 Q1020","temp":6,"dewp":6,"wdir":210,"wspd":4,"visib":"6+","altim":1020,"clouds":[],"obsTime":1783933200},"SBSP":{"icaoId":"SBSP","flightCategory":"MVFR","rawOb":"METAR SBSP 130900Z 18010KT 9999 BKN017 OVC027 12/09 Q1020","temp":12,"dewp":9,"wdir":180,"wspd":10,"visib":"6+","altim":1020,"clouds":[{"cover":"BKN","base":1700},{"cover":"OVC","base":2700}],"obsTime":1783933200},"SBHT":{"icaoId":"SBHT","flightCategory":"VFR","rawOb":"METAR SBHT 131000Z 00000KT 9999 FEW012 23/23 Q1014","temp":23,"dewp":23,"wdir":0,"wspd":0,"visib":"6+","altim":1014,"clouds":[{"cover":"FEW","base":1200}],"obsTime":1783936800},"SBMQ":{"icaoId":"SBMQ","flightCategory":"MVFR","rawOb":"METAR SBMQ 130900Z 27004KT 5000 -RA SCT007 OVC025 25/25 Q1014 RERA","temp":25,"dewp":25,"wdir":270,"wspd":4,"visib":3.11,"altim":1014,"clouds":[{"cover":"SCT","base":700},{"cover":"OVC","base":2500}],"obsTime":1783933200},"SBIL":{"icaoId":"SBIL","flightCategory":"VFR","rawOb":"METAR SBIL 131000Z 32003KT CAVOK 23/22 Q1014","temp":23,"dewp":22,"wdir":320,"wspd":3,"visib":"6+","altim":1014,"clouds":[],"obsTime":1783936800},"SBJU":{"icaoId":"SBJU","flightCategory":"VFR","rawOb":"METAR SBJU 130900Z 00000KT 9999 FEW020 19/17 Q1016","temp":19,"dewp":17,"wdir":0,"wspd":0,"visib":"6+","altim":1016,"clouds":[{"cover":"FEW","base":2000}],"obsTime":1783933200},"SBFL":{"icaoId":"SBFL","flightCategory":"VFR","rawOb":"METAR SBFL 130900Z 17006KT 9999 FEW036 12/09 Q1020","temp":12,"dewp":9,"wdir":170,"wspd":6,"visib":"6+","altim":1020,"clouds":[{"cover":"FEW","base":3600}],"obsTime":1783933200},"SBCG":{"icaoId":"SBCG","flightCategory":"VFR","rawOb":"METAR SBCG 130900Z 13009KT CAVOK 12/10 Q1019","temp":12,"dewp":10,"wdir":130,"wspd":9,"visib":"6+","altim":1019,"clouds":[],"obsTime":1783933200},"SBFI":{"icaoId":"SBFI","flightCategory":"VFR","rawOb":"METAR SBFI 130900Z 00000KT CAVOK 06/06 Q1021","temp":6,"dewp":6,"wdir":0,"wspd":0,"visib":"6+","altim":1021,"clouds":[],"obsTime":1783933200},"SBMG":{"icaoId":"SBMG","flightCategory":"VFR","rawOb":"METAR SBMG 130900Z AUTO 17010KT CAVOK 09/08 Q1019","temp":9,"dewp":8,"wdir":170,"wspd":10,"visib":"6+","altim":1019,"clouds":[],"obsTime":1783933200},"SBCP":{"icaoId":"SBCP","flightCategory":"MVFR","rawOb":"METAR SBCP 131000Z COR 22012KT 9999 BKN020 OVC100 20/16 Q1015","temp":20,"dewp":16,"wdir":220,"wspd":12,"visib":"6+","altim":1015,"clouds":[{"cover":"BKN","base":2000},{"cover":"OVC","base":10000}],"obsTime":1783936800},"SBME":{"icaoId":"SBME","flightCategory":"VFR","rawOb":"METAR SBME 130900Z 23009KT 200V260 9999 FEW035 BKN070 19/15 Q1015","temp":19,"dewp":15,"wdir":230,"wspd":9,"visib":"6+","altim":1015,"clouds":[{"cover":"FEW","base":3500},{"cover":"BKN","base":7000}],"obsTime":1783933200},"SBMK":{"icaoId":"SBMK","flightCategory":"VFR","rawOb":"METAR SBMK 130900Z 00000KT CAVOK 16/14 Q1016","temp":16,"dewp":14,"wdir":0,"wspd":0,"visib":"6+","altim":1016,"clouds":[],"obsTime":1783933200},"SBPB":{"icaoId":"SBPB","flightCategory":"VFR","rawOb":"SPECI SBPB 131015Z 11007KT 9999 FEW020 27/23 Q1014","temp":27,"dewp":23,"wdir":110,"wspd":7,"visib":"6+","altim":1014,"clouds":[{"cover":"FEW","base":2000}],"obsTime":1783937700},"SBCJ":{"icaoId":"SBCJ","flightCategory":"VFR","rawOb":"SPECI SBCJ 131015Z 00000KT CAVOK 23/21 Q1017","temp":23,"dewp":21,"wdir":0,"wspd":0,"visib":"6+","altim":1017,"clouds":[],"obsTime":1783937700},"SBSJ":{"icaoId":"SBSJ","flightCategory":"MVFR","rawOb":"METAR SBSJ 130900Z 13001KT 5000 BR OVC025 13/10 Q1019","temp":13,"dewp":10,"wdir":130,"wspd":1,"visib":3.11,"altim":1019,"clouds":[{"cover":"OVC","base":2500}],"obsTime":1783933200},"SBSC":{"icaoId":"SBSC","flightCategory":"IFR","rawOb":"METAR SBSC 130900Z 20009KT 3000 -RA BR SCT005 BKN015 OVC050 18/15 Q1016","temp":18,"dewp":15,"wdir":200,"wspd":9,"visib":1.86,"altim":1016,"clouds":[{"cover":"SCT","base":500},{"cover":"BKN","base":1500},{"cover":"OVC","base":5000}],"obsTime":1783933200},"SBSR":{"icaoId":"SBSR","flightCategory":"VFR","rawOb":"METAR SBSR 130900Z 22005KT CAVOK 16/15 Q1017","temp":16,"dewp":15,"wdir":220,"wspd":5,"visib":"6+","altim":1017,"clouds":[],"obsTime":1783933200},"SBES":{"icaoId":"SBES","flightCategory":"VFR","rawOb":"METAR SBES 130900Z 26006KT 200V320 9999 SCT015 BKN050 17/// Q1015","temp":null,"dewp":null,"wdir":260,"wspd":6,"visib":"6+","altim":1015,"clouds":[{"cover":"SCT","base":1500},{"cover":"BKN","base":5000}],"obsTime":1783933200},"SBTU":{"icaoId":"SBTU","flightCategory":"VFR","rawOb":"METAR SBTU 130900Z AUTO 18008KT 9999 // NCD 24/23 Q1015","temp":24,"dewp":23,"wdir":180,"wspd":8,"visib":"6+","altim":1015,"clouds":[],"obsTime":1783933200},"SBKG":{"icaoId":"SBKG","flightCategory":"MVFR","rawOb":"METAR SBKG 130900Z 07006KT 9999 BKN010 21/20 Q1016","temp":21,"dewp":20,"wdir":70,"wspd":6,"visib":"6+","altim":1016,"clouds":[{"cover":"BKN","base":1000}],"obsTime":1783933200},"SBAR":{"icaoId":"SBAR","flightCategory":"VFR","rawOb":"METAR SBAR 130900Z 24002KT 9999 FEW020 19/19 Q1014","temp":19,"dewp":19,"wdir":240,"wspd":2,"visib":"6+","altim":1014,"clouds":[{"cover":"FEW","base":2000}],"obsTime":1783933200},"SBPL":{"icaoId":"SBPL","flightCategory":"VFR","rawOb":"METAR SBPL 130900Z 15002KT CAVOK 19/16 Q1015","temp":19,"dewp":16,"wdir":150,"wspd":2,"visib":"6+","altim":1015,"clouds":[],"obsTime":1783933200},"SBOI":{"icaoId":"SBOI","flightCategory":"VFR","rawOb":"METAR SBOI 130900Z AUTO VRB01KT 9000 NSC 24/23 Q1014","temp":24,"dewp":23,"wdir":"VRB","wspd":1,"visib":5.59,"altim":1014,"clouds":[],"obsTime":1783933200},"SBCA":{"icaoId":"SBCA","flightCategory":"LIFR","rawOb":"METAR SBCA 130900Z 17008KT 0300 FG VV000 07/06 Q1021","temp":7,"dewp":6,"wdir":170,"wspd":8,"visib":0.19,"altim":1021,"clouds":[{"cover":"OVX","base":0}],"obsTime":1783933200},"SBPS":{"icaoId":"SBPS","flightCategory":"VFR","rawOb":"METAR SBPS 130900Z 35006KT 9999 FEW020 22/21 Q1013","temp":22,"dewp":21,"wdir":350,"wspd":6,"visib":"6+","altim":1013,"clouds":[{"cover":"FEW","base":2000}],"obsTime":1783933200},"SBCO":{"icaoId":"SBCO","flightCategory":"IFR","rawOb":"METAR SBCO 130900Z 29004KT 9999 BKN007 11/10 Q1022","temp":11,"dewp":10,"wdir":290,"wspd":4,"visib":"6+","altim":1022,"clouds":[{"cover":"BKN","base":700}],"obsTime":1783933200},"SBSM":{"icaoId":"SBSM","flightCategory":"MVFR","rawOb":"METAR SBSM 130900Z 27003KT 9999 BKN010 OVC030 10/09 Q1023","temp":10,"dewp":9,"wdir":270,"wspd":3,"visib":"6+","altim":1023,"clouds":[{"cover":"BKN","base":1000},{"cover":"OVC","base":3000}],"obsTime":1783933200},"SBAX":{"icaoId":"SBAX","flightCategory":"VFR","rawOb":"METAR SBAX 130900Z AUTO 31003KT 9999 FEW040 ///// Q1018","temp":null,"dewp":null,"wdir":310,"wspd":3,"visib":"6+","altim":1018,"clouds":[{"cover":"FEW","base":4000}],"obsTime":1783933200},"SBBH":{"icaoId":"SBBH","flightCategory":"VFR","rawOb":"METAR SBBH 130900Z 00000KT CAVOK 16/15 Q1016","temp":16,"dewp":15,"wdir":0,"wspd":0,"visib":"6+","altim":1016,"clouds":[],"obsTime":1783933200},"SBDN":{"icaoId":"SBDN","flightCategory":"VFR","rawOb":"METAR SBDN 130900Z 00000KT CAVOK 09/08 Q1018","temp":9,"dewp":8,"wdir":0,"wspd":0,"visib":"6+","altim":1018,"clouds":[],"obsTime":1783933200},"SBBU":{"icaoId":"SBBU","flightCategory":"VFR","rawOb":"METAR SBBU 130900Z 15007KT 9999 SCT007 13/12 Q1018","temp":13,"dewp":12,"wdir":150,"wspd":7,"visib":"6+","altim":1018,"clouds":[{"cover":"SCT","base":700}],"obsTime":1783933200},"SBIP":{"icaoId":"SBIP","flightCategory":"VFR","rawOb":"METAR SBIP 130900Z AUTO 21002KT CAVOK 16/16 Q1013","temp":16,"dewp":16,"wdir":210,"wspd":2,"visib":"6+","altim":1013,"clouds":[],"obsTime":1783933200},"SBAF":{"icaoId":"SBAF","flightCategory":"MVFR","rawOb":"METAR SBAF 131000Z 26003KT 9999 FEW015 BKN030 OVC060 17/17 Q1017","temp":17,"dewp":17,"wdir":260,"wspd":3,"visib":"6+","altim":1017,"clouds":[{"cover":"FEW","base":1500},{"cover":"BKN","base":3000},{"cover":"OVC","base":6000}],"obsTime":1783936800},"SBGW":{"icaoId":"SBGW","flightCategory":"IFR","rawOb":"METAR SBGW 130900Z 20003KT 3000 HZ SCT008 OVC024 14/09 Q1018","temp":14,"dewp":9,"wdir":200,"wspd":3,"visib":1.86,"altim":1018,"clouds":[{"cover":"SCT","base":800},{"cover":"OVC","base":2400}],"obsTime":1783933200},"SBJR":{"icaoId":"SBJR","flightCategory":"MVFR","rawOb":"METAR SBJR 131000Z 27006KT 9999 -RA BKN020 OVC050 17/14 Q1017","temp":17,"dewp":14,"wdir":270,"wspd":6,"visib":"6+","altim":1017,"clouds":[{"cover":"BKN","base":2000},{"cover":"OVC","base":5000}],"obsTime":1783936800},"SBLS":{"icaoId":"SBLS","flightCategory":"VFR","rawOb":"METAR SBLS 130900Z 05003KT CAVOK 18/13 Q1016","temp":18,"dewp":13,"wdir":50,"wspd":3,"visib":"6+","altim":1016,"clouds":[],"obsTime":1783933200},"SBMT":{"icaoId":"SBMT","flightCategory":"MVFR","rawOb":"METAR SBMT 130900Z 14006KT 9999 BKN020 12/07 Q1019","temp":12,"dewp":7,"wdir":140,"wspd":6,"visib":"6+","altim":1019,"clouds":[{"cover":"BKN","base":2000}],"obsTime":1783933200},"SBTA":{"icaoId":"SBTA","flightCategory":"MVFR","rawOb":"METAR SBTA 130900Z 25004KT 210V290 9999 FEW010 OVC020 14/12 Q1018","temp":14,"dewp":12,"wdir":250,"wspd":4,"visib":"6+","altim":1018,"clouds":[{"cover":"FEW","base":1000},{"cover":"OVC","base":2000}],"obsTime":1783933200},"SBLE":{"icaoId":"SBLE","flightCategory":"VFR","rawOb":"METAR SBLE 130900Z AUTO 31004KT CAVOK ///// Q1016","temp":null,"dewp":null,"wdir":310,"wspd":4,"visib":"6+","altim":1016,"clouds":[],"obsTime":1783933200},"SBNM":{"icaoId":"SBNM","flightCategory":"MVFR","rawOb":"METAR SBNM 130900Z AUTO 15005KT 9999 BKN017 09/07 Q1023","temp":9,"dewp":7,"wdir":150,"wspd":5,"visib":"6+","altim":1023,"clouds":[{"cover":"BKN","base":1700}],"obsTime":1783933200},"SBJP":{"icaoId":"SBJP","flightCategory":"VFR","rawOb":"METAR SBJP 130900Z 23002KT 9999 FEW020 21/21 Q1014","temp":21,"dewp":21,"wdir":230,"wspd":2,"visib":"6+","altim":1014,"clouds":[{"cover":"FEW","base":2000}],"obsTime":1783933200},"SBPF":{"icaoId":"SBPF","flightCategory":"IFR","rawOb":"METAR SBPF 130900Z 17005KT 9999 BKN008 07/05 Q1022","temp":7,"dewp":5,"wdir":170,"wspd":5,"visib":"6+","altim":1022,"clouds":[{"cover":"BKN","base":800}],"obsTime":1783933200},"SBJV":{"icaoId":"SBJV","flightCategory":"VFR","rawOb":"METAR SBJV 130900Z 31003KT 9999 FEW010 11/10 Q1020","temp":11,"dewp":10,"wdir":310,"wspd":3,"visib":"6+","altim":1020,"clouds":[{"cover":"FEW","base":1000}],"obsTime":1783933200},"SBAN":{"icaoId":"SBAN","flightCategory":"VFR","rawOb":"METAR SBAN 130900Z 19006KT CAVOK 19/13 Q1020","temp":19,"dewp":13,"wdir":190,"wspd":6,"visib":"6+","altim":1020,"clouds":[],"obsTime":1783933200}}}