{"updated":1778590753,"count":87,"data":{"SBFI":{"icaoId":"SBFI","flightCategory":"LIFR","rawOb":"METAR SBFI 121100Z 11002KT 0500 R33/0375 R15/0600 FG SCT001 05/05 Q1021","temp":5,"dewp":5,"wdir":110,"wspd":2,"visib":0.31,"altim":1021,"clouds":[{"cover":"SCT","base":100}],"obsTime":1778583600},"SBMQ":{"icaoId":"SBMQ","flightCategory":"VFR","rawOb":"METAR SBMQ 121100Z 01004KT 9999 SCT005 BKN033 27/26 Q1013","temp":27,"dewp":26,"wdir":10,"wspd":4,"visib":"6+","altim":1013,"clouds":[{"cover":"SCT","base":500},{"cover":"BKN","base":3300}],"obsTime":1778583600},"SBBR":{"icaoId":"SBBR","flightCategory":"VFR","rawOb":"METAR SBBR 121100Z VRB02KT CAVOK 18/16 Q1022","temp":18,"dewp":16,"wdir":"VRB","wspd":2,"visib":"6+","altim":1022,"clouds":[],"obsTime":1778583600},"SBBV":{"icaoId":"SBBV","flightCategory":"MVFR","rawOb":"METAR SBBV 121100Z 35002KT 8000 -RA FEW007 BKN015 FEW030TCU BKN070 23/23 Q1015","temp":23,"dewp":23,"wdir":350,"wspd":2,"visib":4.97,"altim":1015,"clouds":[{"cover":"FEW","base":700},{"cover":"BKN","base":1500},{"cover":"FEW","base":3000},{"cover":"BKN","base":7000}],"obsTime":1778583600},"SBAT":{"icaoId":"SBAT","flightCategory":"VFR","rawOb":"METAR SBAT 121100Z 20004KT 9999 FEW020 22/20 Q1015","temp":22,"dewp":20,"wdir":200,"wspd":4,"visib":"6+","altim":1015,"clouds":[{"cover":"FEW","base":2000}],"obsTime":1778583600},"SBBE":{"icaoId":"SBBE","flightCategory":"LIFR","rawOb":"METAR SBBE 121100Z 12004KT 9999 BKN004 BKN015 26/25 Q1012","temp":26,"dewp":25,"wdir":120,"wspd":4,"visib":"6+","altim":1012,"clouds":[{"cover":"BKN","base":400},{"cover":"BKN","base":1500}],"obsTime":1778583600},"SBCB":{"icaoId":"SBCB","flightCategory":"VFR","rawOb":"METAR SBCB 121100Z 28015KT 9999 FEW025 21/15 Q1021","temp":21,"dewp":15,"wdir":280,"wspd":15,"visib":"6+","altim":1021,"clouds":[{"cover":"FEW","base":2500}],"obsTime":1778583600},"SBCF":{"icaoId":"SBCF","flightCategory":"VFR","rawOb":"METAR SBCF 121100Z 14007KT 9999 FEW016 20/18 Q1021","temp":20,"dewp":18,"wdir":140,"wspd":7,"visib":"6+","altim":1021,"clouds":[{"cover":"FEW","base":1600}],"obsTime":1778583600},"SBCG":{"icaoId":"SBCG","flightCategory":"VFR","rawOb":"METAR SBCG 121100Z 10006KT CAVOK 12/08 Q1020","temp":12,"dewp":8,"wdir":100,"wspd":6,"visib":"6+","altim":1020,"clouds":[],"obsTime":1778583600},"SBCP":{"icaoId":"SBCP","flightCategory":"VFR","rawOb":"METAR SBCP 121100Z 23012KT CAVOK 21/15 Q1020","temp":21,"dewp":15,"wdir":230,"wspd":12,"visib":"6+","altim":1020,"clouds":[],"obsTime":1778583600},"SBCR":{"icaoId":"SBCR","flightCategory":"VFR","rawOb":"METAR SBCR 121100Z VRB01KT CAVOK 12/10 Q1019","temp":12,"dewp":10,"wdir":"VRB","wspd":1,"visib":"6+","altim":1019,"clouds":[],"obsTime":1778583600},"SBCT":{"icaoId":"SBCT","flightCategory":"VFR","rawOb":"METAR SBCT 121100Z 00000KT CAVOK 06/05 Q1023","temp":6,"dewp":5,"wdir":0,"wspd":0,"visib":"6+","altim":1023,"clouds":[],"obsTime":1778583600},"SBCZ":{"icaoId":"SBCZ","flightCategory":"VFR","rawOb":"METAR SBCZ 121200Z 21003KT 150V250 9999 FEW003 BKN080 17/16 Q1018","temp":17,"dewp":16,"wdir":210,"wspd":3,"visib":"6+","altim":1018,"clouds":[{"cover":"FEW","base":300},{"cover":"BKN","base":8000}],"obsTime":1778587200},"SBEG":{"icaoId":"SBEG","flightCategory":"MVFR","rawOb":"METAR SBEG 121100Z 20004KT 9999 BKN012 BKN070 24/23 Q1014","temp":24,"dewp":23,"wdir":200,"wspd":4,"visib":"6+","altim":1014,"clouds":[{"cover":"BKN","base":1200},{"cover":"BKN","base":7000}],"obsTime":1778583600},"SBFL":{"icaoId":"SBFL","flightCategory":"VFR","rawOb":"METAR SBFL 121100Z 29005KT CAVOK 14/10 Q1021","temp":14,"dewp":10,"wdir":290,"wspd":5,"visib":"6+","altim":1021,"clouds":[],"obsTime":1778583600},"SBFZ":{"icaoId":"SBFZ","flightCategory":"VFR","rawOb":"METAR SBFZ 121100Z 14009KT 100V160 9999 SCT018 28/25 Q1012","temp":28,"dewp":25,"wdir":140,"wspd":9,"visib":"6+","altim":1012,"clouds":[{"cover":"SCT","base":1800}],"obsTime":1778583600},"SBGL":{"icaoId":"SBGL","flightCategory":"VFR","rawOb":"METAR SBGL 121100Z 35003KT 9999 FEW045 20/16 Q1022","temp":20,"dewp":16,"wdir":350,"wspd":3,"visib":"6+","altim":1022,"clouds":[{"cover":"FEW","base":4500}],"obsTime":1778583600},"SBGO":{"icaoId":"SBGO","flightCategory":"VFR","rawOb":"METAR SBGO 121100Z 12006KT CAVOK 17/15 Q1020","temp":17,"dewp":15,"wdir":120,"wspd":6,"visib":"6+","altim":1020,"clouds":[],"obsTime":1778583600},"SBGR":{"icaoId":"SBGR","flightCategory":"IFR","rawOb":"METAR SBGR 121100Z 06007KT 5000 2000SW BR SCT006 OVC007 10/10 Q1023","temp":10,"dewp":10,"wdir":60,"wspd":7,"visib":3.11,"altim":1023,"clouds":[{"cover":"SCT","base":600},{"cover":"OVC","base":700}],"obsTime":1778583600},"SBHT":{"icaoId":"SBHT","flightCategory":"VFR","rawOb":"METAR SBHT 121100Z 00000KT 9999 FEW010 BKN080 26/25 Q1013","temp":26,"dewp":25,"wdir":0,"wspd":0,"visib":"6+","altim":1013,"clouds":[{"cover":"FEW","base":1000},{"cover":"BKN","base":8000}],"obsTime":1778583600},"SBIL":{"icaoId":"SBIL","flightCategory":"VFR","rawOb":"METAR SBIL 121100Z 24006KT 9999 SCT023 25/23 Q1017","temp":25,"dewp":23,"wdir":240,"wspd":6,"visib":"6+","altim":1017,"clouds":[{"cover":"SCT","base":2300}],"obsTime":1778583600},"SBJU":{"icaoId":"SBJU","flightCategory":"VFR","rawOb":"METAR SBJU 121100Z 18009KT 9999 FEW020 27/21 Q1015","temp":27,"dewp":21,"wdir":180,"wspd":9,"visib":"6+","altim":1015,"clouds":[{"cover":"FEW","base":2000}],"obsTime":1778583600},"SBKP":{"icaoId":"SBKP","flightCategory":"IFR","rawOb":"METAR SBKP 121100Z 11006KT 3000 BR BKN005 10/09 Q1022","temp":10,"dewp":9,"wdir":110,"wspd":6,"visib":1.86,"altim":1022,"clouds":[{"cover":"BKN","base":500}],"obsTime":1778583600},"SBLO":{"icaoId":"SBLO","flightCategory":"VFR","rawOb":"METAR SBLO 121100Z 22003KT CAVOK 09/07 Q1021","temp":9,"dewp":7,"wdir":220,"wspd":3,"visib":"6+","altim":1021,"clouds":[],"obsTime":1778583600},"SBMA":{"icaoId":"SBMA","flightCategory":"VFR","rawOb":"METAR SBMA 121100Z 01002KT 9999 SCT012 BKN080 27/25 Q1013","temp":27,"dewp":25,"wdir":10,"wspd":2,"visib":"6+","altim":1013,"clouds":[{"cover":"SCT","base":1200},{"cover":"BKN","base":8000}],"obsTime":1778583600},"SBME":{"icaoId":"SBME","flightCategory":"VFR","rawOb":"METAR SBME 121100Z 27007KT CAVOK 22/15 Q1020","temp":22,"dewp":15,"wdir":270,"wspd":7,"visib":"6+","altim":1020,"clouds":[],"obsTime":1778583600},"SBMG":{"icaoId":"SBMG","flightCategory":"VFR","rawOb":"METAR SBMG 121100Z 12005KT 9999 3500SW BCFG NSC 10/08 Q1020","temp":10,"dewp":8,"wdir":120,"wspd":5,"visib":"6+","altim":1020,"clouds":[],"obsTime":1778583600},"SBMK":{"icaoId":"SBMK","flightCategory":"VFR","rawOb":"METAR SBMK 121100Z 07009KT CAVOK 22/16 Q1020","temp":22,"dewp":16,"wdir":70,"wspd":9,"visib":"6+","altim":1020,"clouds":[],"obsTime":1778583600},"SBMO":{"icaoId":"SBMO","flightCategory":"MVFR","rawOb":"METAR SBMO 121100Z 26003KT 9999 VCSH SCT013 BKN030 BKN070 26/25 Q1015","temp":26,"dewp":25,"wdir":260,"wspd":3,"visib":"6+","altim":1015,"clouds":[{"cover":"SCT","base":1300},{"cover":"BKN","base":3000},{"cover":"BKN","base":7000}],"obsTime":1778583600},"SBNT":{"icaoId":"SBNT","flightCategory":"VFR","rawOb":"METAR SBNT 121100Z 16013KT 140V200 9999 FEW015 SCT027 27/23 Q1013","temp":27,"dewp":23,"wdir":160,"wspd":13,"visib":"6+","altim":1013,"clouds":[{"cover":"FEW","base":1500},{"cover":"SCT","base":2700}],"obsTime":1778583600},"SBPA":{"icaoId":"SBPA","flightCategory":"VFR","rawOb":"METAR SBPA 121100Z 00000KT CAVOK 08/07 Q1020","temp":8,"dewp":7,"wdir":0,"wspd":0,"visib":"6+","altim":1020,"clouds":[],"obsTime":1778583600},"SBPJ":{"icaoId":"SBPJ","flightCategory":"VFR","rawOb":"METAR SBPJ 121100Z 13003KT CAVOK 27/22 Q1014","temp":27,"dewp":22,"wdir":130,"wspd":3,"visib":"6+","altim":1014,"clouds":[],"obsTime":1778583600},"SBPV":{"icaoId":"SBPV","flightCategory":"VFR","rawOb":"METAR SBPV 121100Z 19003KT 9999 FEW010 20/17 Q1014","temp":20,"dewp":17,"wdir":190,"wspd":3,"visib":"6+","altim":1014,"clouds":[{"cover":"FEW","base":1000}],"obsTime":1778583600},"SBRB":{"icaoId":"SBRB","flightCategory":"VFR","rawOb":"METAR SBRB 121100Z 15005KT 9000 NSC 17/16 Q1017","temp":17,"dewp":16,"wdir":150,"wspd":5,"visib":5.59,"altim":1017,"clouds":[],"obsTime":1778583600},"SBRF":{"icaoId":"SBRF","flightCategory":"IFR","rawOb":"METAR SBRF 121100Z 17006KT 3200 -RA BR BKN006 BKN015 OVC060 25/24 Q1014","temp":25,"dewp":24,"wdir":170,"wspd":6,"visib":1.99,"altim":1014,"clouds":[{"cover":"BKN","base":600},{"cover":"BKN","base":1500},{"cover":"OVC","base":6000}],"obsTime":1778583600},"SBSG":{"icaoId":"SBSG","flightCategory":"MVFR","rawOb":"METAR SBSG 121100Z 17009KT 140V200 9999 BKN015 26/24 Q1014","temp":26,"dewp":24,"wdir":170,"wspd":9,"visib":"6+","altim":1014,"clouds":[{"cover":"BKN","base":1500}],"obsTime":1778583600},"SBSL":{"icaoId":"SBSL","flightCategory":"VFR","rawOb":"METAR SBSL 121100Z 15005KT 9999 SCT025 BKN045 26/25 Q1012","temp":26,"dewp":25,"wdir":150,"wspd":5,"visib":"6+","altim":1012,"clouds":[{"cover":"SCT","base":2500},{"cover":"BKN","base":4500}],"obsTime":1778583600},"SBSN":{"icaoId":"SBSN","flightCategory":"MVFR","rawOb":"METAR SBSN 121100Z 19005KT 140V220 7000 RA FEW010 SCT021 BKN040 23/22 Q1014","temp":23,"dewp":22,"wdir":190,"wspd":5,"visib":4.35,"altim":1014,"clouds":[{"cover":"FEW","base":1000},{"cover":"SCT","base":2100},{"cover":"BKN","base":4000}],"obsTime":1778583600},"SBSP":{"icaoId":"SBSP","flightCategory":"VFR","rawOb":"METAR SBSP 121100Z 10004KT 050V140 CAVOK 11/10 Q1024","temp":11,"dewp":10,"wdir":100,"wspd":4,"visib":"6+","altim":1024,"clouds":[],"obsTime":1778583600},"SBSV":{"icaoId":"SBSV","flightCategory":"VFR","rawOb":"METAR SBSV 121100Z 09005KT 060V120 9999 SCT020 BKN055 27/25 Q1015","temp":27,"dewp":25,"wdir":90,"wspd":5,"visib":"6+","altim":1015,"clouds":[{"cover":"SCT","base":2000},{"cover":"BKN","base":5500}],"obsTime":1778583600},"SBTE":{"icaoId":"SBTE","flightCategory":"VFR","rawOb":"METAR SBTE 121100Z 00000KT 9999 FEW015 27/24 Q1012","temp":27,"dewp":24,"wdir":0,"wspd":0,"visib":"6+","altim":1012,"clouds":[{"cover":"FEW","base":1500}],"obsTime":1778583600},"SBUL":{"icaoId":"SBUL","flightCategory":"VFR","rawOb":"METAR SBUL 121100Z 14008KT CAVOK 16/12 Q1021","temp":16,"dewp":12,"wdir":140,"wspd":8,"visib":"6+","altim":1021,"clouds":[],"obsTime":1778583600},"SBUR":{"icaoId":"SBUR","flightCategory":"VFR","rawOb":"METAR SBUR 121100Z 03002KT CAVOK 16/10 Q1021","temp":16,"dewp":10,"wdir":30,"wspd":2,"visib":"6+","altim":1021,"clouds":[],"obsTime":1778583600},"SBVT":{"icaoId":"SBVT","flightCategory":"VFR","rawOb":"METAR SBVT 121100Z 24007KT 9999 SCT030 BKN090 22/17 Q1019","temp":22,"dewp":17,"wdir":240,"wspd":7,"visib":"6+","altim":1019,"clouds":[{"cover":"SCT","base":3000},{"cover":"BKN","base":9000}],"obsTime":1778583600},"SBTU":{"icaoId":"SBTU","flightCategory":"VFR","rawOb":"METAR SBTU 121100Z AUTO 00000KT 9999 // ///////// ///// Q1014","temp":null,"dewp":null,"wdir":0,"wspd":0,"visib":"6+","altim":1014,"clouds":[],"obsTime":1778583600},"SBCO":{"icaoId":"SBCO","flightCategory":"VFR","rawOb":"METAR SBCO 121100Z 28002KT CAVOK 07/06 Q1021","temp":7,"dewp":6,"wdir":280,"wspd":2,"visib":"6+","altim":1021,"clouds":[],"obsTime":1778583600},"SBSC":{"icaoId":"SBSC","flightCategory":"VFR","rawOb":"METAR SBSC 121100Z 35003KT 9999 FEW020 20/17 Q1022","temp":20,"dewp":17,"wdir":350,"wspd":3,"visib":"6+","altim":1022,"clouds":[{"cover":"FEW","base":2000}],"obsTime":1778583600},"SBBU":{"icaoId":"SBBU","flightCategory":"LIFR","rawOb":"METAR SBBU 121100Z 08003KT 9999 BKN002 10/09 Q1021","temp":10,"dewp":9,"wdir":80,"wspd":3,"visib":"6+","altim":1021,"clouds":[{"cover":"BKN","base":200}],"obsTime":1778583600},"SBSJ":{"icaoId":"SBSJ","flightCategory":"LIFR","rawOb":"METAR SBSJ 121100Z VRB02KT 1000 R16/P2000 R34/P2000 BCFG BKN005 11/09 Q1024","temp":11,"dewp":9,"wdir":"VRB","wspd":2,"visib":0.62,"altim":1024,"clouds":[{"cover":"BKN","base":500}],"obsTime":1778583600},"SBDN":{"icaoId":"SBDN","flightCategory":"VFR","rawOb":"METAR SBDN 121100Z 07004KT CAVOK 10/08 Q1021","temp":10,"dewp":8,"wdir":70,"wspd":4,"visib":"6+","altim":1021,"clouds":[],"obsTime":1778583600},"SBSM":{"icaoId":"SBSM","flightCategory":"VFR","rawOb":"METAR SBSM 121100Z 00000KT CAVOK 05/05 Q1021","temp":5,"dewp":5,"wdir":0,"wspd":0,"visib":"6+","altim":1021,"clouds":[],"obsTime":1778583600},"SBES":{"icaoId":"SBES","flightCategory":"VFR","rawOb":"METAR SBES 121100Z 00000KT 9999 FEW020 20/// Q1021","temp":null,"dewp":null,"wdir":0,"wspd":0,"visib":"6+","altim":1021,"clouds":[{"cover":"FEW","base":2000}],"obsTime":1778583600},"SBSR":{"icaoId":"SBSR","flightCategory":"VFR","rawOb":"METAR SBSR 121100Z 14003KT CAVOK 13/08 Q1021","temp":13,"dewp":8,"wdir":140,"wspd":3,"visib":"6+","altim":1021,"clouds":[],"obsTime":1778583600},"SBAR":{"icaoId":"SBAR","flightCategory":"VFR","rawOb":"METAR SBAR 121100Z VRB02KT 9999 FEW015 SCT025 BKN050 27/24 Q1015","temp":27,"dewp":24,"wdir":"VRB","wspd":2,"visib":"6+","altim":1015,"clouds":[{"cover":"FEW","base":1500},{"cover":"SCT","base":2500},{"cover":"BKN","base":5000}],"obsTime":1778583600},"SBTD":{"icaoId":"SBTD","flightCategory":"VFR","rawOb":"METAR SBTD 121100Z /////KT CAVOK 09/05 Q1021","temp":9,"dewp":5,"wdir":null,"wspd":null,"visib":"6+","altim":1021,"clouds":[],"obsTime":1778583600},"SBTF":{"icaoId":"SBTF","flightCategory":"VFR","rawOb":"SPECI SBTF 121115Z 21005KT 9999 FEW005 BKN090 22/21 Q1015","temp":22,"dewp":21,"wdir":210,"wspd":5,"visib":"6+","altim":1015,"clouds":[{"cover":"FEW","base":500},{"cover":"BKN","base":9000}],"obsTime":1778584500},"SBGM":{"icaoId":"SBGM","flightCategory":"VFR","rawOb":"METAR SBGM 121200Z 12007KT CAVOK 18/16 Q1017","temp":18,"dewp":16,"wdir":120,"wspd":7,"visib":"6+","altim":1017,"clouds":[],"obsTime":1778587200},"SBTT":{"icaoId":"SBTT","flightCategory":"MVFR","rawOb":"METAR SBTT 121100Z 24005KT 9999 SCT010 OVC018 20/17 Q1017","temp":20,"dewp":17,"wdir":240,"wspd":5,"visib":"6+","altim":1017,"clouds":[{"cover":"SCT","base":1000},{"cover":"OVC","base":1800}],"obsTime":1778583600},"SBCA":{"icaoId":"SBCA","flightCategory":"VFR","rawOb":"METAR SBCA 121100Z 03008KT CAVOK 12/05 Q1022","temp":12,"dewp":5,"wdir":30,"wspd":8,"visib":"6+","altim":1022,"clouds":[],"obsTime":1778583600},"SBPS":{"icaoId":"SBPS","flightCategory":"VFR","rawOb":"METAR SBPS 121100Z 25005KT CAVOK 24/22 Q1017","temp":24,"dewp":22,"wdir":250,"wspd":5,"visib":"6+","altim":1017,"clouds":[],"obsTime":1778583600},"SBAX":{"icaoId":"SBAX","flightCategory":"VFR","rawOb":"METAR SBAX 121100Z 07003KT CAVOK 16/16 Q1021","temp":16,"dewp":16,"wdir":70,"wspd":3,"visib":"6+","altim":1021,"clouds":[],"obsTime":1778583600},"SBPL":{"icaoId":"SBPL","flightCategory":"MVFR","rawOb":"METAR SBPL 121100Z 13008KT 9999 BKN020 26/21 Q1016","temp":26,"dewp":21,"wdir":130,"wspd":8,"visib":"6+","altim":1016,"clouds":[{"cover":"BKN","base":2000}],"obsTime":1778583600},"SBCJ":{"icaoId":"SBCJ","flightCategory":"VFR","rawOb":"METAR SBCJ 121100Z 00000KT CAVOK 24/21 Q1016","temp":24,"dewp":21,"wdir":0,"wspd":0,"visib":"6+","altim":1016,"clouds":[],"obsTime":1778583600},"SBPP":{"icaoId":"SBPP","flightCategory":"VFR","rawOb":"SPECI SBPP 121115Z 06005KT CAVOK 09/07 Q1021","temp":9,"dewp":7,"wdir":60,"wspd":5,"visib":"6+","altim":1021,"clouds":[],"obsTime":1778584500},"SBUY":{"icaoId":"SBUY","flightCategory":"VFR","rawOb":"METAR SBUY 121100Z 00000KT 9999 FEW020 BKN100 20/20 Q1014","temp":20,"dewp":20,"wdir":0,"wspd":0,"visib":"6+","altim":1014,"clouds":[{"cover":"FEW","base":2000},{"cover":"BKN","base":10000}],"obsTime":1778583600},"SBIP":{"icaoId":"SBIP","flightCategory":"MVFR","rawOb":"METAR SBIP 121100Z AUTO 16003KT 9999 OVC020 21/20 Q1020","temp":21,"dewp":20,"wdir":160,"wspd":3,"visib":"6+","altim":1020,"clouds":[{"cover":"OVC","base":2000}],"obsTime":1778583600},"SBBH":{"icaoId":"SBBH","flightCategory":"VFR","rawOb":"METAR SBBH 121100Z 11007KT CAVOK 21/18 Q1021","temp":21,"dewp":18,"wdir":110,"wspd":7,"visib":"6+","altim":1021,"clouds":[],"obsTime":1778583600},"SBVH":{"icaoId":"SBVH","flightCategory":"VFR","rawOb":"METAR SBVH 121100Z 19006KT CAVOK 15/14 Q1017","temp":15,"dewp":14,"wdir":190,"wspd":6,"visib":"6+","altim":1017,"clouds":[],"obsTime":1778583600},"SBKG":{"icaoId":"SBKG","flightCategory":"VFR","rawOb":"METAR SBKG 121100Z 16006KT 9999 FEW005 BKN080 24/21 Q1017","temp":24,"dewp":21,"wdir":160,"wspd":6,"visib":"6+","altim":1017,"clouds":[{"cover":"FEW","base":500},{"cover":"BKN","base":8000}],"obsTime":1778583600},"SBCC":{"icaoId":"SBCC","flightCategory":"VFR","rawOb":"METAR SBCC 121100Z /////KT 9999 SCT012 ///// Q1016","temp":null,"dewp":null,"wdir":null,"wspd":null,"visib":"6+","altim":1016,"clouds":[{"cover":"SCT","base":1200}],"obsTime":1778583600},"SBOI":{"icaoId":"SBOI","flightCategory":"MVFR","rawOb":"METAR SBOI 121100Z AUTO 13009G19KT 060V180 6000 // OVC017/// 24/23 Q1014","temp":24,"dewp":23,"wdir":130,"wspd":9,"visib":3.73,"altim":1014,"clouds":[{"cover":"OVC","base":1700}],"obsTime":1778583600},"SBBQ":{"icaoId":"SBBQ","flightCategory":"LIFR","rawOb":"METAR SBBQ 121200Z VRB04KT 1000 -DZ BR OVC002 13/13 Q1025","temp":13,"dewp":13,"wdir":"VRB","wspd":4,"visib":0.62,"altim":1025,"clouds":[{"cover":"OVC","base":200}],"obsTime":1778587200},"SBPB":{"icaoId":"SBPB","flightCategory":"VFR","rawOb":"METAR SBPB 121100Z 08008KT 9999 FEW016 28/25 Q1011","temp":28,"dewp":25,"wdir":80,"wspd":8,"visib":"6+","altim":1011,"clouds":[{"cover":"FEW","base":1600}],"obsTime":1778583600},"SBTA":{"icaoId":"SBTA","flightCategory":"IFR","rawOb":"METAR SBTA 121100Z 18003KT 150V210 5000 BR BKN005 OVC015 11/11 Q1023","temp":11,"dewp":11,"wdir":180,"wspd":3,"visib":3.11,"altim":1023,"clouds":[{"cover":"BKN","base":500},{"cover":"OVC","base":1500}],"obsTime":1778583600},"SBJP":{"icaoId":"SBJP","flightCategory":"IFR","rawOb":"METAR SBJP 121100Z 18007KT 150V230 9999 BKN006 OVC070 25/24 Q1014","temp":25,"dewp":24,"wdir":180,"wspd":7,"visib":"6+","altim":1014,"clouds":[{"cover":"BKN","base":600},{"cover":"OVC","base":7000}],"obsTime":1778583600},"SBAN":{"icaoId":"SBAN","flightCategory":"VFR","rawOb":"METAR SBAN 121100Z 22010KT CAVOK 17/15 Q1022","temp":17,"dewp":15,"wdir":220,"wspd":10,"visib":"6+","altim":1022,"clouds":[],"obsTime":1778583600},"SBIH":{"icaoId":"SBIH","flightCategory":"MVFR","rawOb":"METAR SBIH 121100Z 36004KT 6000 -RA SCT008 FEW023TCU OVC080 24/24 Q1014","temp":24,"dewp":24,"wdir":360,"wspd":4,"visib":3.73,"altim":1014,"clouds":[{"cover":"SCT","base":800},{"cover":"FEW","base":2300},{"cover":"OVC","base":8000}],"obsTime":1778583600},"SBLE":{"icaoId":"SBLE","flightCategory":"MVFR","rawOb":"METAR SBLE 121100Z AUTO 14003KT 110V180 9999 FEW016 OVC021 ///// Q////","temp":null,"dewp":null,"wdir":140,"wspd":3,"visib":"6+","altim":null,"clouds":[{"cover":"FEW","base":1600},{"cover":"OVC","base":2100}],"obsTime":1778583600},"SBJV":{"icaoId":"SBJV","flightCategory":"VFR","rawOb":"METAR SBJV 121100Z 33002KT CAVOK 09/09 Q1021","temp":9,"dewp":9,"wdir":330,"wspd":2,"visib":"6+","altim":1021,"clouds":[],"obsTime":1778583600},"SBNM":{"icaoId":"SBNM","flightCategory":"VFR","rawOb":"METAR SBNM 121100Z AUTO 07006KT CAVOK 05/02 Q1021","temp":5,"dewp":2,"wdir":70,"wspd":6,"visib":"6+","altim":1021,"clouds":[],"obsTime":1778583600},"SBPF":{"icaoId":"SBPF","flightCategory":"VFR","rawOb":"METAR SBPF 121100Z 04005KT CAVOK 06/03 Q1022","temp":6,"dewp":3,"wdir":40,"wspd":5,"visib":"6+","altim":1022,"clouds":[],"obsTime":1778583600},"SBAF":{"icaoId":"SBAF","flightCategory":"VFR","rawOb":"METAR SBAF 121100Z 23001KT CAVOK 18/18 Q1022","temp":18,"dewp":18,"wdir":230,"wspd":1,"visib":"6+","altim":1022,"clouds":[],"obsTime":1778583600},"SBGW":{"icaoId":"SBGW","flightCategory":"LIFR","rawOb":"METAR SBGW 121100Z 26003KT 0700 FG BKN002 OVC004 11/08 Q1024","temp":11,"dewp":8,"wdir":260,"wspd":3,"visib":0.43,"altim":1024,"clouds":[{"cover":"BKN","base":200},{"cover":"OVC","base":400}],"obsTime":1778583600},"SBJR":{"icaoId":"SBJR","flightCategory":"VFR","rawOb":"METAR SBJR 121100Z 01003KT 9999 FEW013 20/16 Q1021","temp":20,"dewp":16,"wdir":10,"wspd":3,"visib":"6+","altim":1021,"clouds":[{"cover":"FEW","base":1300}],"obsTime":1778583600},"SBLS":{"icaoId":"SBLS","flightCategory":"VFR","rawOb":"METAR SBLS 121100Z 13010KT 9000 FEW008 19/18 Q1021","temp":19,"dewp":18,"wdir":130,"wspd":10,"visib":5.59,"altim":1021,"clouds":[{"cover":"FEW","base":800}],"obsTime":1778583600},"SBMT":{"icaoId":"SBMT","flightCategory":"MVFR","rawOb":"METAR SBMT 121100Z 09007KT 9999 BKN011 11/09 Q1023","temp":11,"dewp":9,"wdir":90,"wspd":7,"visib":"6+","altim":1023,"clouds":[{"cover":"BKN","base":1100}],"obsTime":1778583600},"SBST":{"icaoId":"SBST","flightCategory":"VFR","rawOb":"METAR SBST 121100Z 04002KT 9999 FEW045 15/14 Q1022","temp":15,"dewp":14,"wdir":40,"wspd":2,"visib":"6+","altim":1022,"clouds":[{"cover":"FEW","base":4500}],"obsTime":1778583600}}}