{"updated":1782853811,"count":85,"data":{"SBCT":{"icaoId":"SBCT","flightCategory":"VFR","rawOb":"METAR SBCT 302000Z 36006KT 9999 FEW025 21/17 Q1018","temp":21,"dewp":17,"wdir":360,"wspd":6,"visib":"6+","altim":1018,"clouds":[{"cover":"FEW","base":2500}],"obsTime":1782849600},"SBCB":{"icaoId":"SBCB","flightCategory":"VFR","rawOb":"METAR SBCB 302000Z 09010KT CAVOK 23/21 Q1017","temp":23,"dewp":21,"wdir":90,"wspd":10,"visib":"6+","altim":1017,"clouds":[],"obsTime":1782849600},"SBCP":{"icaoId":"SBCP","flightCategory":"VFR","rawOb":"METAR SBCP 302000Z 07013KT CAVOK 25/21 Q1018","temp":25,"dewp":21,"wdir":70,"wspd":13,"visib":"6+","altim":1018,"clouds":[],"obsTime":1782849600},"SBVT":{"icaoId":"SBVT","flightCategory":"VFR","rawOb":"METAR SBVT 302000Z 03003KT 9999 FEW015 BKN052 23/19 Q1019","temp":23,"dewp":19,"wdir":30,"wspd":3,"visib":"6+","altim":1019,"clouds":[{"cover":"FEW","base":1500},{"cover":"BKN","base":5200}],"obsTime":1782849600},"SBPJ":{"icaoId":"SBPJ","flightCategory":"VFR","rawOb":"METAR SBPJ 302000Z 11005KT CAVOK 34/18 Q1012","temp":34,"dewp":18,"wdir":110,"wspd":5,"visib":"6+","altim":1012,"clouds":[],"obsTime":1782849600},"SBSG":{"icaoId":"SBSG","flightCategory":"MVFR","rawOb":"METAR SBSG 302000Z 14008KT 080V180 9999 BKN023 26/23 Q1013","temp":26,"dewp":23,"wdir":140,"wspd":8,"visib":"6+","altim":1013,"clouds":[{"cover":"BKN","base":2300}],"obsTime":1782849600},"SBFI":{"icaoId":"SBFI","flightCategory":"IFR","rawOb":"SPECI SBFI 301913Z 10002KT 3000 BR SCT005 BKN013 FEW035TCU 18/18 Q1013","temp":18,"dewp":18,"wdir":100,"wspd":2,"visib":1.86,"altim":1013,"clouds":[{"cover":"SCT","base":500},{"cover":"BKN","base":1300},{"cover":"FEW","base":3500}],"obsTime":1782846780},"SBPV":{"icaoId":"SBPV","flightCategory":"VFR","rawOb":"METAR SBPV 302000Z 09005KT 9999 SCT030 34/20 Q1008","temp":34,"dewp":20,"wdir":90,"wspd":5,"visib":"6+","altim":1008,"clouds":[{"cover":"SCT","base":3000}],"obsTime":1782849600},"SBFZ":{"icaoId":"SBFZ","flightCategory":"VFR","rawOb":"METAR SBFZ 302000Z 12013KT 9999 FEW025 28/22 Q1011","temp":28,"dewp":22,"wdir":120,"wspd":13,"visib":"6+","altim":1011,"clouds":[{"cover":"FEW","base":2500}],"obsTime":1782849600},"SBCF":{"icaoId":"SBCF","flightCategory":"VFR","rawOb":"METAR SBCF 302000Z 07008KT 9999 FEW040 23/15 Q1021","temp":23,"dewp":15,"wdir":70,"wspd":8,"visib":"6+","altim":1021,"clouds":[{"cover":"FEW","base":4000}],"obsTime":1782849600},"SBBV":{"icaoId":"SBBV","flightCategory":"VFR","rawOb":"METAR SBBV 302000Z 36004KT 9999 SCT030 FEW035TCU 29/23 Q1009","temp":29,"dewp":23,"wdir":360,"wspd":4,"visib":"6+","altim":1009,"clouds":[{"cover":"SCT","base":3000},{"cover":"FEW","base":3500}],"obsTime":1782849600},"SBRB":{"icaoId":"SBRB","flightCategory":"MVFR","rawOb":"METAR SBRB 302000Z 08003KT 9999 BKN030 30/23 Q1010","temp":30,"dewp":23,"wdir":80,"wspd":3,"visib":"6+","altim":1010,"clouds":[{"cover":"BKN","base":3000}],"obsTime":1782849600},"SBMO":{"icaoId":"SBMO","flightCategory":"VFR","rawOb":"METAR SBMO 302000Z 11010KT 9999 SCT020 BKN050 25/22 Q1015","temp":25,"dewp":22,"wdir":110,"wspd":10,"visib":"6+","altim":1015,"clouds":[{"cover":"SCT","base":2000},{"cover":"BKN","base":5000}],"obsTime":1782849600},"SBBE":{"icaoId":"SBBE","flightCategory":"VFR","rawOb":"METAR SBBE 302000Z 11007KT 9999 BKN035 FEW040TCU 32/22 Q1010","temp":32,"dewp":22,"wdir":110,"wspd":7,"visib":"6+","altim":1010,"clouds":[{"cover":"BKN","base":3500},{"cover":"FEW","base":4000}],"obsTime":1782849600},"SBEG":{"icaoId":"SBEG","flightCategory":"VFR","rawOb":"METAR SBEG 302000Z 35005KT 9999 SCT035 BKN100 29/24 Q1009","temp":29,"dewp":24,"wdir":350,"wspd":5,"visib":"6+","altim":1009,"clouds":[{"cover":"SCT","base":3500},{"cover":"BKN","base":10000}],"obsTime":1782849600},"SBSL":{"icaoId":"SBSL","flightCategory":"VFR","rawOb":"METAR SBSL 302000Z 09003KT 9999 SCT030 31/22 Q1010","temp":31,"dewp":22,"wdir":90,"wspd":3,"visib":"6+","altim":1010,"clouds":[{"cover":"SCT","base":3000}],"obsTime":1782849600},"SBGL":{"icaoId":"SBGL","flightCategory":"VFR","rawOb":"METAR SBGL 302000Z 15005KT 9000 NSC 25/20 Q1016","temp":25,"dewp":20,"wdir":150,"wspd":5,"visib":5.59,"altim":1016,"clouds":[],"obsTime":1782849600},"SBKP":{"icaoId":"SBKP","flightCategory":"VFR","rawOb":"METAR SBKP 302000Z 01004KT CAVOK 26/15 Q1018","temp":26,"dewp":15,"wdir":10,"wspd":4,"visib":"6+","altim":1018,"clouds":[],"obsTime":1782849600},"SBNT":{"icaoId":"SBNT","flightCategory":"VFR","rawOb":"METAR SBNT 302000Z 15014KT 9999 SCT025 27/22 Q1013","temp":27,"dewp":22,"wdir":150,"wspd":14,"visib":"6+","altim":1013,"clouds":[{"cover":"SCT","base":2500}],"obsTime":1782849600},"SBGO":{"icaoId":"SBGO","flightCategory":"VFR","rawOb":"METAR SBGO 302000Z 05006KT 010V080 CAVOK 30/13 Q1017","temp":30,"dewp":13,"wdir":50,"wspd":6,"visib":"6+","altim":1017,"clouds":[],"obsTime":1782849600},"SBCZ":{"icaoId":"SBCZ","flightCategory":"MVFR","rawOb":"METAR SBCZ 302000Z 28008KT 9999 BKN030 30/24 Q1010","temp":30,"dewp":24,"wdir":280,"wspd":8,"visib":"6+","altim":1010,"clouds":[{"cover":"BKN","base":3000}],"obsTime":1782849600},"SBSP":{"icaoId":"SBSP","flightCategory":"VFR","rawOb":"METAR SBSP 302000Z 32007KT CAVOK 25/13 Q1020","temp":25,"dewp":13,"wdir":320,"wspd":7,"visib":"6+","altim":1020,"clouds":[],"obsTime":1782849600},"SBGR":{"icaoId":"SBGR","flightCategory":"VFR","rawOb":"METAR SBGR 302000Z 33004KT CAVOK 26/14 Q1019","temp":26,"dewp":14,"wdir":330,"wspd":4,"visib":"6+","altim":1019,"clouds":[],"obsTime":1782849600},"SBPA":{"icaoId":"SBPA","flightCategory":"IFR","rawOb":"METAR SBPA 302000Z 16006KT 9999 BKN007 OVC014 14/12 Q1016","temp":14,"dewp":12,"wdir":160,"wspd":6,"visib":"6+","altim":1016,"clouds":[{"cover":"BKN","base":700},{"cover":"OVC","base":1400}],"obsTime":1782849600},"SBMA":{"icaoId":"SBMA","flightCategory":"VFR","rawOb":"METAR SBMA 302000Z 08004KT 9999 SCT030 33/20 Q1010","temp":33,"dewp":20,"wdir":80,"wspd":4,"visib":"6+","altim":1010,"clouds":[{"cover":"SCT","base":3000}],"obsTime":1782849600},"SBRF":{"icaoId":"SBRF","flightCategory":"VFR","rawOb":"METAR SBRF 302000Z 15015KT 9999 SCT025 27/22 Q1014","temp":27,"dewp":22,"wdir":150,"wspd":15,"visib":"6+","altim":1014,"clouds":[{"cover":"SCT","base":2500}],"obsTime":1782849600},"SBFL":{"icaoId":"SBFL","flightCategory":"IFR","rawOb":"METAR SBFL 302000Z 11006KT 8000 VCSH OVC006 16/15 Q1016","temp":16,"dewp":15,"wdir":110,"wspd":6,"visib":4.97,"altim":1016,"clouds":[{"cover":"OVC","base":600}],"obsTime":1782849600},"SBCR":{"icaoId":"SBCR","flightCategory":"VFR","rawOb":"METAR SBCR 302000Z 05008KT 030V090 9999 FEW025 30/21 Q1010","temp":30,"dewp":21,"wdir":50,"wspd":8,"visib":"6+","altim":1010,"clouds":[{"cover":"FEW","base":2500}],"obsTime":1782849600},"SBTE":{"icaoId":"SBTE","flightCategory":"VFR","rawOb":"METAR SBTE 302000Z 13006KT 9999 FEW040 32/19 Q1010","temp":32,"dewp":19,"wdir":130,"wspd":6,"visib":"6+","altim":1010,"clouds":[{"cover":"FEW","base":4000}],"obsTime":1782849600},"SBBR":{"icaoId":"SBBR","flightCategory":"VFR","rawOb":"METAR SBBR 302000Z 14007KT CAVOK 26/12 Q1020","temp":26,"dewp":12,"wdir":140,"wspd":7,"visib":"6+","altim":1020,"clouds":[],"obsTime":1782849600},"SBCG":{"icaoId":"SBCG","flightCategory":"VFR","rawOb":"METAR SBCG 302000Z 33010KT 9999 SCT049 29/18 Q1014","temp":29,"dewp":18,"wdir":330,"wspd":10,"visib":"6+","altim":1014,"clouds":[{"cover":"SCT","base":4900}],"obsTime":1782849600},"SBSN":{"icaoId":"SBSN","flightCategory":"VFR","rawOb":"METAR SBSN 302000Z 10007KT CAVOK 29/24 Q1010","temp":29,"dewp":24,"wdir":100,"wspd":7,"visib":"6+","altim":1010,"clouds":[],"obsTime":1782849600},"SBSV":{"icaoId":"SBSV","flightCategory":"VFR","rawOb":"METAR SBSV 302000Z 14007KT 9999 FEW020 SCT060 26/21 Q1016","temp":26,"dewp":21,"wdir":140,"wspd":7,"visib":"6+","altim":1016,"clouds":[{"cover":"FEW","base":2000},{"cover":"SCT","base":6000}],"obsTime":1782849600},"SBMQ":{"icaoId":"SBMQ","flightCategory":"VFR","rawOb":"METAR SBMQ 302000Z 05009KT 9999 FEW030 SCT083 32/24 Q1009","temp":32,"dewp":24,"wdir":50,"wspd":9,"visib":"6+","altim":1009,"clouds":[{"cover":"FEW","base":3000},{"cover":"SCT","base":8300}],"obsTime":1782849600},"SBLO":{"icaoId":"SBLO","flightCategory":"VFR","rawOb":"METAR SBLO 302000Z 04007KT CAVOK 26/18 Q1016","temp":26,"dewp":18,"wdir":40,"wspd":7,"visib":"6+","altim":1016,"clouds":[],"obsTime":1782849600},"SBIL":{"icaoId":"SBIL","flightCategory":"VFR","rawOb":"METAR SBIL 302000Z 16006KT 9999 SCT027 27/20 Q1018","temp":27,"dewp":20,"wdir":160,"wspd":6,"visib":"6+","altim":1018,"clouds":[{"cover":"SCT","base":2700}],"obsTime":1782849600},"SBJU":{"icaoId":"SBJU","flightCategory":"VFR","rawOb":"METAR SBJU 302000Z 15009KT CAVOK 31/12 Q1013","temp":31,"dewp":12,"wdir":150,"wspd":9,"visib":"6+","altim":1013,"clouds":[],"obsTime":1782849600},"SBAT":{"icaoId":"SBAT","flightCategory":"VFR","rawOb":"METAR SBAT 302000Z 08006KT 9999 FEW035 34/18 Q1011","temp":34,"dewp":18,"wdir":80,"wspd":6,"visib":"6+","altim":1011,"clouds":[{"cover":"FEW","base":3500}],"obsTime":1782849600},"SBHT":{"icaoId":"SBHT","flightCategory":"VFR","rawOb":"METAR SBHT 302000Z 09004KT 9999 FEW030 30/24 Q1010","temp":30,"dewp":24,"wdir":90,"wspd":4,"visib":"6+","altim":1010,"clouds":[{"cover":"FEW","base":3000}],"obsTime":1782849600},"SBMG":{"icaoId":"SBMG","flightCategory":"VFR","rawOb":"METAR SBMG 302000Z 02009KT 9999 FEW045 27/18 Q1014","temp":27,"dewp":18,"wdir":20,"wspd":9,"visib":"6+","altim":1014,"clouds":[{"cover":"FEW","base":4500}],"obsTime":1782849600},"SBME":{"icaoId":"SBME","flightCategory":"VFR","rawOb":"METAR SBME 302000Z 07010KT CAVOK 25/21 Q1017","temp":25,"dewp":21,"wdir":70,"wspd":10,"visib":"6+","altim":1017,"clouds":[],"obsTime":1782849600},"SBMK":{"icaoId":"SBMK","flightCategory":"VFR","rawOb":"METAR SBMK 302000Z 07007KT 9999 FEW040 26/14 Q1019","temp":26,"dewp":14,"wdir":70,"wspd":7,"visib":"6+","altim":1019,"clouds":[{"cover":"FEW","base":4000}],"obsTime":1782849600},"SBUL":{"icaoId":"SBUL","flightCategory":"VFR","rawOb":"METAR SBUL 302000Z 10008KT 050V110 CAVOK 24/12 Q1020","temp":24,"dewp":12,"wdir":100,"wspd":8,"visib":"6+","altim":1020,"clouds":[],"obsTime":1782849600},"SBUR":{"icaoId":"SBUR","flightCategory":"VFR","rawOb":"METAR SBUR 302000Z 01005KT CAVOK 26/10 Q1019","temp":26,"dewp":10,"wdir":10,"wspd":5,"visib":"6+","altim":1019,"clouds":[],"obsTime":1782849600},"SBTF":{"icaoId":"SBTF","flightCategory":"VFR","rawOb":"METAR SBTF 302000Z 11003KT 9999 SCT018 28/26 Q1009","temp":28,"dewp":26,"wdir":110,"wspd":3,"visib":"6+","altim":1009,"clouds":[{"cover":"SCT","base":1800}],"obsTime":1782849600},"SBPS":{"icaoId":"SBPS","flightCategory":"VFR","rawOb":"METAR SBPS 302000Z 11007KT 9999 SCT025 SCT100 24/22 Q1019","temp":24,"dewp":22,"wdir":110,"wspd":7,"visib":"6+","altim":1019,"clouds":[{"cover":"SCT","base":2500},{"cover":"SCT","base":10000}],"obsTime":1782849600},"SBPL":{"icaoId":"SBPL","flightCategory":"VFR","rawOb":"METAR SBPL 302000Z 10013KT 9999 FEW025 29/16 Q1015","temp":29,"dewp":16,"wdir":100,"wspd":13,"visib":"6+","altim":1015,"clouds":[{"cover":"FEW","base":2500}],"obsTime":1782849600},"SBSJ":{"icaoId":"SBSJ","flightCategory":"VFR","rawOb":"METAR SBSJ 302000Z VRB01KT CAVOK 25/17 Q1018","temp":25,"dewp":17,"wdir":"VRB","wspd":1,"visib":"6+","altim":1018,"clouds":[],"obsTime":1782849600},"SBCJ":{"icaoId":"SBCJ","flightCategory":"VFR","rawOb":"METAR SBCJ 302000Z 11005KT CAVOK 29/17 Q1015","temp":29,"dewp":17,"wdir":110,"wspd":5,"visib":"6+","altim":1015,"clouds":[],"obsTime":1782849600},"SBPP":{"icaoId":"SBPP","flightCategory":"MVFR","rawOb":"METAR SBPP 302000Z 05006KT 9999 BKN015 24/19 Q1014","temp":24,"dewp":19,"wdir":50,"wspd":6,"visib":"6+","altim":1014,"clouds":[{"cover":"BKN","base":1500}],"obsTime":1782849600},"SBPB":{"icaoId":"SBPB","flightCategory":"VFR","rawOb":"METAR SBPB 302000Z 04010KT 9999 SCT020 30/25 Q1010","temp":30,"dewp":25,"wdir":40,"wspd":10,"visib":"6+","altim":1010,"clouds":[{"cover":"SCT","base":2000}],"obsTime":1782849600},"SBUY":{"icaoId":"SBUY","flightCategory":"VFR","rawOb":"METAR SBUY 302000Z 14002KT 9999 VCSH SCT020 FEW025TCU SCT080 23/23 Q1008 RETS","temp":23,"dewp":23,"wdir":140,"wspd":2,"visib":"6+","altim":1008,"clouds":[{"cover":"SCT","base":2000},{"cover":"FEW","base":2500},{"cover":"SCT","base":8000}],"obsTime":1782849600},"SBTT":{"icaoId":"SBTT","flightCategory":"VFR","rawOb":"METAR SBTT 302000Z 23005KT 9999 FEW020 FEW023TCU BKN100 28/23 Q1010","temp":28,"dewp":23,"wdir":230,"wspd":5,"visib":"6+","altim":1010,"clouds":[{"cover":"FEW","base":2000},{"cover":"FEW","base":2300},{"cover":"BKN","base":10000}],"obsTime":1782849600},"SBOI":{"icaoId":"SBOI","flightCategory":"VFR","rawOb":"METAR SBOI 302000Z AUTO 10004KT 030V200 9999 FEW046 30/24 Q1010","temp":30,"dewp":24,"wdir":100,"wspd":4,"visib":"6+","altim":1010,"clouds":[{"cover":"FEW","base":4600}],"obsTime":1782849600},"SBAR":{"icaoId":"SBAR","flightCategory":"VFR","rawOb":"METAR SBAR 302000Z 18003KT 130V260 9999 FEW025 25/22 Q1015","temp":25,"dewp":22,"wdir":180,"wspd":3,"visib":"6+","altim":1015,"clouds":[{"cover":"FEW","base":2500}],"obsTime":1782849600},"SBKG":{"icaoId":"SBKG","flightCategory":"VFR","rawOb":"METAR SBKG 302000Z 12012KT 9999 FEW023 25/19 Q1016","temp":25,"dewp":19,"wdir":120,"wspd":12,"visib":"6+","altim":1016,"clouds":[{"cover":"FEW","base":2300}],"obsTime":1782849600},"SBCC":{"icaoId":"SBCC","flightCategory":"VFR","rawOb":"METAR SBCC 302000Z 05009KT 9999 SCT025 31/17 Q1013","temp":31,"dewp":17,"wdir":50,"wspd":9,"visib":"6+","altim":1013,"clouds":[{"cover":"SCT","base":2500}],"obsTime":1782849600},"SBVH":{"icaoId":"SBVH","flightCategory":"VFR","rawOb":"METAR SBVH 302000Z 10008KT CAVOK 30/09 Q1014","temp":30,"dewp":9,"wdir":100,"wspd":8,"visib":"6+","altim":1014,"clouds":[],"obsTime":1782849600},"SBCA":{"icaoId":"SBCA","flightCategory":"VFR","rawOb":"METAR SBCA 302000Z 35011KT 9999 TS FEW007 FEW040CB SCT100 22/18 Q1015","temp":22,"dewp":18,"wdir":350,"wspd":11,"visib":"6+","altim":1015,"clouds":[{"cover":"FEW","base":700},{"cover":"FEW","base":4000},{"cover":"SCT","base":10000}],"obsTime":1782849600},"SBCO":{"icaoId":"SBCO","flightCategory":"MVFR","rawOb":"METAR SBCO 302000Z 17004KT 9999 OVC012 14/12 Q1017","temp":14,"dewp":12,"wdir":170,"wspd":4,"visib":"6+","altim":1017,"clouds":[{"cover":"OVC","base":1200}],"obsTime":1782849600},"SBSM":{"icaoId":"SBSM","flightCategory":"MVFR","rawOb":"METAR SBSM 302000Z 11007KT 9999 OVC011 13/11 Q1016","temp":13,"dewp":11,"wdir":110,"wspd":7,"visib":"6+","altim":1016,"clouds":[{"cover":"OVC","base":1100}],"obsTime":1782849600},"SBAX":{"icaoId":"SBAX","flightCategory":"VFR","rawOb":"METAR SBAX 302000Z 05004KT CAVOK 24/10 Q1020","temp":24,"dewp":10,"wdir":50,"wspd":4,"visib":"6+","altim":1020,"clouds":[],"obsTime":1782849600},"SBBH":{"icaoId":"SBBH","flightCategory":"VFR","rawOb":"METAR SBBH 302000Z 04006KT 9999 SCT049 24/15 Q1021","temp":24,"dewp":15,"wdir":40,"wspd":6,"visib":"6+","altim":1021,"clouds":[{"cover":"SCT","base":4900}],"obsTime":1782849600},"SBBQ":{"icaoId":"SBBQ","flightCategory":"VFR","rawOb":"METAR SBBQ 302000Z 30003KT CAVOK 23/13 Q1024","temp":23,"dewp":13,"wdir":300,"wspd":3,"visib":"6+","altim":1024,"clouds":[],"obsTime":1782849600},"SBBU":{"icaoId":"SBBU","flightCategory":"VFR","rawOb":"METAR SBBU 302000Z 01004KT CAVOK 28/16 Q1017","temp":28,"dewp":16,"wdir":10,"wspd":4,"visib":"6+","altim":1017,"clouds":[],"obsTime":1782849600},"SBDN":{"icaoId":"SBDN","flightCategory":"VFR","rawOb":"METAR SBDN 302000Z 33003KT CAVOK 28/17 Q1015","temp":28,"dewp":17,"wdir":330,"wspd":3,"visib":"6+","altim":1015,"clouds":[],"obsTime":1782849600},"SBIP":{"icaoId":"SBIP","flightCategory":"VFR","rawOb":"METAR SBIP 302000Z AUTO 35003KT 310V020 CAVOK 25/18 Q1019","temp":25,"dewp":18,"wdir":350,"wspd":3,"visib":"6+","altim":1019,"clouds":[],"obsTime":1782849600},"SBSR":{"icaoId":"SBSR","flightCategory":"VFR","rawOb":"METAR SBSR 302000Z 03004KT CAVOK 28/12 Q1017","temp":28,"dewp":12,"wdir":30,"wspd":4,"visib":"6+","altim":1017,"clouds":[],"obsTime":1782849600},"SBES":{"icaoId":"SBES","flightCategory":"VFR","rawOb":"METAR SBES 302000Z 07005KT 9999 FEW015 23/// Q1017","temp":null,"dewp":null,"wdir":70,"wspd":5,"visib":"6+","altim":1017,"clouds":[{"cover":"FEW","base":1500}],"obsTime":1782849600},"SBSC":{"icaoId":"SBSC","flightCategory":"VFR","rawOb":"METAR SBSC 302000Z 25008KT 9999 4500W NSC 23/21 Q1016","temp":23,"dewp":21,"wdir":250,"wspd":8,"visib":"6+","altim":1016,"clouds":[],"obsTime":1782849600},"SBTU":{"icaoId":"SBTU","flightCategory":"VFR","rawOb":"METAR SBTU 302000Z AUTO 05005KT 020V080 9999 // NCD ///// Q1012","temp":null,"dewp":null,"wdir":50,"wspd":5,"visib":"6+","altim":1012,"clouds":[],"obsTime":1782849600},"SBJP":{"icaoId":"SBJP","flightCategory":"VFR","rawOb":"METAR SBJP 302000Z 13007KT 9999 SCT020 BKN070 25/23 Q1014","temp":25,"dewp":23,"wdir":130,"wspd":7,"visib":"6+","altim":1014,"clouds":[{"cover":"SCT","base":2000},{"cover":"BKN","base":7000}],"obsTime":1782849600},"SBGW":{"icaoId":"SBGW","flightCategory":"VFR","rawOb":"METAR SBGW 302000Z 09003KT 060V130 CAVOK 27/13 Q1018","temp":27,"dewp":13,"wdir":90,"wspd":3,"visib":"6+","altim":1018,"clouds":[],"obsTime":1782849600},"SBJR":{"icaoId":"SBJR","flightCategory":"VFR","rawOb":"METAR SBJR 302000Z 21002KT CAVOK 25/20 Q1016","temp":25,"dewp":20,"wdir":210,"wspd":2,"visib":"6+","altim":1016,"clouds":[],"obsTime":1782849600},"SBLS":{"icaoId":"SBLS","flightCategory":"VFR","rawOb":"METAR SBLS 302000Z 07006KT 350V090 9999 SCT040 23/15 Q1021","temp":23,"dewp":15,"wdir":70,"wspd":6,"visib":"6+","altim":1021,"clouds":[{"cover":"SCT","base":4000}],"obsTime":1782849600},"SBMT":{"icaoId":"SBMT","flightCategory":"VFR","rawOb":"METAR SBMT 302000Z 02005KT CAVOK 25/13 Q1019","temp":25,"dewp":13,"wdir":20,"wspd":5,"visib":"6+","altim":1019,"clouds":[],"obsTime":1782849600},"SBST":{"icaoId":"SBST","flightCategory":"MVFR","rawOb":"METAR SBST 302000Z 19002KT 8000 SCT019 22/19 Q1016","temp":22,"dewp":19,"wdir":190,"wspd":2,"visib":4.97,"altim":1016,"clouds":[{"cover":"SCT","base":1900}],"obsTime":1782849600},"SBTA":{"icaoId":"SBTA","flightCategory":"VFR","rawOb":"METAR SBTA 302000Z 07004KT CAVOK 25/17 Q1018","temp":25,"dewp":17,"wdir":70,"wspd":4,"visib":"6+","altim":1018,"clouds":[],"obsTime":1782849600},"SBAF":{"icaoId":"SBAF","flightCategory":"MVFR","rawOb":"METAR SBAF 302000Z 07004KT 020V100 8000 NSC 27/19 Q1016","temp":27,"dewp":19,"wdir":70,"wspd":4,"visib":4.97,"altim":1016,"clouds":[],"obsTime":1782849600},"SBIH":{"icaoId":"SBIH","flightCategory":"VFR","rawOb":"METAR SBIH 302000Z 02005KT 9999 FEW018 FEW025TCU 30/24 Q1009","temp":30,"dewp":24,"wdir":20,"wspd":5,"visib":"6+","altim":1009,"clouds":[{"cover":"FEW","base":1800},{"cover":"FEW","base":2500}],"obsTime":1782849600},"SBAN":{"icaoId":"SBAN","flightCategory":"VFR","rawOb":"METAR SBAN 302000Z 07005KT 030V100 9999 FEW045 25/12 Q1020","temp":25,"dewp":12,"wdir":70,"wspd":5,"visib":"6+","altim":1020,"clouds":[{"cover":"FEW","base":4500}],"obsTime":1782849600},"SBJV":{"icaoId":"SBJV","flightCategory":"IFR","rawOb":"METAR SBJV 302000Z 12002KT 3000 -DZ BR BKN005 BKN015 17/16 Q1016","temp":17,"dewp":16,"wdir":120,"wspd":2,"visib":1.86,"altim":1016,"clouds":[{"cover":"BKN","base":500},{"cover":"BKN","base":1500}],"obsTime":1782849600},"SBNM":{"icaoId":"SBNM","flightCategory":"MVFR","rawOb":"METAR SBNM 302000Z AUTO 16003KT 8000 RA FEW015 15/14 Q1014","temp":15,"dewp":14,"wdir":160,"wspd":3,"visib":4.97,"altim":1014,"clouds":[{"cover":"FEW","base":1500}],"obsTime":1782849600},"SBPF":{"icaoId":"SBPF","flightCategory":"IFR","rawOb":"METAR SBPF 302000Z 17007KT 9999 BKN005 BKN019 15/12 Q1015","temp":15,"dewp":12,"wdir":170,"wspd":7,"visib":"6+","altim":1015,"clouds":[{"cover":"BKN","base":500},{"cover":"BKN","base":1900}],"obsTime":1782849600},"SBLE":{"icaoId":"SBLE","flightCategory":"VFR","rawOb":"METAR SBLE 302000Z AUTO 07004KT CAVOK ///// Q////","temp":null,"dewp":null,"wdir":70,"wspd":4,"visib":"6+","altim":null,"clouds":[],"obsTime":1782849600}}}