{"updated":1779566330,"count":87,"data":{"SBGR":{"icaoId":"SBGR","flightCategory":"IFR","rawOb":"METAR SBGR 231800Z 09003KT 4500 BR OVC009 18/16 Q1023","temp":18,"dewp":16,"wdir":90,"wspd":3,"visib":2.8,"altim":1023,"clouds":[{"cover":"OVC","base":900}],"obsTime":1779559200},"SBBE":{"icaoId":"SBBE","flightCategory":"VFR","rawOb":"METAR SBBE 231800Z 33006KT 9999 SCT040 SCT100 30/25 Q1010","temp":30,"dewp":25,"wdir":330,"wspd":6,"visib":"6+","altim":1010,"clouds":[{"cover":"SCT","base":4000},{"cover":"SCT","base":10000}],"obsTime":1779559200},"SBPA":{"icaoId":"SBPA","flightCategory":"IFR","rawOb":"METAR SBPA 231800Z 13006KT 2000 -DZ BR FEW005 OVC008 16/15 Q1023","temp":16,"dewp":15,"wdir":130,"wspd":6,"visib":1.24,"altim":1023,"clouds":[{"cover":"FEW","base":500},{"cover":"OVC","base":800}],"obsTime":1779559200},"SBMO":{"icaoId":"SBMO","flightCategory":"VFR","rawOb":"METAR SBMO 231800Z 12012KT 9999 SCT030 28/21 Q1014","temp":28,"dewp":21,"wdir":120,"wspd":12,"visib":"6+","altim":1014,"clouds":[{"cover":"SCT","base":3000}],"obsTime":1779559200},"SBMK":{"icaoId":"SBMK","flightCategory":"VFR","rawOb":"METAR SBMK 231800Z 08009KT 9999 BKN035 26/17 Q1020","temp":26,"dewp":17,"wdir":80,"wspd":9,"visib":"6+","altim":1020,"clouds":[{"cover":"BKN","base":3500}],"obsTime":1779559200},"SBCF":{"icaoId":"SBCF","flightCategory":"VFR","rawOb":"METAR SBCF 231800Z 04007KT 9999 BKN035 23/14 Q1023","temp":23,"dewp":14,"wdir":40,"wspd":7,"visib":"6+","altim":1023,"clouds":[{"cover":"BKN","base":3500}],"obsTime":1779559200},"SBFI":{"icaoId":"SBFI","flightCategory":"MVFR","rawOb":"METAR SBFI 231800Z 19003KT 9999 SCT012 OVC015 17/15 Q1021","temp":17,"dewp":15,"wdir":190,"wspd":3,"visib":"6+","altim":1021,"clouds":[{"cover":"SCT","base":1200},{"cover":"OVC","base":1500}],"obsTime":1779559200},"SBMQ":{"icaoId":"SBMQ","flightCategory":"VFR","rawOb":"METAR SBMQ 231800Z 36003KT 9999 SCT009 BKN100 27/25 Q1012","temp":27,"dewp":25,"wdir":360,"wspd":3,"visib":"6+","altim":1012,"clouds":[{"cover":"SCT","base":900},{"cover":"BKN","base":10000}],"obsTime":1779559200},"SBNT":{"icaoId":"SBNT","flightCategory":"VFR","rawOb":"METAR SBNT 231800Z 14017KT 9999 FEW033 30/21 Q1012","temp":30,"dewp":21,"wdir":140,"wspd":17,"visib":"6+","altim":1012,"clouds":[{"cover":"FEW","base":3300}],"obsTime":1779559200},"SBFL":{"icaoId":"SBFL","flightCategory":"IFR","rawOb":"METAR SBFL 231800Z 22002KT 2000 -RA BR SCT004 BKN007 OVC024 16/16 Q1022","temp":16,"dewp":16,"wdir":220,"wspd":2,"visib":1.24,"altim":1022,"clouds":[{"cover":"SCT","base":400},{"cover":"BKN","base":700},{"cover":"OVC","base":2400}],"obsTime":1779559200},"SBBR":{"icaoId":"SBBR","flightCategory":"MVFR","rawOb":"METAR SBBR 231800Z 12009KT 9999 BKN025 23/16 Q1022","temp":23,"dewp":16,"wdir":120,"wspd":9,"visib":"6+","altim":1022,"clouds":[{"cover":"BKN","base":2500}],"obsTime":1779559200},"SBFZ":{"icaoId":"SBFZ","flightCategory":"VFR","rawOb":"METAR SBFZ 231800Z 10010KT 9999 SCT030 BKN060 30/23 Q1011","temp":30,"dewp":23,"wdir":100,"wspd":10,"visib":"6+","altim":1011,"clouds":[{"cover":"SCT","base":3000},{"cover":"BKN","base":6000}],"obsTime":1779559200},"SBPJ":{"icaoId":"SBPJ","flightCategory":"VFR","rawOb":"METAR SBPJ 231800Z 13008KT 9999 SCT040 34/18 Q1013","temp":34,"dewp":18,"wdir":130,"wspd":8,"visib":"6+","altim":1013,"clouds":[{"cover":"SCT","base":4000}],"obsTime":1779559200},"SBGL":{"icaoId":"SBGL","flightCategory":"VFR","rawOb":"METAR SBGL 231800Z 12006KT 9999 FEW025 27/18 Q1019","temp":27,"dewp":18,"wdir":120,"wspd":6,"visib":"6+","altim":1019,"clouds":[{"cover":"FEW","base":2500}],"obsTime":1779559200},"SBPV":{"icaoId":"SBPV","flightCategory":"VFR","rawOb":"METAR SBPV 231800Z 19005KT 140V240 9999 BKN032 27/22 Q1015","temp":27,"dewp":22,"wdir":190,"wspd":5,"visib":"6+","altim":1015,"clouds":[{"cover":"BKN","base":3200}],"obsTime":1779559200},"SBCG":{"icaoId":"SBCG","flightCategory":"VFR","rawOb":"METAR SBCG 231800Z VRB02KT 9999 BKN045 BKN055 25/18 Q1019","temp":25,"dewp":18,"wdir":"VRB","wspd":2,"visib":"6+","altim":1019,"clouds":[{"cover":"BKN","base":4500},{"cover":"BKN","base":5500}],"obsTime":1779559200},"SBRB":{"icaoId":"SBRB","flightCategory":"VFR","rawOb":"METAR SBRB 231800Z 18006KT 9999 SCT030 SCT070 24/17 Q1018","temp":24,"dewp":17,"wdir":180,"wspd":6,"visib":"6+","altim":1018,"clouds":[{"cover":"SCT","base":3000},{"cover":"SCT","base":7000}],"obsTime":1779559200},"SBRF":{"icaoId":"SBRF","flightCategory":"VFR","rawOb":"METAR SBRF 231800Z 13012KT 9999 SCT025 29/23 Q1013","temp":29,"dewp":23,"wdir":130,"wspd":12,"visib":"6+","altim":1013,"clouds":[{"cover":"SCT","base":2500}],"obsTime":1779559200},"SBGO":{"icaoId":"SBGO","flightCategory":"VFR","rawOb":"METAR SBGO 231800Z 08010KT 9999 FEW045 27/17 Q1020","temp":27,"dewp":17,"wdir":80,"wspd":10,"visib":"6+","altim":1020,"clouds":[{"cover":"FEW","base":4500}],"obsTime":1779559200},"SBSG":{"icaoId":"SBSG","flightCategory":"VFR","rawOb":"METAR SBSG 231800Z 13009KT 100V170 9999 SCT035 29/21 Q1012","temp":29,"dewp":21,"wdir":130,"wspd":9,"visib":"6+","altim":1012,"clouds":[{"cover":"SCT","base":3500}],"obsTime":1779559200},"SBSL":{"icaoId":"SBSL","flightCategory":"VFR","rawOb":"METAR SBSL 231800Z 15007KT 9999 SCT030 SCT090 32/23 Q1010","temp":32,"dewp":23,"wdir":150,"wspd":7,"visib":"6+","altim":1010,"clouds":[{"cover":"SCT","base":3000},{"cover":"SCT","base":9000}],"obsTime":1779559200},"SBCP":{"icaoId":"SBCP","flightCategory":"MVFR","rawOb":"METAR SBCP 231800Z 11004KT 9999 BKN010 OVC070 23/19 Q1022","temp":23,"dewp":19,"wdir":110,"wspd":4,"visib":"6+","altim":1022,"clouds":[{"cover":"BKN","base":1000},{"cover":"OVC","base":7000}],"obsTime":1779559200},"SBSN":{"icaoId":"SBSN","flightCategory":"MVFR","rawOb":"METAR SBSN 231800Z 24003KT 8000 TS VCSH SCT020 FEW025CB 29/24 Q1011","temp":29,"dewp":24,"wdir":240,"wspd":3,"visib":4.97,"altim":1011,"clouds":[{"cover":"SCT","base":2000},{"cover":"FEW","base":2500}],"obsTime":1779559200},"SBSP":{"icaoId":"SBSP","flightCategory":"IFR","rawOb":"METAR SBSP 231800Z 18005KT 150V210 7000 BKN006 17/17 Q1023","temp":17,"dewp":17,"wdir":180,"wspd":5,"visib":4.35,"altim":1023,"clouds":[{"cover":"BKN","base":600}],"obsTime":1779559200},"SBSV":{"icaoId":"SBSV","flightCategory":"VFR","rawOb":"METAR SBSV 231800Z 08010KT 9999 VCSH SCT018 FEW025TCU SCT060 26/24 Q1015","temp":26,"dewp":24,"wdir":80,"wspd":10,"visib":"6+","altim":1015,"clouds":[{"cover":"SCT","base":1800},{"cover":"FEW","base":2500},{"cover":"SCT","base":6000}],"obsTime":1779559200},"SBAT":{"icaoId":"SBAT","flightCategory":"VFR","rawOb":"METAR SBAT 231800Z 13006KT 9999 SCT030 33/22 Q1014","temp":33,"dewp":22,"wdir":130,"wspd":6,"visib":"6+","altim":1014,"clouds":[{"cover":"SCT","base":3000}],"obsTime":1779559200},"SBTE":{"icaoId":"SBTE","flightCategory":"VFR","rawOb":"METAR SBTE 231800Z 13007KT 9999 FEW025 32/21 Q1010","temp":32,"dewp":21,"wdir":130,"wspd":7,"visib":"6+","altim":1010,"clouds":[{"cover":"FEW","base":2500}],"obsTime":1779559200},"SBHT":{"icaoId":"SBHT","flightCategory":"VFR","rawOb":"METAR SBHT 231800Z 04007KT 9999 FEW030 SCT100 30/24 Q1012","temp":30,"dewp":24,"wdir":40,"wspd":7,"visib":"6+","altim":1012,"clouds":[{"cover":"FEW","base":3000},{"cover":"SCT","base":10000}],"obsTime":1779559200},"SBUL":{"icaoId":"SBUL","flightCategory":"VFR","rawOb":"METAR SBUL 231800Z 07011KT 030V100 9999 BKN040 24/16 Q1022","temp":24,"dewp":16,"wdir":70,"wspd":11,"visib":"6+","altim":1022,"clouds":[{"cover":"BKN","base":4000}],"obsTime":1779559200},"SBCR":{"icaoId":"SBCR","flightCategory":"VFR","rawOb":"METAR SBCR 231800Z 21009KT 180V240 CAVOK 22/14 Q1019","temp":22,"dewp":14,"wdir":210,"wspd":9,"visib":"6+","altim":1019,"clouds":[],"obsTime":1779559200},"SBUR":{"icaoId":"SBUR","flightCategory":"VFR","rawOb":"METAR SBUR 231800Z 36008KT 9999 SCT040 27/16 Q1021","temp":27,"dewp":16,"wdir":360,"wspd":8,"visib":"6+","altim":1021,"clouds":[{"cover":"SCT","base":4000}],"obsTime":1779559200},"SBIL":{"icaoId":"SBIL","flightCategory":"MVFR","rawOb":"METAR SBIL 231800Z 17010KT 130V200 6000 -RA FEW007 SCT018 FEW025TCU OVC090 25/23 Q1018","temp":25,"dewp":23,"wdir":170,"wspd":10,"visib":3.73,"altim":1018,"clouds":[{"cover":"FEW","base":700},{"cover":"SCT","base":1800},{"cover":"FEW","base":2500},{"cover":"OVC","base":9000}],"obsTime":1779559200},"SBJU":{"icaoId":"SBJU","flightCategory":"VFR","rawOb":"METAR SBJU 231800Z 15009KT 9999 SCT022 31/21 Q1013","temp":31,"dewp":21,"wdir":150,"wspd":9,"visib":"6+","altim":1013,"clouds":[{"cover":"SCT","base":2200}],"obsTime":1779559200},"SBVT":{"icaoId":"SBVT","flightCategory":"VFR","rawOb":"METAR SBVT 231800Z VRB02KT 9999 VCSH SCT026 BKN035 23/19 Q1021","temp":23,"dewp":19,"wdir":"VRB","wspd":2,"visib":"6+","altim":1021,"clouds":[{"cover":"SCT","base":2600},{"cover":"BKN","base":3500}],"obsTime":1779559200},"SBBV":{"icaoId":"SBBV","flightCategory":"MVFR","rawOb":"METAR SBBV 231800Z 24004KT 9999 VCSH BKN030 FEW035TCU BKN080 30/24 Q1012","temp":30,"dewp":24,"wdir":240,"wspd":4,"visib":"6+","altim":1012,"clouds":[{"cover":"BKN","base":3000},{"cover":"FEW","base":3500},{"cover":"BKN","base":8000}],"obsTime":1779559200},"SBCT":{"icaoId":"SBCT","flightCategory":"MVFR","rawOb":"METAR SBCT 231800Z VRB02KT 7000 OVC011 16/14 Q1023","temp":16,"dewp":14,"wdir":"VRB","wspd":2,"visib":4.35,"altim":1023,"clouds":[{"cover":"OVC","base":1100}],"obsTime":1779559200},"SBKP":{"icaoId":"SBKP","flightCategory":"VFR","rawOb":"METAR SBKP 231800Z 36002KT 9999 FEW015 SCT035 22/18 Q1022","temp":22,"dewp":18,"wdir":360,"wspd":2,"visib":"6+","altim":1022,"clouds":[{"cover":"FEW","base":1500},{"cover":"SCT","base":3500}],"obsTime":1779559200},"SBCZ":{"icaoId":"SBCZ","flightCategory":"VFR","rawOb":"METAR SBCZ 231800Z 11005KT 9999 SCT030 BKN100 25/20 Q1017","temp":25,"dewp":20,"wdir":110,"wspd":5,"visib":"6+","altim":1017,"clouds":[{"cover":"SCT","base":3000},{"cover":"BKN","base":10000}],"obsTime":1779559200},"SBMA":{"icaoId":"SBMA","flightCategory":"VFR","rawOb":"METAR SBMA 231800Z 07004KT 9999 FEW025 33/21 Q1011","temp":33,"dewp":21,"wdir":70,"wspd":4,"visib":"6+","altim":1011,"clouds":[{"cover":"FEW","base":2500}],"obsTime":1779559200},"SBLO":{"icaoId":"SBLO","flightCategory":"VFR","rawOb":"METAR SBLO 231800Z 09004KT CAVOK 21/17 Q1021","temp":21,"dewp":17,"wdir":90,"wspd":4,"visib":"6+","altim":1021,"clouds":[],"obsTime":1779559200},"SBCB":{"icaoId":"SBCB","flightCategory":"VFR","rawOb":"METAR SBCB 231800Z 06016KT CAVOK 24/18 Q1020","temp":24,"dewp":18,"wdir":60,"wspd":16,"visib":"6+","altim":1020,"clouds":[],"obsTime":1779559200},"SBEG":{"icaoId":"SBEG","flightCategory":"VFR","rawOb":"METAR SBEG 231800Z 24003KT 9999 SCT025 FEW030TCU 29/24 Q1013 WS R11","temp":29,"dewp":24,"wdir":240,"wspd":3,"visib":"6+","altim":1013,"clouds":[{"cover":"SCT","base":2500},{"cover":"FEW","base":3000}],"obsTime":1779559200},"SBME":{"icaoId":"SBME","flightCategory":"MVFR","rawOb":"METAR SBME 231800Z 06009KT 9999 BKN025 BKN080 24/19 Q1021","temp":24,"dewp":19,"wdir":60,"wspd":9,"visib":"6+","altim":1021,"clouds":[{"cover":"BKN","base":2500},{"cover":"BKN","base":8000}],"obsTime":1779559200},"SBMG":{"icaoId":"SBMG","flightCategory":"VFR","rawOb":"METAR SBMG 231800Z VRB01KT 9999 SCT030 BKN050 BKN100 24/17 Q1019","temp":24,"dewp":17,"wdir":"VRB","wspd":1,"visib":"6+","altim":1019,"clouds":[{"cover":"SCT","base":3000},{"cover":"BKN","base":5000},{"cover":"BKN","base":10000}],"obsTime":1779559200},"SBOI":{"icaoId":"SBOI","flightCategory":"IFR","rawOb":"METAR SBOI 231800Z AUTO VRB02KT 9999 BKN006 26/24 Q1013","temp":26,"dewp":24,"wdir":"VRB","wspd":2,"visib":"6+","altim":1013,"clouds":[{"cover":"BKN","base":600}],"obsTime":1779559200},"SBAX":{"icaoId":"SBAX","flightCategory":"VFR","rawOb":"METAR SBAX 231800Z AUTO 05004KT 010V150 9999 FEW035 25/15 Q1022","temp":25,"dewp":15,"wdir":50,"wspd":4,"visib":"6+","altim":1022,"clouds":[{"cover":"FEW","base":3500}],"obsTime":1779559200},"SBCJ":{"icaoId":"SBCJ","flightCategory":"VFR","rawOb":"METAR SBCJ 231800Z 14008KT 9999 SCT025 29/19 Q1016","temp":29,"dewp":19,"wdir":140,"wspd":8,"visib":"6+","altim":1016,"clouds":[{"cover":"SCT","base":2500}],"obsTime":1779559200},"SBPB":{"icaoId":"SBPB","flightCategory":"VFR","rawOb":"METAR SBPB 231800Z 05008KT 9999 FEW020 SCT100 31/24 Q1010","temp":31,"dewp":24,"wdir":50,"wspd":8,"visib":"6+","altim":1010,"clouds":[{"cover":"FEW","base":2000},{"cover":"SCT","base":10000}],"obsTime":1779559200},"SBPL":{"icaoId":"SBPL","flightCategory":"VFR","rawOb":"METAR SBPL 231800Z 10010KT 9999 SCT030 33/17 Q1014","temp":33,"dewp":17,"wdir":100,"wspd":10,"visib":"6+","altim":1014,"clouds":[{"cover":"SCT","base":3000}],"obsTime":1779559200},"SBAR":{"icaoId":"SBAR","flightCategory":"VFR","rawOb":"METAR SBAR 231800Z 12010KT 9999 VCSH SCT025 FEW027TCU SCT050 28/23 Q1014","temp":28,"dewp":23,"wdir":120,"wspd":10,"visib":"6+","altim":1014,"clouds":[{"cover":"SCT","base":2500},{"cover":"FEW","base":2700},{"cover":"SCT","base":5000}],"obsTime":1779559200},"SBPP":{"icaoId":"SBPP","flightCategory":"MVFR","rawOb":"METAR SBPP 231800Z 09003KT 9999 BKN015 BKN070 19/15 Q1021","temp":19,"dewp":15,"wdir":90,"wspd":3,"visib":"6+","altim":1021,"clouds":[{"cover":"BKN","base":1500},{"cover":"BKN","base":7000}],"obsTime":1779559200},"SBCO":{"icaoId":"SBCO","flightCategory":"IFR","rawOb":"METAR SBCO 231800Z 12008KT 4000 -RA BR BKN008 OVC015 16/15 Q1023","temp":16,"dewp":15,"wdir":120,"wspd":8,"visib":2.49,"altim":1023,"clouds":[{"cover":"BKN","base":800},{"cover":"OVC","base":1500}],"obsTime":1779559200},"SBBU":{"icaoId":"SBBU","flightCategory":"LIFR","rawOb":"METAR SBBU 231800Z 20003KT 2500 -TSRA BR BKN002 BKN012 FEW025CB 20/20 Q1021 RERA","temp":20,"dewp":20,"wdir":200,"wspd":3,"visib":1.55,"altim":1021,"clouds":[{"cover":"BKN","base":200},{"cover":"BKN","base":1200},{"cover":"FEW","base":2500}],"obsTime":1779559200},"SBPS":{"icaoId":"SBPS","flightCategory":"MVFR","rawOb":"METAR SBPS 231800Z 14006KT 090V180 9999 FEW015 BKN030 OVC070 27/21 Q1019","temp":27,"dewp":21,"wdir":140,"wspd":6,"visib":"6+","altim":1019,"clouds":[{"cover":"FEW","base":1500},{"cover":"BKN","base":3000},{"cover":"OVC","base":7000}],"obsTime":1779559200},"SBDN":{"icaoId":"SBDN","flightCategory":"IFR","rawOb":"METAR SBDN 231800Z 05002KT 4000 -RA FEW002 BKN040 FEW050TCU 20/18 Q1020","temp":20,"dewp":18,"wdir":50,"wspd":2,"visib":2.49,"altim":1020,"clouds":[{"cover":"FEW","base":200},{"cover":"BKN","base":4000},{"cover":"FEW","base":5000}],"obsTime":1779559200},"SBSC":{"icaoId":"SBSC","flightCategory":"MVFR","rawOb":"METAR SBSC 231800Z 22008KT 8000 SCT015 SCT040 BKN070 23/19 Q1020","temp":23,"dewp":19,"wdir":220,"wspd":8,"visib":4.97,"altim":1020,"clouds":[{"cover":"SCT","base":1500},{"cover":"SCT","base":4000},{"cover":"BKN","base":7000}],"obsTime":1779559200},"SBSJ":{"icaoId":"SBSJ","flightCategory":"MVFR","rawOb":"METAR SBSJ 231800Z 18002KT 8000 SCT020 BKN035 21/16 Q1022","temp":21,"dewp":16,"wdir":180,"wspd":2,"visib":4.97,"altim":1022,"clouds":[{"cover":"SCT","base":2000},{"cover":"BKN","base":3500}],"obsTime":1779559200},"SBBH":{"icaoId":"SBBH","flightCategory":"MVFR","rawOb":"METAR SBBH 231800Z 10007KT 9999 BKN030 23/16 Q1023","temp":23,"dewp":16,"wdir":100,"wspd":7,"visib":"6+","altim":1023,"clouds":[{"cover":"BKN","base":3000}],"obsTime":1779559200},"SBSM":{"icaoId":"SBSM","flightCategory":"VFR","rawOb":"METAR SBSM 231800Z 11009KT 070V140 9999 SCT026 17/12 Q1023","temp":17,"dewp":12,"wdir":110,"wspd":9,"visib":"6+","altim":1023,"clouds":[{"cover":"SCT","base":2600}],"obsTime":1779559200},"SBES":{"icaoId":"SBES","flightCategory":"VFR","rawOb":"METAR SBES 231800Z VRB13G23KT 9999 FEW022 23/// Q1020","temp":null,"dewp":null,"wdir":"VRB","wspd":13,"visib":"6+","altim":1020,"clouds":[{"cover":"FEW","base":2200}],"obsTime":1779559200},"SBSR":{"icaoId":"SBSR","flightCategory":"VFR","rawOb":"METAR SBSR 231800Z 05007KT 9999 SCT035 28/16 Q1019","temp":28,"dewp":16,"wdir":50,"wspd":7,"visib":"6+","altim":1019,"clouds":[{"cover":"SCT","base":3500}],"obsTime":1779559200},"SBCA":{"icaoId":"SBCA","flightCategory":"IFR","rawOb":"METAR SBCA 231800Z 20003KT 170V240 4500 BR SCT010 BKN020 15/15 Q1022","temp":15,"dewp":15,"wdir":200,"wspd":3,"visib":2.8,"altim":1022,"clouds":[{"cover":"SCT","base":1000},{"cover":"BKN","base":2000}],"obsTime":1779559200},"SBTF":{"icaoId":"SBTF","flightCategory":"MVFR","rawOb":"METAR SBTF 231800Z 22004KT 9999 FEW007 BKN015 26/23 Q1014","temp":26,"dewp":23,"wdir":220,"wspd":4,"visib":"6+","altim":1014,"clouds":[{"cover":"FEW","base":700},{"cover":"BKN","base":1500}],"obsTime":1779559200},"SBGM":{"icaoId":"SBGM","flightCategory":"MVFR","rawOb":"METAR SBGM 231800Z 15006KT 9999 OVC025 24/17 Q1017","temp":24,"dewp":17,"wdir":150,"wspd":6,"visib":"6+","altim":1017,"clouds":[{"cover":"OVC","base":2500}],"obsTime":1779559200},"SBBQ":{"icaoId":"SBBQ","flightCategory":"MVFR","rawOb":"METAR SBBQ 231800Z 08006KT 9999 BKN025 20/15 Q1026","temp":20,"dewp":15,"wdir":80,"wspd":6,"visib":"6+","altim":1026,"clouds":[{"cover":"BKN","base":2500}],"obsTime":1779559200},"SBTT":{"icaoId":"SBTT","flightCategory":"VFR","rawOb":"METAR SBTT 231800Z 22008KT 9999 SCT020 BKN040 25/20 Q1016","temp":25,"dewp":20,"wdir":220,"wspd":8,"visib":"6+","altim":1016,"clouds":[{"cover":"SCT","base":2000},{"cover":"BKN","base":4000}],"obsTime":1779559200},"SBTU":{"icaoId":"SBTU","flightCategory":"VFR","rawOb":"METAR SBTU 231800Z AUTO 27003KT 240V310 9999 // FEW023/// SCT032/// 29/24 Q1013","temp":29,"dewp":24,"wdir":270,"wspd":3,"visib":"6+","altim":1013,"clouds":[{"cover":"FEW","base":2300},{"cover":"SCT","base":3200}],"obsTime":1779559200},"SBIP":{"icaoId":"SBIP","flightCategory":"VFR","rawOb":"METAR SBIP 231800Z AUTO 35004KT 310V030 9999 FEW035 OVC046 25/17 Q1021","temp":25,"dewp":17,"wdir":350,"wspd":4,"visib":"6+","altim":1021,"clouds":[{"cover":"FEW","base":3500},{"cover":"OVC","base":4600}],"obsTime":1779559200},"SBKG":{"icaoId":"SBKG","flightCategory":"VFR","rawOb":"METAR SBKG 231800Z 11011KT 9999 SCT018 26/22 Q1015","temp":26,"dewp":22,"wdir":110,"wspd":11,"visib":"6+","altim":1015,"clouds":[{"cover":"SCT","base":1800}],"obsTime":1779559200},"SBUY":{"icaoId":"SBUY","flightCategory":"MVFR","rawOb":"METAR SBUY 231800Z 18004KT 9999 BKN020 BKN100 24/21 Q1014","temp":24,"dewp":21,"wdir":180,"wspd":4,"visib":"6+","altim":1014,"clouds":[{"cover":"BKN","base":2000},{"cover":"BKN","base":10000}],"obsTime":1779559200},"SBCC":{"icaoId":"SBCC","flightCategory":"MVFR","rawOb":"METAR SBCC 231800Z 09011KT 9999 BKN030 31/18 Q1014","temp":31,"dewp":18,"wdir":90,"wspd":11,"visib":"6+","altim":1014,"clouds":[{"cover":"BKN","base":3000}],"obsTime":1779559200},"SBVH":{"icaoId":"SBVH","flightCategory":"VFR","rawOb":"METAR SBVH 231800Z 09009KT 9999 SCT025 26/20 Q1018","temp":26,"dewp":20,"wdir":90,"wspd":9,"visib":"6+","altim":1018,"clouds":[{"cover":"SCT","base":2500}],"obsTime":1779559200},"SBAN":{"icaoId":"SBAN","flightCategory":"MVFR","rawOb":"METAR SBAN 231800Z 17008KT 130V210 9999 BKN027 BKN100 24/16 Q1023","temp":24,"dewp":16,"wdir":170,"wspd":8,"visib":"6+","altim":1023,"clouds":[{"cover":"BKN","base":2700},{"cover":"BKN","base":10000}],"obsTime":1779559200},"SBLS":{"icaoId":"SBLS","flightCategory":"MVFR","rawOb":"METAR SBLS 231800Z 11005KT 020V130 9999 BKN030 22/15 Q1022","temp":22,"dewp":15,"wdir":110,"wspd":5,"visib":"6+","altim":1022,"clouds":[{"cover":"BKN","base":3000}],"obsTime":1779559200},"SBMT":{"icaoId":"SBMT","flightCategory":"IFR","rawOb":"METAR SBMT 231800Z 10005KT 060V150 5000 BR BKN009 OVC011 17/16 Q1022","temp":17,"dewp":16,"wdir":100,"wspd":5,"visib":3.11,"altim":1022,"clouds":[{"cover":"BKN","base":900},{"cover":"OVC","base":1100}],"obsTime":1779559200},"SBNM":{"icaoId":"SBNM","flightCategory":"VFR","rawOb":"METAR SBNM 231800Z 20002KT 9999 SCT030 20/12 Q1021","temp":20,"dewp":12,"wdir":200,"wspd":2,"visib":"6+","altim":1021,"clouds":[{"cover":"SCT","base":3000}],"obsTime":1779559200},"SBST":{"icaoId":"SBST","flightCategory":"LIFR","rawOb":"METAR SBST 231800Z 03002KT 0800 +RA FG FEW008 OVC010 18/18 Q1021","temp":18,"dewp":18,"wdir":30,"wspd":2,"visib":0.5,"altim":1021,"clouds":[{"cover":"FEW","base":800},{"cover":"OVC","base":1000}],"obsTime":1779559200},"SBTA":{"icaoId":"SBTA","flightCategory":"VFR","rawOb":"METAR SBTA 231800Z 04004KT 340V080 9999 SCT020 SCT040 23/16 Q1021","temp":23,"dewp":16,"wdir":40,"wspd":4,"visib":"6+","altim":1021,"clouds":[{"cover":"SCT","base":2000},{"cover":"SCT","base":4000}],"obsTime":1779559200},"SBTC":{"icaoId":"SBTC","flightCategory":"VFR","rawOb":"METAR SBTC 231800Z 16009KT 9999 SCT020 BKN080 27/22 Q1018","temp":27,"dewp":22,"wdir":160,"wspd":9,"visib":"6+","altim":1018,"clouds":[{"cover":"SCT","base":2000},{"cover":"BKN","base":8000}],"obsTime":1779559200},"SBAF":{"icaoId":"SBAF","flightCategory":"VFR","rawOb":"METAR SBAF 231800Z 18004KT 130V250 9999 FEW030 SCT050 26/21 Q1019","temp":26,"dewp":21,"wdir":180,"wspd":4,"visib":"6+","altim":1019,"clouds":[{"cover":"FEW","base":3000},{"cover":"SCT","base":5000}],"obsTime":1779559200},"SBIH":{"icaoId":"SBIH","flightCategory":"VFR","rawOb":"METAR SBIH 231800Z 19004KT 9999 SCT018 31/25 Q1011","temp":31,"dewp":25,"wdir":190,"wspd":4,"visib":"6+","altim":1011,"clouds":[{"cover":"SCT","base":1800}],"obsTime":1779559200},"SBLE":{"icaoId":"SBLE","flightCategory":"VFR","rawOb":"METAR SBLE 231800Z AUTO 18004KT 150V240 9999 FEW010 BKN031 24/24 Q1018","temp":24,"dewp":24,"wdir":180,"wspd":4,"visib":"6+","altim":1018,"clouds":[{"cover":"FEW","base":1000},{"cover":"BKN","base":3100}],"obsTime":1779559200},"SBGW":{"icaoId":"SBGW","flightCategory":"VFR","rawOb":"METAR SBGW 231800Z 02005KT 350V060 9999 SCT027 BKN075 23/14 Q1021","temp":23,"dewp":14,"wdir":20,"wspd":5,"visib":"6+","altim":1021,"clouds":[{"cover":"SCT","base":2700},{"cover":"BKN","base":7500}],"obsTime":1779559200},"SBJP":{"icaoId":"SBJP","flightCategory":"VFR","rawOb":"METAR SBJP 231800Z 14013KT 9999 SCT030 29/21 Q1013","temp":29,"dewp":21,"wdir":140,"wspd":13,"visib":"6+","altim":1013,"clouds":[{"cover":"SCT","base":3000}],"obsTime":1779559200},"SBJV":{"icaoId":"SBJV","flightCategory":"VFR","rawOb":"METAR SBJV 231800Z 14002KT 9999 FEW010 OVC040 18/15 Q1022","temp":18,"dewp":15,"wdir":140,"wspd":2,"visib":"6+","altim":1022,"clouds":[{"cover":"FEW","base":1000},{"cover":"OVC","base":4000}],"obsTime":1779559200},"SBJR":{"icaoId":"SBJR","flightCategory":"VFR","rawOb":"METAR SBJR 231800Z 11006KT 9999 SCT025 BKN090 26/19 Q1019","temp":26,"dewp":19,"wdir":110,"wspd":6,"visib":"6+","altim":1019,"clouds":[{"cover":"SCT","base":2500},{"cover":"BKN","base":9000}],"obsTime":1779559200},"SBPF":{"icaoId":"SBPF","flightCategory":"VFR","rawOb":"METAR SBPF 231800Z AUTO 12006KT 090V150 //// // BKN012/// BKN018/// OVC042/// 14/11 Q1023","temp":14,"dewp":11,"wdir":120,"wspd":6,"visib":null,"altim":1023,"clouds":[{"cover":"BKN","base":1200},{"cover":"BKN","base":1800},{"cover":"OVC","base":4200}],"obsTime":1779559200}}}