{"updated":1776166396,"count":82,"data":{"SBSV":{"icaoId":"SBSV","flightCategory":"MVFR","rawOb":"METAR SBSV 141000Z 20008KT 160V220 6000 -SHRA FEW017 BKN022 FEW024TCU OVC050 26/23 Q1013","temp":26,"dewp":23,"wdir":200,"wspd":8,"visib":3.73,"altim":1013,"clouds":[{"cover":"FEW","base":1700},{"cover":"BKN","base":2200},{"cover":"FEW","base":2400},{"cover":"OVC","base":5000}],"obsTime":1776160800},"SBPV":{"icaoId":"SBPV","flightCategory":"LIFR","rawOb":"METAR SBPV 141000Z 04001KT 0500 FG BKN005 SCT030 25/23 Q1009","temp":25,"dewp":23,"wdir":40,"wspd":1,"visib":0.31,"altim":1009,"clouds":[{"cover":"BKN","base":500},{"cover":"SCT","base":3000}],"obsTime":1776160800},"SBMQ":{"icaoId":"SBMQ","flightCategory":"LIFR","rawOb":"METAR SBMQ 141000Z 29003KT 0500 FG BKN002 25/25 Q1010","temp":25,"dewp":25,"wdir":290,"wspd":3,"visib":0.31,"altim":1010,"clouds":[{"cover":"BKN","base":200}],"obsTime":1776160800},"SBBR":{"icaoId":"SBBR","flightCategory":"MVFR","rawOb":"METAR SBBR 141000Z 13003KT 100V160 9999 BKN020 19/18 Q1018","temp":19,"dewp":18,"wdir":130,"wspd":3,"visib":"6+","altim":1018,"clouds":[{"cover":"BKN","base":2000}],"obsTime":1776160800},"SBCF":{"icaoId":"SBCF","flightCategory":"VFR","rawOb":"METAR SBCF 141000Z 16002KT 9999 FEW015 18/16 Q1019","temp":18,"dewp":16,"wdir":160,"wspd":2,"visib":"6+","altim":1019,"clouds":[{"cover":"FEW","base":1500}],"obsTime":1776160800},"SBAT":{"icaoId":"SBAT","flightCategory":"VFR","rawOb":"METAR SBAT 141100Z 00000KT 9999 FEW012 25/25 Q1012","temp":25,"dewp":25,"wdir":0,"wspd":0,"visib":"6+","altim":1012,"clouds":[{"cover":"FEW","base":1200}],"obsTime":1776164400},"SBBE":{"icaoId":"SBBE","flightCategory":"VFR","rawOb":"METAR SBBE 141000Z 07002KT CAVOK 24/24 Q1010","temp":24,"dewp":24,"wdir":70,"wspd":2,"visib":"6+","altim":1010,"clouds":[],"obsTime":1776160800},"SBBV":{"icaoId":"SBBV","flightCategory":"VFR","rawOb":"METAR SBBV 141000Z 14009KT 9999 FEW040 SCT100 26/22 Q1010","temp":26,"dewp":22,"wdir":140,"wspd":9,"visib":"6+","altim":1010,"clouds":[{"cover":"FEW","base":4000},{"cover":"SCT","base":10000}],"obsTime":1776160800},"SBCB":{"icaoId":"SBCB","flightCategory":"VFR","rawOb":"METAR SBCB 141000Z 10002KT CAVOK 21/19 Q1016","temp":21,"dewp":19,"wdir":100,"wspd":2,"visib":"6+","altim":1016,"clouds":[],"obsTime":1776160800},"SBCG":{"icaoId":"SBCG","flightCategory":"VFR","rawOb":"METAR SBCG 141000Z 07008KT CAVOK 22/18 Q1014","temp":22,"dewp":18,"wdir":70,"wspd":8,"visib":"6+","altim":1014,"clouds":[],"obsTime":1776160800},"SBCP":{"icaoId":"SBCP","flightCategory":"VFR","rawOb":"METAR SBCP 141000Z 26003KT 9999 FEW020 21/21 Q1015","temp":21,"dewp":21,"wdir":260,"wspd":3,"visib":"6+","altim":1015,"clouds":[{"cover":"FEW","base":2000}],"obsTime":1776160800},"SBCR":{"icaoId":"SBCR","flightCategory":"VFR","rawOb":"METAR SBCR 141100Z 10006KT 9999 FEW030 26/23 Q1010","temp":26,"dewp":23,"wdir":100,"wspd":6,"visib":"6+","altim":1010,"clouds":[{"cover":"FEW","base":3000}],"obsTime":1776164400},"SBCT":{"icaoId":"SBCT","flightCategory":"MVFR","rawOb":"METAR SBCT 141000Z 07003KT 7000 FEW014 SCT020 15/15 Q1020","temp":15,"dewp":15,"wdir":70,"wspd":3,"visib":4.35,"altim":1020,"clouds":[{"cover":"FEW","base":1400},{"cover":"SCT","base":2000}],"obsTime":1776160800},"SBEG":{"icaoId":"SBEG","flightCategory":"IFR","rawOb":"METAR SBEG 141000Z 33001KT 9999 BKN009 BKN080 24/24 Q1011","temp":24,"dewp":24,"wdir":330,"wspd":1,"visib":"6+","altim":1011,"clouds":[{"cover":"BKN","base":900},{"cover":"BKN","base":8000}],"obsTime":1776160800},"SBFI":{"icaoId":"SBFI","flightCategory":"VFR","rawOb":"METAR SBFI 141000Z 10006KT CAVOK 20/20 Q1013","temp":20,"dewp":20,"wdir":100,"wspd":6,"visib":"6+","altim":1013,"clouds":[],"obsTime":1776160800},"SBFL":{"icaoId":"SBFL","flightCategory":"MVFR","rawOb":"METAR SBFL 141000Z 30005KT 280V020 6000 DZ FEW010 BKN025 BKN050 21/21 Q1017","temp":21,"dewp":21,"wdir":300,"wspd":5,"visib":3.73,"altim":1017,"clouds":[{"cover":"FEW","base":1000},{"cover":"BKN","base":2500},{"cover":"BKN","base":5000}],"obsTime":1776160800},"SBFZ":{"icaoId":"SBFZ","flightCategory":"VFR","rawOb":"METAR SBFZ 141000Z 15004KT 9999 FEW020 BKN100 25/23 Q1010","temp":25,"dewp":23,"wdir":150,"wspd":4,"visib":"6+","altim":1010,"clouds":[{"cover":"FEW","base":2000},{"cover":"BKN","base":10000}],"obsTime":1776160800},"SBGL":{"icaoId":"SBGL","flightCategory":"VFR","rawOb":"METAR SBGL 141000Z VRB02KT 9999 FEW020 SCT060 22/20 Q1016","temp":22,"dewp":20,"wdir":"VRB","wspd":2,"visib":"6+","altim":1016,"clouds":[{"cover":"FEW","base":2000},{"cover":"SCT","base":6000}],"obsTime":1776160800},"SBGO":{"icaoId":"SBGO","flightCategory":"VFR","rawOb":"METAR SBGO 141000Z 13005KT CAVOK 20/18 Q1016","temp":20,"dewp":18,"wdir":130,"wspd":5,"visib":"6+","altim":1016,"clouds":[],"obsTime":1776160800},"SBGR":{"icaoId":"SBGR","flightCategory":"MVFR","rawOb":"METAR SBGR 141000Z 10005KT 7000 BKN013 18/17 Q1019","temp":18,"dewp":17,"wdir":100,"wspd":5,"visib":4.35,"altim":1019,"clouds":[{"cover":"BKN","base":1300}],"obsTime":1776160800},"SBHT":{"icaoId":"SBHT","flightCategory":"VFR","rawOb":"METAR SBHT 141000Z 00000KT 9999 SCT012 BKN080 25/24 Q1010","temp":25,"dewp":24,"wdir":0,"wspd":0,"visib":"6+","altim":1010,"clouds":[{"cover":"SCT","base":1200},{"cover":"BKN","base":8000}],"obsTime":1776160800},"SBIL":{"icaoId":"SBIL","flightCategory":"VFR","rawOb":"METAR SBIL 141000Z 26005KT 9999 FEW020 25/22 Q1014","temp":25,"dewp":22,"wdir":260,"wspd":5,"visib":"6+","altim":1014,"clouds":[{"cover":"FEW","base":2000}],"obsTime":1776160800},"SBJU":{"icaoId":"SBJU","flightCategory":"MVFR","rawOb":"METAR SBJU 141000Z 00000KT 9999 BKN020 24/23 Q1013","temp":24,"dewp":23,"wdir":0,"wspd":0,"visib":"6+","altim":1013,"clouds":[{"cover":"BKN","base":2000}],"obsTime":1776160800},"SBKP":{"icaoId":"SBKP","flightCategory":"MVFR","rawOb":"METAR SBKP 141000Z 12008KT 5000 BR NSC 18/17 Q1018","temp":18,"dewp":17,"wdir":120,"wspd":8,"visib":3.11,"altim":1018,"clouds":[],"obsTime":1776160800},"SBLO":{"icaoId":"SBLO","flightCategory":"VFR","rawOb":"METAR SBLO 141000Z 14003KT CAVOK 19/16 Q1016","temp":19,"dewp":16,"wdir":140,"wspd":3,"visib":"6+","altim":1016,"clouds":[],"obsTime":1776160800},"SBMA":{"icaoId":"SBMA","flightCategory":"VFR","rawOb":"METAR SBMA 141000Z 00000KT 9999 FEW010 25/24 Q1010","temp":25,"dewp":24,"wdir":0,"wspd":0,"visib":"6+","altim":1010,"clouds":[{"cover":"FEW","base":1000}],"obsTime":1776160800},"SBME":{"icaoId":"SBME","flightCategory":"VFR","rawOb":"METAR SBME 141000Z 33003KT CAVOK 20/19 Q1016","temp":20,"dewp":19,"wdir":330,"wspd":3,"visib":"6+","altim":1016,"clouds":[],"obsTime":1776160800},"SBMG":{"icaoId":"SBMG","flightCategory":"VFR","rawOb":"METAR SBMG 141000Z 11008KT 9000 NSC 20/17 Q1014","temp":20,"dewp":17,"wdir":110,"wspd":8,"visib":5.59,"altim":1014,"clouds":[],"obsTime":1776160800},"SBMK":{"icaoId":"SBMK","flightCategory":"VFR","rawOb":"METAR SBMK 141000Z 27002KT 9999 FEW020 19/17 Q1017","temp":19,"dewp":17,"wdir":270,"wspd":2,"visib":"6+","altim":1017,"clouds":[{"cover":"FEW","base":2000}],"obsTime":1776160800},"SBMO":{"icaoId":"SBMO","flightCategory":"VFR","rawOb":"METAR SBMO 141000Z 32003KT 9999 FEW023 SCT070 24/24 Q1011","temp":24,"dewp":24,"wdir":320,"wspd":3,"visib":"6+","altim":1011,"clouds":[{"cover":"FEW","base":2300},{"cover":"SCT","base":7000}],"obsTime":1776160800},"SBNT":{"icaoId":"SBNT","flightCategory":"VFR","rawOb":"METAR SBNT 141000Z 19006KT 9999 VCSH SCT015 SCT022 BKN060 26/25 Q1010","temp":26,"dewp":25,"wdir":190,"wspd":6,"visib":"6+","altim":1010,"clouds":[{"cover":"SCT","base":1500},{"cover":"SCT","base":2200},{"cover":"BKN","base":6000}],"obsTime":1776160800},"SBPA":{"icaoId":"SBPA","flightCategory":"LIFR","rawOb":"METAR SBPA 141000Z 09009KT 5000 BR OVC004 21/20 Q1015","temp":21,"dewp":20,"wdir":90,"wspd":9,"visib":3.11,"altim":1015,"clouds":[{"cover":"OVC","base":400}],"obsTime":1776160800},"SBPJ":{"icaoId":"SBPJ","flightCategory":"VFR","rawOb":"METAR SBPJ 141000Z 30002KT 9999 VCSH FEW012 FEW033TCU BKN070 26/25 Q1012","temp":26,"dewp":25,"wdir":300,"wspd":2,"visib":"6+","altim":1012,"clouds":[{"cover":"FEW","base":1200},{"cover":"FEW","base":3300},{"cover":"BKN","base":7000}],"obsTime":1776160800},"SBRB":{"icaoId":"SBRB","flightCategory":"IFR","rawOb":"METAR SBRB 141000Z 19002KT 8000 -DZ BKN007 BKN090 24/24 Q1010","temp":24,"dewp":24,"wdir":190,"wspd":2,"visib":4.97,"altim":1010,"clouds":[{"cover":"BKN","base":700},{"cover":"BKN","base":9000}],"obsTime":1776160800},"SBRF":{"icaoId":"SBRF","flightCategory":"MVFR","rawOb":"METAR SBRF 141000Z 25003KT 210V310 9000 VCSH SCT015 BKN017 FEW025TCU BKN060 25/24 Q1010","temp":25,"dewp":24,"wdir":250,"wspd":3,"visib":5.59,"altim":1010,"clouds":[{"cover":"SCT","base":1500},{"cover":"BKN","base":1700},{"cover":"FEW","base":2500},{"cover":"BKN","base":6000}],"obsTime":1776160800},"SBSG":{"icaoId":"SBSG","flightCategory":"VFR","rawOb":"METAR SBSG 141000Z 17003KT 140V220 9999 VCSH FEW010 SCT023 FEW026TCU 25/24 Q1010","temp":25,"dewp":24,"wdir":170,"wspd":3,"visib":"6+","altim":1010,"clouds":[{"cover":"FEW","base":1000},{"cover":"SCT","base":2300},{"cover":"FEW","base":2600}],"obsTime":1776160800},"SBSL":{"icaoId":"SBSL","flightCategory":"VFR","rawOb":"METAR SBSL 141000Z 14007KT 9999 FEW020 BKN100 25/25 Q1009","temp":25,"dewp":25,"wdir":140,"wspd":7,"visib":"6+","altim":1009,"clouds":[{"cover":"FEW","base":2000},{"cover":"BKN","base":10000}],"obsTime":1776160800},"SBSN":{"icaoId":"SBSN","flightCategory":"VFR","rawOb":"METAR SBSN 141000Z 17003KT 9999 -RA FEW020 BKN100 23/23 Q1010","temp":23,"dewp":23,"wdir":170,"wspd":3,"visib":"6+","altim":1010,"clouds":[{"cover":"FEW","base":2000},{"cover":"BKN","base":10000}],"obsTime":1776160800},"SBSP":{"icaoId":"SBSP","flightCategory":"VFR","rawOb":"METAR SBSP 141000Z 16005KT 9999 SCT009 SCT018 18/17 Q1020","temp":18,"dewp":17,"wdir":160,"wspd":5,"visib":"6+","altim":1020,"clouds":[{"cover":"SCT","base":900},{"cover":"SCT","base":1800}],"obsTime":1776160800},"SBTE":{"icaoId":"SBTE","flightCategory":"VFR","rawOb":"METAR SBTE 141000Z 00000KT 9999 SCT007 BKN070 24/23 Q1010","temp":24,"dewp":23,"wdir":0,"wspd":0,"visib":"6+","altim":1010,"clouds":[{"cover":"SCT","base":700},{"cover":"BKN","base":7000}],"obsTime":1776160800},"SBUL":{"icaoId":"SBUL","flightCategory":"VFR","rawOb":"METAR SBUL 141000Z 12005KT CAVOK 19/16 Q1018","temp":19,"dewp":16,"wdir":120,"wspd":5,"visib":"6+","altim":1018,"clouds":[],"obsTime":1776160800},"SBUR":{"icaoId":"SBUR","flightCategory":"VFR","rawOb":"METAR SBUR 141000Z 02006KT CAVOK 20/15 Q1017","temp":20,"dewp":15,"wdir":20,"wspd":6,"visib":"6+","altim":1017,"clouds":[],"obsTime":1776160800},"SBVT":{"icaoId":"SBVT","flightCategory":"VFR","rawOb":"METAR SBVT 141000Z 00000KT 9999 FEW040 21/19 Q1015","temp":21,"dewp":19,"wdir":0,"wspd":0,"visib":"6+","altim":1015,"clouds":[{"cover":"FEW","base":4000}],"obsTime":1776160800},"SBPP":{"icaoId":"SBPP","flightCategory":"VFR","rawOb":"SPECI SBPP 141115Z 18009KT 9999 FEW015 BKN080 19/19 Q1015","temp":19,"dewp":19,"wdir":180,"wspd":9,"visib":"6+","altim":1015,"clouds":[{"cover":"FEW","base":1500},{"cover":"BKN","base":8000}],"obsTime":1776165300},"SBTF":{"icaoId":"SBTF","flightCategory":"VFR","rawOb":"SPECI SBTF 141115Z 10004KT CAVOK 25/25 Q1010","temp":25,"dewp":25,"wdir":100,"wspd":4,"visib":"6+","altim":1010,"clouds":[],"obsTime":1776165300},"SBAX":{"icaoId":"SBAX","flightCategory":"VFR","rawOb":"METAR SBAX 141000Z AUTO 11004KT 080V140 CAVOK 18/15 Q1019","temp":18,"dewp":15,"wdir":110,"wspd":4,"visib":"6+","altim":1019,"clouds":[],"obsTime":1776160800},"SBVH":{"icaoId":"SBVH","flightCategory":"VFR","rawOb":"METAR SBVH 141100Z 26002KT CAVOK 22/22 Q1013","temp":22,"dewp":22,"wdir":260,"wspd":2,"visib":"6+","altim":1013,"clouds":[],"obsTime":1776164400},"SBAR":{"icaoId":"SBAR","flightCategory":"IFR","rawOb":"SPECI SBAR 140935Z 22004KT 120V280 2000 RA BR BKN006 SCT021 OVC030 24/24 Q1012","temp":24,"dewp":24,"wdir":220,"wspd":4,"visib":1.24,"altim":1012,"clouds":[{"cover":"BKN","base":600},{"cover":"SCT","base":2100},{"cover":"OVC","base":3000}],"obsTime":1776159300},"SBCA":{"icaoId":"SBCA","flightCategory":"VFR","rawOb":"METAR SBCA 141100Z 06008KT CAVOK 20/18 Q1017","temp":20,"dewp":18,"wdir":60,"wspd":8,"visib":"6+","altim":1017,"clouds":[],"obsTime":1776164400},"SBCC":{"icaoId":"SBCC","flightCategory":"VFR","rawOb":"METAR SBCC 141100Z 06004KT CAVOK 24/22 Q1013","temp":24,"dewp":22,"wdir":60,"wspd":4,"visib":"6+","altim":1013,"clouds":[],"obsTime":1776164400},"SBCJ":{"icaoId":"SBCJ","flightCategory":"LIFR","rawOb":"SPECI SBCJ 141015Z 00000KT 4000 -RA BR BKN003 SCT010 BKN080 23/22 Q1015","temp":23,"dewp":22,"wdir":0,"wspd":0,"visib":2.49,"altim":1015,"clouds":[{"cover":"BKN","base":300},{"cover":"SCT","base":1000},{"cover":"BKN","base":8000}],"obsTime":1776161700},"SBCO":{"icaoId":"SBCO","flightCategory":"LIFR","rawOb":"METAR SBCO 141000Z 10007KT 0300 R13///// R31/0750 FG VV002 20/20 Q1015","temp":20,"dewp":20,"wdir":100,"wspd":7,"visib":0.19,"altim":1015,"clouds":[{"cover":"OVX","base":200}],"obsTime":1776160800},"SBDN":{"icaoId":"SBDN","flightCategory":"VFR","rawOb":"METAR SBDN 141000Z 10007KT CAVOK 20/17 Q1015","temp":20,"dewp":17,"wdir":100,"wspd":7,"visib":"6+","altim":1015,"clouds":[],"obsTime":1776160800},"SBES":{"icaoId":"SBES","flightCategory":"VFR","rawOb":"METAR SBES 141000Z VRB02KT CAVOK 17/// Q1016","temp":null,"dewp":null,"wdir":"VRB","wspd":2,"visib":"6+","altim":1016,"clouds":[],"obsTime":1776160800},"SBIP":{"icaoId":"SBIP","flightCategory":"VFR","rawOb":"METAR SBIP 141000Z AUTO VRB02KT CAVOK 22/21 Q1016","temp":22,"dewp":21,"wdir":"VRB","wspd":2,"visib":"6+","altim":1016,"clouds":[],"obsTime":1776160800},"SBKG":{"icaoId":"SBKG","flightCategory":"MVFR","rawOb":"METAR SBKG 141000Z 11005KT 5000 -RA BR SCT006 BKN010 23/22 Q1013","temp":23,"dewp":22,"wdir":110,"wspd":5,"visib":3.11,"altim":1013,"clouds":[{"cover":"SCT","base":600},{"cover":"BKN","base":1000}],"obsTime":1776160800},"SBOI":{"icaoId":"SBOI","flightCategory":"VFR","rawOb":"METAR SBOI 141000Z AUTO 00000KT 9999 // FEW002/// SCT062/// OVC070/// 25/24 Q1010","temp":25,"dewp":24,"wdir":0,"wspd":0,"visib":"6+","altim":1010,"clouds":[{"cover":"FEW","base":200},{"cover":"SCT","base":6200},{"cover":"OVC","base":7000}],"obsTime":1776160800},"SBPB":{"icaoId":"SBPB","flightCategory":"VFR","rawOb":"SPECI SBPB 141015Z 28002KT 9999 SCT010 SCT015 BKN070 26/25 Q1010","temp":26,"dewp":25,"wdir":280,"wspd":2,"visib":"6+","altim":1010,"clouds":[{"cover":"SCT","base":1000},{"cover":"SCT","base":1500},{"cover":"BKN","base":7000}],"obsTime":1776161700},"SBPL":{"icaoId":"SBPL","flightCategory":"VFR","rawOb":"METAR SBPL 141000Z 11008KT 9999 FEW020 25/21 Q1013","temp":25,"dewp":21,"wdir":110,"wspd":8,"visib":"6+","altim":1013,"clouds":[{"cover":"FEW","base":2000}],"obsTime":1776160800},"SBPS":{"icaoId":"SBPS","flightCategory":"MVFR","rawOb":"METAR SBPS 141000Z 24003KT 8000 -RA SCT018 BKN040 22/22 Q1015","temp":22,"dewp":22,"wdir":240,"wspd":3,"visib":4.97,"altim":1015,"clouds":[{"cover":"SCT","base":1800},{"cover":"BKN","base":4000}],"obsTime":1776160800},"SBSC":{"icaoId":"SBSC","flightCategory":"MVFR","rawOb":"METAR SBSC 141000Z 03002KT 8000 SCT040 21/20 Q1016","temp":21,"dewp":20,"wdir":30,"wspd":2,"visib":4.97,"altim":1016,"clouds":[{"cover":"SCT","base":4000}],"obsTime":1776160800},"SBSJ":{"icaoId":"SBSJ","flightCategory":"MVFR","rawOb":"METAR SBSJ 141000Z 16002KT 7000 SCT025 17/16 Q1019","temp":17,"dewp":16,"wdir":160,"wspd":2,"visib":4.35,"altim":1019,"clouds":[{"cover":"SCT","base":2500}],"obsTime":1776160800},"SBSM":{"icaoId":"SBSM","flightCategory":"IFR","rawOb":"METAR SBSM 141000Z 10008KT 6000 SCT003 OVC005 20/19 Q1014","temp":20,"dewp":19,"wdir":100,"wspd":8,"visib":3.73,"altim":1014,"clouds":[{"cover":"SCT","base":300},{"cover":"OVC","base":500}],"obsTime":1776160800},"SBSR":{"icaoId":"SBSR","flightCategory":"VFR","rawOb":"METAR SBSR 141000Z 14004KT 110V180 CAVOK 21/17 Q1016","temp":21,"dewp":17,"wdir":140,"wspd":4,"visib":"6+","altim":1016,"clouds":[],"obsTime":1776160800},"SBTD":{"icaoId":"SBTD","flightCategory":"VFR","rawOb":"METAR SBTD 141100Z /////KT CAVOK 20/19 Q1016","temp":20,"dewp":19,"wdir":null,"wspd":null,"visib":"6+","altim":1016,"clouds":[],"obsTime":1776164400},"SBTT":{"icaoId":"SBTT","flightCategory":"LIFR","rawOb":"METAR SBTT 141100Z 16002KT 0300 FG VV002 23/22 Q1009","temp":23,"dewp":22,"wdir":160,"wspd":2,"visib":0.19,"altim":1009,"clouds":[{"cover":"OVX","base":200}],"obsTime":1776164400},"SBUY":{"icaoId":"SBUY","flightCategory":"LIFR","rawOb":"METAR SBUY 141100Z 13001KT 0500 FG NSC 23/23 Q1009","temp":23,"dewp":23,"wdir":130,"wspd":1,"visib":0.31,"altim":1009,"clouds":[],"obsTime":1776164400},"SBBH":{"icaoId":"SBBH","flightCategory":"VFR","rawOb":"METAR SBBH 141000Z 10005KT 9999 FEW023 19/17 Q1019","temp":19,"dewp":17,"wdir":100,"wspd":5,"visib":"6+","altim":1019,"clouds":[{"cover":"FEW","base":2300}],"obsTime":1776160800},"SBBU":{"icaoId":"SBBU","flightCategory":"VFR","rawOb":"METAR SBBU 141000Z 09008KT CAVOK 20/18 Q1017","temp":20,"dewp":18,"wdir":90,"wspd":8,"visib":"6+","altim":1017,"clouds":[],"obsTime":1776160800},"SBJV":{"icaoId":"SBJV","flightCategory":"MVFR","rawOb":"METAR SBJV 141000Z 00000KT 8000 SCT002 BKN050 22/22 Q1016","temp":22,"dewp":22,"wdir":0,"wspd":0,"visib":4.97,"altim":1016,"clouds":[{"cover":"SCT","base":200},{"cover":"BKN","base":5000}],"obsTime":1776160800},"SBPF":{"icaoId":"SBPF","flightCategory":"VFR","rawOb":"METAR SBPF 141000Z 08010KT CAVOK 18/15 Q1017","temp":18,"dewp":15,"wdir":80,"wspd":10,"visib":"6+","altim":1017,"clouds":[],"obsTime":1776160800},"SBAN":{"icaoId":"SBAN","flightCategory":"VFR","rawOb":"METAR SBAN 141000Z 15005KT CAVOK 18/17 Q1019","temp":18,"dewp":17,"wdir":150,"wspd":5,"visib":"6+","altim":1019,"clouds":[],"obsTime":1776160800},"SBLE":{"icaoId":"SBLE","flightCategory":"VFR","rawOb":"METAR SBLE 141000Z AUTO 14003KT 110V170 CAVOK ///// Q////","temp":null,"dewp":null,"wdir":140,"wspd":3,"visib":"6+","altim":null,"clouds":[],"obsTime":1776160800},"SBIH":{"icaoId":"SBIH","flightCategory":"VFR","rawOb":"METAR SBIH 141100Z 35002KT 9999 FEW007 BKN100 25/24 Q1011","temp":25,"dewp":24,"wdir":350,"wspd":2,"visib":"6+","altim":1011,"clouds":[{"cover":"FEW","base":700},{"cover":"BKN","base":10000}],"obsTime":1776164400},"SBAF":{"icaoId":"SBAF","flightCategory":"VFR","rawOb":"METAR SBAF 141000Z 25001KT 9999 FEW030 19/19 Q1016","temp":19,"dewp":19,"wdir":250,"wspd":1,"visib":"6+","altim":1016,"clouds":[{"cover":"FEW","base":3000}],"obsTime":1776160800},"SBGW":{"icaoId":"SBGW","flightCategory":"VFR","rawOb":"METAR SBGW 141000Z VRB02KT CAVOK 19/14 Q1018","temp":19,"dewp":14,"wdir":"VRB","wspd":2,"visib":"6+","altim":1018,"clouds":[],"obsTime":1776160800},"SBJR":{"icaoId":"SBJR","flightCategory":"VFR","rawOb":"METAR SBJR 141000Z 05002KT 9999 FEW030 21/20 Q1016","temp":21,"dewp":20,"wdir":50,"wspd":2,"visib":"6+","altim":1016,"clouds":[{"cover":"FEW","base":3000}],"obsTime":1776160800},"SBLS":{"icaoId":"SBLS","flightCategory":"VFR","rawOb":"METAR SBLS 141000Z 17006KT 9999 FEW010 18/16 Q1019","temp":18,"dewp":16,"wdir":170,"wspd":6,"visib":"6+","altim":1019,"clouds":[{"cover":"FEW","base":1000}],"obsTime":1776160800},"SBMT":{"icaoId":"SBMT","flightCategory":"IFR","rawOb":"METAR SBMT 141000Z 08004KT 4000 BR BKN013 BKN018 18/16 Q1019","temp":18,"dewp":16,"wdir":80,"wspd":4,"visib":2.49,"altim":1019,"clouds":[{"cover":"BKN","base":1300},{"cover":"BKN","base":1800}],"obsTime":1776160800},"SBST":{"icaoId":"SBST","flightCategory":"VFR","rawOb":"METAR SBST 141100Z 14002KT 9999 FEW030 22/22 Q1016","temp":22,"dewp":22,"wdir":140,"wspd":2,"visib":"6+","altim":1016,"clouds":[{"cover":"FEW","base":3000}],"obsTime":1776164400},"SBTA":{"icaoId":"SBTA","flightCategory":"MVFR","rawOb":"METAR SBTA 141000Z VRB02KT 9999 BKN020 17/17 Q1018","temp":17,"dewp":17,"wdir":"VRB","wspd":2,"visib":"6+","altim":1018,"clouds":[{"cover":"BKN","base":2000}],"obsTime":1776160800},"SBJP":{"icaoId":"SBJP","flightCategory":"VFR","rawOb":"METAR SBJP 141000Z 20004KT 9999 FEW030 26/25 Q1011","temp":26,"dewp":25,"wdir":200,"wspd":4,"visib":"6+","altim":1011,"clouds":[{"cover":"FEW","base":3000}],"obsTime":1776160800}}}