{"updated":1781373677,"count":85,"data":{"SBVT":{"icaoId":"SBVT","flightCategory":"VFR","rawOb":"METAR SBVT 131700Z 33010G20KT 9999 FEW049 29/20 Q1013","temp":29,"dewp":20,"wdir":330,"wspd":10,"visib":"6+","altim":1013,"clouds":[{"cover":"FEW","base":4900}],"obsTime":1781370000},"SBCG":{"icaoId":"SBCG","flightCategory":"MVFR","rawOb":"METAR SBCG 131700Z 06004KT 6000 2500E RA FEW005 BKN020 20/20 Q1016","temp":20,"dewp":20,"wdir":60,"wspd":4,"visib":3.73,"altim":1016,"clouds":[{"cover":"FEW","base":500},{"cover":"BKN","base":2000}],"obsTime":1781370000},"SBFL":{"icaoId":"SBFL","flightCategory":"VFR","rawOb":"METAR SBFL 131700Z 11011KT 9999 FEW040 21/14 Q1014","temp":21,"dewp":14,"wdir":110,"wspd":11,"visib":"6+","altim":1014,"clouds":[{"cover":"FEW","base":4000}],"obsTime":1781370000},"SBFZ":{"icaoId":"SBFZ","flightCategory":"VFR","rawOb":"METAR SBFZ 131700Z 09011KT 9999 FEW030 30/23 Q1014","temp":30,"dewp":23,"wdir":90,"wspd":11,"visib":"6+","altim":1014,"clouds":[{"cover":"FEW","base":3000}],"obsTime":1781370000},"SBMO":{"icaoId":"SBMO","flightCategory":"VFR","rawOb":"METAR SBMO 131700Z 11007KT 9999 SCT025 SCT060 28/23 Q1016","temp":28,"dewp":23,"wdir":110,"wspd":7,"visib":"6+","altim":1016,"clouds":[{"cover":"SCT","base":2500},{"cover":"SCT","base":6000}],"obsTime":1781370000},"SBCP":{"icaoId":"SBCP","flightCategory":"VFR","rawOb":"METAR SBCP 131700Z 29014KT 9999 SCT040 30/19 Q1013","temp":30,"dewp":19,"wdir":290,"wspd":14,"visib":"6+","altim":1013,"clouds":[{"cover":"SCT","base":4000}],"obsTime":1781370000},"SBLO":{"icaoId":"SBLO","flightCategory":"VFR","rawOb":"METAR SBLO 131700Z 01005KT 310V070 9999 SCT030 BKN080 21/15 Q1017","temp":21,"dewp":15,"wdir":10,"wspd":5,"visib":"6+","altim":1017,"clouds":[{"cover":"SCT","base":3000},{"cover":"BKN","base":8000}],"obsTime":1781370000},"SBFI":{"icaoId":"SBFI","flightCategory":"VFR","rawOb":"METAR SBFI 131700Z 10005KT 9999 SCT020 19/13 Q1016","temp":19,"dewp":13,"wdir":100,"wspd":5,"visib":"6+","altim":1016,"clouds":[{"cover":"SCT","base":2000}],"obsTime":1781370000},"SBMA":{"icaoId":"SBMA","flightCategory":"VFR","rawOb":"METAR SBMA 131700Z 09007KT 9999 SCT023 33/23 Q1014","temp":33,"dewp":23,"wdir":90,"wspd":7,"visib":"6+","altim":1014,"clouds":[{"cover":"SCT","base":2300}],"obsTime":1781370000},"SBMQ":{"icaoId":"SBMQ","flightCategory":"VFR","rawOb":"METAR SBMQ 131700Z 07011KT 030V100 9999 SCT027 FEW030TCU SCT070 32/25 Q1013","temp":32,"dewp":25,"wdir":70,"wspd":11,"visib":"6+","altim":1013,"clouds":[{"cover":"SCT","base":2700},{"cover":"FEW","base":3000},{"cover":"SCT","base":7000}],"obsTime":1781370000},"SBGL":{"icaoId":"SBGL","flightCategory":"VFR","rawOb":"METAR SBGL 131700Z 22012KT 9999 FEW035 28/18 Q1013","temp":28,"dewp":18,"wdir":220,"wspd":12,"visib":"6+","altim":1013,"clouds":[{"cover":"FEW","base":3500}],"obsTime":1781370000},"SBPA":{"icaoId":"SBPA","flightCategory":"MVFR","rawOb":"METAR SBPA 131700Z 26008KT 9999 BKN027 17/12 Q1017","temp":17,"dewp":12,"wdir":260,"wspd":8,"visib":"6+","altim":1017,"clouds":[{"cover":"BKN","base":2700}],"obsTime":1781370000},"SBBR":{"icaoId":"SBBR","flightCategory":"VFR","rawOb":"METAR SBBR 131700Z 12012KT 9999 VCTS SCT020 FEW030CB 20/18 Q1022","temp":20,"dewp":18,"wdir":120,"wspd":12,"visib":"6+","altim":1022,"clouds":[{"cover":"SCT","base":2000},{"cover":"FEW","base":3000}],"obsTime":1781370000},"SBGO":{"icaoId":"SBGO","flightCategory":"VFR","rawOb":"METAR SBGO 131700Z VRB02KT 9999 -SHRA SCT045 FEW050TCU 29/19 Q1018","temp":29,"dewp":19,"wdir":"VRB","wspd":2,"visib":"6+","altim":1018,"clouds":[{"cover":"SCT","base":4500},{"cover":"FEW","base":5000}],"obsTime":1781370000},"SBPJ":{"icaoId":"SBPJ","flightCategory":"VFR","rawOb":"METAR SBPJ 131700Z 28006KT 9999 FEW030 33/18 Q1014","temp":33,"dewp":18,"wdir":280,"wspd":6,"visib":"6+","altim":1014,"clouds":[{"cover":"FEW","base":3000}],"obsTime":1781370000},"SBPV":{"icaoId":"SBPV","flightCategory":"VFR","rawOb":"METAR SBPV 131700Z 34006KT 9999 BKN035 33/23 Q1013","temp":33,"dewp":23,"wdir":340,"wspd":6,"visib":"6+","altim":1013,"clouds":[{"cover":"BKN","base":3500}],"obsTime":1781370000},"SBCB":{"icaoId":"SBCB","flightCategory":"VFR","rawOb":"METAR SBCB 131700Z 17008KT 9999 SCT025 BKN070 25/21 Q1014","temp":25,"dewp":21,"wdir":170,"wspd":8,"visib":"6+","altim":1014,"clouds":[{"cover":"SCT","base":2500},{"cover":"BKN","base":7000}],"obsTime":1781370000},"SBCR":{"icaoId":"SBCR","flightCategory":"VFR","rawOb":"METAR SBCR 131700Z VRB04KT 9999 SCT035 SCT080 29/22 Q1012","temp":29,"dewp":22,"wdir":"VRB","wspd":4,"visib":"6+","altim":1012,"clouds":[{"cover":"SCT","base":3500},{"cover":"SCT","base":8000}],"obsTime":1781370000},"SBRB":{"icaoId":"SBRB","flightCategory":"VFR","rawOb":"METAR SBRB 131700Z 36006KT 9999 SCT025 32/24 Q1014","temp":32,"dewp":24,"wdir":360,"wspd":6,"visib":"6+","altim":1014,"clouds":[{"cover":"SCT","base":2500}],"obsTime":1781370000},"SBGR":{"icaoId":"SBGR","flightCategory":"MVFR","rawOb":"METAR SBGR 131700Z 30010KT 9999 BKN026 22/16 Q1018","temp":22,"dewp":16,"wdir":300,"wspd":10,"visib":"6+","altim":1018,"clouds":[{"cover":"BKN","base":2600}],"obsTime":1781370000},"SBRF":{"icaoId":"SBRF","flightCategory":"VFR","rawOb":"METAR SBRF 131700Z 14010KT 9999 FEW023 29/23 Q1015","temp":29,"dewp":23,"wdir":140,"wspd":10,"visib":"6+","altim":1015,"clouds":[{"cover":"FEW","base":2300}],"obsTime":1781370000},"SBSG":{"icaoId":"SBSG","flightCategory":"VFR","rawOb":"METAR SBSG 131700Z 13006KT 090V180 9999 SCT037 30/23 Q1014","temp":30,"dewp":23,"wdir":130,"wspd":6,"visib":"6+","altim":1014,"clouds":[{"cover":"SCT","base":3700}],"obsTime":1781370000},"SBBV":{"icaoId":"SBBV","flightCategory":"VFR","rawOb":"METAR SBBV 131700Z 07009KT 9999 VCSH BKN035 FEW040TCU SCT070 32/23 Q1013","temp":32,"dewp":23,"wdir":70,"wspd":9,"visib":"6+","altim":1013,"clouds":[{"cover":"BKN","base":3500},{"cover":"FEW","base":4000},{"cover":"SCT","base":7000}],"obsTime":1781370000},"SBCT":{"icaoId":"SBCT","flightCategory":"VFR","rawOb":"METAR SBCT 131700Z 26009KT 9999 FEW030 18/08 Q1018","temp":18,"dewp":8,"wdir":260,"wspd":9,"visib":"6+","altim":1018,"clouds":[{"cover":"FEW","base":3000}],"obsTime":1781370000},"SBSL":{"icaoId":"SBSL","flightCategory":"VFR","rawOb":"METAR SBSL 131700Z 06015KT 9999 SCT030 32/25 Q1013","temp":32,"dewp":25,"wdir":60,"wspd":15,"visib":"6+","altim":1013,"clouds":[{"cover":"SCT","base":3000}],"obsTime":1781370000},"SBCF":{"icaoId":"SBCF","flightCategory":"MVFR","rawOb":"METAR SBCF 131700Z 32004KT 240V020 9999 BKN015 SCT100 20/16 Q1021","temp":20,"dewp":16,"wdir":320,"wspd":4,"visib":"6+","altim":1021,"clouds":[{"cover":"BKN","base":1500},{"cover":"SCT","base":10000}],"obsTime":1781370000},"SBSN":{"icaoId":"SBSN","flightCategory":"VFR","rawOb":"METAR SBSN 131700Z 08012KT 9999 FEW023 FEW026TCU 31/25 Q1013","temp":31,"dewp":25,"wdir":80,"wspd":12,"visib":"6+","altim":1013,"clouds":[{"cover":"FEW","base":2300},{"cover":"FEW","base":2600}],"obsTime":1781370000},"SBSP":{"icaoId":"SBSP","flightCategory":"MVFR","rawOb":"METAR SBSP 131700Z 32008KT 280V350 9999 BKN020 21/16 Q1018","temp":21,"dewp":16,"wdir":320,"wspd":8,"visib":"6+","altim":1018,"clouds":[{"cover":"BKN","base":2000}],"obsTime":1781370000},"SBBE":{"icaoId":"SBBE","flightCategory":"VFR","rawOb":"METAR SBBE 131700Z 13008KT 9999 BKN040 FEW042TCU BKN080 32/23 Q1013","temp":32,"dewp":23,"wdir":130,"wspd":8,"visib":"6+","altim":1013,"clouds":[{"cover":"BKN","base":4000},{"cover":"FEW","base":4200},{"cover":"BKN","base":8000}],"obsTime":1781370000},"SBKP":{"icaoId":"SBKP","flightCategory":"MVFR","rawOb":"METAR SBKP 131700Z 33008KT 9999 BKN030 SCT100 22/17 Q1018","temp":22,"dewp":17,"wdir":330,"wspd":8,"visib":"6+","altim":1018,"clouds":[{"cover":"BKN","base":3000},{"cover":"SCT","base":10000}],"obsTime":1781370000},"SBSV":{"icaoId":"SBSV","flightCategory":"VFR","rawOb":"METAR SBSV 131700Z VRB07KT 9999 SCT027 28/21 Q1017","temp":28,"dewp":21,"wdir":"VRB","wspd":7,"visib":"6+","altim":1017,"clouds":[{"cover":"SCT","base":2700}],"obsTime":1781370000},"SBEG":{"icaoId":"SBEG","flightCategory":"VFR","rawOb":"METAR SBEG 131700Z 08007KT 9999 SCT030 33/24 Q1013","temp":33,"dewp":24,"wdir":80,"wspd":7,"visib":"6+","altim":1013,"clouds":[{"cover":"SCT","base":3000}],"obsTime":1781370000},"SBTE":{"icaoId":"SBTE","flightCategory":"MVFR","rawOb":"METAR SBTE 131700Z 07007KT 9999 BKN025 34/22 Q1013","temp":34,"dewp":22,"wdir":70,"wspd":7,"visib":"6+","altim":1013,"clouds":[{"cover":"BKN","base":2500}],"obsTime":1781370000},"SBUL":{"icaoId":"SBUL","flightCategory":"VFR","rawOb":"METAR SBUL 131700Z 22007KT 160V240 9999 -RA SCT025 FEW045TCU SCT080 20/15 Q1021","temp":20,"dewp":15,"wdir":220,"wspd":7,"visib":"6+","altim":1021,"clouds":[{"cover":"SCT","base":2500},{"cover":"FEW","base":4500},{"cover":"SCT","base":8000}],"obsTime":1781370000},"SBUR":{"icaoId":"SBUR","flightCategory":"VFR","rawOb":"METAR SBUR 131700Z 29004KT 9999 SCT030 BKN080 18/16 Q1021","temp":18,"dewp":16,"wdir":290,"wspd":4,"visib":"6+","altim":1021,"clouds":[{"cover":"SCT","base":3000},{"cover":"BKN","base":8000}],"obsTime":1781370000},"SBCZ":{"icaoId":"SBCZ","flightCategory":"VFR","rawOb":"METAR SBCZ 131700Z 36005KT 9999 SCT030 32/22 Q1015","temp":32,"dewp":22,"wdir":360,"wspd":5,"visib":"6+","altim":1015,"clouds":[{"cover":"SCT","base":3000}],"obsTime":1781370000},"SBHT":{"icaoId":"SBHT","flightCategory":"VFR","rawOb":"METAR SBHT 131700Z 11006KT 9999 SCT030 31/26 Q1014","temp":31,"dewp":26,"wdir":110,"wspd":6,"visib":"6+","altim":1014,"clouds":[{"cover":"SCT","base":3000}],"obsTime":1781370000},"SBIL":{"icaoId":"SBIL","flightCategory":"VFR","rawOb":"METAR SBIL 131700Z 09007KT 9999 FEW030 29/22 Q1017","temp":29,"dewp":22,"wdir":90,"wspd":7,"visib":"6+","altim":1017,"clouds":[{"cover":"FEW","base":3000}],"obsTime":1781370000},"SBJU":{"icaoId":"SBJU","flightCategory":"VFR","rawOb":"METAR SBJU 131700Z 10008KT 9999 SCT022 31/17 Q1017","temp":31,"dewp":17,"wdir":100,"wspd":8,"visib":"6+","altim":1017,"clouds":[{"cover":"SCT","base":2200}],"obsTime":1781370000},"SBAT":{"icaoId":"SBAT","flightCategory":"VFR","rawOb":"METAR SBAT 131700Z 11002KT 9999 FEW020 SCT025 FEW030TCU 34/22 Q1014","temp":34,"dewp":22,"wdir":110,"wspd":2,"visib":"6+","altim":1014,"clouds":[{"cover":"FEW","base":2000},{"cover":"SCT","base":2500},{"cover":"FEW","base":3000}],"obsTime":1781370000},"SBME":{"icaoId":"SBME","flightCategory":"VFR","rawOb":"METAR SBME 131700Z 17014KT CAVOK 27/21 Q1012","temp":27,"dewp":21,"wdir":170,"wspd":14,"visib":"6+","altim":1012,"clouds":[],"obsTime":1781370000},"SBMG":{"icaoId":"SBMG","flightCategory":"VFR","rawOb":"METAR SBMG 131700Z VRB03KT 9999 FEW025 BKN070 20/15 Q1016","temp":20,"dewp":15,"wdir":"VRB","wspd":3,"visib":"6+","altim":1016,"clouds":[{"cover":"FEW","base":2500},{"cover":"BKN","base":7000}],"obsTime":1781370000},"SBMK":{"icaoId":"SBMK","flightCategory":"VFR","rawOb":"METAR SBMK 131700Z 14008KT 9999 -RA FEW008 SCT014 OVC070 19/17 Q1022","temp":19,"dewp":17,"wdir":140,"wspd":8,"visib":"6+","altim":1022,"clouds":[{"cover":"FEW","base":800},{"cover":"SCT","base":1400},{"cover":"OVC","base":7000}],"obsTime":1781370000},"SBNT":{"icaoId":"SBNT","flightCategory":"VFR","rawOb":"METAR SBNT 131700Z 13010KT 9999 FEW036 30/21 Q1014","temp":30,"dewp":21,"wdir":130,"wspd":10,"visib":"6+","altim":1014,"clouds":[{"cover":"FEW","base":3600}],"obsTime":1781370000},"SBPP":{"icaoId":"SBPP","flightCategory":"IFR","rawOb":"METAR SBPP 131700Z 05008KT 8000 OVC007 16/15 Q1016","temp":16,"dewp":15,"wdir":50,"wspd":8,"visib":4.97,"altim":1016,"clouds":[{"cover":"OVC","base":700}],"obsTime":1781370000},"SBOI":{"icaoId":"SBOI","flightCategory":"VFR","rawOb":"METAR SBOI 131700Z AUTO 14008KT 080V170 CAVOK 32/21 Q1013","temp":32,"dewp":21,"wdir":140,"wspd":8,"visib":"6+","altim":1013,"clouds":[],"obsTime":1781370000},"SBPS":{"icaoId":"SBPS","flightCategory":"VFR","rawOb":"METAR SBPS 131700Z 04010KT 9999 SCT020 SCT100 29/22 Q1016","temp":29,"dewp":22,"wdir":40,"wspd":10,"visib":"6+","altim":1016,"clouds":[{"cover":"SCT","base":2000},{"cover":"SCT","base":10000}],"obsTime":1781370000},"SBTF":{"icaoId":"SBTF","flightCategory":"VFR","rawOb":"METAR SBTF 131700Z 08005KT 9999 SCT013 SCT100 31/25 Q1013","temp":31,"dewp":25,"wdir":80,"wspd":5,"visib":"6+","altim":1013,"clouds":[{"cover":"SCT","base":1300},{"cover":"SCT","base":10000}],"obsTime":1781370000},"SBPB":{"icaoId":"SBPB","flightCategory":"VFR","rawOb":"METAR SBPB 131700Z 09014KT 9999 FEW020 31/25 Q1013","temp":31,"dewp":25,"wdir":90,"wspd":14,"visib":"6+","altim":1013,"clouds":[{"cover":"FEW","base":2000}],"obsTime":1781370000},"SBSJ":{"icaoId":"SBSJ","flightCategory":"VFR","rawOb":"METAR SBSJ 131700Z 30009KT 9999 SCT035 24/16 Q1017","temp":24,"dewp":16,"wdir":300,"wspd":9,"visib":"6+","altim":1017,"clouds":[{"cover":"SCT","base":3500}],"obsTime":1781370000},"SBAR":{"icaoId":"SBAR","flightCategory":"VFR","rawOb":"METAR SBAR 131700Z 14007KT 100V190 9999 FEW019 28/23 Q1017","temp":28,"dewp":23,"wdir":140,"wspd":7,"visib":"6+","altim":1017,"clouds":[{"cover":"FEW","base":1900}],"obsTime":1781370000},"SBPL":{"icaoId":"SBPL","flightCategory":"VFR","rawOb":"METAR SBPL 131700Z 02007KT 9999 SCT030 31/19 Q1017","temp":31,"dewp":19,"wdir":20,"wspd":7,"visib":"6+","altim":1017,"clouds":[{"cover":"SCT","base":3000}],"obsTime":1781370000},"SBCJ":{"icaoId":"SBCJ","flightCategory":"VFR","rawOb":"METAR SBCJ 131700Z 06009KT 9999 SCT027 29/20 Q1018","temp":29,"dewp":20,"wdir":60,"wspd":9,"visib":"6+","altim":1018,"clouds":[{"cover":"SCT","base":2700}],"obsTime":1781370000},"SBES":{"icaoId":"SBES","flightCategory":"VFR","rawOb":"METAR SBES 131700Z 22011KT 9999 FEW025 BKN100 24/// Q1014","temp":null,"dewp":null,"wdir":220,"wspd":11,"visib":"6+","altim":1014,"clouds":[{"cover":"FEW","base":2500},{"cover":"BKN","base":10000}],"obsTime":1781370000},"SBGM":{"icaoId":"SBGM","flightCategory":"VFR","rawOb":"METAR SBGM 131700Z 30006KT 9999 BKN036 32/22 Q1014","temp":32,"dewp":22,"wdir":300,"wspd":6,"visib":"6+","altim":1014,"clouds":[{"cover":"BKN","base":3600}],"obsTime":1781370000},"SBIP":{"icaoId":"SBIP","flightCategory":"MVFR","rawOb":"SPECI SBIP 131603Z AUTO 05004KT 360V080 8000 -RA SCT005 BKN034 21/20 Q1018","temp":21,"dewp":20,"wdir":50,"wspd":4,"visib":4.97,"altim":1018,"clouds":[{"cover":"SCT","base":500},{"cover":"BKN","base":3400}],"obsTime":1781366580},"SBKG":{"icaoId":"SBKG","flightCategory":"MVFR","rawOb":"METAR SBKG 131700Z 12008KT 9999 BKN030 27/19 Q1018","temp":27,"dewp":19,"wdir":120,"wspd":8,"visib":"6+","altim":1018,"clouds":[{"cover":"BKN","base":3000}],"obsTime":1781370000},"SBSC":{"icaoId":"SBSC","flightCategory":"VFR","rawOb":"METAR SBSC 131700Z 20007KT CAVOK 25/20 Q1014","temp":25,"dewp":20,"wdir":200,"wspd":7,"visib":"6+","altim":1014,"clouds":[],"obsTime":1781370000},"SBSM":{"icaoId":"SBSM","flightCategory":"VFR","rawOb":"METAR SBSM 131700Z VRB02KT 9999 SCT025 BKN045 18/12 Q1017","temp":18,"dewp":12,"wdir":"VRB","wspd":2,"visib":"6+","altim":1017,"clouds":[{"cover":"SCT","base":2500},{"cover":"BKN","base":4500}],"obsTime":1781370000},"SBSR":{"icaoId":"SBSR","flightCategory":"IFR","rawOb":"METAR SBSR 131700Z VRB06KT 9999 -RA BKN005 OVC020 18/17 Q1019","temp":18,"dewp":17,"wdir":"VRB","wspd":6,"visib":"6+","altim":1019,"clouds":[{"cover":"BKN","base":500},{"cover":"OVC","base":2000}],"obsTime":1781370000},"SBVH":{"icaoId":"SBVH","flightCategory":"VFR","rawOb":"METAR SBVH 131700Z 31008KT 9999 BKN035 30/22 Q1017","temp":30,"dewp":22,"wdir":310,"wspd":8,"visib":"6+","altim":1017,"clouds":[{"cover":"BKN","base":3500}],"obsTime":1781370000},"SBAX":{"icaoId":"SBAX","flightCategory":"VFR","rawOb":"METAR SBAX 131700Z AUTO 25003KT 180V280 9999 -RA NSC 18/15 Q1021","temp":18,"dewp":15,"wdir":250,"wspd":3,"visib":"6+","altim":1021,"clouds":[],"obsTime":1781370000},"SBBH":{"icaoId":"SBBH","flightCategory":"VFR","rawOb":"METAR SBBH 131700Z 35006KT 9999 SCT030 21/16 Q1021","temp":21,"dewp":16,"wdir":350,"wspd":6,"visib":"6+","altim":1021,"clouds":[{"cover":"SCT","base":3000}],"obsTime":1781370000},"SBBQ":{"icaoId":"SBBQ","flightCategory":"MVFR","rawOb":"METAR SBBQ 131700Z 31008KT 280V340 9999 BKN022 SCT035 BKN100 19/15 Q1022","temp":19,"dewp":15,"wdir":310,"wspd":8,"visib":"6+","altim":1022,"clouds":[{"cover":"BKN","base":2200},{"cover":"SCT","base":3500},{"cover":"BKN","base":10000}],"obsTime":1781370000},"SBBU":{"icaoId":"SBBU","flightCategory":"MVFR","rawOb":"METAR SBBU 131700Z 32010KT 9999 SCT012 BKN015 BKN080 21/19 Q1018","temp":21,"dewp":19,"wdir":320,"wspd":10,"visib":"6+","altim":1018,"clouds":[{"cover":"SCT","base":1200},{"cover":"BKN","base":1500},{"cover":"BKN","base":8000}],"obsTime":1781370000},"SBCC":{"icaoId":"SBCC","flightCategory":"VFR","rawOb":"METAR SBCC 131700Z 05009KT 360V080 9999 BKN040 FEW045TCU 31/20 Q1016","temp":31,"dewp":20,"wdir":50,"wspd":9,"visib":"6+","altim":1016,"clouds":[{"cover":"BKN","base":4000},{"cover":"FEW","base":4500}],"obsTime":1781370000},"SBCO":{"icaoId":"SBCO","flightCategory":"MVFR","rawOb":"METAR SBCO 131700Z 28008KT 250V310 9999 BKN022 17/12 Q1017","temp":17,"dewp":12,"wdir":280,"wspd":8,"visib":"6+","altim":1017,"clouds":[{"cover":"BKN","base":2200}],"obsTime":1781370000},"SBDN":{"icaoId":"SBDN","flightCategory":"IFR","rawOb":"METAR SBDN 131700Z 01004KT 9999 OVC009 19/16 Q1017","temp":19,"dewp":16,"wdir":10,"wspd":4,"visib":"6+","altim":1017,"clouds":[{"cover":"OVC","base":900}],"obsTime":1781370000},"SBTT":{"icaoId":"SBTT","flightCategory":"MVFR","rawOb":"METAR SBTT 131700Z 22004KT 9999 BKN022 29/25 Q1014","temp":29,"dewp":25,"wdir":220,"wspd":4,"visib":"6+","altim":1014,"clouds":[{"cover":"BKN","base":2200}],"obsTime":1781370000},"SBTU":{"icaoId":"SBTU","flightCategory":"VFR","rawOb":"METAR SBTU 131700Z AUTO 29008KT 250V330 9999 // FEW031/// ///// Q1015","temp":null,"dewp":null,"wdir":290,"wspd":8,"visib":"6+","altim":1015,"clouds":[{"cover":"FEW","base":3100}],"obsTime":1781370000},"SBUY":{"icaoId":"SBUY","flightCategory":"VFR","rawOb":"METAR SBUY 131700Z 16007KT 9999 SCT025 31/24 Q1012","temp":31,"dewp":24,"wdir":160,"wspd":7,"visib":"6+","altim":1012,"clouds":[{"cover":"SCT","base":2500}],"obsTime":1781370000},"SBJP":{"icaoId":"SBJP","flightCategory":"VFR","rawOb":"METAR SBJP 131700Z 10009KT 9999 FEW030 30/22 Q1015","temp":30,"dewp":22,"wdir":100,"wspd":9,"visib":"6+","altim":1015,"clouds":[{"cover":"FEW","base":3000}],"obsTime":1781370000},"SBJV":{"icaoId":"SBJV","flightCategory":"VFR","rawOb":"METAR SBJV 131700Z 13004KT 9999 FEW040 24/15 Q1014","temp":24,"dewp":15,"wdir":130,"wspd":4,"visib":"6+","altim":1014,"clouds":[{"cover":"FEW","base":4000}],"obsTime":1781370000},"SBNM":{"icaoId":"SBNM","flightCategory":"MVFR","rawOb":"METAR SBNM 131700Z 12002KT 9999 BKN020 16/11 Q1018","temp":16,"dewp":11,"wdir":120,"wspd":2,"visib":"6+","altim":1018,"clouds":[{"cover":"BKN","base":2000}],"obsTime":1781370000},"SBAN":{"icaoId":"SBAN","flightCategory":"VFR","rawOb":"METAR SBAN 131700Z 33008KT 280V350 9999 SCT040 FEW045TCU BKN100 28/16 Q1021","temp":28,"dewp":16,"wdir":330,"wspd":8,"visib":"6+","altim":1021,"clouds":[{"cover":"SCT","base":4000},{"cover":"FEW","base":4500},{"cover":"BKN","base":10000}],"obsTime":1781370000},"SBLE":{"icaoId":"SBLE","flightCategory":"VFR","rawOb":"METAR SBLE 131700Z AUTO VRB04KT 9999 FEW018 BKN032 23/20 Q1020","temp":23,"dewp":20,"wdir":"VRB","wspd":4,"visib":"6+","altim":1020,"clouds":[{"cover":"FEW","base":1800},{"cover":"BKN","base":3200}],"obsTime":1781370000},"SBTC":{"icaoId":"SBTC","flightCategory":"VFR","rawOb":"METAR SBTC 131700Z 04009KT 9999 FEW030 28/22 Q1017","temp":28,"dewp":22,"wdir":40,"wspd":9,"visib":"6+","altim":1017,"clouds":[{"cover":"FEW","base":3000}],"obsTime":1781370000},"SBAF":{"icaoId":"SBAF","flightCategory":"VFR","rawOb":"METAR SBAF 131700Z 17017KT 9999 FEW030 25/21 Q1014","temp":25,"dewp":21,"wdir":170,"wspd":17,"visib":"6+","altim":1014,"clouds":[{"cover":"FEW","base":3000}],"obsTime":1781370000},"SBGW":{"icaoId":"SBGW","flightCategory":"VFR","rawOb":"METAR SBGW 131700Z VRB02KT 9999 FEW030 SCT100 25/14 Q1017","temp":25,"dewp":14,"wdir":"VRB","wspd":2,"visib":"6+","altim":1017,"clouds":[{"cover":"FEW","base":3000},{"cover":"SCT","base":10000}],"obsTime":1781370000},"SBJR":{"icaoId":"SBJR","flightCategory":"VFR","rawOb":"METAR SBJR 131700Z 22007KT 9999 FEW030 BKN100 26/20 Q1014","temp":26,"dewp":20,"wdir":220,"wspd":7,"visib":"6+","altim":1014,"clouds":[{"cover":"FEW","base":3000},{"cover":"BKN","base":10000}],"obsTime":1781370000},"SBLS":{"icaoId":"SBLS","flightCategory":"VFR","rawOb":"METAR SBLS 131700Z 35006KT 270V050 9999 SCT015 BKN090 20/16 Q1021","temp":20,"dewp":16,"wdir":350,"wspd":6,"visib":"6+","altim":1021,"clouds":[{"cover":"SCT","base":1500},{"cover":"BKN","base":9000}],"obsTime":1781370000},"SBMT":{"icaoId":"SBMT","flightCategory":"MVFR","rawOb":"METAR SBMT 131700Z 33008KT 310V010 9999 BKN023 22/16 Q1017","temp":22,"dewp":16,"wdir":330,"wspd":8,"visib":"6+","altim":1017,"clouds":[{"cover":"BKN","base":2300}],"obsTime":1781370000},"SBST":{"icaoId":"SBST","flightCategory":"VFR","rawOb":"METAR SBST 131700Z 24005KT 9999 SCT030 BKN050 22/16 Q1014","temp":22,"dewp":16,"wdir":240,"wspd":5,"visib":"6+","altim":1014,"clouds":[{"cover":"SCT","base":3000},{"cover":"BKN","base":5000}],"obsTime":1781370000},"SBTA":{"icaoId":"SBTA","flightCategory":"VFR","rawOb":"METAR SBTA 131700Z 24005KT 9999 BKN040 SCT100 24/17 Q1016","temp":24,"dewp":17,"wdir":240,"wspd":5,"visib":"6+","altim":1016,"clouds":[{"cover":"BKN","base":4000},{"cover":"SCT","base":10000}],"obsTime":1781370000},"SBIH":{"icaoId":"SBIH","flightCategory":"VFR","rawOb":"METAR SBIH 131700Z 06010KT 9999 SCT020 33/25 Q1013","temp":33,"dewp":25,"wdir":60,"wspd":10,"visib":"6+","altim":1013,"clouds":[{"cover":"SCT","base":2000}],"obsTime":1781370000}}}