{"updated":1783713322,"count":87,"data":{"SBBE":{"icaoId":"SBBE","flightCategory":"VFR","rawOb":"METAR SBBE 101800Z 06010KT 9999 BKN040 FEW045TCU 32/23 Q1011","temp":32,"dewp":23,"wdir":60,"wspd":10,"visib":"6+","altim":1011,"clouds":[{"cover":"BKN","base":4000},{"cover":"FEW","base":4500}],"obsTime":1783706400},"SBCF":{"icaoId":"SBCF","flightCategory":"VFR","rawOb":"METAR SBCF 101800Z 27005KT CAVOK 28/07 Q1018","temp":28,"dewp":7,"wdir":270,"wspd":5,"visib":"6+","altim":1018,"clouds":[],"obsTime":1783706400},"SBMO":{"icaoId":"SBMO","flightCategory":"VFR","rawOb":"METAR SBMO 101800Z 13012KT 9999 SCT025 27/21 Q1015","temp":27,"dewp":21,"wdir":130,"wspd":12,"visib":"6+","altim":1015,"clouds":[{"cover":"SCT","base":2500}],"obsTime":1783706400},"SBSV":{"icaoId":"SBSV","flightCategory":"VFR","rawOb":"METAR SBSV 101800Z 14007KT 110V180 9999 SCT024 FEW025TCU BKN080 26/21 Q1015","temp":26,"dewp":21,"wdir":140,"wspd":7,"visib":"6+","altim":1015,"clouds":[{"cover":"SCT","base":2400},{"cover":"FEW","base":2500},{"cover":"BKN","base":8000}],"obsTime":1783706400},"SBFL":{"icaoId":"SBFL","flightCategory":"VFR","rawOb":"METAR SBFL 101800Z VRB02KT 9999 -RA FEW035 OVC070 17/15 Q1014","temp":17,"dewp":15,"wdir":"VRB","wspd":2,"visib":"6+","altim":1014,"clouds":[{"cover":"FEW","base":3500},{"cover":"OVC","base":7000}],"obsTime":1783706400},"SBRF":{"icaoId":"SBRF","flightCategory":"VFR","rawOb":"METAR SBRF 101800Z 15012KT 9999 SCT022 28/23 Q1014","temp":28,"dewp":23,"wdir":150,"wspd":12,"visib":"6+","altim":1014,"clouds":[{"cover":"SCT","base":2200}],"obsTime":1783706400},"SBCB":{"icaoId":"SBCB","flightCategory":"VFR","rawOb":"METAR SBCB 101800Z 10008KT CAVOK 25/19 Q1013","temp":25,"dewp":19,"wdir":100,"wspd":8,"visib":"6+","altim":1013,"clouds":[],"obsTime":1783706400},"SBEG":{"icaoId":"SBEG","flightCategory":"VFR","rawOb":"METAR SBEG 101800Z 12004KT 060V160 9999 SCT030 FEW035TCU 34/24 Q1010","temp":34,"dewp":24,"wdir":120,"wspd":4,"visib":"6+","altim":1010,"clouds":[{"cover":"SCT","base":3000},{"cover":"FEW","base":3500}],"obsTime":1783706400},"SBPJ":{"icaoId":"SBPJ","flightCategory":"VFR","rawOb":"METAR SBPJ 101800Z 28012KT CAVOK 32/21 Q1012","temp":32,"dewp":21,"wdir":280,"wspd":12,"visib":"6+","altim":1012,"clouds":[],"obsTime":1783706400},"SBVT":{"icaoId":"SBVT","flightCategory":"VFR","rawOb":"METAR SBVT 101800Z 08010KT CAVOK 29/19 Q1013","temp":29,"dewp":19,"wdir":80,"wspd":10,"visib":"6+","altim":1013,"clouds":[],"obsTime":1783706400},"SBMA":{"icaoId":"SBMA","flightCategory":"VFR","rawOb":"METAR SBMA 101800Z 04008KT 9999 SCT025 FEW030TCU 33/22 Q1011","temp":33,"dewp":22,"wdir":40,"wspd":8,"visib":"6+","altim":1011,"clouds":[{"cover":"SCT","base":2500},{"cover":"FEW","base":3000}],"obsTime":1783706400},"SBKP":{"icaoId":"SBKP","flightCategory":"VFR","rawOb":"METAR SBKP 101800Z 31005KT 260V010 CAVOK 26/10 Q1016","temp":26,"dewp":10,"wdir":310,"wspd":5,"visib":"6+","altim":1016,"clouds":[],"obsTime":1783706400},"SBSN":{"icaoId":"SBSN","flightCategory":"VFR","rawOb":"METAR SBSN 101800Z 09014KT 9999 FEW025 FEW030TCU 31/24 Q1010","temp":31,"dewp":24,"wdir":90,"wspd":14,"visib":"6+","altim":1010,"clouds":[{"cover":"FEW","base":2500},{"cover":"FEW","base":3000}],"obsTime":1783706400},"SBCP":{"icaoId":"SBCP","flightCategory":"VFR","rawOb":"METAR SBCP 101800Z 34010KT CAVOK 29/16 Q1012","temp":29,"dewp":16,"wdir":340,"wspd":10,"visib":"6+","altim":1012,"clouds":[],"obsTime":1783706400},"SBPA":{"icaoId":"SBPA","flightCategory":"VFR","rawOb":"METAR SBPA 101800Z 10005KT 070V150 9999 BKN045 19/11 Q1013","temp":19,"dewp":11,"wdir":100,"wspd":5,"visib":"6+","altim":1013,"clouds":[{"cover":"BKN","base":4500}],"obsTime":1783706400},"SBCR":{"icaoId":"SBCR","flightCategory":"VFR","rawOb":"METAR SBCR 101800Z 02005KT 340V050 CAVOK 32/19 Q1010","temp":32,"dewp":19,"wdir":20,"wspd":5,"visib":"6+","altim":1010,"clouds":[],"obsTime":1783706400},"SBLO":{"icaoId":"SBLO","flightCategory":"VFR","rawOb":"METAR SBLO 101800Z 03006KT 350V080 CAVOK 25/14 Q1015","temp":25,"dewp":14,"wdir":30,"wspd":6,"visib":"6+","altim":1015,"clouds":[],"obsTime":1783706400},"SBSP":{"icaoId":"SBSP","flightCategory":"VFR","rawOb":"METAR SBSP 101800Z 31009KT 260V340 CAVOK 25/07 Q1017","temp":25,"dewp":7,"wdir":310,"wspd":9,"visib":"6+","altim":1017,"clouds":[],"obsTime":1783706400},"SBTE":{"icaoId":"SBTE","flightCategory":"VFR","rawOb":"METAR SBTE 101800Z 06005KT 9999 SCT040 34/19 Q1010","temp":34,"dewp":19,"wdir":60,"wspd":5,"visib":"6+","altim":1010,"clouds":[{"cover":"SCT","base":4000}],"obsTime":1783706400},"SBMQ":{"icaoId":"SBMQ","flightCategory":"VFR","rawOb":"METAR SBMQ 101800Z 06006KT 9999 FEW025 BKN100 28/23 Q1012","temp":28,"dewp":23,"wdir":60,"wspd":6,"visib":"6+","altim":1012,"clouds":[{"cover":"FEW","base":2500},{"cover":"BKN","base":10000}],"obsTime":1783706400},"SBCT":{"icaoId":"SBCT","flightCategory":"VFR","rawOb":"METAR SBCT 101800Z 21010KT CAVOK 20/14 Q1016","temp":20,"dewp":14,"wdir":210,"wspd":10,"visib":"6+","altim":1016,"clouds":[],"obsTime":1783706400},"SBGL":{"icaoId":"SBGL","flightCategory":"VFR","rawOb":"METAR SBGL 101800Z 05007KT 9000 NSC 27/18 Q1012","temp":27,"dewp":18,"wdir":50,"wspd":7,"visib":5.59,"altim":1012,"clouds":[],"obsTime":1783706400},"SBCZ":{"icaoId":"SBCZ","flightCategory":"VFR","rawOb":"METAR SBCZ 101800Z VRB04KT 9999 SCT035 32/23 Q1012","temp":32,"dewp":23,"wdir":"VRB","wspd":4,"visib":"6+","altim":1012,"clouds":[{"cover":"SCT","base":3500}],"obsTime":1783706400},"SBGO":{"icaoId":"SBGO","flightCategory":"VFR","rawOb":"METAR SBGO 101800Z 34003KT 260V060 CAVOK 31/11 Q1017","temp":31,"dewp":11,"wdir":340,"wspd":3,"visib":"6+","altim":1017,"clouds":[],"obsTime":1783706400},"SBNT":{"icaoId":"SBNT","flightCategory":"VFR","rawOb":"METAR SBNT 101800Z 15014KT 9999 SCT025 29/22 Q1013","temp":29,"dewp":22,"wdir":150,"wspd":14,"visib":"6+","altim":1013,"clouds":[{"cover":"SCT","base":2500}],"obsTime":1783706400},"SBIL":{"icaoId":"SBIL","flightCategory":"VFR","rawOb":"METAR SBIL 101800Z 07004KT 9999 FEW023 BKN080 27/21 Q1016","temp":27,"dewp":21,"wdir":70,"wspd":4,"visib":"6+","altim":1016,"clouds":[{"cover":"FEW","base":2300},{"cover":"BKN","base":8000}],"obsTime":1783706400},"SBFZ":{"icaoId":"SBFZ","flightCategory":"VFR","rawOb":"METAR SBFZ 101800Z 12015KT 9999 FEW027 29/23 Q1012","temp":29,"dewp":23,"wdir":120,"wspd":15,"visib":"6+","altim":1012,"clouds":[{"cover":"FEW","base":2700}],"obsTime":1783706400},"SBJU":{"icaoId":"SBJU","flightCategory":"VFR","rawOb":"METAR SBJU 101800Z 09008KT 9999 SCT022 32/15 Q1014","temp":32,"dewp":15,"wdir":90,"wspd":8,"visib":"6+","altim":1014,"clouds":[{"cover":"SCT","base":2200}],"obsTime":1783706400},"SBBR":{"icaoId":"SBBR","flightCategory":"VFR","rawOb":"METAR SBBR 101800Z 05006KT 9999 FEW045 27/11 Q1019","temp":27,"dewp":11,"wdir":50,"wspd":6,"visib":"6+","altim":1019,"clouds":[{"cover":"FEW","base":4500}],"obsTime":1783706400},"SBMG":{"icaoId":"SBMG","flightCategory":"VFR","rawOb":"METAR SBMG 101800Z 36012KT 330V030 CAVOK 27/14 Q1014","temp":27,"dewp":14,"wdir":360,"wspd":12,"visib":"6+","altim":1014,"clouds":[],"obsTime":1783706400},"SBME":{"icaoId":"SBME","flightCategory":"VFR","rawOb":"METAR SBME 101800Z 11007KT CAVOK 26/20 Q1012","temp":26,"dewp":20,"wdir":110,"wspd":7,"visib":"6+","altim":1012,"clouds":[],"obsTime":1783706400},"SBMK":{"icaoId":"SBMK","flightCategory":"VFR","rawOb":"METAR SBMK 101800Z 14005KT 9999 SCT045 29/13 Q1016","temp":29,"dewp":13,"wdir":140,"wspd":5,"visib":"6+","altim":1016,"clouds":[{"cover":"SCT","base":4500}],"obsTime":1783706400},"SBUL":{"icaoId":"SBUL","flightCategory":"VFR","rawOb":"METAR SBUL 101800Z 03006KT CAVOK 27/07 Q1018","temp":27,"dewp":7,"wdir":30,"wspd":6,"visib":"6+","altim":1018,"clouds":[],"obsTime":1783706400},"SBUR":{"icaoId":"SBUR","flightCategory":"VFR","rawOb":"METAR SBUR 101800Z 28005KT CAVOK 29/03 Q1017","temp":29,"dewp":3,"wdir":280,"wspd":5,"visib":"6+","altim":1017,"clouds":[],"obsTime":1783706400},"SBSG":{"icaoId":"SBSG","flightCategory":"VFR","rawOb":"METAR SBSG 101800Z 13009KT 090V170 9999 SCT025 SCT040 28/23 Q1013","temp":28,"dewp":23,"wdir":130,"wspd":9,"visib":"6+","altim":1013,"clouds":[{"cover":"SCT","base":2500},{"cover":"SCT","base":4000}],"obsTime":1783706400},"SBAT":{"icaoId":"SBAT","flightCategory":"VFR","rawOb":"METAR SBAT 101800Z 19006KT 9999 VCSH SCT040 FEW045TCU 34/20 Q1012","temp":34,"dewp":20,"wdir":190,"wspd":6,"visib":"6+","altim":1012,"clouds":[{"cover":"SCT","base":4000},{"cover":"FEW","base":4500}],"obsTime":1783706400},"SBBV":{"icaoId":"SBBV","flightCategory":"VFR","rawOb":"METAR SBBV 101800Z 07011KT 9999 VCSH BKN035 FEW040TCU BKN080 27/25 Q1011","temp":27,"dewp":25,"wdir":70,"wspd":11,"visib":"6+","altim":1011,"clouds":[{"cover":"BKN","base":3500},{"cover":"FEW","base":4000},{"cover":"BKN","base":8000}],"obsTime":1783706400},"SBHT":{"icaoId":"SBHT","flightCategory":"VFR","rawOb":"METAR SBHT 101800Z 14004KT 9999 SCT030 31/25 Q1011","temp":31,"dewp":25,"wdir":140,"wspd":4,"visib":"6+","altim":1011,"clouds":[{"cover":"SCT","base":3000}],"obsTime":1783706400},"SBFI":{"icaoId":"SBFI","flightCategory":"VFR","rawOb":"METAR SBFI 101800Z 06007KT 9999 FEW030 SCT070 25/19 Q1011","temp":25,"dewp":19,"wdir":60,"wspd":7,"visib":"6+","altim":1011,"clouds":[{"cover":"FEW","base":3000},{"cover":"SCT","base":7000}],"obsTime":1783706400},"SBRB":{"icaoId":"SBRB","flightCategory":"VFR","rawOb":"METAR SBRB 101800Z 21002KT 9999 SCT020 BKN100 32/22 Q1013","temp":32,"dewp":22,"wdir":210,"wspd":2,"visib":"6+","altim":1013,"clouds":[{"cover":"SCT","base":2000},{"cover":"BKN","base":10000}],"obsTime":1783706400},"SBSL":{"icaoId":"SBSL","flightCategory":"VFR","rawOb":"METAR SBSL 101800Z 08014KT 9999 FEW030 31/23 Q1011","temp":31,"dewp":23,"wdir":80,"wspd":14,"visib":"6+","altim":1011,"clouds":[{"cover":"FEW","base":3000}],"obsTime":1783706400},"SBGR":{"icaoId":"SBGR","flightCategory":"VFR","rawOb":"METAR SBGR 101800Z 30006KT CAVOK 26/11 Q1016","temp":26,"dewp":11,"wdir":300,"wspd":6,"visib":"6+","altim":1016,"clouds":[],"obsTime":1783706400},"SBCG":{"icaoId":"SBCG","flightCategory":"VFR","rawOb":"METAR SBCG 101800Z 32012KT 9999 SCT049 30/14 Q1014","temp":30,"dewp":14,"wdir":320,"wspd":12,"visib":"6+","altim":1014,"clouds":[{"cover":"SCT","base":4900}],"obsTime":1783706400},"SBPV":{"icaoId":"SBPV","flightCategory":"MVFR","rawOb":"METAR SBPV 101800Z 16005KT 8000 VCSH SCT030 FEW040TCU BKN070 29/24 Q1011","temp":29,"dewp":24,"wdir":160,"wspd":5,"visib":4.97,"altim":1011,"clouds":[{"cover":"SCT","base":3000},{"cover":"FEW","base":4000},{"cover":"BKN","base":7000}],"obsTime":1783706400},"SBOI":{"icaoId":"SBOI","flightCategory":"VFR","rawOb":"METAR SBOI 101800Z AUTO 11008KT 080V150 9999 -RA FEW017 28/24 Q1012","temp":28,"dewp":24,"wdir":110,"wspd":8,"visib":"6+","altim":1012,"clouds":[{"cover":"FEW","base":1700}],"obsTime":1783706400},"SBPS":{"icaoId":"SBPS","flightCategory":"VFR","rawOb":"METAR SBPS 101800Z 08009KT 9999 SCT025 26/21 Q1016","temp":26,"dewp":21,"wdir":80,"wspd":9,"visib":"6+","altim":1016,"clouds":[{"cover":"SCT","base":2500}],"obsTime":1783706400},"SBUY":{"icaoId":"SBUY","flightCategory":"VFR","rawOb":"METAR SBUY 101800Z 13004KT 9999 SCT025 FEW030TCU 32/24 Q1009","temp":32,"dewp":24,"wdir":130,"wspd":4,"visib":"6+","altim":1009,"clouds":[{"cover":"SCT","base":2500},{"cover":"FEW","base":3000}],"obsTime":1783706400},"SBKG":{"icaoId":"SBKG","flightCategory":"MVFR","rawOb":"METAR SBKG 101800Z 11008KT 9999 BKN025 28/20 Q1016","temp":28,"dewp":20,"wdir":110,"wspd":8,"visib":"6+","altim":1016,"clouds":[{"cover":"BKN","base":2500}],"obsTime":1783706400},"SBCO":{"icaoId":"SBCO","flightCategory":"VFR","rawOb":"METAR SBCO 101800Z 08006KT 9999 BKN046 19/10 Q1013","temp":19,"dewp":10,"wdir":80,"wspd":6,"visib":"6+","altim":1013,"clouds":[{"cover":"BKN","base":4600}],"obsTime":1783706400},"SBCA":{"icaoId":"SBCA","flightCategory":"VFR","rawOb":"METAR SBCA 101800Z 34015KT 9999 FEW030 SCT080 26/15 Q1015","temp":26,"dewp":15,"wdir":340,"wspd":15,"visib":"6+","altim":1015,"clouds":[{"cover":"FEW","base":3000},{"cover":"SCT","base":8000}],"obsTime":1783706400},"SBPP":{"icaoId":"SBPP","flightCategory":"VFR","rawOb":"METAR SBPP 101800Z 36009KT 9999 FEW025 29/16 Q1014","temp":29,"dewp":16,"wdir":360,"wspd":9,"visib":"6+","altim":1014,"clouds":[{"cover":"FEW","base":2500}],"obsTime":1783706400},"SBSM":{"icaoId":"SBSM","flightCategory":"VFR","rawOb":"METAR SBSM 101800Z 12006KT 9999 FEW020 BKN090 21/15 Q1012","temp":21,"dewp":15,"wdir":120,"wspd":6,"visib":"6+","altim":1012,"clouds":[{"cover":"FEW","base":2000},{"cover":"BKN","base":9000}],"obsTime":1783706400},"SBAU":{"icaoId":"SBAU","flightCategory":"VFR","rawOb":"METAR SBAU 101800Z 30006KT CAVOK 31/12 Q1014","temp":31,"dewp":12,"wdir":300,"wspd":6,"visib":"6+","altim":1014,"clouds":[],"obsTime":1783706400},"SBAX":{"icaoId":"SBAX","flightCategory":"VFR","rawOb":"METAR SBAX 101800Z 23004KT CAVOK 26/06 Q1018","temp":26,"dewp":6,"wdir":230,"wspd":4,"visib":"6+","altim":1018,"clouds":[],"obsTime":1783706400},"SBBH":{"icaoId":"SBBH","flightCategory":"VFR","rawOb":"METAR SBBH 101800Z 26008KT CAVOK 27/08 Q1017","temp":27,"dewp":8,"wdir":260,"wspd":8,"visib":"6+","altim":1017,"clouds":[],"obsTime":1783706400},"SBTU":{"icaoId":"SBTU","flightCategory":"VFR","rawOb":"METAR SBTU 101800Z AUTO 24006KT 210V280 9999 // SCT029/// BKN033/// BKN059/// 29/23 Q1013","temp":29,"dewp":23,"wdir":240,"wspd":6,"visib":"6+","altim":1013,"clouds":[{"cover":"SCT","base":2900},{"cover":"BKN","base":3300},{"cover":"BKN","base":5900}],"obsTime":1783706400},"SBBQ":{"icaoId":"SBBQ","flightCategory":"VFR","rawOb":"METAR SBBQ 101800Z 30009KT 270V340 CAVOK 24/08 Q1021","temp":24,"dewp":8,"wdir":300,"wspd":9,"visib":"6+","altim":1021,"clouds":[],"obsTime":1783706400},"SBBU":{"icaoId":"SBBU","flightCategory":"VFR","rawOb":"METAR SBBU 101800Z 34004KT CAVOK 28/10 Q1016","temp":28,"dewp":10,"wdir":340,"wspd":4,"visib":"6+","altim":1016,"clouds":[],"obsTime":1783706400},"SBDN":{"icaoId":"SBDN","flightCategory":"VFR","rawOb":"METAR SBDN 101800Z 02006KT CAVOK 29/13 Q1014","temp":29,"dewp":13,"wdir":20,"wspd":6,"visib":"6+","altim":1014,"clouds":[],"obsTime":1783706400},"SBIP":{"icaoId":"SBIP","flightCategory":"VFR","rawOb":"METAR SBIP 101800Z AUTO 03004KT 320V130 CAVOK 27/17 Q1015","temp":27,"dewp":17,"wdir":30,"wspd":4,"visib":"6+","altim":1015,"clouds":[],"obsTime":1783706400},"SBSC":{"icaoId":"SBSC","flightCategory":"VFR","rawOb":"METAR SBSC 101800Z 26006KT CAVOK 26/18 Q1012","temp":26,"dewp":18,"wdir":260,"wspd":6,"visib":"6+","altim":1012,"clouds":[],"obsTime":1783706400},"SBSR":{"icaoId":"SBSR","flightCategory":"VFR","rawOb":"METAR SBSR 101800Z 04005KT CAVOK 29/08 Q1015","temp":29,"dewp":8,"wdir":40,"wspd":5,"visib":"6+","altim":1015,"clouds":[],"obsTime":1783706400},"SBCC":{"icaoId":"SBCC","flightCategory":"VFR","rawOb":"METAR SBCC 101800Z 24005KT 210V280 9999 VCSH SCT040 FEW045TCU BKN100 24/22 Q1014","temp":24,"dewp":22,"wdir":240,"wspd":5,"visib":"6+","altim":1014,"clouds":[{"cover":"SCT","base":4000},{"cover":"FEW","base":4500},{"cover":"BKN","base":10000}],"obsTime":1783706400},"SBPL":{"icaoId":"SBPL","flightCategory":"VFR","rawOb":"METAR SBPL 101800Z 11007KT 9999 FEW030 32/14 Q1014","temp":32,"dewp":14,"wdir":110,"wspd":7,"visib":"6+","altim":1014,"clouds":[{"cover":"FEW","base":3000}],"obsTime":1783706400},"SBGM":{"icaoId":"SBGM","flightCategory":"VFR","rawOb":"METAR SBGM 101800Z 08006KT 9999 BKN043 33/21 Q1012","temp":33,"dewp":21,"wdir":80,"wspd":6,"visib":"6+","altim":1012,"clouds":[{"cover":"BKN","base":4300}],"obsTime":1783706400},"SBCJ":{"icaoId":"SBCJ","flightCategory":"VFR","rawOb":"METAR SBCJ 101800Z 00000KT 9999 SCT033 FEW040TCU SCT070 26/22 Q1014","temp":26,"dewp":22,"wdir":0,"wspd":0,"visib":"6+","altim":1014,"clouds":[{"cover":"SCT","base":3300},{"cover":"FEW","base":4000},{"cover":"SCT","base":7000}],"obsTime":1783706400},"SBVH":{"icaoId":"SBVH","flightCategory":"VFR","rawOb":"METAR SBVH 101800Z 07009KT 9999 -RA BKN035 FEW040TCU 26/20 Q1015","temp":26,"dewp":20,"wdir":70,"wspd":9,"visib":"6+","altim":1015,"clouds":[{"cover":"BKN","base":3500},{"cover":"FEW","base":4000}],"obsTime":1783706400},"SBTT":{"icaoId":"SBTT","flightCategory":"VFR","rawOb":"METAR SBTT 101800Z 34006KT 9999 SCT025 FEW026TCU 26/23 Q1012","temp":26,"dewp":23,"wdir":340,"wspd":6,"visib":"6+","altim":1012,"clouds":[{"cover":"SCT","base":2500},{"cover":"FEW","base":2600}],"obsTime":1783706400},"SBSJ":{"icaoId":"SBSJ","flightCategory":"VFR","rawOb":"METAR SBSJ 101800Z 06002KT CAVOK 25/14 Q1016","temp":25,"dewp":14,"wdir":60,"wspd":2,"visib":"6+","altim":1016,"clouds":[],"obsTime":1783706400},"SBAR":{"icaoId":"SBAR","flightCategory":"VFR","rawOb":"METAR SBAR 101800Z 10009KT 9999 SCT026 27/21 Q1015","temp":27,"dewp":21,"wdir":100,"wspd":9,"visib":"6+","altim":1015,"clouds":[{"cover":"SCT","base":2600}],"obsTime":1783706400},"SBES":{"icaoId":"SBES","flightCategory":"VFR","rawOb":"METAR SBES 101800Z 06004KT 360V130 CAVOK 25/// Q1013","temp":null,"dewp":null,"wdir":60,"wspd":4,"visib":"6+","altim":1013,"clouds":[],"obsTime":1783706400},"SBTF":{"icaoId":"SBTF","flightCategory":"VFR","rawOb":"METAR SBTF 101800Z 01004KT 9999 FEW020 SCT025TCU 31/27 Q1010","temp":31,"dewp":27,"wdir":10,"wspd":4,"visib":"6+","altim":1010,"clouds":[{"cover":"FEW","base":2000},{"cover":"SCT","base":2500}],"obsTime":1783706400},"SBPB":{"icaoId":"SBPB","flightCategory":"VFR","rawOb":"METAR SBPB 101800Z 06013KT 9999 FEW020 30/25 Q1011","temp":30,"dewp":25,"wdir":60,"wspd":13,"visib":"6+","altim":1011,"clouds":[{"cover":"FEW","base":2000}],"obsTime":1783706400},"SBNM":{"icaoId":"SBNM","flightCategory":"MVFR","rawOb":"METAR SBNM 101800Z AUTO 35010KT 9999 BKN015 BKN018 BKN049 20/17 Q1012","temp":20,"dewp":17,"wdir":350,"wspd":10,"visib":"6+","altim":1012,"clouds":[{"cover":"BKN","base":1500},{"cover":"BKN","base":1800},{"cover":"BKN","base":4900}],"obsTime":1783706400},"SBIH":{"icaoId":"SBIH","flightCategory":"VFR","rawOb":"METAR SBIH 101800Z 02004KT 9999 SCT020 33/23 Q1010","temp":33,"dewp":23,"wdir":20,"wspd":4,"visib":"6+","altim":1010,"clouds":[{"cover":"SCT","base":2000}],"obsTime":1783706400},"SBAN":{"icaoId":"SBAN","flightCategory":"VFR","rawOb":"METAR SBAN 101800Z 15003KT 9999 SCT045 27/10 Q1020","temp":27,"dewp":10,"wdir":150,"wspd":3,"visib":"6+","altim":1020,"clouds":[{"cover":"SCT","base":4500}],"obsTime":1783706400},"SBLE":{"icaoId":"SBLE","flightCategory":"VFR","rawOb":"METAR SBLE 101800Z AUTO VRB02KT 9999 SCT044 ///// Q1017","temp":null,"dewp":null,"wdir":"VRB","wspd":2,"visib":"6+","altim":1017,"clouds":[{"cover":"SCT","base":4400}],"obsTime":1783706400},"SBJV":{"icaoId":"SBJV","flightCategory":"MVFR","rawOb":"METAR SBJV 101800Z 25003KT 5000 -RA FEW010 BKN050 18/17 Q1015","temp":18,"dewp":17,"wdir":250,"wspd":3,"visib":3.11,"altim":1015,"clouds":[{"cover":"FEW","base":1000},{"cover":"BKN","base":5000}],"obsTime":1783706400},"SBPF":{"icaoId":"SBPF","flightCategory":"MVFR","rawOb":"METAR SBPF 101800Z 36005KT 9999 BKN010 18/15 Q1015","temp":18,"dewp":15,"wdir":360,"wspd":5,"visib":"6+","altim":1015,"clouds":[{"cover":"BKN","base":1000}],"obsTime":1783706400},"SBAF":{"icaoId":"SBAF","flightCategory":"VFR","rawOb":"METAR SBAF 101800Z 19008KT CAVOK 28/18 Q1012","temp":28,"dewp":18,"wdir":190,"wspd":8,"visib":"6+","altim":1012,"clouds":[],"obsTime":1783706400},"SBGW":{"icaoId":"SBGW","flightCategory":"VFR","rawOb":"METAR SBGW 101800Z VRB02KT CAVOK 26/11 Q1015","temp":26,"dewp":11,"wdir":"VRB","wspd":2,"visib":"6+","altim":1015,"clouds":[],"obsTime":1783706400},"SBJR":{"icaoId":"SBJR","flightCategory":"VFR","rawOb":"METAR SBJR 101800Z 20005KT 9000 NSC 27/19 Q1012","temp":27,"dewp":19,"wdir":200,"wspd":5,"visib":5.59,"altim":1012,"clouds":[],"obsTime":1783706400},"SBLS":{"icaoId":"SBLS","flightCategory":"VFR","rawOb":"METAR SBLS 101800Z 24006KT 180V250 CAVOK 27/07 Q1017","temp":27,"dewp":7,"wdir":240,"wspd":6,"visib":"6+","altim":1017,"clouds":[],"obsTime":1783706400},"SBMT":{"icaoId":"SBMT","flightCategory":"VFR","rawOb":"METAR SBMT 101800Z 31008KT 260V350 CAVOK 25/08 Q1016","temp":25,"dewp":8,"wdir":310,"wspd":8,"visib":"6+","altim":1016,"clouds":[],"obsTime":1783706400},"SBST":{"icaoId":"SBST","flightCategory":"VFR","rawOb":"METAR SBST 101800Z 26004KT 210V300 CAVOK 25/17 Q1012","temp":25,"dewp":17,"wdir":260,"wspd":4,"visib":"6+","altim":1012,"clouds":[],"obsTime":1783706400},"SBTA":{"icaoId":"SBTA","flightCategory":"VFR","rawOb":"METAR SBTA 101800Z VRB02KT CAVOK 26/14 Q1015","temp":26,"dewp":14,"wdir":"VRB","wspd":2,"visib":"6+","altim":1015,"clouds":[],"obsTime":1783706400},"SBJP":{"icaoId":"SBJP","flightCategory":"VFR","rawOb":"METAR SBJP 101800Z 12013KT 9999 SCT030 28/23 Q1014","temp":28,"dewp":23,"wdir":120,"wspd":13,"visib":"6+","altim":1014,"clouds":[{"cover":"SCT","base":3000}],"obsTime":1783706400}}}