{"updated":1782604191,"count":72,"data":{"SBGR":{"icaoId":"SBGR","flightCategory":"VFR","rawOb":"METAR SBGR 272200Z 08008KT CAVOK 19/17 Q1024","temp":19,"dewp":17,"wdir":80,"wspd":8,"visib":"6+","altim":1024,"clouds":[],"obsTime":1782597600},"SBLO":{"icaoId":"SBLO","flightCategory":"VFR","rawOb":"METAR SBLO 272200Z 14005KT CAVOK 21/19 Q1020","temp":21,"dewp":19,"wdir":140,"wspd":5,"visib":"6+","altim":1020,"clouds":[],"obsTime":1782597600},"SBFL":{"icaoId":"SBFL","flightCategory":"VFR","rawOb":"METAR SBFL 272200Z 35005KT 9999 SCT045 18/16 Q1020","temp":18,"dewp":16,"wdir":350,"wspd":5,"visib":"6+","altim":1020,"clouds":[{"cover":"SCT","base":4500}],"obsTime":1782597600},"SBMQ":{"icaoId":"SBMQ","flightCategory":"VFR","rawOb":"METAR SBMQ 272200Z 05004KT 010V090 9999 SCT020 FEW023TCU SCT080 27/26 Q1013","temp":27,"dewp":26,"wdir":50,"wspd":4,"visib":"6+","altim":1013,"clouds":[{"cover":"SCT","base":2000},{"cover":"FEW","base":2300},{"cover":"SCT","base":8000}],"obsTime":1782597600},"SBMG":{"icaoId":"SBMG","flightCategory":"VFR","rawOb":"METAR SBMG 272200Z 11007KT CAVOK 21/18 Q1019","temp":21,"dewp":18,"wdir":110,"wspd":7,"visib":"6+","altim":1019,"clouds":[],"obsTime":1782597600},"SBSN":{"icaoId":"SBSN","flightCategory":"VFR","rawOb":"METAR SBSN 272200Z 16003KT 9999 FEW030TCU 27/25 Q1011","temp":27,"dewp":25,"wdir":160,"wspd":3,"visib":"6+","altim":1011,"clouds":[{"cover":"FEW","base":3000}],"obsTime":1782597600},"SBGO":{"icaoId":"SBGO","flightCategory":"VFR","rawOb":"METAR SBGO 272200Z 08009KT 9999 FEW045 26/15 Q1021","temp":26,"dewp":15,"wdir":80,"wspd":9,"visib":"6+","altim":1021,"clouds":[{"cover":"FEW","base":4500}],"obsTime":1782597600},"SBIL":{"icaoId":"SBIL","flightCategory":"MVFR","rawOb":"METAR SBIL 272200Z 21009KT 8000 -RA SCT010 BKN020 BKN050 23/23 Q1021","temp":23,"dewp":23,"wdir":210,"wspd":9,"visib":4.97,"altim":1021,"clouds":[{"cover":"SCT","base":1000},{"cover":"BKN","base":2000},{"cover":"BKN","base":5000}],"obsTime":1782597600},"SBCZ":{"icaoId":"SBCZ","flightCategory":"MVFR","rawOb":"METAR SBCZ 272200Z 00000KT 9999 OVC025 26/22 Q1015","temp":26,"dewp":22,"wdir":0,"wspd":0,"visib":"6+","altim":1015,"clouds":[{"cover":"OVC","base":2500}],"obsTime":1782597600},"SBJU":{"icaoId":"SBJU","flightCategory":"MVFR","rawOb":"METAR SBJU 272200Z 12008KT 9000 -DZ SCT010 OVC018 23/22 Q1018","temp":23,"dewp":22,"wdir":120,"wspd":8,"visib":5.59,"altim":1018,"clouds":[{"cover":"SCT","base":1000},{"cover":"OVC","base":1800}],"obsTime":1782597600},"SBCG":{"icaoId":"SBCG","flightCategory":"VFR","rawOb":"METAR SBCG 272200Z 01006KT CAVOK 24/17 Q1017","temp":24,"dewp":17,"wdir":10,"wspd":6,"visib":"6+","altim":1017,"clouds":[],"obsTime":1782597600},"SBSG":{"icaoId":"SBSG","flightCategory":"IFR","rawOb":"METAR SBSG 272200Z 15005KT 100V190 9999 BKN009 24/24 Q1016","temp":24,"dewp":24,"wdir":150,"wspd":5,"visib":"6+","altim":1016,"clouds":[{"cover":"BKN","base":900}],"obsTime":1782597600},"SBVT":{"icaoId":"SBVT","flightCategory":"VFR","rawOb":"METAR SBVT 272200Z 34002KT 9999 FEW020 SCT040 23/21 Q1023","temp":23,"dewp":21,"wdir":340,"wspd":2,"visib":"6+","altim":1023,"clouds":[{"cover":"FEW","base":2000},{"cover":"SCT","base":4000}],"obsTime":1782597600},"SBSL":{"icaoId":"SBSL","flightCategory":"VFR","rawOb":"METAR SBSL 272200Z VRB02KT 9999 SCT020 26/24 Q1013","temp":26,"dewp":24,"wdir":"VRB","wspd":2,"visib":"6+","altim":1013,"clouds":[{"cover":"SCT","base":2000}],"obsTime":1782597600},"SBEG":{"icaoId":"SBEG","flightCategory":"VFR","rawOb":"METAR SBEG 272200Z 12005KT 9999 FEW020 FEW025TCU BKN090 27/24 Q1012","temp":27,"dewp":24,"wdir":120,"wspd":5,"visib":"6+","altim":1012,"clouds":[{"cover":"FEW","base":2000},{"cover":"FEW","base":2500},{"cover":"BKN","base":9000}],"obsTime":1782597600},"SBNT":{"icaoId":"SBNT","flightCategory":"MVFR","rawOb":"METAR SBNT 272200Z 16006KT 9999 SCT010 BKN020 BKN100 24/23 Q1015","temp":24,"dewp":23,"wdir":160,"wspd":6,"visib":"6+","altim":1015,"clouds":[{"cover":"SCT","base":1000},{"cover":"BKN","base":2000},{"cover":"BKN","base":10000}],"obsTime":1782597600},"SBME":{"icaoId":"SBME","flightCategory":"VFR","rawOb":"METAR SBME 272200Z 04008KT CAVOK 23/20 Q1022","temp":23,"dewp":20,"wdir":40,"wspd":8,"visib":"6+","altim":1022,"clouds":[],"obsTime":1782597600},"SBMK":{"icaoId":"SBMK","flightCategory":"MVFR","rawOb":"METAR SBMK 272200Z 08004KT 9999 BKN030 23/15 Q1023","temp":23,"dewp":15,"wdir":80,"wspd":4,"visib":"6+","altim":1023,"clouds":[{"cover":"BKN","base":3000}],"obsTime":1782597600},"SBKP":{"icaoId":"SBKP","flightCategory":"VFR","rawOb":"METAR SBKP 272200Z 20004KT CAVOK 23/16 Q1023","temp":23,"dewp":16,"wdir":200,"wspd":4,"visib":"6+","altim":1023,"clouds":[],"obsTime":1782597600},"SBUL":{"icaoId":"SBUL","flightCategory":"VFR","rawOb":"METAR SBUL 272200Z 08004KT CAVOK 22/14 Q1023","temp":22,"dewp":14,"wdir":80,"wspd":4,"visib":"6+","altim":1023,"clouds":[],"obsTime":1782597600},"SBSV":{"icaoId":"SBSV","flightCategory":"VFR","rawOb":"METAR SBSV 272200Z 11007KT 090V170 9999 FEW040 BKN060 27/20 Q1019","temp":27,"dewp":20,"wdir":110,"wspd":7,"visib":"6+","altim":1019,"clouds":[{"cover":"FEW","base":4000},{"cover":"BKN","base":6000}],"obsTime":1782597600},"SBUR":{"icaoId":"SBUR","flightCategory":"VFR","rawOb":"METAR SBUR 272200Z 06003KT CAVOK 24/14 Q1022","temp":24,"dewp":14,"wdir":60,"wspd":3,"visib":"6+","altim":1022,"clouds":[],"obsTime":1782597600},"SBRF":{"icaoId":"SBRF","flightCategory":"MVFR","rawOb":"METAR SBRF 272200Z 12013KT 9999 FEW013 BKN022 BKN060 26/22 Q1016","temp":26,"dewp":22,"wdir":120,"wspd":13,"visib":"6+","altim":1016,"clouds":[{"cover":"FEW","base":1300},{"cover":"BKN","base":2200},{"cover":"BKN","base":6000}],"obsTime":1782597600},"SBCT":{"icaoId":"SBCT","flightCategory":"VFR","rawOb":"METAR SBCT 272200Z 05002KT CAVOK 16/15 Q1024","temp":16,"dewp":15,"wdir":50,"wspd":2,"visib":"6+","altim":1024,"clouds":[],"obsTime":1782597600},"SBPV":{"icaoId":"SBPV","flightCategory":"VFR","rawOb":"METAR SBPV 272200Z 29001KT 9999 FEW018 26/23 Q1012","temp":26,"dewp":23,"wdir":290,"wspd":1,"visib":"6+","altim":1012,"clouds":[{"cover":"FEW","base":1800}],"obsTime":1782597600},"SBCF":{"icaoId":"SBCF","flightCategory":"VFR","rawOb":"METAR SBCF 272200Z 09006KT 9999 FEW040 21/13 Q1025","temp":21,"dewp":13,"wdir":90,"wspd":6,"visib":"6+","altim":1025,"clouds":[{"cover":"FEW","base":4000}],"obsTime":1782597600},"SBPA":{"icaoId":"SBPA","flightCategory":"VFR","rawOb":"METAR SBPA 272200Z 15004KT 9999 SCT045 BKN090 17/11 Q1019","temp":17,"dewp":11,"wdir":150,"wspd":4,"visib":"6+","altim":1019,"clouds":[{"cover":"SCT","base":4500},{"cover":"BKN","base":9000}],"obsTime":1782597600},"SBFZ":{"icaoId":"SBFZ","flightCategory":"VFR","rawOb":"METAR SBFZ 272200Z 09006KT 9999 FEW025 27/24 Q1013","temp":27,"dewp":24,"wdir":90,"wspd":6,"visib":"6+","altim":1013,"clouds":[{"cover":"FEW","base":2500}],"obsTime":1782597600},"SBMO":{"icaoId":"SBMO","flightCategory":"MVFR","rawOb":"METAR SBMO 272200Z 05007KT 9999 BKN020 23/22 Q1018","temp":23,"dewp":22,"wdir":50,"wspd":7,"visib":"6+","altim":1018,"clouds":[{"cover":"BKN","base":2000}],"obsTime":1782597600},"SBSP":{"icaoId":"SBSP","flightCategory":"VFR","rawOb":"METAR SBSP 272200Z 14003KT CAVOK 20/17 Q1025","temp":20,"dewp":17,"wdir":140,"wspd":3,"visib":"6+","altim":1025,"clouds":[],"obsTime":1782597600},"SBFI":{"icaoId":"SBFI","flightCategory":"MVFR","rawOb":"METAR SBFI 272200Z 08008G18KT 9999 TS SCT008 BKN015 FEW040CB 17/16 Q1018 RETS","temp":17,"dewp":16,"wdir":80,"wspd":8,"visib":"6+","altim":1018,"clouds":[{"cover":"SCT","base":800},{"cover":"BKN","base":1500},{"cover":"FEW","base":4000}],"obsTime":1782597600},"SBPJ":{"icaoId":"SBPJ","flightCategory":"VFR","rawOb":"METAR SBPJ 272200Z 12004KT 9999 SCT030 BKN080 29/21 Q1016","temp":29,"dewp":21,"wdir":120,"wspd":4,"visib":"6+","altim":1016,"clouds":[{"cover":"SCT","base":3000},{"cover":"BKN","base":8000}],"obsTime":1782597600},"SBGL":{"icaoId":"SBGL","flightCategory":"VFR","rawOb":"METAR SBGL 272200Z 13005KT 9999 SCT030 22/20 Q1022","temp":22,"dewp":20,"wdir":130,"wspd":5,"visib":"6+","altim":1022,"clouds":[{"cover":"SCT","base":3000}],"obsTime":1782597600},"SBBR":{"icaoId":"SBBR","flightCategory":"VFR","rawOb":"METAR SBBR 272200Z 12005KT CAVOK 22/16 Q1024","temp":22,"dewp":16,"wdir":120,"wspd":5,"visib":"6+","altim":1024,"clouds":[],"obsTime":1782597600},"SBMA":{"icaoId":"SBMA","flightCategory":"VFR","rawOb":"METAR SBMA 272200Z 08002KT 9999 FEW020 FEW025TCU 29/23 Q1013","temp":29,"dewp":23,"wdir":80,"wspd":2,"visib":"6+","altim":1013,"clouds":[{"cover":"FEW","base":2000},{"cover":"FEW","base":2500}],"obsTime":1782597600},"SBTE":{"icaoId":"SBTE","flightCategory":"VFR","rawOb":"METAR SBTE 272200Z 34007KT 9999 FEW030 BKN080 29/23 Q1012","temp":29,"dewp":23,"wdir":340,"wspd":7,"visib":"6+","altim":1012,"clouds":[{"cover":"FEW","base":3000},{"cover":"BKN","base":8000}],"obsTime":1782597600},"SBBV":{"icaoId":"SBBV","flightCategory":"MVFR","rawOb":"METAR SBBV 272200Z 12008KT 5000 -RA SCT008 FEW030TCU BKN100 25/24 Q1012","temp":25,"dewp":24,"wdir":120,"wspd":8,"visib":3.11,"altim":1012,"clouds":[{"cover":"SCT","base":800},{"cover":"FEW","base":3000},{"cover":"BKN","base":10000}],"obsTime":1782597600},"SBBE":{"icaoId":"SBBE","flightCategory":"VFR","rawOb":"METAR SBBE 272200Z 06009KT 9999 SCT045 30/23 Q1013","temp":30,"dewp":23,"wdir":60,"wspd":9,"visib":"6+","altim":1013,"clouds":[{"cover":"SCT","base":4500}],"obsTime":1782597600},"SBRB":{"icaoId":"SBRB","flightCategory":"VFR","rawOb":"METAR SBRB 272200Z 09003KT 9999 SCT030 25/21 Q1015","temp":25,"dewp":21,"wdir":90,"wspd":3,"visib":"6+","altim":1015,"clouds":[{"cover":"SCT","base":3000}],"obsTime":1782597600},"SBCP":{"icaoId":"SBCP","flightCategory":"VFR","rawOb":"METAR SBCP 272200Z 10005KT CAVOK 21/21 Q1023","temp":21,"dewp":21,"wdir":100,"wspd":5,"visib":"6+","altim":1023,"clouds":[],"obsTime":1782597600},"SBSJ":{"icaoId":"SBSJ","flightCategory":"VFR","rawOb":"METAR SBSJ 272200Z 00000KT CAVOK 17/16 Q1024","temp":17,"dewp":16,"wdir":0,"wspd":0,"visib":"6+","altim":1024,"clouds":[],"obsTime":1782597600},"SBAR":{"icaoId":"SBAR","flightCategory":"VFR","rawOb":"METAR SBAR 272200Z 12007KT 090V150 9999 FEW023 SCT030 26/21 Q1018","temp":26,"dewp":21,"wdir":120,"wspd":7,"visib":"6+","altim":1018,"clouds":[{"cover":"FEW","base":2300},{"cover":"SCT","base":3000}],"obsTime":1782597600},"SBPS":{"icaoId":"SBPS","flightCategory":"VFR","rawOb":"METAR SBPS 272200Z 14004KT 9999 FEW025 BKN070 24/20 Q1022","temp":24,"dewp":20,"wdir":140,"wspd":4,"visib":"6+","altim":1022,"clouds":[{"cover":"FEW","base":2500},{"cover":"BKN","base":7000}],"obsTime":1782597600},"SBVH":{"icaoId":"SBVH","flightCategory":"VFR","rawOb":"METAR SBVH 272200Z 10006KT CAVOK 24/19 Q1017","temp":24,"dewp":19,"wdir":100,"wspd":6,"visib":"6+","altim":1017,"clouds":[],"obsTime":1782597600},"SBCA":{"icaoId":"SBCA","flightCategory":"LIFR","rawOb":"METAR SBCA 272200Z 10012KT 4000 -TSRA BR BCFG FEW001 BKN004 FEW040CB 14/14 Q1022","temp":14,"dewp":14,"wdir":100,"wspd":12,"visib":2.49,"altim":1022,"clouds":[{"cover":"FEW","base":100},{"cover":"BKN","base":400},{"cover":"FEW","base":4000}],"obsTime":1782597600},"SBCO":{"icaoId":"SBCO","flightCategory":"VFR","rawOb":"METAR SBCO 272200Z 10005KT 9999 BKN040 16/12 Q1019","temp":16,"dewp":12,"wdir":100,"wspd":5,"visib":"6+","altim":1019,"clouds":[{"cover":"BKN","base":4000}],"obsTime":1782597600},"SBSM":{"icaoId":"SBSM","flightCategory":"MVFR","rawOb":"METAR SBSM 272200Z 14003KT 9999 BKN025 OVC040 15/13 Q1018","temp":15,"dewp":13,"wdir":140,"wspd":3,"visib":"6+","altim":1018,"clouds":[{"cover":"BKN","base":2500},{"cover":"OVC","base":4000}],"obsTime":1782597600},"SBKG":{"icaoId":"SBKG","flightCategory":"IFR","rawOb":"METAR SBKG 272200Z 13006KT 4000 -RA BR SCT005 BKN006 OVC070 21/21 Q1019","temp":21,"dewp":21,"wdir":130,"wspd":6,"visib":2.49,"altim":1019,"clouds":[{"cover":"SCT","base":500},{"cover":"BKN","base":600},{"cover":"OVC","base":7000}],"obsTime":1782597600},"SBAX":{"icaoId":"SBAX","flightCategory":"VFR","rawOb":"METAR SBAX 272200Z AUTO 09008KT CAVOK 20/14 Q1024","temp":20,"dewp":14,"wdir":90,"wspd":8,"visib":"6+","altim":1024,"clouds":[],"obsTime":1782597600},"SBBH":{"icaoId":"SBBH","flightCategory":"VFR","rawOb":"METAR SBBH 272200Z 10004KT CAVOK 22/14 Q1024","temp":22,"dewp":14,"wdir":100,"wspd":4,"visib":"6+","altim":1024,"clouds":[],"obsTime":1782597600},"SBBU":{"icaoId":"SBBU","flightCategory":"VFR","rawOb":"METAR SBBU 272200Z 16003KT CAVOK 24/19 Q1021","temp":24,"dewp":19,"wdir":160,"wspd":3,"visib":"6+","altim":1021,"clouds":[],"obsTime":1782597600},"SBDN":{"icaoId":"SBDN","flightCategory":"VFR","rawOb":"METAR SBDN 272200Z 09008KT CAVOK 25/17 Q1019","temp":25,"dewp":17,"wdir":90,"wspd":8,"visib":"6+","altim":1019,"clouds":[],"obsTime":1782597600},"SBIP":{"icaoId":"SBIP","flightCategory":"VFR","rawOb":"METAR SBIP 272200Z AUTO 00000KT CAVOK 19/18 Q1022","temp":19,"dewp":18,"wdir":0,"wspd":0,"visib":"6+","altim":1022,"clouds":[],"obsTime":1782597600},"SBSC":{"icaoId":"SBSC","flightCategory":"MVFR","rawOb":"METAR SBSC 272200Z 24004KT 9999 BKN022 22/20 Q1022","temp":22,"dewp":20,"wdir":240,"wspd":4,"visib":"6+","altim":1022,"clouds":[{"cover":"BKN","base":2200}],"obsTime":1782597600},"SBSR":{"icaoId":"SBSR","flightCategory":"VFR","rawOb":"METAR SBSR 272200Z 11003KT CAVOK 25/15 Q1020","temp":25,"dewp":15,"wdir":110,"wspd":3,"visib":"6+","altim":1020,"clouds":[],"obsTime":1782597600},"SBTT":{"icaoId":"SBTT","flightCategory":"VFR","rawOb":"METAR SBTT 272200Z 18006KT 9999 FEW018 27/22 Q1013","temp":27,"dewp":22,"wdir":180,"wspd":6,"visib":"6+","altim":1013,"clouds":[{"cover":"FEW","base":1800}],"obsTime":1782597600},"SBTU":{"icaoId":"SBTU","flightCategory":"VFR","rawOb":"METAR SBTU 272200Z AUTO 29003KT 9999 // NCD ///// Q1014","temp":null,"dewp":null,"wdir":290,"wspd":3,"visib":"6+","altim":1014,"clouds":[],"obsTime":1782597600},"SBOI":{"icaoId":"SBOI","flightCategory":"VFR","rawOb":"METAR SBOI 272200Z AUTO VRB02KT 9999 -RA SCT041 25/24 Q1014 RERA","temp":25,"dewp":24,"wdir":"VRB","wspd":2,"visib":"6+","altim":1014,"clouds":[{"cover":"SCT","base":4100}],"obsTime":1782597600},"SBPL":{"icaoId":"SBPL","flightCategory":"VFR","rawOb":"METAR SBPL 272200Z 14004KT CAVOK 26/16 Q1017","temp":26,"dewp":16,"wdir":140,"wspd":4,"visib":"6+","altim":1017,"clouds":[],"obsTime":1782597600},"SBTF":{"icaoId":"SBTF","flightCategory":"VFR","rawOb":"METAR SBTF 272200Z 19008KT 9999 -RA SCT014 FEW025TCU BKN100 25/25 Q1012","temp":25,"dewp":25,"wdir":190,"wspd":8,"visib":"6+","altim":1012,"clouds":[{"cover":"SCT","base":1400},{"cover":"FEW","base":2500},{"cover":"BKN","base":10000}],"obsTime":1782597600},"SBUY":{"icaoId":"SBUY","flightCategory":"VFR","rawOb":"METAR SBUY 272200Z 16003KT 9999 -RA VCSH SCT030 FEW035TCU BKN080 27/25 Q1010","temp":27,"dewp":25,"wdir":160,"wspd":3,"visib":"6+","altim":1010,"clouds":[{"cover":"SCT","base":3000},{"cover":"FEW","base":3500},{"cover":"BKN","base":8000}],"obsTime":1782597600},"SBLE":{"icaoId":"SBLE","flightCategory":"MVFR","rawOb":"METAR SBLE 272200Z AUTO 13005KT 9999 BKN029 BKN049 ///// Q////","temp":null,"dewp":null,"wdir":130,"wspd":5,"visib":"6+","altim":null,"clouds":[{"cover":"BKN","base":2900},{"cover":"BKN","base":4900}],"obsTime":1782597600},"SBNM":{"icaoId":"SBNM","flightCategory":"VFR","rawOb":"METAR SBNM 272200Z AUTO 09003KT 040V110 CAVOK 16/15 Q1017","temp":16,"dewp":15,"wdir":90,"wspd":3,"visib":"6+","altim":1017,"clouds":[],"obsTime":1782597600},"SBJP":{"icaoId":"SBJP","flightCategory":"MVFR","rawOb":"METAR SBJP 272200Z 17005KT 9999 SCT010 BKN020 OVC070 24/24 Q1016","temp":24,"dewp":24,"wdir":170,"wspd":5,"visib":"6+","altim":1016,"clouds":[{"cover":"SCT","base":1000},{"cover":"BKN","base":2000},{"cover":"OVC","base":7000}],"obsTime":1782597600},"SBAN":{"icaoId":"SBAN","flightCategory":"VFR","rawOb":"METAR SBAN 272200Z 11005KT CAVOK 20/16 Q1024","temp":20,"dewp":16,"wdir":110,"wspd":5,"visib":"6+","altim":1024,"clouds":[],"obsTime":1782597600},"SBJV":{"icaoId":"SBJV","flightCategory":"VFR","rawOb":"METAR SBJV 272200Z 32002KT CAVOK 17/16 Q1021","temp":17,"dewp":16,"wdir":320,"wspd":2,"visib":"6+","altim":1021,"clouds":[],"obsTime":1782597600},"SBAF":{"icaoId":"SBAF","flightCategory":"VFR","rawOb":"METAR SBAF 272200Z 26001KT CAVOK 20/20 Q1022","temp":20,"dewp":20,"wdir":260,"wspd":1,"visib":"6+","altim":1022,"clouds":[],"obsTime":1782597600},"SBJR":{"icaoId":"SBJR","flightCategory":"MVFR","rawOb":"METAR SBJR 272200Z 00000KT 7000 FEW030 21/20 Q1022","temp":21,"dewp":20,"wdir":0,"wspd":0,"visib":4.35,"altim":1022,"clouds":[{"cover":"FEW","base":3000}],"obsTime":1782597600},"SBLS":{"icaoId":"SBLS","flightCategory":"VFR","rawOb":"METAR SBLS 272200Z 11006KT CAVOK 20/13 Q1024","temp":20,"dewp":13,"wdir":110,"wspd":6,"visib":"6+","altim":1024,"clouds":[],"obsTime":1782597600},"SBMT":{"icaoId":"SBMT","flightCategory":"VFR","rawOb":"METAR SBMT 272200Z 08003KT CAVOK 21/16 Q1024","temp":21,"dewp":16,"wdir":80,"wspd":3,"visib":"6+","altim":1024,"clouds":[],"obsTime":1782597600},"SBGW":{"icaoId":"SBGW","flightCategory":"VFR","rawOb":"METAR SBGW 272200Z 01002KT CAVOK 19/13 Q1023","temp":19,"dewp":13,"wdir":10,"wspd":2,"visib":"6+","altim":1023,"clouds":[],"obsTime":1782597600},"SBIH":{"icaoId":"SBIH","flightCategory":"VFR","rawOb":"METAR SBIH 272200Z 26002KT 9999 FEW020 SCT100 26/25 Q1012","temp":26,"dewp":25,"wdir":260,"wspd":2,"visib":"6+","altim":1012,"clouds":[{"cover":"FEW","base":2000},{"cover":"SCT","base":10000}],"obsTime":1782597600}}}