{"updated":1781142244,"count":66,"data":{"SBMG":{"icaoId":"SBMG","flightCategory":"LIFR","rawOb":"METAR SBMG 110000Z 16008KT 0800 R10/0800N -RA FG OVC001 16/15 Q1016 RERA","temp":16,"dewp":15,"wdir":160,"wspd":8,"visib":0.5,"altim":1016,"clouds":[{"cover":"OVC","base":100}],"obsTime":1781136000},"SBBV":{"icaoId":"SBBV","flightCategory":"VFR","rawOb":"METAR SBBV 110000Z 07005KT 9999 SCT030 FEW040TCU BKN090 26/23 Q1012","temp":26,"dewp":23,"wdir":70,"wspd":5,"visib":"6+","altim":1012,"clouds":[{"cover":"SCT","base":3000},{"cover":"FEW","base":4000},{"cover":"BKN","base":9000}],"obsTime":1781136000},"SBMK":{"icaoId":"SBMK","flightCategory":"VFR","rawOb":"METAR SBMK 110000Z 02003KT CAVOK 23/17 Q1018","temp":23,"dewp":17,"wdir":20,"wspd":3,"visib":"6+","altim":1018,"clouds":[],"obsTime":1781136000},"SBGL":{"icaoId":"SBGL","flightCategory":"VFR","rawOb":"METAR SBGL 110000Z 11006KT 9999 SCT017 21/18 Q1016","temp":21,"dewp":18,"wdir":110,"wspd":6,"visib":"6+","altim":1016,"clouds":[{"cover":"SCT","base":1700}],"obsTime":1781136000},"SBMO":{"icaoId":"SBMO","flightCategory":"VFR","rawOb":"METAR SBMO 110000Z 16004KT 9999 SCT017 BKN033 OVC042 24/24 Q1016","temp":24,"dewp":24,"wdir":160,"wspd":4,"visib":"6+","altim":1016,"clouds":[{"cover":"SCT","base":1700},{"cover":"BKN","base":3300},{"cover":"OVC","base":4200}],"obsTime":1781136000},"SBEG":{"icaoId":"SBEG","flightCategory":"VFR","rawOb":"METAR SBEG 110000Z 01001KT 9999 FEW035 BKN080 26/25 Q1013","temp":26,"dewp":25,"wdir":10,"wspd":1,"visib":"6+","altim":1013,"clouds":[{"cover":"FEW","base":3500},{"cover":"BKN","base":8000}],"obsTime":1781136000},"SBGO":{"icaoId":"SBGO","flightCategory":"VFR","rawOb":"METAR SBGO 110000Z 33005KT CAVOK 23/19 Q1017","temp":23,"dewp":19,"wdir":330,"wspd":5,"visib":"6+","altim":1017,"clouds":[],"obsTime":1781136000},"SBMQ":{"icaoId":"SBMQ","flightCategory":"VFR","rawOb":"METAR SBMQ 110000Z 02005KT 9999 FEW001 27/26 Q1012","temp":27,"dewp":26,"wdir":20,"wspd":5,"visib":"6+","altim":1012,"clouds":[{"cover":"FEW","base":100}],"obsTime":1781136000},"SBBE":{"icaoId":"SBBE","flightCategory":"VFR","rawOb":"METAR SBBE 110000Z 13004KT 9999 SCT045 26/23 Q1013","temp":26,"dewp":23,"wdir":130,"wspd":4,"visib":"6+","altim":1013,"clouds":[{"cover":"SCT","base":4500}],"obsTime":1781136000},"SBNT":{"icaoId":"SBNT","flightCategory":"VFR","rawOb":"METAR SBNT 110000Z 16006KT CAVOK 24/23 Q1014","temp":24,"dewp":23,"wdir":160,"wspd":6,"visib":"6+","altim":1014,"clouds":[],"obsTime":1781136000},"SBPA":{"icaoId":"SBPA","flightCategory":"VFR","rawOb":"METAR SBPA 110000Z 13006KT 9999 FEW010 14/12 Q1016","temp":14,"dewp":12,"wdir":130,"wspd":6,"visib":"6+","altim":1016,"clouds":[{"cover":"FEW","base":1000}],"obsTime":1781136000},"SBBR":{"icaoId":"SBBR","flightCategory":"VFR","rawOb":"METAR SBBR 110000Z 00000KT CAVOK 22/14 Q1020","temp":22,"dewp":14,"wdir":0,"wspd":0,"visib":"6+","altim":1020,"clouds":[],"obsTime":1781136000},"SBGR":{"icaoId":"SBGR","flightCategory":"MVFR","rawOb":"METAR SBGR 110000Z 18002KT 6000 -RA OVC010 17/16 Q1020","temp":17,"dewp":16,"wdir":180,"wspd":2,"visib":3.73,"altim":1020,"clouds":[{"cover":"OVC","base":1000}],"obsTime":1781136000},"SBPJ":{"icaoId":"SBPJ","flightCategory":"VFR","rawOb":"METAR SBPJ 110000Z 13004KT CAVOK 26/22 Q1014","temp":26,"dewp":22,"wdir":130,"wspd":4,"visib":"6+","altim":1014,"clouds":[],"obsTime":1781136000},"SBPV":{"icaoId":"SBPV","flightCategory":"VFR","rawOb":"METAR SBPV 110000Z 36003KT CAVOK 24/22 Q1010","temp":24,"dewp":22,"wdir":360,"wspd":3,"visib":"6+","altim":1010,"clouds":[],"obsTime":1781136000},"SBCG":{"icaoId":"SBCG","flightCategory":"VFR","rawOb":"METAR SBCG 110000Z 04007KT 9999 -RA FEW045 BKN100 20/17 Q1014","temp":20,"dewp":17,"wdir":40,"wspd":7,"visib":"6+","altim":1014,"clouds":[{"cover":"FEW","base":4500},{"cover":"BKN","base":10000}],"obsTime":1781136000},"SBIL":{"icaoId":"SBIL","flightCategory":"VFR","rawOb":"METAR SBIL 110000Z 30005KT CAVOK 22/21 Q1017","temp":22,"dewp":21,"wdir":300,"wspd":5,"visib":"6+","altim":1017,"clouds":[],"obsTime":1781136000},"SBRB":{"icaoId":"SBRB","flightCategory":"MVFR","rawOb":"METAR SBRB 110000Z 36003KT 9999 BKN030 24/22 Q1013","temp":24,"dewp":22,"wdir":360,"wspd":3,"visib":"6+","altim":1013,"clouds":[{"cover":"BKN","base":3000}],"obsTime":1781136000},"SBFI":{"icaoId":"SBFI","flightCategory":"MVFR","rawOb":"METAR SBFI 110000Z 04008KT 8000 -TSRA SCT010 FEW030CB OVC100 17/16 Q1013","temp":17,"dewp":16,"wdir":40,"wspd":8,"visib":4.97,"altim":1013,"clouds":[{"cover":"SCT","base":1000},{"cover":"FEW","base":3000},{"cover":"OVC","base":10000}],"obsTime":1781136000},"SBRF":{"icaoId":"SBRF","flightCategory":"MVFR","rawOb":"METAR SBRF 110000Z 14010KT 9999 BKN021 27/23 Q1015","temp":27,"dewp":23,"wdir":140,"wspd":10,"visib":"6+","altim":1015,"clouds":[{"cover":"BKN","base":2100}],"obsTime":1781136000},"SBSG":{"icaoId":"SBSG","flightCategory":"VFR","rawOb":"METAR SBSG 110000Z 16003KT 100V200 9999 FEW030 24/23 Q1015","temp":24,"dewp":23,"wdir":160,"wspd":3,"visib":"6+","altim":1015,"clouds":[{"cover":"FEW","base":3000}],"obsTime":1781136000},"SBJU":{"icaoId":"SBJU","flightCategory":"VFR","rawOb":"METAR SBJU 110000Z 09003KT 9999 FEW020 24/19 Q1016","temp":24,"dewp":19,"wdir":90,"wspd":3,"visib":"6+","altim":1016,"clouds":[{"cover":"FEW","base":2000}],"obsTime":1781136000},"SBSL":{"icaoId":"SBSL","flightCategory":"VFR","rawOb":"METAR SBSL 110000Z 07007KT 9999 FEW027 27/25 Q1012","temp":27,"dewp":25,"wdir":70,"wspd":7,"visib":"6+","altim":1012,"clouds":[{"cover":"FEW","base":2700}],"obsTime":1781136000},"SBCF":{"icaoId":"SBCF","flightCategory":"VFR","rawOb":"METAR SBCF 110000Z 05002KT CAVOK 21/13 Q1020","temp":21,"dewp":13,"wdir":50,"wspd":2,"visib":"6+","altim":1020,"clouds":[],"obsTime":1781136000},"SBKP":{"icaoId":"SBKP","flightCategory":"VFR","rawOb":"METAR SBKP 110000Z 17007KT 9999 -RA NSC 18/17 Q1018","temp":18,"dewp":17,"wdir":170,"wspd":7,"visib":"6+","altim":1018,"clouds":[],"obsTime":1781136000},"SBSN":{"icaoId":"SBSN","flightCategory":"VFR","rawOb":"METAR SBSN 110000Z 18002KT 9999 VCTS FEW017CB 25/24 Q1013","temp":25,"dewp":24,"wdir":180,"wspd":2,"visib":"6+","altim":1013,"clouds":[{"cover":"FEW","base":1700}],"obsTime":1781136000},"SBFL":{"icaoId":"SBFL","flightCategory":"MVFR","rawOb":"METAR SBFL 110000Z 08003KT 9999 OVC017 17/14 Q1017","temp":17,"dewp":14,"wdir":80,"wspd":3,"visib":"6+","altim":1017,"clouds":[{"cover":"OVC","base":1700}],"obsTime":1781136000},"SBSP":{"icaoId":"SBSP","flightCategory":"IFR","rawOb":"METAR SBSP 110000Z VRB03KT 3000 RA BKN005 OVC050 17/16 Q1020","temp":17,"dewp":16,"wdir":"VRB","wspd":3,"visib":1.86,"altim":1020,"clouds":[{"cover":"BKN","base":500},{"cover":"OVC","base":5000}],"obsTime":1781136000},"SBSV":{"icaoId":"SBSV","flightCategory":"VFR","rawOb":"METAR SBSV 110000Z 12004KT 9999 FEW030 25/20 Q1017","temp":25,"dewp":20,"wdir":120,"wspd":4,"visib":"6+","altim":1017,"clouds":[{"cover":"FEW","base":3000}],"obsTime":1781136000},"SBLO":{"icaoId":"SBLO","flightCategory":"LIFR","rawOb":"METAR SBLO 110000Z 19003KT 3000 -RA BKN002 OVC050 15/15 Q1017","temp":15,"dewp":15,"wdir":190,"wspd":3,"visib":1.86,"altim":1017,"clouds":[{"cover":"BKN","base":200},{"cover":"OVC","base":5000}],"obsTime":1781136000},"SBTE":{"icaoId":"SBTE","flightCategory":"VFR","rawOb":"METAR SBTE 110000Z 34003KT 9999 FEW033TCU SCT100 28/24 Q1012","temp":28,"dewp":24,"wdir":340,"wspd":3,"visib":"6+","altim":1012,"clouds":[{"cover":"FEW","base":3300},{"cover":"SCT","base":10000}],"obsTime":1781136000},"SBMA":{"icaoId":"SBMA","flightCategory":"VFR","rawOb":"METAR SBMA 110000Z 31002KT CAVOK 28/25 Q1012","temp":28,"dewp":25,"wdir":310,"wspd":2,"visib":"6+","altim":1012,"clouds":[],"obsTime":1781136000},"SBUL":{"icaoId":"SBUL","flightCategory":"VFR","rawOb":"METAR SBUL 110000Z 10003KT CAVOK 23/13 Q1019","temp":23,"dewp":13,"wdir":100,"wspd":3,"visib":"6+","altim":1019,"clouds":[],"obsTime":1781136000},"SBCT":{"icaoId":"SBCT","flightCategory":"LIFR","rawOb":"METAR SBCT 110000Z 03004KT 8000 -RA BKN003 OVC083 15/15 Q1019","temp":15,"dewp":15,"wdir":30,"wspd":4,"visib":4.97,"altim":1019,"clouds":[{"cover":"BKN","base":300},{"cover":"OVC","base":8300}],"obsTime":1781136000},"SBUR":{"icaoId":"SBUR","flightCategory":"VFR","rawOb":"METAR SBUR 110000Z 14002KT CAVOK 23/13 Q1017","temp":23,"dewp":13,"wdir":140,"wspd":2,"visib":"6+","altim":1017,"clouds":[],"obsTime":1781136000},"SBME":{"icaoId":"SBME","flightCategory":"VFR","rawOb":"METAR SBME 110000Z 33002KT 9999 FEW011 19/18 Q1017","temp":19,"dewp":18,"wdir":330,"wspd":2,"visib":"6+","altim":1017,"clouds":[{"cover":"FEW","base":1100}],"obsTime":1781136000},"SBVT":{"icaoId":"SBVT","flightCategory":"VFR","rawOb":"METAR SBVT 110000Z 34002KT CAVOK 19/17 Q1017","temp":19,"dewp":17,"wdir":340,"wspd":2,"visib":"6+","altim":1017,"clouds":[],"obsTime":1781136000},"SBFZ":{"icaoId":"SBFZ","flightCategory":"VFR","rawOb":"METAR SBFZ 110000Z 10007KT 9999 SCT020 27/24 Q1013","temp":27,"dewp":24,"wdir":100,"wspd":7,"visib":"6+","altim":1013,"clouds":[{"cover":"SCT","base":2000}],"obsTime":1781136000},"SBCB":{"icaoId":"SBCB","flightCategory":"VFR","rawOb":"METAR SBCB 110000Z 00000KT 9000 FEW015 19/17 Q1017","temp":19,"dewp":17,"wdir":0,"wspd":0,"visib":5.59,"altim":1017,"clouds":[{"cover":"FEW","base":1500}],"obsTime":1781136000},"SBCZ":{"icaoId":"SBCZ","flightCategory":"VFR","rawOb":"METAR SBCZ 110000Z 35004KT 9999 FEW025TCU BKN090 25/24 Q1012","temp":25,"dewp":24,"wdir":350,"wspd":4,"visib":"6+","altim":1012,"clouds":[{"cover":"FEW","base":2500},{"cover":"BKN","base":9000}],"obsTime":1781136000},"SBIP":{"icaoId":"SBIP","flightCategory":"VFR","rawOb":"METAR SBIP 110000Z AUTO 00000KT CAVOK 18/18 Q1017","temp":18,"dewp":18,"wdir":0,"wspd":0,"visib":"6+","altim":1017,"clouds":[],"obsTime":1781136000},"SBAX":{"icaoId":"SBAX","flightCategory":"VFR","rawOb":"METAR SBAX 110000Z 11004KT CAVOK 21/13 Q1019","temp":21,"dewp":13,"wdir":110,"wspd":4,"visib":"6+","altim":1019,"clouds":[],"obsTime":1781136000},"SBOI":{"icaoId":"SBOI","flightCategory":"VFR","rawOb":"METAR SBOI 110000Z AUTO VRB02KT 9999 // NCD 25/24 Q1013","temp":25,"dewp":24,"wdir":"VRB","wspd":2,"visib":"6+","altim":1013,"clouds":[],"obsTime":1781136000},"SBAR":{"icaoId":"SBAR","flightCategory":"VFR","rawOb":"METAR SBAR 110000Z 16006KT 9999 SCT023 BKN055 26/22 Q1016","temp":26,"dewp":22,"wdir":160,"wspd":6,"visib":"6+","altim":1016,"clouds":[{"cover":"SCT","base":2300},{"cover":"BKN","base":5500}],"obsTime":1781136000},"SBPL":{"icaoId":"SBPL","flightCategory":"VFR","rawOb":"METAR SBPL 110000Z 10004KT CAVOK 27/16 Q1016","temp":27,"dewp":16,"wdir":100,"wspd":4,"visib":"6+","altim":1016,"clouds":[],"obsTime":1781136000},"SBCO":{"icaoId":"SBCO","flightCategory":"VFR","rawOb":"METAR SBCO 110000Z 09002KT 9999 FEW010 11/11 Q1016","temp":11,"dewp":11,"wdir":90,"wspd":2,"visib":"6+","altim":1016,"clouds":[{"cover":"FEW","base":1000}],"obsTime":1781136000},"SBPS":{"icaoId":"SBPS","flightCategory":"VFR","rawOb":"METAR SBPS 110000Z 06005KT 9999 FEW025 23/20 Q1017","temp":23,"dewp":20,"wdir":60,"wspd":5,"visib":"6+","altim":1017,"clouds":[{"cover":"FEW","base":2500}],"obsTime":1781136000},"SBBH":{"icaoId":"SBBH","flightCategory":"VFR","rawOb":"METAR SBBH 110000Z 12005KT CAVOK 19/14 Q1019","temp":19,"dewp":14,"wdir":120,"wspd":5,"visib":"6+","altim":1019,"clouds":[],"obsTime":1781136000},"SBSC":{"icaoId":"SBSC","flightCategory":"VFR","rawOb":"METAR SBSC 110000Z VRB02KT 9999 FEW015 19/18 Q1017","temp":19,"dewp":18,"wdir":"VRB","wspd":2,"visib":"6+","altim":1017,"clouds":[{"cover":"FEW","base":1500}],"obsTime":1781136000},"SBDN":{"icaoId":"SBDN","flightCategory":"VFR","rawOb":"METAR SBDN 110000Z 11005KT CAVOK 18/16 Q1016","temp":18,"dewp":16,"wdir":110,"wspd":5,"visib":"6+","altim":1016,"clouds":[],"obsTime":1781136000},"SBSJ":{"icaoId":"SBSJ","flightCategory":"VFR","rawOb":"METAR SBSJ 110000Z 19003KT CAVOK 17/14 Q1019","temp":17,"dewp":14,"wdir":190,"wspd":3,"visib":"6+","altim":1019,"clouds":[],"obsTime":1781136000},"SBSM":{"icaoId":"SBSM","flightCategory":"VFR","rawOb":"METAR SBSM 110000Z 13004KT 100V160 9999 FEW017 BKN080 13/12 Q1015","temp":13,"dewp":12,"wdir":130,"wspd":4,"visib":"6+","altim":1015,"clouds":[{"cover":"FEW","base":1700},{"cover":"BKN","base":8000}],"obsTime":1781136000},"SBSR":{"icaoId":"SBSR","flightCategory":"VFR","rawOb":"METAR SBSR 110000Z 19009KT 9999 FEW040 BKN070 22/13 Q1016","temp":22,"dewp":13,"wdir":190,"wspd":9,"visib":"6+","altim":1016,"clouds":[{"cover":"FEW","base":4000},{"cover":"BKN","base":7000}],"obsTime":1781136000},"SBTU":{"icaoId":"SBTU","flightCategory":"VFR","rawOb":"METAR SBTU 110000Z AUTO 36002KT 9999 // NCD ///// Q1014","temp":null,"dewp":null,"wdir":360,"wspd":2,"visib":"6+","altim":1014,"clouds":[],"obsTime":1781136000},"SBKG":{"icaoId":"SBKG","flightCategory":"VFR","rawOb":"METAR SBKG 110000Z 10004KT CAVOK 21/20 Q1017","temp":21,"dewp":20,"wdir":100,"wspd":4,"visib":"6+","altim":1017,"clouds":[],"obsTime":1781136000},"SBBU":{"icaoId":"SBBU","flightCategory":"MVFR","rawOb":"METAR SBBU 110000Z 14007KT 7000 -RA SCT027 OVC100 18/17 Q1018","temp":18,"dewp":17,"wdir":140,"wspd":7,"visib":4.35,"altim":1018,"clouds":[{"cover":"SCT","base":2700},{"cover":"OVC","base":10000}],"obsTime":1781136000},"SBCC":{"icaoId":"SBCC","flightCategory":"VFR","rawOb":"METAR SBCC 110000Z 27006KT 9999 FEW025 FEW030TCU BKN100 22/21 Q1016","temp":22,"dewp":21,"wdir":270,"wspd":6,"visib":"6+","altim":1016,"clouds":[{"cover":"FEW","base":2500},{"cover":"FEW","base":3000},{"cover":"BKN","base":10000}],"obsTime":1781136000},"SBJP":{"icaoId":"SBJP","flightCategory":"VFR","rawOb":"METAR SBJP 110000Z 17004KT 9999 FEW020 24/23 Q1015","temp":24,"dewp":23,"wdir":170,"wspd":4,"visib":"6+","altim":1015,"clouds":[{"cover":"FEW","base":2000}],"obsTime":1781136000},"SBLS":{"icaoId":"SBLS","flightCategory":"VFR","rawOb":"METAR SBLS 110000Z 16004KT CAVOK 19/13 Q1019","temp":19,"dewp":13,"wdir":160,"wspd":4,"visib":"6+","altim":1019,"clouds":[],"obsTime":1781136000},"SBMT":{"icaoId":"SBMT","flightCategory":"MVFR","rawOb":"METAR SBMT 110000Z COR 00000KT 7000 -RA SCT015 OVC100 16/16 Q1020","temp":16,"dewp":16,"wdir":0,"wspd":0,"visib":4.35,"altim":1020,"clouds":[{"cover":"SCT","base":1500},{"cover":"OVC","base":10000}],"obsTime":1781136000},"SBTA":{"icaoId":"SBTA","flightCategory":"VFR","rawOb":"METAR SBTA 110000Z 26003KT 170V340 9999 FEW040 BKN080 BKN100 19/15 Q1018","temp":19,"dewp":15,"wdir":260,"wspd":3,"visib":"6+","altim":1018,"clouds":[{"cover":"FEW","base":4000},{"cover":"BKN","base":8000},{"cover":"BKN","base":10000}],"obsTime":1781136000},"SBJV":{"icaoId":"SBJV","flightCategory":"IFR","rawOb":"METAR SBJV 110000Z 34005KT 4000 -RA BKN010 BKN050 17/17 Q1016 RERA","temp":17,"dewp":17,"wdir":340,"wspd":5,"visib":2.49,"altim":1016,"clouds":[{"cover":"BKN","base":1000},{"cover":"BKN","base":5000}],"obsTime":1781136000},"SBLE":{"icaoId":"SBLE","flightCategory":"VFR","rawOb":"METAR SBLE 110000Z AUTO 35001KT CAVOK ///// Q////","temp":null,"dewp":null,"wdir":350,"wspd":1,"visib":"6+","altim":null,"clouds":[],"obsTime":1781136000},"SBNM":{"icaoId":"SBNM","flightCategory":"MVFR","rawOb":"METAR SBNM 110000Z 14002KT 9999 FEW010 BKN020 17/16 Q1014","temp":17,"dewp":16,"wdir":140,"wspd":2,"visib":"6+","altim":1014,"clouds":[{"cover":"FEW","base":1000},{"cover":"BKN","base":2000}],"obsTime":1781136000},"SBAN":{"icaoId":"SBAN","flightCategory":"VFR","rawOb":"METAR SBAN 110000Z 33002KT 9999 FEW045 BKN100 20/15 Q1021","temp":20,"dewp":15,"wdir":330,"wspd":2,"visib":"6+","altim":1021,"clouds":[{"cover":"FEW","base":4500},{"cover":"BKN","base":10000}],"obsTime":1781136000},"SBJR":{"icaoId":"SBJR","flightCategory":"VFR","rawOb":"METAR SBJR 110000Z 05002KT 9000 SCT016 20/19 Q1017","temp":20,"dewp":19,"wdir":50,"wspd":2,"visib":5.59,"altim":1017,"clouds":[{"cover":"SCT","base":1600}],"obsTime":1781136000}}}