{"updated":1784933310,"count":83,"data":{"SBIL":{"icaoId":"SBIL","flightCategory":"VFR","rawOb":"METAR SBIL 242100Z 10009KT 9999 SCT025 26/21 Q1017","temp":26,"dewp":21,"wdir":100,"wspd":9,"visib":"6+","altim":1017,"clouds":[{"cover":"SCT","base":2500}],"obsTime":1784926800},"SBNT":{"icaoId":"SBNT","flightCategory":"MVFR","rawOb":"METAR SBNT 242100Z 13008KT 9999 FEW011 BKN025 BKN050 24/22 Q1015","temp":24,"dewp":22,"wdir":130,"wspd":8,"visib":"6+","altim":1015,"clouds":[{"cover":"FEW","base":1100},{"cover":"BKN","base":2500},{"cover":"BKN","base":5000}],"obsTime":1784926800},"SBJU":{"icaoId":"SBJU","flightCategory":"MVFR","rawOb":"METAR SBJU 242100Z 02003KT 9999 BKN020 29/17 Q1015","temp":29,"dewp":17,"wdir":20,"wspd":3,"visib":"6+","altim":1015,"clouds":[{"cover":"BKN","base":2000}],"obsTime":1784926800},"SBMG":{"icaoId":"SBMG","flightCategory":"VFR","rawOb":"METAR SBMG 242100Z 05007KT 9999 FEW015 BKN040 BKN050 18/15 Q1017","temp":18,"dewp":15,"wdir":50,"wspd":7,"visib":"6+","altim":1017,"clouds":[{"cover":"FEW","base":1500},{"cover":"BKN","base":4000},{"cover":"BKN","base":5000}],"obsTime":1784926800},"SBME":{"icaoId":"SBME","flightCategory":"MVFR","rawOb":"METAR SBME 242100Z 27003KT 9999 BKN020 OVC080 21/19 Q1018","temp":21,"dewp":19,"wdir":270,"wspd":3,"visib":"6+","altim":1018,"clouds":[{"cover":"BKN","base":2000},{"cover":"OVC","base":8000}],"obsTime":1784926800},"SBMK":{"icaoId":"SBMK","flightCategory":"VFR","rawOb":"METAR SBMK 242100Z 06007KT 9999 FEW045 28/12 Q1017","temp":28,"dewp":12,"wdir":60,"wspd":7,"visib":"6+","altim":1017,"clouds":[{"cover":"FEW","base":4500}],"obsTime":1784926800},"SBSP":{"icaoId":"SBSP","flightCategory":"IFR","rawOb":"METAR SBSP 242100Z 15006KT 8000 OVC008 15/14 Q1022","temp":15,"dewp":14,"wdir":150,"wspd":6,"visib":4.97,"altim":1022,"clouds":[{"cover":"OVC","base":800}],"obsTime":1784926800},"SBUL":{"icaoId":"SBUL","flightCategory":"IFR","rawOb":"METAR SBUL 242100Z 18010G33KT 2000 BLDU SCT030 SCT040TCU 19/14 Q1021 RETS","temp":19,"dewp":14,"wdir":180,"wspd":10,"visib":1.24,"altim":1021,"clouds":[{"cover":"SCT","base":3000},{"cover":"SCT","base":4000}],"obsTime":1784926800},"SBUR":{"icaoId":"SBUR","flightCategory":"VFR","rawOb":"METAR SBUR 242100Z 13018KT 9000 2000N SCT015 FEW030TCU BKN070 17/13 Q1021 RETS","temp":17,"dewp":13,"wdir":130,"wspd":18,"visib":5.59,"altim":1021,"clouds":[{"cover":"SCT","base":1500},{"cover":"FEW","base":3000},{"cover":"BKN","base":7000}],"obsTime":1784926800},"SBMO":{"icaoId":"SBMO","flightCategory":"VFR","rawOb":"METAR SBMO 242100Z 12006KT 9999 FEW025 SCT100 25/20 Q1016","temp":25,"dewp":20,"wdir":120,"wspd":6,"visib":"6+","altim":1016,"clouds":[{"cover":"FEW","base":2500},{"cover":"SCT","base":10000}],"obsTime":1784926800},"SBFZ":{"icaoId":"SBFZ","flightCategory":"VFR","rawOb":"METAR SBFZ 242100Z 10009KT CAVOK 26/24 Q1013","temp":26,"dewp":24,"wdir":100,"wspd":9,"visib":"6+","altim":1013,"clouds":[],"obsTime":1784926800},"SBKP":{"icaoId":"SBKP","flightCategory":"MVFR","rawOb":"METAR SBKP 242100Z 36004KT 310V060 8000 SCT021 SCT100 17/16 Q1020","temp":17,"dewp":16,"wdir":360,"wspd":4,"visib":4.97,"altim":1020,"clouds":[{"cover":"SCT","base":2100},{"cover":"SCT","base":10000}],"obsTime":1784926800},"SBRB":{"icaoId":"SBRB","flightCategory":"VFR","rawOb":"METAR SBRB 242100Z 34003KT 9999 FEW040 33/21 Q1011","temp":33,"dewp":21,"wdir":340,"wspd":3,"visib":"6+","altim":1011,"clouds":[{"cover":"FEW","base":4000}],"obsTime":1784926800},"SBSL":{"icaoId":"SBSL","flightCategory":"VFR","rawOb":"METAR SBSL 242100Z 06012KT 9999 FEW027 28/23 Q1012","temp":28,"dewp":23,"wdir":60,"wspd":12,"visib":"6+","altim":1012,"clouds":[{"cover":"FEW","base":2700}],"obsTime":1784926800},"SBCT":{"icaoId":"SBCT","flightCategory":"IFR","rawOb":"METAR SBCT 242100Z 11002KT 9999 OVC009 13/12 Q1022","temp":13,"dewp":12,"wdir":110,"wspd":2,"visib":"6+","altim":1022,"clouds":[{"cover":"OVC","base":900}],"obsTime":1784926800},"SBPV":{"icaoId":"SBPV","flightCategory":"VFR","rawOb":"METAR SBPV 242100Z 36006KT 330V040 9999 SCT045 FEW048TCU 34/20 Q1010","temp":34,"dewp":20,"wdir":360,"wspd":6,"visib":"6+","altim":1010,"clouds":[{"cover":"SCT","base":4500},{"cover":"FEW","base":4800}],"obsTime":1784926800},"SBBE":{"icaoId":"SBBE","flightCategory":"VFR","rawOb":"METAR SBBE 242100Z 04006KT 9999 FEW049 SCT100 26/24 Q1012","temp":26,"dewp":24,"wdir":40,"wspd":6,"visib":"6+","altim":1012,"clouds":[{"cover":"FEW","base":4900},{"cover":"SCT","base":10000}],"obsTime":1784926800},"SBCP":{"icaoId":"SBCP","flightCategory":"VFR","rawOb":"METAR SBCP 242100Z 19008KT 9999 SCT025 BKN090 23/19 Q1019","temp":23,"dewp":19,"wdir":190,"wspd":8,"visib":"6+","altim":1019,"clouds":[{"cover":"SCT","base":2500},{"cover":"BKN","base":9000}],"obsTime":1784926800},"SBSG":{"icaoId":"SBSG","flightCategory":"VFR","rawOb":"METAR SBSG 242100Z 15003KT 100V200 9999 SCT015 BKN040 24/23 Q1015","temp":24,"dewp":23,"wdir":150,"wspd":3,"visib":"6+","altim":1015,"clouds":[{"cover":"SCT","base":1500},{"cover":"BKN","base":4000}],"obsTime":1784926800},"SBEG":{"icaoId":"SBEG","flightCategory":"VFR","rawOb":"METAR SBEG 242100Z 13006KT 9999 SCT030 33/23 Q1010","temp":33,"dewp":23,"wdir":130,"wspd":6,"visib":"6+","altim":1010,"clouds":[{"cover":"SCT","base":3000}],"obsTime":1784926800},"SBBR":{"icaoId":"SBBR","flightCategory":"VFR","rawOb":"METAR SBBR 242100Z 10006KT CAVOK 27/10 Q1019","temp":27,"dewp":10,"wdir":100,"wspd":6,"visib":"6+","altim":1019,"clouds":[],"obsTime":1784926800},"SBCF":{"icaoId":"SBCF","flightCategory":"VFR","rawOb":"METAR SBCF 242100Z 11004KT 9999 FEW045 SCT100 26/14 Q1019","temp":26,"dewp":14,"wdir":110,"wspd":4,"visib":"6+","altim":1019,"clouds":[{"cover":"FEW","base":4500},{"cover":"SCT","base":10000}],"obsTime":1784926800},"SBPJ":{"icaoId":"SBPJ","flightCategory":"VFR","rawOb":"METAR SBPJ 242100Z 12003KT 9999 FEW035 BKN100 33/18 Q1012","temp":33,"dewp":18,"wdir":120,"wspd":3,"visib":"6+","altim":1012,"clouds":[{"cover":"FEW","base":3500},{"cover":"BKN","base":10000}],"obsTime":1784926800},"SBGL":{"icaoId":"SBGL","flightCategory":"VFR","rawOb":"METAR SBGL 242100Z 02004KT 9000 -RA FEW020 SCT030 OVC050 21/19 Q1019","temp":21,"dewp":19,"wdir":20,"wspd":4,"visib":5.59,"altim":1019,"clouds":[{"cover":"FEW","base":2000},{"cover":"SCT","base":3000},{"cover":"OVC","base":5000}],"obsTime":1784926800},"SBCG":{"icaoId":"SBCG","flightCategory":"VFR","rawOb":"METAR SBCG 242100Z 31004KT 9999 FEW045 SCT100 27/18 Q1015","temp":27,"dewp":18,"wdir":310,"wspd":4,"visib":"6+","altim":1015,"clouds":[{"cover":"FEW","base":4500},{"cover":"SCT","base":10000}],"obsTime":1784926800},"SBMA":{"icaoId":"SBMA","flightCategory":"VFR","rawOb":"METAR SBMA 242100Z 01005KT 9999 FEW025 32/22 Q1011","temp":32,"dewp":22,"wdir":10,"wspd":5,"visib":"6+","altim":1011,"clouds":[{"cover":"FEW","base":2500}],"obsTime":1784926800},"SBFI":{"icaoId":"SBFI","flightCategory":"MVFR","rawOb":"METAR SBFI 242100Z 10005KT 9999 SCT005 BKN020 BKN035 19/19 Q1015","temp":19,"dewp":19,"wdir":100,"wspd":5,"visib":"6+","altim":1015,"clouds":[{"cover":"SCT","base":500},{"cover":"BKN","base":2000},{"cover":"BKN","base":3500}],"obsTime":1784926800},"SBVT":{"icaoId":"SBVT","flightCategory":"MVFR","rawOb":"METAR SBVT 242100Z 18005KT 9999 SCT013 BKN016 OVC045 23/20 Q1018","temp":23,"dewp":20,"wdir":180,"wspd":5,"visib":"6+","altim":1018,"clouds":[{"cover":"SCT","base":1300},{"cover":"BKN","base":1600},{"cover":"OVC","base":4500}],"obsTime":1784926800},"SBRF":{"icaoId":"SBRF","flightCategory":"VFR","rawOb":"METAR SBRF 242100Z 17008KT 9999 FEW025 SCT100 26/21 Q1015","temp":26,"dewp":21,"wdir":170,"wspd":8,"visib":"6+","altim":1015,"clouds":[{"cover":"FEW","base":2500},{"cover":"SCT","base":10000}],"obsTime":1784926800},"SBBV":{"icaoId":"SBBV","flightCategory":"VFR","rawOb":"METAR SBBV 242100Z COR 17008KT 9999 -RA BKN040 FEW041TCU SCT100 31/22 Q1010","temp":31,"dewp":22,"wdir":170,"wspd":8,"visib":"6+","altim":1010,"clouds":[{"cover":"BKN","base":4000},{"cover":"FEW","base":4100},{"cover":"SCT","base":10000}],"obsTime":1784926800},"SBFL":{"icaoId":"SBFL","flightCategory":"VFR","rawOb":"METAR SBFL 242100Z 10008KT CAVOK 17/15 Q1020","temp":17,"dewp":15,"wdir":100,"wspd":8,"visib":"6+","altim":1020,"clouds":[],"obsTime":1784926800},"SBSN":{"icaoId":"SBSN","flightCategory":"VFR","rawOb":"METAR SBSN 242100Z 10011KT 9999 FEW023 32/23 Q1010","temp":32,"dewp":23,"wdir":100,"wspd":11,"visib":"6+","altim":1010,"clouds":[{"cover":"FEW","base":2300}],"obsTime":1784926800},"SBGR":{"icaoId":"SBGR","flightCategory":"MVFR","rawOb":"METAR SBGR 242100Z 16002KT 6000 BKN011 OVC013 16/14 Q1021","temp":16,"dewp":14,"wdir":160,"wspd":2,"visib":3.73,"altim":1021,"clouds":[{"cover":"BKN","base":1100},{"cover":"OVC","base":1300}],"obsTime":1784926800},"SBTE":{"icaoId":"SBTE","flightCategory":"VFR","rawOb":"METAR SBTE 242100Z VRB02KT 9999 SCT025 FEW030TCU 33/22 Q1011","temp":33,"dewp":22,"wdir":"VRB","wspd":2,"visib":"6+","altim":1011,"clouds":[{"cover":"SCT","base":2500},{"cover":"FEW","base":3000}],"obsTime":1784926800},"SBPA":{"icaoId":"SBPA","flightCategory":"VFR","rawOb":"METAR SBPA 242100Z 11007KT 9999 BKN045 19/15 Q1017","temp":19,"dewp":15,"wdir":110,"wspd":7,"visib":"6+","altim":1017,"clouds":[{"cover":"BKN","base":4500}],"obsTime":1784926800},"SBCZ":{"icaoId":"SBCZ","flightCategory":"VFR","rawOb":"METAR SBCZ 242100Z 28003KT 9999 FEW030 FEW030TCU SCT100 29/23 Q1011","temp":29,"dewp":23,"wdir":280,"wspd":3,"visib":"6+","altim":1011,"clouds":[{"cover":"FEW","base":3000},{"cover":"FEW","base":3000},{"cover":"SCT","base":10000}],"obsTime":1784926800},"SBSV":{"icaoId":"SBSV","flightCategory":"VFR","rawOb":"METAR SBSV 242100Z 11007KT 090V170 9999 FEW024 SCT060 26/20 Q1017","temp":26,"dewp":20,"wdir":110,"wspd":7,"visib":"6+","altim":1017,"clouds":[{"cover":"FEW","base":2400},{"cover":"SCT","base":6000}],"obsTime":1784926800},"SBGO":{"icaoId":"SBGO","flightCategory":"VFR","rawOb":"METAR SBGO 242100Z 34004KT CAVOK 31/12 Q1017","temp":31,"dewp":12,"wdir":340,"wspd":4,"visib":"6+","altim":1017,"clouds":[],"obsTime":1784926800},"SBLO":{"icaoId":"SBLO","flightCategory":"IFR","rawOb":"METAR SBLO 242100Z 09006KT 9999 BKN005 OVC040 15/14 Q1019","temp":15,"dewp":14,"wdir":90,"wspd":6,"visib":"6+","altim":1019,"clouds":[{"cover":"BKN","base":500},{"cover":"OVC","base":4000}],"obsTime":1784926800},"SBMQ":{"icaoId":"SBMQ","flightCategory":"VFR","rawOb":"METAR SBMQ 242100Z 05012KT 9999 FEW030 FEW035TCU SCT080 30/25 Q1011","temp":30,"dewp":25,"wdir":50,"wspd":12,"visib":"6+","altim":1011,"clouds":[{"cover":"FEW","base":3000},{"cover":"FEW","base":3500},{"cover":"SCT","base":8000}],"obsTime":1784926800},"SBCR":{"icaoId":"SBCR","flightCategory":"VFR","rawOb":"METAR SBCR 242100Z 07007KT 9999 FEW035 30/21 Q1011","temp":30,"dewp":21,"wdir":70,"wspd":7,"visib":"6+","altim":1011,"clouds":[{"cover":"FEW","base":3500}],"obsTime":1784926800},"SBCB":{"icaoId":"SBCB","flightCategory":"MVFR","rawOb":"METAR SBCB 242100Z 27007KT 8000 SCT015 BKN020 21/19 Q1019","temp":21,"dewp":19,"wdir":270,"wspd":7,"visib":4.97,"altim":1019,"clouds":[{"cover":"SCT","base":1500},{"cover":"BKN","base":2000}],"obsTime":1784926800},"SBAT":{"icaoId":"SBAT","flightCategory":"VFR","rawOb":"METAR SBAT 242100Z 03005KT 9999 FEW040 33/18 Q1011","temp":33,"dewp":18,"wdir":30,"wspd":5,"visib":"6+","altim":1011,"clouds":[{"cover":"FEW","base":4000}],"obsTime":1784926800},"SBHT":{"icaoId":"SBHT","flightCategory":"VFR","rawOb":"METAR SBHT 242100Z 00000KT 9999 FEW030 30/25 Q1011","temp":30,"dewp":25,"wdir":0,"wspd":0,"visib":"6+","altim":1011,"clouds":[{"cover":"FEW","base":3000}],"obsTime":1784926800},"SBTF":{"icaoId":"SBTF","flightCategory":"VFR","rawOb":"METAR SBTF 242100Z 12003KT 9999 FEW020 33/24 Q1009","temp":33,"dewp":24,"wdir":120,"wspd":3,"visib":"6+","altim":1009,"clouds":[{"cover":"FEW","base":2000}],"obsTime":1784926800},"SBES":{"icaoId":"SBES","flightCategory":"VFR","rawOb":"METAR SBES 242100Z VRB02KT 9999 FEW010 SCT020 BKN100 20/// Q1019","temp":null,"dewp":null,"wdir":"VRB","wspd":2,"visib":"6+","altim":1019,"clouds":[{"cover":"FEW","base":1000},{"cover":"SCT","base":2000},{"cover":"BKN","base":10000}],"obsTime":1784926800},"SBTT":{"icaoId":"SBTT","flightCategory":"VFR","rawOb":"METAR SBTT 242100Z 23003KT 190V270 9999 TS VCSH SCT025 FEW030CB SCT070 27/24 Q1011","temp":27,"dewp":24,"wdir":230,"wspd":3,"visib":"6+","altim":1011,"clouds":[{"cover":"SCT","base":2500},{"cover":"FEW","base":3000},{"cover":"SCT","base":7000}],"obsTime":1784926800},"SBAR":{"icaoId":"SBAR","flightCategory":"VFR","rawOb":"METAR SBAR 242100Z 12006KT 9999 FEW030 BKN090 26/20 Q1016","temp":26,"dewp":20,"wdir":120,"wspd":6,"visib":"6+","altim":1016,"clouds":[{"cover":"FEW","base":3000},{"cover":"BKN","base":9000}],"obsTime":1784926800},"SBUY":{"icaoId":"SBUY","flightCategory":"VFR","rawOb":"METAR SBUY 242100Z 12005KT 9999 SCT025 SCT100 32/24 Q1008","temp":32,"dewp":24,"wdir":120,"wspd":5,"visib":"6+","altim":1008,"clouds":[{"cover":"SCT","base":2500},{"cover":"SCT","base":10000}],"obsTime":1784926800},"SBCA":{"icaoId":"SBCA","flightCategory":"IFR","rawOb":"METAR SBCA 242100Z 03015KT 7000 -RA SCT005 BKN007 FEW040TCU OVC100 17/15 Q1017","temp":17,"dewp":15,"wdir":30,"wspd":15,"visib":4.35,"altim":1017,"clouds":[{"cover":"SCT","base":500},{"cover":"BKN","base":700},{"cover":"FEW","base":4000},{"cover":"OVC","base":10000}],"obsTime":1784926800},"SBAX":{"icaoId":"SBAX","flightCategory":"VFR","rawOb":"METAR SBAX 242100Z AUTO 18015G25KT 9999 -RA FEW045 ///// Q1023","temp":null,"dewp":null,"wdir":180,"wspd":15,"visib":"6+","altim":1023,"clouds":[{"cover":"FEW","base":4500}],"obsTime":1784926800},"SBTU":{"icaoId":"SBTU","flightCategory":"VFR","rawOb":"METAR SBTU 242100Z AUTO VRB02KT 9999 // NCD ///// Q1014","temp":null,"dewp":null,"wdir":"VRB","wspd":2,"visib":"6+","altim":1014,"clouds":[],"obsTime":1784926800},"SBSM":{"icaoId":"SBSM","flightCategory":"MVFR","rawOb":"METAR SBSM 242100Z VRB01KT 9999 BKN020 SCT100 17/15 Q1018","temp":17,"dewp":15,"wdir":"VRB","wspd":1,"visib":"6+","altim":1018,"clouds":[{"cover":"BKN","base":2000},{"cover":"SCT","base":10000}],"obsTime":1784926800},"SBKG":{"icaoId":"SBKG","flightCategory":"VFR","rawOb":"METAR SBKG 242100Z 10007KT 9999 SCT020 BKN070 23/19 Q1017","temp":23,"dewp":19,"wdir":100,"wspd":7,"visib":"6+","altim":1017,"clouds":[{"cover":"SCT","base":2000},{"cover":"BKN","base":7000}],"obsTime":1784926800},"SBVH":{"icaoId":"SBVH","flightCategory":"VFR","rawOb":"METAR SBVH 242100Z 19010KT CAVOK 28/20 Q1015","temp":28,"dewp":20,"wdir":190,"wspd":10,"visib":"6+","altim":1015,"clouds":[],"obsTime":1784926800},"SBCO":{"icaoId":"SBCO","flightCategory":"VFR","rawOb":"METAR SBCO 242100Z 12006KT 9999 BKN046 18/15 Q1017","temp":18,"dewp":15,"wdir":120,"wspd":6,"visib":"6+","altim":1017,"clouds":[{"cover":"BKN","base":4600}],"obsTime":1784926800},"SBPL":{"icaoId":"SBPL","flightCategory":"VFR","rawOb":"METAR SBPL 242100Z 10004KT 9999 FEW030 BKN070 30/16 Q1015","temp":30,"dewp":16,"wdir":100,"wspd":4,"visib":"6+","altim":1015,"clouds":[{"cover":"FEW","base":3000},{"cover":"BKN","base":7000}],"obsTime":1784926800},"SBOI":{"icaoId":"SBOI","flightCategory":"VFR","rawOb":"METAR SBOI 242100Z AUTO 10005KT 050V150 9999 FEW038 30/23 Q1012","temp":30,"dewp":23,"wdir":100,"wspd":5,"visib":"6+","altim":1012,"clouds":[{"cover":"FEW","base":3800}],"obsTime":1784926800},"SBSJ":{"icaoId":"SBSJ","flightCategory":"MVFR","rawOb":"METAR SBSJ 242100Z 21003KT 5000 BR SCT020 OVC040 16/16 Q1021","temp":16,"dewp":16,"wdir":210,"wspd":3,"visib":3.11,"altim":1021,"clouds":[{"cover":"SCT","base":2000},{"cover":"OVC","base":4000}],"obsTime":1784926800},"SBPS":{"icaoId":"SBPS","flightCategory":"VFR","rawOb":"METAR SBPS 242100Z 06003KT CAVOK 23/21 Q1017","temp":23,"dewp":21,"wdir":60,"wspd":3,"visib":"6+","altim":1017,"clouds":[],"obsTime":1784926800},"SBSR":{"icaoId":"SBSR","flightCategory":"VFR","rawOb":" SBSR 242100Z 13009KT 9999 TS FEW010 FEW040CB BKN080 18/16 Q1019","temp":18,"dewp":16,"wdir":130,"wspd":9,"visib":"6+","altim":1019,"clouds":[{"cover":"FEW","base":1000},{"cover":"FEW","base":4000},{"cover":"BKN","base":8000}],"obsTime":1784926800},"SBSC":{"icaoId":"SBSC","flightCategory":"MVFR","rawOb":"METAR SBSC 242100Z 22003KT 8000 -DZ SCT025 OVC040 20/18 Q1020","temp":20,"dewp":18,"wdir":220,"wspd":3,"visib":4.97,"altim":1020,"clouds":[{"cover":"SCT","base":2500},{"cover":"OVC","base":4000}],"obsTime":1784926800},"SBIP":{"icaoId":"SBIP","flightCategory":"VFR","rawOb":"METAR SBIP 242100Z AUTO VRB02KT CAVOK 23/18 Q1016","temp":23,"dewp":18,"wdir":"VRB","wspd":2,"visib":"6+","altim":1016,"clouds":[],"obsTime":1784926800},"SBDN":{"icaoId":"SBDN","flightCategory":"VFR","rawOb":"METAR SBDN 242100Z COR 12008KT 9999 SCT020 BKN049 18/15 Q1018","temp":18,"dewp":15,"wdir":120,"wspd":8,"visib":"6+","altim":1018,"clouds":[{"cover":"SCT","base":2000},{"cover":"BKN","base":4900}],"obsTime":1784926800},"SBBU":{"icaoId":"SBBU","flightCategory":"LIFR","rawOb":"METAR SBBU 242100Z 17008KT 3000 TSRA BR BKN003 FEW025CB 16/16 Q1021","temp":16,"dewp":16,"wdir":170,"wspd":8,"visib":1.86,"altim":1021,"clouds":[{"cover":"BKN","base":300},{"cover":"FEW","base":2500}],"obsTime":1784926800},"SBBH":{"icaoId":"SBBH","flightCategory":"VFR","rawOb":"METAR SBBH 242100Z 15002KT 9999 FEW045 BKN080 26/14 Q1018","temp":26,"dewp":14,"wdir":150,"wspd":2,"visib":"6+","altim":1018,"clouds":[{"cover":"FEW","base":4500},{"cover":"BKN","base":8000}],"obsTime":1784926800},"SBPB":{"icaoId":"SBPB","flightCategory":"VFR","rawOb":"METAR SBPB 242100Z 07011KT 9999 SCT020 28/24 Q1012","temp":28,"dewp":24,"wdir":70,"wspd":11,"visib":"6+","altim":1012,"clouds":[{"cover":"SCT","base":2000}],"obsTime":1784926800},"SBCJ":{"icaoId":"SBCJ","flightCategory":"VFR","rawOb":"METAR SBCJ 242100Z 00000KT 9999 SCT025 FEW030TCU SCT070 23/21 Q1015","temp":23,"dewp":21,"wdir":0,"wspd":0,"visib":"6+","altim":1015,"clouds":[{"cover":"SCT","base":2500},{"cover":"FEW","base":3000},{"cover":"SCT","base":7000}],"obsTime":1784926800},"SBPP":{"icaoId":"SBPP","flightCategory":"VFR","rawOb":"METAR SBPP 242100Z 33003KT 9999 SCT025 24/19 Q1016","temp":24,"dewp":19,"wdir":330,"wspd":3,"visib":"6+","altim":1016,"clouds":[{"cover":"SCT","base":2500}],"obsTime":1784926800},"SBJP":{"icaoId":"SBJP","flightCategory":"VFR","rawOb":"METAR SBJP 242100Z 14008KT CAVOK 25/22 Q1015","temp":25,"dewp":22,"wdir":140,"wspd":8,"visib":"6+","altim":1015,"clouds":[],"obsTime":1784926800},"SBLE":{"icaoId":"SBLE","flightCategory":"VFR","rawOb":"METAR SBLE 242100Z AUTO 07002KT CAVOK 22/19 Q1017","temp":22,"dewp":19,"wdir":70,"wspd":2,"visib":"6+","altim":1017,"clouds":[],"obsTime":1784926800},"SBJV":{"icaoId":"SBJV","flightCategory":"MVFR","rawOb":"METAR SBJV 242100Z 14003KT 9999 BKN025 OVC080 18/16 Q1020","temp":18,"dewp":16,"wdir":140,"wspd":3,"visib":"6+","altim":1020,"clouds":[{"cover":"BKN","base":2500},{"cover":"OVC","base":8000}],"obsTime":1784926800},"SBNM":{"icaoId":"SBNM","flightCategory":"VFR","rawOb":"METAR SBNM 242100Z AUTO 18004KT 9999 OVC034 18/16 Q1017","temp":18,"dewp":16,"wdir":180,"wspd":4,"visib":"6+","altim":1017,"clouds":[{"cover":"OVC","base":3400}],"obsTime":1784926800},"SBPF":{"icaoId":"SBPF","flightCategory":"VFR","rawOb":"METAR SBPF 242100Z 06007KT 9999 -TSRA FEW030 FEW045CB BKN070 16/15 Q1018","temp":16,"dewp":15,"wdir":60,"wspd":7,"visib":"6+","altim":1018,"clouds":[{"cover":"FEW","base":3000},{"cover":"FEW","base":4500},{"cover":"BKN","base":7000}],"obsTime":1784926800},"SBAN":{"icaoId":"SBAN","flightCategory":"VFR","rawOb":"METAR SBAN 242100Z 30001KT CAVOK 26/11 Q1020","temp":26,"dewp":11,"wdir":300,"wspd":1,"visib":"6+","altim":1020,"clouds":[],"obsTime":1784926800},"SBAF":{"icaoId":"SBAF","flightCategory":"MVFR","rawOb":" SBAF 242100Z 29003KT 7000 -RA FEW010 BKN030 OVC040 20/20 Q1020","temp":20,"dewp":20,"wdir":290,"wspd":3,"visib":4.35,"altim":1020,"clouds":[{"cover":"FEW","base":1000},{"cover":"BKN","base":3000},{"cover":"OVC","base":4000}],"obsTime":1784926800},"SBGW":{"icaoId":"SBGW","flightCategory":"IFR","rawOb":"METAR SBGW 242100Z 04003KT 4000 -RA BR BKN019 OVC035 18/16 Q1020","temp":18,"dewp":16,"wdir":40,"wspd":3,"visib":2.49,"altim":1020,"clouds":[{"cover":"BKN","base":1900},{"cover":"OVC","base":3500}],"obsTime":1784926800},"SBJR":{"icaoId":"SBJR","flightCategory":"VFR","rawOb":"METAR SBJR 242100Z 28003KT 9999 FEW015 SCT020 OVC040 20/19 Q1019","temp":20,"dewp":19,"wdir":280,"wspd":3,"visib":"6+","altim":1019,"clouds":[{"cover":"FEW","base":1500},{"cover":"SCT","base":2000},{"cover":"OVC","base":4000}],"obsTime":1784926800},"SBLS":{"icaoId":"SBLS","flightCategory":"VFR","rawOb":"METAR SBLS 242100Z 15004KT 9999 SCT045 SCT080 25/14 Q1018","temp":25,"dewp":14,"wdir":150,"wspd":4,"visib":"6+","altim":1018,"clouds":[{"cover":"SCT","base":4500},{"cover":"SCT","base":8000}],"obsTime":1784926800},"SBMT":{"icaoId":"SBMT","flightCategory":"IFR","rawOb":"METAR SBMT 242100Z 14004KT 2000 BR BKN010 OVC015 16/14 Q1021","temp":16,"dewp":14,"wdir":140,"wspd":4,"visib":1.24,"altim":1021,"clouds":[{"cover":"BKN","base":1000},{"cover":"OVC","base":1500}],"obsTime":1784926800},"SBTA":{"icaoId":"SBTA","flightCategory":"MVFR","rawOb":"METAR SBTA 242100Z VRB02KT 6000 FEW015 SCT040 OVC100 17/16 Q1020","temp":17,"dewp":16,"wdir":"VRB","wspd":2,"visib":3.73,"altim":1020,"clouds":[{"cover":"FEW","base":1500},{"cover":"SCT","base":4000},{"cover":"OVC","base":10000}],"obsTime":1784926800},"SBIH":{"icaoId":"SBIH","flightCategory":"VFR","rawOb":"METAR SBIH 242100Z 05006KT 9999 FEW018 FEW025TCU SCT100 33/24 Q1010","temp":33,"dewp":24,"wdir":50,"wspd":6,"visib":"6+","altim":1010,"clouds":[{"cover":"FEW","base":1800},{"cover":"FEW","base":2500},{"cover":"SCT","base":10000}],"obsTime":1784926800},"SBST":{"icaoId":"SBST","flightCategory":"LIFR","rawOb":"METAR SBST 242100Z 35005KT 1500 -DZ BR BKN005 OVC030 17/17 Q1020","temp":17,"dewp":17,"wdir":350,"wspd":5,"visib":0.93,"altim":1020,"clouds":[{"cover":"BKN","base":500},{"cover":"OVC","base":3000}],"obsTime":1784926800}}}