{"updated":1782590485,"count":86,"data":{"SBPV":{"icaoId":"SBPV","flightCategory":"VFR","rawOb":"METAR SBPV 271900Z 20004KT 9999 SCT018 28/22 Q1013","temp":28,"dewp":22,"wdir":200,"wspd":4,"visib":"6+","altim":1013,"clouds":[{"cover":"SCT","base":1800}],"obsTime":1782586800},"SBRF":{"icaoId":"SBRF","flightCategory":"VFR","rawOb":"METAR SBRF 271900Z 13014KT 9999 SCT022 BKN060 27/22 Q1015","temp":27,"dewp":22,"wdir":130,"wspd":14,"visib":"6+","altim":1015,"clouds":[{"cover":"SCT","base":2200},{"cover":"BKN","base":6000}],"obsTime":1782586800},"SBLO":{"icaoId":"SBLO","flightCategory":"VFR","rawOb":"METAR SBLO 271900Z 15005KT 9999 FEW030 23/19 Q1020","temp":23,"dewp":19,"wdir":150,"wspd":5,"visib":"6+","altim":1020,"clouds":[{"cover":"FEW","base":3000}],"obsTime":1782586800},"SBRB":{"icaoId":"SBRB","flightCategory":"MVFR","rawOb":"METAR SBRB 271900Z 08004KT 030V150 9999 BKN025 26/21 Q1016","temp":26,"dewp":21,"wdir":80,"wspd":4,"visib":"6+","altim":1016,"clouds":[{"cover":"BKN","base":2500}],"obsTime":1782586800},"SBTE":{"icaoId":"SBTE","flightCategory":"MVFR","rawOb":"METAR SBTE 271900Z 09007KT 9999 BKN025 BKN090 32/20 Q1012","temp":32,"dewp":20,"wdir":90,"wspd":7,"visib":"6+","altim":1012,"clouds":[{"cover":"BKN","base":2500},{"cover":"BKN","base":9000}],"obsTime":1782586800},"SBFI":{"icaoId":"SBFI","flightCategory":"MVFR","rawOb":"SPECI SBFI 271810Z 12007KT 7000 TS SCT010 BKN020 FEW035CB 17/17 Q1017 RERA RETS","temp":17,"dewp":17,"wdir":120,"wspd":7,"visib":4.35,"altim":1017,"clouds":[{"cover":"SCT","base":1000},{"cover":"BKN","base":2000},{"cover":"FEW","base":3500}],"obsTime":1782583800},"SBSL":{"icaoId":"SBSL","flightCategory":"MVFR","rawOb":"METAR SBSL 271900Z VRB02KT 9999 VCSH BKN025 FEW030TCU 26/24 Q1012","temp":26,"dewp":24,"wdir":"VRB","wspd":2,"visib":"6+","altim":1012,"clouds":[{"cover":"BKN","base":2500},{"cover":"FEW","base":3000}],"obsTime":1782586800},"SBEG":{"icaoId":"SBEG","flightCategory":"IFR","rawOb":"METAR SBEG 271900Z 07015G25KT 4000 SHRA FEW015 SCT030 FEW035TCU 27/24 Q1012","temp":27,"dewp":24,"wdir":70,"wspd":15,"visib":2.49,"altim":1012,"clouds":[{"cover":"FEW","base":1500},{"cover":"SCT","base":3000},{"cover":"FEW","base":3500}],"obsTime":1782586800},"SBBE":{"icaoId":"SBBE","flightCategory":"VFR","rawOb":"METAR SBBE 271900Z 06010KT 9999 SCT045 32/22 Q1012","temp":32,"dewp":22,"wdir":60,"wspd":10,"visib":"6+","altim":1012,"clouds":[{"cover":"SCT","base":4500}],"obsTime":1782586800},"SBFZ":{"icaoId":"SBFZ","flightCategory":"VFR","rawOb":"METAR SBFZ 271900Z 09009KT 9999 FEW030 30/22 Q1012","temp":30,"dewp":22,"wdir":90,"wspd":9,"visib":"6+","altim":1012,"clouds":[{"cover":"FEW","base":3000}],"obsTime":1782586800},"SBCF":{"icaoId":"SBCF","flightCategory":"VFR","rawOb":"METAR SBCF 271900Z 06008KT 9999 SCT045 25/12 Q1023","temp":25,"dewp":12,"wdir":60,"wspd":8,"visib":"6+","altim":1023,"clouds":[{"cover":"SCT","base":4500}],"obsTime":1782586800},"SBSP":{"icaoId":"SBSP","flightCategory":"VFR","rawOb":"METAR SBSP 271900Z 03004KT 340V100 CAVOK 25/14 Q1024","temp":25,"dewp":14,"wdir":30,"wspd":4,"visib":"6+","altim":1024,"clouds":[],"obsTime":1782586800},"SBBR":{"icaoId":"SBBR","flightCategory":"VFR","rawOb":"METAR SBBR 271900Z 10010KT 060V130 9999 SCT035 25/16 Q1023","temp":25,"dewp":16,"wdir":100,"wspd":10,"visib":"6+","altim":1023,"clouds":[{"cover":"SCT","base":3500}],"obsTime":1782586800},"SBCB":{"icaoId":"SBCB","flightCategory":"VFR","rawOb":"METAR SBCB 271900Z 10009KT 9999 FEW020 25/21 Q1021","temp":25,"dewp":21,"wdir":100,"wspd":9,"visib":"6+","altim":1021,"clouds":[{"cover":"FEW","base":2000}],"obsTime":1782586800},"SBMO":{"icaoId":"SBMO","flightCategory":"MVFR","rawOb":"METAR SBMO 271900Z 07008KT 9999 SCT017 BKN020 25/24 Q1016","temp":25,"dewp":24,"wdir":70,"wspd":8,"visib":"6+","altim":1016,"clouds":[{"cover":"SCT","base":1700},{"cover":"BKN","base":2000}],"obsTime":1782586800},"SBSV":{"icaoId":"SBSV","flightCategory":"VFR","rawOb":"METAR SBSV 271900Z 09012KT 9999 FEW032 28/21 Q1018","temp":28,"dewp":21,"wdir":90,"wspd":12,"visib":"6+","altim":1018,"clouds":[{"cover":"FEW","base":3200}],"obsTime":1782586800},"SBGO":{"icaoId":"SBGO","flightCategory":"VFR","rawOb":"METAR SBGO 271900Z 07005KT 9999 FEW045 30/16 Q1020","temp":30,"dewp":16,"wdir":70,"wspd":5,"visib":"6+","altim":1020,"clouds":[{"cover":"FEW","base":4500}],"obsTime":1782586800},"SBSG":{"icaoId":"SBSG","flightCategory":"MVFR","rawOb":"METAR SBSG 271900Z 12006KT 070V160 9999 -RA BKN011 BKN033 26/24 Q1015","temp":26,"dewp":24,"wdir":120,"wspd":6,"visib":"6+","altim":1015,"clouds":[{"cover":"BKN","base":1100},{"cover":"BKN","base":3300}],"obsTime":1782586800},"SBPJ":{"icaoId":"SBPJ","flightCategory":"VFR","rawOb":"METAR SBPJ 271900Z 11007KT 9999 SCT040 BKN100 31/20 Q1015","temp":31,"dewp":20,"wdir":110,"wspd":7,"visib":"6+","altim":1015,"clouds":[{"cover":"SCT","base":4000},{"cover":"BKN","base":10000}],"obsTime":1782586800},"SBMQ":{"icaoId":"SBMQ","flightCategory":"VFR","rawOb":"METAR SBMQ 271900Z 05008KT 9999 VCSH SCT021 FEW023TCU SCT100 28/25 Q1012","temp":28,"dewp":25,"wdir":50,"wspd":8,"visib":"6+","altim":1012,"clouds":[{"cover":"SCT","base":2100},{"cover":"FEW","base":2300},{"cover":"SCT","base":10000}],"obsTime":1782586800},"SBKP":{"icaoId":"SBKP","flightCategory":"VFR","rawOb":"METAR SBKP 271900Z VRB01KT 9999 FEW035 27/14 Q1022","temp":27,"dewp":14,"wdir":"VRB","wspd":1,"visib":"6+","altim":1022,"clouds":[{"cover":"FEW","base":3500}],"obsTime":1782586800},"SBGL":{"icaoId":"SBGL","flightCategory":"VFR","rawOb":"METAR SBGL 271900Z 11007KT 9000 NSC 25/20 Q1020","temp":25,"dewp":20,"wdir":110,"wspd":7,"visib":5.59,"altim":1020,"clouds":[],"obsTime":1782586800},"SBGR":{"icaoId":"SBGR","flightCategory":"VFR","rawOb":"METAR SBGR 271900Z 11006KT CAVOK 24/18 Q1023","temp":24,"dewp":18,"wdir":110,"wspd":6,"visib":"6+","altim":1023,"clouds":[],"obsTime":1782586800},"SBCR":{"icaoId":"SBCR","flightCategory":"VFR","rawOb":"METAR SBCR 271900Z 03009KT 350V060 CAVOK 31/20 Q1013","temp":31,"dewp":20,"wdir":30,"wspd":9,"visib":"6+","altim":1013,"clouds":[],"obsTime":1782586800},"SBPA":{"icaoId":"SBPA","flightCategory":"VFR","rawOb":"METAR SBPA 271900Z VRB02KT CAVOK 21/10 Q1018","temp":21,"dewp":10,"wdir":"VRB","wspd":2,"visib":"6+","altim":1018,"clouds":[],"obsTime":1782586800},"SBFL":{"icaoId":"SBFL","flightCategory":"VFR","rawOb":"METAR SBFL 271900Z VRB01KT 9999 SCT040 20/15 Q1020","temp":20,"dewp":15,"wdir":"VRB","wspd":1,"visib":"6+","altim":1020,"clouds":[{"cover":"SCT","base":4000}],"obsTime":1782586800},"SBVT":{"icaoId":"SBVT","flightCategory":"VFR","rawOb":"METAR SBVT 271900Z 06008KT CAVOK 25/20 Q1022","temp":25,"dewp":20,"wdir":60,"wspd":8,"visib":"6+","altim":1022,"clouds":[],"obsTime":1782586800},"SBBV":{"icaoId":"SBBV","flightCategory":"VFR","rawOb":"METAR SBBV 271900Z 15003KT 9999 SCT025 FEW030TCU BKN100 32/22 Q1011","temp":32,"dewp":22,"wdir":150,"wspd":3,"visib":"6+","altim":1011,"clouds":[{"cover":"SCT","base":2500},{"cover":"FEW","base":3000},{"cover":"BKN","base":10000}],"obsTime":1782586800},"SBSN":{"icaoId":"SBSN","flightCategory":"VFR","rawOb":"METAR SBSN 271900Z 09009KT 040V100 9999 FEW023 FEW030TCU 31/25 Q1011","temp":31,"dewp":25,"wdir":90,"wspd":9,"visib":"6+","altim":1011,"clouds":[{"cover":"FEW","base":2300},{"cover":"FEW","base":3000}],"obsTime":1782586800},"SBCG":{"icaoId":"SBCG","flightCategory":"VFR","rawOb":"METAR SBCG 271900Z 32009KT CAVOK 28/17 Q1017","temp":28,"dewp":17,"wdir":320,"wspd":9,"visib":"6+","altim":1017,"clouds":[],"obsTime":1782586800},"SBMA":{"icaoId":"SBMA","flightCategory":"VFR","rawOb":"METAR SBMA 271900Z 08004KT 9999 FEW025 FEW027TCU SCT100 32/22 Q1012","temp":32,"dewp":22,"wdir":80,"wspd":4,"visib":"6+","altim":1012,"clouds":[{"cover":"FEW","base":2500},{"cover":"FEW","base":2700},{"cover":"SCT","base":10000}],"obsTime":1782586800},"SBMG":{"icaoId":"SBMG","flightCategory":"VFR","rawOb":"METAR SBMG 271900Z 06007KT 9999 FEW040 SCT100 25/19 Q1018","temp":25,"dewp":19,"wdir":60,"wspd":7,"visib":"6+","altim":1018,"clouds":[{"cover":"FEW","base":4000},{"cover":"SCT","base":10000}],"obsTime":1782586800},"SBIL":{"icaoId":"SBIL","flightCategory":"IFR","rawOb":"METAR SBIL 271900Z 20005KT 2000 RA BKN010 BKN020 BKN040 25/23 Q1020","temp":25,"dewp":23,"wdir":200,"wspd":5,"visib":1.24,"altim":1020,"clouds":[{"cover":"BKN","base":1000},{"cover":"BKN","base":2000},{"cover":"BKN","base":4000}],"obsTime":1782586800},"SBJU":{"icaoId":"SBJU","flightCategory":"MVFR","rawOb":"METAR SBJU 271900Z 10010KT 9999 BKN020 30/20 Q1015","temp":30,"dewp":20,"wdir":100,"wspd":10,"visib":"6+","altim":1015,"clouds":[{"cover":"BKN","base":2000}],"obsTime":1782586800},"SBAT":{"icaoId":"SBAT","flightCategory":"VFR","rawOb":"METAR SBAT 271900Z 08006KT 9999 FEW030 34/17 Q1013","temp":34,"dewp":17,"wdir":80,"wspd":6,"visib":"6+","altim":1013,"clouds":[{"cover":"FEW","base":3000}],"obsTime":1782586800},"SBHT":{"icaoId":"SBHT","flightCategory":"VFR","rawOb":"METAR SBHT 271900Z 11004KT 9999 SCT030 32/24 Q1012","temp":32,"dewp":24,"wdir":110,"wspd":4,"visib":"6+","altim":1012,"clouds":[{"cover":"SCT","base":3000}],"obsTime":1782586800},"SBME":{"icaoId":"SBME","flightCategory":"VFR","rawOb":"METAR SBME 271900Z 08011KT 9999 FEW040 25/21 Q1021","temp":25,"dewp":21,"wdir":80,"wspd":11,"visib":"6+","altim":1021,"clouds":[{"cover":"FEW","base":4000}],"obsTime":1782586800},"SBMK":{"icaoId":"SBMK","flightCategory":"VFR","rawOb":"METAR SBMK 271900Z 07011KT 9999 FEW038 26/14 Q1022","temp":26,"dewp":14,"wdir":70,"wspd":11,"visib":"6+","altim":1022,"clouds":[{"cover":"FEW","base":3800}],"obsTime":1782586800},"SBUL":{"icaoId":"SBUL","flightCategory":"VFR","rawOb":"METAR SBUL 271900Z 07009KT 020V110 9999 FEW049 26/14 Q1023","temp":26,"dewp":14,"wdir":70,"wspd":9,"visib":"6+","altim":1023,"clouds":[{"cover":"FEW","base":4900}],"obsTime":1782586800},"SBUR":{"icaoId":"SBUR","flightCategory":"VFR","rawOb":"METAR SBUR 271900Z 04007KT CAVOK 27/18 Q1021","temp":27,"dewp":18,"wdir":40,"wspd":7,"visib":"6+","altim":1021,"clouds":[],"obsTime":1782586800},"SBCZ":{"icaoId":"SBCZ","flightCategory":"MVFR","rawOb":"METAR SBCZ 271900Z 21004KT 9999 BKN025 26/21 Q1016","temp":26,"dewp":21,"wdir":210,"wspd":4,"visib":"6+","altim":1016,"clouds":[{"cover":"BKN","base":2500}],"obsTime":1782586800},"SBNT":{"icaoId":"SBNT","flightCategory":"MVFR","rawOb":"METAR SBNT 271900Z 13013KT 9000 -RA SCT008 BKN013 BKN100 25/24 Q1014","temp":25,"dewp":24,"wdir":130,"wspd":13,"visib":5.59,"altim":1014,"clouds":[{"cover":"SCT","base":800},{"cover":"BKN","base":1300},{"cover":"BKN","base":10000}],"obsTime":1782586800},"SBCT":{"icaoId":"SBCT","flightCategory":"VFR","rawOb":"METAR SBCT 271900Z 33006KT CAVOK 18/14 Q1024","temp":18,"dewp":14,"wdir":330,"wspd":6,"visib":"6+","altim":1024,"clouds":[],"obsTime":1782586800},"SBCP":{"icaoId":"SBCP","flightCategory":"VFR","rawOb":"METAR SBCP 271900Z 10013KT CAVOK 27/19 Q1021","temp":27,"dewp":19,"wdir":100,"wspd":13,"visib":"6+","altim":1021,"clouds":[],"obsTime":1782586800},"SBCJ":{"icaoId":"SBCJ","flightCategory":"VFR","rawOb":"METAR SBCJ 271900Z 15005KT 9999 FEW030 FEW040TCU BKN100 27/20 Q1017","temp":27,"dewp":20,"wdir":150,"wspd":5,"visib":"6+","altim":1017,"clouds":[{"cover":"FEW","base":3000},{"cover":"FEW","base":4000},{"cover":"BKN","base":10000}],"obsTime":1782586800},"SBPS":{"icaoId":"SBPS","flightCategory":"VFR","rawOb":"METAR SBPS 271900Z 14007KT 9999 SCT025 SCT100 25/20 Q1021","temp":25,"dewp":20,"wdir":140,"wspd":7,"visib":"6+","altim":1021,"clouds":[{"cover":"SCT","base":2500},{"cover":"SCT","base":10000}],"obsTime":1782586800},"SBTF":{"icaoId":"SBTF","flightCategory":"VFR","rawOb":"METAR SBTF 271900Z 24005KT 9999 FEW020 30/25 Q1011","temp":30,"dewp":25,"wdir":240,"wspd":5,"visib":"6+","altim":1011,"clouds":[{"cover":"FEW","base":2000}],"obsTime":1782586800},"SBPB":{"icaoId":"SBPB","flightCategory":"VFR","rawOb":"METAR SBPB 271900Z 06010KT 9999 FEW020 SCT100 30/24 Q1012","temp":30,"dewp":24,"wdir":60,"wspd":10,"visib":"6+","altim":1012,"clouds":[{"cover":"FEW","base":2000},{"cover":"SCT","base":10000}],"obsTime":1782586800},"SBPL":{"icaoId":"SBPL","flightCategory":"MVFR","rawOb":"METAR SBPL 271900Z 13010KT 9999 BKN025 SCT070 29/16 Q1017","temp":29,"dewp":16,"wdir":130,"wspd":10,"visib":"6+","altim":1017,"clouds":[{"cover":"BKN","base":2500},{"cover":"SCT","base":7000}],"obsTime":1782586800},"SBAR":{"icaoId":"SBAR","flightCategory":"MVFR","rawOb":"METAR SBAR 271900Z 18005KT 100V270 9999 VCSH BKN023 BKN030 26/23 Q1017","temp":26,"dewp":23,"wdir":180,"wspd":5,"visib":"6+","altim":1017,"clouds":[{"cover":"BKN","base":2300},{"cover":"BKN","base":3000}],"obsTime":1782586800},"SBOI":{"icaoId":"SBOI","flightCategory":"VFR","rawOb":"METAR SBOI 271900Z AUTO 04010KT 360V070 9999 SCT034 SCT045 31/24 Q1012","temp":31,"dewp":24,"wdir":40,"wspd":10,"visib":"6+","altim":1012,"clouds":[{"cover":"SCT","base":3400},{"cover":"SCT","base":4500}],"obsTime":1782586800},"SBUY":{"icaoId":"SBUY","flightCategory":"VFR","rawOb":"METAR SBUY 271900Z 20003KT 9999 SCT030 31/23 Q1011","temp":31,"dewp":23,"wdir":200,"wspd":3,"visib":"6+","altim":1011,"clouds":[{"cover":"SCT","base":3000}],"obsTime":1782586800},"SBSJ":{"icaoId":"SBSJ","flightCategory":"VFR","rawOb":"METAR SBSJ 271900Z 35003KT CAVOK 22/17 Q1023","temp":22,"dewp":17,"wdir":350,"wspd":3,"visib":"6+","altim":1023,"clouds":[],"obsTime":1782586800},"SBPP":{"icaoId":"SBPP","flightCategory":"VFR","rawOb":"METAR SBPP 271900Z 05010KT CAVOK 25/20 Q1017","temp":25,"dewp":20,"wdir":50,"wspd":10,"visib":"6+","altim":1017,"clouds":[],"obsTime":1782586800},"SBTT":{"icaoId":"SBTT","flightCategory":"MVFR","rawOb":"METAR SBTT 271900Z 19006KT 9999 BKN018 29/23 Q1014","temp":29,"dewp":23,"wdir":190,"wspd":6,"visib":"6+","altim":1014,"clouds":[{"cover":"BKN","base":1800}],"obsTime":1782586800},"SBSM":{"icaoId":"SBSM","flightCategory":"VFR","rawOb":"METAR SBSM 271900Z 11004KT 9999 BKN040 OVC090 17/13 Q1018","temp":17,"dewp":13,"wdir":110,"wspd":4,"visib":"6+","altim":1018,"clouds":[{"cover":"BKN","base":4000},{"cover":"OVC","base":9000}],"obsTime":1782586800},"SBKG":{"icaoId":"SBKG","flightCategory":"IFR","rawOb":"METAR SBKG 271900Z 10010KT 4000 -RA BR SCT004 BKN006 OVC070 21/21 Q1018","temp":21,"dewp":21,"wdir":100,"wspd":10,"visib":2.49,"altim":1018,"clouds":[{"cover":"SCT","base":400},{"cover":"BKN","base":600},{"cover":"OVC","base":7000}],"obsTime":1782586800},"SBCC":{"icaoId":"SBCC","flightCategory":"VFR","rawOb":"METAR SBCC 271900Z 05012KT 010V080 9999 SCT040 32/13 Q1015","temp":32,"dewp":13,"wdir":50,"wspd":12,"visib":"6+","altim":1015,"clouds":[{"cover":"SCT","base":4000}],"obsTime":1782586800},"SBGM":{"icaoId":"SBGM","flightCategory":"MVFR","rawOb":"METAR SBGM 271900Z 16006KT 9999 BKN026 27/20 Q1015","temp":27,"dewp":20,"wdir":160,"wspd":6,"visib":"6+","altim":1015,"clouds":[{"cover":"BKN","base":2600}],"obsTime":1782586800},"SBVH":{"icaoId":"SBVH","flightCategory":"VFR","rawOb":"METAR SBVH 271900Z 09007KT 9999 SCT035 29/19 Q1017","temp":29,"dewp":19,"wdir":90,"wspd":7,"visib":"6+","altim":1017,"clouds":[{"cover":"SCT","base":3500}],"obsTime":1782586800},"SBAX":{"icaoId":"SBAX","flightCategory":"VFR","rawOb":"METAR SBAX 271900Z AUTO 10007KT 060V130 9999 SCT048 24/14 Q1023","temp":24,"dewp":14,"wdir":100,"wspd":7,"visib":"6+","altim":1023,"clouds":[{"cover":"SCT","base":4800}],"obsTime":1782586800},"SBBH":{"icaoId":"SBBH","flightCategory":"VFR","rawOb":"METAR SBBH 271900Z 08008KT 9999 FEW040 25/13 Q1023","temp":25,"dewp":13,"wdir":80,"wspd":8,"visib":"6+","altim":1023,"clouds":[{"cover":"FEW","base":4000}],"obsTime":1782586800},"SBBQ":{"icaoId":"SBBQ","flightCategory":"VFR","rawOb":"METAR SBBQ 271900Z 08007KT 9999 FEW035 21/13 Q1027","temp":21,"dewp":13,"wdir":80,"wspd":7,"visib":"6+","altim":1027,"clouds":[{"cover":"FEW","base":3500}],"obsTime":1782586800},"SBBU":{"icaoId":"SBBU","flightCategory":"VFR","rawOb":"METAR SBBU 271900Z 03006KT 9999 FEW045 27/18 Q1021","temp":27,"dewp":18,"wdir":30,"wspd":6,"visib":"6+","altim":1021,"clouds":[{"cover":"FEW","base":4500}],"obsTime":1782586800},"SBDN":{"icaoId":"SBDN","flightCategory":"VFR","rawOb":"METAR SBDN 271900Z 05006KT CAVOK 28/17 Q1019","temp":28,"dewp":17,"wdir":50,"wspd":6,"visib":"6+","altim":1019,"clouds":[],"obsTime":1782586800},"SBIP":{"icaoId":"SBIP","flightCategory":"VFR","rawOb":"METAR SBIP 271900Z AUTO 01009KT CAVOK 28/17 Q1021","temp":28,"dewp":17,"wdir":10,"wspd":9,"visib":"6+","altim":1021,"clouds":[],"obsTime":1782586800},"SBSC":{"icaoId":"SBSC","flightCategory":"VFR","rawOb":"METAR SBSC 271900Z 21007KT 9999 FEW012 23/20 Q1021","temp":23,"dewp":20,"wdir":210,"wspd":7,"visib":"6+","altim":1021,"clouds":[{"cover":"FEW","base":1200}],"obsTime":1782586800},"SBSR":{"icaoId":"SBSR","flightCategory":"VFR","rawOb":"METAR SBSR 271900Z 05007KT CAVOK 28/13 Q1020","temp":28,"dewp":13,"wdir":50,"wspd":7,"visib":"6+","altim":1020,"clouds":[],"obsTime":1782586800},"SBTU":{"icaoId":"SBTU","flightCategory":"VFR","rawOb":"METAR SBTU 271900Z AUTO 27007KT 220V300 9999 // BKN038/// 31/23 Q1014","temp":31,"dewp":23,"wdir":270,"wspd":7,"visib":"6+","altim":1014,"clouds":[{"cover":"BKN","base":3800}],"obsTime":1782586800},"SBES":{"icaoId":"SBES","flightCategory":"VFR","rawOb":"METAR SBES 271900Z 07011KT 9999 FEW020 24/// Q1021","temp":null,"dewp":null,"wdir":70,"wspd":11,"visib":"6+","altim":1021,"clouds":[{"cover":"FEW","base":2000}],"obsTime":1782586800},"SBCA":{"icaoId":"SBCA","flightCategory":"LIFR","rawOb":"METAR SBCA 271900Z 17008KT 4000 -TSRA BR BCFG FEW001 BKN003 FEW040CB 15/15 Q1021","temp":15,"dewp":15,"wdir":170,"wspd":8,"visib":2.49,"altim":1021,"clouds":[{"cover":"FEW","base":100},{"cover":"BKN","base":300},{"cover":"FEW","base":4000}],"obsTime":1782586800},"SBCO":{"icaoId":"SBCO","flightCategory":"VFR","rawOb":"METAR SBCO 271900Z VRB02KT CAVOK 21/09 Q1019","temp":21,"dewp":9,"wdir":"VRB","wspd":2,"visib":"6+","altim":1019,"clouds":[],"obsTime":1782586800},"SBJP":{"icaoId":"SBJP","flightCategory":"MVFR","rawOb":"SPECI SBJP 271830Z 15007KT 8000 -RA BKN010 BKN020 OVC070 24/24 Q1015","temp":24,"dewp":24,"wdir":150,"wspd":7,"visib":4.97,"altim":1015,"clouds":[{"cover":"BKN","base":1000},{"cover":"BKN","base":2000},{"cover":"OVC","base":7000}],"obsTime":1782585000},"SBJV":{"icaoId":"SBJV","flightCategory":"VFR","rawOb":"METAR SBJV 271900Z 14002KT CAVOK 20/17 Q1020","temp":20,"dewp":17,"wdir":140,"wspd":2,"visib":"6+","altim":1020,"clouds":[],"obsTime":1782586800},"SBNM":{"icaoId":"SBNM","flightCategory":"MVFR","rawOb":"METAR SBNM 271900Z 10004KT 8000 -RA SCT025 FEW035TCU BKN045 16/14 Q1018","temp":16,"dewp":14,"wdir":100,"wspd":4,"visib":4.97,"altim":1018,"clouds":[{"cover":"SCT","base":2500},{"cover":"FEW","base":3500},{"cover":"BKN","base":4500}],"obsTime":1782586800},"SBLE":{"icaoId":"SBLE","flightCategory":"VFR","rawOb":"METAR SBLE 271900Z AUTO 14005KT 110V170 9999 OVC036 24/19 Q1020","temp":24,"dewp":19,"wdir":140,"wspd":5,"visib":"6+","altim":1020,"clouds":[{"cover":"OVC","base":3600}],"obsTime":1782586800},"SBTC":{"icaoId":"SBTC","flightCategory":"VFR","rawOb":"METAR SBTC 271900Z 19006KT 9999 VCSH SCT020 BKN060 24/21 Q1020","temp":24,"dewp":21,"wdir":190,"wspd":6,"visib":"6+","altim":1020,"clouds":[{"cover":"SCT","base":2000},{"cover":"BKN","base":6000}],"obsTime":1782586800},"SBIH":{"icaoId":"SBIH","flightCategory":"VFR","rawOb":"METAR SBIH 271900Z 01003KT 9999 SCT020 FEW025TCU SCT080 27/25 Q1011","temp":27,"dewp":25,"wdir":10,"wspd":3,"visib":"6+","altim":1011,"clouds":[{"cover":"SCT","base":2000},{"cover":"FEW","base":2500},{"cover":"SCT","base":8000}],"obsTime":1782586800},"SBAF":{"icaoId":"SBAF","flightCategory":"MVFR","rawOb":"METAR SBAF 271900Z 19006KT 8000 FEW015 SCT040 24/22 Q1021","temp":24,"dewp":22,"wdir":190,"wspd":6,"visib":4.97,"altim":1021,"clouds":[{"cover":"FEW","base":1500},{"cover":"SCT","base":4000}],"obsTime":1782586800},"SBGW":{"icaoId":"SBGW","flightCategory":"VFR","rawOb":"METAR SBGW 271900Z 30003KT 250V360 9999 FEW025 25/15 Q1022","temp":25,"dewp":15,"wdir":300,"wspd":3,"visib":"6+","altim":1022,"clouds":[{"cover":"FEW","base":2500}],"obsTime":1782586800},"SBAN":{"icaoId":"SBAN","flightCategory":"MVFR","rawOb":"METAR SBAN 271900Z 09009KT 9999 BKN030 26/15 Q1023","temp":26,"dewp":15,"wdir":90,"wspd":9,"visib":"6+","altim":1023,"clouds":[{"cover":"BKN","base":3000}],"obsTime":1782586800},"SBLS":{"icaoId":"SBLS","flightCategory":"VFR","rawOb":"METAR SBLS 271900Z 12008KT 060V130 9999 SCT045 25/12 Q1023","temp":25,"dewp":12,"wdir":120,"wspd":8,"visib":"6+","altim":1023,"clouds":[{"cover":"SCT","base":4500}],"obsTime":1782586800},"SBMT":{"icaoId":"SBMT","flightCategory":"VFR","rawOb":"METAR SBMT 271900Z 15003KT CAVOK 24/14 Q1023","temp":24,"dewp":14,"wdir":150,"wspd":3,"visib":"6+","altim":1023,"clouds":[],"obsTime":1782586800},"SBST":{"icaoId":"SBST","flightCategory":"VFR","rawOb":"METAR SBST 271900Z 15006KT 9999 FEW023 21/18 Q1021","temp":21,"dewp":18,"wdir":150,"wspd":6,"visib":"6+","altim":1021,"clouds":[{"cover":"FEW","base":2300}],"obsTime":1782586800},"SBTA":{"icaoId":"SBTA","flightCategory":"VFR","rawOb":"METAR SBTA 271900Z 03003KT 9999 FEW030 24/17 Q1022","temp":24,"dewp":17,"wdir":30,"wspd":3,"visib":"6+","altim":1022,"clouds":[{"cover":"FEW","base":3000}],"obsTime":1782586800},"SBJR":{"icaoId":"SBJR","flightCategory":"VFR","rawOb":"METAR SBJR 271900Z 18004KT 9999 FEW015 25/20 Q1021","temp":25,"dewp":20,"wdir":180,"wspd":4,"visib":"6+","altim":1021,"clouds":[{"cover":"FEW","base":1500}],"obsTime":1782586800}}}