{"updated":1781132517,"count":78,"data":{"SBVT":{"icaoId":"SBVT","flightCategory":"VFR","rawOb":"METAR SBVT 102200Z 31002KT CAVOK 20/18 Q1016","temp":20,"dewp":18,"wdir":310,"wspd":2,"visib":"6+","altim":1016,"clouds":[],"obsTime":1781128800},"SBBE":{"icaoId":"SBBE","flightCategory":"MVFR","rawOb":"METAR SBBE 102200Z 07010KT 9999 BKN025 BKN100 28/23 Q1011","temp":28,"dewp":23,"wdir":70,"wspd":10,"visib":"6+","altim":1011,"clouds":[{"cover":"BKN","base":2500},{"cover":"BKN","base":10000}],"obsTime":1781128800},"SBBR":{"icaoId":"SBBR","flightCategory":"VFR","rawOb":"METAR SBBR 102200Z 30002KT 9999 FEW045 BKN070 24/13 Q1019","temp":24,"dewp":13,"wdir":300,"wspd":2,"visib":"6+","altim":1019,"clouds":[{"cover":"FEW","base":4500},{"cover":"BKN","base":7000}],"obsTime":1781128800},"SBBV":{"icaoId":"SBBV","flightCategory":"VFR","rawOb":"METAR SBBV 102200Z 07009KT 9999 BKN035 FEW040TCU BKN090 27/23 Q1011","temp":27,"dewp":23,"wdir":70,"wspd":9,"visib":"6+","altim":1011,"clouds":[{"cover":"BKN","base":3500},{"cover":"FEW","base":4000},{"cover":"BKN","base":9000}],"obsTime":1781128800},"SBCB":{"icaoId":"SBCB","flightCategory":"VFR","rawOb":"METAR SBCB 102200Z 19003KT 9000 FEW015 21/19 Q1017","temp":21,"dewp":19,"wdir":190,"wspd":3,"visib":5.59,"altim":1017,"clouds":[{"cover":"FEW","base":1500}],"obsTime":1781128800},"SBCF":{"icaoId":"SBCF","flightCategory":"VFR","rawOb":"METAR SBCF 102200Z 15002KT CAVOK 23/11 Q1019","temp":23,"dewp":11,"wdir":150,"wspd":2,"visib":"6+","altim":1019,"clouds":[],"obsTime":1781128800},"SBCG":{"icaoId":"SBCG","flightCategory":"VFR","rawOb":"METAR SBCG 102200Z 32003KT 9999 FEW040 BKN100 22/16 Q1014","temp":22,"dewp":16,"wdir":320,"wspd":3,"visib":"6+","altim":1014,"clouds":[{"cover":"FEW","base":4000},{"cover":"BKN","base":10000}],"obsTime":1781128800},"SBCT":{"icaoId":"SBCT","flightCategory":"IFR","rawOb":"METAR SBCT 102200Z 01005KT 6000 -RA BKN007 BKN035 OVC083 15/15 Q1018","temp":15,"dewp":15,"wdir":10,"wspd":5,"visib":3.73,"altim":1018,"clouds":[{"cover":"BKN","base":700},{"cover":"BKN","base":3500},{"cover":"OVC","base":8300}],"obsTime":1781128800},"SBEG":{"icaoId":"SBEG","flightCategory":"VFR","rawOb":"METAR SBEG 102200Z 34003KT 9999 FEW025 FEW030TCU BKN100 27/26 Q1011","temp":27,"dewp":26,"wdir":340,"wspd":3,"visib":"6+","altim":1011,"clouds":[{"cover":"FEW","base":2500},{"cover":"FEW","base":3000},{"cover":"BKN","base":10000}],"obsTime":1781128800},"SBFI":{"icaoId":"SBFI","flightCategory":"IFR","rawOb":"METAR SBFI 102200Z 31006KT 4000 TSRA BR FEW003 SCT010 BKN027 FEW030CB 17/17 Q1013","temp":17,"dewp":17,"wdir":310,"wspd":6,"visib":2.49,"altim":1013,"clouds":[{"cover":"FEW","base":300},{"cover":"SCT","base":1000},{"cover":"BKN","base":2700},{"cover":"FEW","base":3000}],"obsTime":1781128800},"SBFL":{"icaoId":"SBFL","flightCategory":"MVFR","rawOb":"METAR SBFL 102200Z 16004KT 9999 OVC017 17/14 Q1016","temp":17,"dewp":14,"wdir":160,"wspd":4,"visib":"6+","altim":1016,"clouds":[{"cover":"OVC","base":1700}],"obsTime":1781128800},"SBFZ":{"icaoId":"SBFZ","flightCategory":"VFR","rawOb":"METAR SBFZ 102200Z 10008KT 9999 FEW020 27/23 Q1012","temp":27,"dewp":23,"wdir":100,"wspd":8,"visib":"6+","altim":1012,"clouds":[{"cover":"FEW","base":2000}],"obsTime":1781128800},"SBGL":{"icaoId":"SBGL","flightCategory":"VFR","rawOb":"METAR SBGL 102200Z 15006KT 9999 FEW020 22/18 Q1016","temp":22,"dewp":18,"wdir":150,"wspd":6,"visib":"6+","altim":1016,"clouds":[{"cover":"FEW","base":2000}],"obsTime":1781128800},"SBGO":{"icaoId":"SBGO","flightCategory":"VFR","rawOb":"METAR SBGO 102200Z 01003KT 9999 FEW045 BKN100 27/16 Q1017","temp":27,"dewp":16,"wdir":10,"wspd":3,"visib":"6+","altim":1017,"clouds":[{"cover":"FEW","base":4500},{"cover":"BKN","base":10000}],"obsTime":1781128800},"SBGR":{"icaoId":"SBGR","flightCategory":"MVFR","rawOb":"SPECI SBGR 102110Z 18006KT 8000 BKN013 OVC080 18/15 Q1019","temp":18,"dewp":15,"wdir":180,"wspd":6,"visib":4.97,"altim":1019,"clouds":[{"cover":"BKN","base":1300},{"cover":"OVC","base":8000}],"obsTime":1781125800},"SBKP":{"icaoId":"SBKP","flightCategory":"VFR","rawOb":"METAR SBKP 102200Z 19012KT 9999 -RA NSC 20/15 Q1017","temp":20,"dewp":15,"wdir":190,"wspd":12,"visib":"6+","altim":1017,"clouds":[],"obsTime":1781128800},"SBLO":{"icaoId":"SBLO","flightCategory":"LIFR","rawOb":"METAR SBLO 102200Z 15005KT 3000 -RA BKN003 OVC050 15/15 Q1017","temp":15,"dewp":15,"wdir":150,"wspd":5,"visib":1.86,"altim":1017,"clouds":[{"cover":"BKN","base":300},{"cover":"OVC","base":5000}],"obsTime":1781128800},"SBMA":{"icaoId":"SBMA","flightCategory":"VFR","rawOb":"METAR SBMA 102200Z 00000KT 9999 SCT020 29/23 Q1011","temp":29,"dewp":23,"wdir":0,"wspd":0,"visib":"6+","altim":1011,"clouds":[{"cover":"SCT","base":2000}],"obsTime":1781128800},"SBMO":{"icaoId":"SBMO","flightCategory":"VFR","rawOb":"METAR SBMO 102200Z 15007KT 9000 -DZ SCT006 OVC033 24/23 Q1015","temp":24,"dewp":23,"wdir":150,"wspd":7,"visib":5.59,"altim":1015,"clouds":[{"cover":"SCT","base":600},{"cover":"OVC","base":3300}],"obsTime":1781128800},"SBMQ":{"icaoId":"SBMQ","flightCategory":"VFR","rawOb":"METAR SBMQ 102200Z 06010KT 9999 -SHRA FEW023 SCT035TCU BKN100 27/24 Q1011","temp":27,"dewp":24,"wdir":60,"wspd":10,"visib":"6+","altim":1011,"clouds":[{"cover":"FEW","base":2300},{"cover":"SCT","base":3500},{"cover":"BKN","base":10000}],"obsTime":1781128800},"SBPA":{"icaoId":"SBPA","flightCategory":"VFR","rawOb":"METAR SBPA 102200Z 12005KT 9999 FEW010 14/12 Q1015","temp":14,"dewp":12,"wdir":120,"wspd":5,"visib":"6+","altim":1015,"clouds":[{"cover":"FEW","base":1000}],"obsTime":1781128800},"SBPJ":{"icaoId":"SBPJ","flightCategory":"VFR","rawOb":"METAR SBPJ 102200Z VRB02KT CAVOK 28/22 Q1012","temp":28,"dewp":22,"wdir":"VRB","wspd":2,"visib":"6+","altim":1012,"clouds":[],"obsTime":1781128800},"SBPV":{"icaoId":"SBPV","flightCategory":"VFR","rawOb":"METAR SBPV 102200Z 03004KT 9999 FEW025 BKN100 26/22 Q1011","temp":26,"dewp":22,"wdir":30,"wspd":4,"visib":"6+","altim":1011,"clouds":[{"cover":"FEW","base":2500},{"cover":"BKN","base":10000}],"obsTime":1781128800},"SBRB":{"icaoId":"SBRB","flightCategory":"MVFR","rawOb":"METAR SBRB 102200Z 36008KT 9999 BKN030 25/22 Q1012","temp":25,"dewp":22,"wdir":360,"wspd":8,"visib":"6+","altim":1012,"clouds":[{"cover":"BKN","base":3000}],"obsTime":1781128800},"SBRF":{"icaoId":"SBRF","flightCategory":"VFR","rawOb":"METAR SBRF 102200Z 14010KT 9999 FEW023 27/23 Q1014","temp":27,"dewp":23,"wdir":140,"wspd":10,"visib":"6+","altim":1014,"clouds":[{"cover":"FEW","base":2300}],"obsTime":1781128800},"SBSG":{"icaoId":"SBSG","flightCategory":"VFR","rawOb":"METAR SBSG 102200Z 15003KT 120V180 9999 FEW030 25/24 Q1014","temp":25,"dewp":24,"wdir":150,"wspd":3,"visib":"6+","altim":1014,"clouds":[{"cover":"FEW","base":3000}],"obsTime":1781128800},"SBSL":{"icaoId":"SBSL","flightCategory":"VFR","rawOb":"METAR SBSL 102200Z 07008KT 9999 FEW027 SCT080 28/24 Q1011","temp":28,"dewp":24,"wdir":70,"wspd":8,"visib":"6+","altim":1011,"clouds":[{"cover":"FEW","base":2700},{"cover":"SCT","base":8000}],"obsTime":1781128800},"SBSN":{"icaoId":"SBSN","flightCategory":"VFR","rawOb":"METAR SBSN 102200Z 20003KT CAVOK 26/25 Q1011","temp":26,"dewp":25,"wdir":200,"wspd":3,"visib":"6+","altim":1011,"clouds":[],"obsTime":1781128800},"SBSP":{"icaoId":"SBSP","flightCategory":"IFR","rawOb":"METAR SBSP 102200Z COR 16007KT 7000 -RA BKN008 BKN010 16/16 Q1020","temp":16,"dewp":16,"wdir":160,"wspd":7,"visib":4.35,"altim":1020,"clouds":[{"cover":"BKN","base":800},{"cover":"BKN","base":1000}],"obsTime":1781128800},"SBSV":{"icaoId":"SBSV","flightCategory":"VFR","rawOb":"METAR SBSV 102200Z 14004KT 9999 FEW030 25/19 Q1016","temp":25,"dewp":19,"wdir":140,"wspd":4,"visib":"6+","altim":1016,"clouds":[{"cover":"FEW","base":3000}],"obsTime":1781128800},"SBTE":{"icaoId":"SBTE","flightCategory":"VFR","rawOb":"METAR SBTE 102200Z 33002KT 9999 FEW033TCU SCT100 30/23 Q1010","temp":30,"dewp":23,"wdir":330,"wspd":2,"visib":"6+","altim":1010,"clouds":[{"cover":"FEW","base":3300},{"cover":"SCT","base":10000}],"obsTime":1781128800},"SBJU":{"icaoId":"SBJU","flightCategory":"VFR","rawOb":"METAR SBJU 102200Z 17006KT 9999 SCT020 25/20 Q1015","temp":25,"dewp":20,"wdir":170,"wspd":6,"visib":"6+","altim":1015,"clouds":[{"cover":"SCT","base":2000}],"obsTime":1781128800},"SBME":{"icaoId":"SBME","flightCategory":"VFR","rawOb":"METAR SBME 102200Z 20004KT 170V260 9999 FEW033 22/20 Q1017","temp":22,"dewp":20,"wdir":200,"wspd":4,"visib":"6+","altim":1017,"clouds":[{"cover":"FEW","base":3300}],"obsTime":1781128800},"SBMG":{"icaoId":"SBMG","flightCategory":"VFR","rawOb":"METAR SBMG 102200Z 09007KT 9000 -RA FEW025 OVC050 17/15 Q1015","temp":17,"dewp":15,"wdir":90,"wspd":7,"visib":5.59,"altim":1015,"clouds":[{"cover":"FEW","base":2500},{"cover":"OVC","base":5000}],"obsTime":1781128800},"SBMK":{"icaoId":"SBMK","flightCategory":"VFR","rawOb":"METAR SBMK 102200Z 22004KT CAVOK 25/16 Q1017","temp":25,"dewp":16,"wdir":220,"wspd":4,"visib":"6+","altim":1017,"clouds":[],"obsTime":1781128800},"SBUL":{"icaoId":"SBUL","flightCategory":"VFR","rawOb":"METAR SBUL 102200Z 36003KT CAVOK 24/13 Q1019","temp":24,"dewp":13,"wdir":360,"wspd":3,"visib":"6+","altim":1019,"clouds":[],"obsTime":1781128800},"SBNT":{"icaoId":"SBNT","flightCategory":"VFR","rawOb":"METAR SBNT 102200Z 15007KT 9999 FEW030 25/24 Q1013","temp":25,"dewp":24,"wdir":150,"wspd":7,"visib":"6+","altim":1013,"clouds":[{"cover":"FEW","base":3000}],"obsTime":1781128800},"SBCP":{"icaoId":"SBCP","flightCategory":"VFR","rawOb":"METAR SBCP 102200Z 21006KT CAVOK 22/20 Q1017","temp":22,"dewp":20,"wdir":210,"wspd":6,"visib":"6+","altim":1017,"clouds":[],"obsTime":1781128800},"SBUR":{"icaoId":"SBUR","flightCategory":"VFR","rawOb":"METAR SBUR 102200Z 36006KT CAVOK 25/13 Q1017","temp":25,"dewp":13,"wdir":360,"wspd":6,"visib":"6+","altim":1017,"clouds":[],"obsTime":1781128800},"SBCZ":{"icaoId":"SBCZ","flightCategory":"VFR","rawOb":"METAR SBCZ 102200Z VRB02KT 9999 FEW028 SCT100 29/23 Q1011","temp":29,"dewp":23,"wdir":"VRB","wspd":2,"visib":"6+","altim":1011,"clouds":[{"cover":"FEW","base":2800},{"cover":"SCT","base":10000}],"obsTime":1781128800},"SBIL":{"icaoId":"SBIL","flightCategory":"VFR","rawOb":"METAR SBIL 102200Z 09005KT CAVOK 25/21 Q1016","temp":25,"dewp":21,"wdir":90,"wspd":5,"visib":"6+","altim":1016,"clouds":[],"obsTime":1781128800},"SBPP":{"icaoId":"SBPP","flightCategory":"VFR","rawOb":"SPECI SBPP 102240Z 04011KT CAVOK 18/17 Q1013","temp":18,"dewp":17,"wdir":40,"wspd":11,"visib":"6+","altim":1013,"clouds":[],"obsTime":1781131200},"SBPS":{"icaoId":"SBPS","flightCategory":"VFR","rawOb":"METAR SBPS 102200Z 05005KT 9999 FEW025 24/20 Q1016","temp":24,"dewp":20,"wdir":50,"wspd":5,"visib":"6+","altim":1016,"clouds":[{"cover":"FEW","base":2500}],"obsTime":1781128800},"SBOI":{"icaoId":"SBOI","flightCategory":"VFR","rawOb":"METAR SBOI 102200Z AUTO 05002KT CAVOK 26/25 Q1012","temp":26,"dewp":25,"wdir":50,"wspd":2,"visib":"6+","altim":1012,"clouds":[],"obsTime":1781128800},"SBTT":{"icaoId":"SBTT","flightCategory":"VFR","rawOb":"METAR SBTT 102200Z 14005KT 9999 FEW017 24/23 Q1012","temp":24,"dewp":23,"wdir":140,"wspd":5,"visib":"6+","altim":1012,"clouds":[{"cover":"FEW","base":1700}],"obsTime":1781128800},"SBSJ":{"icaoId":"SBSJ","flightCategory":"VFR","rawOb":"METAR SBSJ 102200Z 21007KT 9999 FEW045 BKN080 19/14 Q1018","temp":19,"dewp":14,"wdir":210,"wspd":7,"visib":"6+","altim":1018,"clouds":[{"cover":"FEW","base":4500},{"cover":"BKN","base":8000}],"obsTime":1781128800},"SBAR":{"icaoId":"SBAR","flightCategory":"VFR","rawOb":"METAR SBAR 102200Z 16008KT 9999 FEW023 SCT028 BKN060 27/22 Q1015","temp":27,"dewp":22,"wdir":160,"wspd":8,"visib":"6+","altim":1015,"clouds":[{"cover":"FEW","base":2300},{"cover":"SCT","base":2800},{"cover":"BKN","base":6000}],"obsTime":1781128800},"SBPL":{"icaoId":"SBPL","flightCategory":"VFR","rawOb":"METAR SBPL 102200Z 08004KT CAVOK 27/17 Q1014","temp":27,"dewp":17,"wdir":80,"wspd":4,"visib":"6+","altim":1014,"clouds":[],"obsTime":1781128800},"SBUY":{"icaoId":"SBUY","flightCategory":"VFR","rawOb":"METAR SBUY 102200Z 21002KT 9999 SCT008 BKN090 23/23 Q1011","temp":23,"dewp":23,"wdir":210,"wspd":2,"visib":"6+","altim":1011,"clouds":[{"cover":"SCT","base":800},{"cover":"BKN","base":9000}],"obsTime":1781128800},"SBTF":{"icaoId":"SBTF","flightCategory":"VFR","rawOb":"METAR SBTF 102200Z 27003KT 9999 FEW008 SCT100 28/26 Q1011","temp":28,"dewp":26,"wdir":270,"wspd":3,"visib":"6+","altim":1011,"clouds":[{"cover":"FEW","base":800},{"cover":"SCT","base":10000}],"obsTime":1781128800},"SBKG":{"icaoId":"SBKG","flightCategory":"VFR","rawOb":"METAR SBKG 102200Z 12006KT CAVOK 22/20 Q1017","temp":22,"dewp":20,"wdir":120,"wspd":6,"visib":"6+","altim":1017,"clouds":[],"obsTime":1781128800},"SBSC":{"icaoId":"SBSC","flightCategory":"MVFR","rawOb":"METAR SBSC 102200Z 21004KT 9999 FEW015 BKN030 22/19 Q1017","temp":22,"dewp":19,"wdir":210,"wspd":4,"visib":"6+","altim":1017,"clouds":[{"cover":"FEW","base":1500},{"cover":"BKN","base":3000}],"obsTime":1781128800},"SBSM":{"icaoId":"SBSM","flightCategory":"VFR","rawOb":"METAR SBSM 102200Z 11006KT 9999 SCT020 14/13 Q1015","temp":14,"dewp":13,"wdir":110,"wspd":6,"visib":"6+","altim":1015,"clouds":[{"cover":"SCT","base":2000}],"obsTime":1781128800},"SBSR":{"icaoId":"SBSR","flightCategory":"VFR","rawOb":"METAR SBSR 102200Z 24004KT 9999 FEW040 BKN070 26/11 Q1015","temp":26,"dewp":11,"wdir":240,"wspd":4,"visib":"6+","altim":1015,"clouds":[{"cover":"FEW","base":4000},{"cover":"BKN","base":7000}],"obsTime":1781128800},"SBVH":{"icaoId":"SBVH","flightCategory":"VFR","rawOb":"METAR SBVH 102200Z 04007KT CAVOK 22/20 Q1013","temp":22,"dewp":20,"wdir":40,"wspd":7,"visib":"6+","altim":1013,"clouds":[],"obsTime":1781128800},"SBAX":{"icaoId":"SBAX","flightCategory":"VFR","rawOb":"METAR SBAX 102200Z 36004KT CAVOK 23/12 Q1019","temp":23,"dewp":12,"wdir":360,"wspd":4,"visib":"6+","altim":1019,"clouds":[],"obsTime":1781128800},"SBBH":{"icaoId":"SBBH","flightCategory":"VFR","rawOb":"METAR SBBH 102200Z 00000KT CAVOK 19/14 Q1019","temp":19,"dewp":14,"wdir":0,"wspd":0,"visib":"6+","altim":1019,"clouds":[],"obsTime":1781128800},"SBBU":{"icaoId":"SBBU","flightCategory":"MVFR","rawOb":"METAR SBBU 102200Z 19009KT 7000 -RA SCT030 OVC100 20/17 Q1017","temp":20,"dewp":17,"wdir":190,"wspd":9,"visib":4.35,"altim":1017,"clouds":[{"cover":"SCT","base":3000},{"cover":"OVC","base":10000}],"obsTime":1781128800},"SBCA":{"icaoId":"SBCA","flightCategory":"VFR","rawOb":"METAR SBCA 102200Z 07008KT 9999 -RA FEW002 SCT020 OVC070 15/15 Q1017 RETS","temp":15,"dewp":15,"wdir":70,"wspd":8,"visib":"6+","altim":1017,"clouds":[{"cover":"FEW","base":200},{"cover":"SCT","base":2000},{"cover":"OVC","base":7000}],"obsTime":1781128800},"SBCC":{"icaoId":"SBCC","flightCategory":"VFR","rawOb":"METAR SBCC 102200Z 23002KT 9999 FEW025 FEW030TCU BKN100 23/21 Q1014","temp":23,"dewp":21,"wdir":230,"wspd":2,"visib":"6+","altim":1014,"clouds":[{"cover":"FEW","base":2500},{"cover":"FEW","base":3000},{"cover":"BKN","base":10000}],"obsTime":1781128800},"SBCO":{"icaoId":"SBCO","flightCategory":"VFR","rawOb":"METAR SBCO 102200Z 09002KT 9999 FEW010 13/12 Q1016","temp":13,"dewp":12,"wdir":90,"wspd":2,"visib":"6+","altim":1016,"clouds":[{"cover":"FEW","base":1000}],"obsTime":1781128800},"SBDN":{"icaoId":"SBDN","flightCategory":"VFR","rawOb":"METAR SBDN 102200Z 11008KT CAVOK 18/16 Q1015","temp":18,"dewp":16,"wdir":110,"wspd":8,"visib":"6+","altim":1015,"clouds":[],"obsTime":1781128800},"SBES":{"icaoId":"SBES","flightCategory":"VFR","rawOb":"METAR SBES 102200Z 00000KT 9000 FEW015 19/// Q1017","temp":null,"dewp":null,"wdir":0,"wspd":0,"visib":5.59,"altim":1017,"clouds":[{"cover":"FEW","base":1500}],"obsTime":1781128800},"SBIP":{"icaoId":"SBIP","flightCategory":"VFR","rawOb":"METAR SBIP 102200Z AUTO 00000KT CAVOK 19/19 Q1016","temp":19,"dewp":19,"wdir":0,"wspd":0,"visib":"6+","altim":1016,"clouds":[],"obsTime":1781128800},"SBPB":{"icaoId":"SBPB","flightCategory":"VFR","rawOb":"SPECI SBPB 102145Z 05012KT 9999 SCT016 FEW025TCU BKN090 28/24 Q1011","temp":28,"dewp":24,"wdir":50,"wspd":12,"visib":"6+","altim":1011,"clouds":[{"cover":"SCT","base":1600},{"cover":"FEW","base":2500},{"cover":"BKN","base":9000}],"obsTime":1781127900},"SBCJ":{"icaoId":"SBCJ","flightCategory":"VFR","rawOb":"SPECI SBCJ 102130Z 00000KT 9999 FEW025 24/21 Q1015","temp":24,"dewp":21,"wdir":0,"wspd":0,"visib":"6+","altim":1015,"clouds":[{"cover":"FEW","base":2500}],"obsTime":1781127000},"SBJP":{"icaoId":"SBJP","flightCategory":"VFR","rawOb":"METAR SBJP 102200Z 14005KT 9999 FEW020 25/23 Q1014","temp":25,"dewp":23,"wdir":140,"wspd":5,"visib":"6+","altim":1014,"clouds":[{"cover":"FEW","base":2000}],"obsTime":1781128800},"SBJV":{"icaoId":"SBJV","flightCategory":"IFR","rawOb":"METAR SBJV 102200Z 17002KT 4000 -RA BKN009 BKN015 17/17 Q1016","temp":17,"dewp":17,"wdir":170,"wspd":2,"visib":2.49,"altim":1016,"clouds":[{"cover":"BKN","base":900},{"cover":"BKN","base":1500}],"obsTime":1781128800},"SBNM":{"icaoId":"SBNM","flightCategory":"MVFR","rawOb":"METAR SBNM 102200Z 12004KT 9999 FEW010 BKN020 18/15 Q1013","temp":18,"dewp":15,"wdir":120,"wspd":4,"visib":"6+","altim":1013,"clouds":[{"cover":"FEW","base":1000},{"cover":"BKN","base":2000}],"obsTime":1781128800},"SBPF":{"icaoId":"SBPF","flightCategory":"VFR","rawOb":"METAR SBPF 102200Z 06007KT CAVOK 14/13 Q1015","temp":14,"dewp":13,"wdir":60,"wspd":7,"visib":"6+","altim":1015,"clouds":[],"obsTime":1781128800},"SBAF":{"icaoId":"SBAF","flightCategory":"MVFR","rawOb":"METAR SBAF 102200Z 18005KT 8000 FEW015 21/21 Q1017","temp":21,"dewp":21,"wdir":180,"wspd":5,"visib":4.97,"altim":1017,"clouds":[{"cover":"FEW","base":1500}],"obsTime":1781128800},"SBGW":{"icaoId":"SBGW","flightCategory":"VFR","rawOb":"METAR SBGW 102200Z 00000KT CAVOK 19/14 Q1017","temp":19,"dewp":14,"wdir":0,"wspd":0,"visib":"6+","altim":1017,"clouds":[],"obsTime":1781128800},"SBAN":{"icaoId":"SBAN","flightCategory":"VFR","rawOb":"METAR SBAN 102200Z 34002KT 9999 FEW045 BKN100 20/15 Q1020","temp":20,"dewp":15,"wdir":340,"wspd":2,"visib":"6+","altim":1020,"clouds":[{"cover":"FEW","base":4500},{"cover":"BKN","base":10000}],"obsTime":1781128800},"SBLS":{"icaoId":"SBLS","flightCategory":"VFR","rawOb":"METAR SBLS 102200Z 12004KT CAVOK 23/11 Q1019","temp":23,"dewp":11,"wdir":120,"wspd":4,"visib":"6+","altim":1019,"clouds":[],"obsTime":1781128800},"SBMT":{"icaoId":"SBMT","flightCategory":"MVFR","rawOb":"METAR SBMT 102200Z 22004KT 7000 BKN015 BKN017 OVC100 17/15 Q1019","temp":17,"dewp":15,"wdir":220,"wspd":4,"visib":4.35,"altim":1019,"clouds":[{"cover":"BKN","base":1500},{"cover":"BKN","base":1700},{"cover":"OVC","base":10000}],"obsTime":1781128800},"SBTA":{"icaoId":"SBTA","flightCategory":"VFR","rawOb":"METAR SBTA 102200Z VRB01KT CAVOK 18/15 Q1016","temp":18,"dewp":15,"wdir":"VRB","wspd":1,"visib":"6+","altim":1016,"clouds":[],"obsTime":1781128800},"SBLE":{"icaoId":"SBLE","flightCategory":"VFR","rawOb":"METAR SBLE 102200Z AUTO 03004KT CAVOK ///// Q////","temp":null,"dewp":null,"wdir":30,"wspd":4,"visib":"6+","altim":null,"clouds":[],"obsTime":1781128800},"SBJR":{"icaoId":"SBJR","flightCategory":"VFR","rawOb":"METAR SBJR 102200Z 20002KT 9999 FEW018 SCT040 21/20 Q1017","temp":21,"dewp":20,"wdir":200,"wspd":2,"visib":"6+","altim":1017,"clouds":[{"cover":"FEW","base":1800},{"cover":"SCT","base":4000}],"obsTime":1781128800}}}