{"updated":1778017809,"count":84,"data":{"SBEG":{"icaoId":"SBEG","flightCategory":"VFR","rawOb":"METAR SBEG 052000Z 28004KT 9999 VCSH SCT030 FEW035TCU SCT100 29/25 Q1010","temp":29,"dewp":25,"wdir":280,"wspd":4,"visib":"6+","altim":1010,"clouds":[{"cover":"SCT","base":3000},{"cover":"FEW","base":3500},{"cover":"SCT","base":10000}],"obsTime":1778011200},"SBMA":{"icaoId":"SBMA","flightCategory":"VFR","rawOb":"METAR SBMA 052000Z 03002KT 9999 FEW020 32/25 Q1010","temp":32,"dewp":25,"wdir":30,"wspd":2,"visib":"6+","altim":1010,"clouds":[{"cover":"FEW","base":2000}],"obsTime":1778011200},"SBCF":{"icaoId":"SBCF","flightCategory":"VFR","rawOb":"METAR SBCF 052000Z 10007KT 9999 FEW040 25/17 Q1022","temp":25,"dewp":17,"wdir":100,"wspd":7,"visib":"6+","altim":1022,"clouds":[{"cover":"FEW","base":4000}],"obsTime":1778011200},"SBME":{"icaoId":"SBME","flightCategory":"VFR","rawOb":"METAR SBME 052000Z 08012KT CAVOK 26/20 Q1019","temp":26,"dewp":20,"wdir":80,"wspd":12,"visib":"6+","altim":1019,"clouds":[],"obsTime":1778011200},"SBFI":{"icaoId":"SBFI","flightCategory":"VFR","rawOb":"METAR SBFI 052000Z 05005KT CAVOK 30/23 Q1015","temp":30,"dewp":23,"wdir":50,"wspd":5,"visib":"6+","altim":1015,"clouds":[],"obsTime":1778011200},"SBMG":{"icaoId":"SBMG","flightCategory":"VFR","rawOb":"METAR SBMG 052000Z 02004KT 9999 SCT040 29/20 Q1018","temp":29,"dewp":20,"wdir":20,"wspd":4,"visib":"6+","altim":1018,"clouds":[{"cover":"SCT","base":4000}],"obsTime":1778011200},"SBBE":{"icaoId":"SBBE","flightCategory":"MVFR","rawOb":"METAR SBBE 052000Z 10009KT 5000 -RA FEW008 SCT034 OVC070 23/23 Q1012","temp":23,"dewp":23,"wdir":100,"wspd":9,"visib":3.11,"altim":1012,"clouds":[{"cover":"FEW","base":800},{"cover":"SCT","base":3400},{"cover":"OVC","base":7000}],"obsTime":1778011200},"SBMK":{"icaoId":"SBMK","flightCategory":"VFR","rawOb":"METAR SBMK 052000Z 10010KT 9999 FEW030 BKN080 27/16 Q1020","temp":27,"dewp":16,"wdir":100,"wspd":10,"visib":"6+","altim":1020,"clouds":[{"cover":"FEW","base":3000},{"cover":"BKN","base":8000}],"obsTime":1778011200},"SBMO":{"icaoId":"SBMO","flightCategory":"VFR","rawOb":"METAR SBMO 052000Z 15007KT 9999 FEW029 BKN043 27/23 Q1014","temp":27,"dewp":23,"wdir":150,"wspd":7,"visib":"6+","altim":1014,"clouds":[{"cover":"FEW","base":2900},{"cover":"BKN","base":4300}],"obsTime":1778011200},"SBCG":{"icaoId":"SBCG","flightCategory":"VFR","rawOb":"METAR SBCG 052000Z 36006KT 280V360 CAVOK 31/17 Q1017","temp":31,"dewp":17,"wdir":360,"wspd":6,"visib":"6+","altim":1017,"clouds":[],"obsTime":1778011200},"SBFL":{"icaoId":"SBFL","flightCategory":"VFR","rawOb":"METAR SBFL 052000Z 32005KT CAVOK 25/21 Q1016","temp":25,"dewp":21,"wdir":320,"wspd":5,"visib":"6+","altim":1016,"clouds":[],"obsTime":1778011200},"SBMQ":{"icaoId":"SBMQ","flightCategory":"MVFR","rawOb":"METAR SBMQ 052000Z 03016G26KT 9999 VCSH BKN021 FEW025TCU BKN067 26/24 Q1012","temp":26,"dewp":24,"wdir":30,"wspd":16,"visib":"6+","altim":1012,"clouds":[{"cover":"BKN","base":2100},{"cover":"FEW","base":2500},{"cover":"BKN","base":6700}],"obsTime":1778011200},"SBNT":{"icaoId":"SBNT","flightCategory":"VFR","rawOb":"METAR SBNT 052000Z 14015KT 9999 FEW026 FEW033TCU SCT070 28/24 Q1012","temp":28,"dewp":24,"wdir":140,"wspd":15,"visib":"6+","altim":1012,"clouds":[{"cover":"FEW","base":2600},{"cover":"FEW","base":3300},{"cover":"SCT","base":7000}],"obsTime":1778011200},"SBFZ":{"icaoId":"SBFZ","flightCategory":"VFR","rawOb":"METAR SBFZ 052000Z 10011KT 9999 SCT030 29/24 Q1010","temp":29,"dewp":24,"wdir":100,"wspd":11,"visib":"6+","altim":1010,"clouds":[{"cover":"SCT","base":3000}],"obsTime":1778011200},"SBBV":{"icaoId":"SBBV","flightCategory":"VFR","rawOb":"METAR SBBV 052000Z 09010KT 9999 SCT040 FEW045TCU 35/19 Q1009","temp":35,"dewp":19,"wdir":90,"wspd":10,"visib":"6+","altim":1009,"clouds":[{"cover":"SCT","base":4000},{"cover":"FEW","base":4500}],"obsTime":1778011200},"SBPA":{"icaoId":"SBPA","flightCategory":"VFR","rawOb":"METAR SBPA 052000Z 25003KT 220V280 CAVOK 29/20 Q1015","temp":29,"dewp":20,"wdir":250,"wspd":3,"visib":"6+","altim":1015,"clouds":[],"obsTime":1778011200},"SBCP":{"icaoId":"SBCP","flightCategory":"VFR","rawOb":"METAR SBCP 052000Z 09009KT CAVOK 26/18 Q1020","temp":26,"dewp":18,"wdir":90,"wspd":9,"visib":"6+","altim":1020,"clouds":[],"obsTime":1778011200},"SBPJ":{"icaoId":"SBPJ","flightCategory":"VFR","rawOb":"METAR SBPJ 052000Z 12005KT 090V160 9999 FEW040 33/19 Q1012","temp":33,"dewp":19,"wdir":120,"wspd":5,"visib":"6+","altim":1012,"clouds":[{"cover":"FEW","base":4000}],"obsTime":1778011200},"SBPV":{"icaoId":"SBPV","flightCategory":"VFR","rawOb":"METAR SBPV 052000Z 02004KT 9999 SCT025 32/26 Q1009","temp":32,"dewp":26,"wdir":20,"wspd":4,"visib":"6+","altim":1009,"clouds":[{"cover":"SCT","base":2500}],"obsTime":1778011200},"SBGL":{"icaoId":"SBGL","flightCategory":"VFR","rawOb":"METAR SBGL 052000Z 13008KT 9999 FEW025 27/20 Q1018","temp":27,"dewp":20,"wdir":130,"wspd":8,"visib":"6+","altim":1018,"clouds":[{"cover":"FEW","base":2500}],"obsTime":1778011200},"SBRB":{"icaoId":"SBRB","flightCategory":"MVFR","rawOb":"METAR SBRB 052000Z 35004KT 8000 SCT030 FEW035TCU SCT080 27/25 Q1011","temp":27,"dewp":25,"wdir":350,"wspd":4,"visib":4.97,"altim":1011,"clouds":[{"cover":"SCT","base":3000},{"cover":"FEW","base":3500},{"cover":"SCT","base":8000}],"obsTime":1778011200},"SBCR":{"icaoId":"SBCR","flightCategory":"VFR","rawOb":"METAR SBCR 052000Z 05011KT 9999 SCT040 33/21 Q1012","temp":33,"dewp":21,"wdir":50,"wspd":11,"visib":"6+","altim":1012,"clouds":[{"cover":"SCT","base":4000}],"obsTime":1778011200},"SBGO":{"icaoId":"SBGO","flightCategory":"VFR","rawOb":"METAR SBGO 052000Z 10013KT CAVOK 29/14 Q1019","temp":29,"dewp":14,"wdir":100,"wspd":13,"visib":"6+","altim":1019,"clouds":[],"obsTime":1778011200},"SBRF":{"icaoId":"SBRF","flightCategory":"VFR","rawOb":"METAR SBRF 052000Z 17012KT 9999 SCT024 28/23 Q1013","temp":28,"dewp":23,"wdir":170,"wspd":12,"visib":"6+","altim":1013,"clouds":[{"cover":"SCT","base":2400}],"obsTime":1778011200},"SBCB":{"icaoId":"SBCB","flightCategory":"VFR","rawOb":"METAR SBCB 052000Z 07009KT CAVOK 25/20 Q1019","temp":25,"dewp":20,"wdir":70,"wspd":9,"visib":"6+","altim":1019,"clouds":[],"obsTime":1778011200},"SBSG":{"icaoId":"SBSG","flightCategory":"VFR","rawOb":"METAR SBSG 052000Z 12009KT 090V180 9999 SCT025 BKN050 28/24 Q1012","temp":28,"dewp":24,"wdir":120,"wspd":9,"visib":"6+","altim":1012,"clouds":[{"cover":"SCT","base":2500},{"cover":"BKN","base":5000}],"obsTime":1778011200},"SBGR":{"icaoId":"SBGR","flightCategory":"VFR","rawOb":"METAR SBGR 052000Z 04005KT CAVOK 27/17 Q1022","temp":27,"dewp":17,"wdir":40,"wspd":5,"visib":"6+","altim":1022,"clouds":[],"obsTime":1778011200},"SBSL":{"icaoId":"SBSL","flightCategory":"MVFR","rawOb":"METAR SBSL 052000Z VRB03KT 9000 -TSRA BKN017 FEW025CB 25/24 Q1012 RERA RETSRA","temp":25,"dewp":24,"wdir":"VRB","wspd":3,"visib":5.59,"altim":1012,"clouds":[{"cover":"BKN","base":1700},{"cover":"FEW","base":2500}],"obsTime":1778011200},"SBAT":{"icaoId":"SBAT","flightCategory":"VFR","rawOb":"METAR SBAT 052000Z 13006KT 9999 FEW035 FEW040TCU 32/24 Q1012","temp":32,"dewp":24,"wdir":130,"wspd":6,"visib":"6+","altim":1012,"clouds":[{"cover":"FEW","base":3500},{"cover":"FEW","base":4000}],"obsTime":1778011200},"SBSN":{"icaoId":"SBSN","flightCategory":"VFR","rawOb":"METAR SBSN 052000Z 10006KT 9999 FEW015 FEW023TCU SCT080 BKN100 26/25 Q1011","temp":26,"dewp":25,"wdir":100,"wspd":6,"visib":"6+","altim":1011,"clouds":[{"cover":"FEW","base":1500},{"cover":"FEW","base":2300},{"cover":"SCT","base":8000},{"cover":"BKN","base":10000}],"obsTime":1778011200},"SBHT":{"icaoId":"SBHT","flightCategory":"VFR","rawOb":"METAR SBHT 052000Z 00000KT 9999 SCT015 BKN100 27/24 Q1011","temp":27,"dewp":24,"wdir":0,"wspd":0,"visib":"6+","altim":1011,"clouds":[{"cover":"SCT","base":1500},{"cover":"BKN","base":10000}],"obsTime":1778011200},"SBSP":{"icaoId":"SBSP","flightCategory":"VFR","rawOb":"METAR SBSP 052000Z 14006KT 9999 SCT045 27/15 Q1023","temp":27,"dewp":15,"wdir":140,"wspd":6,"visib":"6+","altim":1023,"clouds":[{"cover":"SCT","base":4500}],"obsTime":1778011200},"SBSV":{"icaoId":"SBSV","flightCategory":"VFR","rawOb":"METAR SBSV 052000Z 16009KT 9999 SCT024 28/22 Q1015","temp":28,"dewp":22,"wdir":160,"wspd":9,"visib":"6+","altim":1015,"clouds":[{"cover":"SCT","base":2400}],"obsTime":1778011200},"SBCT":{"icaoId":"SBCT","flightCategory":"VFR","rawOb":"METAR SBCT 052000Z 31004KT 9999 FEW030 26/15 Q1022","temp":26,"dewp":15,"wdir":310,"wspd":4,"visib":"6+","altim":1022,"clouds":[{"cover":"FEW","base":3000}],"obsTime":1778011200},"SBIL":{"icaoId":"SBIL","flightCategory":"VFR","rawOb":"METAR SBIL 052000Z 19009KT 160V230 CAVOK 29/23 Q1017","temp":29,"dewp":23,"wdir":190,"wspd":9,"visib":"6+","altim":1017,"clouds":[],"obsTime":1778011200},"SBTE":{"icaoId":"SBTE","flightCategory":"VFR","rawOb":"METAR SBTE 052000Z 15007KT 9999 FEW025 32/22 Q1010","temp":32,"dewp":22,"wdir":150,"wspd":7,"visib":"6+","altim":1010,"clouds":[{"cover":"FEW","base":2500}],"obsTime":1778011200},"SBCZ":{"icaoId":"SBCZ","flightCategory":"MVFR","rawOb":"METAR SBCZ 052000Z 23003KT 9999 BKN030 32/24 Q1010","temp":32,"dewp":24,"wdir":230,"wspd":3,"visib":"6+","altim":1010,"clouds":[{"cover":"BKN","base":3000}],"obsTime":1778011200},"SBUL":{"icaoId":"SBUL","flightCategory":"VFR","rawOb":"METAR SBUL 052000Z 10007KT 9999 FEW048 26/15 Q1022","temp":26,"dewp":15,"wdir":100,"wspd":7,"visib":"6+","altim":1022,"clouds":[{"cover":"FEW","base":4800}],"obsTime":1778011200},"SBJU":{"icaoId":"SBJU","flightCategory":"VFR","rawOb":"METAR SBJU 052000Z 15006KT CAVOK 31/20 Q1013","temp":31,"dewp":20,"wdir":150,"wspd":6,"visib":"6+","altim":1013,"clouds":[],"obsTime":1778011200},"SBUR":{"icaoId":"SBUR","flightCategory":"VFR","rawOb":"METAR SBUR 052000Z 13008KT CAVOK 28/15 Q1021","temp":28,"dewp":15,"wdir":130,"wspd":8,"visib":"6+","altim":1021,"clouds":[],"obsTime":1778011200},"SBKP":{"icaoId":"SBKP","flightCategory":"VFR","rawOb":"METAR SBKP 052000Z 13004KT 110V180 CAVOK 29/18 Q1021","temp":29,"dewp":18,"wdir":130,"wspd":4,"visib":"6+","altim":1021,"clouds":[],"obsTime":1778011200},"SBVT":{"icaoId":"SBVT","flightCategory":"VFR","rawOb":"METAR SBVT 052000Z 16007KT CAVOK 25/21 Q1019","temp":25,"dewp":21,"wdir":160,"wspd":7,"visib":"6+","altim":1019,"clouds":[],"obsTime":1778011200},"SBLO":{"icaoId":"SBLO","flightCategory":"VFR","rawOb":"METAR SBLO 052000Z 05006KT 9999 FEW030 28/20 Q1019","temp":28,"dewp":20,"wdir":50,"wspd":6,"visib":"6+","altim":1019,"clouds":[{"cover":"FEW","base":3000}],"obsTime":1778011200},"SBBR":{"icaoId":"SBBR","flightCategory":"VFR","rawOb":"METAR SBBR 052000Z 10009KT CAVOK 26/13 Q1023","temp":26,"dewp":13,"wdir":100,"wspd":9,"visib":"6+","altim":1023,"clouds":[],"obsTime":1778011200},"SBPB":{"icaoId":"SBPB","flightCategory":"VFR","rawOb":"METAR SBPB 052000Z 31003KT 9999 SCT016 BKN090 29/26 Q1010","temp":29,"dewp":26,"wdir":310,"wspd":3,"visib":"6+","altim":1010,"clouds":[{"cover":"SCT","base":1600},{"cover":"BKN","base":9000}],"obsTime":1778011200},"SBCJ":{"icaoId":"SBCJ","flightCategory":"VFR","rawOb":"METAR SBCJ 052000Z 13006KT 9999 SCT020 28/20 Q1015","temp":28,"dewp":20,"wdir":130,"wspd":6,"visib":"6+","altim":1015,"clouds":[{"cover":"SCT","base":2000}],"obsTime":1778011200},"SBAX":{"icaoId":"SBAX","flightCategory":"VFR","rawOb":"METAR SBAX 052100Z 11008KT CAVOK 24/14 Q1023","temp":24,"dewp":14,"wdir":110,"wspd":8,"visib":"6+","altim":1023,"clouds":[],"obsTime":1778014800},"SBBH":{"icaoId":"SBBH","flightCategory":"VFR","rawOb":"METAR SBBH 052000Z 08009KT 9999 FEW040 26/17 Q1022","temp":26,"dewp":17,"wdir":80,"wspd":9,"visib":"6+","altim":1022,"clouds":[{"cover":"FEW","base":4000}],"obsTime":1778011200},"SBVH":{"icaoId":"SBVH","flightCategory":"VFR","rawOb":"METAR SBVH 052000Z 08005KT 9999 SCT035 28/22 Q1015","temp":28,"dewp":22,"wdir":80,"wspd":5,"visib":"6+","altim":1015,"clouds":[{"cover":"SCT","base":3500}],"obsTime":1778011200},"SBAR":{"icaoId":"SBAR","flightCategory":"VFR","rawOb":"METAR SBAR 052000Z 16008KT 9999 SCT025 28/22 Q1014","temp":28,"dewp":22,"wdir":160,"wspd":8,"visib":"6+","altim":1014,"clouds":[{"cover":"SCT","base":2500}],"obsTime":1778011200},"SBBU":{"icaoId":"SBBU","flightCategory":"VFR","rawOb":"METAR SBBU 052000Z 20003KT CAVOK 29/19 Q1020","temp":29,"dewp":19,"wdir":200,"wspd":3,"visib":"6+","altim":1020,"clouds":[],"obsTime":1778011200},"SBCA":{"icaoId":"SBCA","flightCategory":"VFR","rawOb":"METAR SBCA 052000Z 04010KT 9999 FEW030 27/18 Q1020","temp":27,"dewp":18,"wdir":40,"wspd":10,"visib":"6+","altim":1020,"clouds":[{"cover":"FEW","base":3000}],"obsTime":1778011200},"SBCO":{"icaoId":"SBCO","flightCategory":"VFR","rawOb":"METAR SBCO 052000Z 23003KT 200V260 CAVOK 30/21 Q1015","temp":30,"dewp":21,"wdir":230,"wspd":3,"visib":"6+","altim":1015,"clouds":[],"obsTime":1778011200},"SBDN":{"icaoId":"SBDN","flightCategory":"VFR","rawOb":"METAR SBDN 052000Z 07005KT 9999 FEW049 32/17 Q1018","temp":32,"dewp":17,"wdir":70,"wspd":5,"visib":"6+","altim":1018,"clouds":[{"cover":"FEW","base":4900}],"obsTime":1778011200},"SBES":{"icaoId":"SBES","flightCategory":"VFR","rawOb":"METAR SBES 052000Z 06009KT 020V080 CAVOK 25/// Q1019","temp":null,"dewp":null,"wdir":60,"wspd":9,"visib":"6+","altim":1019,"clouds":[],"obsTime":1778011200},"SBIP":{"icaoId":"SBIP","flightCategory":"VFR","rawOb":"METAR SBIP 052000Z AUTO VRB02KT CAVOK 27/18 Q1019","temp":27,"dewp":18,"wdir":"VRB","wspd":2,"visib":"6+","altim":1019,"clouds":[],"obsTime":1778011200},"SBKG":{"icaoId":"SBKG","flightCategory":"VFR","rawOb":"METAR SBKG 052000Z 15005KT 9999 FEW022 BKN080 25/22 Q1015","temp":25,"dewp":22,"wdir":150,"wspd":5,"visib":"6+","altim":1015,"clouds":[{"cover":"FEW","base":2200},{"cover":"BKN","base":8000}],"obsTime":1778011200},"SBOI":{"icaoId":"SBOI","flightCategory":"VFR","rawOb":"METAR SBOI 052000Z AUTO 06004KT 030V110 CAVOK 29/24 Q1012","temp":29,"dewp":24,"wdir":60,"wspd":4,"visib":"6+","altim":1012,"clouds":[],"obsTime":1778011200},"SBPL":{"icaoId":"SBPL","flightCategory":"VFR","rawOb":"METAR SBPL 052000Z 12012KT 9999 FEW035 31/18 Q1014","temp":31,"dewp":18,"wdir":120,"wspd":12,"visib":"6+","altim":1014,"clouds":[{"cover":"FEW","base":3500}],"obsTime":1778011200},"SBPP":{"icaoId":"SBPP","flightCategory":"VFR","rawOb":"METAR SBPP 052000Z 05011KT 9999 SCT025 29/19 Q1017","temp":29,"dewp":19,"wdir":50,"wspd":11,"visib":"6+","altim":1017,"clouds":[{"cover":"SCT","base":2500}],"obsTime":1778011200},"SBPS":{"icaoId":"SBPS","flightCategory":"VFR","rawOb":"METAR SBPS 052000Z 17005KT 9999 FEW017 26/23 Q1017","temp":26,"dewp":23,"wdir":170,"wspd":5,"visib":"6+","altim":1017,"clouds":[{"cover":"FEW","base":1700}],"obsTime":1778011200},"SBSC":{"icaoId":"SBSC","flightCategory":"VFR","rawOb":"METAR SBSC 052000Z 25005KT CAVOK 26/22 Q1018","temp":26,"dewp":22,"wdir":250,"wspd":5,"visib":"6+","altim":1018,"clouds":[],"obsTime":1778011200},"SBSJ":{"icaoId":"SBSJ","flightCategory":"VFR","rawOb":"METAR SBSJ 052000Z 14006KT 9999 FEW048 27/17 Q1021","temp":27,"dewp":17,"wdir":140,"wspd":6,"visib":"6+","altim":1021,"clouds":[{"cover":"FEW","base":4800}],"obsTime":1778011200},"SBSM":{"icaoId":"SBSM","flightCategory":"VFR","rawOb":"METAR SBSM 052000Z 03004KT 330V080 9999 FEW045 31/21 Q1014","temp":31,"dewp":21,"wdir":30,"wspd":4,"visib":"6+","altim":1014,"clouds":[{"cover":"FEW","base":4500}],"obsTime":1778011200},"SBSR":{"icaoId":"SBSR","flightCategory":"VFR","rawOb":"METAR SBSR 052000Z 14005KT 9999 FEW040 31/13 Q1019","temp":31,"dewp":13,"wdir":140,"wspd":5,"visib":"6+","altim":1019,"clouds":[{"cover":"FEW","base":4000}],"obsTime":1778011200},"SBTF":{"icaoId":"SBTF","flightCategory":"VFR","rawOb":"METAR SBTF 052000Z 30007KT 9999 SCT008 28/26 Q1010","temp":28,"dewp":26,"wdir":300,"wspd":7,"visib":"6+","altim":1010,"clouds":[{"cover":"SCT","base":800}],"obsTime":1778011200},"SBTT":{"icaoId":"SBTT","flightCategory":"VFR","rawOb":"METAR SBTT 052000Z 16003KT 9999 FEW004 BKN100 25/22 Q1012","temp":25,"dewp":22,"wdir":160,"wspd":3,"visib":"6+","altim":1012,"clouds":[{"cover":"FEW","base":400},{"cover":"BKN","base":10000}],"obsTime":1778011200},"SBUY":{"icaoId":"SBUY","flightCategory":"VFR","rawOb":"METAR SBUY 052000Z 33004KT 9999 VCSH SCT025 FEW030TCU BKN100 30/25 Q1009","temp":30,"dewp":25,"wdir":330,"wspd":4,"visib":"6+","altim":1009,"clouds":[{"cover":"SCT","base":2500},{"cover":"FEW","base":3000},{"cover":"BKN","base":10000}],"obsTime":1778011200},"SBCC":{"icaoId":"SBCC","flightCategory":"VFR","rawOb":"METAR SBCC 052000Z 09010KT 9999 SCT030 SCT100 31/20 Q1013","temp":31,"dewp":20,"wdir":90,"wspd":10,"visib":"6+","altim":1013,"clouds":[{"cover":"SCT","base":3000},{"cover":"SCT","base":10000}],"obsTime":1778011200},"SBBQ":{"icaoId":"SBBQ","flightCategory":"VFR","rawOb":"METAR SBBQ 052000Z 10005KT CAVOK 23/14 Q1026","temp":23,"dewp":14,"wdir":100,"wspd":5,"visib":"6+","altim":1026,"clouds":[],"obsTime":1778011200},"SBJP":{"icaoId":"SBJP","flightCategory":"VFR","rawOb":"METAR SBJP 052000Z 13010KT 9999 FEW025 BKN100 27/23 Q1013","temp":27,"dewp":23,"wdir":130,"wspd":10,"visib":"6+","altim":1013,"clouds":[{"cover":"FEW","base":2500},{"cover":"BKN","base":10000}],"obsTime":1778011200},"SBAN":{"icaoId":"SBAN","flightCategory":"VFR","rawOb":"METAR SBAN 052000Z 19009KT CAVOK 25/13 Q1022","temp":25,"dewp":13,"wdir":190,"wspd":9,"visib":"6+","altim":1022,"clouds":[],"obsTime":1778011200},"SBJV":{"icaoId":"SBJV","flightCategory":"VFR","rawOb":"METAR SBJV 052000Z 15003KT 9999 FEW030 27/23 Q1017","temp":27,"dewp":23,"wdir":150,"wspd":3,"visib":"6+","altim":1017,"clouds":[{"cover":"FEW","base":3000}],"obsTime":1778011200},"SBNM":{"icaoId":"SBNM","flightCategory":"VFR","rawOb":"METAR SBNM 052000Z 04006KT 9999 SCT030 30/20 Q1016","temp":30,"dewp":20,"wdir":40,"wspd":6,"visib":"6+","altim":1016,"clouds":[{"cover":"SCT","base":3000}],"obsTime":1778011200},"SBPF":{"icaoId":"SBPF","flightCategory":"VFR","rawOb":"METAR SBPF 052000Z 34007KT CAVOK 28/17 Q1020","temp":28,"dewp":17,"wdir":340,"wspd":7,"visib":"6+","altim":1020,"clouds":[],"obsTime":1778011200},"SBLE":{"icaoId":"SBLE","flightCategory":"VFR","rawOb":"METAR SBLE 052000Z AUTO VRB02KT CAVOK 26/19 Q1018","temp":26,"dewp":19,"wdir":"VRB","wspd":2,"visib":"6+","altim":1018,"clouds":[],"obsTime":1778011200},"SBAF":{"icaoId":"SBAF","flightCategory":"VFR","rawOb":"METAR SBAF 052000Z 16005KT CAVOK 27/21 Q1018","temp":27,"dewp":21,"wdir":160,"wspd":5,"visib":"6+","altim":1018,"clouds":[],"obsTime":1778011200},"SBGW":{"icaoId":"SBGW","flightCategory":"VFR","rawOb":"METAR SBGW 052000Z 12005KT 030V190 9999 SCT025 FEW030TCU SCT070 26/14 Q1021","temp":26,"dewp":14,"wdir":120,"wspd":5,"visib":"6+","altim":1021,"clouds":[{"cover":"SCT","base":2500},{"cover":"FEW","base":3000},{"cover":"SCT","base":7000}],"obsTime":1778011200},"SBJR":{"icaoId":"SBJR","flightCategory":"VFR","rawOb":"METAR SBJR 052000Z 27002KT CAVOK 26/20 Q1018","temp":26,"dewp":20,"wdir":270,"wspd":2,"visib":"6+","altim":1018,"clouds":[],"obsTime":1778011200},"SBLS":{"icaoId":"SBLS","flightCategory":"VFR","rawOb":"METAR SBLS 052000Z 13008KT 9999 FEW040 25/17 Q1022","temp":25,"dewp":17,"wdir":130,"wspd":8,"visib":"6+","altim":1022,"clouds":[{"cover":"FEW","base":4000}],"obsTime":1778011200},"SBMT":{"icaoId":"SBMT","flightCategory":"VFR","rawOb":"METAR SBMT 052000Z 02003KT 340V050 CAVOK 27/16 Q1022","temp":27,"dewp":16,"wdir":20,"wspd":3,"visib":"6+","altim":1022,"clouds":[],"obsTime":1778011200},"SBST":{"icaoId":"SBST","flightCategory":"MVFR","rawOb":"METAR SBST 052000Z /////KT 8000 FEW020 SCT025 ///// Q1018","temp":null,"dewp":null,"wdir":null,"wspd":null,"visib":4.97,"altim":1018,"clouds":[{"cover":"FEW","base":2000},{"cover":"SCT","base":2500}],"obsTime":1778011200},"SBTA":{"icaoId":"SBTA","flightCategory":"VFR","rawOb":"METAR SBTA 052000Z 17010KT 140V210 9999 TS VCSH SCT040 FEW045CB SCT090 27/16 Q1021 RETS","temp":27,"dewp":16,"wdir":170,"wspd":10,"visib":"6+","altim":1021,"clouds":[{"cover":"SCT","base":4000},{"cover":"FEW","base":4500},{"cover":"SCT","base":9000}],"obsTime":1778011200},"SBIH":{"icaoId":"SBIH","flightCategory":"VFR","rawOb":"METAR SBIH 052000Z 04010KT 9999 TS VCSH SCT020 FEW025CB SCT080 30/26 Q1010","temp":30,"dewp":26,"wdir":40,"wspd":10,"visib":"6+","altim":1010,"clouds":[{"cover":"SCT","base":2000},{"cover":"FEW","base":2500},{"cover":"SCT","base":8000}],"obsTime":1778011200}}}