{"updated":1774682817,"count":49,"data":{"SBVT":{"icaoId":"SBVT","flightCategory":"MVFR","rawOb":"SPECI SBVT 280530Z 33003KT 9000 -RA FEW004 SCT010 BKN015 22/22 Q1016 RERA","temp":22,"dewp":22,"wdir":330,"wspd":3,"visib":5.59,"altim":1016,"clouds":[{"cover":"FEW","base":400},{"cover":"SCT","base":1000},{"cover":"BKN","base":1500}],"obsTime":1774675800},"SBBR":{"icaoId":"SBBR","flightCategory":"VFR","rawOb":"METAR SBBR 280600Z VRB02KT CAVOK 18/16 Q1019","temp":18,"dewp":16,"wdir":"VRB","wspd":2,"visib":"6+","altim":1019,"clouds":[],"obsTime":1774677600},"SBBV":{"icaoId":"SBBV","flightCategory":"VFR","rawOb":"METAR SBBV 280600Z 28003KT 9000 -TSRA SCT009 SCT030 FEW035CB BKN100 24/24 Q1011 RERA","temp":24,"dewp":24,"wdir":280,"wspd":3,"visib":5.59,"altim":1011,"clouds":[{"cover":"SCT","base":900},{"cover":"SCT","base":3000},{"cover":"FEW","base":3500},{"cover":"BKN","base":10000}],"obsTime":1774677600},"SBCF":{"icaoId":"SBCF","flightCategory":"VFR","rawOb":"METAR SBCF 280600Z 17004KT CAVOK 19/17 Q1020","temp":19,"dewp":17,"wdir":170,"wspd":4,"visib":"6+","altim":1020,"clouds":[],"obsTime":1774677600},"SBCG":{"icaoId":"SBCG","flightCategory":"VFR","rawOb":"METAR SBCG 280600Z 33005KT CAVOK 22/21 Q1016","temp":22,"dewp":21,"wdir":330,"wspd":5,"visib":"6+","altim":1016,"clouds":[],"obsTime":1774677600},"SBCT":{"icaoId":"SBCT","flightCategory":"MVFR","rawOb":"METAR SBCT 280600Z 09002KT 9999 BKN017 20/19 Q1022","temp":20,"dewp":19,"wdir":90,"wspd":2,"visib":"6+","altim":1022,"clouds":[{"cover":"BKN","base":1700}],"obsTime":1774677600},"SBEG":{"icaoId":"SBEG","flightCategory":"IFR","rawOb":"SPECI SBEG 280537Z 23005KT 9999 VCTS BKN007 SCT020 FEW035CB 25/24 Q1010","temp":25,"dewp":24,"wdir":230,"wspd":5,"visib":"6+","altim":1010,"clouds":[{"cover":"BKN","base":700},{"cover":"SCT","base":2000},{"cover":"FEW","base":3500}],"obsTime":1774676220},"SBFI":{"icaoId":"SBFI","flightCategory":"VFR","rawOb":"METAR SBFI 280600Z 07001KT CAVOK 25/23 Q1015","temp":25,"dewp":23,"wdir":70,"wspd":1,"visib":"6+","altim":1015,"clouds":[],"obsTime":1774677600},"SBFL":{"icaoId":"SBFL","flightCategory":"VFR","rawOb":"METAR SBFL 280600Z 36007KT 9999 FEW035 26/24 Q1017","temp":26,"dewp":24,"wdir":360,"wspd":7,"visib":"6+","altim":1017,"clouds":[{"cover":"FEW","base":3500}],"obsTime":1774677600},"SBFZ":{"icaoId":"SBFZ","flightCategory":"VFR","rawOb":"METAR SBFZ 280600Z VRB02KT 9999 SCT020 26/24 Q1009","temp":26,"dewp":24,"wdir":"VRB","wspd":2,"visib":"6+","altim":1009,"clouds":[{"cover":"SCT","base":2000}],"obsTime":1774677600},"SBGL":{"icaoId":"SBGL","flightCategory":"VFR","rawOb":"METAR SBGL 280600Z 10004KT CAVOK 24/21 Q1017","temp":24,"dewp":21,"wdir":100,"wspd":4,"visib":"6+","altim":1017,"clouds":[],"obsTime":1774677600},"SBGO":{"icaoId":"SBGO","flightCategory":"VFR","rawOb":"METAR SBGO 280600Z 13005KT CAVOK 21/18 Q1017","temp":21,"dewp":18,"wdir":130,"wspd":5,"visib":"6+","altim":1017,"clouds":[],"obsTime":1774677600},"SBGR":{"icaoId":"SBGR","flightCategory":"VFR","rawOb":"METAR SBGR 280600Z 00000KT CAVOK 18/17 Q1021","temp":18,"dewp":17,"wdir":0,"wspd":0,"visib":"6+","altim":1021,"clouds":[],"obsTime":1774677600},"SBJU":{"icaoId":"SBJU","flightCategory":"VFR","rawOb":"METAR SBJU 280600Z 18009KT 9999 VCTS SCT020 FEW020CB 24/20 Q1012","temp":24,"dewp":20,"wdir":180,"wspd":9,"visib":"6+","altim":1012,"clouds":[{"cover":"SCT","base":2000},{"cover":"FEW","base":2000}],"obsTime":1774677600},"SBKP":{"icaoId":"SBKP","flightCategory":"VFR","rawOb":"METAR SBKP 280600Z 06007KT CAVOK 21/18 Q1019","temp":21,"dewp":18,"wdir":60,"wspd":7,"visib":"6+","altim":1019,"clouds":[],"obsTime":1774677600},"SBLO":{"icaoId":"SBLO","flightCategory":"VFR","rawOb":"METAR SBLO 280600Z 11005KT CAVOK 23/20 Q1018","temp":23,"dewp":20,"wdir":110,"wspd":5,"visib":"6+","altim":1018,"clouds":[],"obsTime":1774677600},"SBMA":{"icaoId":"SBMA","flightCategory":"VFR","rawOb":"METAR SBMA 280600Z 02002KT 9999 FEW010 SCT015 25/25 Q1009","temp":25,"dewp":25,"wdir":20,"wspd":2,"visib":"6+","altim":1009,"clouds":[{"cover":"FEW","base":1000},{"cover":"SCT","base":1500}],"obsTime":1774677600},"SBME":{"icaoId":"SBME","flightCategory":"VFR","rawOb":"METAR SBME 280600Z 05003KT 9999 SCT010 23/22 Q1017","temp":23,"dewp":22,"wdir":50,"wspd":3,"visib":"6+","altim":1017,"clouds":[{"cover":"SCT","base":1000}],"obsTime":1774677600},"SBMG":{"icaoId":"SBMG","flightCategory":"VFR","rawOb":"METAR SBMG 280600Z AUTO 09013KT CAVOK 24/21 Q1016","temp":24,"dewp":21,"wdir":90,"wspd":13,"visib":"6+","altim":1016,"clouds":[],"obsTime":1774677600},"SBMK":{"icaoId":"SBMK","flightCategory":"VFR","rawOb":"METAR SBMK 280600Z 16004KT CAVOK 21/18 Q1017","temp":21,"dewp":18,"wdir":160,"wspd":4,"visib":"6+","altim":1017,"clouds":[],"obsTime":1774677600},"SBMO":{"icaoId":"SBMO","flightCategory":"MVFR","rawOb":"METAR SBMO 280600Z 28004KT 8000 FEW004 BKN019 23/23 Q1011","temp":23,"dewp":23,"wdir":280,"wspd":4,"visib":4.97,"altim":1011,"clouds":[{"cover":"FEW","base":400},{"cover":"BKN","base":1900}],"obsTime":1774677600},"SBMQ":{"icaoId":"SBMQ","flightCategory":"VFR","rawOb":"METAR SBMQ 280600Z 36004KT 9999 SCT016 26/25 Q1008","temp":26,"dewp":25,"wdir":360,"wspd":4,"visib":"6+","altim":1008,"clouds":[{"cover":"SCT","base":1600}],"obsTime":1774677600},"SBNT":{"icaoId":"SBNT","flightCategory":"VFR","rawOb":"METAR SBNT 280600Z 21003KT 9999 SCT020 25/23 Q1010","temp":25,"dewp":23,"wdir":210,"wspd":3,"visib":"6+","altim":1010,"clouds":[{"cover":"SCT","base":2000}],"obsTime":1774677600},"SBPA":{"icaoId":"SBPA","flightCategory":"VFR","rawOb":"METAR SBPA 280600Z 09002KT CAVOK 24/23 Q1015","temp":24,"dewp":23,"wdir":90,"wspd":2,"visib":"6+","altim":1015,"clouds":[],"obsTime":1774677600},"SBPJ":{"icaoId":"SBPJ","flightCategory":"VFR","rawOb":"METAR SBPJ 280600Z 03001KT 9999 FEW027 24/21 Q1010","temp":24,"dewp":21,"wdir":30,"wspd":1,"visib":"6+","altim":1010,"clouds":[{"cover":"FEW","base":2700}],"obsTime":1774677600},"SBPV":{"icaoId":"SBPV","flightCategory":"VFR","rawOb":"METAR SBPV 280600Z 00000KT CAVOK 25/23 Q1010","temp":25,"dewp":23,"wdir":0,"wspd":0,"visib":"6+","altim":1010,"clouds":[],"obsTime":1774677600},"SBRF":{"icaoId":"SBRF","flightCategory":"IFR","rawOb":"METAR SBRF 280600Z VRB02KT 9999 BKN006 FEW025TCU BKN100 25/24 Q1010","temp":25,"dewp":24,"wdir":"VRB","wspd":2,"visib":"6+","altim":1010,"clouds":[{"cover":"BKN","base":600},{"cover":"FEW","base":2500},{"cover":"BKN","base":10000}],"obsTime":1774677600},"SBSG":{"icaoId":"SBSG","flightCategory":"VFR","rawOb":"METAR SBSG 280600Z 21004KT 180V240 9999 SCT020 24/23 Q1010","temp":24,"dewp":23,"wdir":210,"wspd":4,"visib":"6+","altim":1010,"clouds":[{"cover":"SCT","base":2000}],"obsTime":1774677600},"SBSL":{"icaoId":"SBSL","flightCategory":"VFR","rawOb":"METAR SBSL 280600Z 12007KT CAVOK 26/24 Q1008","temp":26,"dewp":24,"wdir":120,"wspd":7,"visib":"6+","altim":1008,"clouds":[],"obsTime":1774677600},"SBSN":{"icaoId":"SBSN","flightCategory":"VFR","rawOb":"METAR SBSN 280600Z 06002KT 9999 VCTS SCT016 FEW023CB 25/24 Q1009 RETS","temp":25,"dewp":24,"wdir":60,"wspd":2,"visib":"6+","altim":1009,"clouds":[{"cover":"SCT","base":1600},{"cover":"FEW","base":2300}],"obsTime":1774677600},"SBSP":{"icaoId":"SBSP","flightCategory":"VFR","rawOb":"METAR SBSP 280600Z AUTO 14004KT CAVOK 19/16 Q1021","temp":19,"dewp":16,"wdir":140,"wspd":4,"visib":"6+","altim":1021,"clouds":[],"obsTime":1774677600},"SBSV":{"icaoId":"SBSV","flightCategory":"VFR","rawOb":"METAR SBSV 280600Z 09007KT 9999 SCT020 27/23 Q1011","temp":27,"dewp":23,"wdir":90,"wspd":7,"visib":"6+","altim":1011,"clouds":[{"cover":"SCT","base":2000}],"obsTime":1774677600},"SBTE":{"icaoId":"SBTE","flightCategory":"MVFR","rawOb":"METAR SBTE 280600Z 36002KT 9999 BKN012 OVC070 25/24 Q1008","temp":25,"dewp":24,"wdir":360,"wspd":2,"visib":"6+","altim":1008,"clouds":[{"cover":"BKN","base":1200},{"cover":"OVC","base":7000}],"obsTime":1774677600},"SBUL":{"icaoId":"SBUL","flightCategory":"VFR","rawOb":"METAR SBUL 280600Z 14006KT CAVOK 20/16 Q1019","temp":20,"dewp":16,"wdir":140,"wspd":6,"visib":"6+","altim":1019,"clouds":[],"obsTime":1774677600},"SBUR":{"icaoId":"SBUR","flightCategory":"VFR","rawOb":"METAR SBUR 280600Z 07007KT CAVOK 23/15 Q1018","temp":23,"dewp":15,"wdir":70,"wspd":7,"visib":"6+","altim":1018,"clouds":[],"obsTime":1774677600},"SBBE":{"icaoId":"SBBE","flightCategory":"VFR","rawOb":"METAR SBBE 280600Z 04003KT CAVOK 26/25 Q1009","temp":26,"dewp":25,"wdir":40,"wspd":3,"visib":"6+","altim":1009,"clouds":[],"obsTime":1774677600},"SBIP":{"icaoId":"SBIP","flightCategory":"VFR","rawOb":"METAR SBIP 280600Z AUTO 34002KT CAVOK 21/21 Q1017","temp":21,"dewp":21,"wdir":340,"wspd":2,"visib":"6+","altim":1017,"clouds":[],"obsTime":1774677600},"SBOI":{"icaoId":"SBOI","flightCategory":"VFR","rawOb":"METAR SBOI 280600Z AUTO 22002KT 9999 // FEW001/// SCT004/// BKN043/// 24/23 Q1009","temp":24,"dewp":23,"wdir":220,"wspd":2,"visib":"6+","altim":1009,"clouds":[{"cover":"FEW","base":100},{"cover":"SCT","base":400},{"cover":"BKN","base":4300}],"obsTime":1774677600},"SBAX":{"icaoId":"SBAX","flightCategory":"VFR","rawOb":"METAR SBAX 280600Z AUTO 11007KT CAVOK 18/16 Q1020","temp":18,"dewp":16,"wdir":110,"wspd":7,"visib":"6+","altim":1020,"clouds":[],"obsTime":1774677600},"SBDN":{"icaoId":"SBDN","flightCategory":"VFR","rawOb":"METAR SBDN 280600Z 11009KT CAVOK 24/18 Q1016","temp":24,"dewp":18,"wdir":110,"wspd":9,"visib":"6+","altim":1016,"clouds":[],"obsTime":1774677600},"SBSR":{"icaoId":"SBSR","flightCategory":"VFR","rawOb":"METAR SBSR 280600Z 10003KT CAVOK 24/18 Q1017","temp":24,"dewp":18,"wdir":100,"wspd":3,"visib":"6+","altim":1017,"clouds":[],"obsTime":1774677600},"SBAR":{"icaoId":"SBAR","flightCategory":"VFR","rawOb":"METAR SBAR 280600Z 12007KT 9999 FEW022 28/24 Q1010","temp":28,"dewp":24,"wdir":120,"wspd":7,"visib":"6+","altim":1010,"clouds":[{"cover":"FEW","base":2200}],"obsTime":1774677600},"SBKG":{"icaoId":"SBKG","flightCategory":"VFR","rawOb":"METAR SBKG 280600Z 00000KT 9999 SCT012 22/21 Q1012","temp":22,"dewp":21,"wdir":0,"wspd":0,"visib":"6+","altim":1012,"clouds":[{"cover":"SCT","base":1200}],"obsTime":1774677600},"SBPL":{"icaoId":"SBPL","flightCategory":"VFR","rawOb":"METAR SBPL 280600Z 10006KT 9999 FEW020 SCT070 25/21 Q1012","temp":25,"dewp":21,"wdir":100,"wspd":6,"visib":"6+","altim":1012,"clouds":[{"cover":"FEW","base":2000},{"cover":"SCT","base":7000}],"obsTime":1774677600},"SBPS":{"icaoId":"SBPS","flightCategory":"MVFR","rawOb":"METAR SBPS 280600Z 30003KT 9000 BKN015 FEW020TCU BKN070 23/23 Q1014 RETS","temp":23,"dewp":23,"wdir":300,"wspd":3,"visib":5.59,"altim":1014,"clouds":[{"cover":"BKN","base":1500},{"cover":"FEW","base":2000},{"cover":"BKN","base":7000}],"obsTime":1774677600},"SBSC":{"icaoId":"SBSC","flightCategory":"VFR","rawOb":"METAR SBSC 280600Z 13003KT CAVOK 23/20 Q1017","temp":23,"dewp":20,"wdir":130,"wspd":3,"visib":"6+","altim":1017,"clouds":[],"obsTime":1774677600},"SBLE":{"icaoId":"SBLE","flightCategory":"MVFR","rawOb":"METAR SBLE 280600Z AUTO 16005KT 7000 -RA SCT004 BKN015 OVC027 ///// Q////","temp":null,"dewp":null,"wdir":160,"wspd":5,"visib":4.35,"altim":null,"clouds":[{"cover":"SCT","base":400},{"cover":"BKN","base":1500},{"cover":"OVC","base":2700}],"obsTime":1774677600},"SBAN":{"icaoId":"SBAN","flightCategory":"VFR","rawOb":"METAR SBAN 280600Z 15006KT CAVOK 18/17 Q1021","temp":18,"dewp":17,"wdir":150,"wspd":6,"visib":"6+","altim":1021,"clouds":[],"obsTime":1774677600},"SBJP":{"icaoId":"SBJP","flightCategory":"VFR","rawOb":"METAR SBJP 280600Z 23004KT 9999 FEW020 25/23 Q1010","temp":25,"dewp":23,"wdir":230,"wspd":4,"visib":"6+","altim":1010,"clouds":[{"cover":"FEW","base":2000}],"obsTime":1774677600}}}