{"updated":1783191009,"count":86,"data":{"SBBV":{"icaoId":"SBBV","flightCategory":"MVFR","rawOb":"METAR SBBV 041700Z 10004KT 9999 BKN010 BKN015 OVC100 26/24 Q1014","temp":26,"dewp":24,"wdir":100,"wspd":4,"visib":"6+","altim":1014,"clouds":[{"cover":"BKN","base":1000},{"cover":"BKN","base":1500},{"cover":"OVC","base":10000}],"obsTime":1783184400},"SBCT":{"icaoId":"SBCT","flightCategory":"IFR","rawOb":"METAR SBCT 041700Z 02008KT 8000 BKN008 OVC020 14/13 Q1022","temp":14,"dewp":13,"wdir":20,"wspd":8,"visib":4.97,"altim":1022,"clouds":[{"cover":"BKN","base":800},{"cover":"OVC","base":2000}],"obsTime":1783184400},"SBSP":{"icaoId":"SBSP","flightCategory":"IFR","rawOb":"METAR SBSP 041700Z 18010KT 150V210 8000 BKN009 16/14 Q1023","temp":16,"dewp":14,"wdir":180,"wspd":10,"visib":4.97,"altim":1023,"clouds":[{"cover":"BKN","base":900}],"obsTime":1783184400},"SBFI":{"icaoId":"SBFI","flightCategory":"VFR","rawOb":"METAR SBFI 041700Z 17003KT CAVOK 18/11 Q1020","temp":18,"dewp":11,"wdir":170,"wspd":3,"visib":"6+","altim":1020,"clouds":[],"obsTime":1783184400},"SBCG":{"icaoId":"SBCG","flightCategory":"VFR","rawOb":"METAR SBCG 041700Z VRB02KT CAVOK 26/14 Q1020","temp":26,"dewp":14,"wdir":"VRB","wspd":2,"visib":"6+","altim":1020,"clouds":[],"obsTime":1783184400},"SBMQ":{"icaoId":"SBMQ","flightCategory":"VFR","rawOb":"METAR SBMQ 041700Z 18005KT 9999 SCT033 32/24 Q1011","temp":32,"dewp":24,"wdir":180,"wspd":5,"visib":"6+","altim":1011,"clouds":[{"cover":"SCT","base":3300}],"obsTime":1783184400},"SBCB":{"icaoId":"SBCB","flightCategory":"VFR","rawOb":"METAR SBCB 041700Z 27010KT 9999 FEW025 SCT070 23/20 Q1019","temp":23,"dewp":20,"wdir":270,"wspd":10,"visib":"6+","altim":1019,"clouds":[{"cover":"FEW","base":2500},{"cover":"SCT","base":7000}],"obsTime":1783184400},"SBCZ":{"icaoId":"SBCZ","flightCategory":"MVFR","rawOb":"METAR SBCZ 041700Z 12007KT 9999 BKN030 27/21 Q1017","temp":27,"dewp":21,"wdir":120,"wspd":7,"visib":"6+","altim":1017,"clouds":[{"cover":"BKN","base":3000}],"obsTime":1783184400},"SBNT":{"icaoId":"SBNT","flightCategory":"VFR","rawOb":"METAR SBNT 041700Z 14016KT 9000 -RA SCT021 OVC050 28/22 Q1014","temp":28,"dewp":22,"wdir":140,"wspd":16,"visib":5.59,"altim":1014,"clouds":[{"cover":"SCT","base":2100},{"cover":"OVC","base":5000}],"obsTime":1783184400},"SBMO":{"icaoId":"SBMO","flightCategory":"VFR","rawOb":"METAR SBMO 041700Z 07007KT 9999 FEW030 28/19 Q1016","temp":28,"dewp":19,"wdir":70,"wspd":7,"visib":"6+","altim":1016,"clouds":[{"cover":"FEW","base":3000}],"obsTime":1783184400},"SBEG":{"icaoId":"SBEG","flightCategory":"VFR","rawOb":"METAR SBEG 041700Z 11008KT 9999 FEW025 SCT100 32/21 Q1013","temp":32,"dewp":21,"wdir":110,"wspd":8,"visib":"6+","altim":1013,"clouds":[{"cover":"FEW","base":2500},{"cover":"SCT","base":10000}],"obsTime":1783184400},"SBVT":{"icaoId":"SBVT","flightCategory":"VFR","rawOb":"METAR SBVT 041700Z 16013KT 9999 FEW045 25/21 Q1018","temp":25,"dewp":21,"wdir":160,"wspd":13,"visib":"6+","altim":1018,"clouds":[{"cover":"FEW","base":4500}],"obsTime":1783184400},"SBKP":{"icaoId":"SBKP","flightCategory":"VFR","rawOb":"METAR SBKP 041700Z 16004KT 110V210 CAVOK 24/16 Q1021","temp":24,"dewp":16,"wdir":160,"wspd":4,"visib":"6+","altim":1021,"clouds":[],"obsTime":1783184400},"SBGR":{"icaoId":"SBGR","flightCategory":"VFR","rawOb":"METAR SBGR 041700Z 03005KT 9999 SCT020 20/15 Q1022","temp":20,"dewp":15,"wdir":30,"wspd":5,"visib":"6+","altim":1022,"clouds":[{"cover":"SCT","base":2000}],"obsTime":1783184400},"SBRB":{"icaoId":"SBRB","flightCategory":"VFR","rawOb":"METAR SBRB 041700Z 19006KT CAVOK 26/18 Q1018","temp":26,"dewp":18,"wdir":190,"wspd":6,"visib":"6+","altim":1018,"clouds":[],"obsTime":1783184400},"SBBR":{"icaoId":"SBBR","flightCategory":"VFR","rawOb":"METAR SBBR 041700Z 09005KT 020V130 CAVOK 26/11 Q1022","temp":26,"dewp":11,"wdir":90,"wspd":5,"visib":"6+","altim":1022,"clouds":[],"obsTime":1783184400},"SBCF":{"icaoId":"SBCF","flightCategory":"VFR","rawOb":"METAR SBCF 041700Z 17004KT 9999 SCT040 26/13 Q1021","temp":26,"dewp":13,"wdir":170,"wspd":4,"visib":"6+","altim":1021,"clouds":[{"cover":"SCT","base":4000}],"obsTime":1783184400},"SBIL":{"icaoId":"SBIL","flightCategory":"VFR","rawOb":"METAR SBIL 041700Z 17009KT 9999 FEW025 BKN070 28/20 Q1018","temp":28,"dewp":20,"wdir":170,"wspd":9,"visib":"6+","altim":1018,"clouds":[{"cover":"FEW","base":2500},{"cover":"BKN","base":7000}],"obsTime":1783184400},"SBGL":{"icaoId":"SBGL","flightCategory":"MVFR","rawOb":"METAR SBGL 041700Z 14007KT 100V210 8000 VCSH SCT009 BKN023 23/19 Q1019","temp":23,"dewp":19,"wdir":140,"wspd":7,"visib":4.97,"altim":1019,"clouds":[{"cover":"SCT","base":900},{"cover":"BKN","base":2300}],"obsTime":1783184400},"SBJU":{"icaoId":"SBJU","flightCategory":"VFR","rawOb":"METAR SBJU 041700Z 18010KT CAVOK 32/14 Q1016","temp":32,"dewp":14,"wdir":180,"wspd":10,"visib":"6+","altim":1016,"clouds":[],"obsTime":1783184400},"SBMG":{"icaoId":"SBMG","flightCategory":"VFR","rawOb":"METAR SBMG 041700Z VRB05KT 9999 FEW030 24/17 Q1019","temp":24,"dewp":17,"wdir":"VRB","wspd":5,"visib":"6+","altim":1019,"clouds":[{"cover":"FEW","base":3000}],"obsTime":1783184400},"SBRF":{"icaoId":"SBRF","flightCategory":"VFR","rawOb":"METAR SBRF 041700Z 15011KT 9999 SCT025 28/23 Q1015","temp":28,"dewp":23,"wdir":150,"wspd":11,"visib":"6+","altim":1015,"clouds":[{"cover":"SCT","base":2500}],"obsTime":1783184400},"SBAT":{"icaoId":"SBAT","flightCategory":"VFR","rawOb":"METAR SBAT 041700Z 14007KT CAVOK 33/16 Q1015","temp":33,"dewp":16,"wdir":140,"wspd":7,"visib":"6+","altim":1015,"clouds":[],"obsTime":1783184400},"SBHT":{"icaoId":"SBHT","flightCategory":"VFR","rawOb":"METAR SBHT 041700Z 10005KT 9999 SCT030 32/22 Q1012","temp":32,"dewp":22,"wdir":100,"wspd":5,"visib":"6+","altim":1012,"clouds":[{"cover":"SCT","base":3000}],"obsTime":1783184400},"SBME":{"icaoId":"SBME","flightCategory":"VFR","rawOb":"METAR SBME 041700Z 16009KT 9999 SCT023 25/20 Q1018","temp":25,"dewp":20,"wdir":160,"wspd":9,"visib":"6+","altim":1018,"clouds":[{"cover":"SCT","base":2300}],"obsTime":1783184400},"SBMK":{"icaoId":"SBMK","flightCategory":"VFR","rawOb":"METAR SBMK 041700Z 10006KT 9999 FEW040 27/14 Q1019","temp":27,"dewp":14,"wdir":100,"wspd":6,"visib":"6+","altim":1019,"clouds":[{"cover":"FEW","base":4000}],"obsTime":1783184400},"SBUL":{"icaoId":"SBUL","flightCategory":"VFR","rawOb":"METAR SBUL 041700Z 07009KT CAVOK 26/11 Q1021","temp":26,"dewp":11,"wdir":70,"wspd":9,"visib":"6+","altim":1021,"clouds":[],"obsTime":1783184400},"SBSL":{"icaoId":"SBSL","flightCategory":"VFR","rawOb":"METAR SBSL 041700Z 07011KT 9999 SCT020 BKN080 30/24 Q1012","temp":30,"dewp":24,"wdir":70,"wspd":11,"visib":"6+","altim":1012,"clouds":[{"cover":"SCT","base":2000},{"cover":"BKN","base":8000}],"obsTime":1783184400},"SBUR":{"icaoId":"SBUR","flightCategory":"VFR","rawOb":"METAR SBUR 041700Z 33007KT CAVOK 28/11 Q1020","temp":28,"dewp":11,"wdir":330,"wspd":7,"visib":"6+","altim":1020,"clouds":[],"obsTime":1783184400},"SBFZ":{"icaoId":"SBFZ","flightCategory":"VFR","rawOb":"METAR SBFZ 041700Z 15011KT 9999 SCT020 FEW025TCU BKN070 27/23 Q1013","temp":27,"dewp":23,"wdir":150,"wspd":11,"visib":"6+","altim":1013,"clouds":[{"cover":"SCT","base":2000},{"cover":"FEW","base":2500},{"cover":"BKN","base":7000}],"obsTime":1783184400},"SBCP":{"icaoId":"SBCP","flightCategory":"MVFR","rawOb":"METAR SBCP 041700Z 36005KT 9999 BKN030 28/17 Q1018","temp":28,"dewp":17,"wdir":360,"wspd":5,"visib":"6+","altim":1018,"clouds":[{"cover":"BKN","base":3000}],"obsTime":1783184400},"SBSV":{"icaoId":"SBSV","flightCategory":"IFR","rawOb":"METAR SBSV 041700Z 15007KT 120V190 4000 -RA BR BKN006 BKN019 FEW024TCU OVC030 24/21 Q1017","temp":24,"dewp":21,"wdir":150,"wspd":7,"visib":2.49,"altim":1017,"clouds":[{"cover":"BKN","base":600},{"cover":"BKN","base":1900},{"cover":"FEW","base":2400},{"cover":"OVC","base":3000}],"obsTime":1783184400},"SBPJ":{"icaoId":"SBPJ","flightCategory":"VFR","rawOb":"METAR SBPJ 041700Z 10004KT 060V150 9999 FEW040 35/15 Q1014","temp":35,"dewp":15,"wdir":100,"wspd":4,"visib":"6+","altim":1014,"clouds":[{"cover":"FEW","base":4000}],"obsTime":1783184400},"SBPV":{"icaoId":"SBPV","flightCategory":"VFR","rawOb":"METAR SBPV 041700Z 15007KT CAVOK 30/19 Q1014","temp":30,"dewp":19,"wdir":150,"wspd":7,"visib":"6+","altim":1014,"clouds":[],"obsTime":1783184400},"SBBE":{"icaoId":"SBBE","flightCategory":"VFR","rawOb":"METAR SBBE 041700Z 09006KT 9999 SCT040 31/24 Q1012","temp":31,"dewp":24,"wdir":90,"wspd":6,"visib":"6+","altim":1012,"clouds":[{"cover":"SCT","base":4000}],"obsTime":1783184400},"SBLO":{"icaoId":"SBLO","flightCategory":"VFR","rawOb":"METAR SBLO 041700Z 04007KT 360V070 9999 SCT015 21/18 Q1020","temp":21,"dewp":18,"wdir":40,"wspd":7,"visib":"6+","altim":1020,"clouds":[{"cover":"SCT","base":1500}],"obsTime":1783184400},"SBSG":{"icaoId":"SBSG","flightCategory":"VFR","rawOb":"METAR SBSG 041700Z 12009KT 100V160 9999 SCT021 SCT090 28/23 Q1014","temp":28,"dewp":23,"wdir":120,"wspd":9,"visib":"6+","altim":1014,"clouds":[{"cover":"SCT","base":2100},{"cover":"SCT","base":9000}],"obsTime":1783184400},"SBGO":{"icaoId":"SBGO","flightCategory":"VFR","rawOb":"METAR SBGO 041700Z VRB03KT CAVOK 30/09 Q1019","temp":30,"dewp":9,"wdir":"VRB","wspd":3,"visib":"6+","altim":1019,"clouds":[],"obsTime":1783184400},"SBTE":{"icaoId":"SBTE","flightCategory":"MVFR","rawOb":"METAR SBTE 041700Z 12006KT 9999 BKN025 33/19 Q1012","temp":33,"dewp":19,"wdir":120,"wspd":6,"visib":"6+","altim":1012,"clouds":[{"cover":"BKN","base":2500}],"obsTime":1783184400},"SBSN":{"icaoId":"SBSN","flightCategory":"VFR","rawOb":"METAR SBSN 041700Z 07010KT 9999 SCT023 32/23 Q1012","temp":32,"dewp":23,"wdir":70,"wspd":10,"visib":"6+","altim":1012,"clouds":[{"cover":"SCT","base":2300}],"obsTime":1783184400},"SBCR":{"icaoId":"SBCR","flightCategory":"MVFR","rawOb":"METAR SBCR 041700Z VRB01KT 9999 FEW009 BKN015 18/14 Q1019","temp":18,"dewp":14,"wdir":"VRB","wspd":1,"visib":"6+","altim":1019,"clouds":[{"cover":"FEW","base":900},{"cover":"BKN","base":1500}],"obsTime":1783184400},"SBMA":{"icaoId":"SBMA","flightCategory":"VFR","rawOb":"METAR SBMA 041700Z 10005KT 9999 SCT026 35/17 Q1012","temp":35,"dewp":17,"wdir":100,"wspd":5,"visib":"6+","altim":1012,"clouds":[{"cover":"SCT","base":2600}],"obsTime":1783184400},"SBFL":{"icaoId":"SBFL","flightCategory":"VFR","rawOb":"METAR SBFL 041700Z 13004KT 9999 FEW040 17/09 Q1022","temp":17,"dewp":9,"wdir":130,"wspd":4,"visib":"6+","altim":1022,"clouds":[{"cover":"FEW","base":4000}],"obsTime":1783184400},"SBPA":{"icaoId":"SBPA","flightCategory":"MVFR","rawOb":"METAR SBPA 041700Z 29005KT 260V330 9999 OVC020 11/07 Q1025","temp":11,"dewp":7,"wdir":290,"wspd":5,"visib":"6+","altim":1025,"clouds":[{"cover":"OVC","base":2000}],"obsTime":1783184400},"SBAR":{"icaoId":"SBAR","flightCategory":"VFR","rawOb":"METAR SBAR 041700Z 12006KT 9999 FEW025 BKN050 27/22 Q1016","temp":27,"dewp":22,"wdir":120,"wspd":6,"visib":"6+","altim":1016,"clouds":[{"cover":"FEW","base":2500},{"cover":"BKN","base":5000}],"obsTime":1783184400},"SBPP":{"icaoId":"SBPP","flightCategory":"VFR","rawOb":"METAR SBPP 041700Z 01004KT CAVOK 22/13 Q1020","temp":22,"dewp":13,"wdir":10,"wspd":4,"visib":"6+","altim":1020,"clouds":[],"obsTime":1783184400},"SBES":{"icaoId":"SBES","flightCategory":"VFR","rawOb":"METAR SBES 041700Z 23010KT 190V270 9999 SCT010 SCT080 23/// Q1019","temp":null,"dewp":null,"wdir":230,"wspd":10,"visib":"6+","altim":1019,"clouds":[{"cover":"SCT","base":1000},{"cover":"SCT","base":8000}],"obsTime":1783184400},"SBTU":{"icaoId":"SBTU","flightCategory":"VFR","rawOb":"METAR SBTU 041700Z AUTO 32007KT 250V360 9999 // NCD 32/19 Q1014","temp":32,"dewp":19,"wdir":320,"wspd":7,"visib":"6+","altim":1014,"clouds":[],"obsTime":1783184400},"SBUY":{"icaoId":"SBUY","flightCategory":"VFR","rawOb":"METAR SBUY 041700Z 15005KT 9999 SCT025 29/22 Q1013","temp":29,"dewp":22,"wdir":150,"wspd":5,"visib":"6+","altim":1013,"clouds":[{"cover":"SCT","base":2500}],"obsTime":1783184400},"SBSJ":{"icaoId":"SBSJ","flightCategory":"MVFR","rawOb":"METAR SBSJ 041700Z 01003KT 010V160 9999 FEW013 BKN015 20/16 Q1022","temp":20,"dewp":16,"wdir":10,"wspd":3,"visib":"6+","altim":1022,"clouds":[{"cover":"FEW","base":1300},{"cover":"BKN","base":1500}],"obsTime":1783184400},"SBCJ":{"icaoId":"SBCJ","flightCategory":"VFR","rawOb":"METAR SBCJ 041700Z 22004KT 9999 SCT025 31/15 Q1016","temp":31,"dewp":15,"wdir":220,"wspd":4,"visib":"6+","altim":1016,"clouds":[{"cover":"SCT","base":2500}],"obsTime":1783184400},"SBOI":{"icaoId":"SBOI","flightCategory":"VFR","rawOb":"METAR SBOI 041700Z AUTO 12006KT 080V160 CAVOK 31/25 Q1012","temp":31,"dewp":25,"wdir":120,"wspd":6,"visib":"6+","altim":1012,"clouds":[],"obsTime":1783184400},"SBTF":{"icaoId":"SBTF","flightCategory":"VFR","rawOb":"METAR SBTF 041700Z 14008KT 9999 SCT020 31/23 Q1013","temp":31,"dewp":23,"wdir":140,"wspd":8,"visib":"6+","altim":1013,"clouds":[{"cover":"SCT","base":2000}],"obsTime":1783184400},"SBKG":{"icaoId":"SBKG","flightCategory":"MVFR","rawOb":"METAR SBKG 041700Z 13008KT 9999 BKN020 BKN080 24/20 Q1017","temp":24,"dewp":20,"wdir":130,"wspd":8,"visib":"6+","altim":1017,"clouds":[{"cover":"BKN","base":2000},{"cover":"BKN","base":8000}],"obsTime":1783184400},"SBCO":{"icaoId":"SBCO","flightCategory":"MVFR","rawOb":"METAR SBCO 041700Z 28006KT 9999 BKN022 11/06 Q1026","temp":11,"dewp":6,"wdir":280,"wspd":6,"visib":"6+","altim":1026,"clouds":[{"cover":"BKN","base":2200}],"obsTime":1783184400},"SBSM":{"icaoId":"SBSM","flightCategory":"MVFR","rawOb":"METAR SBSM 041700Z 10007KT 070V150 9999 BKN025 11/05 Q1025","temp":11,"dewp":5,"wdir":100,"wspd":7,"visib":"6+","altim":1025,"clouds":[{"cover":"BKN","base":2500}],"obsTime":1783184400},"SBCC":{"icaoId":"SBCC","flightCategory":"VFR","rawOb":"METAR SBCC 041700Z 04007KT CAVOK 32/14 Q1016","temp":32,"dewp":14,"wdir":40,"wspd":7,"visib":"6+","altim":1016,"clouds":[],"obsTime":1783184400},"SBGM":{"icaoId":"SBGM","flightCategory":"VFR","rawOb":"METAR SBGM 041700Z 13008KT CAVOK 26/17 Q1017","temp":26,"dewp":17,"wdir":130,"wspd":8,"visib":"6+","altim":1017,"clouds":[],"obsTime":1783184400},"SBVH":{"icaoId":"SBVH","flightCategory":"VFR","rawOb":"METAR SBVH 041700Z 06007KT 360V090 CAVOK 26/16 Q1019","temp":26,"dewp":16,"wdir":60,"wspd":7,"visib":"6+","altim":1019,"clouds":[],"obsTime":1783184400},"SBAX":{"icaoId":"SBAX","flightCategory":"VFR","rawOb":"METAR SBAX 041700Z AUTO VRB02KT CAVOK 26/11 Q1021","temp":26,"dewp":11,"wdir":"VRB","wspd":2,"visib":"6+","altim":1021,"clouds":[],"obsTime":1783184400},"SBBH":{"icaoId":"SBBH","flightCategory":"VFR","rawOb":"METAR SBBH 041700Z 22003KT 9999 FEW045 27/14 Q1020","temp":27,"dewp":14,"wdir":220,"wspd":3,"visib":"6+","altim":1020,"clouds":[{"cover":"FEW","base":4500}],"obsTime":1783184400},"SBBQ":{"icaoId":"SBBQ","flightCategory":"VFR","rawOb":"METAR SBBQ 041700Z 10007KT 060V140 9999 FEW030 22/14 Q1024","temp":22,"dewp":14,"wdir":100,"wspd":7,"visib":"6+","altim":1024,"clouds":[{"cover":"FEW","base":3000}],"obsTime":1783184400},"SBBU":{"icaoId":"SBBU","flightCategory":"VFR","rawOb":"METAR SBBU 041700Z 15004KT 9999 FEW035 26/17 Q1020","temp":26,"dewp":17,"wdir":150,"wspd":4,"visib":"6+","altim":1020,"clouds":[{"cover":"FEW","base":3500}],"obsTime":1783184400},"SBDN":{"icaoId":"SBDN","flightCategory":"VFR","rawOb":"METAR SBDN 041700Z 09004KT 9999 FEW020 24/18 Q1020","temp":24,"dewp":18,"wdir":90,"wspd":4,"visib":"6+","altim":1020,"clouds":[{"cover":"FEW","base":2000}],"obsTime":1783184400},"SBIP":{"icaoId":"SBIP","flightCategory":"VFR","rawOb":"METAR SBIP 041700Z AUTO VRB02KT 9999 FEW047 28/15 Q1019","temp":28,"dewp":15,"wdir":"VRB","wspd":2,"visib":"6+","altim":1019,"clouds":[{"cover":"FEW","base":4700}],"obsTime":1783184400},"SBSC":{"icaoId":"SBSC","flightCategory":"IFR","rawOb":"METAR SBSC 041700Z 15009KT 4000 -RA BR BKN007 OVC012 20/19 Q1020","temp":20,"dewp":19,"wdir":150,"wspd":9,"visib":2.49,"altim":1020,"clouds":[{"cover":"BKN","base":700},{"cover":"OVC","base":1200}],"obsTime":1783184400},"SBSR":{"icaoId":"SBSR","flightCategory":"VFR","rawOb":"METAR SBSR 041700Z VRB02KT 9999 FEW030 29/12 Q1019","temp":29,"dewp":12,"wdir":"VRB","wspd":2,"visib":"6+","altim":1019,"clouds":[{"cover":"FEW","base":3000}],"obsTime":1783184400},"SBPL":{"icaoId":"SBPL","flightCategory":"VFR","rawOb":"METAR SBPL 041700Z 10011KT CAVOK 30/14 Q1016","temp":30,"dewp":14,"wdir":100,"wspd":11,"visib":"6+","altim":1016,"clouds":[],"obsTime":1783184400},"SBTT":{"icaoId":"SBTT","flightCategory":"MVFR","rawOb":"METAR SBTT 041700Z 20008KT 160V230 9999 BKN016 OVC025 25/21 Q1016","temp":25,"dewp":21,"wdir":200,"wspd":8,"visib":"6+","altim":1016,"clouds":[{"cover":"BKN","base":1600},{"cover":"OVC","base":2500}],"obsTime":1783184400},"SBPB":{"icaoId":"SBPB","flightCategory":"VFR","rawOb":"METAR SBPB 041700Z 11008KT 9999 SCT018 BKN090 31/23 Q1012","temp":31,"dewp":23,"wdir":110,"wspd":8,"visib":"6+","altim":1012,"clouds":[{"cover":"SCT","base":1800},{"cover":"BKN","base":9000}],"obsTime":1783184400},"SBPS":{"icaoId":"SBPS","flightCategory":"VFR","rawOb":"METAR SBPS 041700Z 14005KT 100V190 9999 SCT020 BKN060 25/21 Q1018","temp":25,"dewp":21,"wdir":140,"wspd":5,"visib":"6+","altim":1018,"clouds":[{"cover":"SCT","base":2000},{"cover":"BKN","base":6000}],"obsTime":1783184400},"SBJP":{"icaoId":"SBJP","flightCategory":"VFR","rawOb":"METAR SBJP 041700Z 12012KT 9999 SCT020 BKN070 28/22 Q1015","temp":28,"dewp":22,"wdir":120,"wspd":12,"visib":"6+","altim":1015,"clouds":[{"cover":"SCT","base":2000},{"cover":"BKN","base":7000}],"obsTime":1783184400},"SBJV":{"icaoId":"SBJV","flightCategory":"VFR","rawOb":"METAR SBJV 041700Z 35004KT 9999 BKN035 15/09 Q1023","temp":15,"dewp":9,"wdir":350,"wspd":4,"visib":"6+","altim":1023,"clouds":[{"cover":"BKN","base":3500}],"obsTime":1783184400},"SBAN":{"icaoId":"SBAN","flightCategory":"VFR","rawOb":"METAR SBAN 041700Z 36006KT CAVOK 27/08 Q1022","temp":27,"dewp":8,"wdir":360,"wspd":6,"visib":"6+","altim":1022,"clouds":[],"obsTime":1783184400},"SBTC":{"icaoId":"SBTC","flightCategory":"VFR","rawOb":"METAR SBTC 041700Z 14005KT 9999 VCSH SCT020 BKN070 25/20 Q1018","temp":25,"dewp":20,"wdir":140,"wspd":5,"visib":"6+","altim":1018,"clouds":[{"cover":"SCT","base":2000},{"cover":"BKN","base":7000}],"obsTime":1783184400},"SBNM":{"icaoId":"SBNM","flightCategory":"VFR","rawOb":"METAR SBNM 041700Z 13007KT 9999 FEW005 SCT100 11/06 Q1022","temp":11,"dewp":6,"wdir":130,"wspd":7,"visib":"6+","altim":1022,"clouds":[{"cover":"FEW","base":500},{"cover":"SCT","base":10000}],"obsTime":1783184400},"SBPF":{"icaoId":"SBPF","flightCategory":"VFR","rawOb":"METAR SBPF 041700Z AUTO 14011KT 9999 NSC 10/06 Q1023","temp":10,"dewp":6,"wdir":140,"wspd":11,"visib":"6+","altim":1023,"clouds":[],"obsTime":1783184400},"SBIH":{"icaoId":"SBIH","flightCategory":"VFR","rawOb":"METAR SBIH 041700Z 07004KT 9999 FEW020 35/20 Q1012","temp":35,"dewp":20,"wdir":70,"wspd":4,"visib":"6+","altim":1012,"clouds":[{"cover":"FEW","base":2000}],"obsTime":1783184400},"SBGW":{"icaoId":"SBGW","flightCategory":"MVFR","rawOb":"METAR SBGW 041700Z 26003KT 8000 SCT020 BKN040 22/14 Q1021","temp":22,"dewp":14,"wdir":260,"wspd":3,"visib":4.97,"altim":1021,"clouds":[{"cover":"SCT","base":2000},{"cover":"BKN","base":4000}],"obsTime":1783184400},"SBJR":{"icaoId":"SBJR","flightCategory":"IFR","rawOb":"METAR SBJR 041700Z 20007KT 3000 -RA BR BKN005 OVC010 20/19 Q1020","temp":20,"dewp":19,"wdir":200,"wspd":7,"visib":1.86,"altim":1020,"clouds":[{"cover":"BKN","base":500},{"cover":"OVC","base":1000}],"obsTime":1783184400},"SBLS":{"icaoId":"SBLS","flightCategory":"VFR","rawOb":"METAR SBLS 041700Z 17005KT 090V210 9999 FEW048 26/12 Q1020","temp":26,"dewp":12,"wdir":170,"wspd":5,"visib":"6+","altim":1020,"clouds":[{"cover":"FEW","base":4800}],"obsTime":1783184400},"SBMT":{"icaoId":"SBMT","flightCategory":"MVFR","rawOb":"METAR SBMT 041700Z 10004KT 360V150 8000 BKN023 22/15 Q1022","temp":22,"dewp":15,"wdir":100,"wspd":4,"visib":4.97,"altim":1022,"clouds":[{"cover":"BKN","base":2300}],"obsTime":1783184400},"SBAF":{"icaoId":"SBAF","flightCategory":"MVFR","rawOb":"METAR SBAF 041700Z 18015KT 6000 VCSH SCT005 BKN018 BKN030 21/21 Q1020","temp":21,"dewp":21,"wdir":180,"wspd":15,"visib":3.73,"altim":1020,"clouds":[{"cover":"SCT","base":500},{"cover":"BKN","base":1800},{"cover":"BKN","base":3000}],"obsTime":1783184400},"SBTA":{"icaoId":"SBTA","flightCategory":"MVFR","rawOb":"METAR SBTA 041700Z 00000KT 8000 BKN025 BKN030 22/16 Q1021","temp":22,"dewp":16,"wdir":0,"wspd":0,"visib":4.97,"altim":1021,"clouds":[{"cover":"BKN","base":2500},{"cover":"BKN","base":3000}],"obsTime":1783184400},"SBLE":{"icaoId":"SBLE","flightCategory":"VFR","rawOb":"METAR SBLE 041700Z AUTO VRB03KT 9999 BKN048 ///// Q1019","temp":null,"dewp":null,"wdir":"VRB","wspd":3,"visib":"6+","altim":1019,"clouds":[{"cover":"BKN","base":4800}],"obsTime":1783184400},"SBST":{"icaoId":"SBST","flightCategory":"MVFR","rawOb":"METAR SBST 041700Z 19001KT 6000 2000N DZ OVC016 17/15 Q1022","temp":17,"dewp":15,"wdir":190,"wspd":1,"visib":3.73,"altim":1022,"clouds":[{"cover":"OVC","base":1600}],"obsTime":1783184400}}}