{"updated":1783213949,"count":63,"data":{"SBMK":{"icaoId":"SBMK","flightCategory":"VFR","rawOb":"METAR SBMK 050000Z 00000KT CAVOK 21/14 Q1020","temp":21,"dewp":14,"wdir":0,"wspd":0,"visib":"6+","altim":1020,"clouds":[],"obsTime":1783209600},"SBUL":{"icaoId":"SBUL","flightCategory":"VFR","rawOb":"METAR SBUL 050000Z 12003KT CAVOK 22/11 Q1022","temp":22,"dewp":11,"wdir":120,"wspd":3,"visib":"6+","altim":1022,"clouds":[],"obsTime":1783209600},"SBUR":{"icaoId":"SBUR","flightCategory":"VFR","rawOb":"METAR SBUR 050000Z 15004KT CAVOK 23/13 Q1021","temp":23,"dewp":13,"wdir":150,"wspd":4,"visib":"6+","altim":1021,"clouds":[],"obsTime":1783209600},"SBCT":{"icaoId":"SBCT","flightCategory":"IFR","rawOb":"METAR SBCT 050000Z 13005KT 9999 BKN009 OVC015 10/09 Q1024","temp":10,"dewp":9,"wdir":130,"wspd":5,"visib":"6+","altim":1024,"clouds":[{"cover":"BKN","base":900},{"cover":"OVC","base":1500}],"obsTime":1783209600},"SBPV":{"icaoId":"SBPV","flightCategory":"VFR","rawOb":"METAR SBPV 050000Z 00000KT CAVOK 24/19 Q1013","temp":24,"dewp":19,"wdir":0,"wspd":0,"visib":"6+","altim":1013,"clouds":[],"obsTime":1783209600},"SBVT":{"icaoId":"SBVT","flightCategory":"VFR","rawOb":"METAR SBVT 050000Z 30002KT 9999 FEW011 SCT040 20/20 Q1020","temp":20,"dewp":20,"wdir":300,"wspd":2,"visib":"6+","altim":1020,"clouds":[{"cover":"FEW","base":1100},{"cover":"SCT","base":4000}],"obsTime":1783209600},"SBMQ":{"icaoId":"SBMQ","flightCategory":"VFR","rawOb":"METAR SBMQ 050000Z 00000KT 9999 SCT025 OVC070 26/25 Q1013","temp":26,"dewp":25,"wdir":0,"wspd":0,"visib":"6+","altim":1013,"clouds":[{"cover":"SCT","base":2500},{"cover":"OVC","base":7000}],"obsTime":1783209600},"SBGR":{"icaoId":"SBGR","flightCategory":"IFR","rawOb":"METAR SBGR 050000Z 15002KT 4000 -DZ BR OVC006 13/12 Q1024","temp":13,"dewp":12,"wdir":150,"wspd":2,"visib":2.49,"altim":1024,"clouds":[{"cover":"OVC","base":600}],"obsTime":1783209600},"SBMO":{"icaoId":"SBMO","flightCategory":"VFR","rawOb":"METAR SBMO 050000Z 10002KT CAVOK 24/20 Q1018","temp":24,"dewp":20,"wdir":100,"wspd":2,"visib":"6+","altim":1018,"clouds":[],"obsTime":1783209600},"SBFI":{"icaoId":"SBFI","flightCategory":"VFR","rawOb":"METAR SBFI 050000Z 15003KT CAVOK 13/12 Q1019","temp":13,"dewp":12,"wdir":150,"wspd":3,"visib":"6+","altim":1019,"clouds":[],"obsTime":1783209600},"SBSG":{"icaoId":"SBSG","flightCategory":"MVFR","rawOb":"METAR SBSG 050000Z 11005KT 090V160 7000 -RA SCT019 BKN030 24/23 Q1016","temp":24,"dewp":23,"wdir":110,"wspd":5,"visib":4.35,"altim":1016,"clouds":[{"cover":"SCT","base":1900},{"cover":"BKN","base":3000}],"obsTime":1783209600},"SBBV":{"icaoId":"SBBV","flightCategory":"VFR","rawOb":"METAR SBBV 050000Z 36006KT 9999 VCTS FEW010 SCT030 FEW045CB BKN100 25/24 Q1013","temp":25,"dewp":24,"wdir":360,"wspd":6,"visib":"6+","altim":1013,"clouds":[{"cover":"FEW","base":1000},{"cover":"SCT","base":3000},{"cover":"FEW","base":4500},{"cover":"BKN","base":10000}],"obsTime":1783209600},"SBMA":{"icaoId":"SBMA","flightCategory":"VFR","rawOb":"METAR SBMA 050000Z 00000KT CAVOK 27/19 Q1013","temp":27,"dewp":19,"wdir":0,"wspd":0,"visib":"6+","altim":1013,"clouds":[],"obsTime":1783209600},"SBPA":{"icaoId":"SBPA","flightCategory":"MVFR","rawOb":"METAR SBPA 050000Z 00000KT 9999 OVC019 11/08 Q1025","temp":11,"dewp":8,"wdir":0,"wspd":0,"visib":"6+","altim":1025,"clouds":[{"cover":"OVC","base":1900}],"obsTime":1783209600},"SBFL":{"icaoId":"SBFL","flightCategory":"VFR","rawOb":"METAR SBFL 050000Z 25004KT CAVOK 12/11 Q1024","temp":12,"dewp":11,"wdir":250,"wspd":4,"visib":"6+","altim":1024,"clouds":[],"obsTime":1783209600},"SBPJ":{"icaoId":"SBPJ","flightCategory":"VFR","rawOb":"METAR SBPJ 050000Z 13004KT CAVOK 26/19 Q1015","temp":26,"dewp":19,"wdir":130,"wspd":4,"visib":"6+","altim":1015,"clouds":[],"obsTime":1783209600},"SBCG":{"icaoId":"SBCG","flightCategory":"VFR","rawOb":"METAR SBCG 050000Z 09001KT CAVOK 18/16 Q1020","temp":18,"dewp":16,"wdir":90,"wspd":1,"visib":"6+","altim":1020,"clouds":[],"obsTime":1783209600},"SBKP":{"icaoId":"SBKP","flightCategory":"VFR","rawOb":"METAR SBKP 050000Z 12012KT CAVOK 16/14 Q1022","temp":16,"dewp":14,"wdir":120,"wspd":12,"visib":"6+","altim":1022,"clouds":[],"obsTime":1783209600},"SBBR":{"icaoId":"SBBR","flightCategory":"VFR","rawOb":"METAR SBBR 050000Z VRB02KT CAVOK 20/13 Q1023","temp":20,"dewp":13,"wdir":"VRB","wspd":2,"visib":"6+","altim":1023,"clouds":[],"obsTime":1783209600},"SBLO":{"icaoId":"SBLO","flightCategory":"VFR","rawOb":"METAR SBLO 050000Z 04002KT CAVOK 19/17 Q1020","temp":19,"dewp":17,"wdir":40,"wspd":2,"visib":"6+","altim":1020,"clouds":[],"obsTime":1783209600},"SBRB":{"icaoId":"SBRB","flightCategory":"MVFR","rawOb":"METAR SBRB 050000Z 00000KT 8000 NSC 22/19 Q1015","temp":22,"dewp":19,"wdir":0,"wspd":0,"visib":4.97,"altim":1015,"clouds":[],"obsTime":1783209600},"SBGL":{"icaoId":"SBGL","flightCategory":"MVFR","rawOb":"METAR SBGL 050000Z 24008KT 210V280 9999 FEW009 BKN017 OVC023 20/17 Q1021","temp":20,"dewp":17,"wdir":240,"wspd":8,"visib":"6+","altim":1021,"clouds":[{"cover":"FEW","base":900},{"cover":"BKN","base":1700},{"cover":"OVC","base":2300}],"obsTime":1783209600},"SBGO":{"icaoId":"SBGO","flightCategory":"VFR","rawOb":"METAR SBGO 050000Z 35003KT CAVOK 20/13 Q1020","temp":20,"dewp":13,"wdir":350,"wspd":3,"visib":"6+","altim":1020,"clouds":[],"obsTime":1783209600},"SBTE":{"icaoId":"SBTE","flightCategory":"VFR","rawOb":"METAR SBTE 050000Z 02004KT CAVOK 29/22 Q1013","temp":29,"dewp":22,"wdir":20,"wspd":4,"visib":"6+","altim":1013,"clouds":[],"obsTime":1783209600},"SBNT":{"icaoId":"SBNT","flightCategory":"MVFR","rawOb":"METAR SBNT 050000Z VRB02KT 8000 VCSH SCT010 BKN017 FEW025TCU 24/23 Q1016","temp":24,"dewp":23,"wdir":"VRB","wspd":2,"visib":4.97,"altim":1016,"clouds":[{"cover":"SCT","base":1000},{"cover":"BKN","base":1700},{"cover":"FEW","base":2500}],"obsTime":1783209600},"SBFZ":{"icaoId":"SBFZ","flightCategory":"MVFR","rawOb":"METAR SBFZ 050000Z 10009KT 7000 -RA FEW007 BKN020 OVC040 25/23 Q1015","temp":25,"dewp":23,"wdir":100,"wspd":9,"visib":4.35,"altim":1015,"clouds":[{"cover":"FEW","base":700},{"cover":"BKN","base":2000},{"cover":"OVC","base":4000}],"obsTime":1783209600},"SBEG":{"icaoId":"SBEG","flightCategory":"VFR","rawOb":"METAR SBEG 050000Z 25001KT CAVOK 26/24 Q1012","temp":26,"dewp":24,"wdir":250,"wspd":1,"visib":"6+","altim":1012,"clouds":[],"obsTime":1783209600},"SBCF":{"icaoId":"SBCF","flightCategory":"VFR","rawOb":"METAR SBCF 050000Z 14007KT CAVOK 21/15 Q1022","temp":21,"dewp":15,"wdir":140,"wspd":7,"visib":"6+","altim":1022,"clouds":[],"obsTime":1783209600},"SBSN":{"icaoId":"SBSN","flightCategory":"VFR","rawOb":"METAR SBSN 050000Z 16003KT CAVOK 26/24 Q1012","temp":26,"dewp":24,"wdir":160,"wspd":3,"visib":"6+","altim":1012,"clouds":[],"obsTime":1783209600},"SBSP":{"icaoId":"SBSP","flightCategory":"LIFR","rawOb":"METAR SBSP 050000Z 13004KT 090V180 3000 BR BKN004 12/12 Q1025","temp":12,"dewp":12,"wdir":130,"wspd":4,"visib":1.86,"altim":1025,"clouds":[{"cover":"BKN","base":400}],"obsTime":1783209600},"SBRF":{"icaoId":"SBRF","flightCategory":"VFR","rawOb":"METAR SBRF 050000Z 19007KT 9999 SCT016 SCT040 24/22 Q1017","temp":24,"dewp":22,"wdir":190,"wspd":7,"visib":"6+","altim":1017,"clouds":[{"cover":"SCT","base":1600},{"cover":"SCT","base":4000}],"obsTime":1783209600},"SBSV":{"icaoId":"SBSV","flightCategory":"IFR","rawOb":"SPECI SBSV 042348Z 21010KT 4000 RA BR BKN006 BKN014 FEW020TCU OVC025 23/22 Q1018","temp":23,"dewp":22,"wdir":210,"wspd":10,"visib":2.49,"altim":1018,"clouds":[{"cover":"BKN","base":600},{"cover":"BKN","base":1400},{"cover":"FEW","base":2000},{"cover":"OVC","base":2500}],"obsTime":1783208880},"SBSL":{"icaoId":"SBSL","flightCategory":"VFR","rawOb":"METAR SBSL 050000Z 17006KT 9999 FEW017 SCT080 25/24 Q1014","temp":25,"dewp":24,"wdir":170,"wspd":6,"visib":"6+","altim":1014,"clouds":[{"cover":"FEW","base":1700},{"cover":"SCT","base":8000}],"obsTime":1783209600},"SBIL":{"icaoId":"SBIL","flightCategory":"VFR","rawOb":"METAR SBIL 050000Z 30005KT 9999 VCSH SCT020 BKN050 23/22 Q1019","temp":23,"dewp":22,"wdir":300,"wspd":5,"visib":"6+","altim":1019,"clouds":[{"cover":"SCT","base":2000},{"cover":"BKN","base":5000}],"obsTime":1783209600},"SBJU":{"icaoId":"SBJU","flightCategory":"VFR","rawOb":"METAR SBJU 050000Z 00000KT CAVOK 25/17 Q1017","temp":25,"dewp":17,"wdir":0,"wspd":0,"visib":"6+","altim":1017,"clouds":[],"obsTime":1783209600},"SBBE":{"icaoId":"SBBE","flightCategory":"VFR","rawOb":"METAR SBBE 050000Z 09004KT 9999 SCT035 26/25 Q1014","temp":26,"dewp":25,"wdir":90,"wspd":4,"visib":"6+","altim":1014,"clouds":[{"cover":"SCT","base":3500}],"obsTime":1783209600},"SBMG":{"icaoId":"SBMG","flightCategory":"VFR","rawOb":"METAR SBMG 050000Z 06006KT 9999 FEW045 20/16 Q1019","temp":20,"dewp":16,"wdir":60,"wspd":6,"visib":"6+","altim":1019,"clouds":[{"cover":"FEW","base":4500}],"obsTime":1783209600},"SBME":{"icaoId":"SBME","flightCategory":"MVFR","rawOb":"METAR SBME 050000Z 23005KT 9999 BKN015 22/19 Q1021","temp":22,"dewp":19,"wdir":230,"wspd":5,"visib":"6+","altim":1021,"clouds":[{"cover":"BKN","base":1500}],"obsTime":1783209600},"SBCZ":{"icaoId":"SBCZ","flightCategory":"VFR","rawOb":"METAR SBCZ 050000Z 15001KT CAVOK 23/22 Q1015","temp":23,"dewp":22,"wdir":150,"wspd":1,"visib":"6+","altim":1015,"clouds":[],"obsTime":1783209600},"SBOI":{"icaoId":"SBOI","flightCategory":"VFR","rawOb":"METAR SBOI 050000Z AUTO VRB01KT CAVOK 26/24 Q1013","temp":26,"dewp":24,"wdir":"VRB","wspd":1,"visib":"6+","altim":1013,"clouds":[],"obsTime":1783209600},"SBPL":{"icaoId":"SBPL","flightCategory":"VFR","rawOb":"METAR SBPL 050000Z 14004KT CAVOK 25/13 Q1017","temp":25,"dewp":13,"wdir":140,"wspd":4,"visib":"6+","altim":1017,"clouds":[],"obsTime":1783209600},"SBPS":{"icaoId":"SBPS","flightCategory":"VFR","rawOb":"METAR SBPS 050000Z 11004KT 9999 FEW022 SCT070 23/20 Q1019","temp":23,"dewp":20,"wdir":110,"wspd":4,"visib":"6+","altim":1019,"clouds":[{"cover":"FEW","base":2200},{"cover":"SCT","base":7000}],"obsTime":1783209600},"SBKG":{"icaoId":"SBKG","flightCategory":"VFR","rawOb":"METAR SBKG 050000Z 13004KT 9999 FEW017 SCT070 22/20 Q1019","temp":22,"dewp":20,"wdir":130,"wspd":4,"visib":"6+","altim":1019,"clouds":[{"cover":"FEW","base":1700},{"cover":"SCT","base":7000}],"obsTime":1783209600},"SBCO":{"icaoId":"SBCO","flightCategory":"MVFR","rawOb":"METAR SBCO 050000Z 10001KT 9999 OVC019 10/08 Q1025","temp":10,"dewp":8,"wdir":100,"wspd":1,"visib":"6+","altim":1025,"clouds":[{"cover":"OVC","base":1900}],"obsTime":1783209600},"SBSM":{"icaoId":"SBSM","flightCategory":"VFR","rawOb":"METAR SBSM 050000Z 17003KT 130V210 CAVOK 08/07 Q1024","temp":8,"dewp":7,"wdir":170,"wspd":3,"visib":"6+","altim":1024,"clouds":[],"obsTime":1783209600},"SBAX":{"icaoId":"SBAX","flightCategory":"VFR","rawOb":"METAR SBAX 050000Z AUTO VRB02KT CAVOK 21/13 Q1022","temp":21,"dewp":13,"wdir":"VRB","wspd":2,"visib":"6+","altim":1022,"clouds":[],"obsTime":1783209600},"SBBH":{"icaoId":"SBBH","flightCategory":"VFR","rawOb":"METAR SBBH 050000Z 10007KT CAVOK 20/15 Q1022","temp":20,"dewp":15,"wdir":100,"wspd":7,"visib":"6+","altim":1022,"clouds":[],"obsTime":1783209600},"SBBU":{"icaoId":"SBBU","flightCategory":"VFR","rawOb":"METAR SBBU 050000Z 15002KT CAVOK 22/15 Q1021","temp":22,"dewp":15,"wdir":150,"wspd":2,"visib":"6+","altim":1021,"clouds":[],"obsTime":1783209600},"SBDN":{"icaoId":"SBDN","flightCategory":"VFR","rawOb":"METAR SBDN 050000Z 06003KT CAVOK 18/17 Q1019","temp":18,"dewp":17,"wdir":60,"wspd":3,"visib":"6+","altim":1019,"clouds":[],"obsTime":1783209600},"SBIP":{"icaoId":"SBIP","flightCategory":"VFR","rawOb":"METAR SBIP 050000Z AUTO 18002KT CAVOK 16/16 Q1020","temp":16,"dewp":16,"wdir":180,"wspd":2,"visib":"6+","altim":1020,"clouds":[],"obsTime":1783209600},"SBSC":{"icaoId":"SBSC","flightCategory":"MVFR","rawOb":"METAR SBSC 050000Z 17006KT 9999 OVC015 19/17 Q1022","temp":19,"dewp":17,"wdir":170,"wspd":6,"visib":"6+","altim":1022,"clouds":[{"cover":"OVC","base":1500}],"obsTime":1783209600},"SBSR":{"icaoId":"SBSR","flightCategory":"VFR","rawOb":"METAR SBSR 050000Z 19004KT CAVOK 23/14 Q1020","temp":23,"dewp":14,"wdir":190,"wspd":4,"visib":"6+","altim":1020,"clouds":[],"obsTime":1783209600},"SBTU":{"icaoId":"SBTU","flightCategory":"VFR","rawOb":"METAR SBTU 050000Z AUTO 35003KT 9999 // OVC087/// ///// Q1015","temp":null,"dewp":null,"wdir":350,"wspd":3,"visib":"6+","altim":1015,"clouds":[{"cover":"OVC","base":8700}],"obsTime":1783209600},"SBAR":{"icaoId":"SBAR","flightCategory":"VFR","rawOb":"METAR SBAR 050000Z 18005KT 9999 FEW013 BKN070 24/22 Q1017","temp":24,"dewp":22,"wdir":180,"wspd":5,"visib":"6+","altim":1017,"clouds":[{"cover":"FEW","base":1300},{"cover":"BKN","base":7000}],"obsTime":1783209600},"SBSJ":{"icaoId":"SBSJ","flightCategory":"MVFR","rawOb":"METAR SBSJ 050000Z 15004KT 100V210 9999 BKN012 15/13 Q1024","temp":15,"dewp":13,"wdir":150,"wspd":4,"visib":"6+","altim":1024,"clouds":[{"cover":"BKN","base":1200}],"obsTime":1783209600},"SBNM":{"icaoId":"SBNM","flightCategory":"VFR","rawOb":"METAR SBNM 050000Z AUTO 09004KT 060V120 9999 -RA NSC 09/07 Q1022","temp":9,"dewp":7,"wdir":90,"wspd":4,"visib":"6+","altim":1022,"clouds":[],"obsTime":1783209600},"SBAN":{"icaoId":"SBAN","flightCategory":"VFR","rawOb":"METAR SBAN 050000Z 01002KT CAVOK 17/11 Q1023","temp":17,"dewp":11,"wdir":10,"wspd":2,"visib":"6+","altim":1023,"clouds":[],"obsTime":1783209600},"SBJV":{"icaoId":"SBJV","flightCategory":"MVFR","rawOb":"METAR SBJV 050000Z 30004KT 9999 SCT010 BKN025 14/12 Q1024","temp":14,"dewp":12,"wdir":300,"wspd":4,"visib":"6+","altim":1024,"clouds":[{"cover":"SCT","base":1000},{"cover":"BKN","base":2500}],"obsTime":1783209600},"SBLE":{"icaoId":"SBLE","flightCategory":"VFR","rawOb":"METAR SBLE 050000Z AUTO 01005KT CAVOK ///// Q1020","temp":null,"dewp":null,"wdir":10,"wspd":5,"visib":"6+","altim":1020,"clouds":[],"obsTime":1783209600},"SBJP":{"icaoId":"SBJP","flightCategory":"VFR","rawOb":"METAR SBJP 050000Z 16006KT CAVOK 25/23 Q1016","temp":25,"dewp":23,"wdir":160,"wspd":6,"visib":"6+","altim":1016,"clouds":[],"obsTime":1783209600},"SBMT":{"icaoId":"SBMT","flightCategory":"IFR","rawOb":"METAR SBMT 050000Z 14006KT 3000 BR BKN007 13/12 Q1024","temp":13,"dewp":12,"wdir":140,"wspd":6,"visib":1.86,"altim":1024,"clouds":[{"cover":"BKN","base":700}],"obsTime":1783209600},"SBLS":{"icaoId":"SBLS","flightCategory":"VFR","rawOb":"METAR SBLS 050000Z 15008KT CAVOK 20/15 Q1022","temp":20,"dewp":15,"wdir":150,"wspd":8,"visib":"6+","altim":1022,"clouds":[],"obsTime":1783209600},"SBJR":{"icaoId":"SBJR","flightCategory":"IFR","rawOb":"METAR SBJR 050000Z 22003KT 3000 -RA BR BKN005 OVC010 19/18 Q1022","temp":19,"dewp":18,"wdir":220,"wspd":3,"visib":1.86,"altim":1022,"clouds":[{"cover":"BKN","base":500},{"cover":"OVC","base":1000}],"obsTime":1783209600}}}