{"updated":1776980104,"count":83,"data":{"SBRF":{"icaoId":"SBRF","flightCategory":"IFR","rawOb":"METAR SBRF 232000Z 13005KT 4500 RA BR SCT012 BKN017 BKN040 28/25 Q1010","temp":28,"dewp":25,"wdir":130,"wspd":5,"visib":2.8,"altim":1010,"clouds":[{"cover":"SCT","base":1200},{"cover":"BKN","base":1700},{"cover":"BKN","base":4000}],"obsTime":1776974400},"SBEG":{"icaoId":"SBEG","flightCategory":"VFR","rawOb":"METAR SBEG 232000Z 24004KT 9999 2500SW SHRA SCT025 FEW030TCU BKN100 27/25 Q1009","temp":27,"dewp":25,"wdir":240,"wspd":4,"visib":"6+","altim":1009,"clouds":[{"cover":"SCT","base":2500},{"cover":"FEW","base":3000},{"cover":"BKN","base":10000}],"obsTime":1776974400},"SBBE":{"icaoId":"SBBE","flightCategory":"VFR","rawOb":"METAR SBBE 232000Z 10005KT 9999 FEW017 SCT027 BKN092 25/24 Q1009","temp":25,"dewp":24,"wdir":100,"wspd":5,"visib":"6+","altim":1009,"clouds":[{"cover":"FEW","base":1700},{"cover":"SCT","base":2700},{"cover":"BKN","base":9200}],"obsTime":1776974400},"SBBR":{"icaoId":"SBBR","flightCategory":"VFR","rawOb":"METAR SBBR 232000Z 13010KT 9999 FEW030 27/13 Q1018","temp":27,"dewp":13,"wdir":130,"wspd":10,"visib":"6+","altim":1018,"clouds":[{"cover":"FEW","base":3000}],"obsTime":1776974400},"SBBV":{"icaoId":"SBBV","flightCategory":"VFR","rawOb":"METAR SBBV 232000Z 01005KT 9999 SCT025 FEW030TCU 32/22 Q1009","temp":32,"dewp":22,"wdir":10,"wspd":5,"visib":"6+","altim":1009,"clouds":[{"cover":"SCT","base":2500},{"cover":"FEW","base":3000}],"obsTime":1776974400},"SBCB":{"icaoId":"SBCB","flightCategory":"VFR","rawOb":"METAR SBCB 232000Z 10005KT 9999 FEW025 SCT080 26/20 Q1017","temp":26,"dewp":20,"wdir":100,"wspd":5,"visib":"6+","altim":1017,"clouds":[{"cover":"FEW","base":2500},{"cover":"SCT","base":8000}],"obsTime":1776974400},"SBCF":{"icaoId":"SBCF","flightCategory":"VFR","rawOb":"METAR SBCF 232000Z 11009KT 9999 SCT036 25/16 Q1019","temp":25,"dewp":16,"wdir":110,"wspd":9,"visib":"6+","altim":1019,"clouds":[{"cover":"SCT","base":3600}],"obsTime":1776974400},"SBCG":{"icaoId":"SBCG","flightCategory":"VFR","rawOb":"METAR SBCG 232000Z 11006KT 080V140 CAVOK 29/15 Q1014","temp":29,"dewp":15,"wdir":110,"wspd":6,"visib":"6+","altim":1014,"clouds":[],"obsTime":1776974400},"SBCP":{"icaoId":"SBCP","flightCategory":"VFR","rawOb":"METAR SBCP 232000Z 15008KT CAVOK 26/19 Q1016","temp":26,"dewp":19,"wdir":150,"wspd":8,"visib":"6+","altim":1016,"clouds":[],"obsTime":1776974400},"SBCR":{"icaoId":"SBCR","flightCategory":"VFR","rawOb":"METAR SBCR 232000Z VRB02KT CAVOK 33/18 Q1010","temp":33,"dewp":18,"wdir":"VRB","wspd":2,"visib":"6+","altim":1010,"clouds":[],"obsTime":1776974400},"SBCT":{"icaoId":"SBCT","flightCategory":"VFR","rawOb":"METAR SBCT 232000Z 10007KT 9999 FEW015 20/14 Q1021","temp":20,"dewp":14,"wdir":100,"wspd":7,"visib":"6+","altim":1021,"clouds":[{"cover":"FEW","base":1500}],"obsTime":1776974400},"SBCZ":{"icaoId":"SBCZ","flightCategory":"MVFR","rawOb":"METAR SBCZ 232000Z 36005KT 8000 VCSH BKN030 FEW040TCU 31/24 Q1007","temp":31,"dewp":24,"wdir":360,"wspd":5,"visib":4.97,"altim":1007,"clouds":[{"cover":"BKN","base":3000},{"cover":"FEW","base":4000}],"obsTime":1776974400},"SBAT":{"icaoId":"SBAT","flightCategory":"VFR","rawOb":"METAR SBAT 232000Z 32002KT 9999 SCT035 31/23 Q1009","temp":31,"dewp":23,"wdir":320,"wspd":2,"visib":"6+","altim":1009,"clouds":[{"cover":"SCT","base":3500}],"obsTime":1776974400},"SBFI":{"icaoId":"SBFI","flightCategory":"VFR","rawOb":"METAR SBFI 232000Z 02004KT 9999 FEW040 30/21 Q1013","temp":30,"dewp":21,"wdir":20,"wspd":4,"visib":"6+","altim":1013,"clouds":[{"cover":"FEW","base":4000}],"obsTime":1776974400},"SBFL":{"icaoId":"SBFL","flightCategory":"VFR","rawOb":"METAR SBFL 232000Z 12007KT 9999 FEW035 25/21 Q1017","temp":25,"dewp":21,"wdir":120,"wspd":7,"visib":"6+","altim":1017,"clouds":[{"cover":"FEW","base":3500}],"obsTime":1776974400},"SBFZ":{"icaoId":"SBFZ","flightCategory":"VFR","rawOb":"METAR SBFZ 232000Z 09012KT 9999 FEW023 29/24 Q1009","temp":29,"dewp":24,"wdir":90,"wspd":12,"visib":"6+","altim":1009,"clouds":[{"cover":"FEW","base":2300}],"obsTime":1776974400},"SBGL":{"icaoId":"SBGL","flightCategory":"VFR","rawOb":"METAR SBGL 232000Z 14010KT 9999 FEW040 26/19 Q1016","temp":26,"dewp":19,"wdir":140,"wspd":10,"visib":"6+","altim":1016,"clouds":[{"cover":"FEW","base":4000}],"obsTime":1776974400},"SBGO":{"icaoId":"SBGO","flightCategory":"VFR","rawOb":"METAR SBGO 232000Z 09008KT 9999 FEW049 BKN100 30/16 Q1015","temp":30,"dewp":16,"wdir":90,"wspd":8,"visib":"6+","altim":1015,"clouds":[{"cover":"FEW","base":4900},{"cover":"BKN","base":10000}],"obsTime":1776974400},"SBGR":{"icaoId":"SBGR","flightCategory":"VFR","rawOb":"METAR SBGR 232000Z 15008KT 9999 FEW030 24/18 Q1019","temp":24,"dewp":18,"wdir":150,"wspd":8,"visib":"6+","altim":1019,"clouds":[{"cover":"FEW","base":3000}],"obsTime":1776974400},"SBHT":{"icaoId":"SBHT","flightCategory":"IFR","rawOb":"METAR SBHT 232000Z 34003KT 2000 0500E TSRA BKN020 FEW023CB 24/24 Q1011","temp":24,"dewp":24,"wdir":340,"wspd":3,"visib":1.24,"altim":1011,"clouds":[{"cover":"BKN","base":2000},{"cover":"FEW","base":2300}],"obsTime":1776974400},"SBIL":{"icaoId":"SBIL","flightCategory":"MVFR","rawOb":"METAR SBIL 232000Z 21008KT 180V240 8000 -RA SCT016 BKN070 26/24 Q1015","temp":26,"dewp":24,"wdir":210,"wspd":8,"visib":4.97,"altim":1015,"clouds":[{"cover":"SCT","base":1600},{"cover":"BKN","base":7000}],"obsTime":1776974400},"SBJU":{"icaoId":"SBJU","flightCategory":"VFR","rawOb":"METAR SBJU 232000Z 06004KT 9999 SCT022 28/23 Q1011","temp":28,"dewp":23,"wdir":60,"wspd":4,"visib":"6+","altim":1011,"clouds":[{"cover":"SCT","base":2200}],"obsTime":1776974400},"SBKP":{"icaoId":"SBKP","flightCategory":"VFR","rawOb":"METAR SBKP 232000Z 12006KT 090V160 9999 FEW045 29/15 Q1017","temp":29,"dewp":15,"wdir":120,"wspd":6,"visib":"6+","altim":1017,"clouds":[{"cover":"FEW","base":4500}],"obsTime":1776974400},"SBLO":{"icaoId":"SBLO","flightCategory":"VFR","rawOb":"METAR SBLO 232000Z COR 10007KT CAVOK 29/11 Q1016","temp":29,"dewp":11,"wdir":100,"wspd":7,"visib":"6+","altim":1016,"clouds":[],"obsTime":1776974400},"SBMA":{"icaoId":"SBMA","flightCategory":"VFR","rawOb":"METAR SBMA 232000Z 33002KT 9999 SCT020 FEW023TCU SCT080 27/25 Q1009","temp":27,"dewp":25,"wdir":330,"wspd":2,"visib":"6+","altim":1009,"clouds":[{"cover":"SCT","base":2000},{"cover":"FEW","base":2300},{"cover":"SCT","base":8000}],"obsTime":1776974400},"SBME":{"icaoId":"SBME","flightCategory":"VFR","rawOb":"METAR SBME 232000Z 16006KT 9999 FEW030 25/21 Q1017","temp":25,"dewp":21,"wdir":160,"wspd":6,"visib":"6+","altim":1017,"clouds":[{"cover":"FEW","base":3000}],"obsTime":1776974400},"SBMG":{"icaoId":"SBMG","flightCategory":"VFR","rawOb":"METAR SBMG 232000Z 09008KT CAVOK 30/09 Q1015","temp":30,"dewp":9,"wdir":90,"wspd":8,"visib":"6+","altim":1015,"clouds":[],"obsTime":1776974400},"SBMK":{"icaoId":"SBMK","flightCategory":"VFR","rawOb":"METAR SBMK 232000Z 08008KT 9999 FEW046 28/16 Q1016","temp":28,"dewp":16,"wdir":80,"wspd":8,"visib":"6+","altim":1016,"clouds":[{"cover":"FEW","base":4600}],"obsTime":1776974400},"SBMO":{"icaoId":"SBMO","flightCategory":"VFR","rawOb":"METAR SBMO 232000Z 13009KT 9999 SCT020 BKN070 27/24 Q1011","temp":27,"dewp":24,"wdir":130,"wspd":9,"visib":"6+","altim":1011,"clouds":[{"cover":"SCT","base":2000},{"cover":"BKN","base":7000}],"obsTime":1776974400},"SBMQ":{"icaoId":"SBMQ","flightCategory":"VFR","rawOb":"METAR SBMQ 232000Z VRB02KT 9999 FEW023 29/25 Q1008","temp":29,"dewp":25,"wdir":"VRB","wspd":2,"visib":"6+","altim":1008,"clouds":[{"cover":"FEW","base":2300}],"obsTime":1776974400},"SBNT":{"icaoId":"SBNT","flightCategory":"VFR","rawOb":"METAR SBNT 232000Z 11005KT 9000 VCSH SCT027 FEW033TCU BKN040 BKN090 27/25 Q1010","temp":27,"dewp":25,"wdir":110,"wspd":5,"visib":5.59,"altim":1010,"clouds":[{"cover":"SCT","base":2700},{"cover":"FEW","base":3300},{"cover":"BKN","base":4000},{"cover":"BKN","base":9000}],"obsTime":1776974400},"SBPA":{"icaoId":"SBPA","flightCategory":"MVFR","rawOb":"METAR SBPA 232000Z 15011KT 9999 BKN014 OVC023 22/19 Q1017","temp":22,"dewp":19,"wdir":150,"wspd":11,"visib":"6+","altim":1017,"clouds":[{"cover":"BKN","base":1400},{"cover":"OVC","base":2300}],"obsTime":1776974400},"SBPJ":{"icaoId":"SBPJ","flightCategory":"VFR","rawOb":"METAR SBPJ 232000Z 12003KT 9999 FEW040 33/21 Q1009","temp":33,"dewp":21,"wdir":120,"wspd":3,"visib":"6+","altim":1009,"clouds":[{"cover":"FEW","base":4000}],"obsTime":1776974400},"SBPV":{"icaoId":"SBPV","flightCategory":"MVFR","rawOb":"METAR SBPV 232000Z VRB02KT 9999 VCSH BKN020 FEW030TCU 25/23 Q1007 RETS","temp":25,"dewp":23,"wdir":"VRB","wspd":2,"visib":"6+","altim":1007,"clouds":[{"cover":"BKN","base":2000},{"cover":"FEW","base":3000}],"obsTime":1776974400},"SBRB":{"icaoId":"SBRB","flightCategory":"IFR","rawOb":"SPECI SBRB 231940Z 11006KT 4000 1500S SHRA SCT008 BKN025 FEW030TCU BKN100 26/25 Q1009","temp":26,"dewp":25,"wdir":110,"wspd":6,"visib":2.49,"altim":1009,"clouds":[{"cover":"SCT","base":800},{"cover":"BKN","base":2500},{"cover":"FEW","base":3000},{"cover":"BKN","base":10000}],"obsTime":1776973200},"SBSG":{"icaoId":"SBSG","flightCategory":"VFR","rawOb":"METAR SBSG 232000Z 13004KT 9999 VCSH SCT030 FEW035TCU BKN050 25/24 Q1010","temp":25,"dewp":24,"wdir":130,"wspd":4,"visib":"6+","altim":1010,"clouds":[{"cover":"SCT","base":3000},{"cover":"FEW","base":3500},{"cover":"BKN","base":5000}],"obsTime":1776974400},"SBSL":{"icaoId":"SBSL","flightCategory":"MVFR","rawOb":"METAR SBSL 232000Z 11004KT 6000 -RA SCT020 FEW025TCU BKN035 26/24 Q1008","temp":26,"dewp":24,"wdir":110,"wspd":4,"visib":3.73,"altim":1008,"clouds":[{"cover":"SCT","base":2000},{"cover":"FEW","base":2500},{"cover":"BKN","base":3500}],"obsTime":1776974400},"SBSN":{"icaoId":"SBSN","flightCategory":"VFR","rawOb":"METAR SBSN 232000Z 26002KT 9999 FEW010 OVC100 25/24 Q1010","temp":25,"dewp":24,"wdir":260,"wspd":2,"visib":"6+","altim":1010,"clouds":[{"cover":"FEW","base":1000},{"cover":"OVC","base":10000}],"obsTime":1776974400},"SBSP":{"icaoId":"SBSP","flightCategory":"MVFR","rawOb":"METAR SBSP 232000Z 16013KT 9999 BKN017 21/17 Q1020","temp":21,"dewp":17,"wdir":160,"wspd":13,"visib":"6+","altim":1020,"clouds":[{"cover":"BKN","base":1700}],"obsTime":1776974400},"SBSV":{"icaoId":"SBSV","flightCategory":"VFR","rawOb":"METAR SBSV 232000Z 11009KT 9999 SCT023 BKN070 28/23 Q1012","temp":28,"dewp":23,"wdir":110,"wspd":9,"visib":"6+","altim":1012,"clouds":[{"cover":"SCT","base":2300},{"cover":"BKN","base":7000}],"obsTime":1776974400},"SBTE":{"icaoId":"SBTE","flightCategory":"VFR","rawOb":"METAR SBTE 232000Z 12004KT 9999 SCT025 FEW030TCU BKN080 29/23 Q1008 RETS","temp":29,"dewp":23,"wdir":120,"wspd":4,"visib":"6+","altim":1008,"clouds":[{"cover":"SCT","base":2500},{"cover":"FEW","base":3000},{"cover":"BKN","base":8000}],"obsTime":1776974400},"SBUL":{"icaoId":"SBUL","flightCategory":"VFR","rawOb":"METAR SBUL 232000Z 05009KT 9999 SCT047 27/17 Q1018","temp":27,"dewp":17,"wdir":50,"wspd":9,"visib":"6+","altim":1018,"clouds":[{"cover":"SCT","base":4700}],"obsTime":1776974400},"SBUR":{"icaoId":"SBUR","flightCategory":"VFR","rawOb":"METAR SBUR 232000Z 03004KT CAVOK 30/16 Q1016","temp":30,"dewp":16,"wdir":30,"wspd":4,"visib":"6+","altim":1016,"clouds":[],"obsTime":1776974400},"SBVT":{"icaoId":"SBVT","flightCategory":"VFR","rawOb":"METAR SBVT 232000Z 15007KT 9999 FEW025 26/20 Q1016","temp":26,"dewp":20,"wdir":150,"wspd":7,"visib":"6+","altim":1016,"clouds":[{"cover":"FEW","base":2500}],"obsTime":1776974400},"SBCJ":{"icaoId":"SBCJ","flightCategory":"MVFR","rawOb":"METAR SBCJ 232000Z 00000KT 9999 BKN015 23/21 Q1014","temp":23,"dewp":21,"wdir":0,"wspd":0,"visib":"6+","altim":1014,"clouds":[{"cover":"BKN","base":1500}],"obsTime":1776974400},"SBOI":{"icaoId":"SBOI","flightCategory":"MVFR","rawOb":"METAR SBOI 232000Z AUTO 25006KT 210V290 9000 RA FEW009 SCT013 OVC016 25/24 Q1010","temp":25,"dewp":24,"wdir":250,"wspd":6,"visib":5.59,"altim":1010,"clouds":[{"cover":"FEW","base":900},{"cover":"SCT","base":1300},{"cover":"OVC","base":1600}],"obsTime":1776974400},"SBSC":{"icaoId":"SBSC","flightCategory":"VFR","rawOb":"METAR SBSC 232000Z 17009KT CAVOK 26/18 Q1016","temp":26,"dewp":18,"wdir":170,"wspd":9,"visib":"6+","altim":1016,"clouds":[],"obsTime":1776974400},"SBAX":{"icaoId":"SBAX","flightCategory":"VFR","rawOb":"METAR SBAX 232000Z 09007KT 9999 SCT045 26/14 Q1018","temp":26,"dewp":14,"wdir":90,"wspd":7,"visib":"6+","altim":1018,"clouds":[{"cover":"SCT","base":4500}],"obsTime":1776974400},"SBBH":{"icaoId":"SBBH","flightCategory":"VFR","rawOb":"METAR SBBH 232000Z 10008KT 9999 SCT040 SCT090 25/15 Q1018","temp":25,"dewp":15,"wdir":100,"wspd":8,"visib":"6+","altim":1018,"clouds":[{"cover":"SCT","base":4000},{"cover":"SCT","base":9000}],"obsTime":1776974400},"SBBU":{"icaoId":"SBBU","flightCategory":"VFR","rawOb":"METAR SBBU 232000Z 13007KT CAVOK 29/17 Q1016","temp":29,"dewp":17,"wdir":130,"wspd":7,"visib":"6+","altim":1016,"clouds":[],"obsTime":1776974400},"SBCA":{"icaoId":"SBCA","flightCategory":"VFR","rawOb":"METAR SBCA 232000Z 34007KT 9999 FEW030 28/17 Q1017","temp":28,"dewp":17,"wdir":340,"wspd":7,"visib":"6+","altim":1017,"clouds":[{"cover":"FEW","base":3000}],"obsTime":1776974400},"SBCO":{"icaoId":"SBCO","flightCategory":"MVFR","rawOb":"METAR SBCO 232000Z 13012KT 9999 FEW012 OVC016 22/18 Q1018","temp":22,"dewp":18,"wdir":130,"wspd":12,"visib":"6+","altim":1018,"clouds":[{"cover":"FEW","base":1200},{"cover":"OVC","base":1600}],"obsTime":1776974400},"SBDN":{"icaoId":"SBDN","flightCategory":"VFR","rawOb":"METAR SBDN 232000Z 09005KT CAVOK 31/12 Q1014","temp":31,"dewp":12,"wdir":90,"wspd":5,"visib":"6+","altim":1014,"clouds":[],"obsTime":1776974400},"SBES":{"icaoId":"SBES","flightCategory":"VFR","rawOb":"METAR SBES 232000Z 14006KT 090V180 CAVOK 25/// Q1017","temp":null,"dewp":null,"wdir":140,"wspd":6,"visib":"6+","altim":1017,"clouds":[],"obsTime":1776974400},"SBIP":{"icaoId":"SBIP","flightCategory":"VFR","rawOb":"METAR SBIP 232000Z AUTO 20004KT 160V240 CAVOK 27/18 Q1016","temp":27,"dewp":18,"wdir":200,"wspd":4,"visib":"6+","altim":1016,"clouds":[],"obsTime":1776974400},"SBKG":{"icaoId":"SBKG","flightCategory":"VFR","rawOb":"METAR SBKG 232000Z 10008KT 9999 FEW025 26/22 Q1013","temp":26,"dewp":22,"wdir":100,"wspd":8,"visib":"6+","altim":1013,"clouds":[{"cover":"FEW","base":2500}],"obsTime":1776974400},"SBPB":{"icaoId":"SBPB","flightCategory":"VFR","rawOb":"METAR SBPB 232000Z 06013KT 9999 SCT016 FEW025TCU BKN080 30/25 Q1008","temp":30,"dewp":25,"wdir":60,"wspd":13,"visib":"6+","altim":1008,"clouds":[{"cover":"SCT","base":1600},{"cover":"FEW","base":2500},{"cover":"BKN","base":8000}],"obsTime":1776974400},"SBPL":{"icaoId":"SBPL","flightCategory":"VFR","rawOb":"METAR SBPL 232000Z 04006KT 9999 TS VCSH SCT025 FEW030CB SCT070 27/25 Q1011","temp":27,"dewp":25,"wdir":40,"wspd":6,"visib":"6+","altim":1011,"clouds":[{"cover":"SCT","base":2500},{"cover":"FEW","base":3000},{"cover":"SCT","base":7000}],"obsTime":1776974400},"SBPP":{"icaoId":"SBPP","flightCategory":"VFR","rawOb":"METAR SBPP 232000Z 03009KT CAVOK 28/17 Q1016","temp":28,"dewp":17,"wdir":30,"wspd":9,"visib":"6+","altim":1016,"clouds":[],"obsTime":1776974400},"SBPS":{"icaoId":"SBPS","flightCategory":"VFR","rawOb":"METAR SBPS 232000Z 17006KT 9999 FEW020 FEW025TCU BKN080 27/22 Q1015","temp":27,"dewp":22,"wdir":170,"wspd":6,"visib":"6+","altim":1015,"clouds":[{"cover":"FEW","base":2000},{"cover":"FEW","base":2500},{"cover":"BKN","base":8000}],"obsTime":1776974400},"SBAR":{"icaoId":"SBAR","flightCategory":"VFR","rawOb":"METAR SBAR 232000Z 11009KT 9999 VCSH FEW023 BKN040 28/24 Q1011","temp":28,"dewp":24,"wdir":110,"wspd":9,"visib":"6+","altim":1011,"clouds":[{"cover":"FEW","base":2300},{"cover":"BKN","base":4000}],"obsTime":1776974400},"SBSJ":{"icaoId":"SBSJ","flightCategory":"VFR","rawOb":"METAR SBSJ 232000Z 12013KT 9999 SCT045 25/18 Q1018","temp":25,"dewp":18,"wdir":120,"wspd":13,"visib":"6+","altim":1018,"clouds":[{"cover":"SCT","base":4500}],"obsTime":1776974400},"SBSM":{"icaoId":"SBSM","flightCategory":"MVFR","rawOb":"METAR SBSM 232000Z 12004KT 090V170 9999 BKN010 OVC013 21/20 Q1017","temp":21,"dewp":20,"wdir":120,"wspd":4,"visib":"6+","altim":1017,"clouds":[{"cover":"BKN","base":1000},{"cover":"OVC","base":1300}],"obsTime":1776974400},"SBSR":{"icaoId":"SBSR","flightCategory":"VFR","rawOb":"METAR SBSR 232000Z 00000KT 9999 SCT030 31/13 Q1014","temp":31,"dewp":13,"wdir":0,"wspd":0,"visib":"6+","altim":1014,"clouds":[{"cover":"SCT","base":3000}],"obsTime":1776974400},"SBTF":{"icaoId":"SBTF","flightCategory":"VFR","rawOb":"METAR SBTF 232000Z 04002KT 9999 FEW019 BKN100 31/25 Q1007","temp":31,"dewp":25,"wdir":40,"wspd":2,"visib":"6+","altim":1007,"clouds":[{"cover":"FEW","base":1900},{"cover":"BKN","base":10000}],"obsTime":1776974400},"SBTT":{"icaoId":"SBTT","flightCategory":"VFR","rawOb":"METAR SBTT 232000Z 23005KT 9999 SCT025 SCT070 30/23 Q1008","temp":30,"dewp":23,"wdir":230,"wspd":5,"visib":"6+","altim":1008,"clouds":[{"cover":"SCT","base":2500},{"cover":"SCT","base":7000}],"obsTime":1776974400},"SBUY":{"icaoId":"SBUY","flightCategory":"VFR","rawOb":"METAR SBUY 232000Z 12004KT 9999 SCT030 SCT100 30/23 Q1006","temp":30,"dewp":23,"wdir":120,"wspd":4,"visib":"6+","altim":1006,"clouds":[{"cover":"SCT","base":3000},{"cover":"SCT","base":10000}],"obsTime":1776974400},"SBVH":{"icaoId":"SBVH","flightCategory":"VFR","rawOb":"METAR SBVH 232000Z 05005KT 9999 SCT035 29/22 Q1012","temp":29,"dewp":22,"wdir":50,"wspd":5,"visib":"6+","altim":1012,"clouds":[{"cover":"SCT","base":3500}],"obsTime":1776974400},"SBCC":{"icaoId":"SBCC","flightCategory":"MVFR","rawOb":"METAR SBCC 232000Z 29009KT 9999 TS VCSH BKN030 FEW035CB 26/23 Q1011 RETS","temp":26,"dewp":23,"wdir":290,"wspd":9,"visib":"6+","altim":1011,"clouds":[{"cover":"BKN","base":3000},{"cover":"FEW","base":3500}],"obsTime":1776974400},"SBBQ":{"icaoId":"SBBQ","flightCategory":"VFR","rawOb":"METAR SBBQ 232000Z 07005KT 9999 FEW035 21/15 Q1022","temp":21,"dewp":15,"wdir":70,"wspd":5,"visib":"6+","altim":1022,"clouds":[{"cover":"FEW","base":3500}],"obsTime":1776974400},"SBJP":{"icaoId":"SBJP","flightCategory":"IFR","rawOb":"SPECI SBJP 231945Z 12014KT 2000 -RA BKN012 SCT070 25/25 Q1011","temp":25,"dewp":25,"wdir":120,"wspd":14,"visib":1.24,"altim":1011,"clouds":[{"cover":"BKN","base":1200},{"cover":"SCT","base":7000}],"obsTime":1776973500},"SBJV":{"icaoId":"SBJV","flightCategory":"VFR","rawOb":"METAR SBJV 232000Z 11007KT 9999 FEW040 27/18 Q1017","temp":27,"dewp":18,"wdir":110,"wspd":7,"visib":"6+","altim":1017,"clouds":[{"cover":"FEW","base":4000}],"obsTime":1776974400},"SBPF":{"icaoId":"SBPF","flightCategory":"VFR","rawOb":"METAR SBPF 232000Z 16007KT 9999 -RA SCT004 BKN070 20/19 Q1019","temp":20,"dewp":19,"wdir":160,"wspd":7,"visib":"6+","altim":1019,"clouds":[{"cover":"SCT","base":400},{"cover":"BKN","base":7000}],"obsTime":1776974400},"SBAN":{"icaoId":"SBAN","flightCategory":"VFR","rawOb":"METAR SBAN 232000Z 16008KT 9999 FEW040 26/16 Q1018","temp":26,"dewp":16,"wdir":160,"wspd":8,"visib":"6+","altim":1018,"clouds":[{"cover":"FEW","base":4000}],"obsTime":1776974400},"SBLE":{"icaoId":"SBLE","flightCategory":"VFR","rawOb":"METAR SBLE 232000Z AUTO 14005KT CAVOK 26/21 Q1015","temp":26,"dewp":21,"wdir":140,"wspd":5,"visib":"6+","altim":1015,"clouds":[],"obsTime":1776974400},"SBIH":{"icaoId":"SBIH","flightCategory":"MVFR","rawOb":"METAR SBIH 232000Z 04005KT 9999 BKN016 FEW023TCU 28/25 Q1009","temp":28,"dewp":25,"wdir":40,"wspd":5,"visib":"6+","altim":1009,"clouds":[{"cover":"BKN","base":1600},{"cover":"FEW","base":2300}],"obsTime":1776974400},"SBAF":{"icaoId":"SBAF","flightCategory":"VFR","rawOb":"METAR SBAF 232000Z 20007KT 9999 FEW040 26/19 Q1016","temp":26,"dewp":19,"wdir":200,"wspd":7,"visib":"6+","altim":1016,"clouds":[{"cover":"FEW","base":4000}],"obsTime":1776974400},"SBGW":{"icaoId":"SBGW","flightCategory":"VFR","rawOb":"METAR SBGW 232000Z 36007KT 9999 FEW035 26/15 Q1017","temp":26,"dewp":15,"wdir":360,"wspd":7,"visib":"6+","altim":1017,"clouds":[{"cover":"FEW","base":3500}],"obsTime":1776974400},"SBJR":{"icaoId":"SBJR","flightCategory":"VFR","rawOb":"METAR SBJR 232000Z 14006KT CAVOK 27/18 Q1016","temp":27,"dewp":18,"wdir":140,"wspd":6,"visib":"6+","altim":1016,"clouds":[],"obsTime":1776974400},"SBLS":{"icaoId":"SBLS","flightCategory":"VFR","rawOb":"METAR SBLS 232000Z 12007KT 060V130 9999 FEW040 25/16 Q1018","temp":25,"dewp":16,"wdir":120,"wspd":7,"visib":"6+","altim":1018,"clouds":[{"cover":"FEW","base":4000}],"obsTime":1776974400},"SBMT":{"icaoId":"SBMT","flightCategory":"VFR","rawOb":"METAR SBMT 232000Z 13010KT CAVOK 22/17 Q1019","temp":22,"dewp":17,"wdir":130,"wspd":10,"visib":"6+","altim":1019,"clouds":[],"obsTime":1776974400},"SBST":{"icaoId":"SBST","flightCategory":"VFR","rawOb":"METAR SBST 232000Z 13007KT CAVOK 25/19 Q1017","temp":25,"dewp":19,"wdir":130,"wspd":7,"visib":"6+","altim":1017,"clouds":[],"obsTime":1776974400},"SBTA":{"icaoId":"SBTA","flightCategory":"VFR","rawOb":"METAR SBTA 232000Z 04004KT 010V070 9999 SCT040 26/16 Q1017","temp":26,"dewp":16,"wdir":40,"wspd":4,"visib":"6+","altim":1017,"clouds":[{"cover":"SCT","base":4000}],"obsTime":1776974400}}}