{"updated":1775968087,"count":54,"data":{"SBRF":{"icaoId":"SBRF","flightCategory":"MVFR","rawOb":"METAR SBRF 120300Z 20004KT 170V230 9999 VCSH BKN017 BKN070 26/25 Q1013","temp":26,"dewp":25,"wdir":200,"wspd":4,"visib":"6+","altim":1013,"clouds":[{"cover":"BKN","base":1700},{"cover":"BKN","base":7000}],"obsTime":1775962800},"SBBE":{"icaoId":"SBBE","flightCategory":"VFR","rawOb":"METAR SBBE 120300Z 09004KT CAVOK 25/25 Q1013","temp":25,"dewp":25,"wdir":90,"wspd":4,"visib":"6+","altim":1013,"clouds":[],"obsTime":1775962800},"SBBR":{"icaoId":"SBBR","flightCategory":"VFR","rawOb":"METAR SBBR 120300Z 13007KT 9999 SCT030 SCT100 22/19 Q1020","temp":22,"dewp":19,"wdir":130,"wspd":7,"visib":"6+","altim":1020,"clouds":[{"cover":"SCT","base":3000},{"cover":"SCT","base":10000}],"obsTime":1775962800},"SBBV":{"icaoId":"SBBV","flightCategory":"VFR","rawOb":"METAR SBBV 120300Z 12007KT CAVOK 29/21 Q1012","temp":29,"dewp":21,"wdir":120,"wspd":7,"visib":"6+","altim":1012,"clouds":[],"obsTime":1775962800},"SBCF":{"icaoId":"SBCF","flightCategory":"VFR","rawOb":"METAR SBCF 120300Z 15005KT CAVOK 19/17 Q1022","temp":19,"dewp":17,"wdir":150,"wspd":5,"visib":"6+","altim":1022,"clouds":[],"obsTime":1775962800},"SBCG":{"icaoId":"SBCG","flightCategory":"VFR","rawOb":"METAR SBCG 120300Z 08011KT CAVOK 26/21 Q1016","temp":26,"dewp":21,"wdir":80,"wspd":11,"visib":"6+","altim":1016,"clouds":[],"obsTime":1775962800},"SBCT":{"icaoId":"SBCT","flightCategory":"MVFR","rawOb":"METAR SBCT 120300Z 07005KT 9999 BKN017 16/15 Q1024","temp":16,"dewp":15,"wdir":70,"wspd":5,"visib":"6+","altim":1024,"clouds":[{"cover":"BKN","base":1700}],"obsTime":1775962800},"SBEG":{"icaoId":"SBEG","flightCategory":"VFR","rawOb":"METAR SBEG 120300Z 00000KT 9999 FEW008 BKN070 25/25 Q1012","temp":25,"dewp":25,"wdir":0,"wspd":0,"visib":"6+","altim":1012,"clouds":[{"cover":"FEW","base":800},{"cover":"BKN","base":7000}],"obsTime":1775962800},"SBFI":{"icaoId":"SBFI","flightCategory":"VFR","rawOb":"METAR SBFI 120300Z 06004KT 9999 FEW030 BKN100 22/20 Q1015","temp":22,"dewp":20,"wdir":60,"wspd":4,"visib":"6+","altim":1015,"clouds":[{"cover":"FEW","base":3000},{"cover":"BKN","base":10000}],"obsTime":1775962800},"SBFL":{"icaoId":"SBFL","flightCategory":"VFR","rawOb":"METAR SBFL 120300Z 28006KT 9999 FEW012 BKN040 22/19 Q1021","temp":22,"dewp":19,"wdir":280,"wspd":6,"visib":"6+","altim":1021,"clouds":[{"cover":"FEW","base":1200},{"cover":"BKN","base":4000}],"obsTime":1775962800},"SBFZ":{"icaoId":"SBFZ","flightCategory":"MVFR","rawOb":"METAR SBFZ 120300Z 17003KT 8000 -RA FEW016 25/24 Q1012","temp":25,"dewp":24,"wdir":170,"wspd":3,"visib":4.97,"altim":1012,"clouds":[{"cover":"FEW","base":1600}],"obsTime":1775962800},"SBGL":{"icaoId":"SBGL","flightCategory":"VFR","rawOb":"METAR SBGL 120300Z 09003KT 9999 FEW035 22/20 Q1021","temp":22,"dewp":20,"wdir":90,"wspd":3,"visib":"6+","altim":1021,"clouds":[{"cover":"FEW","base":3500}],"obsTime":1775962800},"SBGO":{"icaoId":"SBGO","flightCategory":"VFR","rawOb":"METAR SBGO 120300Z 15005KT CAVOK 24/20 Q1018","temp":24,"dewp":20,"wdir":150,"wspd":5,"visib":"6+","altim":1018,"clouds":[],"obsTime":1775962800},"SBGR":{"icaoId":"SBGR","flightCategory":"VFR","rawOb":"METAR SBGR 120300Z 08004KT CAVOK 17/14 Q1024","temp":17,"dewp":14,"wdir":80,"wspd":4,"visib":"6+","altim":1024,"clouds":[],"obsTime":1775962800},"SBJU":{"icaoId":"SBJU","flightCategory":"VFR","rawOb":"METAR SBJU 120300Z 00000KT 9999 SCT020 23/22 Q1015","temp":23,"dewp":22,"wdir":0,"wspd":0,"visib":"6+","altim":1015,"clouds":[{"cover":"SCT","base":2000}],"obsTime":1775962800},"SBKP":{"icaoId":"SBKP","flightCategory":"VFR","rawOb":"METAR SBKP 120300Z 11009KT 9999 SCT042 18/14 Q1021","temp":18,"dewp":14,"wdir":110,"wspd":9,"visib":"6+","altim":1021,"clouds":[{"cover":"SCT","base":4200}],"obsTime":1775962800},"SBLO":{"icaoId":"SBLO","flightCategory":"VFR","rawOb":"METAR SBLO 120300Z 12010KT CAVOK 20/15 Q1020","temp":20,"dewp":15,"wdir":120,"wspd":10,"visib":"6+","altim":1020,"clouds":[],"obsTime":1775962800},"SBMA":{"icaoId":"SBMA","flightCategory":"VFR","rawOb":"METAR SBMA 120300Z 00000KT 9999 FEW020 25/24 Q1013","temp":25,"dewp":24,"wdir":0,"wspd":0,"visib":"6+","altim":1013,"clouds":[{"cover":"FEW","base":2000}],"obsTime":1775962800},"SBME":{"icaoId":"SBME","flightCategory":"MVFR","rawOb":"METAR SBME 120300Z 12008KT 5000 -RA BR FEW010 BKN023 OVC035 22/20 Q1021","temp":22,"dewp":20,"wdir":120,"wspd":8,"visib":3.11,"altim":1021,"clouds":[{"cover":"FEW","base":1000},{"cover":"BKN","base":2300},{"cover":"OVC","base":3500}],"obsTime":1775962800},"SBMG":{"icaoId":"SBMG","flightCategory":"VFR","rawOb":"METAR SBMG 120300Z 08018KT CAVOK 22/16 Q1017","temp":22,"dewp":16,"wdir":80,"wspd":18,"visib":"6+","altim":1017,"clouds":[],"obsTime":1775962800},"SBMK":{"icaoId":"SBMK","flightCategory":"VFR","rawOb":"METAR SBMK 120300Z 15004KT CAVOK 22/19 Q1020","temp":22,"dewp":19,"wdir":150,"wspd":4,"visib":"6+","altim":1020,"clouds":[],"obsTime":1775962800},"SBMO":{"icaoId":"SBMO","flightCategory":"VFR","rawOb":"METAR SBMO 120300Z 10009KT 9000 FEW007 SCT020 BKN080 24/23 Q1015","temp":24,"dewp":23,"wdir":100,"wspd":9,"visib":5.59,"altim":1015,"clouds":[{"cover":"FEW","base":700},{"cover":"SCT","base":2000},{"cover":"BKN","base":8000}],"obsTime":1775962800},"SBMQ":{"icaoId":"SBMQ","flightCategory":"VFR","rawOb":"METAR SBMQ 120300Z 34002KT 9999 FEW010 25/25 Q1013","temp":25,"dewp":25,"wdir":340,"wspd":2,"visib":"6+","altim":1013,"clouds":[{"cover":"FEW","base":1000}],"obsTime":1775962800},"SBNT":{"icaoId":"SBNT","flightCategory":"MVFR","rawOb":"METAR SBNT 120300Z 00000KT 7000 -RA SCT016 BKN066 24/23 Q1013","temp":24,"dewp":23,"wdir":0,"wspd":0,"visib":4.35,"altim":1013,"clouds":[{"cover":"SCT","base":1600},{"cover":"BKN","base":6600}],"obsTime":1775962800},"SBPA":{"icaoId":"SBPA","flightCategory":"VFR","rawOb":"METAR SBPA 120300Z 11008KT CAVOK 22/17 Q1017","temp":22,"dewp":17,"wdir":110,"wspd":8,"visib":"6+","altim":1017,"clouds":[],"obsTime":1775962800},"SBPJ":{"icaoId":"SBPJ","flightCategory":"VFR","rawOb":"METAR SBPJ 120300Z 14003KT 9999 FEW025 SCT080 26/25 Q1014","temp":26,"dewp":25,"wdir":140,"wspd":3,"visib":"6+","altim":1014,"clouds":[{"cover":"FEW","base":2500},{"cover":"SCT","base":8000}],"obsTime":1775962800},"SBPV":{"icaoId":"SBPV","flightCategory":"VFR","rawOb":"METAR SBPV 120300Z 03002KT CAVOK 26/24 Q1011","temp":26,"dewp":24,"wdir":30,"wspd":2,"visib":"6+","altim":1011,"clouds":[],"obsTime":1775962800},"SBRB":{"icaoId":"SBRB","flightCategory":"MVFR","rawOb":"METAR SBRB 120300Z 26003KT 8000 FEW030 24/24 Q1012","temp":24,"dewp":24,"wdir":260,"wspd":3,"visib":4.97,"altim":1012,"clouds":[{"cover":"FEW","base":3000}],"obsTime":1775962800},"SBSG":{"icaoId":"SBSG","flightCategory":"VFR","rawOb":"METAR SBSG 120300Z 15004KT 110V200 9999 VCSH SCT018 FEW025TCU BKN050 24/24 Q1013","temp":24,"dewp":24,"wdir":150,"wspd":4,"visib":"6+","altim":1013,"clouds":[{"cover":"SCT","base":1800},{"cover":"FEW","base":2500},{"cover":"BKN","base":5000}],"obsTime":1775962800},"SBSL":{"icaoId":"SBSL","flightCategory":"VFR","rawOb":"METAR SBSL 120300Z 10006KT 9999 FEW017 26/25 Q1013","temp":26,"dewp":25,"wdir":100,"wspd":6,"visib":"6+","altim":1013,"clouds":[{"cover":"FEW","base":1700}],"obsTime":1775962800},"SBSN":{"icaoId":"SBSN","flightCategory":"VFR","rawOb":"METAR SBSN 120300Z 07007KT 9999 VCTS SCT020 FEW030CB BKN090 27/25 Q1013","temp":27,"dewp":25,"wdir":70,"wspd":7,"visib":"6+","altim":1013,"clouds":[{"cover":"SCT","base":2000},{"cover":"FEW","base":3000},{"cover":"BKN","base":9000}],"obsTime":1775962800},"SBSV":{"icaoId":"SBSV","flightCategory":"VFR","rawOb":"METAR SBSV 120300Z 10007KT 9999 SCT021 27/24 Q1015","temp":27,"dewp":24,"wdir":100,"wspd":7,"visib":"6+","altim":1015,"clouds":[{"cover":"SCT","base":2100}],"obsTime":1775962800},"SBTE":{"icaoId":"SBTE","flightCategory":"VFR","rawOb":"METAR SBTE 120300Z 34004KT 270V360 9999 TS SCT015 FEW030CB BKN090 26/24 Q1013","temp":26,"dewp":24,"wdir":340,"wspd":4,"visib":"6+","altim":1013,"clouds":[{"cover":"SCT","base":1500},{"cover":"FEW","base":3000},{"cover":"BKN","base":9000}],"obsTime":1775962800},"SBUL":{"icaoId":"SBUL","flightCategory":"VFR","rawOb":"METAR SBUL 120300Z 13006KT 9999 FEW030 BKN090 22/18 Q1021","temp":22,"dewp":18,"wdir":130,"wspd":6,"visib":"6+","altim":1021,"clouds":[{"cover":"FEW","base":3000},{"cover":"BKN","base":9000}],"obsTime":1775962800},"SBUR":{"icaoId":"SBUR","flightCategory":"VFR","rawOb":"METAR SBUR 120300Z 08007KT CAVOK 23/18 Q1020","temp":23,"dewp":18,"wdir":80,"wspd":7,"visib":"6+","altim":1020,"clouds":[],"obsTime":1775962800},"SBVT":{"icaoId":"SBVT","flightCategory":"MVFR","rawOb":"METAR SBVT 120300Z 21004KT 5000 -RA BR SCT009 BKN013 OVC035 21/21 Q1020","temp":21,"dewp":21,"wdir":210,"wspd":4,"visib":3.11,"altim":1020,"clouds":[{"cover":"SCT","base":900},{"cover":"BKN","base":1300},{"cover":"OVC","base":3500}],"obsTime":1775962800},"SBSP":{"icaoId":"SBSP","flightCategory":"VFR","rawOb":"METAR SBSP 120300Z AUTO 13010KT CAVOK 18/14 Q1024","temp":18,"dewp":14,"wdir":130,"wspd":10,"visib":"6+","altim":1024,"clouds":[],"obsTime":1775962800},"SBSR":{"icaoId":"SBSR","flightCategory":"VFR","rawOb":"METAR SBSR 120300Z 13005KT 9999 FEW040 24/20 Q1018","temp":24,"dewp":20,"wdir":130,"wspd":5,"visib":"6+","altim":1018,"clouds":[{"cover":"FEW","base":4000}],"obsTime":1775962800},"SBAR":{"icaoId":"SBAR","flightCategory":"VFR","rawOb":"METAR SBAR 120300Z 11008KT 9999 FEW023 28/24 Q1014","temp":28,"dewp":24,"wdir":110,"wspd":8,"visib":"6+","altim":1014,"clouds":[{"cover":"FEW","base":2300}],"obsTime":1775962800},"SBAX":{"icaoId":"SBAX","flightCategory":"VFR","rawOb":"METAR SBAX 120300Z AUTO 12012KT CAVOK 20/20 Q1022","temp":20,"dewp":20,"wdir":120,"wspd":12,"visib":"6+","altim":1022,"clouds":[],"obsTime":1775962800},"SBDN":{"icaoId":"SBDN","flightCategory":"VFR","rawOb":"METAR SBDN 120300Z 11014KT CAVOK 23/17 Q1017","temp":23,"dewp":17,"wdir":110,"wspd":14,"visib":"6+","altim":1017,"clouds":[],"obsTime":1775962800},"SBIP":{"icaoId":"SBIP","flightCategory":"VFR","rawOb":"METAR SBIP 120300Z AUTO 21003KT CAVOK 23/20 Q1020","temp":23,"dewp":20,"wdir":210,"wspd":3,"visib":"6+","altim":1020,"clouds":[],"obsTime":1775962800},"SBKG":{"icaoId":"SBKG","flightCategory":"VFR","rawOb":"METAR SBKG 120300Z 09004KT 9999 SCT010 23/22 Q1016","temp":23,"dewp":22,"wdir":90,"wspd":4,"visib":"6+","altim":1016,"clouds":[{"cover":"SCT","base":1000}],"obsTime":1775962800},"SBOI":{"icaoId":"SBOI","flightCategory":"VFR","rawOb":"METAR SBOI 120300Z AUTO 00000KT 9999 FEW022 25/24 Q1014","temp":25,"dewp":24,"wdir":0,"wspd":0,"visib":"6+","altim":1014,"clouds":[{"cover":"FEW","base":2200}],"obsTime":1775962800},"SBPL":{"icaoId":"SBPL","flightCategory":"VFR","rawOb":"METAR SBPL 120300Z 12008KT 9999 FEW025 SCT070 27/22 Q1015","temp":27,"dewp":22,"wdir":120,"wspd":8,"visib":"6+","altim":1015,"clouds":[{"cover":"FEW","base":2500},{"cover":"SCT","base":7000}],"obsTime":1775962800},"SBPS":{"icaoId":"SBPS","flightCategory":"VFR","rawOb":"METAR SBPS 120300Z 28001KT 9999 SCT020 SCT050 24/23 Q1017","temp":24,"dewp":23,"wdir":280,"wspd":1,"visib":"6+","altim":1017,"clouds":[{"cover":"SCT","base":2000},{"cover":"SCT","base":5000}],"obsTime":1775962800},"SBSC":{"icaoId":"SBSC","flightCategory":"VFR","rawOb":"METAR SBSC 120300Z 13003KT CAVOK 21/19 Q1022","temp":21,"dewp":19,"wdir":130,"wspd":3,"visib":"6+","altim":1022,"clouds":[],"obsTime":1775962800},"SBSM":{"icaoId":"SBSM","flightCategory":"IFR","rawOb":"METAR SBSM 120300Z VRB02KT 4000 +TSRA SCT025 FEW030CB OVC070 21/20 Q1017 RETSRA","temp":21,"dewp":20,"wdir":"VRB","wspd":2,"visib":2.49,"altim":1017,"clouds":[{"cover":"SCT","base":2500},{"cover":"FEW","base":3000},{"cover":"OVC","base":7000}],"obsTime":1775962800},"SBCO":{"icaoId":"SBCO","flightCategory":"VFR","rawOb":"METAR SBCO 120300Z 10006KT CAVOK 19/17 Q1017","temp":19,"dewp":17,"wdir":100,"wspd":6,"visib":"6+","altim":1017,"clouds":[],"obsTime":1775962800},"SBSJ":{"icaoId":"SBSJ","flightCategory":"VFR","rawOb":"SPECI SBSJ 120230Z VRB02KT 9999 SCT030 17/14 Q1023","temp":17,"dewp":14,"wdir":"VRB","wspd":2,"visib":"6+","altim":1023,"clouds":[{"cover":"SCT","base":3000}],"obsTime":1775961000},"SBJP":{"icaoId":"SBJP","flightCategory":"VFR","rawOb":"METAR SBJP 120300Z 16004KT 9999 FEW020 SCT070 26/25 Q1013","temp":26,"dewp":25,"wdir":160,"wspd":4,"visib":"6+","altim":1013,"clouds":[{"cover":"FEW","base":2000},{"cover":"SCT","base":7000}],"obsTime":1775962800},"SBAN":{"icaoId":"SBAN","flightCategory":"VFR","rawOb":"METAR SBAN 120300Z 15005KT 9999 FEW035 20/18 Q1021","temp":20,"dewp":18,"wdir":150,"wspd":5,"visib":"6+","altim":1021,"clouds":[{"cover":"FEW","base":3500}],"obsTime":1775962800},"SBLE":{"icaoId":"SBLE","flightCategory":"VFR","rawOb":"METAR SBLE 120300Z AUTO 06004KT CAVOK ///// Q////","temp":null,"dewp":null,"wdir":60,"wspd":4,"visib":"6+","altim":null,"clouds":[],"obsTime":1775962800},"SBST":{"icaoId":"SBST","flightCategory":"VFR","rawOb":"METAR SBST 120300Z 04002KT 9999 FEW015 SCT070 19/18 Q1021","temp":19,"dewp":18,"wdir":40,"wspd":2,"visib":"6+","altim":1021,"clouds":[{"cover":"FEW","base":1500},{"cover":"SCT","base":7000}],"obsTime":1775962800}}}