{"updated":1782669371,"count":86,"data":{"SBEG":{"icaoId":"SBEG","flightCategory":"VFR","rawOb":"METAR SBEG 281600Z 08010KT 9999 VCSH SCT020 FEW025TCU SCT100 30/23 Q1014","temp":30,"dewp":23,"wdir":80,"wspd":10,"visib":"6+","altim":1014,"clouds":[{"cover":"SCT","base":2000},{"cover":"FEW","base":2500},{"cover":"SCT","base":10000}],"obsTime":1782662400},"SBBV":{"icaoId":"SBBV","flightCategory":"MVFR","rawOb":"METAR SBBV 281600Z 09009KT 9999 BKN030 31/23 Q1014","temp":31,"dewp":23,"wdir":90,"wspd":9,"visib":"6+","altim":1014,"clouds":[{"cover":"BKN","base":3000}],"obsTime":1782662400},"SBMO":{"icaoId":"SBMO","flightCategory":"VFR","rawOb":"METAR SBMO 281600Z 09010KT 9999 SCT030 28/21 Q1016","temp":28,"dewp":21,"wdir":90,"wspd":10,"visib":"6+","altim":1016,"clouds":[{"cover":"SCT","base":3000}],"obsTime":1782662400},"SBRF":{"icaoId":"SBRF","flightCategory":"VFR","rawOb":"METAR SBRF 281600Z 14010KT 9999 FEW025 28/22 Q1015","temp":28,"dewp":22,"wdir":140,"wspd":10,"visib":"6+","altim":1015,"clouds":[{"cover":"FEW","base":2500}],"obsTime":1782662400},"SBLO":{"icaoId":"SBLO","flightCategory":"VFR","rawOb":"METAR SBLO 281600Z COR 02008KT 350V060 CAVOK 24/18 Q1019","temp":24,"dewp":18,"wdir":20,"wspd":8,"visib":"6+","altim":1019,"clouds":[],"obsTime":1782662400},"SBGL":{"icaoId":"SBGL","flightCategory":"VFR","rawOb":"METAR SBGL 281600Z 02003KT 9000 NSC 27/21 Q1019","temp":27,"dewp":21,"wdir":20,"wspd":3,"visib":5.59,"altim":1019,"clouds":[],"obsTime":1782662400},"SBCB":{"icaoId":"SBCB","flightCategory":"VFR","rawOb":"METAR SBCB 281600Z 08011KT CAVOK 27/19 Q1020","temp":27,"dewp":19,"wdir":80,"wspd":11,"visib":"6+","altim":1020,"clouds":[],"obsTime":1782662400},"SBCT":{"icaoId":"SBCT","flightCategory":"VFR","rawOb":"METAR SBCT 281600Z 33017KT 9999 SCT035 23/15 Q1021","temp":23,"dewp":15,"wdir":330,"wspd":17,"visib":"6+","altim":1021,"clouds":[{"cover":"SCT","base":3500}],"obsTime":1782662400},"SBSL":{"icaoId":"SBSL","flightCategory":"MVFR","rawOb":"METAR SBSL 281600Z 12003KT 070V160 6000 -RA SCT016 BKN025 FEW030TCU 25/24 Q1013","temp":25,"dewp":24,"wdir":120,"wspd":3,"visib":3.73,"altim":1013,"clouds":[{"cover":"SCT","base":1600},{"cover":"BKN","base":2500},{"cover":"FEW","base":3000}],"obsTime":1782662400},"SBFL":{"icaoId":"SBFL","flightCategory":"VFR","rawOb":"METAR SBFL 281600Z 34008KT 9999 FEW020 BKN090 22/17 Q1015","temp":22,"dewp":17,"wdir":340,"wspd":8,"visib":"6+","altim":1015,"clouds":[{"cover":"FEW","base":2000},{"cover":"BKN","base":9000}],"obsTime":1782662400},"SBKP":{"icaoId":"SBKP","flightCategory":"VFR","rawOb":"METAR SBKP 281600Z 36010KT 340V050 9999 FEW040 26/15 Q1021","temp":26,"dewp":15,"wdir":360,"wspd":10,"visib":"6+","altim":1021,"clouds":[{"cover":"FEW","base":4000}],"obsTime":1782662400},"SBFZ":{"icaoId":"SBFZ","flightCategory":"LIFR","rawOb":"METAR SBFZ 281600Z 11013KT 1500 R31///// R13/P2000 RA BR BKN018 FEW025TCU 25/23 Q1014","temp":25,"dewp":23,"wdir":110,"wspd":13,"visib":0.93,"altim":1014,"clouds":[{"cover":"BKN","base":1800},{"cover":"FEW","base":2500}],"obsTime":1782662400},"SBVT":{"icaoId":"SBVT","flightCategory":"VFR","rawOb":"METAR SBVT 281600Z 20004KT 9999 SCT025 26/21 Q1022","temp":26,"dewp":21,"wdir":200,"wspd":4,"visib":"6+","altim":1022,"clouds":[{"cover":"SCT","base":2500}],"obsTime":1782662400},"SBCF":{"icaoId":"SBCF","flightCategory":"VFR","rawOb":"METAR SBCF 281600Z 04009KT 9999 FEW030 24/11 Q1024","temp":24,"dewp":11,"wdir":40,"wspd":9,"visib":"6+","altim":1024,"clouds":[{"cover":"FEW","base":3000}],"obsTime":1782662400},"SBCZ":{"icaoId":"SBCZ","flightCategory":"MVFR","rawOb":"METAR SBCZ 281600Z 18005KT 9999 BKN020 28/22 Q1017","temp":28,"dewp":22,"wdir":180,"wspd":5,"visib":"6+","altim":1017,"clouds":[{"cover":"BKN","base":2000}],"obsTime":1782662400},"SBSV":{"icaoId":"SBSV","flightCategory":"VFR","rawOb":"METAR SBSV 281600Z 12011KT 100V220 9999 SCT020 28/20 Q1019","temp":28,"dewp":20,"wdir":120,"wspd":11,"visib":"6+","altim":1019,"clouds":[{"cover":"SCT","base":2000}],"obsTime":1782662400},"SBSN":{"icaoId":"SBSN","flightCategory":"VFR","rawOb":"METAR SBSN 281600Z 07006KT 9999 SCT021 FEW025TCU SCT090 30/24 Q1013","temp":30,"dewp":24,"wdir":70,"wspd":6,"visib":"6+","altim":1013,"clouds":[{"cover":"SCT","base":2100},{"cover":"FEW","base":2500},{"cover":"SCT","base":9000}],"obsTime":1782662400},"SBNT":{"icaoId":"SBNT","flightCategory":"MVFR","rawOb":"METAR SBNT 281600Z 14015KT 9999 BKN030 30/20 Q1014","temp":30,"dewp":20,"wdir":140,"wspd":15,"visib":"6+","altim":1014,"clouds":[{"cover":"BKN","base":3000}],"obsTime":1782662400},"SBGR":{"icaoId":"SBGR","flightCategory":"VFR","rawOb":"METAR SBGR 281600Z 08012KT CAVOK 22/17 Q1021","temp":22,"dewp":17,"wdir":80,"wspd":12,"visib":"6+","altim":1021,"clouds":[],"obsTime":1782662400},"SBCG":{"icaoId":"SBCG","flightCategory":"VFR","rawOb":"METAR SBCG 281600Z 33014KT CAVOK 29/17 Q1018","temp":29,"dewp":17,"wdir":330,"wspd":14,"visib":"6+","altim":1018,"clouds":[],"obsTime":1782662400},"SBMG":{"icaoId":"SBMG","flightCategory":"VFR","rawOb":"METAR SBMG 281600Z 10013KT 9999 FEW045 26/18 Q1018","temp":26,"dewp":18,"wdir":100,"wspd":13,"visib":"6+","altim":1018,"clouds":[{"cover":"FEW","base":4500}],"obsTime":1782662400},"SBIL":{"icaoId":"SBIL","flightCategory":"VFR","rawOb":"METAR SBIL 281600Z 16010KT 9999 SCT025 29/21 Q1020","temp":29,"dewp":21,"wdir":160,"wspd":10,"visib":"6+","altim":1020,"clouds":[{"cover":"SCT","base":2500}],"obsTime":1782662400},"SBJU":{"icaoId":"SBJU","flightCategory":"VFR","rawOb":"METAR SBJU 281600Z 00000KT 9999 SCT022 30/17 Q1016","temp":30,"dewp":17,"wdir":0,"wspd":0,"visib":"6+","altim":1016,"clouds":[{"cover":"SCT","base":2200}],"obsTime":1782662400},"SBAT":{"icaoId":"SBAT","flightCategory":"VFR","rawOb":"METAR SBAT 281600Z 11009KT 9999 SCT025 35/21 Q1015","temp":35,"dewp":21,"wdir":110,"wspd":9,"visib":"6+","altim":1015,"clouds":[{"cover":"SCT","base":2500}],"obsTime":1782662400},"SBHT":{"icaoId":"SBHT","flightCategory":"MVFR","rawOb":"METAR SBHT 281600Z 27002KT 9999 BKN015 BKN080 26/25 Q1014","temp":26,"dewp":25,"wdir":270,"wspd":2,"visib":"6+","altim":1014,"clouds":[{"cover":"BKN","base":1500},{"cover":"BKN","base":8000}],"obsTime":1782662400},"SBME":{"icaoId":"SBME","flightCategory":"VFR","rawOb":"METAR SBME 281600Z 04016KT 9999 FEW040 29/18 Q1020","temp":29,"dewp":18,"wdir":40,"wspd":16,"visib":"6+","altim":1020,"clouds":[{"cover":"FEW","base":4000}],"obsTime":1782662400},"SBMK":{"icaoId":"SBMK","flightCategory":"VFR","rawOb":"METAR SBMK 281600Z 10007KT CAVOK 26/12 Q1022","temp":26,"dewp":12,"wdir":100,"wspd":7,"visib":"6+","altim":1022,"clouds":[],"obsTime":1782662400},"SBPV":{"icaoId":"SBPV","flightCategory":"VFR","rawOb":"METAR SBPV 281600Z 23002KT 9999 FEW020 30/22 Q1014","temp":30,"dewp":22,"wdir":230,"wspd":2,"visib":"6+","altim":1014,"clouds":[{"cover":"FEW","base":2000}],"obsTime":1782662400},"SBUL":{"icaoId":"SBUL","flightCategory":"VFR","rawOb":"METAR SBUL 281600Z 06011KT CAVOK 24/14 Q1023","temp":24,"dewp":14,"wdir":60,"wspd":11,"visib":"6+","altim":1023,"clouds":[],"obsTime":1782662400},"SBUR":{"icaoId":"SBUR","flightCategory":"VFR","rawOb":"METAR SBUR 281600Z 01011KT CAVOK 26/14 Q1022","temp":26,"dewp":14,"wdir":10,"wspd":11,"visib":"6+","altim":1022,"clouds":[],"obsTime":1782662400},"SBTE":{"icaoId":"SBTE","flightCategory":"VFR","rawOb":"METAR SBTE 281600Z 13009KT 9999 BKN040 30/22 Q1013","temp":30,"dewp":22,"wdir":130,"wspd":9,"visib":"6+","altim":1013,"clouds":[{"cover":"BKN","base":4000}],"obsTime":1782662400},"SBGO":{"icaoId":"SBGO","flightCategory":"VFR","rawOb":"METAR SBGO 281600Z 11007KT 070V150 9999 FEW049 29/14 Q1021","temp":29,"dewp":14,"wdir":110,"wspd":7,"visib":"6+","altim":1021,"clouds":[{"cover":"FEW","base":4900}],"obsTime":1782662400},"SBPJ":{"icaoId":"SBPJ","flightCategory":"VFR","rawOb":"METAR SBPJ 281600Z 13010KT 9999 FEW035 33/18 Q1016","temp":33,"dewp":18,"wdir":130,"wspd":10,"visib":"6+","altim":1016,"clouds":[{"cover":"FEW","base":3500}],"obsTime":1782662400},"SBMA":{"icaoId":"SBMA","flightCategory":"MVFR","rawOb":"METAR SBMA 281600Z 10007KT 9999 BKN015 32/19 Q1013","temp":32,"dewp":19,"wdir":100,"wspd":7,"visib":"6+","altim":1013,"clouds":[{"cover":"BKN","base":1500}],"obsTime":1782662400},"SBMQ":{"icaoId":"SBMQ","flightCategory":"VFR","rawOb":"METAR SBMQ 281600Z 06007KT 010V090 9999 VCSH SCT025 FEW030TCU BKN100 31/24 Q1013","temp":31,"dewp":24,"wdir":60,"wspd":7,"visib":"6+","altim":1013,"clouds":[{"cover":"SCT","base":2500},{"cover":"FEW","base":3000},{"cover":"BKN","base":10000}],"obsTime":1782662400},"SBCR":{"icaoId":"SBCR","flightCategory":"VFR","rawOb":"METAR SBCR 281600Z 32006KT 250V050 9999 FEW040 31/21 Q1015","temp":31,"dewp":21,"wdir":320,"wspd":6,"visib":"6+","altim":1015,"clouds":[{"cover":"FEW","base":4000}],"obsTime":1782662400},"SBCP":{"icaoId":"SBCP","flightCategory":"VFR","rawOb":"METAR SBCP 281600Z 09013KT 9999 SCT020 29/18 Q1021","temp":29,"dewp":18,"wdir":90,"wspd":13,"visib":"6+","altim":1021,"clouds":[{"cover":"SCT","base":2000}],"obsTime":1782662400},"SBPA":{"icaoId":"SBPA","flightCategory":"IFR","rawOb":"METAR SBPA 281600Z 08003KT 3000 -RA BR BKN045 FEW050TCU BKN100 16/16 Q1013","temp":16,"dewp":16,"wdir":80,"wspd":3,"visib":1.86,"altim":1013,"clouds":[{"cover":"BKN","base":4500},{"cover":"FEW","base":5000},{"cover":"BKN","base":10000}],"obsTime":1782662400},"SBFI":{"icaoId":"SBFI","flightCategory":"VFR","rawOb":"METAR SBFI 281600Z 01006KT 9999 SCT030 FEW035TCU BKN100 22/19 Q1015","temp":22,"dewp":19,"wdir":10,"wspd":6,"visib":"6+","altim":1015,"clouds":[{"cover":"SCT","base":3000},{"cover":"FEW","base":3500},{"cover":"BKN","base":10000}],"obsTime":1782662400},"SBSP":{"icaoId":"SBSP","flightCategory":"VFR","rawOb":"METAR SBSP 281600Z 02007KT CAVOK 24/16 Q1022","temp":24,"dewp":16,"wdir":20,"wspd":7,"visib":"6+","altim":1022,"clouds":[],"obsTime":1782662400},"SBBE":{"icaoId":"SBBE","flightCategory":"VFR","rawOb":"METAR SBBE 281600Z 10007KT 9999 SCT030 FEW035TCU BKN090 31/23 Q1013","temp":31,"dewp":23,"wdir":100,"wspd":7,"visib":"6+","altim":1013,"clouds":[{"cover":"SCT","base":3000},{"cover":"FEW","base":3500},{"cover":"BKN","base":9000}],"obsTime":1782662400},"SBBR":{"icaoId":"SBBR","flightCategory":"VFR","rawOb":"METAR SBBR 281600Z 07009KT 9999 FEW030 23/14 Q1024","temp":23,"dewp":14,"wdir":70,"wspd":9,"visib":"6+","altim":1024,"clouds":[{"cover":"FEW","base":3000}],"obsTime":1782662400},"SBRB":{"icaoId":"SBRB","flightCategory":"VFR","rawOb":"METAR SBRB 281600Z 02003KT 9999 SCT030 29/22 Q1017","temp":29,"dewp":22,"wdir":20,"wspd":3,"visib":"6+","altim":1017,"clouds":[{"cover":"SCT","base":3000}],"obsTime":1782662400},"SBSG":{"icaoId":"SBSG","flightCategory":"VFR","rawOb":"METAR SBSG 281600Z 13009KT 9999 SCT030 29/21 Q1015","temp":29,"dewp":21,"wdir":130,"wspd":9,"visib":"6+","altim":1015,"clouds":[{"cover":"SCT","base":3000}],"obsTime":1782662400},"SBPP":{"icaoId":"SBPP","flightCategory":"VFR","rawOb":"METAR SBPP 281600Z 35012KT 9999 SCT025 27/16 Q1018","temp":27,"dewp":16,"wdir":350,"wspd":12,"visib":"6+","altim":1018,"clouds":[{"cover":"SCT","base":2500}],"obsTime":1782662400},"SBTU":{"icaoId":"SBTU","flightCategory":"VFR","rawOb":"METAR SBTU 281600Z AUTO 28009KT 9999 // FEW036/// BKN053/// BKN079/// ///// Q1015","temp":null,"dewp":null,"wdir":280,"wspd":9,"visib":"6+","altim":1015,"clouds":[{"cover":"FEW","base":3600},{"cover":"BKN","base":5300},{"cover":"BKN","base":7900}],"obsTime":1782662400},"SBAR":{"icaoId":"SBAR","flightCategory":"VFR","rawOb":"METAR SBAR 281600Z 15007KT 9999 FEW017 BKN048 26/23 Q1017","temp":26,"dewp":23,"wdir":150,"wspd":7,"visib":"6+","altim":1017,"clouds":[{"cover":"FEW","base":1700},{"cover":"BKN","base":4800}],"obsTime":1782662400},"SBPS":{"icaoId":"SBPS","flightCategory":"VFR","rawOb":"METAR SBPS 281600Z 16003KT 9999 SCT020 BKN045 26/20 Q1021","temp":26,"dewp":20,"wdir":160,"wspd":3,"visib":"6+","altim":1021,"clouds":[{"cover":"SCT","base":2000},{"cover":"BKN","base":4500}],"obsTime":1782662400},"SBCJ":{"icaoId":"SBCJ","flightCategory":"MVFR","rawOb":"METAR SBCJ 281600Z 12005KT 9999 BKN030 28/19 Q1018","temp":28,"dewp":19,"wdir":120,"wspd":5,"visib":"6+","altim":1018,"clouds":[{"cover":"BKN","base":3000}],"obsTime":1782662400},"SBCO":{"icaoId":"SBCO","flightCategory":"IFR","rawOb":"METAR SBCO 281600Z VRB02KT 4000 -RA BR FEW045 BKN100 17/16 Q1014","temp":17,"dewp":16,"wdir":"VRB","wspd":2,"visib":2.49,"altim":1014,"clouds":[{"cover":"FEW","base":4500},{"cover":"BKN","base":10000}],"obsTime":1782662400},"SBES":{"icaoId":"SBES","flightCategory":"VFR","rawOb":"METAR SBES 281600Z 05014KT 020V090 CAVOK 26/// Q1020","temp":null,"dewp":null,"wdir":50,"wspd":14,"visib":"6+","altim":1020,"clouds":[],"obsTime":1782662400},"SBPB":{"icaoId":"SBPB","flightCategory":"VFR","rawOb":"METAR SBPB 281600Z 08010KT 9999 SCT020 BKN090 30/24 Q1012","temp":30,"dewp":24,"wdir":80,"wspd":10,"visib":"6+","altim":1012,"clouds":[{"cover":"SCT","base":2000},{"cover":"BKN","base":9000}],"obsTime":1782662400},"SBPL":{"icaoId":"SBPL","flightCategory":"VFR","rawOb":"METAR SBPL 281600Z 11013KT 9999 FEW030 31/15 Q1017","temp":31,"dewp":15,"wdir":110,"wspd":13,"visib":"6+","altim":1017,"clouds":[{"cover":"FEW","base":3000}],"obsTime":1782662400},"SBTT":{"icaoId":"SBTT","flightCategory":"MVFR","rawOb":"METAR SBTT 281600Z 22004KT 9999 FEW012 BKN015 BKN080 25/22 Q1017","temp":25,"dewp":22,"wdir":220,"wspd":4,"visib":"6+","altim":1017,"clouds":[{"cover":"FEW","base":1200},{"cover":"BKN","base":1500},{"cover":"BKN","base":8000}],"obsTime":1782662400},"SBOI":{"icaoId":"SBOI","flightCategory":"VFR","rawOb":"METAR SBOI 281600Z AUTO 18005KT 110V210 9999 FEW027 30/25 Q1013","temp":30,"dewp":25,"wdir":180,"wspd":5,"visib":"6+","altim":1013,"clouds":[{"cover":"FEW","base":2700}],"obsTime":1782662400},"SBSJ":{"icaoId":"SBSJ","flightCategory":"MVFR","rawOb":"METAR SBSJ 281600Z 32003KT 270V010 8000 NSC 22/17 Q1022","temp":22,"dewp":17,"wdir":320,"wspd":3,"visib":4.97,"altim":1022,"clouds":[],"obsTime":1782662400},"SBSM":{"icaoId":"SBSM","flightCategory":"IFR","rawOb":"METAR SBSM 281600Z VRB02KT 2000 -TSRA BR SCT001 SCT006 BKN017 FEW040CB 16/16 Q1015 RETS","temp":16,"dewp":16,"wdir":"VRB","wspd":2,"visib":1.24,"altim":1015,"clouds":[{"cover":"SCT","base":100},{"cover":"SCT","base":600},{"cover":"BKN","base":1700},{"cover":"FEW","base":4000}],"obsTime":1782662400},"SBKG":{"icaoId":"SBKG","flightCategory":"VFR","rawOb":"METAR SBKG 281600Z 16011KT CAVOK 27/16 Q1017","temp":27,"dewp":16,"wdir":160,"wspd":11,"visib":"6+","altim":1017,"clouds":[],"obsTime":1782662400},"SBCC":{"icaoId":"SBCC","flightCategory":"VFR","rawOb":"METAR SBCC 281600Z 05010KT 9999 SCT025 31/19 Q1016","temp":31,"dewp":19,"wdir":50,"wspd":10,"visib":"6+","altim":1016,"clouds":[{"cover":"SCT","base":2500}],"obsTime":1782662400},"SBGM":{"icaoId":"SBGM","flightCategory":"VFR","rawOb":"METAR SBGM 281600Z 04002KT 9999 FEW020 30/21 Q1016","temp":30,"dewp":21,"wdir":40,"wspd":2,"visib":"6+","altim":1016,"clouds":[{"cover":"FEW","base":2000}],"obsTime":1782662400},"SBVH":{"icaoId":"SBVH","flightCategory":"VFR","rawOb":"METAR SBVH 281600Z 09011KT CAVOK 30/18 Q1018","temp":30,"dewp":18,"wdir":90,"wspd":11,"visib":"6+","altim":1018,"clouds":[],"obsTime":1782662400},"SBAU":{"icaoId":"SBAU","flightCategory":"VFR","rawOb":"METAR SBAU 281700Z 36006KT CAVOK 32/15 Q1017","temp":32,"dewp":15,"wdir":360,"wspd":6,"visib":"6+","altim":1017,"clouds":[],"obsTime":1782666000},"SBAX":{"icaoId":"SBAX","flightCategory":"VFR","rawOb":"METAR SBAX 281600Z AUTO 02007KT 330V070 9999 FEW038 24/14 Q1023","temp":24,"dewp":14,"wdir":20,"wspd":7,"visib":"6+","altim":1023,"clouds":[{"cover":"FEW","base":3800}],"obsTime":1782662400},"SBBH":{"icaoId":"SBBH","flightCategory":"VFR","rawOb":"METAR SBBH 281600Z 07009KT 9999 FEW040 24/12 Q1024","temp":24,"dewp":12,"wdir":70,"wspd":9,"visib":"6+","altim":1024,"clouds":[{"cover":"FEW","base":4000}],"obsTime":1782662400},"SBBQ":{"icaoId":"SBBQ","flightCategory":"MVFR","rawOb":"METAR SBBQ 281600Z 28007KT 340V130 9999 BKN030 22/13 Q1027","temp":22,"dewp":13,"wdir":280,"wspd":7,"visib":"6+","altim":1027,"clouds":[{"cover":"BKN","base":3000}],"obsTime":1782662400},"SBBU":{"icaoId":"SBBU","flightCategory":"VFR","rawOb":"METAR SBBU 281600Z 04006KT CAVOK 27/18 Q1020","temp":27,"dewp":18,"wdir":40,"wspd":6,"visib":"6+","altim":1020,"clouds":[],"obsTime":1782662400},"SBDN":{"icaoId":"SBDN","flightCategory":"VFR","rawOb":"METAR SBDN 281600Z 01008KT CAVOK 26/17 Q1019","temp":26,"dewp":17,"wdir":10,"wspd":8,"visib":"6+","altim":1019,"clouds":[],"obsTime":1782662400},"SBIP":{"icaoId":"SBIP","flightCategory":"VFR","rawOb":"METAR SBIP 281600Z AUTO 01006KT 330V040 9999 FEW036 26/17 Q1023","temp":26,"dewp":17,"wdir":10,"wspd":6,"visib":"6+","altim":1023,"clouds":[{"cover":"FEW","base":3600}],"obsTime":1782662400},"SBSC":{"icaoId":"SBSC","flightCategory":"VFR","rawOb":"METAR SBSC 281600Z 02011KT 9999 FEW040 29/18 Q1019","temp":29,"dewp":18,"wdir":20,"wspd":11,"visib":"6+","altim":1019,"clouds":[{"cover":"FEW","base":4000}],"obsTime":1782662400},"SBSR":{"icaoId":"SBSR","flightCategory":"VFR","rawOb":"METAR SBSR 281600Z 02011KT 300V050 CAVOK 27/15 Q1019","temp":27,"dewp":15,"wdir":20,"wspd":11,"visib":"6+","altim":1019,"clouds":[],"obsTime":1782662400},"SBTF":{"icaoId":"SBTF","flightCategory":"VFR","rawOb":"METAR SBTF 281600Z 07003KT 9999 SCT010 BKN090 28/25 Q1014","temp":28,"dewp":25,"wdir":70,"wspd":3,"visib":"6+","altim":1014,"clouds":[{"cover":"SCT","base":1000},{"cover":"BKN","base":9000}],"obsTime":1782662400},"SBUY":{"icaoId":"SBUY","flightCategory":"VFR","rawOb":"METAR SBUY 281600Z 00000KT 9999 SCT017 BKN090 26/23 Q1014","temp":26,"dewp":23,"wdir":0,"wspd":0,"visib":"6+","altim":1014,"clouds":[{"cover":"SCT","base":1700},{"cover":"BKN","base":9000}],"obsTime":1782662400},"SBLE":{"icaoId":"SBLE","flightCategory":"IFR","rawOb":"METAR SBLE 281600Z AUTO 14008KT 110V180 9999 FEW005 BKN008 OVC029 ///// Q////","temp":null,"dewp":null,"wdir":140,"wspd":8,"visib":"6+","altim":null,"clouds":[{"cover":"FEW","base":500},{"cover":"BKN","base":800},{"cover":"OVC","base":2900}],"obsTime":1782662400},"SBJP":{"icaoId":"SBJP","flightCategory":"VFR","rawOb":"METAR SBJP 281600Z 13013KT 9999 BKN035 29/21 Q1015","temp":29,"dewp":21,"wdir":130,"wspd":13,"visib":"6+","altim":1015,"clouds":[{"cover":"BKN","base":3500}],"obsTime":1782662400},"SBTA":{"icaoId":"SBTA","flightCategory":"VFR","rawOb":"METAR SBTA 281600Z 03006KT 350V060 9999 FEW020 24/17 Q1021","temp":24,"dewp":17,"wdir":30,"wspd":6,"visib":"6+","altim":1021,"clouds":[{"cover":"FEW","base":2000}],"obsTime":1782662400},"SBST":{"icaoId":"SBST","flightCategory":"MVFR","rawOb":"METAR SBST 281600Z 25005KT 5000 BR BKN022 22/18 Q1018","temp":22,"dewp":18,"wdir":250,"wspd":5,"visib":3.11,"altim":1018,"clouds":[{"cover":"BKN","base":2200}],"obsTime":1782662400},"SBMT":{"icaoId":"SBMT","flightCategory":"VFR","rawOb":"METAR SBMT 281600Z 36006KT CAVOK 24/13 Q1021","temp":24,"dewp":13,"wdir":360,"wspd":6,"visib":"6+","altim":1021,"clouds":[],"obsTime":1782662400},"SBLS":{"icaoId":"SBLS","flightCategory":"VFR","rawOb":"METAR SBLS 281600Z VRB04KT 9999 FEW040 24/12 Q1024","temp":24,"dewp":12,"wdir":"VRB","wspd":4,"visib":"6+","altim":1024,"clouds":[{"cover":"FEW","base":4000}],"obsTime":1782662400},"SBJR":{"icaoId":"SBJR","flightCategory":"MVFR","rawOb":"METAR SBJR 281600Z 02004KT 6000 NSC 30/20 Q1019","temp":30,"dewp":20,"wdir":20,"wspd":4,"visib":3.73,"altim":1019,"clouds":[],"obsTime":1782662400},"SBGW":{"icaoId":"SBGW","flightCategory":"VFR","rawOb":"METAR SBGW 281600Z 04006KT 350V110 CAVOK 25/14 Q1021","temp":25,"dewp":14,"wdir":40,"wspd":6,"visib":"6+","altim":1021,"clouds":[],"obsTime":1782662400},"SBNM":{"icaoId":"SBNM","flightCategory":"VFR","rawOb":"METAR SBNM 281600Z AUTO 01005KT 340V040 9999 -RA VCTS //////CB 16/16 Q1017","temp":16,"dewp":16,"wdir":10,"wspd":5,"visib":"6+","altim":1017,"clouds":[],"obsTime":1782662400},"SBIH":{"icaoId":"SBIH","flightCategory":"VFR","rawOb":"METAR SBIH 281600Z 08005KT 9999 FEW020 FEW025TCU SCT080 27/24 Q1013","temp":27,"dewp":24,"wdir":80,"wspd":5,"visib":"6+","altim":1013,"clouds":[{"cover":"FEW","base":2000},{"cover":"FEW","base":2500},{"cover":"SCT","base":8000}],"obsTime":1782662400},"SBTC":{"icaoId":"SBTC","flightCategory":"VFR","rawOb":"METAR SBTC 281600Z 17008KT 9999 SCT020 28/22 Q1020","temp":28,"dewp":22,"wdir":170,"wspd":8,"visib":"6+","altim":1020,"clouds":[{"cover":"SCT","base":2000}],"obsTime":1782662400},"SBAF":{"icaoId":"SBAF","flightCategory":"VFR","rawOb":"METAR SBAF 281600Z 33004KT 9999 FEW030 28/19 Q1019","temp":28,"dewp":19,"wdir":330,"wspd":4,"visib":"6+","altim":1019,"clouds":[{"cover":"FEW","base":3000}],"obsTime":1782662400},"SBAN":{"icaoId":"SBAN","flightCategory":"VFR","rawOb":"METAR SBAN 281600Z 07007KT CAVOK 25/14 Q1024","temp":25,"dewp":14,"wdir":70,"wspd":7,"visib":"6+","altim":1024,"clouds":[],"obsTime":1782662400},"SBJV":{"icaoId":"SBJV","flightCategory":"VFR","rawOb":"METAR SBJV 281600Z VRB03KT 9999 FEW015 SCT100 24/19 Q1016","temp":24,"dewp":19,"wdir":"VRB","wspd":3,"visib":"6+","altim":1016,"clouds":[{"cover":"FEW","base":1500},{"cover":"SCT","base":10000}],"obsTime":1782662400}}}