{"updated":1777045369,"count":87,"data":{"SBBE":{"icaoId":"SBBE","flightCategory":"MVFR","rawOb":"METAR SBBE 241400Z 31009KT 9999 VCSH SCT010 BKN020 FEW025TCU 26/24 Q1014","temp":26,"dewp":24,"wdir":310,"wspd":9,"visib":"6+","altim":1014,"clouds":[{"cover":"SCT","base":1000},{"cover":"BKN","base":2000},{"cover":"FEW","base":2500}],"obsTime":1777039200},"SBMA":{"icaoId":"SBMA","flightCategory":"MVFR","rawOb":"METAR SBMA 241400Z 31003KT 9999 FEW008 BKN015 BKN080 27/24 Q1014","temp":27,"dewp":24,"wdir":310,"wspd":3,"visib":"6+","altim":1014,"clouds":[{"cover":"FEW","base":800},{"cover":"BKN","base":1500},{"cover":"BKN","base":8000}],"obsTime":1777039200},"SBME":{"icaoId":"SBME","flightCategory":"VFR","rawOb":"METAR SBME 241400Z 14006KT 9999 FEW040 28/20 Q1018","temp":28,"dewp":20,"wdir":140,"wspd":6,"visib":"6+","altim":1018,"clouds":[{"cover":"FEW","base":4000}],"obsTime":1777039200},"SBEG":{"icaoId":"SBEG","flightCategory":"VFR","rawOb":"METAR SBEG 241400Z 18004KT 150V220 9999 SCT020 28/24 Q1014","temp":28,"dewp":24,"wdir":180,"wspd":4,"visib":"6+","altim":1014,"clouds":[{"cover":"SCT","base":2000}],"obsTime":1777039200},"SBMG":{"icaoId":"SBMG","flightCategory":"VFR","rawOb":"METAR SBMG 241400Z 15005KT 110V170 CAVOK 25/18 Q1018","temp":25,"dewp":18,"wdir":150,"wspd":5,"visib":"6+","altim":1018,"clouds":[],"obsTime":1777039200},"SBMK":{"icaoId":"SBMK","flightCategory":"VFR","rawOb":"METAR SBMK 241400Z 08006KT CAVOK 27/15 Q1020","temp":27,"dewp":15,"wdir":80,"wspd":6,"visib":"6+","altim":1020,"clouds":[],"obsTime":1777039200},"SBFI":{"icaoId":"SBFI","flightCategory":"VFR","rawOb":"METAR SBFI 241400Z 03009KT CAVOK 27/19 Q1016","temp":27,"dewp":19,"wdir":30,"wspd":9,"visib":"6+","altim":1016,"clouds":[],"obsTime":1777039200},"SBCF":{"icaoId":"SBCF","flightCategory":"VFR","rawOb":"METAR SBCF 241400Z 14007KT 090V200 9999 SCT030 24/17 Q1022","temp":24,"dewp":17,"wdir":140,"wspd":7,"visib":"6+","altim":1022,"clouds":[{"cover":"SCT","base":3000}],"obsTime":1777039200},"SBMO":{"icaoId":"SBMO","flightCategory":"MVFR","rawOb":"METAR SBMO 241400Z 11010KT 9999 BKN030 30/23 Q1013","temp":30,"dewp":23,"wdir":110,"wspd":10,"visib":"6+","altim":1013,"clouds":[{"cover":"BKN","base":3000}],"obsTime":1777039200},"SBMQ":{"icaoId":"SBMQ","flightCategory":"VFR","rawOb":"METAR SBMQ 241400Z 03002KT 9999 -RA SCT007 SCT040 25/23 Q1014","temp":25,"dewp":23,"wdir":30,"wspd":2,"visib":"6+","altim":1014,"clouds":[{"cover":"SCT","base":700},{"cover":"SCT","base":4000}],"obsTime":1777039200},"SBFL":{"icaoId":"SBFL","flightCategory":"VFR","rawOb":"METAR SBFL 241400Z 34011KT 9999 FEW030 26/20 Q1018","temp":26,"dewp":20,"wdir":340,"wspd":11,"visib":"6+","altim":1018,"clouds":[{"cover":"FEW","base":3000}],"obsTime":1777039200},"SBNT":{"icaoId":"SBNT","flightCategory":"IFR","rawOb":"METAR SBNT 241400Z 21005KT 4000 -RA BR SCT007 BKN014 OVC029 24/24 Q1012","temp":24,"dewp":24,"wdir":210,"wspd":5,"visib":2.49,"altim":1012,"clouds":[{"cover":"SCT","base":700},{"cover":"BKN","base":1400},{"cover":"OVC","base":2900}],"obsTime":1777039200},"SBFZ":{"icaoId":"SBFZ","flightCategory":"MVFR","rawOb":"METAR SBFZ 241400Z 07009KT 9999 BKN020 FEW025TCU 31/24 Q1011","temp":31,"dewp":24,"wdir":70,"wspd":9,"visib":"6+","altim":1011,"clouds":[{"cover":"BKN","base":2000},{"cover":"FEW","base":2500}],"obsTime":1777039200},"SBPA":{"icaoId":"SBPA","flightCategory":"IFR","rawOb":"METAR SBPA 241400Z 10008KT 7000 -RA BKN008 OVC025 21/20 Q1017","temp":21,"dewp":20,"wdir":100,"wspd":8,"visib":4.35,"altim":1017,"clouds":[{"cover":"BKN","base":800},{"cover":"OVC","base":2500}],"obsTime":1777039200},"SBPJ":{"icaoId":"SBPJ","flightCategory":"VFR","rawOb":"METAR SBPJ 241400Z 29005KT 9999 SCT035 30/23 Q1015","temp":30,"dewp":23,"wdir":290,"wspd":5,"visib":"6+","altim":1015,"clouds":[{"cover":"SCT","base":3500}],"obsTime":1777039200},"SBCG":{"icaoId":"SBCG","flightCategory":"VFR","rawOb":"METAR SBCG 241400Z 06010KT 020V080 CAVOK 30/18 Q1017","temp":30,"dewp":18,"wdir":60,"wspd":10,"visib":"6+","altim":1017,"clouds":[],"obsTime":1777039200},"SBCR":{"icaoId":"SBCR","flightCategory":"VFR","rawOb":"METAR SBCR 241400Z VRB03KT CAVOK 28/19 Q1015","temp":28,"dewp":19,"wdir":"VRB","wspd":3,"visib":"6+","altim":1015,"clouds":[],"obsTime":1777039200},"SBCZ":{"icaoId":"SBCZ","flightCategory":"IFR","rawOb":"METAR SBCZ 241400Z 26002KT 9999 BKN006 BKN100 24/23 Q1015","temp":24,"dewp":23,"wdir":260,"wspd":2,"visib":"6+","altim":1015,"clouds":[{"cover":"BKN","base":600},{"cover":"BKN","base":10000}],"obsTime":1777039200},"SBKP":{"icaoId":"SBKP","flightCategory":"VFR","rawOb":"METAR SBKP 241400Z VRB04KT CAVOK 26/16 Q1020","temp":26,"dewp":16,"wdir":"VRB","wspd":4,"visib":"6+","altim":1020,"clouds":[],"obsTime":1777039200},"SBCB":{"icaoId":"SBCB","flightCategory":"VFR","rawOb":"METAR SBCB 241400Z 08005KT 9999 FEW025 28/20 Q1019","temp":28,"dewp":20,"wdir":80,"wspd":5,"visib":"6+","altim":1019,"clouds":[{"cover":"FEW","base":2500}],"obsTime":1777039200},"SBPV":{"icaoId":"SBPV","flightCategory":"MVFR","rawOb":"METAR SBPV 241400Z 02007KT 340V050 9999 BKN014 BKN030 27/25 Q1013","temp":27,"dewp":25,"wdir":20,"wspd":7,"visib":"6+","altim":1013,"clouds":[{"cover":"BKN","base":1400},{"cover":"BKN","base":3000}],"obsTime":1777039200},"SBGL":{"icaoId":"SBGL","flightCategory":"VFR","rawOb":"METAR SBGL 241400Z COR 35004KT 9999 FEW008 29/18 Q1018","temp":29,"dewp":18,"wdir":350,"wspd":4,"visib":"6+","altim":1018,"clouds":[{"cover":"FEW","base":800}],"obsTime":1777039200},"SBBR":{"icaoId":"SBBR","flightCategory":"VFR","rawOb":"METAR SBBR 241400Z 07009KT 040V100 9999 FEW025 24/16 Q1022","temp":24,"dewp":16,"wdir":70,"wspd":9,"visib":"6+","altim":1022,"clouds":[{"cover":"FEW","base":2500}],"obsTime":1777039200},"SBRB":{"icaoId":"SBRB","flightCategory":"IFR","rawOb":"METAR SBRB 241400Z 14004KT 100V180 8000 BKN007 BKN015 BKN100 26/25 Q1014","temp":26,"dewp":25,"wdir":140,"wspd":4,"visib":4.97,"altim":1014,"clouds":[{"cover":"BKN","base":700},{"cover":"BKN","base":1500},{"cover":"BKN","base":10000}],"obsTime":1777039200},"SBRF":{"icaoId":"SBRF","flightCategory":"VFR","rawOb":"METAR SBRF 241400Z 14014KT 9999 FEW025 30/23 Q1012","temp":30,"dewp":23,"wdir":140,"wspd":14,"visib":"6+","altim":1012,"clouds":[{"cover":"FEW","base":2500}],"obsTime":1777039200},"SBGO":{"icaoId":"SBGO","flightCategory":"VFR","rawOb":"METAR SBGO 241400Z 35006KT CAVOK 27/18 Q1020","temp":27,"dewp":18,"wdir":350,"wspd":6,"visib":"6+","altim":1020,"clouds":[],"obsTime":1777039200},"SBSG":{"icaoId":"SBSG","flightCategory":"IFR","rawOb":"METAR SBSG 241400Z 21003KT 4500 -RA BR BKN006 BKN011 24/24 Q1013","temp":24,"dewp":24,"wdir":210,"wspd":3,"visib":2.8,"altim":1013,"clouds":[{"cover":"BKN","base":600},{"cover":"BKN","base":1100}],"obsTime":1777039200},"SBGR":{"icaoId":"SBGR","flightCategory":"VFR","rawOb":"METAR SBGR 241400Z 07006KT CAVOK 24/16 Q1021","temp":24,"dewp":16,"wdir":70,"wspd":6,"visib":"6+","altim":1021,"clouds":[],"obsTime":1777039200},"SBSL":{"icaoId":"SBSL","flightCategory":"MVFR","rawOb":"METAR SBSL 241400Z VRB05KT 6000 -TSRA SCT008 BKN017 FEW025CB BKN080 27/25 Q1013","temp":27,"dewp":25,"wdir":"VRB","wspd":5,"visib":3.73,"altim":1013,"clouds":[{"cover":"SCT","base":800},{"cover":"BKN","base":1700},{"cover":"FEW","base":2500},{"cover":"BKN","base":8000}],"obsTime":1777039200},"SBCP":{"icaoId":"SBCP","flightCategory":"MVFR","rawOb":"METAR SBCP 241400Z 01004KT 9999 BKN020 29/19 Q1018","temp":29,"dewp":19,"wdir":10,"wspd":4,"visib":"6+","altim":1018,"clouds":[{"cover":"BKN","base":2000}],"obsTime":1777039200},"SBSN":{"icaoId":"SBSN","flightCategory":"VFR","rawOb":"METAR SBSN 241400Z 08008KT 9999 FEW015 27/24 Q1013","temp":27,"dewp":24,"wdir":80,"wspd":8,"visib":"6+","altim":1013,"clouds":[{"cover":"FEW","base":1500}],"obsTime":1777039200},"SBSP":{"icaoId":"SBSP","flightCategory":"VFR","rawOb":"METAR SBSP 241400Z 10005KT 010V140 CAVOK 24/16 Q1022","temp":24,"dewp":16,"wdir":100,"wspd":5,"visib":"6+","altim":1022,"clouds":[],"obsTime":1777039200},"SBHT":{"icaoId":"SBHT","flightCategory":"VFR","rawOb":"METAR SBHT 241400Z 12006KT 9999 SCT015 BKN080 27/23 Q1015","temp":27,"dewp":23,"wdir":120,"wspd":6,"visib":"6+","altim":1015,"clouds":[{"cover":"SCT","base":1500},{"cover":"BKN","base":8000}],"obsTime":1777039200},"SBSV":{"icaoId":"SBSV","flightCategory":"VFR","rawOb":"METAR SBSV 241400Z 11011KT 9999 SCT024 30/24 Q1014","temp":30,"dewp":24,"wdir":110,"wspd":11,"visib":"6+","altim":1014,"clouds":[{"cover":"SCT","base":2400}],"obsTime":1777039200},"SBLO":{"icaoId":"SBLO","flightCategory":"VFR","rawOb":"METAR SBLO 241400Z 09007KT CAVOK 24/17 Q1019","temp":24,"dewp":17,"wdir":90,"wspd":7,"visib":"6+","altim":1019,"clouds":[],"obsTime":1777039200},"SBIL":{"icaoId":"SBIL","flightCategory":"MVFR","rawOb":"METAR SBIL 241400Z 21006KT 9999 BKN019 BKN070 27/25 Q1016","temp":27,"dewp":25,"wdir":210,"wspd":6,"visib":"6+","altim":1016,"clouds":[{"cover":"BKN","base":1900},{"cover":"BKN","base":7000}],"obsTime":1777039200},"SBTE":{"icaoId":"SBTE","flightCategory":"MVFR","rawOb":"METAR SBTE 241400Z 29003KT 9999 BKN020 30/24 Q1012","temp":30,"dewp":24,"wdir":290,"wspd":3,"visib":"6+","altim":1012,"clouds":[{"cover":"BKN","base":2000}],"obsTime":1777039200},"SBUL":{"icaoId":"SBUL","flightCategory":"VFR","rawOb":"METAR SBUL 241400Z 07012KT CAVOK 25/16 Q1021","temp":25,"dewp":16,"wdir":70,"wspd":12,"visib":"6+","altim":1021,"clouds":[],"obsTime":1777039200},"SBBV":{"icaoId":"SBBV","flightCategory":"VFR","rawOb":"METAR SBBV 241400Z 09007KT 9999 FEW020 29/23 Q1014","temp":29,"dewp":23,"wdir":90,"wspd":7,"visib":"6+","altim":1014,"clouds":[{"cover":"FEW","base":2000}],"obsTime":1777039200},"SBUR":{"icaoId":"SBUR","flightCategory":"VFR","rawOb":"METAR SBUR 241400Z 04008KT CAVOK 27/15 Q1020","temp":27,"dewp":15,"wdir":40,"wspd":8,"visib":"6+","altim":1020,"clouds":[],"obsTime":1777039200},"SBVT":{"icaoId":"SBVT","flightCategory":"VFR","rawOb":"METAR SBVT 241400Z 14007KT 9999 FEW030 28/18 Q1018","temp":28,"dewp":18,"wdir":140,"wspd":7,"visib":"6+","altim":1018,"clouds":[{"cover":"FEW","base":3000}],"obsTime":1777039200},"SBAT":{"icaoId":"SBAT","flightCategory":"VFR","rawOb":"METAR SBAT 241400Z 00000KT 9999 FEW018 29/24 Q1015","temp":29,"dewp":24,"wdir":0,"wspd":0,"visib":"6+","altim":1015,"clouds":[{"cover":"FEW","base":1800}],"obsTime":1777039200},"SBJU":{"icaoId":"SBJU","flightCategory":"VFR","rawOb":"METAR SBJU 241400Z 18007KT 9999 FEW022 28/22 Q1014","temp":28,"dewp":22,"wdir":180,"wspd":7,"visib":"6+","altim":1014,"clouds":[{"cover":"FEW","base":2200}],"obsTime":1777039200},"SBCT":{"icaoId":"SBCT","flightCategory":"MVFR","rawOb":"METAR SBCT 241400Z VRB02KT 9999 BKN023 21/15 Q1022","temp":21,"dewp":15,"wdir":"VRB","wspd":2,"visib":"6+","altim":1022,"clouds":[{"cover":"BKN","base":2300}],"obsTime":1777039200},"SBPS":{"icaoId":"SBPS","flightCategory":"MVFR","rawOb":"METAR SBPS 241400Z 09009KT 060V130 7000 -RA BKN015 FEW025TCU OVC040 24/22 Q1017","temp":24,"dewp":22,"wdir":90,"wspd":9,"visib":4.35,"altim":1017,"clouds":[{"cover":"BKN","base":1500},{"cover":"FEW","base":2500},{"cover":"OVC","base":4000}],"obsTime":1777039200},"SBOI":{"icaoId":"SBOI","flightCategory":"VFR","rawOb":"METAR SBOI 241400Z AUTO 35004KT 9999 -RA FEW004 23/23 Q1016 RERA","temp":23,"dewp":23,"wdir":350,"wspd":4,"visib":"6+","altim":1016,"clouds":[{"cover":"FEW","base":400}],"obsTime":1777039200},"SBCO":{"icaoId":"SBCO","flightCategory":"IFR","rawOb":"METAR SBCO 241400Z 11010KT 7000 -RA BKN007 OVC023 21/20 Q1017","temp":21,"dewp":20,"wdir":110,"wspd":10,"visib":4.35,"altim":1017,"clouds":[{"cover":"BKN","base":700},{"cover":"OVC","base":2300}],"obsTime":1777039200},"SBPB":{"icaoId":"SBPB","flightCategory":"VFR","rawOb":"METAR SBPB 241400Z 08009KT 9999 FEW020 31/25 Q1011","temp":31,"dewp":25,"wdir":80,"wspd":9,"visib":"6+","altim":1011,"clouds":[{"cover":"FEW","base":2000}],"obsTime":1777039200},"SBPL":{"icaoId":"SBPL","flightCategory":"MVFR","rawOb":"METAR SBPL 241400Z 11007KT 9999 BKN020 29/21 Q1015","temp":29,"dewp":21,"wdir":110,"wspd":7,"visib":"6+","altim":1015,"clouds":[{"cover":"BKN","base":2000}],"obsTime":1777039200},"SBAX":{"icaoId":"SBAX","flightCategory":"VFR","rawOb":"METAR SBAX 241400Z 05006KT CAVOK 23/15 Q1022","temp":23,"dewp":15,"wdir":50,"wspd":6,"visib":"6+","altim":1022,"clouds":[],"obsTime":1777039200},"SBDN":{"icaoId":"SBDN","flightCategory":"VFR","rawOb":"METAR SBDN 241400Z 07007KT CAVOK 27/18 Q1017","temp":27,"dewp":18,"wdir":70,"wspd":7,"visib":"6+","altim":1017,"clouds":[],"obsTime":1777039200},"SBPP":{"icaoId":"SBPP","flightCategory":"VFR","rawOb":"METAR SBPP 241400Z 07010KT CAVOK 25/16 Q1018","temp":25,"dewp":16,"wdir":70,"wspd":10,"visib":"6+","altim":1018,"clouds":[],"obsTime":1777039200},"SBCA":{"icaoId":"SBCA","flightCategory":"VFR","rawOb":"METAR SBCA 241400Z 03012KT CAVOK 24/15 Q1020","temp":24,"dewp":15,"wdir":30,"wspd":12,"visib":"6+","altim":1020,"clouds":[],"obsTime":1777039200},"SBES":{"icaoId":"SBES","flightCategory":"VFR","rawOb":"METAR SBES 241400Z VRB06KT 9999 FEW020 28/// Q1018","temp":null,"dewp":null,"wdir":"VRB","wspd":6,"visib":"6+","altim":1018,"clouds":[{"cover":"FEW","base":2000}],"obsTime":1777039200},"SBSC":{"icaoId":"SBSC","flightCategory":"VFR","rawOb":"METAR SBSC 241400Z 02007KT CAVOK 28/19 Q1018","temp":28,"dewp":19,"wdir":20,"wspd":7,"visib":"6+","altim":1018,"clouds":[],"obsTime":1777039200},"SBBQ":{"icaoId":"SBBQ","flightCategory":"MVFR","rawOb":"METAR SBBQ 241400Z 08006KT 9999 BKN030 21/15 Q1025","temp":21,"dewp":15,"wdir":80,"wspd":6,"visib":"6+","altim":1025,"clouds":[{"cover":"BKN","base":3000}],"obsTime":1777039200},"SBSJ":{"icaoId":"SBSJ","flightCategory":"VFR","rawOb":"METAR SBSJ 241400Z 06004KT 360V140 9000 NSC 24/17 Q1021","temp":24,"dewp":17,"wdir":60,"wspd":4,"visib":5.59,"altim":1021,"clouds":[],"obsTime":1777039200},"SBCC":{"icaoId":"SBCC","flightCategory":"VFR","rawOb":"METAR SBCC 241400Z 05005KT 9999 SCT015 28/22 Q1016","temp":28,"dewp":22,"wdir":50,"wspd":5,"visib":"6+","altim":1016,"clouds":[{"cover":"SCT","base":1500}],"obsTime":1777039200},"SBSM":{"icaoId":"SBSM","flightCategory":"IFR","rawOb":"METAR SBSM 241400Z 11006KT 070V140 4500 -RA BR SCT005 SCT015 OVC050 19/19 Q1017 RERA","temp":19,"dewp":19,"wdir":110,"wspd":6,"visib":2.8,"altim":1017,"clouds":[{"cover":"SCT","base":500},{"cover":"SCT","base":1500},{"cover":"OVC","base":5000}],"obsTime":1777039200},"SBGM":{"icaoId":"SBGM","flightCategory":"VFR","rawOb":"METAR SBGM 241400Z 09004KT CAVOK 30/22 Q1014","temp":30,"dewp":22,"wdir":90,"wspd":4,"visib":"6+","altim":1014,"clouds":[],"obsTime":1777039200},"SBSR":{"icaoId":"SBSR","flightCategory":"VFR","rawOb":"METAR SBSR 241400Z 03009KT 9999 SCT030 27/16 Q1019","temp":27,"dewp":16,"wdir":30,"wspd":9,"visib":"6+","altim":1019,"clouds":[{"cover":"SCT","base":3000}],"obsTime":1777039200},"SBBH":{"icaoId":"SBBH","flightCategory":"VFR","rawOb":"METAR SBBH 241400Z 05006KT 9999 SCT033 25/16 Q1021","temp":25,"dewp":16,"wdir":50,"wspd":6,"visib":"6+","altim":1021,"clouds":[{"cover":"SCT","base":3300}],"obsTime":1777039200},"SBTD":{"icaoId":"SBTD","flightCategory":"VFR","rawOb":"METAR SBTD 241400Z /////KT CAVOK 26/20 Q1018","temp":26,"dewp":20,"wdir":null,"wspd":null,"visib":"6+","altim":1018,"clouds":[],"obsTime":1777039200},"SBIP":{"icaoId":"SBIP","flightCategory":"VFR","rawOb":"METAR SBIP 241400Z AUTO 35004KT 230V030 9999 FEW032 SCT039 26/17 Q1019","temp":26,"dewp":17,"wdir":350,"wspd":4,"visib":"6+","altim":1019,"clouds":[{"cover":"FEW","base":3200},{"cover":"SCT","base":3900}],"obsTime":1777039200},"SBTF":{"icaoId":"SBTF","flightCategory":"VFR","rawOb":"METAR SBTF 241400Z 08004KT CAVOK 30/25 Q1013","temp":30,"dewp":25,"wdir":80,"wspd":4,"visib":"6+","altim":1013,"clouds":[],"obsTime":1777039200},"SBCJ":{"icaoId":"SBCJ","flightCategory":"MVFR","rawOb":"METAR SBCJ 241400Z 07001KT 9999 SCT008 BKN011 26/22 Q1018","temp":26,"dewp":22,"wdir":70,"wspd":1,"visib":"6+","altim":1018,"clouds":[{"cover":"SCT","base":800},{"cover":"BKN","base":1100}],"obsTime":1777039200},"SBTT":{"icaoId":"SBTT","flightCategory":"IFR","rawOb":"METAR SBTT 241400Z 33002KT 9999 BKN008 BKN100 23/21 Q1015","temp":23,"dewp":21,"wdir":330,"wspd":2,"visib":"6+","altim":1015,"clouds":[{"cover":"BKN","base":800},{"cover":"BKN","base":10000}],"obsTime":1777039200},"SBKG":{"icaoId":"SBKG","flightCategory":"MVFR","rawOb":"METAR SBKG 241400Z 16007KT 9999 SCT010 BKN015 25/22 Q1015","temp":25,"dewp":22,"wdir":160,"wspd":7,"visib":"6+","altim":1015,"clouds":[{"cover":"SCT","base":1000},{"cover":"BKN","base":1500}],"obsTime":1777039200},"SBUY":{"icaoId":"SBUY","flightCategory":"LIFR","rawOb":"METAR SBUY 241400Z 33002KT 4000 -RA BKN004 BKN015 24/23 Q1013","temp":24,"dewp":23,"wdir":330,"wspd":2,"visib":2.49,"altim":1013,"clouds":[{"cover":"BKN","base":400},{"cover":"BKN","base":1500}],"obsTime":1777039200},"SBVH":{"icaoId":"SBVH","flightCategory":"VFR","rawOb":"METAR SBVH 241400Z 07005KT 9999 FEW020 BKN091 26/23 Q1017","temp":26,"dewp":23,"wdir":70,"wspd":5,"visib":"6+","altim":1017,"clouds":[{"cover":"FEW","base":2000},{"cover":"BKN","base":9100}],"obsTime":1777039200},"SBBU":{"icaoId":"SBBU","flightCategory":"VFR","rawOb":"METAR SBBU 241400Z 09008KT CAVOK 27/19 Q1019","temp":27,"dewp":19,"wdir":90,"wspd":8,"visib":"6+","altim":1019,"clouds":[],"obsTime":1777039200},"SBAR":{"icaoId":"SBAR","flightCategory":"VFR","rawOb":"METAR SBAR 241400Z 12005KT 9999 VCSH SCT020 FEW024TCU SCT050 29/25 Q1013","temp":29,"dewp":25,"wdir":120,"wspd":5,"visib":"6+","altim":1013,"clouds":[{"cover":"SCT","base":2000},{"cover":"FEW","base":2400},{"cover":"SCT","base":5000}],"obsTime":1777039200},"SBAU":{"icaoId":"SBAU","flightCategory":"VFR","rawOb":"METAR SBAU 241400Z 09006KT CAVOK 28/19 Q1017","temp":28,"dewp":19,"wdir":90,"wspd":6,"visib":"6+","altim":1017,"clouds":[],"obsTime":1777039200},"SBLE":{"icaoId":"SBLE","flightCategory":"MVFR","rawOb":"METAR SBLE 241400Z AUTO 16004KT 120V210 9999 SCT016 BKN028 OVC032 24/24 Q1018","temp":24,"dewp":24,"wdir":160,"wspd":4,"visib":"6+","altim":1018,"clouds":[{"cover":"SCT","base":1600},{"cover":"BKN","base":2800},{"cover":"OVC","base":3200}],"obsTime":1777039200},"SBIH":{"icaoId":"SBIH","flightCategory":"MVFR","rawOb":"METAR SBIH 241400Z 10005KT 9999 SCT011 BKN015 26/23 Q1014","temp":26,"dewp":23,"wdir":100,"wspd":5,"visib":"6+","altim":1014,"clouds":[{"cover":"SCT","base":1100},{"cover":"BKN","base":1500}],"obsTime":1777039200},"SBAN":{"icaoId":"SBAN","flightCategory":"VFR","rawOb":"METAR SBAN 241400Z 10007KT 030V150 CAVOK 26/14 Q1022","temp":26,"dewp":14,"wdir":100,"wspd":7,"visib":"6+","altim":1022,"clouds":[],"obsTime":1777039200},"SBAF":{"icaoId":"SBAF","flightCategory":"VFR","rawOb":"METAR SBAF 241400Z 30004KT 9999 FEW025 28/19 Q1018","temp":28,"dewp":19,"wdir":300,"wspd":4,"visib":"6+","altim":1018,"clouds":[{"cover":"FEW","base":2500}],"obsTime":1777039200},"SBGW":{"icaoId":"SBGW","flightCategory":"MVFR","rawOb":"METAR SBGW 241400Z 02004KT 8000 FEW020 25/15 Q1020","temp":25,"dewp":15,"wdir":20,"wspd":4,"visib":4.97,"altim":1020,"clouds":[{"cover":"FEW","base":2000}],"obsTime":1777039200},"SBJR":{"icaoId":"SBJR","flightCategory":"VFR","rawOb":"METAR SBJR 241400Z 18005KT 9999 FEW030 32/19 Q1018","temp":32,"dewp":19,"wdir":180,"wspd":5,"visib":"6+","altim":1018,"clouds":[{"cover":"FEW","base":3000}],"obsTime":1777039200},"SBLS":{"icaoId":"SBLS","flightCategory":"MVFR","rawOb":"METAR SBLS 241400Z VRB05KT 9999 BKN030 24/16 Q1022","temp":24,"dewp":16,"wdir":"VRB","wspd":5,"visib":"6+","altim":1022,"clouds":[{"cover":"BKN","base":3000}],"obsTime":1777039200},"SBMT":{"icaoId":"SBMT","flightCategory":"VFR","rawOb":"METAR SBMT 241400Z 06005KT 360V130 CAVOK 25/15 Q1021","temp":25,"dewp":15,"wdir":60,"wspd":5,"visib":"6+","altim":1021,"clouds":[],"obsTime":1777039200},"SBST":{"icaoId":"SBST","flightCategory":"VFR","rawOb":"METAR SBST 241400Z 02002KT CAVOK 26/22 Q1017","temp":26,"dewp":22,"wdir":20,"wspd":2,"visib":"6+","altim":1017,"clouds":[],"obsTime":1777039200},"SBTA":{"icaoId":"SBTA","flightCategory":"VFR","rawOb":"METAR SBTA 241400Z 05008KT 020V080 9999 FEW025 24/16 Q1020","temp":24,"dewp":16,"wdir":50,"wspd":8,"visib":"6+","altim":1020,"clouds":[{"cover":"FEW","base":2500}],"obsTime":1777039200},"SBJV":{"icaoId":"SBJV","flightCategory":"VFR","rawOb":"METAR SBJV 241400Z 32005KT 9999 SCT020 27/21 Q1018","temp":27,"dewp":21,"wdir":320,"wspd":5,"visib":"6+","altim":1018,"clouds":[{"cover":"SCT","base":2000}],"obsTime":1777039200},"SBNM":{"icaoId":"SBNM","flightCategory":"MVFR","rawOb":"METAR SBNM 241400Z 09006KT 8000 -RA SCT003 BKN025 OVC100 21/20 Q1016","temp":21,"dewp":20,"wdir":90,"wspd":6,"visib":4.97,"altim":1016,"clouds":[{"cover":"SCT","base":300},{"cover":"BKN","base":2500},{"cover":"OVC","base":10000}],"obsTime":1777039200},"SBJP":{"icaoId":"SBJP","flightCategory":"VFR","rawOb":"METAR SBJP 241400Z 15003KT 9999 SCT015 OVC070 26/25 Q1012","temp":26,"dewp":25,"wdir":150,"wspd":3,"visib":"6+","altim":1012,"clouds":[{"cover":"SCT","base":1500},{"cover":"OVC","base":7000}],"obsTime":1777039200},"SBPF":{"icaoId":"SBPF","flightCategory":"VFR","rawOb":"METAR SBPF 241400Z 05010KT CAVOK 18/15 Q1019","temp":18,"dewp":15,"wdir":50,"wspd":10,"visib":"6+","altim":1019,"clouds":[],"obsTime":1777039200}}}