{"updated":1775524237,"count":62,"data":{"SBMA":{"icaoId":"SBMA","flightCategory":"VFR","rawOb":"METAR SBMA 070000Z 24002KT CAVOK 28/24 Q1012","temp":28,"dewp":24,"wdir":240,"wspd":2,"visib":"6+","altim":1012,"clouds":[],"obsTime":1775520000},"SBCT":{"icaoId":"SBCT","flightCategory":"IFR","rawOb":"METAR SBCT 070000Z 07004KT 9999 OVC009 20/19 Q1021","temp":20,"dewp":19,"wdir":70,"wspd":4,"visib":"6+","altim":1021,"clouds":[{"cover":"OVC","base":900}],"obsTime":1775520000},"SBFZ":{"icaoId":"SBFZ","flightCategory":"VFR","rawOb":"METAR SBFZ 070000Z 16002KT CAVOK 27/23 Q1012","temp":27,"dewp":23,"wdir":160,"wspd":2,"visib":"6+","altim":1012,"clouds":[],"obsTime":1775520000},"SBMG":{"icaoId":"SBMG","flightCategory":"VFR","rawOb":"METAR SBMG 070000Z 02009KT 9999 FEW045 BKN100 26/20 Q1015","temp":26,"dewp":20,"wdir":20,"wspd":9,"visib":"6+","altim":1015,"clouds":[{"cover":"FEW","base":4500},{"cover":"BKN","base":10000}],"obsTime":1775520000},"SBBV":{"icaoId":"SBBV","flightCategory":"VFR","rawOb":"METAR SBBV 070000Z 09005KT 9999 SCT040 SCT100 30/22 Q1009","temp":30,"dewp":22,"wdir":90,"wspd":5,"visib":"6+","altim":1009,"clouds":[{"cover":"SCT","base":4000},{"cover":"SCT","base":10000}],"obsTime":1775520000},"SBGL":{"icaoId":"SBGL","flightCategory":"VFR","rawOb":"METAR SBGL 070000Z 13005KT 9999 FEW045 25/23 Q1016","temp":25,"dewp":23,"wdir":130,"wspd":5,"visib":"6+","altim":1016,"clouds":[{"cover":"FEW","base":4500}],"obsTime":1775520000},"SBMO":{"icaoId":"SBMO","flightCategory":"VFR","rawOb":"METAR SBMO 070000Z 15004KT 9999 FEW015 27/25 Q1015","temp":27,"dewp":25,"wdir":150,"wspd":4,"visib":"6+","altim":1015,"clouds":[{"cover":"FEW","base":1500}],"obsTime":1775520000},"SBMQ":{"icaoId":"SBMQ","flightCategory":"VFR","rawOb":"METAR SBMQ 070000Z 07009KT 9999 SCT019 SCT029 BKN073 28/25 Q1012","temp":28,"dewp":25,"wdir":70,"wspd":9,"visib":"6+","altim":1012,"clouds":[{"cover":"SCT","base":1900},{"cover":"SCT","base":2900},{"cover":"BKN","base":7300}],"obsTime":1775520000},"SBGO":{"icaoId":"SBGO","flightCategory":"VFR","rawOb":"METAR SBGO 070000Z 33006KT 300V010 9999 VCTS SCT035 FEW045CB SCT100 24/20 Q1018","temp":24,"dewp":20,"wdir":330,"wspd":6,"visib":"6+","altim":1018,"clouds":[{"cover":"SCT","base":3500},{"cover":"FEW","base":4500},{"cover":"SCT","base":10000}],"obsTime":1775520000},"SBNT":{"icaoId":"SBNT","flightCategory":"VFR","rawOb":"METAR SBNT 070000Z 15007KT 9999 FEW009 SCT030 FEW033TCU BKN070 25/24 Q1014","temp":25,"dewp":24,"wdir":150,"wspd":7,"visib":"6+","altim":1014,"clouds":[{"cover":"FEW","base":900},{"cover":"SCT","base":3000},{"cover":"FEW","base":3300},{"cover":"BKN","base":7000}],"obsTime":1775520000},"SBCF":{"icaoId":"SBCF","flightCategory":"VFR","rawOb":"METAR SBCF 070000Z 13006KT CAVOK 24/18 Q1020","temp":24,"dewp":18,"wdir":130,"wspd":6,"visib":"6+","altim":1020,"clouds":[],"obsTime":1775520000},"SBGR":{"icaoId":"SBGR","flightCategory":"VFR","rawOb":"METAR SBGR 070000Z 13005KT 9999 SCT013 BKN036 23/20 Q1020","temp":23,"dewp":20,"wdir":130,"wspd":5,"visib":"6+","altim":1020,"clouds":[{"cover":"SCT","base":1300},{"cover":"BKN","base":3600}],"obsTime":1775520000},"SBPA":{"icaoId":"SBPA","flightCategory":"MVFR","rawOb":"METAR SBPA 070000Z 09014KT 8000 -RA FEW010 SCT040 23/20 Q1014","temp":23,"dewp":20,"wdir":90,"wspd":14,"visib":4.97,"altim":1014,"clouds":[{"cover":"FEW","base":1000},{"cover":"SCT","base":4000}],"obsTime":1775520000},"SBPJ":{"icaoId":"SBPJ","flightCategory":"VFR","rawOb":"METAR SBPJ 070000Z 15003KT 9999 FEW017 27/25 Q1012","temp":27,"dewp":25,"wdir":150,"wspd":3,"visib":"6+","altim":1012,"clouds":[{"cover":"FEW","base":1700}],"obsTime":1775520000},"SBBR":{"icaoId":"SBBR","flightCategory":"VFR","rawOb":"METAR SBBR 070000Z 10007KT 9999 FEW040 24/19 Q1020","temp":24,"dewp":19,"wdir":100,"wspd":7,"visib":"6+","altim":1020,"clouds":[{"cover":"FEW","base":4000}],"obsTime":1775520000},"SBEG":{"icaoId":"SBEG","flightCategory":"VFR","rawOb":"METAR SBEG 070000Z 05002KT 9999 FEW025 FEW030TCU SCT090 25/25 Q1009","temp":25,"dewp":25,"wdir":50,"wspd":2,"visib":"6+","altim":1009,"clouds":[{"cover":"FEW","base":2500},{"cover":"FEW","base":3000},{"cover":"SCT","base":9000}],"obsTime":1775520000},"SBPV":{"icaoId":"SBPV","flightCategory":"VFR","rawOb":"METAR SBPV 070000Z 00000KT CAVOK 26/24 Q1008","temp":26,"dewp":24,"wdir":0,"wspd":0,"visib":"6+","altim":1008,"clouds":[],"obsTime":1775520000},"SBIL":{"icaoId":"SBIL","flightCategory":"VFR","rawOb":"METAR SBIL 070000Z 14006KT 9999 FEW020 28/25 Q1016","temp":28,"dewp":25,"wdir":140,"wspd":6,"visib":"6+","altim":1016,"clouds":[{"cover":"FEW","base":2000}],"obsTime":1775520000},"SBRB":{"icaoId":"SBRB","flightCategory":"MVFR","rawOb":"METAR SBRB 070000Z 00000KT 8000 VCTS FEW033 FEW035CB SCT100 26/25 Q1010","temp":26,"dewp":25,"wdir":0,"wspd":0,"visib":4.97,"altim":1010,"clouds":[{"cover":"FEW","base":3300},{"cover":"FEW","base":3500},{"cover":"SCT","base":10000}],"obsTime":1775520000},"SBRF":{"icaoId":"SBRF","flightCategory":"IFR","rawOb":"SPECI SBRF 062322Z 04006KT 2000 TSRA BKN010 SCT017 FEW025CB BKN040 23/23 Q1015 RERA RETS","temp":23,"dewp":23,"wdir":40,"wspd":6,"visib":1.24,"altim":1015,"clouds":[{"cover":"BKN","base":1000},{"cover":"SCT","base":1700},{"cover":"FEW","base":2500},{"cover":"BKN","base":4000}],"obsTime":1775517720},"SBVT":{"icaoId":"SBVT","flightCategory":"VFR","rawOb":"METAR SBVT 070000Z 14002KT 9999 FEW020 SCT040 26/23 Q1017","temp":26,"dewp":23,"wdir":140,"wspd":2,"visib":"6+","altim":1017,"clouds":[{"cover":"FEW","base":2000},{"cover":"SCT","base":4000}],"obsTime":1775520000},"SBTE":{"icaoId":"SBTE","flightCategory":"VFR","rawOb":"METAR SBTE 070000Z 00000KT 9999 SCT012 26/25 Q1013","temp":26,"dewp":25,"wdir":0,"wspd":0,"visib":"6+","altim":1013,"clouds":[{"cover":"SCT","base":1200}],"obsTime":1775520000},"SBCG":{"icaoId":"SBCG","flightCategory":"VFR","rawOb":"METAR SBCG 070000Z 10003KT CAVOK 24/22 Q1014","temp":24,"dewp":22,"wdir":100,"wspd":3,"visib":"6+","altim":1014,"clouds":[],"obsTime":1775520000},"SBJU":{"icaoId":"SBJU","flightCategory":"VFR","rawOb":"METAR SBJU 070000Z 29005KT 9999 SCT020 25/23 Q1016","temp":25,"dewp":23,"wdir":290,"wspd":5,"visib":"6+","altim":1016,"clouds":[{"cover":"SCT","base":2000}],"obsTime":1775520000},"SBSG":{"icaoId":"SBSG","flightCategory":"VFR","rawOb":"METAR SBSG 070000Z 14003KT 090V180 9999 SCT030 25/24 Q1014","temp":25,"dewp":24,"wdir":140,"wspd":3,"visib":"6+","altim":1014,"clouds":[{"cover":"SCT","base":3000}],"obsTime":1775520000},"SBKP":{"icaoId":"SBKP","flightCategory":"VFR","rawOb":"METAR SBKP 070000Z 12006KT 080V140 9999 SCT020 BKN050 24/21 Q1019","temp":24,"dewp":21,"wdir":120,"wspd":6,"visib":"6+","altim":1019,"clouds":[{"cover":"SCT","base":2000},{"cover":"BKN","base":5000}],"obsTime":1775520000},"SBSL":{"icaoId":"SBSL","flightCategory":"VFR","rawOb":"METAR SBSL 070000Z 15003KT 9999 FEW025 SCT100 26/25 Q1013","temp":26,"dewp":25,"wdir":150,"wspd":3,"visib":"6+","altim":1013,"clouds":[{"cover":"FEW","base":2500},{"cover":"SCT","base":10000}],"obsTime":1775520000},"SBSN":{"icaoId":"SBSN","flightCategory":"VFR","rawOb":"METAR SBSN 070000Z 10004KT 060V120 9999 FEW025 SCT070 28/26 Q1010","temp":28,"dewp":26,"wdir":100,"wspd":4,"visib":"6+","altim":1010,"clouds":[{"cover":"FEW","base":2500},{"cover":"SCT","base":7000}],"obsTime":1775520000},"SBFI":{"icaoId":"SBFI","flightCategory":"VFR","rawOb":"METAR SBFI 070000Z 05006KT 9999 FEW030TCU 27/22 Q1011","temp":27,"dewp":22,"wdir":50,"wspd":6,"visib":"6+","altim":1011,"clouds":[{"cover":"FEW","base":3000}],"obsTime":1775520000},"SBBE":{"icaoId":"SBBE","flightCategory":"VFR","rawOb":"METAR SBBE 070000Z 05003KT 9999 SCT046 BKN070 25/25 Q1012","temp":25,"dewp":25,"wdir":50,"wspd":3,"visib":"6+","altim":1012,"clouds":[{"cover":"SCT","base":4600},{"cover":"BKN","base":7000}],"obsTime":1775520000},"SBSP":{"icaoId":"SBSP","flightCategory":"MVFR","rawOb":"METAR SBSP 070000Z 14010KT 9999 BKN015 22/19 Q1021","temp":22,"dewp":19,"wdir":140,"wspd":10,"visib":"6+","altim":1021,"clouds":[{"cover":"BKN","base":1500}],"obsTime":1775520000},"SBLO":{"icaoId":"SBLO","flightCategory":"VFR","rawOb":"METAR SBLO 070000Z 03006KT 9999 FEW040 SCT100 24/19 Q1017","temp":24,"dewp":19,"wdir":30,"wspd":6,"visib":"6+","altim":1017,"clouds":[{"cover":"FEW","base":4000},{"cover":"SCT","base":10000}],"obsTime":1775520000},"SBSV":{"icaoId":"SBSV","flightCategory":"MVFR","rawOb":"METAR SBSV 070000Z 13005KT 110V170 9999 VCSH BKN019 FEW024TCU 27/24 Q1015","temp":27,"dewp":24,"wdir":130,"wspd":5,"visib":"6+","altim":1015,"clouds":[{"cover":"BKN","base":1900},{"cover":"FEW","base":2400}],"obsTime":1775520000},"SBFL":{"icaoId":"SBFL","flightCategory":"IFR","rawOb":"METAR SBFL 070000Z 06009KT 4500 BR SCT019 OVC060 25/22 Q1018","temp":25,"dewp":22,"wdir":60,"wspd":9,"visib":2.8,"altim":1018,"clouds":[{"cover":"SCT","base":1900},{"cover":"OVC","base":6000}],"obsTime":1775520000},"SBCZ":{"icaoId":"SBCZ","flightCategory":"VFR","rawOb":"METAR SBCZ 070000Z 22003KT 190V260 9999 FEW010 SCT035 BKN090 24/24 Q1011 RETS","temp":24,"dewp":24,"wdir":220,"wspd":3,"visib":"6+","altim":1011,"clouds":[{"cover":"FEW","base":1000},{"cover":"SCT","base":3500},{"cover":"BKN","base":9000}],"obsTime":1775520000},"SBME":{"icaoId":"SBME","flightCategory":"VFR","rawOb":"METAR SBME 070000Z 02003KT CAVOK 25/23 Q1017","temp":25,"dewp":23,"wdir":20,"wspd":3,"visib":"6+","altim":1017,"clouds":[],"obsTime":1775520000},"SBMK":{"icaoId":"SBMK","flightCategory":"VFR","rawOb":"METAR SBMK 070000Z 00000KT CAVOK 24/19 Q1018","temp":24,"dewp":19,"wdir":0,"wspd":0,"visib":"6+","altim":1018,"clouds":[],"obsTime":1775520000},"SBUR":{"icaoId":"SBUR","flightCategory":"IFR","rawOb":"METAR SBUR 070000Z 04002KT 4000 RA NSC 21/20 Q1020 RETS","temp":21,"dewp":20,"wdir":40,"wspd":2,"visib":2.49,"altim":1020,"clouds":[],"obsTime":1775520000},"SBUL":{"icaoId":"SBUL","flightCategory":"VFR","rawOb":"METAR SBUL 070000Z 09004KT 9999 SCT030 FEW040TCU BKN090 25/18 Q1020","temp":25,"dewp":18,"wdir":90,"wspd":4,"visib":"6+","altim":1020,"clouds":[{"cover":"SCT","base":3000},{"cover":"FEW","base":4000},{"cover":"BKN","base":9000}],"obsTime":1775520000},"SBOI":{"icaoId":"SBOI","flightCategory":"MVFR","rawOb":"METAR SBOI 070000Z AUTO 05003KT 360V090 9999 // FEW012/// OVC030/// 25/24 Q1012","temp":25,"dewp":24,"wdir":50,"wspd":3,"visib":"6+","altim":1012,"clouds":[{"cover":"FEW","base":1200},{"cover":"OVC","base":3000}],"obsTime":1775520000},"SBKG":{"icaoId":"SBKG","flightCategory":"MVFR","rawOb":"METAR SBKG 070000Z 10006KT 9999 BKN015 24/22 Q1017","temp":24,"dewp":22,"wdir":100,"wspd":6,"visib":"6+","altim":1017,"clouds":[{"cover":"BKN","base":1500}],"obsTime":1775520000},"SBPS":{"icaoId":"SBPS","flightCategory":"VFR","rawOb":"METAR SBPS 070000Z 12006KT 080V150 9999 FEW015 SCT017 27/24 Q1016","temp":27,"dewp":24,"wdir":120,"wspd":6,"visib":"6+","altim":1016,"clouds":[{"cover":"FEW","base":1500},{"cover":"SCT","base":1700}],"obsTime":1775520000},"SBAR":{"icaoId":"SBAR","flightCategory":"VFR","rawOb":"METAR SBAR 070000Z 12011KT 9999 SCT023 29/24 Q1015","temp":29,"dewp":24,"wdir":120,"wspd":11,"visib":"6+","altim":1015,"clouds":[{"cover":"SCT","base":2300}],"obsTime":1775520000},"SBSJ":{"icaoId":"SBSJ","flightCategory":"VFR","rawOb":"METAR SBSJ 070000Z 12007KT CAVOK 22/20 Q1019","temp":22,"dewp":20,"wdir":120,"wspd":7,"visib":"6+","altim":1019,"clouds":[],"obsTime":1775520000},"SBSM":{"icaoId":"SBSM","flightCategory":"VFR","rawOb":"METAR SBSM 070000Z 11006KT 9999 VCTS FEW040 FEW045CB SCT100 22/21 Q1012","temp":22,"dewp":21,"wdir":110,"wspd":6,"visib":"6+","altim":1012,"clouds":[{"cover":"FEW","base":4000},{"cover":"FEW","base":4500},{"cover":"SCT","base":10000}],"obsTime":1775520000},"SBPL":{"icaoId":"SBPL","flightCategory":"VFR","rawOb":"METAR SBPL 070000Z 10003KT CAVOK 26/23 Q1015","temp":26,"dewp":23,"wdir":100,"wspd":3,"visib":"6+","altim":1015,"clouds":[],"obsTime":1775520000},"SBCO":{"icaoId":"SBCO","flightCategory":"VFR","rawOb":"METAR SBCO 070000Z 10008KT 9999 FEW040 BKN100 23/20 Q1015","temp":23,"dewp":20,"wdir":100,"wspd":8,"visib":"6+","altim":1015,"clouds":[{"cover":"FEW","base":4000},{"cover":"BKN","base":10000}],"obsTime":1775520000},"SBSC":{"icaoId":"SBSC","flightCategory":"MVFR","rawOb":"METAR SBSC 070000Z 24003KT 9999 FEW010 BKN030 24/22 Q1017","temp":24,"dewp":22,"wdir":240,"wspd":3,"visib":"6+","altim":1017,"clouds":[{"cover":"FEW","base":1000},{"cover":"BKN","base":3000}],"obsTime":1775520000},"SBSR":{"icaoId":"SBSR","flightCategory":"VFR","rawOb":"METAR SBSR 070000Z 07014KT 020V130 9999 VCTS FEW020 FEW030CB 25/19 Q1018","temp":25,"dewp":19,"wdir":70,"wspd":14,"visib":"6+","altim":1018,"clouds":[{"cover":"FEW","base":2000},{"cover":"FEW","base":3000}],"obsTime":1775520000},"SBAX":{"icaoId":"SBAX","flightCategory":"VFR","rawOb":"METAR SBAX 070000Z 25002KT CAVOK 20/20 Q1021","temp":20,"dewp":20,"wdir":250,"wspd":2,"visib":"6+","altim":1021,"clouds":[],"obsTime":1775520000},"SBBH":{"icaoId":"SBBH","flightCategory":"VFR","rawOb":"METAR SBBH 070000Z 11005KT CAVOK 24/19 Q1020","temp":24,"dewp":19,"wdir":110,"wspd":5,"visib":"6+","altim":1020,"clouds":[],"obsTime":1775520000},"SBBU":{"icaoId":"SBBU","flightCategory":"VFR","rawOb":"METAR SBBU 070000Z 10008KT 9999 -RA VCTS SCT040 FEW050CB BKN100 23/21 Q1018","temp":23,"dewp":21,"wdir":100,"wspd":8,"visib":"6+","altim":1018,"clouds":[{"cover":"SCT","base":4000},{"cover":"FEW","base":5000},{"cover":"BKN","base":10000}],"obsTime":1775520000},"SBDN":{"icaoId":"SBDN","flightCategory":"VFR","rawOb":"METAR SBDN 070000Z 08005KT CAVOK 25/19 Q1015","temp":25,"dewp":19,"wdir":80,"wspd":5,"visib":"6+","altim":1015,"clouds":[],"obsTime":1775520000},"SBLS":{"icaoId":"SBLS","flightCategory":"VFR","rawOb":"METAR SBLS 070000Z 16005KT CAVOK 23/19 Q1020","temp":23,"dewp":19,"wdir":160,"wspd":5,"visib":"6+","altim":1020,"clouds":[],"obsTime":1775520000},"SBAN":{"icaoId":"SBAN","flightCategory":"VFR","rawOb":"METAR SBAN 070000Z 03002KT 9999 FEW035 FEW040TCU BKN100 22/18 Q1021","temp":22,"dewp":18,"wdir":30,"wspd":2,"visib":"6+","altim":1021,"clouds":[{"cover":"FEW","base":3500},{"cover":"FEW","base":4000},{"cover":"BKN","base":10000}],"obsTime":1775520000},"SBJV":{"icaoId":"SBJV","flightCategory":"MVFR","rawOb":"METAR SBJV 070000Z 24001KT 7000 BKN014 BKN050 24/24 Q1017","temp":24,"dewp":24,"wdir":240,"wspd":1,"visib":4.35,"altim":1017,"clouds":[{"cover":"BKN","base":1400},{"cover":"BKN","base":5000}],"obsTime":1775520000},"SBNM":{"icaoId":"SBNM","flightCategory":"VFR","rawOb":"METAR SBNM 070000Z 12004KT 9999 SCT025 FEW030TCU SCT100 25/19 Q1013","temp":25,"dewp":19,"wdir":120,"wspd":4,"visib":"6+","altim":1013,"clouds":[{"cover":"SCT","base":2500},{"cover":"FEW","base":3000},{"cover":"SCT","base":10000}],"obsTime":1775520000},"SBJP":{"icaoId":"SBJP","flightCategory":"VFR","rawOb":"SPECI SBJP 062333Z VRB08KT 9999 SCT010 BKN070 24/23 Q1014 RERA","temp":24,"dewp":23,"wdir":"VRB","wspd":8,"visib":"6+","altim":1014,"clouds":[{"cover":"SCT","base":1000},{"cover":"BKN","base":7000}],"obsTime":1775518380},"SBST":{"icaoId":"SBST","flightCategory":"MVFR","rawOb":"METAR SBST 070000Z 15004KT 7000 SCT014 25/24 Q1016","temp":25,"dewp":24,"wdir":150,"wspd":4,"visib":4.35,"altim":1016,"clouds":[{"cover":"SCT","base":1400}],"obsTime":1775520000},"SBTA":{"icaoId":"SBTA","flightCategory":"VFR","rawOb":"METAR SBTA 070000Z 17004KT 130V190 9999 SCT040 SCT100 23/19 Q1018","temp":23,"dewp":19,"wdir":170,"wspd":4,"visib":"6+","altim":1018,"clouds":[{"cover":"SCT","base":4000},{"cover":"SCT","base":10000}],"obsTime":1775520000},"SBJR":{"icaoId":"SBJR","flightCategory":"MVFR","rawOb":"METAR SBJR 070000Z 26002KT 8000 FEW030 25/23 Q1016","temp":25,"dewp":23,"wdir":260,"wspd":2,"visib":4.97,"altim":1016,"clouds":[{"cover":"FEW","base":3000}],"obsTime":1775520000},"SBMT":{"icaoId":"SBMT","flightCategory":"MVFR","rawOb":"METAR SBMT 070000Z 10009KT 9999 SCT017 BKN025 23/19 Q1020","temp":23,"dewp":19,"wdir":100,"wspd":9,"visib":"6+","altim":1020,"clouds":[{"cover":"SCT","base":1700},{"cover":"BKN","base":2500}],"obsTime":1775520000}}}