{"updated":1775468678,"count":63,"data":{"SBBE":{"icaoId":"SBBE","flightCategory":"LIFR","rawOb":"METAR SBBE 060800Z COR 14004KT 4000 BR BKN003 24/24 Q1011","temp":24,"dewp":24,"wdir":140,"wspd":4,"visib":2.49,"altim":1011,"clouds":[{"cover":"BKN","base":300}],"obsTime":1775462400},"SBFL":{"icaoId":"SBFL","flightCategory":"VFR","rawOb":"METAR SBFL 060800Z 20006KT 9999 SCT030 OVC080 22/21 Q1018","temp":22,"dewp":21,"wdir":200,"wspd":6,"visib":"6+","altim":1018,"clouds":[{"cover":"SCT","base":3000},{"cover":"OVC","base":8000}],"obsTime":1775462400},"SBMO":{"icaoId":"SBMO","flightCategory":"VFR","rawOb":"METAR SBMO 060800Z 28003KT 9999 FEW025 23/22 Q1013","temp":23,"dewp":22,"wdir":280,"wspd":3,"visib":"6+","altim":1013,"clouds":[{"cover":"FEW","base":2500}],"obsTime":1775462400},"SBFZ":{"icaoId":"SBFZ","flightCategory":"MVFR","rawOb":"METAR SBFZ 060800Z 16006KT 5000 -RA BKN012 FEW018TCU 24/24 Q1011 RESHRA","temp":24,"dewp":24,"wdir":160,"wspd":6,"visib":3.11,"altim":1011,"clouds":[{"cover":"BKN","base":1200},{"cover":"FEW","base":1800}],"obsTime":1775462400},"SBMQ":{"icaoId":"SBMQ","flightCategory":"MVFR","rawOb":"METAR SBMQ 060800Z 29003KT 9999 SCT005 BKN026 25/25 Q1011","temp":25,"dewp":25,"wdir":290,"wspd":3,"visib":"6+","altim":1011,"clouds":[{"cover":"SCT","base":500},{"cover":"BKN","base":2600}],"obsTime":1775462400},"SBNT":{"icaoId":"SBNT","flightCategory":"VFR","rawOb":"METAR SBNT 060800Z 00000KT 9999 SCT020 24/23 Q1012","temp":24,"dewp":23,"wdir":0,"wspd":0,"visib":"6+","altim":1012,"clouds":[{"cover":"SCT","base":2000}],"obsTime":1775462400},"SBGL":{"icaoId":"SBGL","flightCategory":"MVFR","rawOb":"METAR SBGL 060800Z 33003KT 9000 BKN013 24/22 Q1015","temp":24,"dewp":22,"wdir":330,"wspd":3,"visib":5.59,"altim":1015,"clouds":[{"cover":"BKN","base":1300}],"obsTime":1775462400},"SBPA":{"icaoId":"SBPA","flightCategory":"VFR","rawOb":"METAR SBPA 060800Z 09010KT 9999 FEW040 BKN090 21/17 Q1018","temp":21,"dewp":17,"wdir":90,"wspd":10,"visib":"6+","altim":1018,"clouds":[{"cover":"FEW","base":4000},{"cover":"BKN","base":9000}],"obsTime":1775462400},"SBPJ":{"icaoId":"SBPJ","flightCategory":"MVFR","rawOb":"METAR SBPJ 060800Z VRB04KT 5000 TSRA FEW010 SCT017 FEW028CB BKN050 23/22 Q1012 RERA","temp":23,"dewp":22,"wdir":"VRB","wspd":4,"visib":3.11,"altim":1012,"clouds":[{"cover":"FEW","base":1000},{"cover":"SCT","base":1700},{"cover":"FEW","base":2800},{"cover":"BKN","base":5000}],"obsTime":1775462400},"SBCF":{"icaoId":"SBCF","flightCategory":"VFR","rawOb":"METAR SBCF 060800Z 12006KT CAVOK 21/18 Q1019","temp":21,"dewp":18,"wdir":120,"wspd":6,"visib":"6+","altim":1019,"clouds":[],"obsTime":1775462400},"SBPV":{"icaoId":"SBPV","flightCategory":"LIFR","rawOb":"METAR SBPV 060800Z 15001KT 0150 FG BKN005 24/23 Q1010","temp":24,"dewp":23,"wdir":150,"wspd":1,"visib":0.09,"altim":1010,"clouds":[{"cover":"BKN","base":500}],"obsTime":1775462400},"SBGO":{"icaoId":"SBGO","flightCategory":"VFR","rawOb":"METAR SBGO 060800Z 12006KT CAVOK 22/20 Q1016","temp":22,"dewp":20,"wdir":120,"wspd":6,"visib":"6+","altim":1016,"clouds":[],"obsTime":1775462400},"SBRB":{"icaoId":"SBRB","flightCategory":"VFR","rawOb":"METAR SBRB 060800Z 12003KT 9999 SCT008 23/23 Q1011","temp":23,"dewp":23,"wdir":120,"wspd":3,"visib":"6+","altim":1011,"clouds":[{"cover":"SCT","base":800}],"obsTime":1775462400},"SBRF":{"icaoId":"SBRF","flightCategory":"VFR","rawOb":"METAR SBRF 060800Z 00000KT 9999 SCT017 SCT050 24/23 Q1012","temp":24,"dewp":23,"wdir":0,"wspd":0,"visib":"6+","altim":1012,"clouds":[{"cover":"SCT","base":1700},{"cover":"SCT","base":5000}],"obsTime":1775462400},"SBCG":{"icaoId":"SBCG","flightCategory":"VFR","rawOb":"METAR SBCG 060800Z 35001KT CAVOK 20/19 Q1015","temp":20,"dewp":19,"wdir":350,"wspd":1,"visib":"6+","altim":1015,"clouds":[],"obsTime":1775462400},"SBSG":{"icaoId":"SBSG","flightCategory":"VFR","rawOb":"METAR SBSG 060800Z 23002KT 9999 SCT020 23/23 Q1012","temp":23,"dewp":23,"wdir":230,"wspd":2,"visib":"6+","altim":1012,"clouds":[{"cover":"SCT","base":2000}],"obsTime":1775462400},"SBGR":{"icaoId":"SBGR","flightCategory":"IFR","rawOb":"METAR SBGR 060800Z 06005KT 8000 BKN007 19/18 Q1019","temp":19,"dewp":18,"wdir":60,"wspd":5,"visib":4.97,"altim":1019,"clouds":[{"cover":"BKN","base":700}],"obsTime":1775462400},"SBBR":{"icaoId":"SBBR","flightCategory":"VFR","rawOb":"METAR SBBR 060800Z 16003KT 090V200 CAVOK 21/18 Q1018","temp":21,"dewp":18,"wdir":160,"wspd":3,"visib":"6+","altim":1018,"clouds":[],"obsTime":1775462400},"SBSL":{"icaoId":"SBSL","flightCategory":"VFR","rawOb":"METAR SBSL 060800Z 12006KT CAVOK 24/23 Q1011","temp":24,"dewp":23,"wdir":120,"wspd":6,"visib":"6+","altim":1011,"clouds":[],"obsTime":1775462400},"SBJU":{"icaoId":"SBJU","flightCategory":"VFR","rawOb":"METAR SBJU 060800Z 00000KT CAVOK 23/22 Q1015","temp":23,"dewp":22,"wdir":0,"wspd":0,"visib":"6+","altim":1015,"clouds":[],"obsTime":1775462400},"SBSN":{"icaoId":"SBSN","flightCategory":"VFR","rawOb":"METAR SBSN 060800Z 15005KT 9999 FEW017 BKN100 25/24 Q1010","temp":25,"dewp":24,"wdir":150,"wspd":5,"visib":"6+","altim":1010,"clouds":[{"cover":"FEW","base":1700},{"cover":"BKN","base":10000}],"obsTime":1775462400},"SBCT":{"icaoId":"SBCT","flightCategory":"MVFR","rawOb":"METAR SBCT 060800Z 11003KT 9999 BKN011 18/18 Q1021","temp":18,"dewp":18,"wdir":110,"wspd":3,"visib":"6+","altim":1021,"clouds":[{"cover":"BKN","base":1100}],"obsTime":1775462400},"SBSP":{"icaoId":"SBSP","flightCategory":"VFR","rawOb":"METAR SBSP 060800Z AUTO 10003KT CAVOK 19/18 Q1018","temp":19,"dewp":18,"wdir":100,"wspd":3,"visib":"6+","altim":1018,"clouds":[],"obsTime":1775462400},"SBSV":{"icaoId":"SBSV","flightCategory":"MVFR","rawOb":"METAR SBSV 060800Z 31004KT 280V350 9999 BKN018 BKN030 25/24 Q1013","temp":25,"dewp":24,"wdir":310,"wspd":4,"visib":"6+","altim":1013,"clouds":[{"cover":"BKN","base":1800},{"cover":"BKN","base":3000}],"obsTime":1775462400},"SBKP":{"icaoId":"SBKP","flightCategory":"VFR","rawOb":"METAR SBKP 060800Z 12006KT CAVOK 20/18 Q1018","temp":20,"dewp":18,"wdir":120,"wspd":6,"visib":"6+","altim":1018,"clouds":[],"obsTime":1775462400},"SBMG":{"icaoId":"SBMG","flightCategory":"VFR","rawOb":"METAR SBMG 060800Z AUTO 08010KT CAVOK 23/19 Q1015","temp":23,"dewp":19,"wdir":80,"wspd":10,"visib":"6+","altim":1015,"clouds":[],"obsTime":1775462400},"SBCB":{"icaoId":"SBCB","flightCategory":"MVFR","rawOb":"METAR SBCB 060900Z 03004KT 7000 BCFG FEW003 SCT010 23/22 Q1016","temp":23,"dewp":22,"wdir":30,"wspd":4,"visib":4.35,"altim":1016,"clouds":[{"cover":"FEW","base":300},{"cover":"SCT","base":1000}],"obsTime":1775466000},"SBMK":{"icaoId":"SBMK","flightCategory":"VFR","rawOb":"METAR SBMK 060800Z 18002KT 9999 FEW035 22/19 Q1017","temp":22,"dewp":19,"wdir":180,"wspd":2,"visib":"6+","altim":1017,"clouds":[{"cover":"FEW","base":3500}],"obsTime":1775462400},"SBTE":{"icaoId":"SBTE","flightCategory":"MVFR","rawOb":"METAR SBTE 060800Z 35004KT 9999 SCT010 BKN015 BKN090 23/22 Q1011 RERA","temp":23,"dewp":22,"wdir":350,"wspd":4,"visib":"6+","altim":1011,"clouds":[{"cover":"SCT","base":1000},{"cover":"BKN","base":1500},{"cover":"BKN","base":9000}],"obsTime":1775462400},"SBLO":{"icaoId":"SBLO","flightCategory":"VFR","rawOb":"METAR SBLO 060800Z 13004KT CAVOK 22/19 Q1017","temp":22,"dewp":19,"wdir":130,"wspd":4,"visib":"6+","altim":1017,"clouds":[],"obsTime":1775462400},"SBUL":{"icaoId":"SBUL","flightCategory":"VFR","rawOb":"METAR SBUL 060800Z 10007KT 060V120 CAVOK 22/18 Q1018","temp":22,"dewp":18,"wdir":100,"wspd":7,"visib":"6+","altim":1018,"clouds":[],"obsTime":1775462400},"SBUR":{"icaoId":"SBUR","flightCategory":"VFR","rawOb":"METAR SBUR 060800Z 13003KT CAVOK 21/19 Q1018","temp":21,"dewp":19,"wdir":130,"wspd":3,"visib":"6+","altim":1018,"clouds":[],"obsTime":1775462400},"SBMA":{"icaoId":"SBMA","flightCategory":"VFR","rawOb":"METAR SBMA 060800Z 28002KT 9999 SCT006 BKN080 25/24 Q1012","temp":25,"dewp":24,"wdir":280,"wspd":2,"visib":"6+","altim":1012,"clouds":[{"cover":"SCT","base":600},{"cover":"BKN","base":8000}],"obsTime":1775462400},"SBVT":{"icaoId":"SBVT","flightCategory":"VFR","rawOb":"METAR SBVT 060800Z 32003KT 9999 SCT025 22/22 Q1015","temp":22,"dewp":22,"wdir":320,"wspd":3,"visib":"6+","altim":1015,"clouds":[{"cover":"SCT","base":2500}],"obsTime":1775462400},"SBEG":{"icaoId":"SBEG","flightCategory":"VFR","rawOb":"METAR SBEG 060800Z 06003KT 9999 FEW020 SCT100 25/24 Q1010","temp":25,"dewp":24,"wdir":60,"wspd":3,"visib":"6+","altim":1010,"clouds":[{"cover":"FEW","base":2000},{"cover":"SCT","base":10000}],"obsTime":1775462400},"SBME":{"icaoId":"SBME","flightCategory":"VFR","rawOb":"METAR SBME 060800Z 34003KT CAVOK 22/21 Q1016","temp":22,"dewp":21,"wdir":340,"wspd":3,"visib":"6+","altim":1016,"clouds":[],"obsTime":1775462400},"SBFI":{"icaoId":"SBFI","flightCategory":"VFR","rawOb":"METAR SBFI 060800Z 09005KT CAVOK 23/21 Q1013","temp":23,"dewp":21,"wdir":90,"wspd":5,"visib":"6+","altim":1013,"clouds":[],"obsTime":1775462400},"SBBV":{"icaoId":"SBBV","flightCategory":"VFR","rawOb":"METAR SBBV 060800Z 04003KT CAVOK 25/22 Q1010","temp":25,"dewp":22,"wdir":40,"wspd":3,"visib":"6+","altim":1010,"clouds":[],"obsTime":1775462400},"SBOI":{"icaoId":"SBOI","flightCategory":"VFR","rawOb":"METAR SBOI 060900Z AUTO VRB02KT 9999 // SCT020/// BKN042/// OVC059/// 25/24 Q1011","temp":25,"dewp":24,"wdir":"VRB","wspd":2,"visib":"6+","altim":1011,"clouds":[{"cover":"SCT","base":2000},{"cover":"BKN","base":4200},{"cover":"OVC","base":5900}],"obsTime":1775466000},"SBPS":{"icaoId":"SBPS","flightCategory":"MVFR","rawOb":"METAR SBPS 060800Z 23003KT 9999 BKN020 23/23 Q1015","temp":23,"dewp":23,"wdir":230,"wspd":3,"visib":"6+","altim":1015,"clouds":[{"cover":"BKN","base":2000}],"obsTime":1775462400},"SBAX":{"icaoId":"SBAX","flightCategory":"VFR","rawOb":"METAR SBAX 060800Z AUTO 12008KT CAVOK 20/20 Q1019","temp":20,"dewp":20,"wdir":120,"wspd":8,"visib":"6+","altim":1019,"clouds":[],"obsTime":1775462400},"SBSC":{"icaoId":"SBSC","flightCategory":"VFR","rawOb":"METAR SBSC 060800Z 13004KT 9999 FEW020 22/20 Q1015","temp":22,"dewp":20,"wdir":130,"wspd":4,"visib":"6+","altim":1015,"clouds":[{"cover":"FEW","base":2000}],"obsTime":1775462400},"SBSJ":{"icaoId":"SBSJ","flightCategory":"IFR","rawOb":"SPECI SBSJ 060830Z 14002KT 5000 BR BKN006 18/18 Q1019","temp":18,"dewp":18,"wdir":140,"wspd":2,"visib":3.11,"altim":1019,"clouds":[{"cover":"BKN","base":600}],"obsTime":1775464200},"SBSM":{"icaoId":"SBSM","flightCategory":"VFR","rawOb":"METAR SBSM 060900Z 10010KT 9999 FEW040 19/16 Q1016","temp":19,"dewp":16,"wdir":100,"wspd":10,"visib":"6+","altim":1016,"clouds":[{"cover":"FEW","base":4000}],"obsTime":1775466000},"SBDN":{"icaoId":"SBDN","flightCategory":"VFR","rawOb":"METAR SBDN 060800Z 12006KT 9999 SCT009 22/20 Q1016","temp":22,"dewp":20,"wdir":120,"wspd":6,"visib":"6+","altim":1016,"clouds":[{"cover":"SCT","base":900}],"obsTime":1775462400},"SBES":{"icaoId":"SBES","flightCategory":"MVFR","rawOb":"METAR SBES 060900Z VRB02KT 5000 2000SW BCFG FEW010 20/// Q1016","temp":null,"dewp":null,"wdir":"VRB","wspd":2,"visib":3.11,"altim":1016,"clouds":[{"cover":"FEW","base":1000}],"obsTime":1775466000},"SBIP":{"icaoId":"SBIP","flightCategory":"VFR","rawOb":"METAR SBIP 060800Z AUTO 00000KT 9999 FEW029 OVC034 23/23 Q1017","temp":23,"dewp":23,"wdir":0,"wspd":0,"visib":"6+","altim":1017,"clouds":[{"cover":"FEW","base":2900},{"cover":"OVC","base":3400}],"obsTime":1775462400},"SBAR":{"icaoId":"SBAR","flightCategory":"VFR","rawOb":"METAR SBAR 060800Z 32003KT 9999 FEW022 FEW023TCU 24/23 Q1013","temp":24,"dewp":23,"wdir":320,"wspd":3,"visib":"6+","altim":1013,"clouds":[{"cover":"FEW","base":2200},{"cover":"FEW","base":2300}],"obsTime":1775462400},"SBKG":{"icaoId":"SBKG","flightCategory":"VFR","rawOb":"METAR SBKG 060800Z 00000KT 9999 SCT006 22/22 Q1015","temp":22,"dewp":22,"wdir":0,"wspd":0,"visib":"6+","altim":1015,"clouds":[{"cover":"SCT","base":600}],"obsTime":1775462400},"SBBH":{"icaoId":"SBBH","flightCategory":"VFR","rawOb":"METAR SBBH 060900Z 10006KT CAVOK 21/19 Q1019","temp":21,"dewp":19,"wdir":100,"wspd":6,"visib":"6+","altim":1019,"clouds":[],"obsTime":1775466000},"SBPL":{"icaoId":"SBPL","flightCategory":"VFR","rawOb":"METAR SBPL 060800Z 13007KT CAVOK 24/21 Q1014","temp":24,"dewp":21,"wdir":130,"wspd":7,"visib":"6+","altim":1014,"clouds":[],"obsTime":1775462400},"SBCO":{"icaoId":"SBCO","flightCategory":"VFR","rawOb":"METAR SBCO 060900Z 12005KT 090V160 9999 FEW036 BKN080 20/18 Q1018","temp":20,"dewp":18,"wdir":120,"wspd":5,"visib":"6+","altim":1018,"clouds":[{"cover":"FEW","base":3600},{"cover":"BKN","base":8000}],"obsTime":1775466000},"SBBU":{"icaoId":"SBBU","flightCategory":"VFR","rawOb":"METAR SBBU 060900Z 08006KT CAVOK 21/20 Q1017","temp":21,"dewp":20,"wdir":80,"wspd":6,"visib":"6+","altim":1017,"clouds":[],"obsTime":1775466000},"SBSR":{"icaoId":"SBSR","flightCategory":"VFR","rawOb":"METAR SBSR 060800Z 24004KT 9999 FEW030 BKN070 21/20 Q1017","temp":21,"dewp":20,"wdir":240,"wspd":4,"visib":"6+","altim":1017,"clouds":[{"cover":"FEW","base":3000},{"cover":"BKN","base":7000}],"obsTime":1775462400},"SBAN":{"icaoId":"SBAN","flightCategory":"VFR","rawOb":"METAR SBAN 060800Z 09004KT 9999 FEW010 19/18 Q1019","temp":19,"dewp":18,"wdir":90,"wspd":4,"visib":"6+","altim":1019,"clouds":[{"cover":"FEW","base":1000}],"obsTime":1775462400},"SBLS":{"icaoId":"SBLS","flightCategory":"VFR","rawOb":"METAR SBLS 060900Z 15009KT 9999 FEW020 20/19 Q1019","temp":20,"dewp":19,"wdir":150,"wspd":9,"visib":"6+","altim":1019,"clouds":[{"cover":"FEW","base":2000}],"obsTime":1775466000},"SBMT":{"icaoId":"SBMT","flightCategory":"MVFR","rawOb":"METAR SBMT 060900Z 09007KT 6000 BKN013 20/18 Q1020","temp":20,"dewp":18,"wdir":90,"wspd":7,"visib":3.73,"altim":1020,"clouds":[{"cover":"BKN","base":1300}],"obsTime":1775466000},"SBPF":{"icaoId":"SBPF","flightCategory":"VFR","rawOb":"METAR SBPF 060900Z 06010KT CAVOK 19/17 Q1018","temp":19,"dewp":17,"wdir":60,"wspd":10,"visib":"6+","altim":1018,"clouds":[],"obsTime":1775466000},"SBTA":{"icaoId":"SBTA","flightCategory":"MVFR","rawOb":"METAR SBTA 060900Z 00000KT 6000 FEW006 SCT017 19/18 Q1018","temp":19,"dewp":18,"wdir":0,"wspd":0,"visib":3.73,"altim":1018,"clouds":[{"cover":"FEW","base":600},{"cover":"SCT","base":1700}],"obsTime":1775466000},"SBGW":{"icaoId":"SBGW","flightCategory":"IFR","rawOb":"METAR SBGW 060900Z 32002KT 2000 BR SCT004 BKN100 20/17 Q1019","temp":20,"dewp":17,"wdir":320,"wspd":2,"visib":1.24,"altim":1019,"clouds":[{"cover":"SCT","base":400},{"cover":"BKN","base":10000}],"obsTime":1775466000},"SBJP":{"icaoId":"SBJP","flightCategory":"MVFR","rawOb":"METAR SBJP 060800Z 14004KT 9999 BKN018 25/24 Q1013","temp":25,"dewp":24,"wdir":140,"wspd":4,"visib":"6+","altim":1013,"clouds":[{"cover":"BKN","base":1800}],"obsTime":1775462400},"SBJV":{"icaoId":"SBJV","flightCategory":"LIFR","rawOb":"METAR SBJV 060900Z 17002KT 4000 -RA BR BKN004 OVC010 22/22 Q1018","temp":22,"dewp":22,"wdir":170,"wspd":2,"visib":2.49,"altim":1018,"clouds":[{"cover":"BKN","base":400},{"cover":"OVC","base":1000}],"obsTime":1775466000},"SBLE":{"icaoId":"SBLE","flightCategory":"LIFR","rawOb":"SPECI SBLE 060804Z AUTO VRB02KT 1200 BR BKN002 BKN004 OVC024 ///// Q////","temp":null,"dewp":null,"wdir":"VRB","wspd":2,"visib":0.75,"altim":null,"clouds":[{"cover":"BKN","base":200},{"cover":"BKN","base":400},{"cover":"OVC","base":2400}],"obsTime":1775462640}}}