{"updated":1784372000,"count":70,"data":{"SBBV":{"icaoId":"SBBV","flightCategory":"VFR","rawOb":"METAR SBBV 180900Z 30002KT CAVOK 25/25 Q1012","temp":25,"dewp":25,"wdir":300,"wspd":2,"visib":"6+","altim":1012,"clouds":[],"obsTime":1784365200},"SBBE":{"icaoId":"SBBE","flightCategory":"VFR","rawOb":"METAR SBBE 180900Z 08004KT CAVOK 25/24 Q1012","temp":25,"dewp":24,"wdir":80,"wspd":4,"visib":"6+","altim":1012,"clouds":[],"obsTime":1784365200},"SBMO":{"icaoId":"SBMO","flightCategory":"MVFR","rawOb":"METAR SBMO 180900Z 15012KT 8000 -RA BKN020 23/21 Q1017","temp":23,"dewp":21,"wdir":150,"wspd":12,"visib":4.97,"altim":1017,"clouds":[{"cover":"BKN","base":2000}],"obsTime":1784365200},"SBCT":{"icaoId":"SBCT","flightCategory":"VFR","rawOb":"METAR SBCT 180900Z 02005KT CAVOK 13/10 Q1019","temp":13,"dewp":10,"wdir":20,"wspd":5,"visib":"6+","altim":1019,"clouds":[],"obsTime":1784365200},"SBCF":{"icaoId":"SBCF","flightCategory":"VFR","rawOb":"METAR SBCF 180900Z 11004KT CAVOK 13/09 Q1025","temp":13,"dewp":9,"wdir":110,"wspd":4,"visib":"6+","altim":1025,"clouds":[],"obsTime":1784365200},"SBSL":{"icaoId":"SBSL","flightCategory":"VFR","rawOb":"METAR SBSL 180900Z 07003KT 9999 FEW020 26/24 Q1012","temp":26,"dewp":24,"wdir":70,"wspd":3,"visib":"6+","altim":1012,"clouds":[{"cover":"FEW","base":2000}],"obsTime":1784365200},"SBNT":{"icaoId":"SBNT","flightCategory":"IFR","rawOb":"METAR SBNT 180900Z 18008KT 4000 -RA BR BKN009 BKN013 OVC020 23/23 Q1014","temp":23,"dewp":23,"wdir":180,"wspd":8,"visib":2.49,"altim":1014,"clouds":[{"cover":"BKN","base":900},{"cover":"BKN","base":1300},{"cover":"OVC","base":2000}],"obsTime":1784365200},"SBSG":{"icaoId":"SBSG","flightCategory":"LIFR","rawOb":"METAR SBSG 180900Z 16003KT 110V220 2000 -RA BR BKN003 BKN011 23/23 Q1015 RERA","temp":23,"dewp":23,"wdir":160,"wspd":3,"visib":1.24,"altim":1015,"clouds":[{"cover":"BKN","base":300},{"cover":"BKN","base":1100}],"obsTime":1784365200},"SBBR":{"icaoId":"SBBR","flightCategory":"VFR","rawOb":"METAR SBBR 180900Z 18004KT CAVOK 13/08 Q1023","temp":13,"dewp":8,"wdir":180,"wspd":4,"visib":"6+","altim":1023,"clouds":[],"obsTime":1784365200},"SBRB":{"icaoId":"SBRB","flightCategory":"MVFR","rawOb":"METAR SBRB 180900Z 34003KT 8000 FEW015 SCT100 23/23 Q1012","temp":23,"dewp":23,"wdir":340,"wspd":3,"visib":4.97,"altim":1012,"clouds":[{"cover":"FEW","base":1500},{"cover":"SCT","base":10000}],"obsTime":1784365200},"SBEG":{"icaoId":"SBEG","flightCategory":"VFR","rawOb":"METAR SBEG 180900Z 07005KT CAVOK 25/24 Q1012","temp":25,"dewp":24,"wdir":70,"wspd":5,"visib":"6+","altim":1012,"clouds":[],"obsTime":1784365200},"SBPV":{"icaoId":"SBPV","flightCategory":"VFR","rawOb":"METAR SBPV 180900Z 10003KT 9999 FEW049 SCT100 24/22 Q1011","temp":24,"dewp":22,"wdir":100,"wspd":3,"visib":"6+","altim":1011,"clouds":[{"cover":"FEW","base":4900},{"cover":"SCT","base":10000}],"obsTime":1784365200},"SBFZ":{"icaoId":"SBFZ","flightCategory":"VFR","rawOb":"METAR SBFZ 180900Z 15010KT 9999 SCT020 BKN060 26/21 Q1012","temp":26,"dewp":21,"wdir":150,"wspd":10,"visib":"6+","altim":1012,"clouds":[{"cover":"SCT","base":2000},{"cover":"BKN","base":6000}],"obsTime":1784365200},"SBRF":{"icaoId":"SBRF","flightCategory":"MVFR","rawOb":"METAR SBRF 180900Z 15018KT 9999 BKN020 BKN060 25/22 Q1015","temp":25,"dewp":22,"wdir":150,"wspd":18,"visib":"6+","altim":1015,"clouds":[{"cover":"BKN","base":2000},{"cover":"BKN","base":6000}],"obsTime":1784365200},"SBGL":{"icaoId":"SBGL","flightCategory":"VFR","rawOb":"METAR SBGL 180900Z VRB02KT CAVOK 14/12 Q1019","temp":14,"dewp":12,"wdir":"VRB","wspd":2,"visib":"6+","altim":1019,"clouds":[],"obsTime":1784365200},"SBGO":{"icaoId":"SBGO","flightCategory":"VFR","rawOb":"METAR SBGO 180900Z 11004KT 060V140 CAVOK 15/09 Q1021","temp":15,"dewp":9,"wdir":110,"wspd":4,"visib":"6+","altim":1021,"clouds":[],"obsTime":1784365200},"SBMA":{"icaoId":"SBMA","flightCategory":"VFR","rawOb":"METAR SBMA 180900Z 21003KT CAVOK 23/21 Q1013","temp":23,"dewp":21,"wdir":210,"wspd":3,"visib":"6+","altim":1013,"clouds":[],"obsTime":1784365200},"SBCB":{"icaoId":"SBCB","flightCategory":"VFR","rawOb":"METAR SBCB 180900Z 07016KT CAVOK 21/18 Q1021","temp":21,"dewp":18,"wdir":70,"wspd":16,"visib":"6+","altim":1021,"clouds":[],"obsTime":1784365200},"SBME":{"icaoId":"SBME","flightCategory":"VFR","rawOb":"METAR SBME 180900Z 02009KT CAVOK 18/15 Q1021","temp":18,"dewp":15,"wdir":20,"wspd":9,"visib":"6+","altim":1021,"clouds":[],"obsTime":1784365200},"SBMK":{"icaoId":"SBMK","flightCategory":"VFR","rawOb":"METAR SBMK 180900Z 00000KT CAVOK 13/12 Q1023","temp":13,"dewp":12,"wdir":0,"wspd":0,"visib":"6+","altim":1023,"clouds":[],"obsTime":1784365200},"SBUL":{"icaoId":"SBUL","flightCategory":"VFR","rawOb":"METAR SBUL 180900Z 11008KT CAVOK 13/08 Q1023","temp":13,"dewp":8,"wdir":110,"wspd":8,"visib":"6+","altim":1023,"clouds":[],"obsTime":1784365200},"SBUR":{"icaoId":"SBUR","flightCategory":"VFR","rawOb":"METAR SBUR 180900Z 03010KT CAVOK 14/08 Q1021","temp":14,"dewp":8,"wdir":30,"wspd":10,"visib":"6+","altim":1021,"clouds":[],"obsTime":1784365200},"SBMQ":{"icaoId":"SBMQ","flightCategory":"MVFR","rawOb":"METAR SBMQ 180900Z 36004KT 9999 BKN017 BKN028 26/25 Q1012","temp":26,"dewp":25,"wdir":360,"wspd":4,"visib":"6+","altim":1012,"clouds":[{"cover":"BKN","base":1700},{"cover":"BKN","base":2800}],"obsTime":1784365200},"SBIL":{"icaoId":"SBIL","flightCategory":"VFR","rawOb":"METAR SBIL 181000Z 28002KT 9999 VCSH FEW017 SCT020 BKN070 20/19 Q1020","temp":20,"dewp":19,"wdir":280,"wspd":2,"visib":"6+","altim":1020,"clouds":[{"cover":"FEW","base":1700},{"cover":"SCT","base":2000},{"cover":"BKN","base":7000}],"obsTime":1784368800},"SBJU":{"icaoId":"SBJU","flightCategory":"VFR","rawOb":"METAR SBJU 180900Z 18005KT 9999 FEW020 21/15 Q1017","temp":21,"dewp":15,"wdir":180,"wspd":5,"visib":"6+","altim":1017,"clouds":[{"cover":"FEW","base":2000}],"obsTime":1784365200},"SBHT":{"icaoId":"SBHT","flightCategory":"VFR","rawOb":"METAR SBHT 181000Z 00000KT 9999 SCT012 22/22 Q1013","temp":22,"dewp":22,"wdir":0,"wspd":0,"visib":"6+","altim":1013,"clouds":[{"cover":"SCT","base":1200}],"obsTime":1784368800},"SBMG":{"icaoId":"SBMG","flightCategory":"VFR","rawOb":"METAR SBMG 180900Z AUTO 03015KT CAVOK 19/10 Q1015","temp":19,"dewp":10,"wdir":30,"wspd":15,"visib":"6+","altim":1015,"clouds":[],"obsTime":1784365200},"SBSN":{"icaoId":"SBSN","flightCategory":"VFR","rawOb":"METAR SBSN 180900Z 13004KT CAVOK 25/23 Q1012","temp":25,"dewp":23,"wdir":130,"wspd":4,"visib":"6+","altim":1012,"clouds":[],"obsTime":1784365200},"SBTE":{"icaoId":"SBTE","flightCategory":"VFR","rawOb":"METAR SBTE 180900Z 08003KT CAVOK 24/18 Q1013","temp":24,"dewp":18,"wdir":80,"wspd":3,"visib":"6+","altim":1013,"clouds":[],"obsTime":1784365200},"SBSV":{"icaoId":"SBSV","flightCategory":"MVFR","rawOb":"METAR SBSV 180900Z 12015KT 9000 VCSH SCT015 BKN024 FEW025TCU BKN070 24/19 Q1019","temp":24,"dewp":19,"wdir":120,"wspd":15,"visib":5.59,"altim":1019,"clouds":[{"cover":"SCT","base":1500},{"cover":"BKN","base":2400},{"cover":"FEW","base":2500},{"cover":"BKN","base":7000}],"obsTime":1784365200},"SBFI":{"icaoId":"SBFI","flightCategory":"VFR","rawOb":"METAR SBFI 180900Z 02018G28KT CAVOK 24/14 Q1009","temp":24,"dewp":14,"wdir":20,"wspd":18,"visib":"6+","altim":1009,"clouds":[],"obsTime":1784365200},"SBLO":{"icaoId":"SBLO","flightCategory":"VFR","rawOb":"METAR SBLO 180900Z 03003KT CAVOK 16/10 Q1018","temp":16,"dewp":10,"wdir":30,"wspd":3,"visib":"6+","altim":1018,"clouds":[],"obsTime":1784365200},"SBKP":{"icaoId":"SBKP","flightCategory":"VFR","rawOb":"METAR SBKP 180900Z 06004KT CAVOK 13/08 Q1022 WS R33","temp":13,"dewp":8,"wdir":60,"wspd":4,"visib":"6+","altim":1022,"clouds":[],"obsTime":1784365200},"SBPJ":{"icaoId":"SBPJ","flightCategory":"VFR","rawOb":"METAR SBPJ 180900Z 10003KT CAVOK 22/15 Q1015","temp":22,"dewp":15,"wdir":100,"wspd":3,"visib":"6+","altim":1015,"clouds":[],"obsTime":1784365200},"SBFL":{"icaoId":"SBFL","flightCategory":"VFR","rawOb":"METAR SBFL 180900Z 33008KT CAVOK 17/16 Q1013","temp":17,"dewp":16,"wdir":330,"wspd":8,"visib":"6+","altim":1013,"clouds":[],"obsTime":1784365200},"SBCG":{"icaoId":"SBCG","flightCategory":"VFR","rawOb":"METAR SBCG 180900Z 01012KT CAVOK 24/14 Q1014","temp":24,"dewp":14,"wdir":10,"wspd":12,"visib":"6+","altim":1014,"clouds":[],"obsTime":1784365200},"SBVT":{"icaoId":"SBVT","flightCategory":"VFR","rawOb":"METAR SBVT 180900Z VRB02KT 9999 FEW028 SCT045 17/17 Q1022","temp":17,"dewp":17,"wdir":"VRB","wspd":2,"visib":"6+","altim":1022,"clouds":[{"cover":"FEW","base":2800},{"cover":"SCT","base":4500}],"obsTime":1784365200},"SBPA":{"icaoId":"SBPA","flightCategory":"VFR","rawOb":"METAR SBPA 180900Z 01006KT 340V040 CAVOK 26/16 Q1005","temp":26,"dewp":16,"wdir":10,"wspd":6,"visib":"6+","altim":1005,"clouds":[],"obsTime":1784365200},"SBGR":{"icaoId":"SBGR","flightCategory":"VFR","rawOb":"METAR SBGR 180900Z 05006KT CAVOK 13/08 Q1022","temp":13,"dewp":8,"wdir":50,"wspd":6,"visib":"6+","altim":1022,"clouds":[],"obsTime":1784365200},"SBCP":{"icaoId":"SBCP","flightCategory":"VFR","rawOb":"METAR SBCP 181000Z 03004KT CAVOK 17/14 Q1023","temp":17,"dewp":14,"wdir":30,"wspd":4,"visib":"6+","altim":1023,"clouds":[],"obsTime":1784368800},"SBSP":{"icaoId":"SBSP","flightCategory":"VFR","rawOb":"METAR SBSP 180900Z 01011KT CAVOK 16/08 Q1022","temp":16,"dewp":8,"wdir":10,"wspd":11,"visib":"6+","altim":1022,"clouds":[],"obsTime":1784365200},"SBCJ":{"icaoId":"SBCJ","flightCategory":"VFR","rawOb":"SPECI SBCJ 181015Z 00000KT CAVOK 21/18 Q1017","temp":21,"dewp":18,"wdir":0,"wspd":0,"visib":"6+","altim":1017,"clouds":[],"obsTime":1784369700},"SBOI":{"icaoId":"SBOI","flightCategory":"VFR","rawOb":"METAR SBOI 180900Z AUTO 00000KT CAVOK 23/22 Q1013","temp":23,"dewp":22,"wdir":0,"wspd":0,"visib":"6+","altim":1013,"clouds":[],"obsTime":1784365200},"SBES":{"icaoId":"SBES","flightCategory":"VFR","rawOb":"METAR SBES 180900Z 05010KT CAVOK 19/// Q1020","temp":null,"dewp":null,"wdir":50,"wspd":10,"visib":"6+","altim":1020,"clouds":[],"obsTime":1784365200},"SBPS":{"icaoId":"SBPS","flightCategory":"LIFR","rawOb":"METAR SBPS 180900Z 28006KT 1500 BR VCFG SCT002 17/17 Q1021","temp":17,"dewp":17,"wdir":280,"wspd":6,"visib":0.93,"altim":1021,"clouds":[{"cover":"SCT","base":200}],"obsTime":1784365200},"SBSJ":{"icaoId":"SBSJ","flightCategory":"VFR","rawOb":"METAR SBSJ 180900Z 05003KT CAVOK 12/09 Q1022","temp":12,"dewp":9,"wdir":50,"wspd":3,"visib":"6+","altim":1022,"clouds":[],"obsTime":1784365200},"SBSM":{"icaoId":"SBSM","flightCategory":"VFR","rawOb":"METAR SBSM 180900Z 01020G31KT 9999 FEW020 BKN100 25/17 Q1003 WS ALL RWY","temp":25,"dewp":17,"wdir":10,"wspd":20,"visib":"6+","altim":1003,"clouds":[{"cover":"FEW","base":2000},{"cover":"BKN","base":10000}],"obsTime":1784365200},"SBAX":{"icaoId":"SBAX","flightCategory":"VFR","rawOb":"METAR SBAX 180900Z AUTO 11006KT CAVOK 11/09 Q1024","temp":11,"dewp":9,"wdir":110,"wspd":6,"visib":"6+","altim":1024,"clouds":[],"obsTime":1784365200},"SBBH":{"icaoId":"SBBH","flightCategory":"VFR","rawOb":"METAR SBBH 180900Z 00000KT CAVOK 12/09 Q1025","temp":12,"dewp":9,"wdir":0,"wspd":0,"visib":"6+","altim":1025,"clouds":[],"obsTime":1784365200},"SBBU":{"icaoId":"SBBU","flightCategory":"VFR","rawOb":"METAR SBBU 180900Z 04005KT CAVOK 16/10 Q1020","temp":16,"dewp":10,"wdir":40,"wspd":5,"visib":"6+","altim":1020,"clouds":[],"obsTime":1784365200},"SBDN":{"icaoId":"SBDN","flightCategory":"VFR","rawOb":"METAR SBDN 180900Z 05012KT CAVOK 17/09 Q1017","temp":17,"dewp":9,"wdir":50,"wspd":12,"visib":"6+","altim":1017,"clouds":[],"obsTime":1784365200},"SBIP":{"icaoId":"SBIP","flightCategory":"MVFR","rawOb":"METAR SBIP 180900Z AUTO 17002KT 9999 OVC029 14/14 Q1024","temp":14,"dewp":14,"wdir":170,"wspd":2,"visib":"6+","altim":1024,"clouds":[{"cover":"OVC","base":2900}],"obsTime":1784365200},"SBSC":{"icaoId":"SBSC","flightCategory":"VFR","rawOb":"METAR SBSC 180900Z 36017G30KT CAVOK 21/12 Q1019","temp":21,"dewp":12,"wdir":360,"wspd":17,"visib":"6+","altim":1019,"clouds":[],"obsTime":1784365200},"SBSR":{"icaoId":"SBSR","flightCategory":"VFR","rawOb":"METAR SBSR 180900Z 08008KT CAVOK 15/09 Q1020","temp":15,"dewp":9,"wdir":80,"wspd":8,"visib":"6+","altim":1020,"clouds":[],"obsTime":1784365200},"SBPL":{"icaoId":"SBPL","flightCategory":"MVFR","rawOb":"METAR SBPL 180900Z 10010KT 9999 BKN020 SCT070 21/17 Q1019","temp":21,"dewp":17,"wdir":100,"wspd":10,"visib":"6+","altim":1019,"clouds":[{"cover":"BKN","base":2000},{"cover":"SCT","base":7000}],"obsTime":1784365200},"SBKG":{"icaoId":"SBKG","flightCategory":"LIFR","rawOb":"METAR SBKG 180900Z 15007KT 9999 BKN004 BKN006 21/20 Q1017","temp":21,"dewp":20,"wdir":150,"wspd":7,"visib":"6+","altim":1017,"clouds":[{"cover":"BKN","base":400},{"cover":"BKN","base":600}],"obsTime":1784365200},"SBAR":{"icaoId":"SBAR","flightCategory":"VFR","rawOb":"METAR SBAR 180900Z 13010KT 100V170 9999 FEW015 SCT025 BKN040 24/20 Q1017","temp":24,"dewp":20,"wdir":130,"wspd":10,"visib":"6+","altim":1017,"clouds":[{"cover":"FEW","base":1500},{"cover":"SCT","base":2500},{"cover":"BKN","base":4000}],"obsTime":1784365200},"SBTU":{"icaoId":"SBTU","flightCategory":"VFR","rawOb":"METAR SBTU 180900Z AUTO 20003KT 9999 // FEW071/// ///// Q1014","temp":null,"dewp":null,"wdir":200,"wspd":3,"visib":"6+","altim":1014,"clouds":[{"cover":"FEW","base":7100}],"obsTime":1784365200},"SBCO":{"icaoId":"SBCO","flightCategory":"VFR","rawOb":"METAR SBCO 180900Z 34007KT CAVOK 26/16 Q1005","temp":26,"dewp":16,"wdir":340,"wspd":7,"visib":"6+","altim":1005,"clouds":[],"obsTime":1784365200},"SBJP":{"icaoId":"SBJP","flightCategory":"MVFR","rawOb":"METAR SBJP 180900Z 13010KT 8000 -RA BKN010 BKN025 OVC070 24/23 Q1015","temp":24,"dewp":23,"wdir":130,"wspd":10,"visib":4.97,"altim":1015,"clouds":[{"cover":"BKN","base":1000},{"cover":"BKN","base":2500},{"cover":"OVC","base":7000}],"obsTime":1784365200},"SBJV":{"icaoId":"SBJV","flightCategory":"LIFR","rawOb":"METAR SBJV 180900Z 18002KT 0100 R33/0200 FG VV001 15/15 Q1015","temp":15,"dewp":15,"wdir":180,"wspd":2,"visib":0.06,"altim":1015,"clouds":[{"cover":"OVX","base":100}],"obsTime":1784365200},"SBAF":{"icaoId":"SBAF","flightCategory":"VFR","rawOb":"METAR SBAF 181000Z 22002KT CAVOK 15/14 Q1020","temp":15,"dewp":14,"wdir":220,"wspd":2,"visib":"6+","altim":1020,"clouds":[],"obsTime":1784368800},"SBGW":{"icaoId":"SBGW","flightCategory":"VFR","rawOb":"METAR SBGW 180900Z 07008KT CAVOK 14/10 Q1021","temp":14,"dewp":10,"wdir":70,"wspd":8,"visib":"6+","altim":1021,"clouds":[],"obsTime":1784365200},"SBJR":{"icaoId":"SBJR","flightCategory":"VFR","rawOb":"METAR SBJR 181000Z 02006KT CAVOK 21/11 Q1019","temp":21,"dewp":11,"wdir":20,"wspd":6,"visib":"6+","altim":1019,"clouds":[],"obsTime":1784368800},"SBLS":{"icaoId":"SBLS","flightCategory":"VFR","rawOb":"METAR SBLS 180900Z 12007KT CAVOK 12/09 Q1025","temp":12,"dewp":9,"wdir":120,"wspd":7,"visib":"6+","altim":1025,"clouds":[],"obsTime":1784365200},"SBMT":{"icaoId":"SBMT","flightCategory":"VFR","rawOb":"METAR SBMT 180900Z 36005KT CAVOK 16/07 Q1022","temp":16,"dewp":7,"wdir":360,"wspd":5,"visib":"6+","altim":1022,"clouds":[],"obsTime":1784365200},"SBTA":{"icaoId":"SBTA","flightCategory":"VFR","rawOb":"METAR SBTA 180900Z 00000KT CAVOK 06/05 Q1021","temp":6,"dewp":5,"wdir":0,"wspd":0,"visib":"6+","altim":1021,"clouds":[],"obsTime":1784365200},"SBAN":{"icaoId":"SBAN","flightCategory":"VFR","rawOb":"METAR SBAN 180900Z 11004KT CAVOK 12/07 Q1023","temp":12,"dewp":7,"wdir":110,"wspd":4,"visib":"6+","altim":1023,"clouds":[],"obsTime":1784365200},"SBLE":{"icaoId":"SBLE","flightCategory":"MVFR","rawOb":"METAR SBLE 180900Z AUTO VRB02KT 9999 FEW022 BKN025 OVC038 ///// Q1022","temp":null,"dewp":null,"wdir":"VRB","wspd":2,"visib":"6+","altim":1022,"clouds":[{"cover":"FEW","base":2200},{"cover":"BKN","base":2500},{"cover":"OVC","base":3800}],"obsTime":1784365200},"SBNM":{"icaoId":"SBNM","flightCategory":"VFR","rawOb":"METAR SBNM 180900Z AUTO 02009KT 350V050 CAVOK 24/16 Q1006","temp":24,"dewp":16,"wdir":20,"wspd":9,"visib":"6+","altim":1006,"clouds":[],"obsTime":1784365200}}}