{"updated":1782700540,"count":61,"data":{"SBSN":{"icaoId":"SBSN","flightCategory":"VFR","rawOb":"METAR SBSN 290100Z 09001KT 9999 FEW017 BKN090 24/24 Q1013","temp":24,"dewp":24,"wdir":90,"wspd":1,"visib":"6+","altim":1013,"clouds":[{"cover":"FEW","base":1700},{"cover":"BKN","base":9000}],"obsTime":1782694800},"SBBV":{"icaoId":"SBBV","flightCategory":"MVFR","rawOb":"METAR SBBV 290100Z 13007KT 8000 -TSRA FEW013 SCT020 FEW035CB BKN060 26/24 Q1014","temp":26,"dewp":24,"wdir":130,"wspd":7,"visib":4.97,"altim":1014,"clouds":[{"cover":"FEW","base":1300},{"cover":"SCT","base":2000},{"cover":"FEW","base":3500},{"cover":"BKN","base":6000}],"obsTime":1782694800},"SBBE":{"icaoId":"SBBE","flightCategory":"VFR","rawOb":"METAR SBBE 290100Z 13006KT 9999 FEW008 OVC070 25/24 Q1014","temp":25,"dewp":24,"wdir":130,"wspd":6,"visib":"6+","altim":1014,"clouds":[{"cover":"FEW","base":800},{"cover":"OVC","base":7000}],"obsTime":1782694800},"SBSP":{"icaoId":"SBSP","flightCategory":"VFR","rawOb":"METAR SBSP 290100Z 05004KT 010V070 CAVOK 18/15 Q1022","temp":18,"dewp":15,"wdir":50,"wspd":4,"visib":"6+","altim":1022,"clouds":[],"obsTime":1782694800},"SBRF":{"icaoId":"SBRF","flightCategory":"VFR","rawOb":"METAR SBRF 290100Z 14009KT 9999 FEW025 26/21 Q1016","temp":26,"dewp":21,"wdir":140,"wspd":9,"visib":"6+","altim":1016,"clouds":[{"cover":"FEW","base":2500}],"obsTime":1782694800},"SBGO":{"icaoId":"SBGO","flightCategory":"VFR","rawOb":"METAR SBGO 290100Z 14006KT CAVOK 22/15 Q1021","temp":22,"dewp":15,"wdir":140,"wspd":6,"visib":"6+","altim":1021,"clouds":[],"obsTime":1782694800},"SBFL":{"icaoId":"SBFL","flightCategory":"MVFR","rawOb":"METAR SBFL 290100Z 35010KT 8000 -RA FEW007 BKN013 OVC100 18/18 Q1015","temp":18,"dewp":18,"wdir":350,"wspd":10,"visib":4.97,"altim":1015,"clouds":[{"cover":"FEW","base":700},{"cover":"BKN","base":1300},{"cover":"OVC","base":10000}],"obsTime":1782694800},"SBSL":{"icaoId":"SBSL","flightCategory":"VFR","rawOb":"METAR SBSL 290100Z VRB02KT 9999 FEW020 BKN080 25/24 Q1014","temp":25,"dewp":24,"wdir":"VRB","wspd":2,"visib":"6+","altim":1014,"clouds":[{"cover":"FEW","base":2000},{"cover":"BKN","base":8000}],"obsTime":1782694800},"SBMQ":{"icaoId":"SBMQ","flightCategory":"VFR","rawOb":"METAR SBMQ 290100Z 05012KT 9999 FEW031 28/25 Q1013","temp":28,"dewp":25,"wdir":50,"wspd":12,"visib":"6+","altim":1013,"clouds":[{"cover":"FEW","base":3100}],"obsTime":1782694800},"SBVT":{"icaoId":"SBVT","flightCategory":"VFR","rawOb":"METAR SBVT 290100Z 31001KT 9999 FEW013 19/19 Q1022","temp":19,"dewp":19,"wdir":310,"wspd":1,"visib":"6+","altim":1022,"clouds":[{"cover":"FEW","base":1300}],"obsTime":1782694800},"SBTE":{"icaoId":"SBTE","flightCategory":"VFR","rawOb":"METAR SBTE 290100Z 36003KT 9999 FEW025 BKN080 27/24 Q1013","temp":27,"dewp":24,"wdir":360,"wspd":3,"visib":"6+","altim":1013,"clouds":[{"cover":"FEW","base":2500},{"cover":"BKN","base":8000}],"obsTime":1782694800},"SBBR":{"icaoId":"SBBR","flightCategory":"VFR","rawOb":"METAR SBBR 290100Z 11005KT CAVOK 19/15 Q1023","temp":19,"dewp":15,"wdir":110,"wspd":5,"visib":"6+","altim":1023,"clouds":[],"obsTime":1782694800},"SBMA":{"icaoId":"SBMA","flightCategory":"VFR","rawOb":"METAR SBMA 290100Z 06004KT CAVOK 30/21 Q1013","temp":30,"dewp":21,"wdir":60,"wspd":4,"visib":"6+","altim":1013,"clouds":[],"obsTime":1782694800},"SBSG":{"icaoId":"SBSG","flightCategory":"VFR","rawOb":"METAR SBSG 290100Z 15003KT 110V200 9999 FEW025 23/21 Q1016","temp":23,"dewp":21,"wdir":150,"wspd":3,"visib":"6+","altim":1016,"clouds":[{"cover":"FEW","base":2500}],"obsTime":1782694800},"SBCT":{"icaoId":"SBCT","flightCategory":"VFR","rawOb":"METAR SBCT 290100Z 23007KT 9999 SCT030 SCT083 14/12 Q1022","temp":14,"dewp":12,"wdir":230,"wspd":7,"visib":"6+","altim":1022,"clouds":[{"cover":"SCT","base":3000},{"cover":"SCT","base":8300}],"obsTime":1782694800},"SBFZ":{"icaoId":"SBFZ","flightCategory":"VFR","rawOb":"METAR SBFZ 290100Z 15003KT CAVOK 26/23 Q1014","temp":26,"dewp":23,"wdir":150,"wspd":3,"visib":"6+","altim":1014,"clouds":[],"obsTime":1782694800},"SBPV":{"icaoId":"SBPV","flightCategory":"VFR","rawOb":"METAR SBPV 290100Z 00000KT 9999 FEW030 26/23 Q1013","temp":26,"dewp":23,"wdir":0,"wspd":0,"visib":"6+","altim":1013,"clouds":[{"cover":"FEW","base":3000}],"obsTime":1782694800},"SBNT":{"icaoId":"SBNT","flightCategory":"VFR","rawOb":"METAR SBNT 290100Z 17007KT 9999 SCT023 24/21 Q1016","temp":24,"dewp":21,"wdir":170,"wspd":7,"visib":"6+","altim":1016,"clouds":[{"cover":"SCT","base":2300}],"obsTime":1782694800},"SBPJ":{"icaoId":"SBPJ","flightCategory":"VFR","rawOb":"METAR SBPJ 290100Z 12005KT CAVOK 25/18 Q1015","temp":25,"dewp":18,"wdir":120,"wspd":5,"visib":"6+","altim":1015,"clouds":[],"obsTime":1782694800},"SBLO":{"icaoId":"SBLO","flightCategory":"VFR","rawOb":"METAR SBLO 290100Z 20003KT CAVOK 21/19 Q1019","temp":21,"dewp":19,"wdir":200,"wspd":3,"visib":"6+","altim":1019,"clouds":[],"obsTime":1782694800},"SBMO":{"icaoId":"SBMO","flightCategory":"MVFR","rawOb":"METAR SBMO 290100Z 09008KT 5000 -RA BR SCT005 BKN015 23/23 Q1017","temp":23,"dewp":23,"wdir":90,"wspd":8,"visib":3.11,"altim":1017,"clouds":[{"cover":"SCT","base":500},{"cover":"BKN","base":1500}],"obsTime":1782694800},"SBFI":{"icaoId":"SBFI","flightCategory":"IFR","rawOb":"METAR SBFI 290100Z 12007KT 4000 TSRA BR SCT010 BKN030 FEW035CB 16/16 Q1016 RETS","temp":16,"dewp":16,"wdir":120,"wspd":7,"visib":2.49,"altim":1016,"clouds":[{"cover":"SCT","base":1000},{"cover":"BKN","base":3000},{"cover":"FEW","base":3500}],"obsTime":1782694800},"SBPA":{"icaoId":"SBPA","flightCategory":"IFR","rawOb":"METAR SBPA 290100Z 28007KT 7000 -RA SCT006 BKN009 OVC030 16/16 Q1016","temp":16,"dewp":16,"wdir":280,"wspd":7,"visib":4.35,"altim":1016,"clouds":[{"cover":"SCT","base":600},{"cover":"BKN","base":900},{"cover":"OVC","base":3000}],"obsTime":1782694800},"SBRB":{"icaoId":"SBRB","flightCategory":"VFR","rawOb":"METAR SBRB 290100Z 05002KT 9999 FEW030 22/22 Q1015","temp":22,"dewp":22,"wdir":50,"wspd":2,"visib":"6+","altim":1015,"clouds":[{"cover":"FEW","base":3000}],"obsTime":1782694800},"SBKP":{"icaoId":"SBKP","flightCategory":"VFR","rawOb":"METAR SBKP 290100Z 07002KT CAVOK 21/16 Q1021","temp":21,"dewp":16,"wdir":70,"wspd":2,"visib":"6+","altim":1021,"clouds":[],"obsTime":1782694800},"SBSV":{"icaoId":"SBSV","flightCategory":"MVFR","rawOb":"METAR SBSV 290100Z 12009KT 090V160 9999 FEW018 BKN023 BKN042 25/22 Q1018","temp":25,"dewp":22,"wdir":120,"wspd":9,"visib":"6+","altim":1018,"clouds":[{"cover":"FEW","base":1800},{"cover":"BKN","base":2300},{"cover":"BKN","base":4200}],"obsTime":1782694800},"SBCG":{"icaoId":"SBCG","flightCategory":"VFR","rawOb":"METAR SBCG 290100Z 02003KT CAVOK 21/18 Q1018","temp":21,"dewp":18,"wdir":20,"wspd":3,"visib":"6+","altim":1018,"clouds":[],"obsTime":1782694800},"SBGR":{"icaoId":"SBGR","flightCategory":"VFR","rawOb":"METAR SBGR 290100Z 04005KT CAVOK 20/15 Q1022","temp":20,"dewp":15,"wdir":40,"wspd":5,"visib":"6+","altim":1022,"clouds":[],"obsTime":1782694800},"SBMG":{"icaoId":"SBMG","flightCategory":"VFR","rawOb":"METAR SBMG 290100Z 02008KT 9999 VCTS FEW030CB SCT050 BKN085 21/18 Q1017 RETS","temp":21,"dewp":18,"wdir":20,"wspd":8,"visib":"6+","altim":1017,"clouds":[{"cover":"FEW","base":3000},{"cover":"SCT","base":5000},{"cover":"BKN","base":8500}],"obsTime":1782694800},"SBJU":{"icaoId":"SBJU","flightCategory":"VFR","rawOb":"METAR SBJU 290100Z 18003KT 9999 FEW020 25/16 Q1017","temp":25,"dewp":16,"wdir":180,"wspd":3,"visib":"6+","altim":1017,"clouds":[{"cover":"FEW","base":2000}],"obsTime":1782694800},"SBME":{"icaoId":"SBME","flightCategory":"VFR","rawOb":"METAR SBME 290100Z 02008KT CAVOK 22/19 Q1020","temp":22,"dewp":19,"wdir":20,"wspd":8,"visib":"6+","altim":1020,"clouds":[],"obsTime":1782694800},"SBMK":{"icaoId":"SBMK","flightCategory":"VFR","rawOb":"METAR SBMK 290100Z 00000KT CAVOK 18/13 Q1023","temp":18,"dewp":13,"wdir":0,"wspd":0,"visib":"6+","altim":1023,"clouds":[],"obsTime":1782694800},"SBCF":{"icaoId":"SBCF","flightCategory":"VFR","rawOb":"METAR SBCF 290100Z 10003KT CAVOK 18/13 Q1024","temp":18,"dewp":13,"wdir":100,"wspd":3,"visib":"6+","altim":1024,"clouds":[],"obsTime":1782694800},"SBUL":{"icaoId":"SBUL","flightCategory":"VFR","rawOb":"METAR SBUL 290100Z 10006KT CAVOK 20/14 Q1023","temp":20,"dewp":14,"wdir":100,"wspd":6,"visib":"6+","altim":1023,"clouds":[],"obsTime":1782694800},"SBGL":{"icaoId":"SBGL","flightCategory":"VFR","rawOb":"METAR SBGL 290100Z 13004KT 9000 NSC 21/19 Q1018","temp":21,"dewp":19,"wdir":130,"wspd":4,"visib":5.59,"altim":1018,"clouds":[],"obsTime":1782694800},"SBUR":{"icaoId":"SBUR","flightCategory":"VFR","rawOb":"METAR SBUR 290100Z 02004KT CAVOK 20/15 Q1022","temp":20,"dewp":15,"wdir":20,"wspd":4,"visib":"6+","altim":1022,"clouds":[],"obsTime":1782694800},"SBEG":{"icaoId":"SBEG","flightCategory":"VFR","rawOb":"METAR SBEG 290100Z 00000KT 9999 FEW020 26/25 Q1013","temp":26,"dewp":25,"wdir":0,"wspd":0,"visib":"6+","altim":1013,"clouds":[{"cover":"FEW","base":2000}],"obsTime":1782694800},"SBIL":{"icaoId":"SBIL","flightCategory":"MVFR","rawOb":"METAR SBIL 290100Z 24005KT 9999 BKN020 24/22 Q1020","temp":24,"dewp":22,"wdir":240,"wspd":5,"visib":"6+","altim":1020,"clouds":[{"cover":"BKN","base":2000}],"obsTime":1782694800},"SBSJ":{"icaoId":"SBSJ","flightCategory":"VFR","rawOb":"METAR SBSJ 290100Z VRB01KT CAVOK 18/15 Q1021","temp":18,"dewp":15,"wdir":"VRB","wspd":1,"visib":"6+","altim":1021,"clouds":[],"obsTime":1782694800},"SBIP":{"icaoId":"SBIP","flightCategory":"VFR","rawOb":"METAR SBIP 290100Z AUTO 00000KT CAVOK 16/16 Q1022","temp":16,"dewp":16,"wdir":0,"wspd":0,"visib":"6+","altim":1022,"clouds":[],"obsTime":1782694800},"SBAR":{"icaoId":"SBAR","flightCategory":"MVFR","rawOb":"SPECI SBAR 290044Z 10007KT 8000 3000E SHRA SCT010 BKN030 BKN070 24/23 Q1017","temp":24,"dewp":23,"wdir":100,"wspd":7,"visib":4.97,"altim":1017,"clouds":[{"cover":"SCT","base":1000},{"cover":"BKN","base":3000},{"cover":"BKN","base":7000}],"obsTime":1782693840},"SBOI":{"icaoId":"SBOI","flightCategory":"LIFR","rawOb":"METAR SBOI 290100Z AUTO VRB01KT 9000 BKN001 BKN003 24/24 Q1014","temp":24,"dewp":24,"wdir":"VRB","wspd":1,"visib":5.59,"altim":1014,"clouds":[{"cover":"BKN","base":100},{"cover":"BKN","base":300}],"obsTime":1782694800},"SBTU":{"icaoId":"SBTU","flightCategory":"VFR","rawOb":"METAR SBTU 290100Z AUTO 22004KT 9999 // FEW089/// ///// Q1015","temp":null,"dewp":null,"wdir":220,"wspd":4,"visib":"6+","altim":1015,"clouds":[{"cover":"FEW","base":8900}],"obsTime":1782694800},"SBPS":{"icaoId":"SBPS","flightCategory":"VFR","rawOb":"METAR SBPS 290100Z 24004KT 9999 SCT020 21/20 Q1021","temp":21,"dewp":20,"wdir":240,"wspd":4,"visib":"6+","altim":1021,"clouds":[{"cover":"SCT","base":2000}],"obsTime":1782694800},"SBCO":{"icaoId":"SBCO","flightCategory":"IFR","rawOb":"METAR SBCO 290100Z 28007KT 3000 -RA BR SCT007 BKN011 OVC035 16/16 Q1016","temp":16,"dewp":16,"wdir":280,"wspd":7,"visib":1.86,"altim":1016,"clouds":[{"cover":"SCT","base":700},{"cover":"BKN","base":1100},{"cover":"OVC","base":3500}],"obsTime":1782694800},"SBSM":{"icaoId":"SBSM","flightCategory":"VFR","rawOb":"METAR SBSM 290100Z 27006KT CAVOK 14/13 Q1018","temp":14,"dewp":13,"wdir":270,"wspd":6,"visib":"6+","altim":1018,"clouds":[],"obsTime":1782694800},"SBKG":{"icaoId":"SBKG","flightCategory":"VFR","rawOb":"METAR SBKG 290100Z 11002KT CAVOK 18/16 Q1019","temp":18,"dewp":16,"wdir":110,"wspd":2,"visib":"6+","altim":1019,"clouds":[],"obsTime":1782694800},"SBAX":{"icaoId":"SBAX","flightCategory":"VFR","rawOb":"METAR SBAX 290100Z AUTO 09004KT CAVOK 18/14 Q1023","temp":18,"dewp":14,"wdir":90,"wspd":4,"visib":"6+","altim":1023,"clouds":[],"obsTime":1782694800},"SBBH":{"icaoId":"SBBH","flightCategory":"VFR","rawOb":"METAR SBBH 290100Z 09003KT CAVOK 17/13 Q1024","temp":17,"dewp":13,"wdir":90,"wspd":3,"visib":"6+","altim":1024,"clouds":[],"obsTime":1782694800},"SBBU":{"icaoId":"SBBU","flightCategory":"VFR","rawOb":"METAR SBBU 290100Z 03002KT CAVOK 25/17 Q1020","temp":25,"dewp":17,"wdir":30,"wspd":2,"visib":"6+","altim":1020,"clouds":[],"obsTime":1782694800},"SBDN":{"icaoId":"SBDN","flightCategory":"VFR","rawOb":"METAR SBDN 290100Z 06005KT CAVOK 24/18 Q1017","temp":24,"dewp":18,"wdir":60,"wspd":5,"visib":"6+","altim":1017,"clouds":[],"obsTime":1782694800},"SBSC":{"icaoId":"SBSC","flightCategory":"VFR","rawOb":"METAR SBSC 290100Z 36006KT CAVOK 23/17 Q1018","temp":23,"dewp":17,"wdir":360,"wspd":6,"visib":"6+","altim":1018,"clouds":[],"obsTime":1782694800},"SBSR":{"icaoId":"SBSR","flightCategory":"VFR","rawOb":"METAR SBSR 290100Z 00000KT CAVOK 22/16 Q1019","temp":22,"dewp":16,"wdir":0,"wspd":0,"visib":"6+","altim":1019,"clouds":[],"obsTime":1782694800},"SBPL":{"icaoId":"SBPL","flightCategory":"MVFR","rawOb":"METAR SBPL 290100Z 13010KT 9999 BKN020 24/21 Q1018","temp":24,"dewp":21,"wdir":130,"wspd":10,"visib":"6+","altim":1018,"clouds":[{"cover":"BKN","base":2000}],"obsTime":1782694800},"SBLE":{"icaoId":"SBLE","flightCategory":"MVFR","rawOb":"METAR SBLE 290100Z AUTO VRB02KT 9999 BKN030 BKN035 ///// Q////","temp":null,"dewp":null,"wdir":"VRB","wspd":2,"visib":"6+","altim":null,"clouds":[{"cover":"BKN","base":3000},{"cover":"BKN","base":3500}],"obsTime":1782694800},"SBNM":{"icaoId":"SBNM","flightCategory":"LIFR","rawOb":"METAR SBNM 290100Z AUTO 24005KT 6000 BKN004 BKN028 14/14 Q1019","temp":14,"dewp":14,"wdir":240,"wspd":5,"visib":3.73,"altim":1019,"clouds":[{"cover":"BKN","base":400},{"cover":"BKN","base":2800}],"obsTime":1782694800},"SBAN":{"icaoId":"SBAN","flightCategory":"VFR","rawOb":"METAR SBAN 290100Z 14004KT 9999 FEW045 18/14 Q1024","temp":18,"dewp":14,"wdir":140,"wspd":4,"visib":"6+","altim":1024,"clouds":[{"cover":"FEW","base":4500}],"obsTime":1782694800},"SBJV":{"icaoId":"SBJV","flightCategory":"MVFR","rawOb":"METAR SBJV 290100Z 07001KT 9999 BKN030 18/16 Q1019","temp":18,"dewp":16,"wdir":70,"wspd":1,"visib":"6+","altim":1019,"clouds":[{"cover":"BKN","base":3000}],"obsTime":1782694800},"SBMT":{"icaoId":"SBMT","flightCategory":"VFR","rawOb":"METAR SBMT 290100Z 00000KT CAVOK 13/13 Q1022","temp":13,"dewp":13,"wdir":0,"wspd":0,"visib":"6+","altim":1022,"clouds":[],"obsTime":1782694800},"SBJP":{"icaoId":"SBJP","flightCategory":"VFR","rawOb":"METAR SBJP 290100Z 17003KT 9999 FEW030 22/21 Q1016","temp":22,"dewp":21,"wdir":170,"wspd":3,"visib":"6+","altim":1016,"clouds":[{"cover":"FEW","base":3000}],"obsTime":1782694800},"SBLS":{"icaoId":"SBLS","flightCategory":"VFR","rawOb":"METAR SBLS 290100Z 13006KT CAVOK 17/13 Q1024","temp":17,"dewp":13,"wdir":130,"wspd":6,"visib":"6+","altim":1024,"clouds":[],"obsTime":1782694800}}}