{"updated":1780524444,"count":83,"data":{"SBVT":{"icaoId":"SBVT","flightCategory":"VFR","rawOb":"METAR SBVT 032100Z 20011KT CAVOK 23/17 Q1023","temp":23,"dewp":17,"wdir":200,"wspd":11,"visib":"6+","altim":1023,"clouds":[],"obsTime":1780520400},"SBBE":{"icaoId":"SBBE","flightCategory":"VFR","rawOb":"METAR SBBE 032100Z 03003KT 9999 SCT040 FEW045TCU 27/24 Q1012","temp":27,"dewp":24,"wdir":30,"wspd":3,"visib":"6+","altim":1012,"clouds":[{"cover":"SCT","base":4000},{"cover":"FEW","base":4500}],"obsTime":1780520400},"SBBR":{"icaoId":"SBBR","flightCategory":"VFR","rawOb":"METAR SBBR 032100Z 09007KT CAVOK 23/14 Q1023","temp":23,"dewp":14,"wdir":90,"wspd":7,"visib":"6+","altim":1023,"clouds":[],"obsTime":1780520400},"SBBV":{"icaoId":"SBBV","flightCategory":"VFR","rawOb":"METAR SBBV 032100Z 02003KT 9999 FEW017 SCT040 FEW045TCU 29/25 Q1011","temp":29,"dewp":25,"wdir":20,"wspd":3,"visib":"6+","altim":1011,"clouds":[{"cover":"FEW","base":1700},{"cover":"SCT","base":4000},{"cover":"FEW","base":4500}],"obsTime":1780520400},"SBCB":{"icaoId":"SBCB","flightCategory":"VFR","rawOb":"METAR SBCB 032100Z 13003KT 9999 SCT015 SCT030 22/18 Q1025","temp":22,"dewp":18,"wdir":130,"wspd":3,"visib":"6+","altim":1025,"clouds":[{"cover":"SCT","base":1500},{"cover":"SCT","base":3000}],"obsTime":1780520400},"SBCF":{"icaoId":"SBCF","flightCategory":"VFR","rawOb":"METAR SBCF 032100Z 13009KT CAVOK 21/15 Q1025","temp":21,"dewp":15,"wdir":130,"wspd":9,"visib":"6+","altim":1025,"clouds":[],"obsTime":1780520400},"SBCG":{"icaoId":"SBCG","flightCategory":"VFR","rawOb":"METAR SBCG 032100Z 10007KT CAVOK 21/12 Q1020","temp":21,"dewp":12,"wdir":100,"wspd":7,"visib":"6+","altim":1020,"clouds":[],"obsTime":1780520400},"SBCP":{"icaoId":"SBCP","flightCategory":"VFR","rawOb":"METAR SBCP 032100Z 21009KT 9999 FEW020 22/18 Q1024","temp":22,"dewp":18,"wdir":210,"wspd":9,"visib":"6+","altim":1024,"clouds":[{"cover":"FEW","base":2000}],"obsTime":1780520400},"SBCT":{"icaoId":"SBCT","flightCategory":"VFR","rawOb":"METAR SBCT 032100Z 08005KT 9999 BKN033 14/12 Q1028","temp":14,"dewp":12,"wdir":80,"wspd":5,"visib":"6+","altim":1028,"clouds":[{"cover":"BKN","base":3300}],"obsTime":1780520400},"SBCZ":{"icaoId":"SBCZ","flightCategory":"VFR","rawOb":"METAR SBCZ 032100Z 08007KT 9999 SCT030 32/22 Q1011","temp":32,"dewp":22,"wdir":80,"wspd":7,"visib":"6+","altim":1011,"clouds":[{"cover":"SCT","base":3000}],"obsTime":1780520400},"SBEG":{"icaoId":"SBEG","flightCategory":"VFR","rawOb":"METAR SBEG 032100Z 10010KT 9999 FEW030 FEW035TCU 31/23 Q1010","temp":31,"dewp":23,"wdir":100,"wspd":10,"visib":"6+","altim":1010,"clouds":[{"cover":"FEW","base":3000},{"cover":"FEW","base":3500}],"obsTime":1780520400},"SBFI":{"icaoId":"SBFI","flightCategory":"VFR","rawOb":"METAR SBFI 032100Z 14005KT CAVOK 21/15 Q1022","temp":21,"dewp":15,"wdir":140,"wspd":5,"visib":"6+","altim":1022,"clouds":[],"obsTime":1780520400},"SBFL":{"icaoId":"SBFL","flightCategory":"VFR","rawOb":"METAR SBFL 032100Z 11008KT 9999 FEW012 SCT030 BKN060 18/17 Q1027","temp":18,"dewp":17,"wdir":110,"wspd":8,"visib":"6+","altim":1027,"clouds":[{"cover":"FEW","base":1200},{"cover":"SCT","base":3000},{"cover":"BKN","base":6000}],"obsTime":1780520400},"SBFZ":{"icaoId":"SBFZ","flightCategory":"VFR","rawOb":"METAR SBFZ 032100Z 12009KT 9999 FEW018 27/24 Q1013","temp":27,"dewp":24,"wdir":120,"wspd":9,"visib":"6+","altim":1013,"clouds":[{"cover":"FEW","base":1800}],"obsTime":1780520400},"SBGL":{"icaoId":"SBGL","flightCategory":"VFR","rawOb":"METAR SBGL 032100Z 13008KT 100V160 9999 FEW020 BKN040 22/18 Q1025","temp":22,"dewp":18,"wdir":130,"wspd":8,"visib":"6+","altim":1025,"clouds":[{"cover":"FEW","base":2000},{"cover":"BKN","base":4000}],"obsTime":1780520400},"SBGO":{"icaoId":"SBGO","flightCategory":"VFR","rawOb":"METAR SBGO 032100Z 13005KT CAVOK 27/14 Q1021","temp":27,"dewp":14,"wdir":130,"wspd":5,"visib":"6+","altim":1021,"clouds":[],"obsTime":1780520400},"SBGR":{"icaoId":"SBGR","flightCategory":"MVFR","rawOb":"METAR SBGR 032100Z 16006KT 9999 BKN020 17/14 Q1027","temp":17,"dewp":14,"wdir":160,"wspd":6,"visib":"6+","altim":1027,"clouds":[{"cover":"BKN","base":2000}],"obsTime":1780520400},"SBKP":{"icaoId":"SBKP","flightCategory":"VFR","rawOb":"METAR SBKP 032100Z 13010KT CAVOK 20/13 Q1025","temp":20,"dewp":13,"wdir":130,"wspd":10,"visib":"6+","altim":1025,"clouds":[],"obsTime":1780520400},"SBLO":{"icaoId":"SBLO","flightCategory":"VFR","rawOb":"METAR SBLO 032100Z 13006KT CAVOK 19/14 Q1023","temp":19,"dewp":14,"wdir":130,"wspd":6,"visib":"6+","altim":1023,"clouds":[],"obsTime":1780520400},"SBMA":{"icaoId":"SBMA","flightCategory":"VFR","rawOb":"METAR SBMA 032100Z 07002KT 9999 FEW023 FEW025TCU 31/23 Q1012","temp":31,"dewp":23,"wdir":70,"wspd":2,"visib":"6+","altim":1012,"clouds":[{"cover":"FEW","base":2300},{"cover":"FEW","base":2500}],"obsTime":1780520400},"SBMO":{"icaoId":"SBMO","flightCategory":"VFR","rawOb":"METAR SBMO 032100Z 14004KT 9999 SCT020 BKN070 25/23 Q1017","temp":25,"dewp":23,"wdir":140,"wspd":4,"visib":"6+","altim":1017,"clouds":[{"cover":"SCT","base":2000},{"cover":"BKN","base":7000}],"obsTime":1780520400},"SBMQ":{"icaoId":"SBMQ","flightCategory":"VFR","rawOb":"METAR SBMQ 032100Z 07008KT 9999 VCTS SCT020 FEW050CB BKN070 29/26 Q1011","temp":29,"dewp":26,"wdir":70,"wspd":8,"visib":"6+","altim":1011,"clouds":[{"cover":"SCT","base":2000},{"cover":"FEW","base":5000},{"cover":"BKN","base":7000}],"obsTime":1780520400},"SBNT":{"icaoId":"SBNT","flightCategory":"VFR","rawOb":"METAR SBNT 032100Z 14009KT 9999 FEW030 26/23 Q1015","temp":26,"dewp":23,"wdir":140,"wspd":9,"visib":"6+","altim":1015,"clouds":[{"cover":"FEW","base":3000}],"obsTime":1780520400},"SBPA":{"icaoId":"SBPA","flightCategory":"VFR","rawOb":"METAR SBPA 032100Z 11010KT CAVOK 20/14 Q1024","temp":20,"dewp":14,"wdir":110,"wspd":10,"visib":"6+","altim":1024,"clouds":[],"obsTime":1780520400},"SBPJ":{"icaoId":"SBPJ","flightCategory":"VFR","rawOb":"METAR SBPJ 032100Z 17005KT 9999 FEW030 32/19 Q1015","temp":32,"dewp":19,"wdir":170,"wspd":5,"visib":"6+","altim":1015,"clouds":[{"cover":"FEW","base":3000}],"obsTime":1780520400},"SBPV":{"icaoId":"SBPV","flightCategory":"VFR","rawOb":"METAR SBPV 032100Z 07004KT 9999 FEW040 33/20 Q1011","temp":33,"dewp":20,"wdir":70,"wspd":4,"visib":"6+","altim":1011,"clouds":[{"cover":"FEW","base":4000}],"obsTime":1780520400},"SBRB":{"icaoId":"SBRB","flightCategory":"VFR","rawOb":"METAR SBRB 032100Z 06004KT 9999 FEW040 31/21 Q1012","temp":31,"dewp":21,"wdir":60,"wspd":4,"visib":"6+","altim":1012,"clouds":[{"cover":"FEW","base":4000}],"obsTime":1780520400},"SBRF":{"icaoId":"SBRF","flightCategory":"MVFR","rawOb":"METAR SBRF 032100Z 18004KT 8000 VCSH SCT018 BKN060 25/24 Q1016","temp":25,"dewp":24,"wdir":180,"wspd":4,"visib":4.97,"altim":1016,"clouds":[{"cover":"SCT","base":1800},{"cover":"BKN","base":6000}],"obsTime":1780520400},"SBSG":{"icaoId":"SBSG","flightCategory":"VFR","rawOb":"METAR SBSG 032100Z 14004KT 090V180 9999 FEW026 26/24 Q1015","temp":26,"dewp":24,"wdir":140,"wspd":4,"visib":"6+","altim":1015,"clouds":[{"cover":"FEW","base":2600}],"obsTime":1780520400},"SBSL":{"icaoId":"SBSL","flightCategory":"VFR","rawOb":"METAR SBSL 032100Z 16003KT 9999 VCSH SCT030 FEW031TCU SCT070 26/26 Q1013","temp":26,"dewp":26,"wdir":160,"wspd":3,"visib":"6+","altim":1013,"clouds":[{"cover":"SCT","base":3000},{"cover":"FEW","base":3100},{"cover":"SCT","base":7000}],"obsTime":1780520400},"SBSN":{"icaoId":"SBSN","flightCategory":"VFR","rawOb":"METAR SBSN 032100Z 10007KT 9999 FEW021 30/25 Q1010","temp":30,"dewp":25,"wdir":100,"wspd":7,"visib":"6+","altim":1010,"clouds":[{"cover":"FEW","base":2100}],"obsTime":1780520400},"SBSP":{"icaoId":"SBSP","flightCategory":"MVFR","rawOb":"METAR SBSP 032100Z 15010KT 9999 SCT012 BKN014 16/14 Q1028","temp":16,"dewp":14,"wdir":150,"wspd":10,"visib":"6+","altim":1028,"clouds":[{"cover":"SCT","base":1200},{"cover":"BKN","base":1400}],"obsTime":1780520400},"SBSV":{"icaoId":"SBSV","flightCategory":"VFR","rawOb":"METAR SBSV 032100Z 15008KT 9999 VCSH SCT019 FEW022TCU BKN090 26/23 Q1018","temp":26,"dewp":23,"wdir":150,"wspd":8,"visib":"6+","altim":1018,"clouds":[{"cover":"SCT","base":1900},{"cover":"FEW","base":2200},{"cover":"BKN","base":9000}],"obsTime":1780520400},"SBTE":{"icaoId":"SBTE","flightCategory":"VFR","rawOb":"METAR SBTE 032100Z 35009KT 9999 FEW040 BKN070 31/24 Q1012","temp":31,"dewp":24,"wdir":350,"wspd":9,"visib":"6+","altim":1012,"clouds":[{"cover":"FEW","base":4000},{"cover":"BKN","base":7000}],"obsTime":1780520400},"SBJU":{"icaoId":"SBJU","flightCategory":"VFR","rawOb":"METAR SBJU 032100Z 05003KT 9999 SCT020 28/20 Q1016","temp":28,"dewp":20,"wdir":50,"wspd":3,"visib":"6+","altim":1016,"clouds":[{"cover":"SCT","base":2000}],"obsTime":1780520400},"SBME":{"icaoId":"SBME","flightCategory":"VFR","rawOb":"METAR SBME 032100Z 16006KT 9999 FEW030 22/19 Q1025","temp":22,"dewp":19,"wdir":160,"wspd":6,"visib":"6+","altim":1025,"clouds":[{"cover":"FEW","base":3000}],"obsTime":1780520400},"SBMG":{"icaoId":"SBMG","flightCategory":"VFR","rawOb":"METAR SBMG 032100Z 10008KT CAVOK 20/14 Q1022","temp":20,"dewp":14,"wdir":100,"wspd":8,"visib":"6+","altim":1022,"clouds":[],"obsTime":1780520400},"SBMK":{"icaoId":"SBMK","flightCategory":"VFR","rawOb":"METAR SBMK 032100Z 05004KT CAVOK 20/15 Q1023","temp":20,"dewp":15,"wdir":50,"wspd":4,"visib":"6+","altim":1023,"clouds":[],"obsTime":1780520400},"SBAT":{"icaoId":"SBAT","flightCategory":"VFR","rawOb":"METAR SBAT 032100Z 14004KT 9999 FEW030 32/18 Q1013","temp":32,"dewp":18,"wdir":140,"wspd":4,"visib":"6+","altim":1013,"clouds":[{"cover":"FEW","base":3000}],"obsTime":1780520400},"SBUL":{"icaoId":"SBUL","flightCategory":"VFR","rawOb":"METAR SBUL 032100Z 08005KT 9999 SCT049 23/09 Q1024","temp":23,"dewp":9,"wdir":80,"wspd":5,"visib":"6+","altim":1024,"clouds":[{"cover":"SCT","base":4900}],"obsTime":1780520400},"SBCR":{"icaoId":"SBCR","flightCategory":"VFR","rawOb":"METAR SBCR 032100Z 09006KT CAVOK 28/12 Q1017","temp":28,"dewp":12,"wdir":90,"wspd":6,"visib":"6+","altim":1017,"clouds":[],"obsTime":1780520400},"SBUR":{"icaoId":"SBUR","flightCategory":"VFR","rawOb":"METAR SBUR 032100Z 07004KT CAVOK 25/10 Q1023","temp":25,"dewp":10,"wdir":70,"wspd":4,"visib":"6+","altim":1023,"clouds":[],"obsTime":1780520400},"SBHT":{"icaoId":"SBHT","flightCategory":"VFR","rawOb":"METAR SBHT 032100Z 15001KT 9999 FEW030 31/26 Q1011","temp":31,"dewp":26,"wdir":150,"wspd":1,"visib":"6+","altim":1011,"clouds":[{"cover":"FEW","base":3000}],"obsTime":1780520400},"SBIL":{"icaoId":"SBIL","flightCategory":"MVFR","rawOb":"METAR SBIL 032100Z 25008KT 5000 -RA SCT018 FEW025TCU SCT040 BKN070 24/23 Q1020","temp":24,"dewp":23,"wdir":250,"wspd":8,"visib":3.11,"altim":1020,"clouds":[{"cover":"SCT","base":1800},{"cover":"FEW","base":2500},{"cover":"SCT","base":4000},{"cover":"BKN","base":7000}],"obsTime":1780520400},"SBAR":{"icaoId":"SBAR","flightCategory":"VFR","rawOb":"METAR SBAR 032100Z 14007KT 9999 VCSH FEW023 FEW025TCU SCT050 27/23 Q1017","temp":27,"dewp":23,"wdir":140,"wspd":7,"visib":"6+","altim":1017,"clouds":[{"cover":"FEW","base":2300},{"cover":"FEW","base":2500},{"cover":"SCT","base":5000}],"obsTime":1780520400},"SBPL":{"icaoId":"SBPL","flightCategory":"VFR","rawOb":"METAR SBPL 032100Z 12004KT CAVOK 30/13 Q1016","temp":30,"dewp":13,"wdir":120,"wspd":4,"visib":"6+","altim":1016,"clouds":[],"obsTime":1780520400},"SBUY":{"icaoId":"SBUY","flightCategory":"VFR","rawOb":"METAR SBUY 032100Z 18001KT 9999 FEW030 31/23 Q1009","temp":31,"dewp":23,"wdir":180,"wspd":1,"visib":"6+","altim":1009,"clouds":[{"cover":"FEW","base":3000}],"obsTime":1780520400},"SBTF":{"icaoId":"SBTF","flightCategory":"VFR","rawOb":"METAR SBTF 032100Z 23004KT 9999 FEW020 29/25 Q1010","temp":29,"dewp":25,"wdir":230,"wspd":4,"visib":"6+","altim":1010,"clouds":[{"cover":"FEW","base":2000}],"obsTime":1780520400},"SBPS":{"icaoId":"SBPS","flightCategory":"MVFR","rawOb":"METAR SBPS 032100Z 18004KT 9999 BKN018 BKN070 24/21 Q1021","temp":24,"dewp":21,"wdir":180,"wspd":4,"visib":"6+","altim":1021,"clouds":[{"cover":"BKN","base":1800},{"cover":"BKN","base":7000}],"obsTime":1780520400},"SBOI":{"icaoId":"SBOI","flightCategory":"VFR","rawOb":"METAR SBOI 032100Z AUTO 06003KT 010V100 9999 FEW034 29/24 Q1012","temp":29,"dewp":24,"wdir":60,"wspd":3,"visib":"6+","altim":1012,"clouds":[{"cover":"FEW","base":3400}],"obsTime":1780520400},"SBTT":{"icaoId":"SBTT","flightCategory":"VFR","rawOb":"METAR SBTT 032100Z 19008KT 9999 FEW022 31/22 Q1011","temp":31,"dewp":22,"wdir":190,"wspd":8,"visib":"6+","altim":1011,"clouds":[{"cover":"FEW","base":2200}],"obsTime":1780520400},"SBSJ":{"icaoId":"SBSJ","flightCategory":"VFR","rawOb":"METAR SBSJ 032100Z 16010KT 9999 BKN040 FEW050TCU 18/14 Q1026","temp":18,"dewp":14,"wdir":160,"wspd":10,"visib":"6+","altim":1026,"clouds":[{"cover":"BKN","base":4000},{"cover":"FEW","base":5000}],"obsTime":1780520400},"SBPB":{"icaoId":"SBPB","flightCategory":"VFR","rawOb":"METAR SBPB 032100Z 09006KT 9999 FEW020 FEW025TCU BKN100 29/24 Q1013","temp":29,"dewp":24,"wdir":90,"wspd":6,"visib":"6+","altim":1013,"clouds":[{"cover":"FEW","base":2000},{"cover":"FEW","base":2500},{"cover":"BKN","base":10000}],"obsTime":1780520400},"SBCJ":{"icaoId":"SBCJ","flightCategory":"VFR","rawOb":"METAR SBCJ 032100Z 12004KT CAVOK 26/19 Q1017","temp":26,"dewp":19,"wdir":120,"wspd":4,"visib":"6+","altim":1017,"clouds":[],"obsTime":1780520400},"SBIP":{"icaoId":"SBIP","flightCategory":"VFR","rawOb":"METAR SBIP 032100Z AUTO VRB01KT CAVOK 20/19 Q1022","temp":20,"dewp":19,"wdir":"VRB","wspd":1,"visib":"6+","altim":1022,"clouds":[],"obsTime":1780520400},"SBKG":{"icaoId":"SBKG","flightCategory":"VFR","rawOb":"METAR SBKG 032100Z 10006KT 9999 FEW020 BKN100 23/21 Q1018","temp":23,"dewp":21,"wdir":100,"wspd":6,"visib":"6+","altim":1018,"clouds":[{"cover":"FEW","base":2000},{"cover":"BKN","base":10000}],"obsTime":1780520400},"SBPP":{"icaoId":"SBPP","flightCategory":"VFR","rawOb":"METAR SBPP 032100Z 08009KT CAVOK 18/12 Q1021","temp":18,"dewp":12,"wdir":80,"wspd":9,"visib":"6+","altim":1021,"clouds":[],"obsTime":1780520400},"SBSC":{"icaoId":"SBSC","flightCategory":"VFR","rawOb":"METAR SBSC 032100Z 16005KT 9999 FEW025 SCT040 22/18 Q1025","temp":22,"dewp":18,"wdir":160,"wspd":5,"visib":"6+","altim":1025,"clouds":[{"cover":"FEW","base":2500},{"cover":"SCT","base":4000}],"obsTime":1780520400},"SBSM":{"icaoId":"SBSM","flightCategory":"VFR","rawOb":"METAR SBSM 032100Z 14004KT CAVOK 16/15 Q1024","temp":16,"dewp":15,"wdir":140,"wspd":4,"visib":"6+","altim":1024,"clouds":[],"obsTime":1780520400},"SBSR":{"icaoId":"SBSR","flightCategory":"VFR","rawOb":"METAR SBSR 032100Z 11003KT 090V150 CAVOK 26/09 Q1021","temp":26,"dewp":9,"wdir":110,"wspd":3,"visib":"6+","altim":1021,"clouds":[],"obsTime":1780520400},"SBTU":{"icaoId":"SBTU","flightCategory":"VFR","rawOb":"METAR SBTU 032100Z AUTO 25003KT 9999 // FEW041/// ///// Q1013","temp":null,"dewp":null,"wdir":250,"wspd":3,"visib":"6+","altim":1013,"clouds":[{"cover":"FEW","base":4100}],"obsTime":1780520400},"SBVH":{"icaoId":"SBVH","flightCategory":"VFR","rawOb":"METAR SBVH 032100Z 10007KT 9999 FEW035 25/16 Q1017","temp":25,"dewp":16,"wdir":100,"wspd":7,"visib":"6+","altim":1017,"clouds":[{"cover":"FEW","base":3500}],"obsTime":1780520400},"SBAX":{"icaoId":"SBAX","flightCategory":"VFR","rawOb":"METAR SBAX 032100Z 10006KT CAVOK 21/13 Q1025","temp":21,"dewp":13,"wdir":100,"wspd":6,"visib":"6+","altim":1025,"clouds":[],"obsTime":1780520400},"SBBH":{"icaoId":"SBBH","flightCategory":"VFR","rawOb":"METAR SBBH 032100Z 10008KT CAVOK 21/15 Q1025","temp":21,"dewp":15,"wdir":100,"wspd":8,"visib":"6+","altim":1025,"clouds":[],"obsTime":1780520400},"SBBU":{"icaoId":"SBBU","flightCategory":"VFR","rawOb":"METAR SBBU 032100Z 12007KT CAVOK 22/16 Q1023","temp":22,"dewp":16,"wdir":120,"wspd":7,"visib":"6+","altim":1023,"clouds":[],"obsTime":1780520400},"SBCA":{"icaoId":"SBCA","flightCategory":"VFR","rawOb":"METAR SBCA 032100Z 10007KT CAVOK 17/11 Q1024","temp":17,"dewp":11,"wdir":100,"wspd":7,"visib":"6+","altim":1024,"clouds":[],"obsTime":1780520400},"SBCO":{"icaoId":"SBCO","flightCategory":"VFR","rawOb":"METAR SBCO 032100Z 11009KT CAVOK 18/14 Q1025","temp":18,"dewp":14,"wdir":110,"wspd":9,"visib":"6+","altim":1025,"clouds":[],"obsTime":1780520400},"SBDN":{"icaoId":"SBDN","flightCategory":"VFR","rawOb":"METAR SBDN 032100Z 11006KT 9999 FEW039 21/14 Q1021","temp":21,"dewp":14,"wdir":110,"wspd":6,"visib":"6+","altim":1021,"clouds":[{"cover":"FEW","base":3900}],"obsTime":1780520400},"SBES":{"icaoId":"SBES","flightCategory":"MVFR","rawOb":"METAR SBES 032100Z 06004KT 020V090 8000 -DZ FEW010 SCT017 BKN030 21/// Q1025","temp":null,"dewp":null,"wdir":60,"wspd":4,"visib":4.97,"altim":1025,"clouds":[{"cover":"FEW","base":1000},{"cover":"SCT","base":1700},{"cover":"BKN","base":3000}],"obsTime":1780520400},"SBJP":{"icaoId":"SBJP","flightCategory":"VFR","rawOb":"METAR SBJP 032100Z 13006KT 9999 FEW020 BKN070 25/23 Q1016","temp":25,"dewp":23,"wdir":130,"wspd":6,"visib":"6+","altim":1016,"clouds":[{"cover":"FEW","base":2000},{"cover":"BKN","base":7000}],"obsTime":1780520400},"SBLE":{"icaoId":"SBLE","flightCategory":"VFR","rawOb":"METAR SBLE 032100Z AUTO VRB01KT 9999 FEW026 SCT030 OVC036 ///// Q////","temp":null,"dewp":null,"wdir":"VRB","wspd":1,"visib":"6+","altim":null,"clouds":[{"cover":"FEW","base":2600},{"cover":"SCT","base":3000},{"cover":"OVC","base":3600}],"obsTime":1780520400},"SBJV":{"icaoId":"SBJV","flightCategory":"VFR","rawOb":"METAR SBJV 032100Z 14002KT 9999 OVC040 19/17 Q1026","temp":19,"dewp":17,"wdir":140,"wspd":2,"visib":"6+","altim":1026,"clouds":[{"cover":"OVC","base":4000}],"obsTime":1780520400},"SBNM":{"icaoId":"SBNM","flightCategory":"VFR","rawOb":"METAR SBNM 032100Z AUTO 13004KT CAVOK 21/15 Q1023","temp":21,"dewp":15,"wdir":130,"wspd":4,"visib":"6+","altim":1023,"clouds":[],"obsTime":1780520400},"SBPF":{"icaoId":"SBPF","flightCategory":"VFR","rawOb":"METAR SBPF 032100Z 07007KT CAVOK 18/12 Q1026","temp":18,"dewp":12,"wdir":70,"wspd":7,"visib":"6+","altim":1026,"clouds":[],"obsTime":1780520400},"SBAN":{"icaoId":"SBAN","flightCategory":"VFR","rawOb":"METAR SBAN 032100Z 12004KT 9999 FEW030 22/14 Q1024","temp":22,"dewp":14,"wdir":120,"wspd":4,"visib":"6+","altim":1024,"clouds":[{"cover":"FEW","base":3000}],"obsTime":1780520400},"SBIH":{"icaoId":"SBIH","flightCategory":"VFR","rawOb":"METAR SBIH 032100Z 19003KT 9999 SCT020 FEW023TCU BKN080 26/25 Q1011","temp":26,"dewp":25,"wdir":190,"wspd":3,"visib":"6+","altim":1011,"clouds":[{"cover":"SCT","base":2000},{"cover":"FEW","base":2300},{"cover":"BKN","base":8000}],"obsTime":1780520400},"SBAF":{"icaoId":"SBAF","flightCategory":"VFR","rawOb":"METAR SBAF 032100Z 20006KT 9999 FEW030 21/20 Q1025","temp":21,"dewp":20,"wdir":200,"wspd":6,"visib":"6+","altim":1025,"clouds":[{"cover":"FEW","base":3000}],"obsTime":1780520400},"SBGW":{"icaoId":"SBGW","flightCategory":"VFR","rawOb":"METAR SBGW 032100Z 01003KT 9999 BKN040 BKN080 19/13 Q1026","temp":19,"dewp":13,"wdir":10,"wspd":3,"visib":"6+","altim":1026,"clouds":[{"cover":"BKN","base":4000},{"cover":"BKN","base":8000}],"obsTime":1780520400},"SBJR":{"icaoId":"SBJR","flightCategory":"VFR","rawOb":"METAR SBJR 032100Z 14004KT 9999 SCT020 22/18 Q1025","temp":22,"dewp":18,"wdir":140,"wspd":4,"visib":"6+","altim":1025,"clouds":[{"cover":"SCT","base":2000}],"obsTime":1780520400},"SBLS":{"icaoId":"SBLS","flightCategory":"VFR","rawOb":"METAR SBLS 032100Z 14009KT 9999 FEW030 21/15 Q1025","temp":21,"dewp":15,"wdir":140,"wspd":9,"visib":"6+","altim":1025,"clouds":[{"cover":"FEW","base":3000}],"obsTime":1780520400},"SBMT":{"icaoId":"SBMT","flightCategory":"MVFR","rawOb":"METAR SBMT 032100Z 12006KT 100V180 8000 BKN019 17/13 Q1027","temp":17,"dewp":13,"wdir":120,"wspd":6,"visib":4.97,"altim":1027,"clouds":[{"cover":"BKN","base":1900}],"obsTime":1780520400},"SBST":{"icaoId":"SBST","flightCategory":"MVFR","rawOb":"METAR SBST 032100Z 19004KT 8000 BKN030 20/17 Q1025","temp":20,"dewp":17,"wdir":190,"wspd":4,"visib":4.97,"altim":1025,"clouds":[{"cover":"BKN","base":3000}],"obsTime":1780520400},"SBTA":{"icaoId":"SBTA","flightCategory":"VFR","rawOb":"METAR SBTA 032100Z 15005KT 080V200 9999 SCT030 SCT070 20/14 Q1025","temp":20,"dewp":14,"wdir":150,"wspd":5,"visib":"6+","altim":1025,"clouds":[{"cover":"SCT","base":3000},{"cover":"SCT","base":7000}],"obsTime":1780520400}}}