{"updated":1778871610,"count":85,"data":{"SBSV":{"icaoId":"SBSV","flightCategory":"VFR","rawOb":"METAR SBSV 151800Z 15009KT 130V200 9999 SCT023 29/22 Q1014","temp":29,"dewp":22,"wdir":150,"wspd":9,"visib":"6+","altim":1014,"clouds":[{"cover":"SCT","base":2300}],"obsTime":1778868000},"SBFL":{"icaoId":"SBFL","flightCategory":"MVFR","rawOb":"METAR SBFL 151800Z 19005KT 140V230 8000 VCSH BKN034 OVC063 18/15 Q1017","temp":18,"dewp":15,"wdir":190,"wspd":5,"visib":4.97,"altim":1017,"clouds":[{"cover":"BKN","base":3400},{"cover":"OVC","base":6300}],"obsTime":1778868000},"SBBR":{"icaoId":"SBBR","flightCategory":"VFR","rawOb":"METAR SBBR 151800Z 05005KT 340V110 9999 SCT045 BKN070 28/14 Q1019","temp":28,"dewp":14,"wdir":50,"wspd":5,"visib":"6+","altim":1019,"clouds":[{"cover":"SCT","base":4500},{"cover":"BKN","base":7000}],"obsTime":1778868000},"SBMA":{"icaoId":"SBMA","flightCategory":"MVFR","rawOb":"METAR SBMA 151800Z 03008KT 9999 BKN020 32/23 Q1011","temp":32,"dewp":23,"wdir":30,"wspd":8,"visib":"6+","altim":1011,"clouds":[{"cover":"BKN","base":2000}],"obsTime":1778868000},"SBCB":{"icaoId":"SBCB","flightCategory":"VFR","rawOb":"METAR SBCB 151800Z 25008KT 9999 SCT020 BKN070 24/21 Q1015","temp":24,"dewp":21,"wdir":250,"wspd":8,"visib":"6+","altim":1015,"clouds":[{"cover":"SCT","base":2000},{"cover":"BKN","base":7000}],"obsTime":1778868000},"SBFZ":{"icaoId":"SBFZ","flightCategory":"VFR","rawOb":"METAR SBFZ 151800Z 08009KT 040V110 9999 SCT020 FEW030TCU 29/24 Q1011","temp":29,"dewp":24,"wdir":80,"wspd":9,"visib":"6+","altim":1011,"clouds":[{"cover":"SCT","base":2000},{"cover":"FEW","base":3000}],"obsTime":1778868000},"SBMO":{"icaoId":"SBMO","flightCategory":"VFR","rawOb":"METAR SBMO 151800Z 19008KT 9999 SCT030 29/21 Q1013","temp":29,"dewp":21,"wdir":190,"wspd":8,"visib":"6+","altim":1013,"clouds":[{"cover":"SCT","base":3000}],"obsTime":1778868000},"SBGL":{"icaoId":"SBGL","flightCategory":"MVFR","rawOb":"METAR SBGL 151800Z 21006KT 8000 BKN020 OVC026 25/20 Q1015","temp":25,"dewp":20,"wdir":210,"wspd":6,"visib":4.97,"altim":1015,"clouds":[{"cover":"BKN","base":2000},{"cover":"OVC","base":2600}],"obsTime":1778868000},"SBMQ":{"icaoId":"SBMQ","flightCategory":"VFR","rawOb":"METAR SBMQ 151800Z 05015KT 9999 VCSH FEW013 SCT020 FEW030TCU 29/25 Q1012","temp":29,"dewp":25,"wdir":50,"wspd":15,"visib":"6+","altim":1012,"clouds":[{"cover":"FEW","base":1300},{"cover":"SCT","base":2000},{"cover":"FEW","base":3000}],"obsTime":1778868000},"SBCR":{"icaoId":"SBCR","flightCategory":"IFR","rawOb":"METAR SBCR 151800Z 24006KT 9999 BKN009 BKN100 23/21 Q1014","temp":23,"dewp":21,"wdir":240,"wspd":6,"visib":"6+","altim":1014,"clouds":[{"cover":"BKN","base":900},{"cover":"BKN","base":10000}],"obsTime":1778868000},"SBBV":{"icaoId":"SBBV","flightCategory":"VFR","rawOb":"METAR SBBV 151800Z 09005KT 9999 SCT030 FEW035TCU BKN100 31/22 Q1012","temp":31,"dewp":22,"wdir":90,"wspd":5,"visib":"6+","altim":1012,"clouds":[{"cover":"SCT","base":3000},{"cover":"FEW","base":3500},{"cover":"BKN","base":10000}],"obsTime":1778868000},"SBPA":{"icaoId":"SBPA","flightCategory":"VFR","rawOb":"METAR SBPA 151800Z 14008KT 090V170 9999 SCT035 19/10 Q1017","temp":19,"dewp":10,"wdir":140,"wspd":8,"visib":"6+","altim":1017,"clouds":[{"cover":"SCT","base":3500}],"obsTime":1778868000},"SBGO":{"icaoId":"SBGO","flightCategory":"VFR","rawOb":"METAR SBGO 151800Z 04005KT 340V110 9999 FEW045 30/16 Q1017","temp":30,"dewp":16,"wdir":40,"wspd":5,"visib":"6+","altim":1017,"clouds":[{"cover":"FEW","base":4500}],"obsTime":1778868000},"SBCF":{"icaoId":"SBCF","flightCategory":"VFR","rawOb":"METAR SBCF 151800Z 27003KT 9999 SCT040 SCT080 28/17 Q1018","temp":28,"dewp":17,"wdir":270,"wspd":3,"visib":"6+","altim":1018,"clouds":[{"cover":"SCT","base":4000},{"cover":"SCT","base":8000}],"obsTime":1778868000},"SBPV":{"icaoId":"SBPV","flightCategory":"VFR","rawOb":"METAR SBPV 151800Z 26002KT 9999 SCT030 BKN070 30/26 Q1012","temp":30,"dewp":26,"wdir":260,"wspd":2,"visib":"6+","altim":1012,"clouds":[{"cover":"SCT","base":3000},{"cover":"BKN","base":7000}],"obsTime":1778868000},"SBRB":{"icaoId":"SBRB","flightCategory":"VFR","rawOb":"METAR SBRB 151800Z 13002KT 9999 SCT045 31/22 Q1014","temp":31,"dewp":22,"wdir":130,"wspd":2,"visib":"6+","altim":1014,"clouds":[{"cover":"SCT","base":4500}],"obsTime":1778868000},"SBVT":{"icaoId":"SBVT","flightCategory":"VFR","rawOb":"METAR SBVT 151800Z 06010KT 9999 FEW035 28/23 Q1013","temp":28,"dewp":23,"wdir":60,"wspd":10,"visib":"6+","altim":1013,"clouds":[{"cover":"FEW","base":3500}],"obsTime":1778868000},"SBTE":{"icaoId":"SBTE","flightCategory":"VFR","rawOb":"METAR SBTE 151800Z 29006KT 9999 SCT020 FEW025TCU 32/25 Q1010","temp":32,"dewp":25,"wdir":290,"wspd":6,"visib":"6+","altim":1010,"clouds":[{"cover":"SCT","base":2000},{"cover":"FEW","base":2500}],"obsTime":1778868000},"SBRF":{"icaoId":"SBRF","flightCategory":"MVFR","rawOb":"SPECI SBRF 151728Z 20007KT 8000 BKN025 BKN050 24/22 Q1013","temp":24,"dewp":22,"wdir":200,"wspd":7,"visib":4.97,"altim":1013,"clouds":[{"cover":"BKN","base":2500},{"cover":"BKN","base":5000}],"obsTime":1778866080},"SBBE":{"icaoId":"SBBE","flightCategory":"VFR","rawOb":"METAR SBBE 151800Z 01007KT 9999 VCSH SCT036 FEW040TCU 28/24 Q1011","temp":28,"dewp":24,"wdir":10,"wspd":7,"visib":"6+","altim":1011,"clouds":[{"cover":"SCT","base":3600},{"cover":"FEW","base":4000}],"obsTime":1778868000},"SBEG":{"icaoId":"SBEG","flightCategory":"IFR","rawOb":"SPECI SBEG 151718Z 21002KT 9999 -RA BKN005 BKN040 24/23 Q1014","temp":24,"dewp":23,"wdir":210,"wspd":2,"visib":"6+","altim":1014,"clouds":[{"cover":"BKN","base":500},{"cover":"BKN","base":4000}],"obsTime":1778865480},"SBSG":{"icaoId":"SBSG","flightCategory":"VFR","rawOb":"METAR SBSG 151800Z 16006KT 120V190 9999 SCT030 BKN100 29/23 Q1012","temp":29,"dewp":23,"wdir":160,"wspd":6,"visib":"6+","altim":1012,"clouds":[{"cover":"SCT","base":3000},{"cover":"BKN","base":10000}],"obsTime":1778868000},"SBCG":{"icaoId":"SBCG","flightCategory":"VFR","rawOb":"METAR SBCG 151800Z 33006KT 9999 SCT030 BKN066 25/19 Q1016","temp":25,"dewp":19,"wdir":330,"wspd":6,"visib":"6+","altim":1016,"clouds":[{"cover":"SCT","base":3000},{"cover":"BKN","base":6600}],"obsTime":1778868000},"SBSN":{"icaoId":"SBSN","flightCategory":"VFR","rawOb":"METAR SBSN 151800Z 07008KT 9999 FEW018 FEW025TCU 30/24 Q1011","temp":30,"dewp":24,"wdir":70,"wspd":8,"visib":"6+","altim":1011,"clouds":[{"cover":"FEW","base":1800},{"cover":"FEW","base":2500}],"obsTime":1778868000},"SBKP":{"icaoId":"SBKP","flightCategory":"MVFR","rawOb":"METAR SBKP 151800Z 22004KT 7000 -RA SCT040 OVC100 19/16 Q1019","temp":19,"dewp":16,"wdir":220,"wspd":4,"visib":4.35,"altim":1019,"clouds":[{"cover":"SCT","base":4000},{"cover":"OVC","base":10000}],"obsTime":1778868000},"SBFI":{"icaoId":"SBFI","flightCategory":"VFR","rawOb":"METAR SBFI 151800Z 12004KT 9999 SCT014 BKN070 20/18 Q1014","temp":20,"dewp":18,"wdir":120,"wspd":4,"visib":"6+","altim":1014,"clouds":[{"cover":"SCT","base":1400},{"cover":"BKN","base":7000}],"obsTime":1778868000},"SBSP":{"icaoId":"SBSP","flightCategory":"MVFR","rawOb":"METAR SBSP 151800Z 34007KT 7000 SCT040 OVC090 19/15 Q1020","temp":19,"dewp":15,"wdir":340,"wspd":7,"visib":4.35,"altim":1020,"clouds":[{"cover":"SCT","base":4000},{"cover":"OVC","base":9000}],"obsTime":1778868000},"SBLO":{"icaoId":"SBLO","flightCategory":"IFR","rawOb":"METAR SBLO 151800Z 01004KT 9999 BKN009 BKN017 20/18 Q1017","temp":20,"dewp":18,"wdir":10,"wspd":4,"visib":"6+","altim":1017,"clouds":[{"cover":"BKN","base":900},{"cover":"BKN","base":1700}],"obsTime":1778868000},"SBNT":{"icaoId":"SBNT","flightCategory":"VFR","rawOb":"METAR SBNT 151800Z 15011KT 9999 FEW023 BKN100 30/24 Q1012","temp":30,"dewp":24,"wdir":150,"wspd":11,"visib":"6+","altim":1012,"clouds":[{"cover":"FEW","base":2300},{"cover":"BKN","base":10000}],"obsTime":1778868000},"SBPJ":{"icaoId":"SBPJ","flightCategory":"VFR","rawOb":"METAR SBPJ 151800Z 28004KT 230V340 9999 SCT045 35/21 Q1012","temp":35,"dewp":21,"wdir":280,"wspd":4,"visib":"6+","altim":1012,"clouds":[{"cover":"SCT","base":4500}],"obsTime":1778868000},"SBSL":{"icaoId":"SBSL","flightCategory":"VFR","rawOb":"METAR SBSL 151800Z 29004KT 230V320 9999 VCSH SCT020 FEW025TCU BKN100 26/25 Q1012","temp":26,"dewp":25,"wdir":290,"wspd":4,"visib":"6+","altim":1012,"clouds":[{"cover":"SCT","base":2000},{"cover":"FEW","base":2500},{"cover":"BKN","base":10000}],"obsTime":1778868000},"SBAT":{"icaoId":"SBAT","flightCategory":"VFR","rawOb":"METAR SBAT 151800Z 30005KT 9999 4000W TS VCSH SCT030 FEW033CB BKN090 25/25 Q1013","temp":25,"dewp":25,"wdir":300,"wspd":5,"visib":"6+","altim":1013,"clouds":[{"cover":"SCT","base":3000},{"cover":"FEW","base":3300},{"cover":"BKN","base":9000}],"obsTime":1778868000},"SBCP":{"icaoId":"SBCP","flightCategory":"VFR","rawOb":"METAR SBCP 151800Z 19011KT 9999 SCT020 FEW025TCU 29/23 Q1013","temp":29,"dewp":23,"wdir":190,"wspd":11,"visib":"6+","altim":1013,"clouds":[{"cover":"SCT","base":2000},{"cover":"FEW","base":2500}],"obsTime":1778868000},"SBCT":{"icaoId":"SBCT","flightCategory":"LIFR","rawOb":"METAR SBCT 151800Z 23009KT 2500 RA BR BKN002 OVC009 14/14 Q1020 RERA","temp":14,"dewp":14,"wdir":230,"wspd":9,"visib":1.55,"altim":1020,"clouds":[{"cover":"BKN","base":200},{"cover":"OVC","base":900}],"obsTime":1778868000},"SBCZ":{"icaoId":"SBCZ","flightCategory":"MVFR","rawOb":"METAR SBCZ 151800Z VRB02KT 9999 BKN030 32/23 Q1014","temp":32,"dewp":23,"wdir":"VRB","wspd":2,"visib":"6+","altim":1014,"clouds":[{"cover":"BKN","base":3000}],"obsTime":1778868000},"SBGR":{"icaoId":"SBGR","flightCategory":"VFR","rawOb":"METAR SBGR 151800Z 34002KT 9999 -RA FEW040 OVC090 19/15 Q1019","temp":19,"dewp":15,"wdir":340,"wspd":2,"visib":"6+","altim":1019,"clouds":[{"cover":"FEW","base":4000},{"cover":"OVC","base":9000}],"obsTime":1778868000},"SBHT":{"icaoId":"SBHT","flightCategory":"VFR","rawOb":"METAR SBHT 151800Z 13005KT 9999 SCT030 BKN100 31/24 Q1011","temp":31,"dewp":24,"wdir":130,"wspd":5,"visib":"6+","altim":1011,"clouds":[{"cover":"SCT","base":3000},{"cover":"BKN","base":10000}],"obsTime":1778868000},"SBIL":{"icaoId":"SBIL","flightCategory":"VFR","rawOb":"METAR SBIL 151800Z 14005KT 090V190 9999 FEW023 29/24 Q1015","temp":29,"dewp":24,"wdir":140,"wspd":5,"visib":"6+","altim":1015,"clouds":[{"cover":"FEW","base":2300}],"obsTime":1778868000},"SBJU":{"icaoId":"SBJU","flightCategory":"VFR","rawOb":"METAR SBJU 151800Z 15006KT 9999 SCT022 30/20 Q1014","temp":30,"dewp":20,"wdir":150,"wspd":6,"visib":"6+","altim":1014,"clouds":[{"cover":"SCT","base":2200}],"obsTime":1778868000},"SBME":{"icaoId":"SBME","flightCategory":"MVFR","rawOb":"METAR SBME 151800Z 19006KT 7000 SCT033 26/22 Q1014","temp":26,"dewp":22,"wdir":190,"wspd":6,"visib":4.35,"altim":1014,"clouds":[{"cover":"SCT","base":3300}],"obsTime":1778868000},"SBMG":{"icaoId":"SBMG","flightCategory":"VFR","rawOb":"METAR SBMG 151800Z 35010KT 330V030 9999 FEW017 SCT025 OVC034 21/18 Q1015","temp":21,"dewp":18,"wdir":350,"wspd":10,"visib":"6+","altim":1015,"clouds":[{"cover":"FEW","base":1700},{"cover":"SCT","base":2500},{"cover":"OVC","base":3400}],"obsTime":1778868000},"SBMK":{"icaoId":"SBMK","flightCategory":"VFR","rawOb":"METAR SBMK 151800Z 31004KT 9999 SCT030 31/16 Q1016","temp":31,"dewp":16,"wdir":310,"wspd":4,"visib":"6+","altim":1016,"clouds":[{"cover":"SCT","base":3000}],"obsTime":1778868000},"SBUR":{"icaoId":"SBUR","flightCategory":"VFR","rawOb":"METAR SBUR 151800Z 18010KT CAVOK 28/15 Q1018","temp":28,"dewp":15,"wdir":180,"wspd":10,"visib":"6+","altim":1018,"clouds":[],"obsTime":1778868000},"SBUL":{"icaoId":"SBUL","flightCategory":"VFR","rawOb":"METAR SBUL 151800Z 03008KT 9999 SCT045 SCT100 27/16 Q1019","temp":27,"dewp":16,"wdir":30,"wspd":8,"visib":"6+","altim":1019,"clouds":[{"cover":"SCT","base":4500},{"cover":"SCT","base":10000}],"obsTime":1778868000},"SBOI":{"icaoId":"SBOI","flightCategory":"VFR","rawOb":"METAR SBOI 151800Z AUTO 29003KT 250V320 9999 SCT031 28/25 Q1012 RERA","temp":28,"dewp":25,"wdir":290,"wspd":3,"visib":"6+","altim":1012,"clouds":[{"cover":"SCT","base":3100}],"obsTime":1778868000},"SBPS":{"icaoId":"SBPS","flightCategory":"VFR","rawOb":"METAR SBPS 151800Z 08009KT 9999 FEW030 28/23 Q1014","temp":28,"dewp":23,"wdir":80,"wspd":9,"visib":"6+","altim":1014,"clouds":[{"cover":"FEW","base":3000}],"obsTime":1778868000},"SBPL":{"icaoId":"SBPL","flightCategory":"VFR","rawOb":"METAR SBPL 151800Z 13007KT 9999 FEW030 33/17 Q1013","temp":33,"dewp":17,"wdir":130,"wspd":7,"visib":"6+","altim":1013,"clouds":[{"cover":"FEW","base":3000}],"obsTime":1778868000},"SBSJ":{"icaoId":"SBSJ","flightCategory":"MVFR","rawOb":"METAR SBSJ 151800Z 19004KT 6000 NSC 19/15 Q1018","temp":19,"dewp":15,"wdir":190,"wspd":4,"visib":3.73,"altim":1018,"clouds":[],"obsTime":1778868000},"SBUY":{"icaoId":"SBUY","flightCategory":"VFR","rawOb":"METAR SBUY 151800Z 32009KT 9999 SCT025 FEW030TCU BKN100 28/25 Q1011","temp":28,"dewp":25,"wdir":320,"wspd":9,"visib":"6+","altim":1011,"clouds":[{"cover":"SCT","base":2500},{"cover":"FEW","base":3000},{"cover":"BKN","base":10000}],"obsTime":1778868000},"SBCJ":{"icaoId":"SBCJ","flightCategory":"MVFR","rawOb":"METAR SBCJ 151800Z 10003KT 9999 BKN020 27/23 Q1016","temp":27,"dewp":23,"wdir":100,"wspd":3,"visib":"6+","altim":1016,"clouds":[{"cover":"BKN","base":2000}],"obsTime":1778868000},"SBPP":{"icaoId":"SBPP","flightCategory":"LIFR","rawOb":"SPECI SBPP 151705Z 30003KT 1000 BR OVC002 17/17 Q1017","temp":17,"dewp":17,"wdir":300,"wspd":3,"visib":0.62,"altim":1017,"clouds":[{"cover":"OVC","base":200}],"obsTime":1778864700},"SBTT":{"icaoId":"SBTT","flightCategory":"MVFR","rawOb":"METAR SBTT 151800Z 28004KT 9999 BKN017 SCT100 31/22 Q1013","temp":31,"dewp":22,"wdir":280,"wspd":4,"visib":"6+","altim":1013,"clouds":[{"cover":"BKN","base":1700},{"cover":"SCT","base":10000}],"obsTime":1778868000},"SBTF":{"icaoId":"SBTF","flightCategory":"VFR","rawOb":"METAR SBTF 151800Z 02007KT 9999 SCT013 BKN090 26/25 Q1013 RERA","temp":26,"dewp":25,"wdir":20,"wspd":7,"visib":"6+","altim":1013,"clouds":[{"cover":"SCT","base":1300},{"cover":"BKN","base":9000}],"obsTime":1778868000},"SBDN":{"icaoId":"SBDN","flightCategory":"VFR","rawOb":"METAR SBDN 151800Z 02005KT 9999 SCT012 BKN082 22/18 Q1016","temp":22,"dewp":18,"wdir":20,"wspd":5,"visib":"6+","altim":1016,"clouds":[{"cover":"SCT","base":1200},{"cover":"BKN","base":8200}],"obsTime":1778868000},"SBES":{"icaoId":"SBES","flightCategory":"VFR","rawOb":"METAR SBES 151800Z VRB09KT 9999 FEW020 SCT040 BKN050 24/// Q1015","temp":null,"dewp":null,"wdir":"VRB","wspd":9,"visib":"6+","altim":1015,"clouds":[{"cover":"FEW","base":2000},{"cover":"SCT","base":4000},{"cover":"BKN","base":5000}],"obsTime":1778868000},"SBGM":{"icaoId":"SBGM","flightCategory":"VFR","rawOb":"METAR SBGM 151800Z 15005KT 9999 SCT040 SCT100 32/20 Q1013","temp":32,"dewp":20,"wdir":150,"wspd":5,"visib":"6+","altim":1013,"clouds":[{"cover":"SCT","base":4000},{"cover":"SCT","base":10000}],"obsTime":1778868000},"SBIP":{"icaoId":"SBIP","flightCategory":"VFR","rawOb":"METAR SBIP 151800Z AUTO 04003KT 310V100 CAVOK 28/20 Q1015","temp":28,"dewp":20,"wdir":40,"wspd":3,"visib":"6+","altim":1015,"clouds":[],"obsTime":1778868000},"SBKG":{"icaoId":"SBKG","flightCategory":"MVFR","rawOb":"METAR SBKG 151800Z 16007KT 9999 SCT008 BKN015 BKN070 26/20 Q1015","temp":26,"dewp":20,"wdir":160,"wspd":7,"visib":"6+","altim":1015,"clouds":[{"cover":"SCT","base":800},{"cover":"BKN","base":1500},{"cover":"BKN","base":7000}],"obsTime":1778868000},"SBPB":{"icaoId":"SBPB","flightCategory":"VFR","rawOb":"METAR SBPB 151800Z 03007KT 9999 FEW016 FEW025TCU BKN080 30/25 Q1011","temp":30,"dewp":25,"wdir":30,"wspd":7,"visib":"6+","altim":1011,"clouds":[{"cover":"FEW","base":1600},{"cover":"FEW","base":2500},{"cover":"BKN","base":8000}],"obsTime":1778868000},"SBSC":{"icaoId":"SBSC","flightCategory":"MVFR","rawOb":"METAR SBSC 151800Z 21007KT 8000 FEW015 SCT025 OVC050 24/21 Q1016","temp":24,"dewp":21,"wdir":210,"wspd":7,"visib":4.97,"altim":1016,"clouds":[{"cover":"FEW","base":1500},{"cover":"SCT","base":2500},{"cover":"OVC","base":5000}],"obsTime":1778868000},"SBSM":{"icaoId":"SBSM","flightCategory":"VFR","rawOb":"METAR SBSM 151800Z 12008KT 9999 SCT030 18/11 Q1017","temp":18,"dewp":11,"wdir":120,"wspd":8,"visib":"6+","altim":1017,"clouds":[{"cover":"SCT","base":3000}],"obsTime":1778868000},"SBSR":{"icaoId":"SBSR","flightCategory":"VFR","rawOb":"METAR SBSR 151800Z 18006KT 9999 SCT010 SCT040 OVC060 20/19 Q1019","temp":20,"dewp":19,"wdir":180,"wspd":6,"visib":"6+","altim":1019,"clouds":[{"cover":"SCT","base":1000},{"cover":"SCT","base":4000},{"cover":"OVC","base":6000}],"obsTime":1778868000},"SBVH":{"icaoId":"SBVH","flightCategory":"MVFR","rawOb":"METAR SBVH 151800Z 21010KT 9999 BKN030 FEW035TCU BKN090 28/23 Q1015","temp":28,"dewp":23,"wdir":210,"wspd":10,"visib":"6+","altim":1015,"clouds":[{"cover":"BKN","base":3000},{"cover":"FEW","base":3500},{"cover":"BKN","base":9000}],"obsTime":1778868000},"SBAU":{"icaoId":"SBAU","flightCategory":"VFR","rawOb":"METAR SBAU 151800Z 09012KT 9999 FEW006 SCT020 BKN080 20/19 Q1016","temp":20,"dewp":19,"wdir":90,"wspd":12,"visib":"6+","altim":1016,"clouds":[{"cover":"FEW","base":600},{"cover":"SCT","base":2000},{"cover":"BKN","base":8000}],"obsTime":1778868000},"SBAX":{"icaoId":"SBAX","flightCategory":"VFR","rawOb":"METAR SBAX 151800Z 23006KT 9999 SCT025 27/14 Q1019","temp":27,"dewp":14,"wdir":230,"wspd":6,"visib":"6+","altim":1019,"clouds":[{"cover":"SCT","base":2500}],"obsTime":1778868000},"SBBH":{"icaoId":"SBBH","flightCategory":"VFR","rawOb":"METAR SBBH 151800Z 25004KT 9999 SCT043 27/17 Q1018","temp":27,"dewp":17,"wdir":250,"wspd":4,"visib":"6+","altim":1018,"clouds":[{"cover":"SCT","base":4300}],"obsTime":1778868000},"SBBQ":{"icaoId":"SBBQ","flightCategory":"VFR","rawOb":"METAR SBBQ 151800Z 22004KT 170V260 9999 BKN040 SCT090 23/14 Q1021","temp":23,"dewp":14,"wdir":220,"wspd":4,"visib":"6+","altim":1021,"clouds":[{"cover":"BKN","base":4000},{"cover":"SCT","base":9000}],"obsTime":1778868000},"SBBU":{"icaoId":"SBBU","flightCategory":"MVFR","rawOb":"METAR SBBU 151800Z 03003KT 5000 -RA BR SCT003 BKN015 OVC070 19/19 Q1018 RERA","temp":19,"dewp":19,"wdir":30,"wspd":3,"visib":3.11,"altim":1018,"clouds":[{"cover":"SCT","base":300},{"cover":"BKN","base":1500},{"cover":"OVC","base":7000}],"obsTime":1778868000},"SBCA":{"icaoId":"SBCA","flightCategory":"LIFR","rawOb":"METAR SBCA 151800Z 04006KT 3000 BR BKN004 BKN020 17/16 Q1016","temp":17,"dewp":16,"wdir":40,"wspd":6,"visib":1.86,"altim":1016,"clouds":[{"cover":"BKN","base":400},{"cover":"BKN","base":2000}],"obsTime":1778868000},"SBCC":{"icaoId":"SBCC","flightCategory":"VFR","rawOb":"METAR SBCC 151800Z /////KT 9999 SCT030 SCT100 ///// Q1013","temp":null,"dewp":null,"wdir":null,"wspd":null,"visib":"6+","altim":1013,"clouds":[{"cover":"SCT","base":3000},{"cover":"SCT","base":10000}],"obsTime":1778868000},"SBCO":{"icaoId":"SBCO","flightCategory":"VFR","rawOb":"METAR SBCO 151800Z 14008KT 100V160 9999 FEW037 19/11 Q1017","temp":19,"dewp":11,"wdir":140,"wspd":8,"visib":"6+","altim":1017,"clouds":[{"cover":"FEW","base":3700}],"obsTime":1778868000},"SBAR":{"icaoId":"SBAR","flightCategory":"VFR","rawOb":"METAR SBAR 151800Z 16007KT 140V200 9999 SCT033 SCT050 28/22 Q1013","temp":28,"dewp":22,"wdir":160,"wspd":7,"visib":"6+","altim":1013,"clouds":[{"cover":"SCT","base":3300},{"cover":"SCT","base":5000}],"obsTime":1778868000},"SBJP":{"icaoId":"SBJP","flightCategory":"VFR","rawOb":"METAR SBJP 151800Z 15010KT 9999 SCT020 OVC070 27/24 Q1013","temp":27,"dewp":24,"wdir":150,"wspd":10,"visib":"6+","altim":1013,"clouds":[{"cover":"SCT","base":2000},{"cover":"OVC","base":7000}],"obsTime":1778868000},"SBTA":{"icaoId":"SBTA","flightCategory":"VFR","rawOb":"METAR SBTA 151800Z 27004KT 230V290 9999 FEW020 BKN100 22/14 Q1017","temp":22,"dewp":14,"wdir":270,"wspd":4,"visib":"6+","altim":1017,"clouds":[{"cover":"FEW","base":2000},{"cover":"BKN","base":10000}],"obsTime":1778868000},"SBAN":{"icaoId":"SBAN","flightCategory":"VFR","rawOb":"METAR SBAN 151800Z 07004KT 9999 SCT030 FEW040TCU BKN100 27/15 Q1020","temp":27,"dewp":15,"wdir":70,"wspd":4,"visib":"6+","altim":1020,"clouds":[{"cover":"SCT","base":3000},{"cover":"FEW","base":4000},{"cover":"BKN","base":10000}],"obsTime":1778868000},"SBJV":{"icaoId":"SBJV","flightCategory":"LIFR","rawOb":"METAR SBJV 151800Z 21006KT 3000 -RA BR BKN004 OVC010 17/17 Q1018","temp":17,"dewp":17,"wdir":210,"wspd":6,"visib":1.86,"altim":1018,"clouds":[{"cover":"BKN","base":400},{"cover":"OVC","base":1000}],"obsTime":1778868000},"SBNM":{"icaoId":"SBNM","flightCategory":"VFR","rawOb":"SPECI SBNM 151702Z AUTO VRB04KT CAVOK 21/13 Q1015","temp":21,"dewp":13,"wdir":"VRB","wspd":4,"visib":"6+","altim":1015,"clouds":[],"obsTime":1778864520},"SBLE":{"icaoId":"SBLE","flightCategory":"VFR","rawOb":"METAR SBLE 151800Z AUTO 11003KT 050V160 CAVOK 30/18 Q1016","temp":30,"dewp":18,"wdir":110,"wspd":3,"visib":"6+","altim":1016,"clouds":[],"obsTime":1778868000},"SBIH":{"icaoId":"SBIH","flightCategory":"VFR","rawOb":"METAR SBIH 151800Z 33003KT 9999 FEW020 FEW025TCU 33/25 Q1010","temp":33,"dewp":25,"wdir":330,"wspd":3,"visib":"6+","altim":1010,"clouds":[{"cover":"FEW","base":2000},{"cover":"FEW","base":2500}],"obsTime":1778868000},"SBAF":{"icaoId":"SBAF","flightCategory":"MVFR","rawOb":"METAR SBAF 151800Z 21007KT 7000 OVC019 24/23 Q1016","temp":24,"dewp":23,"wdir":210,"wspd":7,"visib":4.35,"altim":1016,"clouds":[{"cover":"OVC","base":1900}],"obsTime":1778868000},"SBGW":{"icaoId":"SBGW","flightCategory":"MVFR","rawOb":"METAR SBGW 151800Z VRB03KT 7000 SCT030 BKN100 24/15 Q1017","temp":24,"dewp":15,"wdir":"VRB","wspd":3,"visib":4.35,"altim":1017,"clouds":[{"cover":"SCT","base":3000},{"cover":"BKN","base":10000}],"obsTime":1778868000},"SBJR":{"icaoId":"SBJR","flightCategory":"MVFR","rawOb":"METAR SBJR 151800Z 23005KT 8000 FEW008 BKN015 OVC030 24/21 Q1016","temp":24,"dewp":21,"wdir":230,"wspd":5,"visib":4.97,"altim":1016,"clouds":[{"cover":"FEW","base":800},{"cover":"BKN","base":1500},{"cover":"OVC","base":3000}],"obsTime":1778868000},"SBLS":{"icaoId":"SBLS","flightCategory":"VFR","rawOb":"METAR SBLS 151800Z VRB02KT 9999 SCT040 27/17 Q1018","temp":27,"dewp":17,"wdir":"VRB","wspd":2,"visib":"6+","altim":1018,"clouds":[{"cover":"SCT","base":4000}],"obsTime":1778868000},"SBMT":{"icaoId":"SBMT","flightCategory":"MVFR","rawOb":"METAR SBMT 151800Z 24004KT 6000 -RA BKN025 BKN035 18/16 Q1019","temp":18,"dewp":16,"wdir":240,"wspd":4,"visib":3.73,"altim":1019,"clouds":[{"cover":"BKN","base":2500},{"cover":"BKN","base":3500}],"obsTime":1778868000},"SBST":{"icaoId":"SBST","flightCategory":"IFR","rawOb":"METAR SBST 151800Z 23004KT 4000 BR FEW012 BKN020 OVC025 21/19 Q1016","temp":21,"dewp":19,"wdir":230,"wspd":4,"visib":2.49,"altim":1016,"clouds":[{"cover":"FEW","base":1200},{"cover":"BKN","base":2000},{"cover":"OVC","base":2500}],"obsTime":1778868000}}}