{"updated":1775006161,"count":62,"data":{"SBLO":{"icaoId":"SBLO","flightCategory":"VFR","rawOb":"SPECI SBLO 312330Z 19003KT 9999 -TSRA BKN040 FEW050CB 25/20 Q1012","temp":25,"dewp":20,"wdir":190,"wspd":3,"visib":"6+","altim":1012,"clouds":[{"cover":"BKN","base":4000},{"cover":"FEW","base":5000}],"obsTime":1774999800},"SBBR":{"icaoId":"SBBR","flightCategory":"VFR","rawOb":"METAR SBBR 010000Z 31003KT 270V360 9999 FEW030 BKN090 21/19 Q1017","temp":21,"dewp":19,"wdir":310,"wspd":3,"visib":"6+","altim":1017,"clouds":[{"cover":"FEW","base":3000},{"cover":"BKN","base":9000}],"obsTime":1775001600},"SBVT":{"icaoId":"SBVT","flightCategory":"VFR","rawOb":"METAR SBVT 010000Z 03005KT 9999 FEW015 SCT070 25/24 Q1014","temp":25,"dewp":24,"wdir":30,"wspd":5,"visib":"6+","altim":1014,"clouds":[{"cover":"FEW","base":1500},{"cover":"SCT","base":7000}],"obsTime":1775001600},"SBBV":{"icaoId":"SBBV","flightCategory":"VFR","rawOb":"METAR SBBV 010000Z 26003KT 9999 SCT040 FEW045TCU 29/23 Q1000","temp":29,"dewp":23,"wdir":260,"wspd":3,"visib":"6+","altim":1000,"clouds":[{"cover":"SCT","base":4000},{"cover":"FEW","base":4500}],"obsTime":1775001600},"SBCF":{"icaoId":"SBCF","flightCategory":"MVFR","rawOb":"SPECI SBCF 312330Z 02011KT 9999 -TSRA SCT015 BKN030 FEW040CB 19/17 Q1017","temp":19,"dewp":17,"wdir":20,"wspd":11,"visib":"6+","altim":1017,"clouds":[{"cover":"SCT","base":1500},{"cover":"BKN","base":3000},{"cover":"FEW","base":4000}],"obsTime":1774999800},"SBCG":{"icaoId":"SBCG","flightCategory":"VFR","rawOb":"METAR SBCG 010000Z VRB01KT 9999 VCTS FEW045 FEW050CB 25/20 Q1011","temp":25,"dewp":20,"wdir":"VRB","wspd":1,"visib":"6+","altim":1011,"clouds":[{"cover":"FEW","base":4500},{"cover":"FEW","base":5000}],"obsTime":1775001600},"SBCT":{"icaoId":"SBCT","flightCategory":"VFR","rawOb":"METAR SBCT 010000Z 09004KT 9999 FEW013 SCT100 17/16 Q1017","temp":17,"dewp":16,"wdir":90,"wspd":4,"visib":"6+","altim":1017,"clouds":[{"cover":"FEW","base":1300},{"cover":"SCT","base":10000}],"obsTime":1775001600},"SBEG":{"icaoId":"SBEG","flightCategory":"VFR","rawOb":"METAR SBEG 010000Z 36002KT 9999 -RA VCTS FEW020 FEW025CB SCT100 24/24 Q1010","temp":24,"dewp":24,"wdir":360,"wspd":2,"visib":"6+","altim":1010,"clouds":[{"cover":"FEW","base":2000},{"cover":"FEW","base":2500},{"cover":"SCT","base":10000}],"obsTime":1775001600},"SBFI":{"icaoId":"SBFI","flightCategory":"VFR","rawOb":"METAR SBFI 010000Z 09009KT 9999 VCTS SCT030 FEW040CB BKN100 23/21 Q1010","temp":23,"dewp":21,"wdir":90,"wspd":9,"visib":"6+","altim":1010,"clouds":[{"cover":"SCT","base":3000},{"cover":"FEW","base":4000},{"cover":"BKN","base":10000}],"obsTime":1775001600},"SBFL":{"icaoId":"SBFL","flightCategory":"VFR","rawOb":"METAR SBFL 010000Z 20005KT CAVOK 23/20 Q1013","temp":23,"dewp":20,"wdir":200,"wspd":5,"visib":"6+","altim":1013,"clouds":[],"obsTime":1775001600},"SBFZ":{"icaoId":"SBFZ","flightCategory":"VFR","rawOb":"METAR SBFZ 010000Z 09005KT 9999 SCT023 28/24 Q1010","temp":28,"dewp":24,"wdir":90,"wspd":5,"visib":"6+","altim":1010,"clouds":[{"cover":"SCT","base":2300}],"obsTime":1775001600},"SBGL":{"icaoId":"SBGL","flightCategory":"VFR","rawOb":"SPECI SBGL 312329Z VRB01KT 9999 FEW006 SCT019 23/22 Q1012","temp":23,"dewp":22,"wdir":"VRB","wspd":1,"visib":"6+","altim":1012,"clouds":[{"cover":"FEW","base":600},{"cover":"SCT","base":1900}],"obsTime":1774999740},"SBGO":{"icaoId":"SBGO","flightCategory":"VFR","rawOb":"METAR SBGO 010000Z 01008KT 9999 TS VCSH FEW043 FEW045CB BKN100 24/18 Q1014","temp":24,"dewp":18,"wdir":10,"wspd":8,"visib":"6+","altim":1014,"clouds":[{"cover":"FEW","base":4300},{"cover":"FEW","base":4500},{"cover":"BKN","base":10000}],"obsTime":1775001600},"SBGR":{"icaoId":"SBGR","flightCategory":"IFR","rawOb":"METAR SBGR 010000Z 13002KT 9999 OVC009 20/18 Q1016","temp":20,"dewp":18,"wdir":130,"wspd":2,"visib":"6+","altim":1016,"clouds":[{"cover":"OVC","base":900}],"obsTime":1775001600},"SBIL":{"icaoId":"SBIL","flightCategory":"VFR","rawOb":"METAR SBIL 010000Z 33003KT CAVOK 25/25 Q1013","temp":25,"dewp":25,"wdir":330,"wspd":3,"visib":"6+","altim":1013,"clouds":[],"obsTime":1775001600},"SBJU":{"icaoId":"SBJU","flightCategory":"MVFR","rawOb":"METAR SBJU 010000Z 00000KT 9999 BKN020 FEW020TCU 25/23 Q1013","temp":25,"dewp":23,"wdir":0,"wspd":0,"visib":"6+","altim":1013,"clouds":[{"cover":"BKN","base":2000},{"cover":"FEW","base":2000}],"obsTime":1775001600},"SBKP":{"icaoId":"SBKP","flightCategory":"MVFR","rawOb":"METAR SBKP 010000Z 05007KT 010V070 9999 -RA FEW005 BKN011 OVC020 20/19 Q1016","temp":20,"dewp":19,"wdir":50,"wspd":7,"visib":"6+","altim":1016,"clouds":[{"cover":"FEW","base":500},{"cover":"BKN","base":1100},{"cover":"OVC","base":2000}],"obsTime":1775001600},"SBMA":{"icaoId":"SBMA","flightCategory":"VFR","rawOb":"METAR SBMA 010000Z 35002KT 9999 FEW020 OVC080 25/25 Q1010","temp":25,"dewp":25,"wdir":350,"wspd":2,"visib":"6+","altim":1010,"clouds":[{"cover":"FEW","base":2000},{"cover":"OVC","base":8000}],"obsTime":1775001600},"SBME":{"icaoId":"SBME","flightCategory":"VFR","rawOb":"METAR SBME 010000Z 28001KT 9999 SCT021 SCT100 23/21 Q1013","temp":23,"dewp":21,"wdir":280,"wspd":1,"visib":"6+","altim":1013,"clouds":[{"cover":"SCT","base":2100},{"cover":"SCT","base":10000}],"obsTime":1775001600},"SBMG":{"icaoId":"SBMG","flightCategory":"IFR","rawOb":"METAR SBMG 010000Z 05014G24KT 4500 2000N +TSRA SCT013 BKN030 SCT030CB 20/17 Q1013","temp":20,"dewp":17,"wdir":50,"wspd":14,"visib":2.8,"altim":1013,"clouds":[{"cover":"SCT","base":1300},{"cover":"BKN","base":3000},{"cover":"SCT","base":3000}],"obsTime":1775001600},"SBMK":{"icaoId":"SBMK","flightCategory":"VFR","rawOb":"METAR SBMK 010000Z 13002KT 9999 FEW035 SCT100 22/19 Q1015","temp":22,"dewp":19,"wdir":130,"wspd":2,"visib":"6+","altim":1015,"clouds":[{"cover":"FEW","base":3500},{"cover":"SCT","base":10000}],"obsTime":1775001600},"SBMO":{"icaoId":"SBMO","flightCategory":"VFR","rawOb":"METAR SBMO 010000Z 33005KT 9999 FEW008 SCT020 BKN070 24/24 Q1012","temp":24,"dewp":24,"wdir":330,"wspd":5,"visib":"6+","altim":1012,"clouds":[{"cover":"FEW","base":800},{"cover":"SCT","base":2000},{"cover":"BKN","base":7000}],"obsTime":1775001600},"SBMQ":{"icaoId":"SBMQ","flightCategory":"VFR","rawOb":"METAR SBMQ 010000Z 36005KT 9999 -RA SCT008 OVC100 26/25 Q1010","temp":26,"dewp":25,"wdir":360,"wspd":5,"visib":"6+","altim":1010,"clouds":[{"cover":"SCT","base":800},{"cover":"OVC","base":10000}],"obsTime":1775001600},"SBNT":{"icaoId":"SBNT","flightCategory":"VFR","rawOb":"METAR SBNT 010000Z 06003KT 9999 SCT020 SCT033 27/24 Q1011","temp":27,"dewp":24,"wdir":60,"wspd":3,"visib":"6+","altim":1011,"clouds":[{"cover":"SCT","base":2000},{"cover":"SCT","base":3300}],"obsTime":1775001600},"SBPA":{"icaoId":"SBPA","flightCategory":"VFR","rawOb":"METAR SBPA 010000Z 10013KT CAVOK 24/19 Q1011","temp":24,"dewp":19,"wdir":100,"wspd":13,"visib":"6+","altim":1011,"clouds":[],"obsTime":1775001600},"SBPJ":{"icaoId":"SBPJ","flightCategory":"VFR","rawOb":"METAR SBPJ 010000Z 13003KT 080V160 CAVOK 24/22 Q1011","temp":24,"dewp":22,"wdir":130,"wspd":3,"visib":"6+","altim":1011,"clouds":[],"obsTime":1775001600},"SBPV":{"icaoId":"SBPV","flightCategory":"VFR","rawOb":"METAR SBPV 010000Z 35002KT 9999 BKN040 FEW045TCU 25/23 Q1008","temp":25,"dewp":23,"wdir":350,"wspd":2,"visib":"6+","altim":1008,"clouds":[{"cover":"BKN","base":4000},{"cover":"FEW","base":4500}],"obsTime":1775001600},"SBRB":{"icaoId":"SBRB","flightCategory":"VFR","rawOb":"METAR SBRB 010000Z 18002KT 9999 FEW030 FEW035TCU 24/24 Q1008","temp":24,"dewp":24,"wdir":180,"wspd":2,"visib":"6+","altim":1008,"clouds":[{"cover":"FEW","base":3000},{"cover":"FEW","base":3500}],"obsTime":1775001600},"SBRF":{"icaoId":"SBRF","flightCategory":"VFR","rawOb":"METAR SBRF 010000Z 21006KT 9999 SCT012 SCT015 26/25 Q1011","temp":26,"dewp":25,"wdir":210,"wspd":6,"visib":"6+","altim":1011,"clouds":[{"cover":"SCT","base":1200},{"cover":"SCT","base":1500}],"obsTime":1775001600},"SBSG":{"icaoId":"SBSG","flightCategory":"MVFR","rawOb":"METAR SBSG 010000Z 06004KT 9999 BKN020 FEW023TCU 27/25 Q1011","temp":27,"dewp":25,"wdir":60,"wspd":4,"visib":"6+","altim":1011,"clouds":[{"cover":"BKN","base":2000},{"cover":"FEW","base":2300}],"obsTime":1775001600},"SBSL":{"icaoId":"SBSL","flightCategory":"VFR","rawOb":"METAR SBSL 010000Z 11006KT CAVOK 27/24 Q1010","temp":27,"dewp":24,"wdir":110,"wspd":6,"visib":"6+","altim":1010,"clouds":[],"obsTime":1775001600},"SBSN":{"icaoId":"SBSN","flightCategory":"VFR","rawOb":"METAR SBSN 010000Z 18003KT CAVOK 26/24 Q1009","temp":26,"dewp":24,"wdir":180,"wspd":3,"visib":"6+","altim":1009,"clouds":[],"obsTime":1775001600},"SBSP":{"icaoId":"SBSP","flightCategory":"MVFR","rawOb":"METAR SBSP 010000Z 11004KT 9999 BKN011 19/18 Q1017","temp":19,"dewp":18,"wdir":110,"wspd":4,"visib":"6+","altim":1017,"clouds":[{"cover":"BKN","base":1100}],"obsTime":1775001600},"SBSV":{"icaoId":"SBSV","flightCategory":"VFR","rawOb":"METAR SBSV 010000Z 13003KT 9999 FEW021 SCT070 27/22 Q1012","temp":27,"dewp":22,"wdir":130,"wspd":3,"visib":"6+","altim":1012,"clouds":[{"cover":"FEW","base":2100},{"cover":"SCT","base":7000}],"obsTime":1775001600},"SBTE":{"icaoId":"SBTE","flightCategory":"VFR","rawOb":"METAR SBTE 010000Z 00000KT CAVOK 28/24 Q1009","temp":28,"dewp":24,"wdir":0,"wspd":0,"visib":"6+","altim":1009,"clouds":[],"obsTime":1775001600},"SBUL":{"icaoId":"SBUL","flightCategory":"VFR","rawOb":"METAR SBUL 010000Z 22007KT 9999 FEW045 23/17 Q1016","temp":23,"dewp":17,"wdir":220,"wspd":7,"visib":"6+","altim":1016,"clouds":[{"cover":"FEW","base":4500}],"obsTime":1775001600},"SBUR":{"icaoId":"SBUR","flightCategory":"VFR","rawOb":"METAR SBUR 010000Z 11012KT 9999 FEW060TCU 20/18 Q1016","temp":20,"dewp":18,"wdir":110,"wspd":12,"visib":"6+","altim":1016,"clouds":[{"cover":"FEW","base":6000}],"obsTime":1775001600},"SBBE":{"icaoId":"SBBE","flightCategory":"VFR","rawOb":"METAR SBBE 010000Z 08005KT 9999 BKN040 26/25 Q1010","temp":26,"dewp":25,"wdir":80,"wspd":5,"visib":"6+","altim":1010,"clouds":[{"cover":"BKN","base":4000}],"obsTime":1775001600},"SBCZ":{"icaoId":"SBCZ","flightCategory":"MVFR","rawOb":"METAR SBCZ 010000Z 36003KT 6000 -TSRA FEW008 FEW035CB OVC100 23/23 Q1010 RERA","temp":23,"dewp":23,"wdir":360,"wspd":3,"visib":3.73,"altim":1010,"clouds":[{"cover":"FEW","base":800},{"cover":"FEW","base":3500},{"cover":"OVC","base":10000}],"obsTime":1775001600},"SBAX":{"icaoId":"SBAX","flightCategory":"VFR","rawOb":"METAR SBAX 010000Z AUTO 24009KT 9999 -RA BKN044 20/17 Q1017","temp":20,"dewp":17,"wdir":240,"wspd":9,"visib":"6+","altim":1017,"clouds":[{"cover":"BKN","base":4400}],"obsTime":1775001600},"SBAR":{"icaoId":"SBAR","flightCategory":"VFR","rawOb":"METAR SBAR 010000Z 11009KT 9999 SCT022 29/24 Q1012","temp":29,"dewp":24,"wdir":110,"wspd":9,"visib":"6+","altim":1012,"clouds":[{"cover":"SCT","base":2200}],"obsTime":1775001600},"SBBH":{"icaoId":"SBBH","flightCategory":"MVFR","rawOb":"METAR SBBH 010000Z 31007KT 6000 -TSRA SCT030 FEW045CB 20/18 Q1018","temp":20,"dewp":18,"wdir":310,"wspd":7,"visib":3.73,"altim":1018,"clouds":[{"cover":"SCT","base":3000},{"cover":"FEW","base":4500}],"obsTime":1775001600},"SBBU":{"icaoId":"SBBU","flightCategory":"VFR","rawOb":"METAR SBBU 010000Z 13008KT 9999 SCT030 SCT060 23/19 Q1014","temp":23,"dewp":19,"wdir":130,"wspd":8,"visib":"6+","altim":1014,"clouds":[{"cover":"SCT","base":3000},{"cover":"SCT","base":6000}],"obsTime":1775001600},"SBCO":{"icaoId":"SBCO","flightCategory":"VFR","rawOb":"METAR SBCO 010000Z 10011KT CAVOK 22/20 Q1012","temp":22,"dewp":20,"wdir":100,"wspd":11,"visib":"6+","altim":1012,"clouds":[],"obsTime":1775001600},"SBDN":{"icaoId":"SBDN","flightCategory":"VFR","rawOb":"METAR SBDN 010000Z 04004KT 9999 VCSH FEW040TCU SCT100 23/17 Q1011 RETS","temp":23,"dewp":17,"wdir":40,"wspd":4,"visib":"6+","altim":1011,"clouds":[{"cover":"FEW","base":4000},{"cover":"SCT","base":10000}],"obsTime":1775001600},"SBES":{"icaoId":"SBES","flightCategory":"VFR","rawOb":"METAR SBES 010000Z 00000KT 9999 FEW045 BKN100 20/// Q1013","temp":null,"dewp":null,"wdir":0,"wspd":0,"visib":"6+","altim":1013,"clouds":[{"cover":"FEW","base":4500},{"cover":"BKN","base":10000}],"obsTime":1775001600},"SBIP":{"icaoId":"SBIP","flightCategory":"VFR","rawOb":"METAR SBIP 010000Z AUTO VRB01KT CAVOK 23/21 Q1014","temp":23,"dewp":21,"wdir":"VRB","wspd":1,"visib":"6+","altim":1014,"clouds":[],"obsTime":1775001600},"SBKG":{"icaoId":"SBKG","flightCategory":"MVFR","rawOb":"METAR SBKG 010000Z 15009KT 9999 -TSRA BKN010 FEW023CB 22/22 Q1014","temp":22,"dewp":22,"wdir":150,"wspd":9,"visib":"6+","altim":1014,"clouds":[{"cover":"BKN","base":1000},{"cover":"FEW","base":2300}],"obsTime":1775001600},"SBPL":{"icaoId":"SBPL","flightCategory":"VFR","rawOb":"METAR SBPL 010000Z 06002KT 9999 FEW030 SCT100 25/23 Q1012","temp":25,"dewp":23,"wdir":60,"wspd":2,"visib":"6+","altim":1012,"clouds":[{"cover":"FEW","base":3000},{"cover":"SCT","base":10000}],"obsTime":1775001600},"SBPS":{"icaoId":"SBPS","flightCategory":"VFR","rawOb":"METAR SBPS 010000Z 10005KT 9999 SCT025 26/23 Q1014","temp":26,"dewp":23,"wdir":100,"wspd":5,"visib":"6+","altim":1014,"clouds":[{"cover":"SCT","base":2500}],"obsTime":1775001600},"SBSC":{"icaoId":"SBSC","flightCategory":"MVFR","rawOb":"METAR SBSC 010000Z 33002KT 8000 FEW008 SCT015 BKN060 22/21 Q1013","temp":22,"dewp":21,"wdir":330,"wspd":2,"visib":4.97,"altim":1013,"clouds":[{"cover":"FEW","base":800},{"cover":"SCT","base":1500},{"cover":"BKN","base":6000}],"obsTime":1775001600},"SBSJ":{"icaoId":"SBSJ","flightCategory":"LIFR","rawOb":"SPECI SBSJ 312331Z 28005KT 0800 R34///// R16///// +TSRA FG VV018 //////CB 18/18 Q1016 RERA","temp":18,"dewp":18,"wdir":280,"wspd":5,"visib":0.5,"altim":1016,"clouds":[{"cover":"OVX","base":1800}],"obsTime":1774999860},"SBSM":{"icaoId":"SBSM","flightCategory":"VFR","rawOb":"METAR SBSM 010000Z 12004KT CAVOK 24/21 Q1010","temp":24,"dewp":21,"wdir":120,"wspd":4,"visib":"6+","altim":1010,"clouds":[],"obsTime":1775001600},"SBSR":{"icaoId":"SBSR","flightCategory":"VFR","rawOb":"METAR SBSR 010000Z 12002KT 9999 SCT035 BKN080 24/19 Q1013","temp":24,"dewp":19,"wdir":120,"wspd":2,"visib":"6+","altim":1013,"clouds":[{"cover":"SCT","base":3500},{"cover":"BKN","base":8000}],"obsTime":1775001600},"SBJV":{"icaoId":"SBJV","flightCategory":"MVFR","rawOb":"METAR SBJV 010000Z 01003KT 330V070 9000 -RA SCT013 BKN030 23/23 Q1013","temp":23,"dewp":23,"wdir":10,"wspd":3,"visib":5.59,"altim":1013,"clouds":[{"cover":"SCT","base":1300},{"cover":"BKN","base":3000}],"obsTime":1775001600},"SBJP":{"icaoId":"SBJP","flightCategory":"MVFR","rawOb":"SPECI SBJP 312332Z 11008KT 5000 -RA BKN017 BKN070 25/24 Q1012 RERA","temp":25,"dewp":24,"wdir":110,"wspd":8,"visib":3.11,"altim":1012,"clouds":[{"cover":"BKN","base":1700},{"cover":"BKN","base":7000}],"obsTime":1774999920},"SBLS":{"icaoId":"SBLS","flightCategory":"MVFR","rawOb":"METAR SBLS 010000Z VRB03KT 6000 -TSRA SCT025 FEW045CB BKN090 18/18 Q1017 RERA RETSRA","temp":18,"dewp":18,"wdir":"VRB","wspd":3,"visib":3.73,"altim":1017,"clouds":[{"cover":"SCT","base":2500},{"cover":"FEW","base":4500},{"cover":"BKN","base":9000}],"obsTime":1775001600},"SBAN":{"icaoId":"SBAN","flightCategory":"VFR","rawOb":"METAR SBAN 010000Z 01002KT 9999 TS FEW035 FEW040CB SCT100 20/17 Q1017","temp":20,"dewp":17,"wdir":10,"wspd":2,"visib":"6+","altim":1017,"clouds":[{"cover":"FEW","base":3500},{"cover":"FEW","base":4000},{"cover":"SCT","base":10000}],"obsTime":1775001600},"SBMT":{"icaoId":"SBMT","flightCategory":"MVFR","rawOb":"METAR SBMT 010000Z 08006KT 9999 SCT015 BKN020 20/17 Q1016","temp":20,"dewp":17,"wdir":80,"wspd":6,"visib":"6+","altim":1016,"clouds":[{"cover":"SCT","base":1500},{"cover":"BKN","base":2000}],"obsTime":1775001600},"SBTA":{"icaoId":"SBTA","flightCategory":"MVFR","rawOb":"METAR SBTA 010000Z 15002KT 8000 -TSRA BKN015 BKN020 FEW040CB BKN080 20/19 Q1015 RETS","temp":20,"dewp":19,"wdir":150,"wspd":2,"visib":4.97,"altim":1015,"clouds":[{"cover":"BKN","base":1500},{"cover":"BKN","base":2000},{"cover":"FEW","base":4000},{"cover":"BKN","base":8000}],"obsTime":1775001600},"SBLE":{"icaoId":"SBLE","flightCategory":"VFR","rawOb":"METAR SBLE 010000Z AUTO 18002KT CAVOK ///// Q////","temp":null,"dewp":null,"wdir":180,"wspd":2,"visib":"6+","altim":null,"clouds":[],"obsTime":1775001600},"SBJR":{"icaoId":"SBJR","flightCategory":"MVFR","rawOb":"METAR SBJR 010000Z 35006KT 7000 FEW015 BKN030 BKN070 24/22 Q1012","temp":24,"dewp":22,"wdir":350,"wspd":6,"visib":4.35,"altim":1012,"clouds":[{"cover":"FEW","base":1500},{"cover":"BKN","base":3000},{"cover":"BKN","base":7000}],"obsTime":1775001600}}}