{"updated":1781318258,"count":63,"data":{"SBSP":{"icaoId":"SBSP","flightCategory":"VFR","rawOb":"METAR SBSP 130100Z 33009KT 290V010 9999 SCT025 20/17 Q1016","temp":20,"dewp":17,"wdir":330,"wspd":9,"visib":"6+","altim":1016,"clouds":[{"cover":"SCT","base":2500}],"obsTime":1781312400},"SBGL":{"icaoId":"SBGL","flightCategory":"VFR","rawOb":"METAR SBGL 130100Z 25001KT CAVOK 21/19 Q1013","temp":21,"dewp":19,"wdir":250,"wspd":1,"visib":"6+","altim":1013,"clouds":[],"obsTime":1781312400},"SBMK":{"icaoId":"SBMK","flightCategory":"IFR","rawOb":"METAR SBMK 130100Z 07002KT 4000 -RA BKN020 20/19 Q1021","temp":20,"dewp":19,"wdir":70,"wspd":2,"visib":2.49,"altim":1021,"clouds":[{"cover":"BKN","base":2000}],"obsTime":1781312400},"SBCT":{"icaoId":"SBCT","flightCategory":"VFR","rawOb":"METAR SBCT 130100Z 28012KT 260V320 CAVOK 14/09 Q1014","temp":14,"dewp":9,"wdir":280,"wspd":12,"visib":"6+","altim":1014,"clouds":[],"obsTime":1781312400},"SBMO":{"icaoId":"SBMO","flightCategory":"VFR","rawOb":"METAR SBMO 130100Z 09002KT 9999 FEW020 23/22 Q1017","temp":23,"dewp":22,"wdir":90,"wspd":2,"visib":"6+","altim":1017,"clouds":[{"cover":"FEW","base":2000}],"obsTime":1781312400},"SBBR":{"icaoId":"SBBR","flightCategory":"VFR","rawOb":"METAR SBBR 130100Z VRB03KT CAVOK 20/18 Q1022","temp":20,"dewp":18,"wdir":"VRB","wspd":3,"visib":"6+","altim":1022,"clouds":[],"obsTime":1781312400},"SBMQ":{"icaoId":"SBMQ","flightCategory":"VFR","rawOb":"METAR SBMQ 130100Z 04008KT CAVOK 27/24 Q1015","temp":27,"dewp":24,"wdir":40,"wspd":8,"visib":"6+","altim":1015,"clouds":[],"obsTime":1781312400},"SBNT":{"icaoId":"SBNT","flightCategory":"VFR","rawOb":"METAR SBNT 130100Z 18004KT 9999 FEW020 24/23 Q1016","temp":24,"dewp":23,"wdir":180,"wspd":4,"visib":"6+","altim":1016,"clouds":[{"cover":"FEW","base":2000}],"obsTime":1781312400},"SBGO":{"icaoId":"SBGO","flightCategory":"VFR","rawOb":"METAR SBGO 130100Z 32002KT 9999 FEW048 SCT100 21/19 Q1019","temp":21,"dewp":19,"wdir":320,"wspd":2,"visib":"6+","altim":1019,"clouds":[{"cover":"FEW","base":4800},{"cover":"SCT","base":10000}],"obsTime":1781312400},"SBPA":{"icaoId":"SBPA","flightCategory":"LIFR","rawOb":"METAR SBPA 130100Z 28014KT 2000 -RA BR BKN004 OVC010 14/14 Q1012","temp":14,"dewp":14,"wdir":280,"wspd":14,"visib":1.24,"altim":1012,"clouds":[{"cover":"BKN","base":400},{"cover":"OVC","base":1000}],"obsTime":1781312400},"SBGR":{"icaoId":"SBGR","flightCategory":"MVFR","rawOb":"METAR SBGR 130100Z 31010KT 280V340 9999 BKN023 20/17 Q1016","temp":20,"dewp":17,"wdir":310,"wspd":10,"visib":"6+","altim":1016,"clouds":[{"cover":"BKN","base":2300}],"obsTime":1781312400},"SBEG":{"icaoId":"SBEG","flightCategory":"VFR","rawOb":"METAR SBEG 130100Z 10006KT 9999 FEW030 SCT070 27/25 Q1013","temp":27,"dewp":25,"wdir":100,"wspd":6,"visib":"6+","altim":1013,"clouds":[{"cover":"FEW","base":3000},{"cover":"SCT","base":7000}],"obsTime":1781312400},"SBPJ":{"icaoId":"SBPJ","flightCategory":"VFR","rawOb":"METAR SBPJ 130100Z 11004KT CAVOK 25/20 Q1014","temp":25,"dewp":20,"wdir":110,"wspd":4,"visib":"6+","altim":1014,"clouds":[],"obsTime":1781312400},"SBCF":{"icaoId":"SBCF","flightCategory":"VFR","rawOb":"METAR SBCF 130100Z 04004KT 9000 FEW003 SCT018 BKN100 18/16 Q1021","temp":18,"dewp":16,"wdir":40,"wspd":4,"visib":5.59,"altim":1021,"clouds":[{"cover":"FEW","base":300},{"cover":"SCT","base":1800},{"cover":"BKN","base":10000}],"obsTime":1781312400},"SBPV":{"icaoId":"SBPV","flightCategory":"VFR","rawOb":"METAR SBPV 130100Z 16001KT 9999 FEW030 25/23 Q1012","temp":25,"dewp":23,"wdir":160,"wspd":1,"visib":"6+","altim":1012,"clouds":[{"cover":"FEW","base":3000}],"obsTime":1781312400},"SBJU":{"icaoId":"SBJU","flightCategory":"VFR","rawOb":"METAR SBJU 130100Z 00000KT 9999 SCT020 25/18 Q1018","temp":25,"dewp":18,"wdir":0,"wspd":0,"visib":"6+","altim":1018,"clouds":[{"cover":"SCT","base":2000}],"obsTime":1781312400},"SBRB":{"icaoId":"SBRB","flightCategory":"VFR","rawOb":"METAR SBRB 130100Z 00000KT CAVOK 24/24 Q1013","temp":24,"dewp":24,"wdir":0,"wspd":0,"visib":"6+","altim":1013,"clouds":[],"obsTime":1781312400},"SBFI":{"icaoId":"SBFI","flightCategory":"MVFR","rawOb":"METAR SBFI 130100Z 11002KT 9999 FEW009 BKN017 14/13 Q1016","temp":14,"dewp":13,"wdir":110,"wspd":2,"visib":"6+","altim":1016,"clouds":[{"cover":"FEW","base":900},{"cover":"BKN","base":1700}],"obsTime":1781312400},"SBRF":{"icaoId":"SBRF","flightCategory":"VFR","rawOb":"METAR SBRF 130100Z 13007KT 9999 SCT022 26/23 Q1016","temp":26,"dewp":23,"wdir":130,"wspd":7,"visib":"6+","altim":1016,"clouds":[{"cover":"SCT","base":2200}],"obsTime":1781312400},"SBKP":{"icaoId":"SBKP","flightCategory":"VFR","rawOb":"METAR SBKP 130100Z 36005KT 330V030 9999 SCT045 BKN080 20/18 Q1017","temp":20,"dewp":18,"wdir":360,"wspd":5,"visib":"6+","altim":1017,"clouds":[{"cover":"SCT","base":4500},{"cover":"BKN","base":8000}],"obsTime":1781312400},"SBSG":{"icaoId":"SBSG","flightCategory":"VFR","rawOb":"METAR SBSG 130100Z 17003KT 9999 SCT020 24/23 Q1017","temp":24,"dewp":23,"wdir":170,"wspd":3,"visib":"6+","altim":1017,"clouds":[{"cover":"SCT","base":2000}],"obsTime":1781312400},"SBBE":{"icaoId":"SBBE","flightCategory":"VFR","rawOb":"METAR SBBE 130100Z 06004KT 9999 SCT045 BKN100 26/24 Q1015","temp":26,"dewp":24,"wdir":60,"wspd":4,"visib":"6+","altim":1015,"clouds":[{"cover":"SCT","base":4500},{"cover":"BKN","base":10000}],"obsTime":1781312400},"SBSL":{"icaoId":"SBSL","flightCategory":"VFR","rawOb":"METAR SBSL 130100Z 07006KT 9999 FEW017 BKN080 27/25 Q1015","temp":27,"dewp":25,"wdir":70,"wspd":6,"visib":"6+","altim":1015,"clouds":[{"cover":"FEW","base":1700},{"cover":"BKN","base":8000}],"obsTime":1781312400},"SBCG":{"icaoId":"SBCG","flightCategory":"MVFR","rawOb":"METAR SBCG 130100Z 28004KT 240V330 9999 -TSRA BKN010 FEW030CB 19/18 Q1016","temp":19,"dewp":18,"wdir":280,"wspd":4,"visib":"6+","altim":1016,"clouds":[{"cover":"BKN","base":1000},{"cover":"FEW","base":3000}],"obsTime":1781312400},"SBSN":{"icaoId":"SBSN","flightCategory":"VFR","rawOb":"METAR SBSN 130100Z 14003KT CAVOK 25/24 Q1013","temp":25,"dewp":24,"wdir":140,"wspd":3,"visib":"6+","altim":1013,"clouds":[],"obsTime":1781312400},"SBLO":{"icaoId":"SBLO","flightCategory":"VFR","rawOb":"METAR SBLO 130100Z 24004KT 190V320 CAVOK 16/14 Q1016","temp":16,"dewp":14,"wdir":240,"wspd":4,"visib":"6+","altim":1016,"clouds":[],"obsTime":1781312400},"SBMA":{"icaoId":"SBMA","flightCategory":"VFR","rawOb":"METAR SBMA 130100Z 34005KT CAVOK 28/24 Q1014","temp":28,"dewp":24,"wdir":340,"wspd":5,"visib":"6+","altim":1014,"clouds":[],"obsTime":1781312400},"SBSV":{"icaoId":"SBSV","flightCategory":"VFR","rawOb":"METAR SBSV 130100Z 10005KT 9999 SCT026 25/20 Q1017","temp":25,"dewp":20,"wdir":100,"wspd":5,"visib":"6+","altim":1017,"clouds":[{"cover":"SCT","base":2600}],"obsTime":1781312400},"SBFL":{"icaoId":"SBFL","flightCategory":"VFR","rawOb":"METAR SBFL 130100Z 31012KT CAVOK 20/12 Q1008","temp":20,"dewp":12,"wdir":310,"wspd":12,"visib":"6+","altim":1008,"clouds":[],"obsTime":1781312400},"SBTE":{"icaoId":"SBTE","flightCategory":"VFR","rawOb":"METAR SBTE 130100Z 03004KT 9999 BKN040 29/23 Q1014","temp":29,"dewp":23,"wdir":30,"wspd":4,"visib":"6+","altim":1014,"clouds":[{"cover":"BKN","base":4000}],"obsTime":1781312400},"SBME":{"icaoId":"SBME","flightCategory":"VFR","rawOb":"METAR SBME 130100Z 02005KT CAVOK 22/20 Q1013","temp":22,"dewp":20,"wdir":20,"wspd":5,"visib":"6+","altim":1013,"clouds":[],"obsTime":1781312400},"SBUL":{"icaoId":"SBUL","flightCategory":"VFR","rawOb":"METAR SBUL 130100Z 06006KT CAVOK 15/15 Q1020","temp":15,"dewp":15,"wdir":60,"wspd":6,"visib":"6+","altim":1020,"clouds":[],"obsTime":1781312400},"SBUR":{"icaoId":"SBUR","flightCategory":"VFR","rawOb":"METAR SBUR 130100Z 36005KT 9999 VCTS FEW040CB 21/17 Q1019","temp":21,"dewp":17,"wdir":360,"wspd":5,"visib":"6+","altim":1019,"clouds":[{"cover":"FEW","base":4000}],"obsTime":1781312400},"SBBV":{"icaoId":"SBBV","flightCategory":"VFR","rawOb":"METAR SBBV 130100Z 07004KT 9999 FEW040 FEW045TCU 28/24 Q1013","temp":28,"dewp":24,"wdir":70,"wspd":4,"visib":"6+","altim":1013,"clouds":[{"cover":"FEW","base":4000},{"cover":"FEW","base":4500}],"obsTime":1781312400},"SBVT":{"icaoId":"SBVT","flightCategory":"VFR","rawOb":"METAR SBVT 130100Z 03013KT CAVOK 24/21 Q1016","temp":24,"dewp":21,"wdir":30,"wspd":13,"visib":"6+","altim":1016,"clouds":[],"obsTime":1781312400},"SBFZ":{"icaoId":"SBFZ","flightCategory":"VFR","rawOb":"METAR SBFZ 130100Z 09008KT 9999 FEW030 28/24 Q1015","temp":28,"dewp":24,"wdir":90,"wspd":8,"visib":"6+","altim":1015,"clouds":[{"cover":"FEW","base":3000}],"obsTime":1781312400},"SBMG":{"icaoId":"SBMG","flightCategory":"VFR","rawOb":"METAR SBMG 130100Z 26006KT CAVOK 14/12 Q1016","temp":14,"dewp":12,"wdir":260,"wspd":6,"visib":"6+","altim":1016,"clouds":[],"obsTime":1781312400},"SBCZ":{"icaoId":"SBCZ","flightCategory":"VFR","rawOb":"METAR SBCZ 130100Z 00000KT CAVOK 25/24 Q1012","temp":25,"dewp":24,"wdir":0,"wspd":0,"visib":"6+","altim":1012,"clouds":[],"obsTime":1781312400},"SBIL":{"icaoId":"SBIL","flightCategory":"VFR","rawOb":"METAR SBIL 130100Z 30004KT CAVOK 22/21 Q1018","temp":22,"dewp":21,"wdir":300,"wspd":4,"visib":"6+","altim":1018,"clouds":[],"obsTime":1781312400},"SBSJ":{"icaoId":"SBSJ","flightCategory":"VFR","rawOb":"METAR SBSJ 130100Z 10004KT 9999 BKN045 18/15 Q1016","temp":18,"dewp":15,"wdir":100,"wspd":4,"visib":"6+","altim":1016,"clouds":[{"cover":"BKN","base":4500}],"obsTime":1781312400},"SBOI":{"icaoId":"SBOI","flightCategory":"VFR","rawOb":"METAR SBOI 130100Z AUTO VRB01KT CAVOK 25/24 Q1015","temp":25,"dewp":24,"wdir":"VRB","wspd":1,"visib":"6+","altim":1015,"clouds":[],"obsTime":1781312400},"SBPL":{"icaoId":"SBPL","flightCategory":"VFR","rawOb":"METAR SBPL 130100Z 10006KT CAVOK 28/15 Q1017","temp":28,"dewp":15,"wdir":100,"wspd":6,"visib":"6+","altim":1017,"clouds":[],"obsTime":1781312400},"SBAX":{"icaoId":"SBAX","flightCategory":"VFR","rawOb":"METAR SBAX 130100Z AUTO 05003KT 030V090 9999 -RA SCT011 ///// Q1021","temp":null,"dewp":null,"wdir":50,"wspd":3,"visib":"6+","altim":1021,"clouds":[{"cover":"SCT","base":1100}],"obsTime":1781312400},"SBBU":{"icaoId":"SBBU","flightCategory":"IFR","rawOb":"METAR SBBU 130100Z 25003KT 9999 BKN008 21/19 Q1017","temp":21,"dewp":19,"wdir":250,"wspd":3,"visib":"6+","altim":1017,"clouds":[{"cover":"BKN","base":800}],"obsTime":1781312400},"SBPS":{"icaoId":"SBPS","flightCategory":"VFR","rawOb":"METAR SBPS 130100Z 01003KT 9999 FEW020 BKN100 24/21 Q1018","temp":24,"dewp":21,"wdir":10,"wspd":3,"visib":"6+","altim":1018,"clouds":[{"cover":"FEW","base":2000},{"cover":"BKN","base":10000}],"obsTime":1781312400},"SBDN":{"icaoId":"SBDN","flightCategory":"VFR","rawOb":"METAR SBDN 130100Z 20004KT 9999 FEW043 BKN080 19/15 Q1015","temp":19,"dewp":15,"wdir":200,"wspd":4,"visib":"6+","altim":1015,"clouds":[{"cover":"FEW","base":4300},{"cover":"BKN","base":8000}],"obsTime":1781312400},"SBSC":{"icaoId":"SBSC","flightCategory":"MVFR","rawOb":"METAR SBSC 130100Z 36005KT 8000 SCT006 SCT015 BKN070 22/18 Q1013","temp":22,"dewp":18,"wdir":360,"wspd":5,"visib":4.97,"altim":1013,"clouds":[{"cover":"SCT","base":600},{"cover":"SCT","base":1500},{"cover":"BKN","base":7000}],"obsTime":1781312400},"SBIP":{"icaoId":"SBIP","flightCategory":"VFR","rawOb":"METAR SBIP 130100Z AUTO 03002KT CAVOK 20/20 Q1018","temp":20,"dewp":20,"wdir":30,"wspd":2,"visib":"6+","altim":1018,"clouds":[],"obsTime":1781312400},"SBSM":{"icaoId":"SBSM","flightCategory":"VFR","rawOb":"METAR SBSM 130100Z 26003KT 9999 FEW009 OVC031 14/14 Q1016","temp":14,"dewp":14,"wdir":260,"wspd":3,"visib":"6+","altim":1016,"clouds":[{"cover":"FEW","base":900},{"cover":"OVC","base":3100}],"obsTime":1781312400},"SBCC":{"icaoId":"SBCC","flightCategory":"VFR","rawOb":"METAR SBCC 130100Z 30004KT CAVOK 25/20 Q1016","temp":25,"dewp":20,"wdir":300,"wspd":4,"visib":"6+","altim":1016,"clouds":[],"obsTime":1781312400},"SBSR":{"icaoId":"SBSR","flightCategory":"VFR","rawOb":"METAR SBSR 130100Z 03008KT 340V100 9999 FEW030 SCT080 20/20 Q1016","temp":20,"dewp":20,"wdir":30,"wspd":8,"visib":"6+","altim":1016,"clouds":[{"cover":"FEW","base":3000},{"cover":"SCT","base":8000}],"obsTime":1781312400},"SBKG":{"icaoId":"SBKG","flightCategory":"MVFR","rawOb":"METAR SBKG 130100Z 08006KT 9999 BKN012 22/21 Q1019","temp":22,"dewp":21,"wdir":80,"wspd":6,"visib":"6+","altim":1019,"clouds":[{"cover":"BKN","base":1200}],"obsTime":1781312400},"SBTU":{"icaoId":"SBTU","flightCategory":"VFR","rawOb":"METAR SBTU 130100Z AUTO 19005KT 9999 // BKN075/// ///// Q1016","temp":null,"dewp":null,"wdir":190,"wspd":5,"visib":"6+","altim":1016,"clouds":[{"cover":"BKN","base":7500}],"obsTime":1781312400},"SBAR":{"icaoId":"SBAR","flightCategory":"VFR","rawOb":"METAR SBAR 130100Z 12005KT 9999 SCT023 26/22 Q1017","temp":26,"dewp":22,"wdir":120,"wspd":5,"visib":"6+","altim":1017,"clouds":[{"cover":"SCT","base":2300}],"obsTime":1781312400},"SBCO":{"icaoId":"SBCO","flightCategory":"IFR","rawOb":"METAR SBCO 130100Z 28014KT 2500 -RA BR BKN005 OVC013 14/14 Q1012","temp":14,"dewp":14,"wdir":280,"wspd":14,"visib":1.55,"altim":1012,"clouds":[{"cover":"BKN","base":500},{"cover":"OVC","base":1300}],"obsTime":1781312400},"SBBH":{"icaoId":"SBBH","flightCategory":"IFR","rawOb":"METAR SBBH 130100Z 00000KT 3000 BR BKN008 BKN100 18/17 Q1020","temp":18,"dewp":17,"wdir":0,"wspd":0,"visib":1.86,"altim":1020,"clouds":[{"cover":"BKN","base":800},{"cover":"BKN","base":10000}],"obsTime":1781312400},"SBJP":{"icaoId":"SBJP","flightCategory":"VFR","rawOb":"METAR SBJP 130100Z 18003KT CAVOK 24/23 Q1017","temp":24,"dewp":23,"wdir":180,"wspd":3,"visib":"6+","altim":1017,"clouds":[],"obsTime":1781312400},"SBAN":{"icaoId":"SBAN","flightCategory":"VFR","rawOb":"METAR SBAN 130100Z 05002KT 9999 FEW040 SCT100 19/17 Q1022","temp":19,"dewp":17,"wdir":50,"wspd":2,"visib":"6+","altim":1022,"clouds":[{"cover":"FEW","base":4000},{"cover":"SCT","base":10000}],"obsTime":1781312400},"SBJV":{"icaoId":"SBJV","flightCategory":"VFR","rawOb":"METAR SBJV 130100Z 28002KT CAVOK 19/13 Q1010","temp":19,"dewp":13,"wdir":280,"wspd":2,"visib":"6+","altim":1010,"clouds":[],"obsTime":1781312400},"SBMT":{"icaoId":"SBMT","flightCategory":"VFR","rawOb":"METAR SBMT 130100Z 34007KT 300V030 9999 FEW025 18/17 Q1016","temp":18,"dewp":17,"wdir":340,"wspd":7,"visib":"6+","altim":1016,"clouds":[{"cover":"FEW","base":2500}],"obsTime":1781312400},"SBTA":{"icaoId":"SBTA","flightCategory":"VFR","rawOb":"METAR SBTA 130100Z 29001KT CAVOK 16/15 Q1015","temp":16,"dewp":15,"wdir":290,"wspd":1,"visib":"6+","altim":1015,"clouds":[],"obsTime":1781312400},"SBLE":{"icaoId":"SBLE","flightCategory":"VFR","rawOb":"METAR SBLE 130100Z AUTO 35003KT CAVOK ///// Q////","temp":null,"dewp":null,"wdir":350,"wspd":3,"visib":"6+","altim":null,"clouds":[],"obsTime":1781312400},"SBLS":{"icaoId":"SBLS","flightCategory":"MVFR","rawOb":"METAR SBLS 130100Z 03002KT 8000 FEW008 SCT015 BKN100 17/16 Q1020","temp":17,"dewp":16,"wdir":30,"wspd":2,"visib":4.97,"altim":1020,"clouds":[{"cover":"FEW","base":800},{"cover":"SCT","base":1500},{"cover":"BKN","base":10000}],"obsTime":1781312400}}}