{"updated":1780854999,"count":87,"data":{"SBEG":{"icaoId":"SBEG","flightCategory":"MVFR","rawOb":"METAR SBEG 071600Z 24005KT 9999 BKN025 FEW030TCU 29/25 Q1013","temp":29,"dewp":25,"wdir":240,"wspd":5,"visib":"6+","altim":1013,"clouds":[{"cover":"BKN","base":2500},{"cover":"FEW","base":3000}],"obsTime":1780848000},"SBBE":{"icaoId":"SBBE","flightCategory":"MVFR","rawOb":"METAR SBBE 071600Z 09008KT 9999 BKN030 BKN100 31/23 Q1012","temp":31,"dewp":23,"wdir":90,"wspd":8,"visib":"6+","altim":1012,"clouds":[{"cover":"BKN","base":3000},{"cover":"BKN","base":10000}],"obsTime":1780848000},"SBBR":{"icaoId":"SBBR","flightCategory":"VFR","rawOb":"METAR SBBR 071600Z 01005KT 310V070 CAVOK 23/09 Q1020","temp":23,"dewp":9,"wdir":10,"wspd":5,"visib":"6+","altim":1020,"clouds":[],"obsTime":1780848000},"SBBV":{"icaoId":"SBBV","flightCategory":"VFR","rawOb":"METAR SBBV 071600Z 05002KT 9999 SCT020 FEW030TCU BKN080 28/22 Q1014","temp":28,"dewp":22,"wdir":50,"wspd":2,"visib":"6+","altim":1014,"clouds":[{"cover":"SCT","base":2000},{"cover":"FEW","base":3000},{"cover":"BKN","base":8000}],"obsTime":1780848000},"SBCB":{"icaoId":"SBCB","flightCategory":"VFR","rawOb":"METAR SBCB 071600Z 24006KT CAVOK 24/16 Q1016","temp":24,"dewp":16,"wdir":240,"wspd":6,"visib":"6+","altim":1016,"clouds":[],"obsTime":1780848000},"SBCF":{"icaoId":"SBCF","flightCategory":"VFR","rawOb":"METAR SBCF 071600Z 25002KT CAVOK 23/09 Q1020","temp":23,"dewp":9,"wdir":250,"wspd":2,"visib":"6+","altim":1020,"clouds":[],"obsTime":1780848000},"SBCG":{"icaoId":"SBCG","flightCategory":"VFR","rawOb":"METAR SBCG 071600Z 01006KT 310V070 CAVOK 26/10 Q1017","temp":26,"dewp":10,"wdir":10,"wspd":6,"visib":"6+","altim":1017,"clouds":[],"obsTime":1780848000},"SBCP":{"icaoId":"SBCP","flightCategory":"VFR","rawOb":"METAR SBCP 071600Z 32009KT 9999 FEW020 27/13 Q1015","temp":27,"dewp":13,"wdir":320,"wspd":9,"visib":"6+","altim":1015,"clouds":[{"cover":"FEW","base":2000}],"obsTime":1780848000},"SBCR":{"icaoId":"SBCR","flightCategory":"VFR","rawOb":"METAR SBCR 071600Z 07007KT CAVOK 29/14 Q1014","temp":29,"dewp":14,"wdir":70,"wspd":7,"visib":"6+","altim":1014,"clouds":[],"obsTime":1780848000},"SBCT":{"icaoId":"SBCT","flightCategory":"VFR","rawOb":"METAR SBCT 071600Z 05005KT 010V080 9999 SCT030 20/11 Q1019","temp":20,"dewp":11,"wdir":50,"wspd":5,"visib":"6+","altim":1019,"clouds":[{"cover":"SCT","base":3000}],"obsTime":1780848000},"SBCZ":{"icaoId":"SBCZ","flightCategory":"VFR","rawOb":"METAR SBCZ 071600Z 07005KT 9999 SCT020 30/24 Q1014","temp":30,"dewp":24,"wdir":70,"wspd":5,"visib":"6+","altim":1014,"clouds":[{"cover":"SCT","base":2000}],"obsTime":1780848000},"SBAT":{"icaoId":"SBAT","flightCategory":"VFR","rawOb":"METAR SBAT 071600Z 10005KT 9999 SCT035 33/18 Q1014","temp":33,"dewp":18,"wdir":100,"wspd":5,"visib":"6+","altim":1014,"clouds":[{"cover":"SCT","base":3500}],"obsTime":1780848000},"SBFI":{"icaoId":"SBFI","flightCategory":"VFR","rawOb":"METAR SBFI 071600Z 02008KT CAVOK 24/15 Q1016","temp":24,"dewp":15,"wdir":20,"wspd":8,"visib":"6+","altim":1016,"clouds":[],"obsTime":1780848000},"SBFL":{"icaoId":"SBFL","flightCategory":"MVFR","rawOb":"METAR SBFL 071600Z 13008KT 9000 VCSH BKN015 21/17 Q1017","temp":21,"dewp":17,"wdir":130,"wspd":8,"visib":5.59,"altim":1017,"clouds":[{"cover":"BKN","base":1500}],"obsTime":1780848000},"SBFZ":{"icaoId":"SBFZ","flightCategory":"MVFR","rawOb":"METAR SBFZ 071600Z 16012KT 130V200 9999 BKN030 30/22 Q1012","temp":30,"dewp":22,"wdir":160,"wspd":12,"visib":"6+","altim":1012,"clouds":[{"cover":"BKN","base":3000}],"obsTime":1780848000},"SBGL":{"icaoId":"SBGL","flightCategory":"VFR","rawOb":"METAR SBGL 071600Z 36005KT 9999 FEW040 26/14 Q1016","temp":26,"dewp":14,"wdir":360,"wspd":5,"visib":"6+","altim":1016,"clouds":[{"cover":"FEW","base":4000}],"obsTime":1780848000},"SBGO":{"icaoId":"SBGO","flightCategory":"VFR","rawOb":"METAR SBGO 071600Z 06004KT CAVOK 27/10 Q1018","temp":27,"dewp":10,"wdir":60,"wspd":4,"visib":"6+","altim":1018,"clouds":[],"obsTime":1780848000},"SBGR":{"icaoId":"SBGR","flightCategory":"VFR","rawOb":"METAR SBGR 071600Z 02005KT CAVOK 22/08 Q1019","temp":22,"dewp":8,"wdir":20,"wspd":5,"visib":"6+","altim":1019,"clouds":[],"obsTime":1780848000},"SBHT":{"icaoId":"SBHT","flightCategory":"MVFR","rawOb":"METAR SBHT 071600Z 13003KT 9999 BKN025 31/25 Q1012","temp":31,"dewp":25,"wdir":130,"wspd":3,"visib":"6+","altim":1012,"clouds":[{"cover":"BKN","base":2500}],"obsTime":1780848000},"SBIL":{"icaoId":"SBIL","flightCategory":"VFR","rawOb":"METAR SBIL 071600Z 17006KT 140V210 9999 SCT023 SCT090 27/20 Q1017","temp":27,"dewp":20,"wdir":170,"wspd":6,"visib":"6+","altim":1017,"clouds":[{"cover":"SCT","base":2300},{"cover":"SCT","base":9000}],"obsTime":1780848000},"SBJU":{"icaoId":"SBJU","flightCategory":"VFR","rawOb":"METAR SBJU 071600Z 15010KT 9999 SCT020 28/19 Q1015","temp":28,"dewp":19,"wdir":150,"wspd":10,"visib":"6+","altim":1015,"clouds":[{"cover":"SCT","base":2000}],"obsTime":1780848000},"SBKP":{"icaoId":"SBKP","flightCategory":"VFR","rawOb":"METAR SBKP 071600Z 33004KT CAVOK 22/08 Q1019","temp":22,"dewp":8,"wdir":330,"wspd":4,"visib":"6+","altim":1019,"clouds":[],"obsTime":1780848000},"SBLO":{"icaoId":"SBLO","flightCategory":"VFR","rawOb":"METAR SBLO 071600Z VRB04KT 9999 FEW025 22/12 Q1018","temp":22,"dewp":12,"wdir":"VRB","wspd":4,"visib":"6+","altim":1018,"clouds":[{"cover":"FEW","base":2500}],"obsTime":1780848000},"SBMA":{"icaoId":"SBMA","flightCategory":"VFR","rawOb":"METAR SBMA 071600Z 06010KT 9999 SCT020 33/20 Q1011","temp":33,"dewp":20,"wdir":60,"wspd":10,"visib":"6+","altim":1011,"clouds":[{"cover":"SCT","base":2000}],"obsTime":1780848000},"SBME":{"icaoId":"SBME","flightCategory":"VFR","rawOb":"METAR SBME 071600Z 12007KT 9999 FEW030 24/16 Q1016","temp":24,"dewp":16,"wdir":120,"wspd":7,"visib":"6+","altim":1016,"clouds":[{"cover":"FEW","base":3000}],"obsTime":1780848000},"SBMG":{"icaoId":"SBMG","flightCategory":"VFR","rawOb":"METAR SBMG 071600Z COR 34004KT 290V060 9999 SCT040 23/13 Q1017","temp":23,"dewp":13,"wdir":340,"wspd":4,"visib":"6+","altim":1017,"clouds":[{"cover":"SCT","base":4000}],"obsTime":1780848000},"SBMK":{"icaoId":"SBMK","flightCategory":"VFR","rawOb":"METAR SBMK 071600Z 25003KT CAVOK 25/11 Q1018","temp":25,"dewp":11,"wdir":250,"wspd":3,"visib":"6+","altim":1018,"clouds":[],"obsTime":1780848000},"SBMO":{"icaoId":"SBMO","flightCategory":"MVFR","rawOb":"METAR SBMO 071600Z 14011KT 9999 VCSH BKN022 OVC037 26/23 Q1015","temp":26,"dewp":23,"wdir":140,"wspd":11,"visib":"6+","altim":1015,"clouds":[{"cover":"BKN","base":2200},{"cover":"OVC","base":3700}],"obsTime":1780848000},"SBMQ":{"icaoId":"SBMQ","flightCategory":"VFR","rawOb":"METAR SBMQ 071600Z 05010KT 9999 SCT030 BKN100 30/25 Q1012","temp":30,"dewp":25,"wdir":50,"wspd":10,"visib":"6+","altim":1012,"clouds":[{"cover":"SCT","base":3000},{"cover":"BKN","base":10000}],"obsTime":1780848000},"SBNT":{"icaoId":"SBNT","flightCategory":"MVFR","rawOb":"METAR SBNT 071600Z 16014KT 9999 SCT021 BKN030 BKN070 29/23 Q1013","temp":29,"dewp":23,"wdir":160,"wspd":14,"visib":"6+","altim":1013,"clouds":[{"cover":"SCT","base":2100},{"cover":"BKN","base":3000},{"cover":"BKN","base":7000}],"obsTime":1780848000},"SBPA":{"icaoId":"SBPA","flightCategory":"MVFR","rawOb":"METAR SBPA 071600Z 13006KT 9999 BKN014 18/15 Q1018","temp":18,"dewp":15,"wdir":130,"wspd":6,"visib":"6+","altim":1018,"clouds":[{"cover":"BKN","base":1400}],"obsTime":1780848000},"SBPJ":{"icaoId":"SBPJ","flightCategory":"VFR","rawOb":"METAR SBPJ 071600Z 12005KT CAVOK 32/17 Q1013","temp":32,"dewp":17,"wdir":120,"wspd":5,"visib":"6+","altim":1013,"clouds":[],"obsTime":1780848000},"SBPV":{"icaoId":"SBPV","flightCategory":"VFR","rawOb":"METAR SBPV 071600Z 28002KT 9999 SCT013 29/24 Q1013","temp":29,"dewp":24,"wdir":280,"wspd":2,"visib":"6+","altim":1013,"clouds":[{"cover":"SCT","base":1300}],"obsTime":1780848000},"SBRB":{"icaoId":"SBRB","flightCategory":"VFR","rawOb":"METAR SBRB 071600Z 32003KT 9999 FEW020 BKN080 27/23 Q1015","temp":27,"dewp":23,"wdir":320,"wspd":3,"visib":"6+","altim":1015,"clouds":[{"cover":"FEW","base":2000},{"cover":"BKN","base":8000}],"obsTime":1780848000},"SBRF":{"icaoId":"SBRF","flightCategory":"MVFR","rawOb":"METAR SBRF 071600Z 14012KT 8000 VCSH SCT009 OVC050 25/23 Q1014","temp":25,"dewp":23,"wdir":140,"wspd":12,"visib":4.97,"altim":1014,"clouds":[{"cover":"SCT","base":900},{"cover":"OVC","base":5000}],"obsTime":1780848000},"SBSG":{"icaoId":"SBSG","flightCategory":"VFR","rawOb":"METAR SBSG 071600Z 16005KT 120V200 9999 VCSH SCT027 FEW035TCU 27/23 Q1013","temp":27,"dewp":23,"wdir":160,"wspd":5,"visib":"6+","altim":1013,"clouds":[{"cover":"SCT","base":2700},{"cover":"FEW","base":3500}],"obsTime":1780848000},"SBSL":{"icaoId":"SBSL","flightCategory":"VFR","rawOb":"METAR SBSL 071600Z 13006KT 9999 SCT030 31/24 Q1011","temp":31,"dewp":24,"wdir":130,"wspd":6,"visib":"6+","altim":1011,"clouds":[{"cover":"SCT","base":3000}],"obsTime":1780848000},"SBSN":{"icaoId":"SBSN","flightCategory":"VFR","rawOb":"METAR SBSN 071600Z 06007KT 9999 SCT013 28/25 Q1012","temp":28,"dewp":25,"wdir":60,"wspd":7,"visib":"6+","altim":1012,"clouds":[{"cover":"SCT","base":1300}],"obsTime":1780848000},"SBSP":{"icaoId":"SBSP","flightCategory":"VFR","rawOb":"METAR SBSP 071600Z VRB04KT CAVOK 22/06 Q1020","temp":22,"dewp":6,"wdir":"VRB","wspd":4,"visib":"6+","altim":1020,"clouds":[],"obsTime":1780848000},"SBSV":{"icaoId":"SBSV","flightCategory":"VFR","rawOb":"METAR SBSV 071600Z 12003KT 080V160 9999 VCSH SCT023 FEW025TCU BKN040 BKN060 25/21 Q1016","temp":25,"dewp":21,"wdir":120,"wspd":3,"visib":"6+","altim":1016,"clouds":[{"cover":"SCT","base":2300},{"cover":"FEW","base":2500},{"cover":"BKN","base":4000},{"cover":"BKN","base":6000}],"obsTime":1780848000},"SBTE":{"icaoId":"SBTE","flightCategory":"VFR","rawOb":"METAR SBTE 071600Z 11004KT CAVOK 33/21 Q1011","temp":33,"dewp":21,"wdir":110,"wspd":4,"visib":"6+","altim":1011,"clouds":[],"obsTime":1780848000},"SBUL":{"icaoId":"SBUL","flightCategory":"VFR","rawOb":"METAR SBUL 071600Z 07012KT CAVOK 22/07 Q1020","temp":22,"dewp":7,"wdir":70,"wspd":12,"visib":"6+","altim":1020,"clouds":[],"obsTime":1780848000},"SBUR":{"icaoId":"SBUR","flightCategory":"VFR","rawOb":"METAR SBUR 071600Z 01005KT CAVOK 24/07 Q1019","temp":24,"dewp":7,"wdir":10,"wspd":5,"visib":"6+","altim":1019,"clouds":[],"obsTime":1780848000},"SBVT":{"icaoId":"SBVT","flightCategory":"VFR","rawOb":"METAR SBVT 071600Z 16004KT 9999 FEW049 27/13 Q1015","temp":27,"dewp":13,"wdir":160,"wspd":4,"visib":"6+","altim":1015,"clouds":[{"cover":"FEW","base":4900}],"obsTime":1780848000},"SBAU":{"icaoId":"SBAU","flightCategory":"VFR","rawOb":"METAR SBAU 071700Z 20004KT CAVOK 28/11 Q1017","temp":28,"dewp":11,"wdir":200,"wspd":4,"visib":"6+","altim":1017,"clouds":[],"obsTime":1780851600},"SBCJ":{"icaoId":"SBCJ","flightCategory":"VFR","rawOb":"METAR SBCJ 071600Z 11003KT 9999 FEW027 28/20 Q1017","temp":28,"dewp":20,"wdir":110,"wspd":3,"visib":"6+","altim":1017,"clouds":[{"cover":"FEW","base":2700}],"obsTime":1780848000},"SBPB":{"icaoId":"SBPB","flightCategory":"VFR","rawOb":"METAR SBPB 071600Z 09004KT 9999 FEW020 31/24 Q1011","temp":31,"dewp":24,"wdir":90,"wspd":4,"visib":"6+","altim":1011,"clouds":[{"cover":"FEW","base":2000}],"obsTime":1780848000},"SBBQ":{"icaoId":"SBBQ","flightCategory":"VFR","rawOb":"METAR SBBQ 071600Z 34004KT CAVOK 20/08 Q1022","temp":20,"dewp":8,"wdir":340,"wspd":4,"visib":"6+","altim":1022,"clouds":[],"obsTime":1780848000},"SBPL":{"icaoId":"SBPL","flightCategory":"MVFR","rawOb":"METAR SBPL 071600Z 08008KT 9999 BKN025 29/16 Q1015","temp":29,"dewp":16,"wdir":80,"wspd":8,"visib":"6+","altim":1015,"clouds":[{"cover":"BKN","base":2500}],"obsTime":1780848000},"SBCO":{"icaoId":"SBCO","flightCategory":"MVFR","rawOb":"METAR SBCO 071600Z 11007KT 9999 BKN014 18/14 Q1018","temp":18,"dewp":14,"wdir":110,"wspd":7,"visib":"6+","altim":1018,"clouds":[{"cover":"BKN","base":1400}],"obsTime":1780848000},"SBPP":{"icaoId":"SBPP","flightCategory":"VFR","rawOb":"METAR SBPP 071600Z 08009KT CAVOK 24/12 Q1018","temp":24,"dewp":12,"wdir":80,"wspd":9,"visib":"6+","altim":1018,"clouds":[],"obsTime":1780848000},"SBDN":{"icaoId":"SBDN","flightCategory":"VFR","rawOb":"METAR SBDN 071600Z 01005KT CAVOK 25/11 Q1018","temp":25,"dewp":11,"wdir":10,"wspd":5,"visib":"6+","altim":1018,"clouds":[],"obsTime":1780848000},"SBPS":{"icaoId":"SBPS","flightCategory":"VFR","rawOb":"METAR SBPS 071600Z 09008KT 9999 SCT025 26/20 Q1017","temp":26,"dewp":20,"wdir":90,"wspd":8,"visib":"6+","altim":1017,"clouds":[{"cover":"SCT","base":2500}],"obsTime":1780848000},"SBSC":{"icaoId":"SBSC","flightCategory":"VFR","rawOb":"METAR SBSC 071600Z 20005KT CAVOK 25/14 Q1016","temp":25,"dewp":14,"wdir":200,"wspd":5,"visib":"6+","altim":1016,"clouds":[],"obsTime":1780848000},"SBAX":{"icaoId":"SBAX","flightCategory":"VFR","rawOb":"METAR SBAX 071600Z AUTO VRB04KT CAVOK 22/08 Q1020","temp":22,"dewp":8,"wdir":"VRB","wspd":4,"visib":"6+","altim":1020,"clouds":[],"obsTime":1780848000},"SBSJ":{"icaoId":"SBSJ","flightCategory":"VFR","rawOb":"METAR SBSJ 071600Z 05003KT CAVOK 21/10 Q1019","temp":21,"dewp":10,"wdir":50,"wspd":3,"visib":"6+","altim":1019,"clouds":[],"obsTime":1780848000},"SBES":{"icaoId":"SBES","flightCategory":"VFR","rawOb":"METAR SBES 071600Z 21008KT 180V240 9999 FEW020 24/// Q1016","temp":null,"dewp":null,"wdir":210,"wspd":8,"visib":"6+","altim":1016,"clouds":[{"cover":"FEW","base":2000}],"obsTime":1780848000},"SBBU":{"icaoId":"SBBU","flightCategory":"VFR","rawOb":"METAR SBBU 071600Z 13003KT CAVOK 24/12 Q1019","temp":24,"dewp":12,"wdir":130,"wspd":3,"visib":"6+","altim":1019,"clouds":[],"obsTime":1780848000},"SBSM":{"icaoId":"SBSM","flightCategory":"LIFR","rawOb":"METAR SBSM 071600Z 12005KT 0600 R29///// R11/1500U FG VV002 16/16 Q1017","temp":16,"dewp":16,"wdir":120,"wspd":5,"visib":0.37,"altim":1017,"clouds":[{"cover":"OVX","base":200}],"obsTime":1780848000},"SBGM":{"icaoId":"SBGM","flightCategory":"VFR","rawOb":"METAR SBGM 071600Z 12002KT CAVOK 31/18 Q1012","temp":31,"dewp":18,"wdir":120,"wspd":2,"visib":"6+","altim":1012,"clouds":[],"obsTime":1780848000},"SBSR":{"icaoId":"SBSR","flightCategory":"VFR","rawOb":"METAR SBSR 071600Z VRB04KT CAVOK 25/08 Q1018","temp":25,"dewp":8,"wdir":"VRB","wspd":4,"visib":"6+","altim":1018,"clouds":[],"obsTime":1780848000},"SBAR":{"icaoId":"SBAR","flightCategory":"VFR","rawOb":"METAR SBAR 071600Z 14008KT 9999 SCT030 BKN040 27/20 Q1015","temp":27,"dewp":20,"wdir":140,"wspd":8,"visib":"6+","altim":1015,"clouds":[{"cover":"SCT","base":3000},{"cover":"BKN","base":4000}],"obsTime":1780848000},"SBTF":{"icaoId":"SBTF","flightCategory":"VFR","rawOb":"METAR SBTF 071600Z 33006KT 9999 SCT015 BKN090 28/25 Q1013","temp":28,"dewp":25,"wdir":330,"wspd":6,"visib":"6+","altim":1013,"clouds":[{"cover":"SCT","base":1500},{"cover":"BKN","base":9000}],"obsTime":1780848000},"SBTT":{"icaoId":"SBTT","flightCategory":"MVFR","rawOb":"METAR SBTT 071600Z 34003KT 9999 FEW008 BKN017 26/23 Q1015","temp":26,"dewp":23,"wdir":340,"wspd":3,"visib":"6+","altim":1015,"clouds":[{"cover":"FEW","base":800},{"cover":"BKN","base":1700}],"obsTime":1780848000},"SBIP":{"icaoId":"SBIP","flightCategory":"VFR","rawOb":"METAR SBIP 071600Z AUTO VRB03KT CAVOK 25/14 Q1017","temp":25,"dewp":14,"wdir":"VRB","wspd":3,"visib":"6+","altim":1017,"clouds":[],"obsTime":1780848000},"SBTU":{"icaoId":"SBTU","flightCategory":"VFR","rawOb":"METAR SBTU 071600Z AUTO 29008KT 250V310 9999 // FEW035/// 31/22 Q1013","temp":31,"dewp":22,"wdir":290,"wspd":8,"visib":"6+","altim":1013,"clouds":[{"cover":"FEW","base":3500}],"obsTime":1780848000},"SBCC":{"icaoId":"SBCC","flightCategory":"VFR","rawOb":"METAR SBCC 071600Z 05008KT 9999 SCT020 30/17 Q1015","temp":30,"dewp":17,"wdir":50,"wspd":8,"visib":"6+","altim":1015,"clouds":[{"cover":"SCT","base":2000}],"obsTime":1780848000},"SBUY":{"icaoId":"SBUY","flightCategory":"VFR","rawOb":"METAR SBUY 071600Z 35002KT 9999 SCT025 BKN100 28/23 Q1012","temp":28,"dewp":23,"wdir":350,"wspd":2,"visib":"6+","altim":1012,"clouds":[{"cover":"SCT","base":2500},{"cover":"BKN","base":10000}],"obsTime":1780848000},"SBBH":{"icaoId":"SBBH","flightCategory":"VFR","rawOb":"METAR SBBH 071600Z 02001KT CAVOK 23/09 Q1019","temp":23,"dewp":9,"wdir":20,"wspd":1,"visib":"6+","altim":1019,"clouds":[],"obsTime":1780848000},"SBVH":{"icaoId":"SBVH","flightCategory":"VFR","rawOb":"METAR SBVH 071600Z 07008KT CAVOK 27/15 Q1017","temp":27,"dewp":15,"wdir":70,"wspd":8,"visib":"6+","altim":1017,"clouds":[],"obsTime":1780848000},"SBKG":{"icaoId":"SBKG","flightCategory":"VFR","rawOb":"METAR SBKG 071600Z 14012KT 100V170 9999 SCT025 BKN070 25/19 Q1016","temp":25,"dewp":19,"wdir":140,"wspd":12,"visib":"6+","altim":1016,"clouds":[{"cover":"SCT","base":2500},{"cover":"BKN","base":7000}],"obsTime":1780848000},"SBOI":{"icaoId":"SBOI","flightCategory":"VFR","rawOb":"METAR SBOI 071600Z AUTO VRB02KT 9999 -RA SCT021 28/25 Q1013","temp":28,"dewp":25,"wdir":"VRB","wspd":2,"visib":"6+","altim":1013,"clouds":[{"cover":"SCT","base":2100}],"obsTime":1780848000},"SBJV":{"icaoId":"SBJV","flightCategory":"VFR","rawOb":"METAR SBJV 071600Z 11007KT 9999 FEW030 22/17 Q1017","temp":22,"dewp":17,"wdir":110,"wspd":7,"visib":"6+","altim":1017,"clouds":[{"cover":"FEW","base":3000}],"obsTime":1780848000},"SBNM":{"icaoId":"SBNM","flightCategory":"VFR","rawOb":"METAR SBNM 071600Z 13004KT 9999 SCT035 23/15 Q1017","temp":23,"dewp":15,"wdir":130,"wspd":4,"visib":"6+","altim":1017,"clouds":[{"cover":"SCT","base":3500}],"obsTime":1780848000},"SBLE":{"icaoId":"SBLE","flightCategory":"VFR","rawOb":"METAR SBLE 071600Z AUTO VRB02KT 9999 SCT026 OVC037 23/17 Q1018","temp":23,"dewp":17,"wdir":"VRB","wspd":2,"visib":"6+","altim":1018,"clouds":[{"cover":"SCT","base":2600},{"cover":"OVC","base":3700}],"obsTime":1780848000},"SBTC":{"icaoId":"SBTC","flightCategory":"VFR","rawOb":"METAR SBTC 071600Z 08004KT 9999 SCT025 SCT070 26/20 Q1017","temp":26,"dewp":20,"wdir":80,"wspd":4,"visib":"6+","altim":1017,"clouds":[{"cover":"SCT","base":2500},{"cover":"SCT","base":7000}],"obsTime":1780848000},"SBIH":{"icaoId":"SBIH","flightCategory":"VFR","rawOb":"METAR SBIH 071600Z 03004KT 9999 FEW013 FEW025TCU BKN100 28/25 Q1012 RETS","temp":28,"dewp":25,"wdir":30,"wspd":4,"visib":"6+","altim":1012,"clouds":[{"cover":"FEW","base":1300},{"cover":"FEW","base":2500},{"cover":"BKN","base":10000}],"obsTime":1780848000},"SBAF":{"icaoId":"SBAF","flightCategory":"VFR","rawOb":"METAR SBAF 071600Z 28008KT CAVOK 26/12 Q1016","temp":26,"dewp":12,"wdir":280,"wspd":8,"visib":"6+","altim":1016,"clouds":[],"obsTime":1780848000},"SBGW":{"icaoId":"SBGW","flightCategory":"VFR","rawOb":"METAR SBGW 071600Z 25005KT CAVOK 23/08 Q1018","temp":23,"dewp":8,"wdir":250,"wspd":5,"visib":"6+","altim":1018,"clouds":[],"obsTime":1780848000},"SBJR":{"icaoId":"SBJR","flightCategory":"VFR","rawOb":"METAR SBJR 071600Z 20005KT CAVOK 27/16 Q1016","temp":27,"dewp":16,"wdir":200,"wspd":5,"visib":"6+","altim":1016,"clouds":[],"obsTime":1780848000},"SBLS":{"icaoId":"SBLS","flightCategory":"VFR","rawOb":"METAR SBLS 071600Z VRB03KT 9999 FEW048 22/08 Q1019","temp":22,"dewp":8,"wdir":"VRB","wspd":3,"visib":"6+","altim":1019,"clouds":[{"cover":"FEW","base":4800}],"obsTime":1780848000},"SBMT":{"icaoId":"SBMT","flightCategory":"VFR","rawOb":"METAR SBMT 071600Z 04002KT CAVOK 21/04 Q1019","temp":21,"dewp":4,"wdir":40,"wspd":2,"visib":"6+","altim":1019,"clouds":[],"obsTime":1780848000},"SBST":{"icaoId":"SBST","flightCategory":"VFR","rawOb":"METAR SBST 071600Z 26005KT CAVOK 24/15 Q1016","temp":24,"dewp":15,"wdir":260,"wspd":5,"visib":"6+","altim":1016,"clouds":[],"obsTime":1780848000},"SBTA":{"icaoId":"SBTA","flightCategory":"VFR","rawOb":"METAR SBTA 071600Z VRB03KT 9999 FEW020 23/10 Q1018","temp":23,"dewp":10,"wdir":"VRB","wspd":3,"visib":"6+","altim":1018,"clouds":[{"cover":"FEW","base":2000}],"obsTime":1780848000},"SBAN":{"icaoId":"SBAN","flightCategory":"VFR","rawOb":"METAR SBAN 071600Z 20005KT CAVOK 25/09 Q1020","temp":25,"dewp":9,"wdir":200,"wspd":5,"visib":"6+","altim":1020,"clouds":[],"obsTime":1780848000},"SBJP":{"icaoId":"SBJP","flightCategory":"MVFR","rawOb":"METAR SBJP 071600Z 16011KT 130V190 9999 BKN012 BKN070 26/24 Q1014","temp":26,"dewp":24,"wdir":160,"wspd":11,"visib":"6+","altim":1014,"clouds":[{"cover":"BKN","base":1200},{"cover":"BKN","base":7000}],"obsTime":1780848000},"SBPF":{"icaoId":"SBPF","flightCategory":"VFR","rawOb":"METAR SBPF 071600Z AUTO 23003KT 170V280 9999 FEW022 SCT026 18/13 Q1019","temp":18,"dewp":13,"wdir":230,"wspd":3,"visib":"6+","altim":1019,"clouds":[{"cover":"FEW","base":2200},{"cover":"SCT","base":2600}],"obsTime":1780848000}}}