{"updated":1778613912,"count":86,"data":{"SBRB":{"icaoId":"SBRB","flightCategory":"VFR","rawOb":"METAR SBRB 121800Z 20003KT CAVOK 26/17 Q1016","temp":26,"dewp":17,"wdir":200,"wspd":3,"visib":"6+","altim":1016,"clouds":[],"obsTime":1778608800},"SBBE":{"icaoId":"SBBE","flightCategory":"MVFR","rawOb":"METAR SBBE 121800Z 35007KT 9999 BKN030 FEW035TCU 31/26 Q1009","temp":31,"dewp":26,"wdir":350,"wspd":7,"visib":"6+","altim":1009,"clouds":[{"cover":"BKN","base":3000},{"cover":"FEW","base":3500}],"obsTime":1778608800},"SBBR":{"icaoId":"SBBR","flightCategory":"VFR","rawOb":"METAR SBBR 121800Z 08006KT 050V110 9999 SCT045 27/13 Q1018","temp":27,"dewp":13,"wdir":80,"wspd":6,"visib":"6+","altim":1018,"clouds":[{"cover":"SCT","base":4500}],"obsTime":1778608800},"SBBV":{"icaoId":"SBBV","flightCategory":"MVFR","rawOb":"METAR SBBV 121800Z 10003KT 9000 -SHRA SCT009 BKN014 FEW030TCU BKN070 26/24 Q1013 RESHRA","temp":26,"dewp":24,"wdir":100,"wspd":3,"visib":5.59,"altim":1013,"clouds":[{"cover":"SCT","base":900},{"cover":"BKN","base":1400},{"cover":"FEW","base":3000},{"cover":"BKN","base":7000}],"obsTime":1778608800},"SBCB":{"icaoId":"SBCB","flightCategory":"VFR","rawOb":"METAR SBCB 121800Z 22008KT 9999 SCT025 22/15 Q1018","temp":22,"dewp":15,"wdir":220,"wspd":8,"visib":"6+","altim":1018,"clouds":[{"cover":"SCT","base":2500}],"obsTime":1778608800},"SBCF":{"icaoId":"SBCF","flightCategory":"VFR","rawOb":"METAR SBCF 121800Z 08006KT 9999 SCT040 FEW040TCU 25/17 Q1018","temp":25,"dewp":17,"wdir":80,"wspd":6,"visib":"6+","altim":1018,"clouds":[{"cover":"SCT","base":4000},{"cover":"FEW","base":4000}],"obsTime":1778608800},"SBCG":{"icaoId":"SBCG","flightCategory":"VFR","rawOb":"METAR SBCG 121800Z 25005KT CAVOK 24/10 Q1017","temp":24,"dewp":10,"wdir":250,"wspd":5,"visib":"6+","altim":1017,"clouds":[],"obsTime":1778608800},"SBCP":{"icaoId":"SBCP","flightCategory":"VFR","rawOb":"METAR SBCP 121800Z 17010KT 9999 SCT020 25/14 Q1017","temp":25,"dewp":14,"wdir":170,"wspd":10,"visib":"6+","altim":1017,"clouds":[{"cover":"SCT","base":2000}],"obsTime":1778608800},"SBCR":{"icaoId":"SBCR","flightCategory":"VFR","rawOb":"METAR SBCR 121800Z 24005KT 190V310 CAVOK 24/11 Q1016","temp":24,"dewp":11,"wdir":240,"wspd":5,"visib":"6+","altim":1016,"clouds":[],"obsTime":1778608800},"SBCT":{"icaoId":"SBCT","flightCategory":"VFR","rawOb":"METAR SBCT 121800Z 33005KT 280V010 CAVOK 21/M02 Q1019","temp":21,"dewp":-2,"wdir":330,"wspd":5,"visib":"6+","altim":1019,"clouds":[],"obsTime":1778608800},"SBCZ":{"icaoId":"SBCZ","flightCategory":"VFR","rawOb":"METAR SBCZ 121800Z 21004KT 9999 FEW020 BKN100 24/18 Q1016","temp":24,"dewp":18,"wdir":210,"wspd":4,"visib":"6+","altim":1016,"clouds":[{"cover":"FEW","base":2000},{"cover":"BKN","base":10000}],"obsTime":1778608800},"SBEG":{"icaoId":"SBEG","flightCategory":"MVFR","rawOb":"METAR SBEG 121800Z 14005KT 9999 RA SCT004 BKN011 BKN070 23/23 Q1015","temp":23,"dewp":23,"wdir":140,"wspd":5,"visib":"6+","altim":1015,"clouds":[{"cover":"SCT","base":400},{"cover":"BKN","base":1100},{"cover":"BKN","base":7000}],"obsTime":1778608800},"SBFI":{"icaoId":"SBFI","flightCategory":"VFR","rawOb":"METAR SBFI 121800Z 07004KT CAVOK 22/11 Q1018","temp":22,"dewp":11,"wdir":70,"wspd":4,"visib":"6+","altim":1018,"clouds":[],"obsTime":1778608800},"SBFL":{"icaoId":"SBFL","flightCategory":"VFR","rawOb":"METAR SBFL 121800Z 35012KT CAVOK 22/10 Q1015","temp":22,"dewp":10,"wdir":350,"wspd":12,"visib":"6+","altim":1015,"clouds":[],"obsTime":1778608800},"SBFZ":{"icaoId":"SBFZ","flightCategory":"VFR","rawOb":"METAR SBFZ 121800Z 09014KT 9999 FEW025 31/23 Q1009","temp":31,"dewp":23,"wdir":90,"wspd":14,"visib":"6+","altim":1009,"clouds":[{"cover":"FEW","base":2500}],"obsTime":1778608800},"SBGL":{"icaoId":"SBGL","flightCategory":"VFR","rawOb":"METAR SBGL 121800Z 12009KT 9999 FEW045 24/13 Q1017","temp":24,"dewp":13,"wdir":120,"wspd":9,"visib":"6+","altim":1017,"clouds":[{"cover":"FEW","base":4500}],"obsTime":1778608800},"SBGO":{"icaoId":"SBGO","flightCategory":"VFR","rawOb":"METAR SBGO 121800Z 10003KT 9999 SCT049 30/15 Q1016","temp":30,"dewp":15,"wdir":100,"wspd":3,"visib":"6+","altim":1016,"clouds":[{"cover":"SCT","base":4900}],"obsTime":1778608800},"SBGR":{"icaoId":"SBGR","flightCategory":"VFR","rawOb":"METAR SBGR 121800Z 09005KT CAVOK 20/09 Q1019","temp":20,"dewp":9,"wdir":90,"wspd":5,"visib":"6+","altim":1019,"clouds":[],"obsTime":1778608800},"SBHT":{"icaoId":"SBHT","flightCategory":"VFR","rawOb":"METAR SBHT 121800Z 27003KT 9999 FEW020 BKN090 27/24 Q1011","temp":27,"dewp":24,"wdir":270,"wspd":3,"visib":"6+","altim":1011,"clouds":[{"cover":"FEW","base":2000},{"cover":"BKN","base":9000}],"obsTime":1778608800},"SBIL":{"icaoId":"SBIL","flightCategory":"VFR","rawOb":"METAR SBIL 121800Z 18009KT 150V210 9999 FEW025 29/24 Q1014","temp":29,"dewp":24,"wdir":180,"wspd":9,"visib":"6+","altim":1014,"clouds":[{"cover":"FEW","base":2500}],"obsTime":1778608800},"SBJU":{"icaoId":"SBJU","flightCategory":"VFR","rawOb":"METAR SBJU 121800Z 11008KT 9999 FEW022 32/22 Q1011","temp":32,"dewp":22,"wdir":110,"wspd":8,"visib":"6+","altim":1011,"clouds":[{"cover":"FEW","base":2200}],"obsTime":1778608800},"SBKP":{"icaoId":"SBKP","flightCategory":"VFR","rawOb":"METAR SBKP 121800Z 22003KT 140V310 CAVOK 24/07 Q1018","temp":24,"dewp":7,"wdir":220,"wspd":3,"visib":"6+","altim":1018,"clouds":[],"obsTime":1778608800},"SBLO":{"icaoId":"SBLO","flightCategory":"VFR","rawOb":"METAR SBLO 121800Z 08003KT CAVOK 21/07 Q1018","temp":21,"dewp":7,"wdir":80,"wspd":3,"visib":"6+","altim":1018,"clouds":[],"obsTime":1778608800},"SBMA":{"icaoId":"SBMA","flightCategory":"VFR","rawOb":"METAR SBMA 121800Z 12002KT 9999 FEW020 FEW025TCU OVC100 31/24 Q1009","temp":31,"dewp":24,"wdir":120,"wspd":2,"visib":"6+","altim":1009,"clouds":[{"cover":"FEW","base":2000},{"cover":"FEW","base":2500},{"cover":"OVC","base":10000}],"obsTime":1778608800},"SBME":{"icaoId":"SBME","flightCategory":"VFR","rawOb":"METAR SBME 121800Z 17007KT 9999 FEW025 BKN070 24/15 Q1017","temp":24,"dewp":15,"wdir":170,"wspd":7,"visib":"6+","altim":1017,"clouds":[{"cover":"FEW","base":2500},{"cover":"BKN","base":7000}],"obsTime":1778608800},"SBMG":{"icaoId":"SBMG","flightCategory":"VFR","rawOb":"METAR SBMG 121800Z VRB04KT CAVOK 21/11 Q1018","temp":21,"dewp":11,"wdir":"VRB","wspd":4,"visib":"6+","altim":1018,"clouds":[],"obsTime":1778608800},"SBMK":{"icaoId":"SBMK","flightCategory":"VFR","rawOb":"METAR SBMK 121800Z 07006KT 9999 FEW030 29/15 Q1017","temp":29,"dewp":15,"wdir":70,"wspd":6,"visib":"6+","altim":1017,"clouds":[{"cover":"FEW","base":3000}],"obsTime":1778608800},"SBMO":{"icaoId":"SBMO","flightCategory":"VFR","rawOb":"METAR SBMO 121800Z 14011KT 9999 SCT030 29/23 Q1012","temp":29,"dewp":23,"wdir":140,"wspd":11,"visib":"6+","altim":1012,"clouds":[{"cover":"SCT","base":3000}],"obsTime":1778608800},"SBMQ":{"icaoId":"SBMQ","flightCategory":"IFR","rawOb":"METAR SBMQ 121800Z 03008KT 9999 -RA BKN009 BKN020 BKN090 25/25 Q1011","temp":25,"dewp":25,"wdir":30,"wspd":8,"visib":"6+","altim":1011,"clouds":[{"cover":"BKN","base":900},{"cover":"BKN","base":2000},{"cover":"BKN","base":9000}],"obsTime":1778608800},"SBNT":{"icaoId":"SBNT","flightCategory":"VFR","rawOb":"METAR SBNT 121800Z 13012KT 9999 SCT020 FEW025TCU SCT040 29/24 Q1010","temp":29,"dewp":24,"wdir":130,"wspd":12,"visib":"6+","altim":1010,"clouds":[{"cover":"SCT","base":2000},{"cover":"FEW","base":2500},{"cover":"SCT","base":4000}],"obsTime":1778608800},"SBPA":{"icaoId":"SBPA","flightCategory":"VFR","rawOb":"METAR SBPA 121800Z 28013KT CAVOK 20/05 Q1016","temp":20,"dewp":5,"wdir":280,"wspd":13,"visib":"6+","altim":1016,"clouds":[],"obsTime":1778608800},"SBPJ":{"icaoId":"SBPJ","flightCategory":"VFR","rawOb":"METAR SBPJ 121800Z 27007KT 9999 FEW033 34/21 Q1011","temp":34,"dewp":21,"wdir":270,"wspd":7,"visib":"6+","altim":1011,"clouds":[{"cover":"FEW","base":3300}],"obsTime":1778608800},"SBPV":{"icaoId":"SBPV","flightCategory":"VFR","rawOb":"METAR SBPV 121800Z 08006KT 9999 BKN048 BKN065 27/21 Q1014","temp":27,"dewp":21,"wdir":80,"wspd":6,"visib":"6+","altim":1014,"clouds":[{"cover":"BKN","base":4800},{"cover":"BKN","base":6500}],"obsTime":1778608800},"SBAT":{"icaoId":"SBAT","flightCategory":"MVFR","rawOb":"METAR SBAT 121800Z 14003KT 9999 BKN030 31/22 Q1014","temp":31,"dewp":22,"wdir":140,"wspd":3,"visib":"6+","altim":1014,"clouds":[{"cover":"BKN","base":3000}],"obsTime":1778608800},"SBRF":{"icaoId":"SBRF","flightCategory":"MVFR","rawOb":"METAR SBRF 121800Z 17009KT 5000 -RA BR SCT009 BKN011 BKN025 25/24 Q1011","temp":25,"dewp":24,"wdir":170,"wspd":9,"visib":3.11,"altim":1011,"clouds":[{"cover":"SCT","base":900},{"cover":"BKN","base":1100},{"cover":"BKN","base":2500}],"obsTime":1778608800},"SBSG":{"icaoId":"SBSG","flightCategory":"VFR","rawOb":"METAR SBSG 121800Z 11010KT 090V150 9999 VCSH SCT025 BKN100 29/24 Q1010","temp":29,"dewp":24,"wdir":110,"wspd":10,"visib":"6+","altim":1010,"clouds":[{"cover":"SCT","base":2500},{"cover":"BKN","base":10000}],"obsTime":1778608800},"SBSL":{"icaoId":"SBSL","flightCategory":"MVFR","rawOb":"METAR SBSL 121800Z 04011KT 9999 VCSH BKN020 FEW025TCU 30/26 Q1008","temp":30,"dewp":26,"wdir":40,"wspd":11,"visib":"6+","altim":1008,"clouds":[{"cover":"BKN","base":2000},{"cover":"FEW","base":2500}],"obsTime":1778608800},"SBSN":{"icaoId":"SBSN","flightCategory":"VFR","rawOb":"METAR SBSN 121800Z 00000KT 9999 SCT009 SCT040 OVC100 26/24 Q1011 RERA","temp":26,"dewp":24,"wdir":0,"wspd":0,"visib":"6+","altim":1011,"clouds":[{"cover":"SCT","base":900},{"cover":"SCT","base":4000},{"cover":"OVC","base":10000}],"obsTime":1778608800},"SBSP":{"icaoId":"SBSP","flightCategory":"VFR","rawOb":"METAR SBSP 121800Z 10004KT 070V140 CAVOK 21/05 Q1020","temp":21,"dewp":5,"wdir":100,"wspd":4,"visib":"6+","altim":1020,"clouds":[],"obsTime":1778608800},"SBSV":{"icaoId":"SBSV","flightCategory":"VFR","rawOb":"METAR SBSV 121800Z 12009KT 9999 SCT021 29/23 Q1013","temp":29,"dewp":23,"wdir":120,"wspd":9,"visib":"6+","altim":1013,"clouds":[{"cover":"SCT","base":2100}],"obsTime":1778608800},"SBTE":{"icaoId":"SBTE","flightCategory":"VFR","rawOb":"METAR SBTE 121800Z 18008KT 9999 2000NE -RA SCT025 FEW030TCU 30/25 Q1008","temp":30,"dewp":25,"wdir":180,"wspd":8,"visib":"6+","altim":1008,"clouds":[{"cover":"SCT","base":2500},{"cover":"FEW","base":3000}],"obsTime":1778608800},"SBUL":{"icaoId":"SBUL","flightCategory":"VFR","rawOb":"METAR SBUL 121800Z 02004KT 290V060 9999 BKN040 26/14 Q1019","temp":26,"dewp":14,"wdir":20,"wspd":4,"visib":"6+","altim":1019,"clouds":[{"cover":"BKN","base":4000}],"obsTime":1778608800},"SBUR":{"icaoId":"SBUR","flightCategory":"VFR","rawOb":"METAR SBUR 121800Z 28006KT CAVOK 28/15 Q1017","temp":28,"dewp":15,"wdir":280,"wspd":6,"visib":"6+","altim":1017,"clouds":[],"obsTime":1778608800},"SBVT":{"icaoId":"SBVT","flightCategory":"VFR","rawOb":"METAR SBVT 121800Z 18012KT 9999 FEW035 BKN050 23/16 Q1017","temp":23,"dewp":16,"wdir":180,"wspd":12,"visib":"6+","altim":1017,"clouds":[{"cover":"FEW","base":3500},{"cover":"BKN","base":5000}],"obsTime":1778608800},"SBSJ":{"icaoId":"SBSJ","flightCategory":"VFR","rawOb":"METAR SBSJ 121800Z VRB03KT CAVOK 21/11 Q1019","temp":21,"dewp":11,"wdir":"VRB","wspd":3,"visib":"6+","altim":1019,"clouds":[],"obsTime":1778608800},"SBAX":{"icaoId":"SBAX","flightCategory":"VFR","rawOb":"METAR SBAX 121800Z 33006KT 9999 SCT030 27/14 Q1018","temp":27,"dewp":14,"wdir":330,"wspd":6,"visib":"6+","altim":1018,"clouds":[{"cover":"SCT","base":3000}],"obsTime":1778608800},"SBBH":{"icaoId":"SBBH","flightCategory":"VFR","rawOb":"METAR SBBH 121800Z 05005KT 9999 SCT040 BKN090 26/17 Q1018","temp":26,"dewp":17,"wdir":50,"wspd":5,"visib":"6+","altim":1018,"clouds":[{"cover":"SCT","base":4000},{"cover":"BKN","base":9000}],"obsTime":1778608800},"SBBQ":{"icaoId":"SBBQ","flightCategory":"MVFR","rawOb":"METAR SBBQ 121800Z 10007KT 070V140 9999 BKN015 18/14 Q1022","temp":18,"dewp":14,"wdir":100,"wspd":7,"visib":"6+","altim":1022,"clouds":[{"cover":"BKN","base":1500}],"obsTime":1778608800},"SBBU":{"icaoId":"SBBU","flightCategory":"VFR","rawOb":"METAR SBBU 121800Z 15004KT CAVOK 25/06 Q1017","temp":25,"dewp":6,"wdir":150,"wspd":4,"visib":"6+","altim":1017,"clouds":[],"obsTime":1778608800},"SBCA":{"icaoId":"SBCA","flightCategory":"VFR","rawOb":"METAR SBCA 121800Z 30005KT CAVOK 21/04 Q1020","temp":21,"dewp":4,"wdir":300,"wspd":5,"visib":"6+","altim":1020,"clouds":[],"obsTime":1778608800},"SBCC":{"icaoId":"SBCC","flightCategory":"MVFR","rawOb":"METAR SBCC 121800Z /////KT 9999 BKN025 ///// Q1013","temp":null,"dewp":null,"wdir":null,"wspd":null,"visib":"6+","altim":1013,"clouds":[{"cover":"BKN","base":2500}],"obsTime":1778608800},"SBCJ":{"icaoId":"SBCJ","flightCategory":"MVFR","rawOb":"METAR SBCJ 121800Z 15006KT 9999 BKN021 28/22 Q1015","temp":28,"dewp":22,"wdir":150,"wspd":6,"visib":"6+","altim":1015,"clouds":[{"cover":"BKN","base":2100}],"obsTime":1778608800},"SBCO":{"icaoId":"SBCO","flightCategory":"VFR","rawOb":"METAR SBCO 121800Z 27012KT CAVOK 20/05 Q1017","temp":20,"dewp":5,"wdir":270,"wspd":12,"visib":"6+","altim":1017,"clouds":[],"obsTime":1778608800},"SBDN":{"icaoId":"SBDN","flightCategory":"VFR","rawOb":"METAR SBDN 121800Z 07004KT CAVOK 24/05 Q1017","temp":24,"dewp":5,"wdir":70,"wspd":4,"visib":"6+","altim":1017,"clouds":[],"obsTime":1778608800},"SBES":{"icaoId":"SBES","flightCategory":"VFR","rawOb":"METAR SBES 121800Z 21009KT 160V270 9999 FEW020 BKN060 22/// Q1018","temp":null,"dewp":null,"wdir":210,"wspd":9,"visib":"6+","altim":1018,"clouds":[{"cover":"FEW","base":2000},{"cover":"BKN","base":6000}],"obsTime":1778608800},"SBGM":{"icaoId":"SBGM","flightCategory":"VFR","rawOb":"METAR SBGM 121800Z 08003KT 9999 FEW030 BKN100 25/16 Q1015","temp":25,"dewp":16,"wdir":80,"wspd":3,"visib":"6+","altim":1015,"clouds":[{"cover":"FEW","base":3000},{"cover":"BKN","base":10000}],"obsTime":1778608800},"SBIP":{"icaoId":"SBIP","flightCategory":"VFR","rawOb":"METAR SBIP 121800Z AUTO 17004KT 070V240 9999 FEW018 26/20 Q1016","temp":26,"dewp":20,"wdir":170,"wspd":4,"visib":"6+","altim":1016,"clouds":[{"cover":"FEW","base":1800}],"obsTime":1778608800},"SBKG":{"icaoId":"SBKG","flightCategory":"MVFR","rawOb":"METAR SBKG 121800Z 13011KT 9999 BKN018 26/22 Q1013","temp":26,"dewp":22,"wdir":130,"wspd":11,"visib":"6+","altim":1013,"clouds":[{"cover":"BKN","base":1800}],"obsTime":1778608800},"SBOI":{"icaoId":"SBOI","flightCategory":"VFR","rawOb":"METAR SBOI 121800Z AUTO 34005KT 9999 FEW040 BKN046 25/24 Q1011","temp":25,"dewp":24,"wdir":340,"wspd":5,"visib":"6+","altim":1011,"clouds":[{"cover":"FEW","base":4000},{"cover":"BKN","base":4600}],"obsTime":1778608800},"SBPB":{"icaoId":"SBPB","flightCategory":"VFR","rawOb":"METAR SBPB 121800Z 04011KT 9999 FEW016 FEW025TCU BKN080 30/26 Q1008","temp":30,"dewp":26,"wdir":40,"wspd":11,"visib":"6+","altim":1008,"clouds":[{"cover":"FEW","base":1600},{"cover":"FEW","base":2500},{"cover":"BKN","base":8000}],"obsTime":1778608800},"SBPL":{"icaoId":"SBPL","flightCategory":"VFR","rawOb":"METAR SBPL 121800Z 12008KT 9999 BKN035 33/19 Q1012","temp":33,"dewp":19,"wdir":120,"wspd":8,"visib":"6+","altim":1012,"clouds":[{"cover":"BKN","base":3500}],"obsTime":1778608800},"SBPP":{"icaoId":"SBPP","flightCategory":"VFR","rawOb":"METAR SBPP 121800Z 10005KT CAVOK 20/04 Q1019","temp":20,"dewp":4,"wdir":100,"wspd":5,"visib":"6+","altim":1019,"clouds":[],"obsTime":1778608800},"SBPS":{"icaoId":"SBPS","flightCategory":"VFR","rawOb":"METAR SBPS 121800Z VRB04KT 9999 SCT020 BKN070 26/22 Q1015","temp":26,"dewp":22,"wdir":"VRB","wspd":4,"visib":"6+","altim":1015,"clouds":[{"cover":"SCT","base":2000},{"cover":"BKN","base":7000}],"obsTime":1778608800},"SBSC":{"icaoId":"SBSC","flightCategory":"VFR","rawOb":"METAR SBSC 121800Z 18007KT 9999 FEW030 23/14 Q1018","temp":23,"dewp":14,"wdir":180,"wspd":7,"visib":"6+","altim":1018,"clouds":[{"cover":"FEW","base":3000}],"obsTime":1778608800},"SBAR":{"icaoId":"SBAR","flightCategory":"VFR","rawOb":"METAR SBAR 121800Z 11012KT 9999 SCT025 30/23 Q1012","temp":30,"dewp":23,"wdir":110,"wspd":12,"visib":"6+","altim":1012,"clouds":[{"cover":"SCT","base":2500}],"obsTime":1778608800},"SBSM":{"icaoId":"SBSM","flightCategory":"VFR","rawOb":"METAR SBSM 121800Z 26007KT 220V310 CAVOK 21/07 Q1017","temp":21,"dewp":7,"wdir":260,"wspd":7,"visib":"6+","altim":1017,"clouds":[],"obsTime":1778608800},"SBSR":{"icaoId":"SBSR","flightCategory":"VFR","rawOb":"METAR SBSR 121800Z 05002KT CAVOK 26/04 Q1017","temp":26,"dewp":4,"wdir":50,"wspd":2,"visib":"6+","altim":1017,"clouds":[],"obsTime":1778608800},"SBTF":{"icaoId":"SBTF","flightCategory":"MVFR","rawOb":"METAR SBTF 121800Z 21004KT 9999 FEW007 BKN015 OVC100 24/22 Q1014","temp":24,"dewp":22,"wdir":210,"wspd":4,"visib":"6+","altim":1014,"clouds":[{"cover":"FEW","base":700},{"cover":"BKN","base":1500},{"cover":"OVC","base":10000}],"obsTime":1778608800},"SBTT":{"icaoId":"SBTT","flightCategory":"MVFR","rawOb":"METAR SBTT 121800Z 21003KT 9999 BKN025 OVC100 23/18 Q1016","temp":23,"dewp":18,"wdir":210,"wspd":3,"visib":"6+","altim":1016,"clouds":[{"cover":"BKN","base":2500},{"cover":"OVC","base":10000}],"obsTime":1778608800},"SBTU":{"icaoId":"SBTU","flightCategory":"VFR","rawOb":"METAR SBTU 121800Z AUTO 01005KT 330V040 9999 // ///////// ///// Q1011","temp":null,"dewp":null,"wdir":10,"wspd":5,"visib":"6+","altim":1011,"clouds":[],"obsTime":1778608800},"SBUY":{"icaoId":"SBUY","flightCategory":"MVFR","rawOb":"METAR SBUY 121800Z 31002KT 9999 BKN013 BKN020 BKN080 23/22 Q1014","temp":23,"dewp":22,"wdir":310,"wspd":2,"visib":"6+","altim":1014,"clouds":[{"cover":"BKN","base":1300},{"cover":"BKN","base":2000},{"cover":"BKN","base":8000}],"obsTime":1778608800},"SBVH":{"icaoId":"SBVH","flightCategory":"VFR","rawOb":"METAR SBVH 121800Z 09004KT 9999 FEW020 25/18 Q1017","temp":25,"dewp":18,"wdir":90,"wspd":4,"visib":"6+","altim":1017,"clouds":[{"cover":"FEW","base":2000}],"obsTime":1778608800},"SBAU":{"icaoId":"SBAU","flightCategory":"VFR","rawOb":"METAR SBAU 121800Z 10004KT CAVOK 26/08 Q1017","temp":26,"dewp":8,"wdir":100,"wspd":4,"visib":"6+","altim":1017,"clouds":[],"obsTime":1778608800},"SBJP":{"icaoId":"SBJP","flightCategory":"IFR","rawOb":"METAR SBJP 121800Z COR 14015KT 060V220 2500 -RA OVC007 25/24 Q1011","temp":25,"dewp":24,"wdir":140,"wspd":15,"visib":1.55,"altim":1011,"clouds":[{"cover":"OVC","base":700}],"obsTime":1778608800},"SBAN":{"icaoId":"SBAN","flightCategory":"VFR","rawOb":"METAR SBAN 121800Z VRB03KT 9999 SCT045 28/14 Q1019","temp":28,"dewp":14,"wdir":"VRB","wspd":3,"visib":"6+","altim":1019,"clouds":[{"cover":"SCT","base":4500}],"obsTime":1778608800},"SBIH":{"icaoId":"SBIH","flightCategory":"MVFR","rawOb":"METAR SBIH 121800Z 05003KT 9999 BKN015 28/24 Q1012","temp":28,"dewp":24,"wdir":50,"wspd":3,"visib":"6+","altim":1012,"clouds":[{"cover":"BKN","base":1500}],"obsTime":1778608800},"SBJV":{"icaoId":"SBJV","flightCategory":"VFR","rawOb":"METAR SBJV 121800Z 17003KT CAVOK 21/14 Q1017","temp":21,"dewp":14,"wdir":170,"wspd":3,"visib":"6+","altim":1017,"clouds":[],"obsTime":1778608800},"SBNM":{"icaoId":"SBNM","flightCategory":"VFR","rawOb":"METAR SBNM 121800Z 36004KT CAVOK 22/10 Q1018","temp":22,"dewp":10,"wdir":360,"wspd":4,"visib":"6+","altim":1018,"clouds":[],"obsTime":1778608800},"SBLE":{"icaoId":"SBLE","flightCategory":"VFR","rawOb":"METAR SBLE 121800Z AUTO 18005KT 130V230 CAVOK 28/19 Q1015","temp":28,"dewp":19,"wdir":180,"wspd":5,"visib":"6+","altim":1015,"clouds":[],"obsTime":1778608800},"SBAF":{"icaoId":"SBAF","flightCategory":"VFR","rawOb":"METAR SBAF 121800Z 18010KT 9999 SCT040 23/14 Q1017","temp":23,"dewp":14,"wdir":180,"wspd":10,"visib":"6+","altim":1017,"clouds":[{"cover":"SCT","base":4000}],"obsTime":1778608800},"SBGW":{"icaoId":"SBGW","flightCategory":"VFR","rawOb":"METAR SBGW 121800Z 33003KT 210V010 CAVOK 23/10 Q1018","temp":23,"dewp":10,"wdir":330,"wspd":3,"visib":"6+","altim":1018,"clouds":[],"obsTime":1778608800},"SBJR":{"icaoId":"SBJR","flightCategory":"VFR","rawOb":"METAR SBJR 121800Z 19005KT 9999 FEW018 25/15 Q1018","temp":25,"dewp":15,"wdir":190,"wspd":5,"visib":"6+","altim":1018,"clouds":[{"cover":"FEW","base":1800}],"obsTime":1778608800},"SBLS":{"icaoId":"SBLS","flightCategory":"MVFR","rawOb":"METAR SBLS 121800Z VRB05KT 9999 BKN030 FEW033TCU 25/18 Q1018","temp":25,"dewp":18,"wdir":"VRB","wspd":5,"visib":"6+","altim":1018,"clouds":[{"cover":"BKN","base":3000},{"cover":"FEW","base":3300}],"obsTime":1778608800},"SBMT":{"icaoId":"SBMT","flightCategory":"VFR","rawOb":"METAR SBMT 121800Z 08005KT CAVOK 20/06 Q1019","temp":20,"dewp":6,"wdir":80,"wspd":5,"visib":"6+","altim":1019,"clouds":[],"obsTime":1778608800},"SBST":{"icaoId":"SBST","flightCategory":"VFR","rawOb":"METAR SBST 121800Z 12007KT CAVOK 22/12 Q1017","temp":22,"dewp":12,"wdir":120,"wspd":7,"visib":"6+","altim":1017,"clouds":[],"obsTime":1778608800},"SBTA":{"icaoId":"SBTA","flightCategory":"VFR","rawOb":"METAR SBTA 121800Z VRB02KT CAVOK 21/12 Q1018","temp":21,"dewp":12,"wdir":"VRB","wspd":2,"visib":"6+","altim":1018,"clouds":[],"obsTime":1778608800}}}