{"updated":1776283911,"count":85,"data":{"SBPV":{"icaoId":"SBPV","flightCategory":"VFR","rawOb":"METAR SBPV 151900Z 02007KT 9999 SCT035 32/24 Q1006","temp":32,"dewp":24,"wdir":20,"wspd":7,"visib":"6+","altim":1006,"clouds":[{"cover":"SCT","base":3500}],"obsTime":1776279600},"SBAT":{"icaoId":"SBAT","flightCategory":"VFR","rawOb":"METAR SBAT 151900Z 32001KT 9999 VCSH FEW030 FEW035TCU 27/26 Q1008","temp":27,"dewp":26,"wdir":320,"wspd":1,"visib":"6+","altim":1008,"clouds":[{"cover":"FEW","base":3000},{"cover":"FEW","base":3500}],"obsTime":1776279600},"SBBE":{"icaoId":"SBBE","flightCategory":"VFR","rawOb":"METAR SBBE 151900Z 35007KT 9999 BKN035 SCT100 29/27 Q1007","temp":29,"dewp":27,"wdir":350,"wspd":7,"visib":"6+","altim":1007,"clouds":[{"cover":"BKN","base":3500},{"cover":"SCT","base":10000}],"obsTime":1776279600},"SBBR":{"icaoId":"SBBR","flightCategory":"VFR","rawOb":"METAR SBBR 151900Z 19004KT 9999 -RA SCT035 FEW040TCU BKN070 22/18 Q1017","temp":22,"dewp":18,"wdir":190,"wspd":4,"visib":"6+","altim":1017,"clouds":[{"cover":"SCT","base":3500},{"cover":"FEW","base":4000},{"cover":"BKN","base":7000}],"obsTime":1776279600},"SBBV":{"icaoId":"SBBV","flightCategory":"VFR","rawOb":"METAR SBBV 151900Z 08007KT 9999 SCT040 FEW045TCU 34/21 Q1006","temp":34,"dewp":21,"wdir":80,"wspd":7,"visib":"6+","altim":1006,"clouds":[{"cover":"SCT","base":4000},{"cover":"FEW","base":4500}],"obsTime":1776279600},"SBCB":{"icaoId":"SBCB","flightCategory":"VFR","rawOb":"METAR SBCB 151900Z 22010KT CAVOK 26/21 Q1014","temp":26,"dewp":21,"wdir":220,"wspd":10,"visib":"6+","altim":1014,"clouds":[],"obsTime":1776279600},"SBCF":{"icaoId":"SBCF","flightCategory":"VFR","rawOb":"METAR SBCF 151900Z 20002KT 9999 SCT040 27/13 Q1017","temp":27,"dewp":13,"wdir":200,"wspd":2,"visib":"6+","altim":1017,"clouds":[{"cover":"SCT","base":4000}],"obsTime":1776279600},"SBCG":{"icaoId":"SBCG","flightCategory":"VFR","rawOb":"METAR SBCG 151900Z 33009KT 9999 VCSH BKN045 FEW050TCU SCT100 29/19 Q1011","temp":29,"dewp":19,"wdir":330,"wspd":9,"visib":"6+","altim":1011,"clouds":[{"cover":"BKN","base":4500},{"cover":"FEW","base":5000},{"cover":"SCT","base":10000}],"obsTime":1776279600},"SBCP":{"icaoId":"SBCP","flightCategory":"VFR","rawOb":"METAR SBCP 151900Z 20010KT CAVOK 29/19 Q1013","temp":29,"dewp":19,"wdir":200,"wspd":10,"visib":"6+","altim":1013,"clouds":[],"obsTime":1776279600},"SBCR":{"icaoId":"SBCR","flightCategory":"VFR","rawOb":"METAR SBCR 151900Z 04005KT 9999 FEW017 SCT035 29/24 Q1007","temp":29,"dewp":24,"wdir":40,"wspd":5,"visib":"6+","altim":1007,"clouds":[{"cover":"FEW","base":1700},{"cover":"SCT","base":3500}],"obsTime":1776279600},"SBCT":{"icaoId":"SBCT","flightCategory":"VFR","rawOb":"METAR SBCT 151900Z 10008KT 070V130 9999 FEW030 23/15 Q1018","temp":23,"dewp":15,"wdir":100,"wspd":8,"visib":"6+","altim":1018,"clouds":[{"cover":"FEW","base":3000}],"obsTime":1776279600},"SBCZ":{"icaoId":"SBCZ","flightCategory":"MVFR","rawOb":"METAR SBCZ 151900Z 23006KT 9999 BKN030 FEW030TCU 33/23 Q1006","temp":33,"dewp":23,"wdir":230,"wspd":6,"visib":"6+","altim":1006,"clouds":[{"cover":"BKN","base":3000},{"cover":"FEW","base":3000}],"obsTime":1776279600},"SBEG":{"icaoId":"SBEG","flightCategory":"VFR","rawOb":"METAR SBEG 151900Z 05007KT 9999 -SHRA SCT030 FEW035TCU SCT100 26/25 Q1007","temp":26,"dewp":25,"wdir":50,"wspd":7,"visib":"6+","altim":1007,"clouds":[{"cover":"SCT","base":3000},{"cover":"FEW","base":3500},{"cover":"SCT","base":10000}],"obsTime":1776279600},"SBFI":{"icaoId":"SBFI","flightCategory":"VFR","rawOb":"METAR SBFI 151900Z 03009KT 9999 FEW025 OVC100 25/21 Q1010","temp":25,"dewp":21,"wdir":30,"wspd":9,"visib":"6+","altim":1010,"clouds":[{"cover":"FEW","base":2500},{"cover":"OVC","base":10000}],"obsTime":1776279600},"SBFL":{"icaoId":"SBFL","flightCategory":"VFR","rawOb":"METAR SBFL 151900Z 36007KT 9999 FEW025 27/19 Q1014","temp":27,"dewp":19,"wdir":360,"wspd":7,"visib":"6+","altim":1014,"clouds":[{"cover":"FEW","base":2500}],"obsTime":1776279600},"SBFZ":{"icaoId":"SBFZ","flightCategory":"VFR","rawOb":"METAR SBFZ 151900Z 14004KT 100V180 9999 SCT014 BKN100 27/24 Q1007","temp":27,"dewp":24,"wdir":140,"wspd":4,"visib":"6+","altim":1007,"clouds":[{"cover":"SCT","base":1400},{"cover":"BKN","base":10000}],"obsTime":1776279600},"SBGL":{"icaoId":"SBGL","flightCategory":"VFR","rawOb":"METAR SBGL 151900Z 13010KT 9999 FEW030 27/19 Q1014","temp":27,"dewp":19,"wdir":130,"wspd":10,"visib":"6+","altim":1014,"clouds":[{"cover":"FEW","base":3000}],"obsTime":1776279600},"SBGO":{"icaoId":"SBGO","flightCategory":"VFR","rawOb":"METAR SBGO 151900Z 36009KT 9999 FEW045 FEW048TCU SCT100 27/19 Q1014","temp":27,"dewp":19,"wdir":360,"wspd":9,"visib":"6+","altim":1014,"clouds":[{"cover":"FEW","base":4500},{"cover":"FEW","base":4800},{"cover":"SCT","base":10000}],"obsTime":1776279600},"SBGR":{"icaoId":"SBGR","flightCategory":"VFR","rawOb":"METAR SBGR 151900Z 03005KT CAVOK 27/13 Q1016","temp":27,"dewp":13,"wdir":30,"wspd":5,"visib":"6+","altim":1016,"clouds":[],"obsTime":1776279600},"SBHT":{"icaoId":"SBHT","flightCategory":"MVFR","rawOb":"METAR SBHT 151900Z 00000KT 9999 BKN013 OVC090 26/24 Q1008","temp":26,"dewp":24,"wdir":0,"wspd":0,"visib":"6+","altim":1008,"clouds":[{"cover":"BKN","base":1300},{"cover":"OVC","base":9000}],"obsTime":1776279600},"SBIL":{"icaoId":"SBIL","flightCategory":"VFR","rawOb":"METAR SBIL 151900Z 17008KT 140V200 9999 FEW023 29/23 Q1012","temp":29,"dewp":23,"wdir":170,"wspd":8,"visib":"6+","altim":1012,"clouds":[{"cover":"FEW","base":2300}],"obsTime":1776279600},"SBJU":{"icaoId":"SBJU","flightCategory":"VFR","rawOb":"METAR SBJU 151900Z 12005KT 9999 FEW020 28/22 Q1010","temp":28,"dewp":22,"wdir":120,"wspd":5,"visib":"6+","altim":1010,"clouds":[{"cover":"FEW","base":2000}],"obsTime":1776279600},"SBKP":{"icaoId":"SBKP","flightCategory":"VFR","rawOb":"METAR SBKP 151900Z 10003KT 9999 FEW048 29/13 Q1015","temp":29,"dewp":13,"wdir":100,"wspd":3,"visib":"6+","altim":1015,"clouds":[{"cover":"FEW","base":4800}],"obsTime":1776279600},"SBLO":{"icaoId":"SBLO","flightCategory":"VFR","rawOb":"METAR SBLO 151900Z 04006KT 9999 FEW040 29/17 Q1014","temp":29,"dewp":17,"wdir":40,"wspd":6,"visib":"6+","altim":1014,"clouds":[{"cover":"FEW","base":4000}],"obsTime":1776279600},"SBMA":{"icaoId":"SBMA","flightCategory":"VFR","rawOb":"METAR SBMA 151900Z 06003KT 9999 FEW020 BKN100 29/25 Q1007","temp":29,"dewp":25,"wdir":60,"wspd":3,"visib":"6+","altim":1007,"clouds":[{"cover":"FEW","base":2000},{"cover":"BKN","base":10000}],"obsTime":1776279600},"SBME":{"icaoId":"SBME","flightCategory":"VFR","rawOb":"METAR SBME 151900Z 18010KT 9999 FEW025 27/21 Q1013","temp":27,"dewp":21,"wdir":180,"wspd":10,"visib":"6+","altim":1013,"clouds":[{"cover":"FEW","base":2500}],"obsTime":1776279600},"SBMG":{"icaoId":"SBMG","flightCategory":"VFR","rawOb":"METAR SBMG 151900Z 01008KT 9999 FEW045 28/17 Q1012","temp":28,"dewp":17,"wdir":10,"wspd":8,"visib":"6+","altim":1012,"clouds":[{"cover":"FEW","base":4500}],"obsTime":1776279600},"SBMK":{"icaoId":"SBMK","flightCategory":"VFR","rawOb":"METAR SBMK 151900Z 17008KT 9999 BKN040 27/17 Q1014","temp":27,"dewp":17,"wdir":170,"wspd":8,"visib":"6+","altim":1014,"clouds":[{"cover":"BKN","base":4000}],"obsTime":1776279600},"SBMO":{"icaoId":"SBMO","flightCategory":"VFR","rawOb":"METAR SBMO 151900Z 11013KT 9999 VCSH SCT030 FEW032TCU 26/24 Q1010","temp":26,"dewp":24,"wdir":110,"wspd":13,"visib":"6+","altim":1010,"clouds":[{"cover":"SCT","base":3000},{"cover":"FEW","base":3200}],"obsTime":1776279600},"SBMQ":{"icaoId":"SBMQ","flightCategory":"VFR","rawOb":"METAR SBMQ 151900Z 01003KT 9999 FEW010 27/24 Q1007","temp":27,"dewp":24,"wdir":10,"wspd":3,"visib":"6+","altim":1007,"clouds":[{"cover":"FEW","base":1000}],"obsTime":1776279600},"SBNT":{"icaoId":"SBNT","flightCategory":"MVFR","rawOb":"METAR SBNT 151900Z 12014KT 9999 VCSH BKN020 FEW025TCU 27/24 Q1009","temp":27,"dewp":24,"wdir":120,"wspd":14,"visib":"6+","altim":1009,"clouds":[{"cover":"BKN","base":2000},{"cover":"FEW","base":2500}],"obsTime":1776279600},"SBPA":{"icaoId":"SBPA","flightCategory":"VFR","rawOb":"METAR SBPA 151900Z 10009KT 070V130 CAVOK 29/19 Q1011","temp":29,"dewp":19,"wdir":100,"wspd":9,"visib":"6+","altim":1011,"clouds":[],"obsTime":1776279600},"SBPJ":{"icaoId":"SBPJ","flightCategory":"VFR","rawOb":"METAR SBPJ 151900Z 27004KT 220V300 9999 SCT043 33/24 Q1008","temp":33,"dewp":24,"wdir":270,"wspd":4,"visib":"6+","altim":1008,"clouds":[{"cover":"SCT","base":4300}],"obsTime":1776279600},"SBRB":{"icaoId":"SBRB","flightCategory":"MVFR","rawOb":"METAR SBRB 151900Z 34006KT 9000 BKN025 FEW030TCU SCT100 32/24 Q1006","temp":32,"dewp":24,"wdir":340,"wspd":6,"visib":5.59,"altim":1006,"clouds":[{"cover":"BKN","base":2500},{"cover":"FEW","base":3000},{"cover":"SCT","base":10000}],"obsTime":1776279600},"SBRF":{"icaoId":"SBRF","flightCategory":"VFR","rawOb":"METAR SBRF 151900Z 11009KT 9999 SCT025 29/23 Q1009","temp":29,"dewp":23,"wdir":110,"wspd":9,"visib":"6+","altim":1009,"clouds":[{"cover":"SCT","base":2500}],"obsTime":1776279600},"SBSG":{"icaoId":"SBSG","flightCategory":"MVFR","rawOb":"METAR SBSG 151900Z 12007KT 080V160 9999 VCSH BKN020 FEW025TCU 27/24 Q1009","temp":27,"dewp":24,"wdir":120,"wspd":7,"visib":"6+","altim":1009,"clouds":[{"cover":"BKN","base":2000},{"cover":"FEW","base":2500}],"obsTime":1776279600},"SBSL":{"icaoId":"SBSL","flightCategory":"MVFR","rawOb":"METAR SBSL 151900Z 05011KT 020V090 9999 BKN021 29/24 Q1006","temp":29,"dewp":24,"wdir":50,"wspd":11,"visib":"6+","altim":1006,"clouds":[{"cover":"BKN","base":2100}],"obsTime":1776279600},"SBSN":{"icaoId":"SBSN","flightCategory":"VFR","rawOb":"METAR SBSN 151900Z 11012KT 9999 VCSH SCT021 FEW025TCU SCT080 30/24 Q1007","temp":30,"dewp":24,"wdir":110,"wspd":12,"visib":"6+","altim":1007,"clouds":[{"cover":"SCT","base":2100},{"cover":"FEW","base":2500},{"cover":"SCT","base":8000}],"obsTime":1776279600},"SBSP":{"icaoId":"SBSP","flightCategory":"VFR","rawOb":"METAR SBSP 151900Z 13008KT 9999 FEW046 25/17 Q1017","temp":25,"dewp":17,"wdir":130,"wspd":8,"visib":"6+","altim":1017,"clouds":[{"cover":"FEW","base":4600}],"obsTime":1776279600},"SBSV":{"icaoId":"SBSV","flightCategory":"VFR","rawOb":"METAR SBSV 151900Z 17010KT 9999 SCT025 29/22 Q1011","temp":29,"dewp":22,"wdir":170,"wspd":10,"visib":"6+","altim":1011,"clouds":[{"cover":"SCT","base":2500}],"obsTime":1776279600},"SBTE":{"icaoId":"SBTE","flightCategory":"MVFR","rawOb":"METAR SBTE 151900Z 13012KT 9999 BKN025 27/24 Q1006","temp":27,"dewp":24,"wdir":130,"wspd":12,"visib":"6+","altim":1006,"clouds":[{"cover":"BKN","base":2500}],"obsTime":1776279600},"SBUL":{"icaoId":"SBUL","flightCategory":"VFR","rawOb":"METAR SBUL 151900Z VRB03KT 9999 FEW049 27/15 Q1016","temp":27,"dewp":15,"wdir":"VRB","wspd":3,"visib":"6+","altim":1016,"clouds":[{"cover":"FEW","base":4900}],"obsTime":1776279600},"SBUR":{"icaoId":"SBUR","flightCategory":"VFR","rawOb":"METAR SBUR 151900Z 15004KT CAVOK 29/15 Q1015","temp":29,"dewp":15,"wdir":150,"wspd":4,"visib":"6+","altim":1015,"clouds":[],"obsTime":1776279600},"SBVT":{"icaoId":"SBVT","flightCategory":"VFR","rawOb":"METAR SBVT 151900Z 17014KT 9999 FEW030 27/20 Q1012","temp":27,"dewp":20,"wdir":170,"wspd":14,"visib":"6+","altim":1012,"clouds":[{"cover":"FEW","base":3000}],"obsTime":1776279600},"SBVH":{"icaoId":"SBVH","flightCategory":"MVFR","rawOb":"METAR SBVH 151900Z 25010KT 9999 VCSH BKN030 FEW040TCU SCT100 26/23 Q1010","temp":26,"dewp":23,"wdir":250,"wspd":10,"visib":"6+","altim":1010,"clouds":[{"cover":"BKN","base":3000},{"cover":"FEW","base":4000},{"cover":"SCT","base":10000}],"obsTime":1776279600},"SBOI":{"icaoId":"SBOI","flightCategory":"VFR","rawOb":"METAR SBOI 151900Z AUTO 06007KT 020V100 9999 SCT032 29/24 Q1008","temp":29,"dewp":24,"wdir":60,"wspd":7,"visib":"6+","altim":1008,"clouds":[{"cover":"SCT","base":3200}],"obsTime":1776279600},"SBCJ":{"icaoId":"SBCJ","flightCategory":"VFR","rawOb":"METAR SBCJ 151900Z 00000KT 9999 SCT013 SCT025 26/23 Q1011","temp":26,"dewp":23,"wdir":0,"wspd":0,"visib":"6+","altim":1011,"clouds":[{"cover":"SCT","base":1300},{"cover":"SCT","base":2500}],"obsTime":1776279600},"SBPB":{"icaoId":"SBPB","flightCategory":"VFR","rawOb":"METAR SBPB 151900Z 07010KT 9999 SCT016 BKN090 29/25 Q1007","temp":29,"dewp":25,"wdir":70,"wspd":10,"visib":"6+","altim":1007,"clouds":[{"cover":"SCT","base":1600},{"cover":"BKN","base":9000}],"obsTime":1776279600},"SBPL":{"icaoId":"SBPL","flightCategory":"VFR","rawOb":"METAR SBPL 151900Z 10008KT 9999 SCT030 SCT070 31/20 Q1010","temp":31,"dewp":20,"wdir":100,"wspd":8,"visib":"6+","altim":1010,"clouds":[{"cover":"SCT","base":3000},{"cover":"SCT","base":7000}],"obsTime":1776279600},"SBAR":{"icaoId":"SBAR","flightCategory":"VFR","rawOb":"METAR SBAR 151900Z 11010KT 080V140 9999 SCT025 29/23 Q1010","temp":29,"dewp":23,"wdir":110,"wspd":10,"visib":"6+","altim":1010,"clouds":[{"cover":"SCT","base":2500}],"obsTime":1776279600},"SBCO":{"icaoId":"SBCO","flightCategory":"VFR","rawOb":"METAR SBCO 151900Z 10012KT CAVOK 29/19 Q1011","temp":29,"dewp":19,"wdir":100,"wspd":12,"visib":"6+","altim":1011,"clouds":[],"obsTime":1776279600},"SBBQ":{"icaoId":"SBBQ","flightCategory":"VFR","rawOb":"METAR SBBQ 151900Z 10007KT 9999 SCT040 23/13 Q1020","temp":23,"dewp":13,"wdir":100,"wspd":7,"visib":"6+","altim":1020,"clouds":[{"cover":"SCT","base":4000}],"obsTime":1776279600},"SBPP":{"icaoId":"SBPP","flightCategory":"IFR","rawOb":"METAR SBPP 151900Z 17012KT 4000 -RA BR BKN010 OVC070 19/18 Q1013","temp":19,"dewp":18,"wdir":170,"wspd":12,"visib":2.49,"altim":1013,"clouds":[{"cover":"BKN","base":1000},{"cover":"OVC","base":7000}],"obsTime":1776279600},"SBBU":{"icaoId":"SBBU","flightCategory":"VFR","rawOb":"METAR SBBU 151900Z 05002KT 9999 SCT040 31/16 Q1014","temp":31,"dewp":16,"wdir":50,"wspd":2,"visib":"6+","altim":1014,"clouds":[{"cover":"SCT","base":4000}],"obsTime":1776279600},"SBPS":{"icaoId":"SBPS","flightCategory":"VFR","rawOb":"METAR SBPS 151900Z 13007KT 9999 SCT025 27/22 Q1012","temp":27,"dewp":22,"wdir":130,"wspd":7,"visib":"6+","altim":1012,"clouds":[{"cover":"SCT","base":2500}],"obsTime":1776279600},"SBDN":{"icaoId":"SBDN","flightCategory":"VFR","rawOb":"METAR SBDN 151900Z 03005KT 9999 SCT049 31/17 Q1012","temp":31,"dewp":17,"wdir":30,"wspd":5,"visib":"6+","altim":1012,"clouds":[{"cover":"SCT","base":4900}],"obsTime":1776279600},"SBSC":{"icaoId":"SBSC","flightCategory":"VFR","rawOb":"METAR SBSC 151900Z 19009KT CAVOK 27/19 Q1014","temp":27,"dewp":19,"wdir":190,"wspd":9,"visib":"6+","altim":1014,"clouds":[],"obsTime":1776279600},"SBBH":{"icaoId":"SBBH","flightCategory":"VFR","rawOb":"METAR SBBH 151900Z 27004KT 9999 SCT045 25/16 Q1016","temp":25,"dewp":16,"wdir":270,"wspd":4,"visib":"6+","altim":1016,"clouds":[{"cover":"SCT","base":4500}],"obsTime":1776279600},"SBSJ":{"icaoId":"SBSJ","flightCategory":"VFR","rawOb":"METAR SBSJ 151900Z VRB03KT CAVOK 27/12 Q1016","temp":27,"dewp":12,"wdir":"VRB","wspd":3,"visib":"6+","altim":1016,"clouds":[],"obsTime":1776279600},"SBES":{"icaoId":"SBES","flightCategory":"VFR","rawOb":"METAR SBES 151900Z 22009KT 170V250 9999 FEW030 26/// Q1014","temp":null,"dewp":null,"wdir":220,"wspd":9,"visib":"6+","altim":1014,"clouds":[{"cover":"FEW","base":3000}],"obsTime":1776279600},"SBSM":{"icaoId":"SBSM","flightCategory":"VFR","rawOb":"METAR SBSM 151900Z 11007KT 9999 FEW045 BKN100 27/20 Q1009","temp":27,"dewp":20,"wdir":110,"wspd":7,"visib":"6+","altim":1009,"clouds":[{"cover":"FEW","base":4500},{"cover":"BKN","base":10000}],"obsTime":1776279600},"SBCA":{"icaoId":"SBCA","flightCategory":"VFR","rawOb":"METAR SBCA 151900Z 01012KT 9999 FEW020 BKN100 23/18 Q1015","temp":23,"dewp":18,"wdir":10,"wspd":12,"visib":"6+","altim":1015,"clouds":[{"cover":"FEW","base":2000},{"cover":"BKN","base":10000}],"obsTime":1776279600},"SBSR":{"icaoId":"SBSR","flightCategory":"VFR","rawOb":"METAR SBSR 151900Z 36004KT 9999 SCT025 FEW035TCU 31/16 Q1013","temp":31,"dewp":16,"wdir":360,"wspd":4,"visib":"6+","altim":1013,"clouds":[{"cover":"SCT","base":2500},{"cover":"FEW","base":3500}],"obsTime":1776279600},"SBTF":{"icaoId":"SBTF","flightCategory":"VFR","rawOb":"METAR SBTF 151900Z 10005KT 9999 SCT020 33/25 Q1007","temp":33,"dewp":25,"wdir":100,"wspd":5,"visib":"6+","altim":1007,"clouds":[{"cover":"SCT","base":2000}],"obsTime":1776279600},"SBAX":{"icaoId":"SBAX","flightCategory":"VFR","rawOb":"METAR SBAX 151900Z 34005KT 9999 SCT045 27/14 Q1016","temp":27,"dewp":14,"wdir":340,"wspd":5,"visib":"6+","altim":1016,"clouds":[{"cover":"SCT","base":4500}],"obsTime":1776279600},"SBIP":{"icaoId":"SBIP","flightCategory":"VFR","rawOb":"METAR SBIP 151900Z AUTO 19004KT 150V260 CAVOK 29/17 Q1013","temp":29,"dewp":17,"wdir":190,"wspd":4,"visib":"6+","altim":1013,"clouds":[],"obsTime":1776279600},"SBTT":{"icaoId":"SBTT","flightCategory":"VFR","rawOb":"METAR SBTT 151900Z VRB02KT 9999 VCSH SCT033 FEW040TCU BKN100 29/24 Q1007","temp":29,"dewp":24,"wdir":"VRB","wspd":2,"visib":"6+","altim":1007,"clouds":[{"cover":"SCT","base":3300},{"cover":"FEW","base":4000},{"cover":"BKN","base":10000}],"obsTime":1776279600},"SBCC":{"icaoId":"SBCC","flightCategory":"VFR","rawOb":"METAR SBCC 151900Z 34005KT 9999 SCT025 SCT100 28/23 Q1009","temp":28,"dewp":23,"wdir":340,"wspd":5,"visib":"6+","altim":1009,"clouds":[{"cover":"SCT","base":2500},{"cover":"SCT","base":10000}],"obsTime":1776279600},"SBUY":{"icaoId":"SBUY","flightCategory":"VFR","rawOb":"METAR SBUY 151900Z 10004KT 9999 VCSH SCT025 FEW030TCU 32/24 Q1006","temp":32,"dewp":24,"wdir":100,"wspd":4,"visib":"6+","altim":1006,"clouds":[{"cover":"SCT","base":2500},{"cover":"FEW","base":3000}],"obsTime":1776279600},"SBKG":{"icaoId":"SBKG","flightCategory":"VFR","rawOb":"METAR SBKG 151900Z 07010KT 9999 FEW025 BKN090 25/22 Q1011","temp":25,"dewp":22,"wdir":70,"wspd":10,"visib":"6+","altim":1011,"clouds":[{"cover":"FEW","base":2500},{"cover":"BKN","base":9000}],"obsTime":1776279600},"SBGM":{"icaoId":"SBGM","flightCategory":"VFR","rawOb":"METAR SBGM 151900Z 28003KT 9999 SCT030 33/23 Q1007","temp":33,"dewp":23,"wdir":280,"wspd":3,"visib":"6+","altim":1007,"clouds":[{"cover":"SCT","base":3000}],"obsTime":1776279600},"SBTA":{"icaoId":"SBTA","flightCategory":"VFR","rawOb":"METAR SBTA 151900Z 05005KT 010V080 9999 FEW030 27/10 Q1015","temp":27,"dewp":10,"wdir":50,"wspd":5,"visib":"6+","altim":1015,"clouds":[{"cover":"FEW","base":3000}],"obsTime":1776279600},"SBJP":{"icaoId":"SBJP","flightCategory":"VFR","rawOb":"METAR SBJP 151900Z 11010KT 9999 SCT030 29/23 Q1009","temp":29,"dewp":23,"wdir":110,"wspd":10,"visib":"6+","altim":1009,"clouds":[{"cover":"SCT","base":3000}],"obsTime":1776279600},"SBAN":{"icaoId":"SBAN","flightCategory":"VFR","rawOb":"METAR SBAN 151900Z 17005KT 9999 VCSH FEW003 SCT025 FEW030TCU BKN100 21/19 Q1017","temp":21,"dewp":19,"wdir":170,"wspd":5,"visib":"6+","altim":1017,"clouds":[{"cover":"FEW","base":300},{"cover":"SCT","base":2500},{"cover":"FEW","base":3000},{"cover":"BKN","base":10000}],"obsTime":1776279600},"SBJV":{"icaoId":"SBJV","flightCategory":"VFR","rawOb":"METAR SBJV 151900Z 02003KT 9999 FEW025 SCT045 27/21 Q1014","temp":27,"dewp":21,"wdir":20,"wspd":3,"visib":"6+","altim":1014,"clouds":[{"cover":"FEW","base":2500},{"cover":"SCT","base":4500}],"obsTime":1776279600},"SBPF":{"icaoId":"SBPF","flightCategory":"VFR","rawOb":"METAR SBPF 152000Z 03010KT CAVOK 24/15 Q1014","temp":24,"dewp":15,"wdir":30,"wspd":10,"visib":"6+","altim":1014,"clouds":[],"obsTime":1776283200},"SBLE":{"icaoId":"SBLE","flightCategory":"VFR","rawOb":"METAR SBLE 151900Z AUTO 15003KT 090V210 9999 BKN047 29/18 Q1013","temp":29,"dewp":18,"wdir":150,"wspd":3,"visib":"6+","altim":1013,"clouds":[{"cover":"BKN","base":4700}],"obsTime":1776279600},"SBAF":{"icaoId":"SBAF","flightCategory":"VFR","rawOb":"METAR SBAF 151900Z 18010KT 9999 FEW030 27/21 Q1014","temp":27,"dewp":21,"wdir":180,"wspd":10,"visib":"6+","altim":1014,"clouds":[{"cover":"FEW","base":3000}],"obsTime":1776279600},"SBGW":{"icaoId":"SBGW","flightCategory":"VFR","rawOb":"METAR SBGW 151900Z 02005KT 350V060 9999 SCT030 27/13 Q1015","temp":27,"dewp":13,"wdir":20,"wspd":5,"visib":"6+","altim":1015,"clouds":[{"cover":"SCT","base":3000}],"obsTime":1776279600},"SBJR":{"icaoId":"SBJR","flightCategory":"VFR","rawOb":"METAR SBJR 151900Z 20005KT 9999 FEW025 27/20 Q1014","temp":27,"dewp":20,"wdir":200,"wspd":5,"visib":"6+","altim":1014,"clouds":[{"cover":"FEW","base":2500}],"obsTime":1776279600},"SBLS":{"icaoId":"SBLS","flightCategory":"VFR","rawOb":"METAR SBLS 151900Z 21003KT 9999 SCT040 26/14 Q1016","temp":26,"dewp":14,"wdir":210,"wspd":3,"visib":"6+","altim":1016,"clouds":[{"cover":"SCT","base":4000}],"obsTime":1776279600},"SBMT":{"icaoId":"SBMT","flightCategory":"VFR","rawOb":"METAR SBMT 151900Z 08007KT CAVOK 26/10 Q1016","temp":26,"dewp":10,"wdir":80,"wspd":7,"visib":"6+","altim":1016,"clouds":[],"obsTime":1776279600},"SBST":{"icaoId":"SBST","flightCategory":"VFR","rawOb":"METAR SBST 151900Z 17007KT 9999 FEW040 26/19 Q1013","temp":26,"dewp":19,"wdir":170,"wspd":7,"visib":"6+","altim":1013,"clouds":[{"cover":"FEW","base":4000}],"obsTime":1776279600},"SBNM":{"icaoId":"SBNM","flightCategory":"VFR","rawOb":"METAR SBNM 151900Z 03008KT 9999 VCSH FEW030TCU SCT035 OVC100 26/19 Q1010","temp":26,"dewp":19,"wdir":30,"wspd":8,"visib":"6+","altim":1010,"clouds":[{"cover":"FEW","base":3000},{"cover":"SCT","base":3500},{"cover":"OVC","base":10000}],"obsTime":1776279600},"SBIH":{"icaoId":"SBIH","flightCategory":"VFR","rawOb":"METAR SBIH 151900Z 31005KT 9999 SCT020 FEW025TCU 31/26 Q1006","temp":31,"dewp":26,"wdir":310,"wspd":5,"visib":"6+","altim":1006,"clouds":[{"cover":"SCT","base":2000},{"cover":"FEW","base":2500}],"obsTime":1776279600}}}