{"updated":1774999350,"count":73,"data":{"SBKP":{"icaoId":"SBKP","flightCategory":"VFR","rawOb":"METAR SBKP 312200Z 11005KT 080V150 CAVOK 23/19 Q1014","temp":23,"dewp":19,"wdir":110,"wspd":5,"visib":"6+","altim":1014,"clouds":[],"obsTime":1774994400},"SBVT":{"icaoId":"SBVT","flightCategory":"VFR","rawOb":"METAR SBVT 312200Z 05011KT 9999 FEW015 SCT070 26/23 Q1011","temp":26,"dewp":23,"wdir":50,"wspd":11,"visib":"6+","altim":1011,"clouds":[{"cover":"FEW","base":1500},{"cover":"SCT","base":7000}],"obsTime":1774994400},"SBBR":{"icaoId":"SBBR","flightCategory":"VFR","rawOb":"METAR SBBR 312200Z 02003KT 290V090 9999 VCTS SCT040 FEW045CB BKN100 21/18 Q1015","temp":21,"dewp":18,"wdir":20,"wspd":3,"visib":"6+","altim":1015,"clouds":[{"cover":"SCT","base":4000},{"cover":"FEW","base":4500},{"cover":"BKN","base":10000}],"obsTime":1774994400},"SBBV":{"icaoId":"SBBV","flightCategory":"VFR","rawOb":"METAR SBBV 312200Z 22002KT 9999 BKN040 FEW045TCU SCT100 31/21 Q1007","temp":31,"dewp":21,"wdir":220,"wspd":2,"visib":"6+","altim":1007,"clouds":[{"cover":"BKN","base":4000},{"cover":"FEW","base":4500},{"cover":"SCT","base":10000}],"obsTime":1774994400},"SBCF":{"icaoId":"SBCF","flightCategory":"VFR","rawOb":"METAR SBCF 312200Z 24006KT 9999 -RA VCTS SCT030 FEW035CB BKN080 19/18 Q1015","temp":19,"dewp":18,"wdir":240,"wspd":6,"visib":"6+","altim":1015,"clouds":[{"cover":"SCT","base":3000},{"cover":"FEW","base":3500},{"cover":"BKN","base":8000}],"obsTime":1774994400},"SBCG":{"icaoId":"SBCG","flightCategory":"VFR","rawOb":"METAR SBCG 312200Z 20004KT 9999 VCTS FEW045 FEW050CB 27/20 Q1010","temp":27,"dewp":20,"wdir":200,"wspd":4,"visib":"6+","altim":1010,"clouds":[{"cover":"FEW","base":4500},{"cover":"FEW","base":5000}],"obsTime":1774994400},"SBCT":{"icaoId":"SBCT","flightCategory":"VFR","rawOb":"SPECI SBCT 312130Z 11006KT 9999 SCT010 BKN083 17/16 Q1016","temp":17,"dewp":16,"wdir":110,"wspd":6,"visib":"6+","altim":1016,"clouds":[{"cover":"SCT","base":1000},{"cover":"BKN","base":8300}],"obsTime":1774992600},"SBCZ":{"icaoId":"SBCZ","flightCategory":"MVFR","rawOb":"METAR SBCZ 312200Z 30005KT 9999 TS BKN030 FEW035CB 27/24 Q1008","temp":27,"dewp":24,"wdir":300,"wspd":5,"visib":"6+","altim":1008,"clouds":[{"cover":"BKN","base":3000},{"cover":"FEW","base":3500}],"obsTime":1774994400},"SBEG":{"icaoId":"SBEG","flightCategory":"VFR","rawOb":"METAR SBEG 312200Z 04001KT 9999 FEW020 SCT100 25/24 Q1008","temp":25,"dewp":24,"wdir":40,"wspd":1,"visib":"6+","altim":1008,"clouds":[{"cover":"FEW","base":2000},{"cover":"SCT","base":10000}],"obsTime":1774994400},"SBFI":{"icaoId":"SBFI","flightCategory":"VFR","rawOb":"METAR SBFI 312200Z 11008KT 9999 VCSH VCTS SCT030 FEW035CB BKN100 24/20 Q1009","temp":24,"dewp":20,"wdir":110,"wspd":8,"visib":"6+","altim":1009,"clouds":[{"cover":"SCT","base":3000},{"cover":"FEW","base":3500},{"cover":"BKN","base":10000}],"obsTime":1774994400},"SBFL":{"icaoId":"SBFL","flightCategory":"VFR","rawOb":"METAR SBFL 312200Z 17004KT 9999 FEW030 23/20 Q1012","temp":23,"dewp":20,"wdir":170,"wspd":4,"visib":"6+","altim":1012,"clouds":[{"cover":"FEW","base":3000}],"obsTime":1774994400},"SBFZ":{"icaoId":"SBFZ","flightCategory":"VFR","rawOb":"METAR SBFZ 312200Z 04005KT 9999 FEW022 28/23 Q1008","temp":28,"dewp":23,"wdir":40,"wspd":5,"visib":"6+","altim":1008,"clouds":[{"cover":"FEW","base":2200}],"obsTime":1774994400},"SBGL":{"icaoId":"SBGL","flightCategory":"VFR","rawOb":"METAR SBGL 312200Z 13004KT 9999 FEW006 FEW050TCU BKN100 23/22 Q1012","temp":23,"dewp":22,"wdir":130,"wspd":4,"visib":"6+","altim":1012,"clouds":[{"cover":"FEW","base":600},{"cover":"FEW","base":5000},{"cover":"BKN","base":10000}],"obsTime":1774994400},"SBGO":{"icaoId":"SBGO","flightCategory":"VFR","rawOb":"METAR SBGO 312200Z 00000KT 9999 FEW043 FEW045TCU BKN100 26/19 Q1012","temp":26,"dewp":19,"wdir":0,"wspd":0,"visib":"6+","altim":1012,"clouds":[{"cover":"FEW","base":4300},{"cover":"FEW","base":4500},{"cover":"BKN","base":10000}],"obsTime":1774994400},"SBGR":{"icaoId":"SBGR","flightCategory":"IFR","rawOb":"METAR SBGR 312200Z 12004KT 8000 OVC009 19/18 Q1015","temp":19,"dewp":18,"wdir":120,"wspd":4,"visib":4.97,"altim":1015,"clouds":[{"cover":"OVC","base":900}],"obsTime":1774994400},"SBIL":{"icaoId":"SBIL","flightCategory":"VFR","rawOb":"METAR SBIL 312200Z 18002KT CAVOK 27/23 Q1011","temp":27,"dewp":23,"wdir":180,"wspd":2,"visib":"6+","altim":1011,"clouds":[],"obsTime":1774994400},"SBJU":{"icaoId":"SBJU","flightCategory":"MVFR","rawOb":"METAR SBJU 312200Z 00000KT 9999 BKN020 FEW021TCU 26/22 Q1011 RETS","temp":26,"dewp":22,"wdir":0,"wspd":0,"visib":"6+","altim":1011,"clouds":[{"cover":"BKN","base":2000},{"cover":"FEW","base":2100}],"obsTime":1774994400},"SBLO":{"icaoId":"SBLO","flightCategory":"VFR","rawOb":"METAR SBLO 312200Z 14006KT 9999 FEW040 26/18 Q1011","temp":26,"dewp":18,"wdir":140,"wspd":6,"visib":"6+","altim":1011,"clouds":[{"cover":"FEW","base":4000}],"obsTime":1774994400},"SBMA":{"icaoId":"SBMA","flightCategory":"VFR","rawOb":"METAR SBMA 312200Z 16005KT 9999 SCT020 OVC100 26/24 Q1008","temp":26,"dewp":24,"wdir":160,"wspd":5,"visib":"6+","altim":1008,"clouds":[{"cover":"SCT","base":2000},{"cover":"OVC","base":10000}],"obsTime":1774994400},"SBME":{"icaoId":"SBME","flightCategory":"VFR","rawOb":"METAR SBME 312200Z 24004KT 9999 SCT026 BKN100 23/21 Q1012","temp":23,"dewp":21,"wdir":240,"wspd":4,"visib":"6+","altim":1012,"clouds":[{"cover":"SCT","base":2600},{"cover":"BKN","base":10000}],"obsTime":1774994400},"SBMG":{"icaoId":"SBMG","flightCategory":"VFR","rawOb":"METAR SBMG 312200Z 08010KT 9999 TS VCSH BKN042 FEW050CB BKN070 24/20 Q1010","temp":24,"dewp":20,"wdir":80,"wspd":10,"visib":"6+","altim":1010,"clouds":[{"cover":"BKN","base":4200},{"cover":"FEW","base":5000},{"cover":"BKN","base":7000}],"obsTime":1774994400},"SBMK":{"icaoId":"SBMK","flightCategory":"VFR","rawOb":"METAR SBMK 312200Z 12011KT 9999 VCSH SCT030 FEW035TCU BKN100 22/19 Q1014","temp":22,"dewp":19,"wdir":120,"wspd":11,"visib":"6+","altim":1014,"clouds":[{"cover":"SCT","base":3000},{"cover":"FEW","base":3500},{"cover":"BKN","base":10000}],"obsTime":1774994400},"SBMO":{"icaoId":"SBMO","flightCategory":"VFR","rawOb":"METAR SBMO 312200Z 29002KT 9999 SCT025 BKN070 24/23 Q1011","temp":24,"dewp":23,"wdir":290,"wspd":2,"visib":"6+","altim":1011,"clouds":[{"cover":"SCT","base":2500},{"cover":"BKN","base":7000}],"obsTime":1774994400},"SBMQ":{"icaoId":"SBMQ","flightCategory":"VFR","rawOb":"METAR SBMQ 312200Z 36005KT 9999 FEW020 FEW050TCU 26/25 Q1007","temp":26,"dewp":25,"wdir":360,"wspd":5,"visib":"6+","altim":1007,"clouds":[{"cover":"FEW","base":2000},{"cover":"FEW","base":5000}],"obsTime":1774994400},"SBNT":{"icaoId":"SBNT","flightCategory":"VFR","rawOb":"METAR SBNT 312200Z 11006KT 9999 SCT025 28/24 Q1010","temp":28,"dewp":24,"wdir":110,"wspd":6,"visib":"6+","altim":1010,"clouds":[{"cover":"SCT","base":2500}],"obsTime":1774994400},"SBPA":{"icaoId":"SBPA","flightCategory":"VFR","rawOb":"METAR SBPA 312200Z 10018G28KT CAVOK 25/20 Q1010","temp":25,"dewp":20,"wdir":100,"wspd":18,"visib":"6+","altim":1010,"clouds":[],"obsTime":1774994400},"SBPJ":{"icaoId":"SBPJ","flightCategory":"VFR","rawOb":"METAR SBPJ 312200Z VRB02KT 9999 FEW040 FEW045TCU SCT100 25/22 Q1009","temp":25,"dewp":22,"wdir":"VRB","wspd":2,"visib":"6+","altim":1009,"clouds":[{"cover":"FEW","base":4000},{"cover":"FEW","base":4500},{"cover":"SCT","base":10000}],"obsTime":1774994400},"SBPV":{"icaoId":"SBPV","flightCategory":"VFR","rawOb":"METAR SBPV 312200Z 00000KT 9999 BKN040 FEW045TCU 25/24 Q1006 RETS","temp":25,"dewp":24,"wdir":0,"wspd":0,"visib":"6+","altim":1006,"clouds":[{"cover":"BKN","base":4000},{"cover":"FEW","base":4500}],"obsTime":1774994400},"SBRB":{"icaoId":"SBRB","flightCategory":"VFR","rawOb":"METAR SBRB 312200Z 23005KT 9999 VCSH SCT030 FEW035TCU SCT100 26/25 Q1007","temp":26,"dewp":25,"wdir":230,"wspd":5,"visib":"6+","altim":1007,"clouds":[{"cover":"SCT","base":3000},{"cover":"FEW","base":3500},{"cover":"SCT","base":10000}],"obsTime":1774994400},"SBRF":{"icaoId":"SBRF","flightCategory":"VFR","rawOb":"METAR SBRF 312200Z 23004KT 9999 SCT017 SCT033 26/24 Q1010","temp":26,"dewp":24,"wdir":230,"wspd":4,"visib":"6+","altim":1010,"clouds":[{"cover":"SCT","base":1700},{"cover":"SCT","base":3300}],"obsTime":1774994400},"SBSG":{"icaoId":"SBSG","flightCategory":"MVFR","rawOb":"METAR SBSG 312200Z 03004KT 350V070 9999 VCSH BKN020 FEW023TCU 27/25 Q1010","temp":27,"dewp":25,"wdir":30,"wspd":4,"visib":"6+","altim":1010,"clouds":[{"cover":"BKN","base":2000},{"cover":"FEW","base":2300}],"obsTime":1774994400},"SBSL":{"icaoId":"SBSL","flightCategory":"VFR","rawOb":"METAR SBSL 312200Z 06009KT 9999 FEW020 27/23 Q1008","temp":27,"dewp":23,"wdir":60,"wspd":9,"visib":"6+","altim":1008,"clouds":[{"cover":"FEW","base":2000}],"obsTime":1774994400},"SBSN":{"icaoId":"SBSN","flightCategory":"VFR","rawOb":"METAR SBSN 312200Z 07004KT 9999 VCSH FEW020 FEW025TCU SCT100 27/25 Q1007","temp":27,"dewp":25,"wdir":70,"wspd":4,"visib":"6+","altim":1007,"clouds":[{"cover":"FEW","base":2000},{"cover":"FEW","base":2500},{"cover":"SCT","base":10000}],"obsTime":1774994400},"SBSP":{"icaoId":"SBSP","flightCategory":"IFR","rawOb":"METAR SBSP 312200Z 15007KT 9999 BKN009 BKN100 19/18 Q1016","temp":19,"dewp":18,"wdir":150,"wspd":7,"visib":"6+","altim":1016,"clouds":[{"cover":"BKN","base":900},{"cover":"BKN","base":10000}],"obsTime":1774994400},"SBSV":{"icaoId":"SBSV","flightCategory":"VFR","rawOb":"METAR SBSV 312200Z 17004KT 9999 FEW021 BKN070 27/23 Q1011","temp":27,"dewp":23,"wdir":170,"wspd":4,"visib":"6+","altim":1011,"clouds":[{"cover":"FEW","base":2100},{"cover":"BKN","base":7000}],"obsTime":1774994400},"SBTE":{"icaoId":"SBTE","flightCategory":"VFR","rawOb":"METAR SBTE 312200Z 08003KT CAVOK 30/23 Q1008","temp":30,"dewp":23,"wdir":80,"wspd":3,"visib":"6+","altim":1008,"clouds":[],"obsTime":1774994400},"SBUL":{"icaoId":"SBUL","flightCategory":"VFR","rawOb":"METAR SBUL 312200Z 23007KT 9999 VCTS FEW045 FEW049CB 24/18 Q1014","temp":24,"dewp":18,"wdir":230,"wspd":7,"visib":"6+","altim":1014,"clouds":[{"cover":"FEW","base":4500},{"cover":"FEW","base":4900}],"obsTime":1774994400},"SBUR":{"icaoId":"SBUR","flightCategory":"VFR","rawOb":"METAR SBUR 312200Z 17004KT 9999 VCTS SCT040 FEW063CB 24/20 Q1013","temp":24,"dewp":20,"wdir":170,"wspd":4,"visib":"6+","altim":1013,"clouds":[{"cover":"SCT","base":4000},{"cover":"FEW","base":6300}],"obsTime":1774994400},"SBBE":{"icaoId":"SBBE","flightCategory":"VFR","rawOb":"METAR SBBE 312200Z 07005KT 9999 SCT018 27/25 Q1008","temp":27,"dewp":25,"wdir":70,"wspd":5,"visib":"6+","altim":1008,"clouds":[{"cover":"SCT","base":1800}],"obsTime":1774994400},"SBCP":{"icaoId":"SBCP","flightCategory":"VFR","rawOb":"METAR SBCP 312200Z 08008KT 9999 SCT020 FEW025TCU 26/23 Q1012","temp":26,"dewp":23,"wdir":80,"wspd":8,"visib":"6+","altim":1012,"clouds":[{"cover":"SCT","base":2000},{"cover":"FEW","base":2500}],"obsTime":1774994400},"SBSJ":{"icaoId":"SBSJ","flightCategory":"IFR","rawOb":"METAR SBSJ 312200Z COR VRB01KT 5000 -TSRA BR BKN009 BKN030 FEW040CB BKN100 19/19 Q1014 RETS","temp":19,"dewp":19,"wdir":"VRB","wspd":1,"visib":3.11,"altim":1014,"clouds":[{"cover":"BKN","base":900},{"cover":"BKN","base":3000},{"cover":"FEW","base":4000},{"cover":"BKN","base":10000}],"obsTime":1774994400},"SBOI":{"icaoId":"SBOI","flightCategory":"VFR","rawOb":"METAR SBOI 312200Z AUTO 00000KT 9999 SCT017 SCT024 24/23 Q1009","temp":24,"dewp":23,"wdir":0,"wspd":0,"visib":"6+","altim":1009,"clouds":[{"cover":"SCT","base":1700},{"cover":"SCT","base":2400}],"obsTime":1774994400},"SBTT":{"icaoId":"SBTT","flightCategory":"VFR","rawOb":"METAR SBTT 312200Z 13004KT 9999 SCT024 BKN040 OVC100 26/23 Q1008","temp":26,"dewp":23,"wdir":130,"wspd":4,"visib":"6+","altim":1008,"clouds":[{"cover":"SCT","base":2400},{"cover":"BKN","base":4000},{"cover":"OVC","base":10000}],"obsTime":1774994400},"SBCO":{"icaoId":"SBCO","flightCategory":"VFR","rawOb":"METAR SBCO 312200Z 11015KT CAVOK 24/19 Q1010","temp":24,"dewp":19,"wdir":110,"wspd":15,"visib":"6+","altim":1010,"clouds":[],"obsTime":1774994400},"SBPL":{"icaoId":"SBPL","flightCategory":"VFR","rawOb":"METAR SBPL 312200Z 11004KT 9999 VCTS FEW030 FEW030CB 27/21 Q1010","temp":27,"dewp":21,"wdir":110,"wspd":4,"visib":"6+","altim":1010,"clouds":[{"cover":"FEW","base":3000},{"cover":"FEW","base":3000}],"obsTime":1774994400},"SBPS":{"icaoId":"SBPS","flightCategory":"VFR","rawOb":"METAR SBPS 312200Z 08007KT 9999 SCT025 26/23 Q1012","temp":26,"dewp":23,"wdir":80,"wspd":7,"visib":"6+","altim":1012,"clouds":[{"cover":"SCT","base":2500}],"obsTime":1774994400},"SBAX":{"icaoId":"SBAX","flightCategory":"VFR","rawOb":"METAR SBAX 312200Z 13010KT CAVOK 22/16 Q1014","temp":22,"dewp":16,"wdir":130,"wspd":10,"visib":"6+","altim":1014,"clouds":[],"obsTime":1774994400},"SBDN":{"icaoId":"SBDN","flightCategory":"VFR","rawOb":"METAR SBDN 312200Z 07004KT 9999 VCSH VCTS FEW049 FEW060CB 28/19 Q1009","temp":28,"dewp":19,"wdir":70,"wspd":4,"visib":"6+","altim":1009,"clouds":[{"cover":"FEW","base":4900},{"cover":"FEW","base":6000}],"obsTime":1774994400},"SBSC":{"icaoId":"SBSC","flightCategory":"MVFR","rawOb":"METAR SBSC 312200Z 02004KT 5000 BR FEW008 BKN015 OVC060 22/22 Q1012","temp":22,"dewp":22,"wdir":20,"wspd":4,"visib":3.11,"altim":1012,"clouds":[{"cover":"FEW","base":800},{"cover":"BKN","base":1500},{"cover":"OVC","base":6000}],"obsTime":1774994400},"SBBU":{"icaoId":"SBBU","flightCategory":"VFR","rawOb":"METAR SBBU 312200Z 07003KT CAVOK 27/21 Q1012","temp":27,"dewp":21,"wdir":70,"wspd":3,"visib":"6+","altim":1012,"clouds":[],"obsTime":1774994400},"SBES":{"icaoId":"SBES","flightCategory":"VFR","rawOb":"METAR SBES 312200Z 00000KT 9999 -RA FEW030 BKN060 20/// Q1013 RETS","temp":null,"dewp":null,"wdir":0,"wspd":0,"visib":"6+","altim":1013,"clouds":[{"cover":"FEW","base":3000},{"cover":"BKN","base":6000}],"obsTime":1774994400},"SBSM":{"icaoId":"SBSM","flightCategory":"VFR","rawOb":"METAR SBSM 312200Z 12004KT CAVOK 26/21 Q1009","temp":26,"dewp":21,"wdir":120,"wspd":4,"visib":"6+","altim":1009,"clouds":[],"obsTime":1774994400},"SBAR":{"icaoId":"SBAR","flightCategory":"VFR","rawOb":"METAR SBAR 312200Z 12009KT 9999 SCT022 29/23 Q1010","temp":29,"dewp":23,"wdir":120,"wspd":9,"visib":"6+","altim":1010,"clouds":[{"cover":"SCT","base":2200}],"obsTime":1774994400},"SBSR":{"icaoId":"SBSR","flightCategory":"VFR","rawOb":"METAR SBSR 312200Z 18002KT 9999 SCT035 FEW050TCU BKN080 24/20 Q1011","temp":24,"dewp":20,"wdir":180,"wspd":2,"visib":"6+","altim":1011,"clouds":[{"cover":"SCT","base":3500},{"cover":"FEW","base":5000},{"cover":"BKN","base":8000}],"obsTime":1774994400},"SBKG":{"icaoId":"SBKG","flightCategory":"VFR","rawOb":"METAR SBKG 312200Z 11010KT 9999 SCT017 SCT020 24/23 Q1013","temp":24,"dewp":23,"wdir":110,"wspd":10,"visib":"6+","altim":1013,"clouds":[{"cover":"SCT","base":1700},{"cover":"SCT","base":2000}],"obsTime":1774994400},"SBBH":{"icaoId":"SBBH","flightCategory":"MVFR","rawOb":"METAR SBBH 312200Z 29007KT 6000 -TSRA SCT030 SCT040 FEW045CB 19/18 Q1015","temp":19,"dewp":18,"wdir":290,"wspd":7,"visib":3.73,"altim":1015,"clouds":[{"cover":"SCT","base":3000},{"cover":"SCT","base":4000},{"cover":"FEW","base":4500}],"obsTime":1774994400},"SBIP":{"icaoId":"SBIP","flightCategory":"VFR","rawOb":"METAR SBIP 312200Z AUTO VRB01KT CAVOK 23/21 Q1012","temp":23,"dewp":21,"wdir":"VRB","wspd":1,"visib":"6+","altim":1012,"clouds":[],"obsTime":1774994400},"SBVH":{"icaoId":"SBVH","flightCategory":"VFR","rawOb":"METAR SBVH 312200Z 29003KT 9999 FEW035 26/22 Q1009","temp":26,"dewp":22,"wdir":290,"wspd":3,"visib":"6+","altim":1009,"clouds":[{"cover":"FEW","base":3500}],"obsTime":1774994400},"SBTF":{"icaoId":"SBTF","flightCategory":"VFR","rawOb":"METAR SBTF 312200Z 34010KT 9999 SCT008 SCT030 26/24 Q1008","temp":26,"dewp":24,"wdir":340,"wspd":10,"visib":"6+","altim":1008,"clouds":[{"cover":"SCT","base":800},{"cover":"SCT","base":3000}],"obsTime":1774994400},"SBCA":{"icaoId":"SBCA","flightCategory":"MVFR","rawOb":"METAR SBCA 312200Z 26007KT 8000 -TSRA SCT005 SCT020 FEW040CB 20/17 Q1014","temp":20,"dewp":17,"wdir":260,"wspd":7,"visib":4.97,"altim":1014,"clouds":[{"cover":"SCT","base":500},{"cover":"SCT","base":2000},{"cover":"FEW","base":4000}],"obsTime":1774994400},"SBUY":{"icaoId":"SBUY","flightCategory":"VFR","rawOb":"METAR SBUY 312200Z 02004KT 9999 -RA SCT025 FEW030TCU BKN070 24/23 Q1007","temp":24,"dewp":23,"wdir":20,"wspd":4,"visib":"6+","altim":1007,"clouds":[{"cover":"SCT","base":2500},{"cover":"FEW","base":3000},{"cover":"BKN","base":7000}],"obsTime":1774994400},"SBPB":{"icaoId":"SBPB","flightCategory":"VFR","rawOb":"SPECI SBPB 312145Z 11003KT 9999 SCT016 SCT090 28/25 Q1008","temp":28,"dewp":25,"wdir":110,"wspd":3,"visib":"6+","altim":1008,"clouds":[{"cover":"SCT","base":1600},{"cover":"SCT","base":9000}],"obsTime":1774993500},"SBCJ":{"icaoId":"SBCJ","flightCategory":"VFR","rawOb":"SPECI SBCJ 312130Z 00000KT 9999 FEW017 23/22 Q1013","temp":23,"dewp":22,"wdir":0,"wspd":0,"visib":"6+","altim":1013,"clouds":[{"cover":"FEW","base":1700}],"obsTime":1774992600},"SBJP":{"icaoId":"SBJP","flightCategory":"VFR","rawOb":"METAR SBJP 312200Z 10007KT 9999 -RA SCT018 FEW025TCU BKN070 26/25 Q1010","temp":26,"dewp":25,"wdir":100,"wspd":7,"visib":"6+","altim":1010,"clouds":[{"cover":"SCT","base":1800},{"cover":"FEW","base":2500},{"cover":"BKN","base":7000}],"obsTime":1774994400},"SBAN":{"icaoId":"SBAN","flightCategory":"VFR","rawOb":"METAR SBAN 312200Z 36003KT 9999 FEW030 FEW040TCU SCT100 21/18 Q1015","temp":21,"dewp":18,"wdir":360,"wspd":3,"visib":"6+","altim":1015,"clouds":[{"cover":"FEW","base":3000},{"cover":"FEW","base":4000},{"cover":"SCT","base":10000}],"obsTime":1774994400},"SBJV":{"icaoId":"SBJV","flightCategory":"MVFR","rawOb":"METAR SBJV 312200Z 33003KT 9999 SCT015 BKN030 23/22 Q1012","temp":23,"dewp":22,"wdir":330,"wspd":3,"visib":"6+","altim":1012,"clouds":[{"cover":"SCT","base":1500},{"cover":"BKN","base":3000}],"obsTime":1774994400},"SBLE":{"icaoId":"SBLE","flightCategory":"VFR","rawOb":"METAR SBLE 312200Z AUTO 05003KT CAVOK ///// Q////","temp":null,"dewp":null,"wdir":50,"wspd":3,"visib":"6+","altim":null,"clouds":[],"obsTime":1774994400},"SBAF":{"icaoId":"SBAF","flightCategory":"MVFR","rawOb":"METAR SBAF 312200Z 06003KT 8000 FEW008 BKN015 BKN070 23/23 Q1012","temp":23,"dewp":23,"wdir":60,"wspd":3,"visib":4.97,"altim":1012,"clouds":[{"cover":"FEW","base":800},{"cover":"BKN","base":1500},{"cover":"BKN","base":7000}],"obsTime":1774994400},"SBJR":{"icaoId":"SBJR","flightCategory":"MVFR","rawOb":"METAR SBJR 312200Z 01002KT 8000 FEW015 BKN035 BKN070 23/22 Q1012","temp":23,"dewp":22,"wdir":10,"wspd":2,"visib":4.97,"altim":1012,"clouds":[{"cover":"FEW","base":1500},{"cover":"BKN","base":3500},{"cover":"BKN","base":7000}],"obsTime":1774994400},"SBLS":{"icaoId":"SBLS","flightCategory":"VFR","rawOb":"METAR SBLS 312200Z 25009KT 190V260 9999 TS VCSH SCT040 FEW045CB BKN090 19/18 Q1015","temp":19,"dewp":18,"wdir":250,"wspd":9,"visib":"6+","altim":1015,"clouds":[{"cover":"SCT","base":4000},{"cover":"FEW","base":4500},{"cover":"BKN","base":9000}],"obsTime":1774994400},"SBMT":{"icaoId":"SBMT","flightCategory":"MVFR","rawOb":"METAR SBMT 312200Z 15005KT 100V180 9999 SCT015 BKN020 20/17 Q1015","temp":20,"dewp":17,"wdir":150,"wspd":5,"visib":"6+","altim":1015,"clouds":[{"cover":"SCT","base":1500},{"cover":"BKN","base":2000}],"obsTime":1774994400},"SBTA":{"icaoId":"SBTA","flightCategory":"MVFR","rawOb":"METAR SBTA 312200Z 04006KT 8000 -TSRA SCT015 BKN025 FEW040CB BKN080 21/20 Q1014 RETS","temp":21,"dewp":20,"wdir":40,"wspd":6,"visib":4.97,"altim":1014,"clouds":[{"cover":"SCT","base":1500},{"cover":"BKN","base":2500},{"cover":"FEW","base":4000},{"cover":"BKN","base":8000}],"obsTime":1774994400},"SBGW":{"icaoId":"SBGW","flightCategory":"MVFR","rawOb":"METAR SBGW 312200Z 02002KT 8000 SCT030 BKN070 21/17 Q1013","temp":21,"dewp":17,"wdir":20,"wspd":2,"visib":4.97,"altim":1013,"clouds":[{"cover":"SCT","base":3000},{"cover":"BKN","base":7000}],"obsTime":1774994400}}}