{"updated":1776614288,"count":85,"data":{"SBRB":{"icaoId":"SBRB","flightCategory":"IFR","rawOb":"METAR SBRB 191400Z 33005KT 8000 SCT003 BKN008 26/24 Q1012","temp":26,"dewp":24,"wdir":330,"wspd":5,"visib":4.97,"altim":1012,"clouds":[{"cover":"SCT","base":300},{"cover":"BKN","base":800}],"obsTime":1776607200},"SBPV":{"icaoId":"SBPV","flightCategory":"VFR","rawOb":"METAR SBPV 191400Z 36003KT 9999 FEW010 SCT030 BKN070 26/24 Q1012","temp":26,"dewp":24,"wdir":360,"wspd":3,"visib":"6+","altim":1012,"clouds":[{"cover":"FEW","base":1000},{"cover":"SCT","base":3000},{"cover":"BKN","base":7000}],"obsTime":1776607200},"SBVT":{"icaoId":"SBVT","flightCategory":"VFR","rawOb":"METAR SBVT 191400Z 25005KT CAVOK 31/22 Q1010","temp":31,"dewp":22,"wdir":250,"wspd":5,"visib":"6+","altim":1010,"clouds":[],"obsTime":1776607200},"SBBE":{"icaoId":"SBBE","flightCategory":"IFR","rawOb":"METAR SBBE 191400Z 24004KT 4000 -TSRA SCT010 BKN020 FEW025CB 24/24 Q1012 RERA","temp":24,"dewp":24,"wdir":240,"wspd":4,"visib":2.49,"altim":1012,"clouds":[{"cover":"SCT","base":1000},{"cover":"BKN","base":2000},{"cover":"FEW","base":2500}],"obsTime":1776607200},"SBBR":{"icaoId":"SBBR","flightCategory":"VFR","rawOb":"METAR SBBR 191400Z 06006KT 010V090 CAVOK 27/14 Q1018","temp":27,"dewp":14,"wdir":60,"wspd":6,"visib":"6+","altim":1018,"clouds":[],"obsTime":1776607200},"SBBV":{"icaoId":"SBBV","flightCategory":"VFR","rawOb":"METAR SBBV 191400Z 10006KT 9999 SCT020 FEW025TCU BKN100 29/23 Q1013","temp":29,"dewp":23,"wdir":100,"wspd":6,"visib":"6+","altim":1013,"clouds":[{"cover":"SCT","base":2000},{"cover":"FEW","base":2500},{"cover":"BKN","base":10000}],"obsTime":1776607200},"SBCB":{"icaoId":"SBCB","flightCategory":"VFR","rawOb":"METAR SBCB 191400Z 26016KT 9999 FEW025 27/23 Q1012","temp":27,"dewp":23,"wdir":260,"wspd":16,"visib":"6+","altim":1012,"clouds":[{"cover":"FEW","base":2500}],"obsTime":1776607200},"SBCF":{"icaoId":"SBCF","flightCategory":"VFR","rawOb":"METAR SBCF 191400Z 25005KT 9999 FEW025 27/17 Q1017","temp":27,"dewp":17,"wdir":250,"wspd":5,"visib":"6+","altim":1017,"clouds":[{"cover":"FEW","base":2500}],"obsTime":1776607200},"SBCG":{"icaoId":"SBCG","flightCategory":"VFR","rawOb":"METAR SBCG 191400Z 01008KT CAVOK 31/21 Q1014","temp":31,"dewp":21,"wdir":10,"wspd":8,"visib":"6+","altim":1014,"clouds":[],"obsTime":1776607200},"SBCP":{"icaoId":"SBCP","flightCategory":"VFR","rawOb":"METAR SBCP 191400Z 22009KT 9999 FEW020 31/22 Q1011","temp":31,"dewp":22,"wdir":220,"wspd":9,"visib":"6+","altim":1011,"clouds":[{"cover":"FEW","base":2000}],"obsTime":1776607200},"SBCR":{"icaoId":"SBCR","flightCategory":"VFR","rawOb":"METAR SBCR 191400Z VRB04KT 9999 FEW022 30/24 Q1011","temp":30,"dewp":24,"wdir":"VRB","wspd":4,"visib":"6+","altim":1011,"clouds":[{"cover":"FEW","base":2200}],"obsTime":1776607200},"SBCT":{"icaoId":"SBCT","flightCategory":"VFR","rawOb":"METAR SBCT 191400Z 07005KT 9999 SCT020 22/16 Q1018","temp":22,"dewp":16,"wdir":70,"wspd":5,"visib":"6+","altim":1018,"clouds":[{"cover":"SCT","base":2000}],"obsTime":1776607200},"SBCZ":{"icaoId":"SBCZ","flightCategory":"VFR","rawOb":"METAR SBCZ 191400Z 36003KT 9999 SCT010 OVC100 26/24 Q1012","temp":26,"dewp":24,"wdir":360,"wspd":3,"visib":"6+","altim":1012,"clouds":[{"cover":"SCT","base":1000},{"cover":"OVC","base":10000}],"obsTime":1776607200},"SBEG":{"icaoId":"SBEG","flightCategory":"VFR","rawOb":"METAR SBEG 191400Z 00000KT 9999 FEW012 29/23 Q1013","temp":29,"dewp":23,"wdir":0,"wspd":0,"visib":"6+","altim":1013,"clouds":[{"cover":"FEW","base":1200}],"obsTime":1776607200},"SBFI":{"icaoId":"SBFI","flightCategory":"VFR","rawOb":"METAR SBFI 191400Z 11005KT 9999 SCT040 26/21 Q1013","temp":26,"dewp":21,"wdir":110,"wspd":5,"visib":"6+","altim":1013,"clouds":[{"cover":"SCT","base":4000}],"obsTime":1776607200},"SBFL":{"icaoId":"SBFL","flightCategory":"VFR","rawOb":"METAR SBFL 191400Z 34002KT 9999 FEW020 27/18 Q1013","temp":27,"dewp":18,"wdir":340,"wspd":2,"visib":"6+","altim":1013,"clouds":[{"cover":"FEW","base":2000}],"obsTime":1776607200},"SBFZ":{"icaoId":"SBFZ","flightCategory":"VFR","rawOb":"METAR SBFZ 191400Z 21005KT 180V240 9999 SCT015 27/24 Q1010","temp":27,"dewp":24,"wdir":210,"wspd":5,"visib":"6+","altim":1010,"clouds":[{"cover":"SCT","base":1500}],"obsTime":1776607200},"SBGL":{"icaoId":"SBGL","flightCategory":"VFR","rawOb":"METAR SBGL 191400Z 22006KT 180V260 9999 SCT030 BKN050 30/20 Q1012","temp":30,"dewp":20,"wdir":220,"wspd":6,"visib":"6+","altim":1012,"clouds":[{"cover":"SCT","base":3000},{"cover":"BKN","base":5000}],"obsTime":1776607200},"SBGO":{"icaoId":"SBGO","flightCategory":"VFR","rawOb":"METAR SBGO 191400Z VRB04KT 9999 FEW030 28/20 Q1016","temp":28,"dewp":20,"wdir":"VRB","wspd":4,"visib":"6+","altim":1016,"clouds":[{"cover":"FEW","base":3000}],"obsTime":1776607200},"SBGR":{"icaoId":"SBGR","flightCategory":"VFR","rawOb":"METAR SBGR 191400Z 11003KT CAVOK 25/13 Q1017","temp":25,"dewp":13,"wdir":110,"wspd":3,"visib":"6+","altim":1017,"clouds":[],"obsTime":1776607200},"SBHT":{"icaoId":"SBHT","flightCategory":"VFR","rawOb":"METAR SBHT 191400Z 24002KT CAVOK 26/24 Q1013","temp":26,"dewp":24,"wdir":240,"wspd":2,"visib":"6+","altim":1013,"clouds":[],"obsTime":1776607200},"SBIL":{"icaoId":"SBIL","flightCategory":"VFR","rawOb":"METAR SBIL 191400Z 10006KT 9999 FEW023 31/24 Q1012","temp":31,"dewp":24,"wdir":100,"wspd":6,"visib":"6+","altim":1012,"clouds":[{"cover":"FEW","base":2300}],"obsTime":1776607200},"SBJU":{"icaoId":"SBJU","flightCategory":"MVFR","rawOb":"METAR SBJU 191400Z 00000KT 9999 BKN020 27/23 Q1013","temp":27,"dewp":23,"wdir":0,"wspd":0,"visib":"6+","altim":1013,"clouds":[{"cover":"BKN","base":2000}],"obsTime":1776607200},"SBKP":{"icaoId":"SBKP","flightCategory":"VFR","rawOb":"METAR SBKP 191400Z 13010KT 090V150 CAVOK 27/11 Q1016","temp":27,"dewp":11,"wdir":130,"wspd":10,"visib":"6+","altim":1016,"clouds":[],"obsTime":1776607200},"SBLO":{"icaoId":"SBLO","flightCategory":"VFR","rawOb":"METAR SBLO 191400Z 09005KT CAVOK 26/20 Q1015","temp":26,"dewp":20,"wdir":90,"wspd":5,"visib":"6+","altim":1015,"clouds":[],"obsTime":1776607200},"SBMA":{"icaoId":"SBMA","flightCategory":"MVFR","rawOb":"METAR SBMA 191400Z 23007KT 9999 BKN015 OVC080 27/24 Q1013","temp":27,"dewp":24,"wdir":230,"wspd":7,"visib":"6+","altim":1013,"clouds":[{"cover":"BKN","base":1500},{"cover":"OVC","base":8000}],"obsTime":1776607200},"SBME":{"icaoId":"SBME","flightCategory":"VFR","rawOb":"METAR SBME 191400Z 17009KT 130V190 9999 FEW030 29/23 Q1011","temp":29,"dewp":23,"wdir":170,"wspd":9,"visib":"6+","altim":1011,"clouds":[{"cover":"FEW","base":3000}],"obsTime":1776607200},"SBMG":{"icaoId":"SBMG","flightCategory":"VFR","rawOb":"METAR SBMG 191400Z 17003KT 100V240 9999 FEW030 27/21 Q1014","temp":27,"dewp":21,"wdir":170,"wspd":3,"visib":"6+","altim":1014,"clouds":[{"cover":"FEW","base":3000}],"obsTime":1776607200},"SBMK":{"icaoId":"SBMK","flightCategory":"VFR","rawOb":"METAR SBMK 191400Z 36005KT 9999 FEW035 28/18 Q1015","temp":28,"dewp":18,"wdir":360,"wspd":5,"visib":"6+","altim":1015,"clouds":[{"cover":"FEW","base":3500}],"obsTime":1776607200},"SBMO":{"icaoId":"SBMO","flightCategory":"VFR","rawOb":"METAR SBMO 191400Z 02003KT 9999 FEW035 30/22 Q1011","temp":30,"dewp":22,"wdir":20,"wspd":3,"visib":"6+","altim":1011,"clouds":[{"cover":"FEW","base":3500}],"obsTime":1776607200},"SBMQ":{"icaoId":"SBMQ","flightCategory":"VFR","rawOb":"METAR SBMQ 191400Z 29005KT 9999 -RA SCT008 27/25 Q1012","temp":27,"dewp":25,"wdir":290,"wspd":5,"visib":"6+","altim":1012,"clouds":[{"cover":"SCT","base":800}],"obsTime":1776607200},"SBNT":{"icaoId":"SBNT","flightCategory":"MVFR","rawOb":"METAR SBNT 191400Z 16004KT 130V190 9999 FEW012 BKN017 BKN040 27/25 Q1010","temp":27,"dewp":25,"wdir":160,"wspd":4,"visib":"6+","altim":1010,"clouds":[{"cover":"FEW","base":1200},{"cover":"BKN","base":1700},{"cover":"BKN","base":4000}],"obsTime":1776607200},"SBPA":{"icaoId":"SBPA","flightCategory":"VFR","rawOb":"METAR SBPA 191400Z 28005KT 220V320 CAVOK 23/17 Q1014","temp":23,"dewp":17,"wdir":280,"wspd":5,"visib":"6+","altim":1014,"clouds":[],"obsTime":1776607200},"SBPJ":{"icaoId":"SBPJ","flightCategory":"VFR","rawOb":"METAR SBPJ 191400Z 23006KT 9999 SCT017 BKN100 27/23 Q1013","temp":27,"dewp":23,"wdir":230,"wspd":6,"visib":"6+","altim":1013,"clouds":[{"cover":"SCT","base":1700},{"cover":"BKN","base":10000}],"obsTime":1776607200},"SBRF":{"icaoId":"SBRF","flightCategory":"VFR","rawOb":"METAR SBRF 191400Z 15009KT 9999 SCT021 30/24 Q1010","temp":30,"dewp":24,"wdir":150,"wspd":9,"visib":"6+","altim":1010,"clouds":[{"cover":"SCT","base":2100}],"obsTime":1776607200},"SBSG":{"icaoId":"SBSG","flightCategory":"IFR","rawOb":"METAR SBSG 191400Z 16005KT 110V200 9999 BKN009 BKN023 BKN100 27/25 Q1010","temp":27,"dewp":25,"wdir":160,"wspd":5,"visib":"6+","altim":1010,"clouds":[{"cover":"BKN","base":900},{"cover":"BKN","base":2300},{"cover":"BKN","base":10000}],"obsTime":1776607200},"SBSL":{"icaoId":"SBSL","flightCategory":"MVFR","rawOb":"METAR SBSL 191400Z 10010KT 9999 SCT008 BKN015 FEW025TCU BKN080 26/25 Q1012","temp":26,"dewp":25,"wdir":100,"wspd":10,"visib":"6+","altim":1012,"clouds":[{"cover":"SCT","base":800},{"cover":"BKN","base":1500},{"cover":"FEW","base":2500},{"cover":"BKN","base":8000}],"obsTime":1776607200},"SBSN":{"icaoId":"SBSN","flightCategory":"MVFR","rawOb":"METAR SBSN 191400Z 13003KT 9999 BKN015 BKN100 28/24 Q1012","temp":28,"dewp":24,"wdir":130,"wspd":3,"visib":"6+","altim":1012,"clouds":[{"cover":"BKN","base":1500},{"cover":"BKN","base":10000}],"obsTime":1776607200},"SBSP":{"icaoId":"SBSP","flightCategory":"VFR","rawOb":"METAR SBSP 191400Z 16004KT CAVOK 24/13 Q1018","temp":24,"dewp":13,"wdir":160,"wspd":4,"visib":"6+","altim":1018,"clouds":[],"obsTime":1776607200},"SBSV":{"icaoId":"SBSV","flightCategory":"MVFR","rawOb":"METAR SBSV 191400Z 10007KT 070V130 9999 VCSH BKN021 FEW023TCU 31/24 Q1011","temp":31,"dewp":24,"wdir":100,"wspd":7,"visib":"6+","altim":1011,"clouds":[{"cover":"BKN","base":2100},{"cover":"FEW","base":2300}],"obsTime":1776607200},"SBTE":{"icaoId":"SBTE","flightCategory":"MVFR","rawOb":"METAR SBTE 191400Z 26003KT 9999 BKN018 BKN080 28/24 Q1011","temp":28,"dewp":24,"wdir":260,"wspd":3,"visib":"6+","altim":1011,"clouds":[{"cover":"BKN","base":1800},{"cover":"BKN","base":8000}],"obsTime":1776607200},"SBUR":{"icaoId":"SBUR","flightCategory":"VFR","rawOb":"METAR SBUR 191400Z 33003KT 9999 FEW040 29/17 Q1016","temp":29,"dewp":17,"wdir":330,"wspd":3,"visib":"6+","altim":1016,"clouds":[{"cover":"FEW","base":4000}],"obsTime":1776607200},"SBAT":{"icaoId":"SBAT","flightCategory":"MVFR","rawOb":"METAR SBAT 191400Z 00000KT 9999 -RA SCT005 BKN015 BKN090 26/26 Q1014","temp":26,"dewp":26,"wdir":0,"wspd":0,"visib":"6+","altim":1014,"clouds":[{"cover":"SCT","base":500},{"cover":"BKN","base":1500},{"cover":"BKN","base":9000}],"obsTime":1776607200},"SBUL":{"icaoId":"SBUL","flightCategory":"VFR","rawOb":"METAR SBUL 191400Z 16003KT 9999 FEW035 28/18 Q1017","temp":28,"dewp":18,"wdir":160,"wspd":3,"visib":"6+","altim":1017,"clouds":[{"cover":"FEW","base":3500}],"obsTime":1776607200},"SBOI":{"icaoId":"SBOI","flightCategory":"MVFR","rawOb":"METAR SBOI 191400Z AUTO VRB02KT 8000 +RA FEW006 BKN019 BKN040 25/24 Q1012","temp":25,"dewp":24,"wdir":"VRB","wspd":2,"visib":4.97,"altim":1012,"clouds":[{"cover":"FEW","base":600},{"cover":"BKN","base":1900},{"cover":"BKN","base":4000}],"obsTime":1776607200},"SBAR":{"icaoId":"SBAR","flightCategory":"VFR","rawOb":"METAR SBAR 191400Z 06008KT 9999 SCT020 30/24 Q1011","temp":30,"dewp":24,"wdir":60,"wspd":8,"visib":"6+","altim":1011,"clouds":[{"cover":"SCT","base":2000}],"obsTime":1776607200},"SBCJ":{"icaoId":"SBCJ","flightCategory":"IFR","rawOb":"METAR SBCJ 191400Z 07004KT 2000 -RA BR SCT010 OVC080 20/20 Q1017","temp":20,"dewp":20,"wdir":70,"wspd":4,"visib":1.24,"altim":1017,"clouds":[{"cover":"SCT","base":1000},{"cover":"OVC","base":8000}],"obsTime":1776607200},"SBPB":{"icaoId":"SBPB","flightCategory":"MVFR","rawOb":"METAR SBPB 191400Z 11010KT 9999 BKN020 26/23 Q1011","temp":26,"dewp":23,"wdir":110,"wspd":10,"visib":"6+","altim":1011,"clouds":[{"cover":"BKN","base":2000}],"obsTime":1776607200},"SBCO":{"icaoId":"SBCO","flightCategory":"VFR","rawOb":"METAR SBCO 191400Z 31006KT CAVOK 21/15 Q1015","temp":21,"dewp":15,"wdir":310,"wspd":6,"visib":"6+","altim":1015,"clouds":[],"obsTime":1776607200},"SBPL":{"icaoId":"SBPL","flightCategory":"VFR","rawOb":"METAR SBPL 191400Z 10007KT 9999 SCT030 31/21 Q1013","temp":31,"dewp":21,"wdir":100,"wspd":7,"visib":"6+","altim":1013,"clouds":[{"cover":"SCT","base":3000}],"obsTime":1776607200},"SBPP":{"icaoId":"SBPP","flightCategory":"VFR","rawOb":"METAR SBPP 191400Z 04009KT CAVOK 28/23 Q1015","temp":28,"dewp":23,"wdir":40,"wspd":9,"visib":"6+","altim":1015,"clouds":[],"obsTime":1776607200},"SBBU":{"icaoId":"SBBU","flightCategory":"VFR","rawOb":"METAR SBBU 191400Z 10005KT CAVOK 28/21 Q1015","temp":28,"dewp":21,"wdir":100,"wspd":5,"visib":"6+","altim":1015,"clouds":[],"obsTime":1776607200},"SBDN":{"icaoId":"SBDN","flightCategory":"VFR","rawOb":"METAR SBDN 191400Z 09002KT CAVOK 31/20 Q1014","temp":31,"dewp":20,"wdir":90,"wspd":2,"visib":"6+","altim":1014,"clouds":[],"obsTime":1776607200},"SBPS":{"icaoId":"SBPS","flightCategory":"VFR","rawOb":"METAR SBPS 191400Z 07006KT 9999 SCT020 30/24 Q1012","temp":30,"dewp":24,"wdir":70,"wspd":6,"visib":"6+","altim":1012,"clouds":[{"cover":"SCT","base":2000}],"obsTime":1776607200},"SBBH":{"icaoId":"SBBH","flightCategory":"VFR","rawOb":"METAR SBBH 191400Z 26005KT 9999 FEW035 SCT090 28/16 Q1016","temp":28,"dewp":16,"wdir":260,"wspd":5,"visib":"6+","altim":1016,"clouds":[{"cover":"FEW","base":3500},{"cover":"SCT","base":9000}],"obsTime":1776607200},"SBSC":{"icaoId":"SBSC","flightCategory":"VFR","rawOb":"METAR SBSC 191400Z 20009KT 9999 FEW040 28/22 Q1013","temp":28,"dewp":22,"wdir":200,"wspd":9,"visib":"6+","altim":1013,"clouds":[{"cover":"FEW","base":4000}],"obsTime":1776607200},"SBSJ":{"icaoId":"SBSJ","flightCategory":"VFR","rawOb":"METAR SBSJ 191400Z 17003KT CAVOK 25/15 Q1016","temp":25,"dewp":15,"wdir":170,"wspd":3,"visib":"6+","altim":1016,"clouds":[],"obsTime":1776607200},"SBES":{"icaoId":"SBES","flightCategory":"VFR","rawOb":"METAR SBES 191400Z 23012G22KT 100V270 9999 FEW020 27/// Q1012","temp":null,"dewp":null,"wdir":230,"wspd":12,"visib":"6+","altim":1012,"clouds":[{"cover":"FEW","base":2000}],"obsTime":1776607200},"SBSM":{"icaoId":"SBSM","flightCategory":"VFR","rawOb":"METAR SBSM 191400Z 11003KT 050V220 CAVOK 23/17 Q1015","temp":23,"dewp":17,"wdir":110,"wspd":3,"visib":"6+","altim":1015,"clouds":[],"obsTime":1776607200},"SBCA":{"icaoId":"SBCA","flightCategory":"MVFR","rawOb":"METAR SBCA 191400Z 36006KT 280V040 9999 BKN020 FEW025TCU 26/18 Q1017","temp":26,"dewp":18,"wdir":360,"wspd":6,"visib":"6+","altim":1017,"clouds":[{"cover":"BKN","base":2000},{"cover":"FEW","base":2500}],"obsTime":1776607200},"SBGM":{"icaoId":"SBGM","flightCategory":"VFR","rawOb":"METAR SBGM 191400Z 33004KT 280V030 9999 FEW020 27/22 Q1011","temp":27,"dewp":22,"wdir":330,"wspd":4,"visib":"6+","altim":1011,"clouds":[{"cover":"FEW","base":2000}],"obsTime":1776607200},"SBSR":{"icaoId":"SBSR","flightCategory":"VFR","rawOb":"METAR SBSR 191400Z VRB02KT 9999 FEW040 30/18 Q1014","temp":30,"dewp":18,"wdir":"VRB","wspd":2,"visib":"6+","altim":1014,"clouds":[{"cover":"FEW","base":4000}],"obsTime":1776607200},"SBAX":{"icaoId":"SBAX","flightCategory":"VFR","rawOb":"METAR SBAX 191400Z AUTO VRB03KT CAVOK 27/16 Q1017","temp":27,"dewp":16,"wdir":"VRB","wspd":3,"visib":"6+","altim":1017,"clouds":[],"obsTime":1776607200},"SBTF":{"icaoId":"SBTF","flightCategory":"VFR","rawOb":"METAR SBTF 191400Z 10003KT 9999 FEW009 OVC100 26/25 Q1012","temp":26,"dewp":25,"wdir":100,"wspd":3,"visib":"6+","altim":1012,"clouds":[{"cover":"FEW","base":900},{"cover":"OVC","base":10000}],"obsTime":1776607200},"SBIP":{"icaoId":"SBIP","flightCategory":"VFR","rawOb":"METAR SBIP 191400Z AUTO VRB02KT CAVOK 29/19 Q1012","temp":29,"dewp":19,"wdir":"VRB","wspd":2,"visib":"6+","altim":1012,"clouds":[],"obsTime":1776607200},"SBTT":{"icaoId":"SBTT","flightCategory":"VFR","rawOb":"METAR SBTT 191400Z 01005KT 330V040 9999 FEW010 BKN090 25/21 Q1013","temp":25,"dewp":21,"wdir":10,"wspd":5,"visib":"6+","altim":1013,"clouds":[{"cover":"FEW","base":1000},{"cover":"BKN","base":9000}],"obsTime":1776607200},"SBBQ":{"icaoId":"SBBQ","flightCategory":"VFR","rawOb":"METAR SBBQ 191400Z 27005KT 210V320 9999 SCT025 25/16 Q1019","temp":25,"dewp":16,"wdir":270,"wspd":5,"visib":"6+","altim":1019,"clouds":[{"cover":"SCT","base":2500}],"obsTime":1776607200},"SBUY":{"icaoId":"SBUY","flightCategory":"IFR","rawOb":"METAR SBUY 191400Z 00000KT 4000 -RA FEW006 SCT020 BKN090 23/23 Q1012","temp":23,"dewp":23,"wdir":0,"wspd":0,"visib":2.49,"altim":1012,"clouds":[{"cover":"FEW","base":600},{"cover":"SCT","base":2000},{"cover":"BKN","base":9000}],"obsTime":1776607200},"SBVH":{"icaoId":"SBVH","flightCategory":"VFR","rawOb":"METAR SBVH 191400Z 31008KT 9999 FEW007 SCT023 BKN090 23/22 Q1015","temp":23,"dewp":22,"wdir":310,"wspd":8,"visib":"6+","altim":1015,"clouds":[{"cover":"FEW","base":700},{"cover":"SCT","base":2300},{"cover":"BKN","base":9000}],"obsTime":1776607200},"SBKG":{"icaoId":"SBKG","flightCategory":"MVFR","rawOb":"METAR SBKG 191400Z 10006KT 9999 BKN020 BKN070 28/22 Q1013","temp":28,"dewp":22,"wdir":100,"wspd":6,"visib":"6+","altim":1013,"clouds":[{"cover":"BKN","base":2000},{"cover":"BKN","base":7000}],"obsTime":1776607200},"SBCC":{"icaoId":"SBCC","flightCategory":"MVFR","rawOb":"METAR SBCC 191400Z 30004KT 230V350 9999 BKN020 BKN080 26/22 Q1015","temp":26,"dewp":22,"wdir":300,"wspd":4,"visib":"6+","altim":1015,"clouds":[{"cover":"BKN","base":2000},{"cover":"BKN","base":8000}],"obsTime":1776607200},"SBGW":{"icaoId":"SBGW","flightCategory":"VFR","rawOb":"METAR SBGW 191400Z 23005KT 9999 SCT020 27/17 Q1015","temp":27,"dewp":17,"wdir":230,"wspd":5,"visib":"6+","altim":1015,"clouds":[{"cover":"SCT","base":2000}],"obsTime":1776607200},"SBJR":{"icaoId":"SBJR","flightCategory":"VFR","rawOb":"METAR SBJR 191400Z 22008KT 9999 FEW025 SCT050 29/23 Q1013","temp":29,"dewp":23,"wdir":220,"wspd":8,"visib":"6+","altim":1013,"clouds":[{"cover":"FEW","base":2500},{"cover":"SCT","base":5000}],"obsTime":1776607200},"SBLS":{"icaoId":"SBLS","flightCategory":"VFR","rawOb":"METAR SBLS 191400Z VRB03KT 9999 FEW030 28/18 Q1016","temp":28,"dewp":18,"wdir":"VRB","wspd":3,"visib":"6+","altim":1016,"clouds":[{"cover":"FEW","base":3000}],"obsTime":1776607200},"SBMT":{"icaoId":"SBMT","flightCategory":"VFR","rawOb":"METAR SBMT 191400Z VRB03KT CAVOK 25/12 Q1017","temp":25,"dewp":12,"wdir":"VRB","wspd":3,"visib":"6+","altim":1017,"clouds":[],"obsTime":1776607200},"SBST":{"icaoId":"SBST","flightCategory":"VFR","rawOb":"METAR SBST 191400Z 26003KT 9999 FEW040 25/22 Q1014","temp":25,"dewp":22,"wdir":260,"wspd":3,"visib":"6+","altim":1014,"clouds":[{"cover":"FEW","base":4000}],"obsTime":1776607200},"SBTA":{"icaoId":"SBTA","flightCategory":"VFR","rawOb":"METAR SBTA 191400Z 24004KT 9999 FEW030 25/15 Q1015","temp":25,"dewp":15,"wdir":240,"wspd":4,"visib":"6+","altim":1015,"clouds":[{"cover":"FEW","base":3000}],"obsTime":1776607200},"SBJV":{"icaoId":"SBJV","flightCategory":"VFR","rawOb":"METAR SBJV 191400Z 32003KT 9999 FEW028 28/21 Q1014","temp":28,"dewp":21,"wdir":320,"wspd":3,"visib":"6+","altim":1014,"clouds":[{"cover":"FEW","base":2800}],"obsTime":1776607200},"SBAN":{"icaoId":"SBAN","flightCategory":"VFR","rawOb":"METAR SBAN 191400Z 08005KT 9999 FEW020 26/16 Q1019","temp":26,"dewp":16,"wdir":80,"wspd":5,"visib":"6+","altim":1019,"clouds":[{"cover":"FEW","base":2000}],"obsTime":1776607200},"SBLE":{"icaoId":"SBLE","flightCategory":"VFR","rawOb":"METAR SBLE 191400Z AUTO VRB02KT 9999 FEW031 26/22 Q1015","temp":26,"dewp":22,"wdir":"VRB","wspd":2,"visib":"6+","altim":1015,"clouds":[{"cover":"FEW","base":3100}],"obsTime":1776607200},"SBTC":{"icaoId":"SBTC","flightCategory":"VFR","rawOb":"METAR SBTC 191500Z 08005KT 9999 FEW020 30/23 Q1011","temp":30,"dewp":23,"wdir":80,"wspd":5,"visib":"6+","altim":1011,"clouds":[{"cover":"FEW","base":2000}],"obsTime":1776610800},"SBIH":{"icaoId":"SBIH","flightCategory":"VFR","rawOb":"METAR SBIH 191400Z 00000KT 9999 SCT016 27/24 Q1012","temp":27,"dewp":24,"wdir":0,"wspd":0,"visib":"6+","altim":1012,"clouds":[{"cover":"SCT","base":1600}],"obsTime":1776607200},"SBAF":{"icaoId":"SBAF","flightCategory":"VFR","rawOb":"METAR SBAF 191400Z VRB05KT 9999 SCT030 BKN060 29/21 Q1013","temp":29,"dewp":21,"wdir":"VRB","wspd":5,"visib":"6+","altim":1013,"clouds":[{"cover":"SCT","base":3000},{"cover":"BKN","base":6000}],"obsTime":1776607200},"SBJP":{"icaoId":"SBJP","flightCategory":"MVFR","rawOb":"METAR SBJP 191400Z 12005KT 9999 BKN020 29/25 Q1010","temp":29,"dewp":25,"wdir":120,"wspd":5,"visib":"6+","altim":1010,"clouds":[{"cover":"BKN","base":2000}],"obsTime":1776607200},"SBPF":{"icaoId":"SBPF","flightCategory":"VFR","rawOb":"METAR SBPF 191400Z 03008KT CAVOK 23/09 Q1017","temp":23,"dewp":9,"wdir":30,"wspd":8,"visib":"6+","altim":1017,"clouds":[],"obsTime":1776607200}}}