{"updated":1782431295,"count":74,"data":{"SBGL":{"icaoId":"SBGL","flightCategory":"IFR","rawOb":"METAR SBGL 252200Z 15004KT 3000 -RA BR SCT004 BKN011 OVC020 19/18 Q1025","temp":19,"dewp":18,"wdir":150,"wspd":4,"visib":1.86,"altim":1025,"clouds":[{"cover":"SCT","base":400},{"cover":"BKN","base":1100},{"cover":"OVC","base":2000}],"obsTime":1782424800},"SBSP":{"icaoId":"SBSP","flightCategory":"LIFR","rawOb":"METAR SBSP 252200Z 19007KT 160V230 7000 -RA OVC004 11/11 Q1028","temp":11,"dewp":11,"wdir":190,"wspd":7,"visib":4.35,"altim":1028,"clouds":[{"cover":"OVC","base":400}],"obsTime":1782424800},"SBMO":{"icaoId":"SBMO","flightCategory":"LIFR","rawOb":"METAR SBMO 252200Z 16005KT 5000 DZ BR BKN004 OVC007 23/23 Q1017 REDZ","temp":23,"dewp":23,"wdir":160,"wspd":5,"visib":3.11,"altim":1017,"clouds":[{"cover":"BKN","base":400},{"cover":"OVC","base":700}],"obsTime":1782424800},"SBMQ":{"icaoId":"SBMQ","flightCategory":"VFR","rawOb":"METAR SBMQ 252200Z 05004KT 9999 FEW019 29/25 Q1011","temp":29,"dewp":25,"wdir":50,"wspd":4,"visib":"6+","altim":1011,"clouds":[{"cover":"FEW","base":1900}],"obsTime":1782424800},"SBCT":{"icaoId":"SBCT","flightCategory":"VFR","rawOb":"METAR SBCT 252200Z 04007KT 9999 FEW008 09/08 Q1027","temp":9,"dewp":8,"wdir":40,"wspd":7,"visib":"6+","altim":1027,"clouds":[{"cover":"FEW","base":800}],"obsTime":1782424800},"SBNT":{"icaoId":"SBNT","flightCategory":"VFR","rawOb":"METAR SBNT 252200Z 15004KT CAVOK 25/23 Q1015","temp":25,"dewp":23,"wdir":150,"wspd":4,"visib":"6+","altim":1015,"clouds":[],"obsTime":1782424800},"SBCF":{"icaoId":"SBCF","flightCategory":"VFR","rawOb":"METAR SBCF 252200Z 13009KT CAVOK 20/15 Q1025","temp":20,"dewp":15,"wdir":130,"wspd":9,"visib":"6+","altim":1025,"clouds":[],"obsTime":1782424800},"SBPA":{"icaoId":"SBPA","flightCategory":"VFR","rawOb":"METAR SBPA 252200Z 16001KT CAVOK 10/07 Q1024","temp":10,"dewp":7,"wdir":160,"wspd":1,"visib":"6+","altim":1024,"clouds":[],"obsTime":1782424800},"SBGO":{"icaoId":"SBGO","flightCategory":"VFR","rawOb":"METAR SBGO 252200Z 14007KT 9999 FEW045 24/17 Q1021","temp":24,"dewp":17,"wdir":140,"wspd":7,"visib":"6+","altim":1021,"clouds":[{"cover":"FEW","base":4500}],"obsTime":1782424800},"SBPJ":{"icaoId":"SBPJ","flightCategory":"VFR","rawOb":"METAR SBPJ 252200Z 20002KT CAVOK 28/15 Q1014","temp":28,"dewp":15,"wdir":200,"wspd":2,"visib":"6+","altim":1014,"clouds":[],"obsTime":1782424800},"SBPV":{"icaoId":"SBPV","flightCategory":"MVFR","rawOb":"METAR SBPV 252200Z 20004KT 9999 FEW010 BKN020 23/20 Q1014","temp":23,"dewp":20,"wdir":200,"wspd":4,"visib":"6+","altim":1014,"clouds":[{"cover":"FEW","base":1000},{"cover":"BKN","base":2000}],"obsTime":1782424800},"SBCZ":{"icaoId":"SBCZ","flightCategory":"MVFR","rawOb":"METAR SBCZ 252200Z 18007KT 9999 OVC015 21/20 Q1014","temp":21,"dewp":20,"wdir":180,"wspd":7,"visib":"6+","altim":1014,"clouds":[{"cover":"OVC","base":1500}],"obsTime":1782424800},"SBGR":{"icaoId":"SBGR","flightCategory":"IFR","rawOb":"METAR SBGR 252200Z 16003KT 9000 -RA BKN007 OVC013 12/12 Q1027","temp":12,"dewp":12,"wdir":160,"wspd":3,"visib":5.59,"altim":1027,"clouds":[{"cover":"BKN","base":700},{"cover":"OVC","base":1300}],"obsTime":1782424800},"SBRB":{"icaoId":"SBRB","flightCategory":"MVFR","rawOb":"METAR SBRB 252200Z 20003KT 8000 BKN018 19/17 Q1016","temp":19,"dewp":17,"wdir":200,"wspd":3,"visib":4.97,"altim":1016,"clouds":[{"cover":"BKN","base":1800}],"obsTime":1782424800},"SBBE":{"icaoId":"SBBE","flightCategory":"VFR","rawOb":"METAR SBBE 252200Z 03006KT 9999 FEW009 BKN035 FEW040TCU 25/24 Q1012 RETS","temp":25,"dewp":24,"wdir":30,"wspd":6,"visib":"6+","altim":1012,"clouds":[{"cover":"FEW","base":900},{"cover":"BKN","base":3500},{"cover":"FEW","base":4000}],"obsTime":1782424800},"SBRF":{"icaoId":"SBRF","flightCategory":"MVFR","rawOb":"METAR SBRF 252200Z 20006KT 9999 SCT013 BKN017 24/24 Q1016","temp":24,"dewp":24,"wdir":200,"wspd":6,"visib":"6+","altim":1016,"clouds":[{"cover":"SCT","base":1300},{"cover":"BKN","base":1700}],"obsTime":1782424800},"SBIL":{"icaoId":"SBIL","flightCategory":"MVFR","rawOb":"METAR SBIL 252200Z 21004KT 7000 -RA SCT020 BKN050 25/22 Q1020","temp":25,"dewp":22,"wdir":210,"wspd":4,"visib":4.35,"altim":1020,"clouds":[{"cover":"SCT","base":2000},{"cover":"BKN","base":5000}],"obsTime":1782424800},"SBSG":{"icaoId":"SBSG","flightCategory":"VFR","rawOb":"METAR SBSG 252200Z 13004KT 080V170 9999 FEW022 25/23 Q1015","temp":25,"dewp":23,"wdir":130,"wspd":4,"visib":"6+","altim":1015,"clouds":[{"cover":"FEW","base":2200}],"obsTime":1782424800},"SBEG":{"icaoId":"SBEG","flightCategory":"VFR","rawOb":"METAR SBEG 252200Z 18004KT 9999 FEW010 SCT080 26/24 Q1012","temp":26,"dewp":24,"wdir":180,"wspd":4,"visib":"6+","altim":1012,"clouds":[{"cover":"FEW","base":1000},{"cover":"SCT","base":8000}],"obsTime":1782424800},"SBSL":{"icaoId":"SBSL","flightCategory":"VFR","rawOb":"METAR SBSL 252200Z 08008KT 9999 FEW020 SCT080 28/25 Q1012","temp":28,"dewp":25,"wdir":80,"wspd":8,"visib":"6+","altim":1012,"clouds":[{"cover":"FEW","base":2000},{"cover":"SCT","base":8000}],"obsTime":1782424800},"SBJU":{"icaoId":"SBJU","flightCategory":"VFR","rawOb":"METAR SBJU 252200Z 18005KT 9999 FEW020 27/18 Q1016","temp":27,"dewp":18,"wdir":180,"wspd":5,"visib":"6+","altim":1016,"clouds":[{"cover":"FEW","base":2000}],"obsTime":1782424800},"SBSN":{"icaoId":"SBSN","flightCategory":"VFR","rawOb":"METAR SBSN 252200Z 19007KT 9999 SCT017 BKN100 27/23 Q1011","temp":27,"dewp":23,"wdir":190,"wspd":7,"visib":"6+","altim":1011,"clouds":[{"cover":"SCT","base":1700},{"cover":"BKN","base":10000}],"obsTime":1782424800},"SBKP":{"icaoId":"SBKP","flightCategory":"VFR","rawOb":"METAR SBKP 252200Z 13011KT 9999 SCT030 BKN100 14/12 Q1025","temp":14,"dewp":12,"wdir":130,"wspd":11,"visib":"6+","altim":1025,"clouds":[{"cover":"SCT","base":3000},{"cover":"BKN","base":10000}],"obsTime":1782424800},"SBSV":{"icaoId":"SBSV","flightCategory":"IFR","rawOb":"METAR SBSV 252200Z 09010KT 4000 -RA BR FEW005 BKN008 OVC030 23/23 Q1018","temp":23,"dewp":23,"wdir":90,"wspd":10,"visib":2.49,"altim":1018,"clouds":[{"cover":"FEW","base":500},{"cover":"BKN","base":800},{"cover":"OVC","base":3000}],"obsTime":1782424800},"SBFI":{"icaoId":"SBFI","flightCategory":"VFR","rawOb":"METAR SBFI 252200Z 13006KT CAVOK 11/07 Q1022","temp":11,"dewp":7,"wdir":130,"wspd":6,"visib":"6+","altim":1022,"clouds":[],"obsTime":1782424800},"SBMG":{"icaoId":"SBMG","flightCategory":"VFR","rawOb":"METAR SBMG 252200Z 10006KT 9999 FEW020 13/09 Q1023","temp":13,"dewp":9,"wdir":100,"wspd":6,"visib":"6+","altim":1023,"clouds":[{"cover":"FEW","base":2000}],"obsTime":1782424800},"SBFZ":{"icaoId":"SBFZ","flightCategory":"VFR","rawOb":"METAR SBFZ 252200Z 10008KT 9999 FEW020 BKN080 28/23 Q1014","temp":28,"dewp":23,"wdir":100,"wspd":8,"visib":"6+","altim":1014,"clouds":[{"cover":"FEW","base":2000},{"cover":"BKN","base":8000}],"obsTime":1782424800},"SBMK":{"icaoId":"SBMK","flightCategory":"VFR","rawOb":"METAR SBMK 252200Z 11005KT CAVOK 23/13 Q1022","temp":23,"dewp":13,"wdir":110,"wspd":5,"visib":"6+","altim":1022,"clouds":[],"obsTime":1782424800},"SBBR":{"icaoId":"SBBR","flightCategory":"VFR","rawOb":"METAR SBBR 252200Z 17006KT CAVOK 23/15 Q1023","temp":23,"dewp":15,"wdir":170,"wspd":6,"visib":"6+","altim":1023,"clouds":[],"obsTime":1782424800},"SBTE":{"icaoId":"SBTE","flightCategory":"VFR","rawOb":"METAR SBTE 252200Z 30003KT CAVOK 30/21 Q1011","temp":30,"dewp":21,"wdir":300,"wspd":3,"visib":"6+","altim":1011,"clouds":[],"obsTime":1782424800},"SBCG":{"icaoId":"SBCG","flightCategory":"VFR","rawOb":"METAR SBCG 252200Z 10008KT 9999 BKN035 BKN060 17/11 Q1022","temp":17,"dewp":11,"wdir":100,"wspd":8,"visib":"6+","altim":1022,"clouds":[{"cover":"BKN","base":3500},{"cover":"BKN","base":6000}],"obsTime":1782424800},"SBLO":{"icaoId":"SBLO","flightCategory":"VFR","rawOb":"METAR SBLO 252200Z 10005KT CAVOK 13/10 Q1024","temp":13,"dewp":10,"wdir":100,"wspd":5,"visib":"6+","altim":1024,"clouds":[],"obsTime":1782424800},"SBUL":{"icaoId":"SBUL","flightCategory":"VFR","rawOb":"METAR SBUL 252200Z 23009KT 9999 FEW005 BKN070 17/16 Q1025","temp":17,"dewp":16,"wdir":230,"wspd":9,"visib":"6+","altim":1025,"clouds":[{"cover":"FEW","base":500},{"cover":"BKN","base":7000}],"obsTime":1782424800},"SBFL":{"icaoId":"SBFL","flightCategory":"VFR","rawOb":"METAR SBFL 252200Z 06002KT CAVOK 12/07 Q1026","temp":12,"dewp":7,"wdir":60,"wspd":2,"visib":"6+","altim":1026,"clouds":[],"obsTime":1782424800},"SBUR":{"icaoId":"SBUR","flightCategory":"MVFR","rawOb":"METAR SBUR 252200Z 07005KT 6000 -RA FEW030 SCT049 OVC100 17/16 Q1024","temp":17,"dewp":16,"wdir":70,"wspd":5,"visib":3.73,"altim":1024,"clouds":[{"cover":"FEW","base":3000},{"cover":"SCT","base":4900},{"cover":"OVC","base":10000}],"obsTime":1782424800},"SBVT":{"icaoId":"SBVT","flightCategory":"VFR","rawOb":"METAR SBVT 252200Z 19008KT 9999 FEW020 SCT030 22/19 Q1023","temp":22,"dewp":19,"wdir":190,"wspd":8,"visib":"6+","altim":1023,"clouds":[{"cover":"FEW","base":2000},{"cover":"SCT","base":3000}],"obsTime":1782424800},"SBMA":{"icaoId":"SBMA","flightCategory":"VFR","rawOb":"METAR SBMA 252200Z 00000KT 9999 FEW020 30/21 Q1011","temp":30,"dewp":21,"wdir":0,"wspd":0,"visib":"6+","altim":1011,"clouds":[{"cover":"FEW","base":2000}],"obsTime":1782424800},"SBBV":{"icaoId":"SBBV","flightCategory":"VFR","rawOb":"METAR SBBV 252200Z 14012KT 9999 VCSH SCT025 FEW035TCU BKN090 27/23 Q1011","temp":27,"dewp":23,"wdir":140,"wspd":12,"visib":"6+","altim":1011,"clouds":[{"cover":"SCT","base":2500},{"cover":"FEW","base":3500},{"cover":"BKN","base":9000}],"obsTime":1782424800},"SBME":{"icaoId":"SBME","flightCategory":"IFR","rawOb":"METAR SBME 252200Z 25005KT 6000 -RA OVC006 20/19 Q1024","temp":20,"dewp":19,"wdir":250,"wspd":5,"visib":3.73,"altim":1024,"clouds":[{"cover":"OVC","base":600}],"obsTime":1782424800},"SBCP":{"icaoId":"SBCP","flightCategory":"MVFR","rawOb":"METAR SBCP 252200Z 23006KT 6000 SCT008 OVC080 20/20 Q1024","temp":20,"dewp":20,"wdir":230,"wspd":6,"visib":3.73,"altim":1024,"clouds":[{"cover":"SCT","base":800},{"cover":"OVC","base":8000}],"obsTime":1782424800},"SBCA":{"icaoId":"SBCA","flightCategory":"VFR","rawOb":"METAR SBCA 252200Z 17005KT CAVOK 10/04 Q1024","temp":10,"dewp":4,"wdir":170,"wspd":5,"visib":"6+","altim":1024,"clouds":[],"obsTime":1782424800},"SBBU":{"icaoId":"SBBU","flightCategory":"MVFR","rawOb":"METAR SBBU 252200Z 12008KT 9999 OVC010 15/14 Q1025","temp":15,"dewp":14,"wdir":120,"wspd":8,"visib":"6+","altim":1025,"clouds":[{"cover":"OVC","base":1000}],"obsTime":1782424800},"SBPP":{"icaoId":"SBPP","flightCategory":"VFR","rawOb":"METAR SBPP 252200Z 10002KT CAVOK 14/07 Q1022","temp":14,"dewp":7,"wdir":100,"wspd":2,"visib":"6+","altim":1022,"clouds":[],"obsTime":1782424800},"SBPS":{"icaoId":"SBPS","flightCategory":"VFR","rawOb":"METAR SBPS 252200Z 21003KT 120V280 9999 SCT025 BKN050 BKN070 22/21 Q1021","temp":22,"dewp":21,"wdir":210,"wspd":3,"visib":"6+","altim":1021,"clouds":[{"cover":"SCT","base":2500},{"cover":"BKN","base":5000},{"cover":"BKN","base":7000}],"obsTime":1782424800},"SBAR":{"icaoId":"SBAR","flightCategory":"VFR","rawOb":"METAR SBAR 252200Z 15005KT 9999 -RA FEW023 SCT030 24/23 Q1017","temp":24,"dewp":23,"wdir":150,"wspd":5,"visib":"6+","altim":1017,"clouds":[{"cover":"FEW","base":2300},{"cover":"SCT","base":3000}],"obsTime":1782424800},"SBCO":{"icaoId":"SBCO","flightCategory":"VFR","rawOb":"METAR SBCO 252200Z 00000KT CAVOK 08/07 Q1024","temp":8,"dewp":7,"wdir":0,"wspd":0,"visib":"6+","altim":1024,"clouds":[],"obsTime":1782424800},"SBSC":{"icaoId":"SBSC","flightCategory":"MVFR","rawOb":"METAR SBSC 252200Z 23003KT 6000 -RA FEW005 BKN012 OVC030 18/18 Q1025","temp":18,"dewp":18,"wdir":230,"wspd":3,"visib":3.73,"altim":1025,"clouds":[{"cover":"FEW","base":500},{"cover":"BKN","base":1200},{"cover":"OVC","base":3000}],"obsTime":1782424800},"SBSJ":{"icaoId":"SBSJ","flightCategory":"MVFR","rawOb":"METAR SBSJ 252200Z 11002KT 5000 -RA BR BKN013 BKN023 OVC100 13/13 Q1026","temp":13,"dewp":13,"wdir":110,"wspd":2,"visib":3.11,"altim":1026,"clouds":[{"cover":"BKN","base":1300},{"cover":"BKN","base":2300},{"cover":"OVC","base":10000}],"obsTime":1782424800},"SBDN":{"icaoId":"SBDN","flightCategory":"VFR","rawOb":"METAR SBDN 252200Z 12006KT CAVOK 15/11 Q1024","temp":15,"dewp":11,"wdir":120,"wspd":6,"visib":"6+","altim":1024,"clouds":[],"obsTime":1782424800},"SBBH":{"icaoId":"SBBH","flightCategory":"VFR","rawOb":"METAR SBBH 252200Z 11010KT CAVOK 20/15 Q1025","temp":20,"dewp":15,"wdir":110,"wspd":10,"visib":"6+","altim":1025,"clouds":[],"obsTime":1782424800},"SBSM":{"icaoId":"SBSM","flightCategory":"VFR","rawOb":"METAR SBSM 252200Z 00000KT CAVOK 09/08 Q1024","temp":9,"dewp":8,"wdir":0,"wspd":0,"visib":"6+","altim":1024,"clouds":[],"obsTime":1782424800},"SBSR":{"icaoId":"SBSR","flightCategory":"IFR","rawOb":"METAR SBSR 252200Z 18005KT 8000 BKN005 SCT025 OVC070 16/15 Q1023","temp":16,"dewp":15,"wdir":180,"wspd":5,"visib":4.97,"altim":1023,"clouds":[{"cover":"BKN","base":500},{"cover":"SCT","base":2500},{"cover":"OVC","base":7000}],"obsTime":1782424800},"SBIP":{"icaoId":"SBIP","flightCategory":"VFR","rawOb":"METAR SBIP 252200Z AUTO 20003KT CAVOK 20/20 Q1022","temp":20,"dewp":20,"wdir":200,"wspd":3,"visib":"6+","altim":1022,"clouds":[],"obsTime":1782424800},"SBTT":{"icaoId":"SBTT","flightCategory":"VFR","rawOb":"METAR SBTT 252200Z 21004KT 9999 SCT018 26/23 Q1012","temp":26,"dewp":23,"wdir":210,"wspd":4,"visib":"6+","altim":1012,"clouds":[{"cover":"SCT","base":1800}],"obsTime":1782424800},"SBCC":{"icaoId":"SBCC","flightCategory":"VFR","rawOb":"METAR SBCC 252200Z 06008KT CAVOK 27/17 Q1015","temp":27,"dewp":17,"wdir":60,"wspd":8,"visib":"6+","altim":1015,"clouds":[],"obsTime":1782424800},"SBPL":{"icaoId":"SBPL","flightCategory":"VFR","rawOb":"METAR SBPL 252200Z 10006KT CAVOK 27/15 Q1016","temp":27,"dewp":15,"wdir":100,"wspd":6,"visib":"6+","altim":1016,"clouds":[],"obsTime":1782424800},"SBKG":{"icaoId":"SBKG","flightCategory":"IFR","rawOb":"METAR SBKG 252200Z 10007KT 8000 -RA BKN009 22/21 Q1018","temp":22,"dewp":21,"wdir":100,"wspd":7,"visib":4.97,"altim":1018,"clouds":[{"cover":"BKN","base":900}],"obsTime":1782424800},"SBUY":{"icaoId":"SBUY","flightCategory":"VFR","rawOb":"METAR SBUY 252200Z 20001KT 9999 SCT017 BKN090 25/23 Q1011","temp":25,"dewp":23,"wdir":200,"wspd":1,"visib":"6+","altim":1011,"clouds":[{"cover":"SCT","base":1700},{"cover":"BKN","base":9000}],"obsTime":1782424800},"SBOI":{"icaoId":"SBOI","flightCategory":"VFR","rawOb":"METAR SBOI 252200Z AUTO 34002KT 9999 FEW009 25/24 Q1012","temp":25,"dewp":24,"wdir":340,"wspd":2,"visib":"6+","altim":1012,"clouds":[{"cover":"FEW","base":900}],"obsTime":1782424800},"SBVH":{"icaoId":"SBVH","flightCategory":"VFR","rawOb":"METAR SBVH 252200Z 12004KT 9999 SCT015 24/20 Q1018","temp":24,"dewp":20,"wdir":120,"wspd":4,"visib":"6+","altim":1018,"clouds":[{"cover":"SCT","base":1500}],"obsTime":1782424800},"SBAX":{"icaoId":"SBAX","flightCategory":"MVFR","rawOb":"METAR SBAX 252300Z 14004KT 9999 -TSRA BKN012 FEW020CB BKN030 18/18 Q1026","temp":18,"dewp":18,"wdir":140,"wspd":4,"visib":"6+","altim":1026,"clouds":[{"cover":"BKN","base":1200},{"cover":"FEW","base":2000},{"cover":"BKN","base":3000}],"obsTime":1782428400},"SBTF":{"icaoId":"SBTF","flightCategory":"VFR","rawOb":"METAR SBTF 252200Z 21003KT 9999 FEW010 BKN080 26/26 Q1011","temp":26,"dewp":26,"wdir":210,"wspd":3,"visib":"6+","altim":1011,"clouds":[{"cover":"FEW","base":1000},{"cover":"BKN","base":8000}],"obsTime":1782424800},"SBNM":{"icaoId":"SBNM","flightCategory":"VFR","rawOb":"METAR SBNM 252200Z AUTO 17001KT CAVOK 11/06 Q1024","temp":11,"dewp":6,"wdir":170,"wspd":1,"visib":"6+","altim":1024,"clouds":[],"obsTime":1782424800},"SBJP":{"icaoId":"SBJP","flightCategory":"MVFR","rawOb":"METAR SBJP 252200Z 18005KT 9999 BKN010 25/23 Q1016","temp":25,"dewp":23,"wdir":180,"wspd":5,"visib":"6+","altim":1016,"clouds":[{"cover":"BKN","base":1000}],"obsTime":1782424800},"SBAN":{"icaoId":"SBAN","flightCategory":"VFR","rawOb":"METAR SBAN 252200Z 14004KT 9999 FEW045 SCT070 21/15 Q1023","temp":21,"dewp":15,"wdir":140,"wspd":4,"visib":"6+","altim":1023,"clouds":[{"cover":"FEW","base":4500},{"cover":"SCT","base":7000}],"obsTime":1782424800},"SBJV":{"icaoId":"SBJV","flightCategory":"VFR","rawOb":"METAR SBJV 252200Z 34004KT CAVOK 13/08 Q1026","temp":13,"dewp":8,"wdir":340,"wspd":4,"visib":"6+","altim":1026,"clouds":[],"obsTime":1782424800},"SBLE":{"icaoId":"SBLE","flightCategory":"VFR","rawOb":"METAR SBLE 252200Z AUTO 07002KT CAVOK 21/16 Q1020","temp":21,"dewp":16,"wdir":70,"wspd":2,"visib":"6+","altim":1020,"clouds":[],"obsTime":1782424800},"SBAF":{"icaoId":"SBAF","flightCategory":"IFR","rawOb":"METAR SBAF 252200Z 22001KT 3000 BR BKN008 OVC018 19/19 Q1025","temp":19,"dewp":19,"wdir":220,"wspd":1,"visib":1.86,"altim":1025,"clouds":[{"cover":"BKN","base":800},{"cover":"OVC","base":1800}],"obsTime":1782424800},"SBJR":{"icaoId":"SBJR","flightCategory":"MVFR","rawOb":"METAR SBJR 252200Z 13003KT 5000 BR SCT005 BKN015 OVC030 19/19 Q1025","temp":19,"dewp":19,"wdir":130,"wspd":3,"visib":3.11,"altim":1025,"clouds":[{"cover":"SCT","base":500},{"cover":"BKN","base":1500},{"cover":"OVC","base":3000}],"obsTime":1782424800},"SBLS":{"icaoId":"SBLS","flightCategory":"VFR","rawOb":"METAR SBLS 252200Z 14010KT CAVOK 20/15 Q1025","temp":20,"dewp":15,"wdir":140,"wspd":10,"visib":"6+","altim":1025,"clouds":[],"obsTime":1782424800},"SBMT":{"icaoId":"SBMT","flightCategory":"IFR","rawOb":"METAR SBMT 252200Z 17004KT 3000 -RA OVC007 12/10 Q1027","temp":12,"dewp":10,"wdir":170,"wspd":4,"visib":1.86,"altim":1027,"clouds":[{"cover":"OVC","base":700}],"obsTime":1782424800},"SBTA":{"icaoId":"SBTA","flightCategory":"MVFR","rawOb":"METAR SBTA 252200Z VRB02KT 7000 FEW010 OVC019 15/15 Q1026","temp":15,"dewp":15,"wdir":"VRB","wspd":2,"visib":4.35,"altim":1026,"clouds":[{"cover":"FEW","base":1000},{"cover":"OVC","base":1900}],"obsTime":1782424800},"SBGW":{"icaoId":"SBGW","flightCategory":"IFR","rawOb":"METAR SBGW 252200Z 23005KT 3000 RA BR BKN011 OVC018 16/13 Q1027","temp":16,"dewp":13,"wdir":230,"wspd":5,"visib":1.86,"altim":1027,"clouds":[{"cover":"BKN","base":1100},{"cover":"OVC","base":1800}],"obsTime":1782424800},"SBPF":{"icaoId":"SBPF","flightCategory":"VFR","rawOb":"METAR SBPF 252200Z 05005KT CAVOK 09/03 Q1024","temp":9,"dewp":3,"wdir":50,"wspd":5,"visib":"6+","altim":1024,"clouds":[],"obsTime":1782424800}}}