{"updated":1775692559,"count":70,"data":{"SBRB":{"icaoId":"SBRB","flightCategory":"MVFR","rawOb":"METAR SBRB 082200Z 04006KT 9999 BKN030 FEW034TCU SCT090 30/24 Q1009","temp":30,"dewp":24,"wdir":40,"wspd":6,"visib":"6+","altim":1009,"clouds":[{"cover":"BKN","base":3000},{"cover":"FEW","base":3400},{"cover":"SCT","base":9000}],"obsTime":1775685600},"SBBR":{"icaoId":"SBBR","flightCategory":"VFR","rawOb":"METAR SBBR 082200Z 21007KT 9999 TS SCT030 FEW030CB BKN100 23/20 Q1018","temp":23,"dewp":20,"wdir":210,"wspd":7,"visib":"6+","altim":1018,"clouds":[{"cover":"SCT","base":3000},{"cover":"FEW","base":3000},{"cover":"BKN","base":10000}],"obsTime":1775685600},"SBBV":{"icaoId":"SBBV","flightCategory":"VFR","rawOb":"METAR SBBV 082200Z 15005KT 9999 FEW030 SCT100 29/24 Q1009","temp":29,"dewp":24,"wdir":150,"wspd":5,"visib":"6+","altim":1009,"clouds":[{"cover":"FEW","base":3000},{"cover":"SCT","base":10000}],"obsTime":1775685600},"SBCF":{"icaoId":"SBCF","flightCategory":"MVFR","rawOb":"METAR SBCF 082200Z 19005KT 6000 -TSRA BKN036 FEW037CB BKN060 21/19 Q1018","temp":21,"dewp":19,"wdir":190,"wspd":5,"visib":3.73,"altim":1018,"clouds":[{"cover":"BKN","base":3600},{"cover":"FEW","base":3700},{"cover":"BKN","base":6000}],"obsTime":1775685600},"SBCG":{"icaoId":"SBCG","flightCategory":"VFR","rawOb":"METAR SBCG 082200Z 21005KT 9999 SCT025 25/23 Q1013","temp":25,"dewp":23,"wdir":210,"wspd":5,"visib":"6+","altim":1013,"clouds":[{"cover":"SCT","base":2500}],"obsTime":1775685600},"SBCT":{"icaoId":"SBCT","flightCategory":"VFR","rawOb":"METAR SBCT 082200Z 30009KT CAVOK 21/17 Q1014","temp":21,"dewp":17,"wdir":300,"wspd":9,"visib":"6+","altim":1014,"clouds":[],"obsTime":1775685600},"SBCZ":{"icaoId":"SBCZ","flightCategory":"MVFR","rawOb":"METAR SBCZ 082200Z 33003KT 8000 VCSH SCT025 FEW030TCU BKN090 25/24 Q1009","temp":25,"dewp":24,"wdir":330,"wspd":3,"visib":4.97,"altim":1009,"clouds":[{"cover":"SCT","base":2500},{"cover":"FEW","base":3000},{"cover":"BKN","base":9000}],"obsTime":1775685600},"SBEG":{"icaoId":"SBEG","flightCategory":"VFR","rawOb":"METAR SBEG 082200Z VRB02KT 9999 FEW020 FEW025TCU SCT100 28/26 Q1009","temp":28,"dewp":26,"wdir":"VRB","wspd":2,"visib":"6+","altim":1009,"clouds":[{"cover":"FEW","base":2000},{"cover":"FEW","base":2500},{"cover":"SCT","base":10000}],"obsTime":1775685600},"SBFI":{"icaoId":"SBFI","flightCategory":"VFR","rawOb":"METAR SBFI 082200Z 21004KT 9999 FEW040 22/19 Q1013","temp":22,"dewp":19,"wdir":210,"wspd":4,"visib":"6+","altim":1013,"clouds":[{"cover":"FEW","base":4000}],"obsTime":1775685600},"SBFL":{"icaoId":"SBFL","flightCategory":"VFR","rawOb":"METAR SBFL 082200Z 20005KT 9999 FEW040 26/21 Q1007","temp":26,"dewp":21,"wdir":200,"wspd":5,"visib":"6+","altim":1007,"clouds":[{"cover":"FEW","base":4000}],"obsTime":1775685600},"SBFZ":{"icaoId":"SBFZ","flightCategory":"VFR","rawOb":"METAR SBFZ 082200Z 09006KT 9999 FEW020 28/25 Q1011","temp":28,"dewp":25,"wdir":90,"wspd":6,"visib":"6+","altim":1011,"clouds":[{"cover":"FEW","base":2000}],"obsTime":1775685600},"SBGL":{"icaoId":"SBGL","flightCategory":"VFR","rawOb":"METAR SBGL 082200Z 33007KT 9999 FEW030 FEW035TCU BKN100 30/24 Q1009","temp":30,"dewp":24,"wdir":330,"wspd":7,"visib":"6+","altim":1009,"clouds":[{"cover":"FEW","base":3000},{"cover":"FEW","base":3500},{"cover":"BKN","base":10000}],"obsTime":1775685600},"SBGO":{"icaoId":"SBGO","flightCategory":"VFR","rawOb":"METAR SBGO 082200Z 13004KT 9999 -RA FEW015 FEW045TCU SCT050 OVC100 21/20 Q1016 RETS","temp":21,"dewp":20,"wdir":130,"wspd":4,"visib":"6+","altim":1016,"clouds":[{"cover":"FEW","base":1500},{"cover":"FEW","base":4500},{"cover":"SCT","base":5000},{"cover":"OVC","base":10000}],"obsTime":1775685600},"SBGR":{"icaoId":"SBGR","flightCategory":"VFR","rawOb":"METAR SBGR 082200Z 32004KT CAVOK 25/19 Q1015","temp":25,"dewp":19,"wdir":320,"wspd":4,"visib":"6+","altim":1015,"clouds":[],"obsTime":1775685600},"SBIL":{"icaoId":"SBIL","flightCategory":"VFR","rawOb":"METAR SBIL 082200Z 09005KT 9999 FEW020 28/24 Q1013","temp":28,"dewp":24,"wdir":90,"wspd":5,"visib":"6+","altim":1013,"clouds":[{"cover":"FEW","base":2000}],"obsTime":1775685600},"SBJU":{"icaoId":"SBJU","flightCategory":"MVFR","rawOb":"METAR SBJU 082200Z 00000KT 9999 -RA SCT012 BKN020 FEW022TCU 23/22 Q1015","temp":23,"dewp":22,"wdir":0,"wspd":0,"visib":"6+","altim":1015,"clouds":[{"cover":"SCT","base":1200},{"cover":"BKN","base":2000},{"cover":"FEW","base":2200}],"obsTime":1775685600},"SBKP":{"icaoId":"SBKP","flightCategory":"VFR","rawOb":"METAR SBKP 082200Z 33004KT 9999 VCTS FEW040 FEW050CB 24/20 Q1014","temp":24,"dewp":20,"wdir":330,"wspd":4,"visib":"6+","altim":1014,"clouds":[{"cover":"FEW","base":4000},{"cover":"FEW","base":5000}],"obsTime":1775685600},"SBLO":{"icaoId":"SBLO","flightCategory":"VFR","rawOb":"METAR SBLO 082200Z 24004KT 170V290 9999 FEW030 BKN070 23/20 Q1014","temp":23,"dewp":20,"wdir":240,"wspd":4,"visib":"6+","altim":1014,"clouds":[{"cover":"FEW","base":3000},{"cover":"BKN","base":7000}],"obsTime":1775685600},"SBMA":{"icaoId":"SBMA","flightCategory":"VFR","rawOb":"METAR SBMA 082200Z 08004KT 9999 FEW020 FEW023TCU 28/26 Q1010","temp":28,"dewp":26,"wdir":80,"wspd":4,"visib":"6+","altim":1010,"clouds":[{"cover":"FEW","base":2000},{"cover":"FEW","base":2300}],"obsTime":1775685600},"SBME":{"icaoId":"SBME","flightCategory":"VFR","rawOb":"METAR SBME 082200Z 12002KT 9999 VCTS FEW040CB 27/22 Q1009","temp":27,"dewp":22,"wdir":120,"wspd":2,"visib":"6+","altim":1009,"clouds":[{"cover":"FEW","base":4000}],"obsTime":1775685600},"SBMG":{"icaoId":"SBMG","flightCategory":"MVFR","rawOb":"METAR SBMG 082200Z 26004KT 9999 FEW010 SCT018 BKN030 22/21 Q1013","temp":22,"dewp":21,"wdir":260,"wspd":4,"visib":"6+","altim":1013,"clouds":[{"cover":"FEW","base":1000},{"cover":"SCT","base":1800},{"cover":"BKN","base":3000}],"obsTime":1775685600},"SBMK":{"icaoId":"SBMK","flightCategory":"VFR","rawOb":"METAR SBMK 082200Z 12005KT 9999 FEW046 28/20 Q1015","temp":28,"dewp":20,"wdir":120,"wspd":5,"visib":"6+","altim":1015,"clouds":[{"cover":"FEW","base":4600}],"obsTime":1775685600},"SBMO":{"icaoId":"SBMO","flightCategory":"VFR","rawOb":"METAR SBMO 082200Z 07005KT 9999 FEW030 SCT070 25/24 Q1013","temp":25,"dewp":24,"wdir":70,"wspd":5,"visib":"6+","altim":1013,"clouds":[{"cover":"FEW","base":3000},{"cover":"SCT","base":7000}],"obsTime":1775685600},"SBMQ":{"icaoId":"SBMQ","flightCategory":"VFR","rawOb":"METAR SBMQ 082200Z 06004KT 020V080 9999 SCT015 FEW020TCU SCT100 28/26 Q1010","temp":28,"dewp":26,"wdir":60,"wspd":4,"visib":"6+","altim":1010,"clouds":[{"cover":"SCT","base":1500},{"cover":"FEW","base":2000},{"cover":"SCT","base":10000}],"obsTime":1775685600},"SBNT":{"icaoId":"SBNT","flightCategory":"VFR","rawOb":"METAR SBNT 082200Z 17007KT 9999 FEW021 SCT100 27/25 Q1012","temp":27,"dewp":25,"wdir":170,"wspd":7,"visib":"6+","altim":1012,"clouds":[{"cover":"FEW","base":2100},{"cover":"SCT","base":10000}],"obsTime":1775685600},"SBPA":{"icaoId":"SBPA","flightCategory":"VFR","rawOb":"METAR SBPA 082200Z 28011KT 9999 VCSH FEW015 SCT045 22/17 Q1009","temp":22,"dewp":17,"wdir":280,"wspd":11,"visib":"6+","altim":1009,"clouds":[{"cover":"FEW","base":1500},{"cover":"SCT","base":4500}],"obsTime":1775685600},"SBPJ":{"icaoId":"SBPJ","flightCategory":"VFR","rawOb":"METAR SBPJ 082200Z 19002KT 9999 FEW045 30/25 Q1009","temp":30,"dewp":25,"wdir":190,"wspd":2,"visib":"6+","altim":1009,"clouds":[{"cover":"FEW","base":4500}],"obsTime":1775685600},"SBPV":{"icaoId":"SBPV","flightCategory":"VFR","rawOb":"METAR SBPV 082200Z 33002KT CAVOK 26/24 Q1009","temp":26,"dewp":24,"wdir":330,"wspd":2,"visib":"6+","altim":1009,"clouds":[],"obsTime":1775685600},"SBBE":{"icaoId":"SBBE","flightCategory":"VFR","rawOb":"METAR SBBE 082200Z 03002KT 9999 SCT030 BKN100 26/26 Q1010","temp":26,"dewp":26,"wdir":30,"wspd":2,"visib":"6+","altim":1010,"clouds":[{"cover":"SCT","base":3000},{"cover":"BKN","base":10000}],"obsTime":1775685600},"SBRF":{"icaoId":"SBRF","flightCategory":"VFR","rawOb":"METAR SBRF 082200Z 12008KT 9999 SCT025 28/23 Q1012","temp":28,"dewp":23,"wdir":120,"wspd":8,"visib":"6+","altim":1012,"clouds":[{"cover":"SCT","base":2500}],"obsTime":1775685600},"SBSG":{"icaoId":"SBSG","flightCategory":"VFR","rawOb":"METAR SBSG 082200Z 13004KT 100V180 9999 SCT027 27/24 Q1013","temp":27,"dewp":24,"wdir":130,"wspd":4,"visib":"6+","altim":1013,"clouds":[{"cover":"SCT","base":2700}],"obsTime":1775685600},"SBSL":{"icaoId":"SBSL","flightCategory":"VFR","rawOb":"METAR SBSL 082200Z 04008KT CAVOK 28/24 Q1011","temp":28,"dewp":24,"wdir":40,"wspd":8,"visib":"6+","altim":1011,"clouds":[],"obsTime":1775685600},"SBSN":{"icaoId":"SBSN","flightCategory":"VFR","rawOb":"METAR SBSN 082200Z 12004KT 9999 FEW020 FEW025TCU 29/25 Q1008","temp":29,"dewp":25,"wdir":120,"wspd":4,"visib":"6+","altim":1008,"clouds":[{"cover":"FEW","base":2000},{"cover":"FEW","base":2500}],"obsTime":1775685600},"SBSP":{"icaoId":"SBSP","flightCategory":"VFR","rawOb":"METAR SBSP 082200Z 33009KT 270V350 9999 BKN040 25/19 Q1016","temp":25,"dewp":19,"wdir":330,"wspd":9,"visib":"6+","altim":1016,"clouds":[{"cover":"BKN","base":4000}],"obsTime":1775685600},"SBSV":{"icaoId":"SBSV","flightCategory":"VFR","rawOb":"METAR SBSV 082200Z 09007KT 9999 FEW023 28/21 Q1013","temp":28,"dewp":21,"wdir":90,"wspd":7,"visib":"6+","altim":1013,"clouds":[{"cover":"FEW","base":2300}],"obsTime":1775685600},"SBTE":{"icaoId":"SBTE","flightCategory":"VFR","rawOb":"METAR SBTE 082200Z 18005KT 9999 SCT016 BKN090 27/24 Q1011","temp":27,"dewp":24,"wdir":180,"wspd":5,"visib":"6+","altim":1011,"clouds":[{"cover":"SCT","base":1600},{"cover":"BKN","base":9000}],"obsTime":1775685600},"SBUL":{"icaoId":"SBUL","flightCategory":"VFR","rawOb":"METAR SBUL 082200Z 15002KT 9000 -TSRA SCT030 FEW040CB SCT100 20/20 Q1018","temp":20,"dewp":20,"wdir":150,"wspd":2,"visib":5.59,"altim":1018,"clouds":[{"cover":"SCT","base":3000},{"cover":"FEW","base":4000},{"cover":"SCT","base":10000}],"obsTime":1775685600},"SBUR":{"icaoId":"SBUR","flightCategory":"VFR","rawOb":"METAR SBUR 082200Z 09005KT 9999 VCTS FEW046 FEW048CB 26/19 Q1016","temp":26,"dewp":19,"wdir":90,"wspd":5,"visib":"6+","altim":1016,"clouds":[{"cover":"FEW","base":4600},{"cover":"FEW","base":4800}],"obsTime":1775685600},"SBVT":{"icaoId":"SBVT","flightCategory":"VFR","rawOb":"METAR SBVT 082200Z 04015KT CAVOK 27/24 Q1011","temp":27,"dewp":24,"wdir":40,"wspd":15,"visib":"6+","altim":1011,"clouds":[],"obsTime":1775685600},"SBCP":{"icaoId":"SBCP","flightCategory":"VFR","rawOb":"METAR SBCP 082200Z /////KT CAVOK ///// Q1010","temp":null,"dewp":null,"wdir":null,"wspd":null,"visib":"6+","altim":1010,"clouds":[],"obsTime":1775685600},"SBAR":{"icaoId":"SBAR","flightCategory":"MVFR","rawOb":"METAR SBAR 082200Z 12011KT 9999 BKN025 SCT060 28/23 Q1012","temp":28,"dewp":23,"wdir":120,"wspd":11,"visib":"6+","altim":1012,"clouds":[{"cover":"BKN","base":2500},{"cover":"SCT","base":6000}],"obsTime":1775685600},"SBPL":{"icaoId":"SBPL","flightCategory":"MVFR","rawOb":"METAR SBPL 082200Z 08011KT 8000 -RA SCT025 FEW030TCU 27/21 Q1013","temp":27,"dewp":21,"wdir":80,"wspd":11,"visib":4.97,"altim":1013,"clouds":[{"cover":"SCT","base":2500},{"cover":"FEW","base":3000}],"obsTime":1775685600},"SBPS":{"icaoId":"SBPS","flightCategory":"VFR","rawOb":"METAR SBPS 082200Z 05006KT 9999 SCT018 27/24 Q1013","temp":27,"dewp":24,"wdir":50,"wspd":6,"visib":"6+","altim":1013,"clouds":[{"cover":"SCT","base":1800}],"obsTime":1775685600},"SBES":{"icaoId":"SBES","flightCategory":"VFR","rawOb":"METAR SBES 082200Z VRB03KT 9999 VCTS FEW030CB 25/// Q1009","temp":null,"dewp":null,"wdir":"VRB","wspd":3,"visib":"6+","altim":1009,"clouds":[{"cover":"FEW","base":3000}],"obsTime":1775685600},"SBAX":{"icaoId":"SBAX","flightCategory":"VFR","rawOb":"METAR SBAX 082200Z 05003KT 9999 SCT025 21/21 Q1018","temp":21,"dewp":21,"wdir":50,"wspd":3,"visib":"6+","altim":1018,"clouds":[{"cover":"SCT","base":2500}],"obsTime":1775685600},"SBSC":{"icaoId":"SBSC","flightCategory":"VFR","rawOb":"METAR SBSC 082200Z 36004KT 9999 FEW020 FEW035TCU BKN100 29/22 Q1010","temp":29,"dewp":22,"wdir":360,"wspd":4,"visib":"6+","altim":1010,"clouds":[{"cover":"FEW","base":2000},{"cover":"FEW","base":3500},{"cover":"BKN","base":10000}],"obsTime":1775685600},"SBIP":{"icaoId":"SBIP","flightCategory":"VFR","rawOb":"METAR SBIP 082200Z AUTO 19002KT CAVOK 24/22 Q1013","temp":24,"dewp":22,"wdir":190,"wspd":2,"visib":"6+","altim":1013,"clouds":[],"obsTime":1775685600},"SBSJ":{"icaoId":"SBSJ","flightCategory":"VFR","rawOb":"METAR SBSJ 082200Z 11001KT CAVOK 25/19 Q1014","temp":25,"dewp":19,"wdir":110,"wspd":1,"visib":"6+","altim":1014,"clouds":[],"obsTime":1775685600},"SBSM":{"icaoId":"SBSM","flightCategory":"VFR","rawOb":"METAR SBSM 082200Z 28006KT 9999 VCSH SCT026 BKN040 21/18 Q1012","temp":21,"dewp":18,"wdir":280,"wspd":6,"visib":"6+","altim":1012,"clouds":[{"cover":"SCT","base":2600},{"cover":"BKN","base":4000}],"obsTime":1775685600},"SBBU":{"icaoId":"SBBU","flightCategory":"VFR","rawOb":"METAR SBBU 082200Z 36007KT 9999 TS VCSH SCT030 FEW035CB BKN100 27/23 Q1014","temp":27,"dewp":23,"wdir":360,"wspd":7,"visib":"6+","altim":1014,"clouds":[{"cover":"SCT","base":3000},{"cover":"FEW","base":3500},{"cover":"BKN","base":10000}],"obsTime":1775685600},"SBSR":{"icaoId":"SBSR","flightCategory":"VFR","rawOb":"METAR SBSR 082200Z VRB02KT 9999 VCSH VCTS SCT025 FEW030CB BKN080 28/21 Q1014","temp":28,"dewp":21,"wdir":"VRB","wspd":2,"visib":"6+","altim":1014,"clouds":[{"cover":"SCT","base":2500},{"cover":"FEW","base":3000},{"cover":"BKN","base":8000}],"obsTime":1775685600},"SBKG":{"icaoId":"SBKG","flightCategory":"MVFR","rawOb":"METAR SBKG 082200Z 06009KT 9999 -RA BKN012 22/22 Q1015","temp":22,"dewp":22,"wdir":60,"wspd":9,"visib":"6+","altim":1015,"clouds":[{"cover":"BKN","base":1200}],"obsTime":1775685600},"SBDN":{"icaoId":"SBDN","flightCategory":"VFR","rawOb":"METAR SBDN 082200Z 21006KT 9999 VCTS SCT033 FEW050CB BKN100 26/21 Q1013","temp":26,"dewp":21,"wdir":210,"wspd":6,"visib":"6+","altim":1013,"clouds":[{"cover":"SCT","base":3300},{"cover":"FEW","base":5000},{"cover":"BKN","base":10000}],"obsTime":1775685600},"SBCO":{"icaoId":"SBCO","flightCategory":"VFR","rawOb":"METAR SBCO 082200Z COR 29009KT 9999 BKN036 22/17 Q1010","temp":22,"dewp":17,"wdir":290,"wspd":9,"visib":"6+","altim":1010,"clouds":[{"cover":"BKN","base":3600}],"obsTime":1775685600},"SBTT":{"icaoId":"SBTT","flightCategory":"VFR","rawOb":"METAR SBTT 082200Z 08004KT 9999 SCT025 BKN100 28/23 Q1008","temp":28,"dewp":23,"wdir":80,"wspd":4,"visib":"6+","altim":1008,"clouds":[{"cover":"SCT","base":2500},{"cover":"BKN","base":10000}],"obsTime":1775685600},"SBOI":{"icaoId":"SBOI","flightCategory":"MVFR","rawOb":"METAR SBOI 082200Z AUTO 06005KT 010V110 7000 RA BKN020 BKN046 26/25 Q1011 RERA","temp":26,"dewp":25,"wdir":60,"wspd":5,"visib":4.35,"altim":1011,"clouds":[{"cover":"BKN","base":2000},{"cover":"BKN","base":4600}],"obsTime":1775685600},"SBBH":{"icaoId":"SBBH","flightCategory":"VFR","rawOb":"METAR SBBH 082200Z 26006KT 9999 VCTS FEW048 FEW050CB SCT100 24/17 Q1018 RETS WS R13","temp":24,"dewp":17,"wdir":260,"wspd":6,"visib":"6+","altim":1018,"clouds":[{"cover":"FEW","base":4800},{"cover":"FEW","base":5000},{"cover":"SCT","base":10000}],"obsTime":1775685600},"SBVH":{"icaoId":"SBVH","flightCategory":"VFR","rawOb":"METAR SBVH 082200Z 26002KT 9999 SCT035 BKN088 24/22 Q1013","temp":24,"dewp":22,"wdir":260,"wspd":2,"visib":"6+","altim":1013,"clouds":[{"cover":"SCT","base":3500},{"cover":"BKN","base":8800}],"obsTime":1775685600},"SBTF":{"icaoId":"SBTF","flightCategory":"VFR","rawOb":"METAR SBTF 082200Z 33004KT 9999 FEW015 27/26 Q1008","temp":27,"dewp":26,"wdir":330,"wspd":4,"visib":"6+","altim":1008,"clouds":[{"cover":"FEW","base":1500}],"obsTime":1775685600},"SBUY":{"icaoId":"SBUY","flightCategory":"VFR","rawOb":"METAR SBUY 082200Z 35005KT 9999 FEW030 SCT100 28/25 Q1007","temp":28,"dewp":25,"wdir":350,"wspd":5,"visib":"6+","altim":1007,"clouds":[{"cover":"FEW","base":3000},{"cover":"SCT","base":10000}],"obsTime":1775685600},"SBCA":{"icaoId":"SBCA","flightCategory":"VFR","rawOb":"METAR SBCA 082200Z 24007KT CAVOK 19/16 Q1015","temp":19,"dewp":16,"wdir":240,"wspd":7,"visib":"6+","altim":1015,"clouds":[],"obsTime":1775685600},"SBTA":{"icaoId":"SBTA","flightCategory":"VFR","rawOb":"METAR SBTA 082200Z VRB02KT 9999 FEW035 BKN100 24/22 Q1013","temp":24,"dewp":22,"wdir":"VRB","wspd":2,"visib":"6+","altim":1013,"clouds":[{"cover":"FEW","base":3500},{"cover":"BKN","base":10000}],"obsTime":1775685600},"SBJV":{"icaoId":"SBJV","flightCategory":"VFR","rawOb":"METAR SBJV 082200Z 33002KT 9999 FEW030 25/23 Q1007","temp":25,"dewp":23,"wdir":330,"wspd":2,"visib":"6+","altim":1007,"clouds":[{"cover":"FEW","base":3000}],"obsTime":1775685600},"SBAF":{"icaoId":"SBAF","flightCategory":"VFR","rawOb":"METAR SBAF 082200Z 28005KT 9999 FEW030 BKN100 30/22 Q1009","temp":30,"dewp":22,"wdir":280,"wspd":5,"visib":"6+","altim":1009,"clouds":[{"cover":"FEW","base":3000},{"cover":"BKN","base":10000}],"obsTime":1775685600},"SBJR":{"icaoId":"SBJR","flightCategory":"VFR","rawOb":"METAR SBJR 082200Z 28001KT 9999 FEW035 SCT100 28/23 Q1009","temp":28,"dewp":23,"wdir":280,"wspd":1,"visib":"6+","altim":1009,"clouds":[{"cover":"FEW","base":3500},{"cover":"SCT","base":10000}],"obsTime":1775685600},"SBAN":{"icaoId":"SBAN","flightCategory":"VFR","rawOb":"METAR SBAN 082200Z 23004KT 9000 -RA VCTS FEW010 SCT025 FEW035CB OVC100 21/20 Q1019","temp":21,"dewp":20,"wdir":230,"wspd":4,"visib":5.59,"altim":1019,"clouds":[{"cover":"FEW","base":1000},{"cover":"SCT","base":2500},{"cover":"FEW","base":3500},{"cover":"OVC","base":10000}],"obsTime":1775685600},"SBLS":{"icaoId":"SBLS","flightCategory":"VFR","rawOb":"METAR SBLS 082200Z 22007KT 9999 SCT035 FEW040TCU 22/19 Q1017","temp":22,"dewp":19,"wdir":220,"wspd":7,"visib":"6+","altim":1017,"clouds":[{"cover":"SCT","base":3500},{"cover":"FEW","base":4000}],"obsTime":1775685600},"SBJP":{"icaoId":"SBJP","flightCategory":"MVFR","rawOb":"METAR SBJP 082200Z 05003KT 5000 -RA SCT010 BKN025 BKN070 24/24 Q1013","temp":24,"dewp":24,"wdir":50,"wspd":3,"visib":3.11,"altim":1013,"clouds":[{"cover":"SCT","base":1000},{"cover":"BKN","base":2500},{"cover":"BKN","base":7000}],"obsTime":1775685600},"SBMT":{"icaoId":"SBMT","flightCategory":"VFR","rawOb":"METAR SBMT 082200Z 32003KT CAVOK 24/19 Q1015","temp":24,"dewp":19,"wdir":320,"wspd":3,"visib":"6+","altim":1015,"clouds":[],"obsTime":1775685600},"SBGW":{"icaoId":"SBGW","flightCategory":"MVFR","rawOb":"METAR SBGW 082200Z 34003KT 9999 BKN025 FEW030TCU BKN100 22/18 Q1014 RETS","temp":22,"dewp":18,"wdir":340,"wspd":3,"visib":"6+","altim":1014,"clouds":[{"cover":"BKN","base":2500},{"cover":"FEW","base":3000},{"cover":"BKN","base":10000}],"obsTime":1775685600}}}