{"updated":1779170364,"count":51,"data":{"SBSP":{"icaoId":"SBSP","flightCategory":"LIFR","rawOb":"METAR SBSP 190400Z AUTO 19005KT 160V220 5000 BR OVC003 16/16 Q1022","temp":16,"dewp":16,"wdir":190,"wspd":5,"visib":3.11,"altim":1022,"clouds":[{"cover":"OVC","base":300}],"obsTime":1779163200},"SBMQ":{"icaoId":"SBMQ","flightCategory":"VFR","rawOb":"METAR SBMQ 190400Z 31002KT 9999 SCT016 BKN100 26/26 Q1013","temp":26,"dewp":26,"wdir":310,"wspd":2,"visib":"6+","altim":1013,"clouds":[{"cover":"SCT","base":1600},{"cover":"BKN","base":10000}],"obsTime":1779163200},"SBCG":{"icaoId":"SBCG","flightCategory":"MVFR","rawOb":"METAR SBCG 190400Z 15011KT 9999 BKN010 BKN035 14/12 Q1022","temp":14,"dewp":12,"wdir":150,"wspd":11,"visib":"6+","altim":1022,"clouds":[{"cover":"BKN","base":1000},{"cover":"BKN","base":3500}],"obsTime":1779163200},"SBNT":{"icaoId":"SBNT","flightCategory":"VFR","rawOb":"METAR SBNT 190400Z 19005KT 9999 FEW020 23/23 Q1014","temp":23,"dewp":23,"wdir":190,"wspd":5,"visib":"6+","altim":1014,"clouds":[{"cover":"FEW","base":2000}],"obsTime":1779163200},"SBGL":{"icaoId":"SBGL","flightCategory":"MVFR","rawOb":"METAR SBGL 190400Z 28005KT 8000 BKN021 OVC030 24/20 Q1017","temp":24,"dewp":20,"wdir":280,"wspd":5,"visib":4.97,"altim":1017,"clouds":[{"cover":"BKN","base":2100},{"cover":"OVC","base":3000}],"obsTime":1779163200},"SBPA":{"icaoId":"SBPA","flightCategory":"VFR","rawOb":"METAR SBPA 190400Z 09001KT 9999 OVC033 13/11 Q1023","temp":13,"dewp":11,"wdir":90,"wspd":1,"visib":"6+","altim":1023,"clouds":[{"cover":"OVC","base":3300}],"obsTime":1779163200},"SBPJ":{"icaoId":"SBPJ","flightCategory":"VFR","rawOb":"METAR SBPJ 190400Z 11005KT CAVOK 24/20 Q1015","temp":24,"dewp":20,"wdir":110,"wspd":5,"visib":"6+","altim":1015,"clouds":[],"obsTime":1779163200},"SBBV":{"icaoId":"SBBV","flightCategory":"VFR","rawOb":"METAR SBBV 190400Z 17004KT 9999 FEW030 SCT080 27/24 Q1014","temp":27,"dewp":24,"wdir":170,"wspd":4,"visib":"6+","altim":1014,"clouds":[{"cover":"FEW","base":3000},{"cover":"SCT","base":8000}],"obsTime":1779163200},"SBPV":{"icaoId":"SBPV","flightCategory":"MVFR","rawOb":"METAR SBPV 190400Z 15010KT 9999 BKN010 24/20 Q1015","temp":24,"dewp":20,"wdir":150,"wspd":10,"visib":"6+","altim":1015,"clouds":[{"cover":"BKN","base":1000}],"obsTime":1779163200},"SBGO":{"icaoId":"SBGO","flightCategory":"VFR","rawOb":"METAR SBGO 190400Z 13005KT 9999 FEW021 FEW045TCU BKN070 23/20 Q1020","temp":23,"dewp":20,"wdir":130,"wspd":5,"visib":"6+","altim":1020,"clouds":[{"cover":"FEW","base":2100},{"cover":"FEW","base":4500},{"cover":"BKN","base":7000}],"obsTime":1779163200},"SBRB":{"icaoId":"SBRB","flightCategory":"IFR","rawOb":"METAR SBRB 190400Z 16010KT 3500 BR OVC005 18/18 Q1018","temp":18,"dewp":18,"wdir":160,"wspd":10,"visib":2.17,"altim":1018,"clouds":[{"cover":"OVC","base":500}],"obsTime":1779163200},"SBCT":{"icaoId":"SBCT","flightCategory":"LIFR","rawOb":"METAR SBCT 190400Z 13005KT 9000 OVC004 12/12 Q1023","temp":12,"dewp":12,"wdir":130,"wspd":5,"visib":5.59,"altim":1023,"clouds":[{"cover":"OVC","base":400}],"obsTime":1779163200},"SBRF":{"icaoId":"SBRF","flightCategory":"VFR","rawOb":"METAR SBRF 190400Z 18002KT 9999 SCT025 24/22 Q1015","temp":24,"dewp":22,"wdir":180,"wspd":2,"visib":"6+","altim":1015,"clouds":[{"cover":"SCT","base":2500}],"obsTime":1779163200},"SBGR":{"icaoId":"SBGR","flightCategory":"MVFR","rawOb":"METAR SBGR 190400Z 00000KT 9999 BKN013 17/16 Q1021","temp":17,"dewp":16,"wdir":0,"wspd":0,"visib":"6+","altim":1021,"clouds":[{"cover":"BKN","base":1300}],"obsTime":1779163200},"SBSG":{"icaoId":"SBSG","flightCategory":"VFR","rawOb":"METAR SBSG 190400Z 17003KT 9999 FEW021 23/22 Q1014","temp":23,"dewp":22,"wdir":170,"wspd":3,"visib":"6+","altim":1014,"clouds":[{"cover":"FEW","base":2100}],"obsTime":1779163200},"SBJU":{"icaoId":"SBJU","flightCategory":"VFR","rawOb":"METAR SBJU 190400Z 00000KT 9999 SCT020 23/22 Q1016","temp":23,"dewp":22,"wdir":0,"wspd":0,"visib":"6+","altim":1016,"clouds":[{"cover":"SCT","base":2000}],"obsTime":1779163200},"SBEG":{"icaoId":"SBEG","flightCategory":"VFR","rawOb":"METAR SBEG 190400Z 00000KT 9999 FEW012 23/23 Q1014","temp":23,"dewp":23,"wdir":0,"wspd":0,"visib":"6+","altim":1014,"clouds":[{"cover":"FEW","base":1200}],"obsTime":1779163200},"SBSL":{"icaoId":"SBSL","flightCategory":"VFR","rawOb":"METAR SBSL 190400Z 15002KT CAVOK 25/24 Q1013","temp":25,"dewp":24,"wdir":150,"wspd":2,"visib":"6+","altim":1013,"clouds":[],"obsTime":1779163200},"SBMO":{"icaoId":"SBMO","flightCategory":"VFR","rawOb":"METAR SBMO 190400Z 32004KT 9999 FEW025 21/21 Q1016","temp":21,"dewp":21,"wdir":320,"wspd":4,"visib":"6+","altim":1016,"clouds":[{"cover":"FEW","base":2500}],"obsTime":1779163200},"SBME":{"icaoId":"SBME","flightCategory":"VFR","rawOb":"METAR SBME 190400Z 24003KT 9999 FEW033 BKN100 23/21 Q1016","temp":23,"dewp":21,"wdir":240,"wspd":3,"visib":"6+","altim":1016,"clouds":[{"cover":"FEW","base":3300},{"cover":"BKN","base":10000}],"obsTime":1779163200},"SBMG":{"icaoId":"SBMG","flightCategory":"VFR","rawOb":"METAR SBMG 190400Z AUTO 28006KT CAVOK 14/14 Q1020","temp":14,"dewp":14,"wdir":280,"wspd":6,"visib":"6+","altim":1020,"clouds":[],"obsTime":1779163200},"SBBE":{"icaoId":"SBBE","flightCategory":"IFR","rawOb":"METAR SBBE 190400Z 16011KT 4000 -RA SCT010 BKN020 FEW025TCU BKN080 24/23 Q1013 RETS","temp":24,"dewp":23,"wdir":160,"wspd":11,"visib":2.49,"altim":1013,"clouds":[{"cover":"SCT","base":1000},{"cover":"BKN","base":2000},{"cover":"FEW","base":2500},{"cover":"BKN","base":8000}],"obsTime":1779163200},"SBFL":{"icaoId":"SBFL","flightCategory":"VFR","rawOb":"METAR SBFL 190400Z 19012KT 9999 BKN049 17/12 Q1021","temp":17,"dewp":12,"wdir":190,"wspd":12,"visib":"6+","altim":1021,"clouds":[{"cover":"BKN","base":4900}],"obsTime":1779163200},"SBFZ":{"icaoId":"SBFZ","flightCategory":"VFR","rawOb":"METAR SBFZ 190400Z 12007KT 9999 FEW020 26/23 Q1012","temp":26,"dewp":23,"wdir":120,"wspd":7,"visib":"6+","altim":1012,"clouds":[{"cover":"FEW","base":2000}],"obsTime":1779163200},"SBSN":{"icaoId":"SBSN","flightCategory":"VFR","rawOb":"METAR SBSN 190400Z 12001KT CAVOK 25/24 Q1013","temp":25,"dewp":24,"wdir":120,"wspd":1,"visib":"6+","altim":1013,"clouds":[],"obsTime":1779163200},"SBKP":{"icaoId":"SBKP","flightCategory":"MVFR","rawOb":"METAR SBKP 190400Z 16007KT 9999 -RA BKN026 BKN100 18/16 Q1021","temp":18,"dewp":16,"wdir":160,"wspd":7,"visib":"6+","altim":1021,"clouds":[{"cover":"BKN","base":2600},{"cover":"BKN","base":10000}],"obsTime":1779163200},"SBSV":{"icaoId":"SBSV","flightCategory":"VFR","rawOb":"METAR SBSV 190400Z 10005KT 9999 SCT023 26/22 Q1016","temp":26,"dewp":22,"wdir":100,"wspd":5,"visib":"6+","altim":1016,"clouds":[{"cover":"SCT","base":2300}],"obsTime":1779163200},"SBCF":{"icaoId":"SBCF","flightCategory":"VFR","rawOb":"METAR SBCF 190400Z 19002KT CAVOK 21/18 Q1020","temp":21,"dewp":18,"wdir":190,"wspd":2,"visib":"6+","altim":1020,"clouds":[],"obsTime":1779163200},"SBTE":{"icaoId":"SBTE","flightCategory":"VFR","rawOb":"METAR SBTE 190400Z 33003KT 9999 FEW020 SCT100 27/25 Q1013","temp":27,"dewp":25,"wdir":330,"wspd":3,"visib":"6+","altim":1013,"clouds":[{"cover":"FEW","base":2000},{"cover":"SCT","base":10000}],"obsTime":1779163200},"SBLO":{"icaoId":"SBLO","flightCategory":"VFR","rawOb":"METAR SBLO 190400Z 24003KT 170V290 CAVOK 17/16 Q1020","temp":17,"dewp":16,"wdir":240,"wspd":3,"visib":"6+","altim":1020,"clouds":[],"obsTime":1779163200},"SBUL":{"icaoId":"SBUL","flightCategory":"VFR","rawOb":"METAR SBUL 190400Z 18007KT 130V200 CAVOK 19/18 Q1021","temp":19,"dewp":18,"wdir":180,"wspd":7,"visib":"6+","altim":1021,"clouds":[],"obsTime":1779163200},"SBFI":{"icaoId":"SBFI","flightCategory":"MVFR","rawOb":"METAR SBFI 190400Z 21005KT 9999 BKN020 SCT080 12/12 Q1022","temp":12,"dewp":12,"wdir":210,"wspd":5,"visib":"6+","altim":1022,"clouds":[{"cover":"BKN","base":2000},{"cover":"SCT","base":8000}],"obsTime":1779163200},"SBMA":{"icaoId":"SBMA","flightCategory":"VFR","rawOb":"METAR SBMA 190400Z 33001KT CAVOK 27/25 Q1013","temp":27,"dewp":25,"wdir":330,"wspd":1,"visib":"6+","altim":1013,"clouds":[],"obsTime":1779163200},"SBUR":{"icaoId":"SBUR","flightCategory":"VFR","rawOb":"METAR SBUR 190400Z 13002KT CAVOK 20/18 Q1020","temp":20,"dewp":18,"wdir":130,"wspd":2,"visib":"6+","altim":1020,"clouds":[],"obsTime":1779163200},"SBBR":{"icaoId":"SBBR","flightCategory":"VFR","rawOb":"METAR SBBR 190400Z VRB02KT CAVOK 21/17 Q1021","temp":21,"dewp":17,"wdir":"VRB","wspd":2,"visib":"6+","altim":1021,"clouds":[],"obsTime":1779163200},"SBVT":{"icaoId":"SBVT","flightCategory":"VFR","rawOb":"METAR SBVT 190400Z 12004KT 9999 FEW015 SCT025 24/23 Q1016","temp":24,"dewp":23,"wdir":120,"wspd":4,"visib":"6+","altim":1016,"clouds":[{"cover":"FEW","base":1500},{"cover":"SCT","base":2500}],"obsTime":1779163200},"SBMK":{"icaoId":"SBMK","flightCategory":"VFR","rawOb":"METAR SBMK 190400Z 25002KT CAVOK 20/17 Q1018","temp":20,"dewp":17,"wdir":250,"wspd":2,"visib":"6+","altim":1018,"clouds":[],"obsTime":1779163200},"SBOI":{"icaoId":"SBOI","flightCategory":"MVFR","rawOb":"METAR SBOI 190400Z AUTO 31002KT 9000 // SCT001/// BKN015/// 24/24 Q1013","temp":24,"dewp":24,"wdir":310,"wspd":2,"visib":5.59,"altim":1013,"clouds":[{"cover":"SCT","base":100},{"cover":"BKN","base":1500}],"obsTime":1779163200},"SBIP":{"icaoId":"SBIP","flightCategory":"MVFR","rawOb":"METAR SBIP 190400Z AUTO VRB02KT 8000 FEW005 20/20 Q1017","temp":20,"dewp":20,"wdir":"VRB","wspd":2,"visib":4.97,"altim":1017,"clouds":[{"cover":"FEW","base":500}],"obsTime":1779163200},"SBAX":{"icaoId":"SBAX","flightCategory":"LIFR","rawOb":"METAR SBAX 190400Z AUTO 05002KT 0700 FG VV001 ///// Q1021","temp":null,"dewp":null,"wdir":50,"wspd":2,"visib":0.43,"altim":1021,"clouds":[{"cover":"OVX","base":100}],"obsTime":1779163200},"SBKG":{"icaoId":"SBKG","flightCategory":"IFR","rawOb":"METAR SBKG 190400Z 11005KT 8000 2000SE FEW006 BKN007 21/21 Q1017","temp":21,"dewp":21,"wdir":110,"wspd":5,"visib":4.97,"altim":1017,"clouds":[{"cover":"FEW","base":600},{"cover":"BKN","base":700}],"obsTime":1779163200},"SBAR":{"icaoId":"SBAR","flightCategory":"VFR","rawOb":"METAR SBAR 190400Z 12006KT 9999 SCT025 27/22 Q1015","temp":27,"dewp":22,"wdir":120,"wspd":6,"visib":"6+","altim":1015,"clouds":[{"cover":"SCT","base":2500}],"obsTime":1779163200},"SBSR":{"icaoId":"SBSR","flightCategory":"LIFR","rawOb":"METAR SBSR 190400Z 24005KT 9999 BKN004 BKN070 20/20 Q1019","temp":20,"dewp":20,"wdir":240,"wspd":5,"visib":"6+","altim":1019,"clouds":[{"cover":"BKN","base":400},{"cover":"BKN","base":7000}],"obsTime":1779163200},"SBSC":{"icaoId":"SBSC","flightCategory":"MVFR","rawOb":"METAR SBSC 190400Z 18006KT 5000 BR SCT008 BKN015 OVC050 23/21 Q1016","temp":23,"dewp":21,"wdir":180,"wspd":6,"visib":3.11,"altim":1016,"clouds":[{"cover":"SCT","base":800},{"cover":"BKN","base":1500},{"cover":"OVC","base":5000}],"obsTime":1779163200},"SBPS":{"icaoId":"SBPS","flightCategory":"VFR","rawOb":"METAR SBPS 190400Z 36004KT 9999 FEW020 24/22 Q1016","temp":24,"dewp":22,"wdir":360,"wspd":4,"visib":"6+","altim":1016,"clouds":[{"cover":"FEW","base":2000}],"obsTime":1779163200},"SBDN":{"icaoId":"SBDN","flightCategory":"VFR","rawOb":"METAR SBDN 190400Z 22006KT 9999 FEW009 OVC050 16/14 Q1020","temp":16,"dewp":14,"wdir":220,"wspd":6,"visib":"6+","altim":1020,"clouds":[{"cover":"FEW","base":900},{"cover":"OVC","base":5000}],"obsTime":1779163200},"SBPL":{"icaoId":"SBPL","flightCategory":"VFR","rawOb":"METAR SBPL 190400Z 12008KT CAVOK 26/18 Q1016","temp":26,"dewp":18,"wdir":120,"wspd":8,"visib":"6+","altim":1016,"clouds":[],"obsTime":1779163200},"SBAN":{"icaoId":"SBAN","flightCategory":"VFR","rawOb":"METAR SBAN 190400Z 21004KT CAVOK 20/19 Q1021","temp":20,"dewp":19,"wdir":210,"wspd":4,"visib":"6+","altim":1021,"clouds":[],"obsTime":1779163200},"SBNM":{"icaoId":"SBNM","flightCategory":"VFR","rawOb":"METAR SBNM 190400Z 16002KT CAVOK 07/05 Q1024","temp":7,"dewp":5,"wdir":160,"wspd":2,"visib":"6+","altim":1024,"clouds":[],"obsTime":1779163200},"SBJP":{"icaoId":"SBJP","flightCategory":"VFR","rawOb":"METAR SBJP 190400Z 14004KT 9999 FEW020 23/22 Q1015","temp":23,"dewp":22,"wdir":140,"wspd":4,"visib":"6+","altim":1015,"clouds":[{"cover":"FEW","base":2000}],"obsTime":1779163200},"SBLE":{"icaoId":"SBLE","flightCategory":"VFR","rawOb":"METAR SBLE 190400Z AUTO 34002KT CAVOK ///// Q////","temp":null,"dewp":null,"wdir":340,"wspd":2,"visib":"6+","altim":null,"clouds":[],"obsTime":1779163200}}}