{"updated":1778539924,"count":83,"data":{"SBEG":{"icaoId":"SBEG","flightCategory":"VFR","rawOb":"METAR SBEG 112100Z 32002KT 9999 SCT007 BKN080 25/24 Q1010","temp":25,"dewp":24,"wdir":320,"wspd":2,"visib":"6+","altim":1010,"clouds":[{"cover":"SCT","base":700},{"cover":"BKN","base":8000}],"obsTime":1778533200},"SBBE":{"icaoId":"SBBE","flightCategory":"MVFR","rawOb":"METAR SBBE 112100Z 12004KT 8000 -TSRA FEW010 BKN030 FEW040CB 25/25 Q1009","temp":25,"dewp":25,"wdir":120,"wspd":4,"visib":4.97,"altim":1009,"clouds":[{"cover":"FEW","base":1000},{"cover":"BKN","base":3000},{"cover":"FEW","base":4000}],"obsTime":1778533200},"SBBR":{"icaoId":"SBBR","flightCategory":"VFR","rawOb":"METAR SBBR 112100Z 18008KT CAVOK 24/17 Q1019","temp":24,"dewp":17,"wdir":180,"wspd":8,"visib":"6+","altim":1019,"clouds":[],"obsTime":1778533200},"SBBV":{"icaoId":"SBBV","flightCategory":"VFR","rawOb":"METAR SBBV 112100Z 20009KT 9999 VCSH FEW030 FEW035TCU SCT100 29/24 Q1009","temp":29,"dewp":24,"wdir":200,"wspd":9,"visib":"6+","altim":1009,"clouds":[{"cover":"FEW","base":3000},{"cover":"FEW","base":3500},{"cover":"SCT","base":10000}],"obsTime":1778533200},"SBCF":{"icaoId":"SBCF","flightCategory":"VFR","rawOb":"METAR SBCF 112100Z 32003KT 9999 FEW040 24/18 Q1018","temp":24,"dewp":18,"wdir":320,"wspd":3,"visib":"6+","altim":1018,"clouds":[{"cover":"FEW","base":4000}],"obsTime":1778533200},"SBCG":{"icaoId":"SBCG","flightCategory":"VFR","rawOb":"METAR SBCG 112100Z 18007KT CAVOK 16/08 Q1020","temp":16,"dewp":8,"wdir":180,"wspd":7,"visib":"6+","altim":1020,"clouds":[],"obsTime":1778533200},"SBCP":{"icaoId":"SBCP","flightCategory":"VFR","rawOb":"METAR SBCP 112100Z 23009KT 9999 SCT040 BKN080 21/17 Q1017","temp":21,"dewp":17,"wdir":230,"wspd":9,"visib":"6+","altim":1017,"clouds":[{"cover":"SCT","base":4000},{"cover":"BKN","base":8000}],"obsTime":1778533200},"SBCT":{"icaoId":"SBCT","flightCategory":"VFR","rawOb":"METAR SBCT 112100Z 22006KT 180V240 CAVOK 14/02 Q1021","temp":14,"dewp":2,"wdir":220,"wspd":6,"visib":"6+","altim":1021,"clouds":[],"obsTime":1778533200},"SBCZ":{"icaoId":"SBCZ","flightCategory":"MVFR","rawOb":"METAR SBCZ 112100Z 15004KT 9999 BKN015 OVC090 19/17 Q1016","temp":19,"dewp":17,"wdir":150,"wspd":4,"visib":"6+","altim":1016,"clouds":[{"cover":"BKN","base":1500},{"cover":"OVC","base":9000}],"obsTime":1778533200},"SBFI":{"icaoId":"SBFI","flightCategory":"VFR","rawOb":"METAR SBFI 112100Z 20004KT CAVOK 15/10 Q1021","temp":15,"dewp":10,"wdir":200,"wspd":4,"visib":"6+","altim":1021,"clouds":[],"obsTime":1778533200},"SBFL":{"icaoId":"SBFL","flightCategory":"VFR","rawOb":"METAR SBFL 112100Z 17004KT CAVOK 15/11 Q1019","temp":15,"dewp":11,"wdir":170,"wspd":4,"visib":"6+","altim":1019,"clouds":[],"obsTime":1778533200},"SBFZ":{"icaoId":"SBFZ","flightCategory":"VFR","rawOb":"METAR SBFZ 112100Z 10010KT CAVOK 28/25 Q1010","temp":28,"dewp":25,"wdir":100,"wspd":10,"visib":"6+","altim":1010,"clouds":[],"obsTime":1778533200},"SBGL":{"icaoId":"SBGL","flightCategory":"MVFR","rawOb":"METAR SBGL 112100Z 23008KT 9999 BKN025 OVC045 21/14 Q1019","temp":21,"dewp":14,"wdir":230,"wspd":8,"visib":"6+","altim":1019,"clouds":[{"cover":"BKN","base":2500},{"cover":"OVC","base":4500}],"obsTime":1778533200},"SBGO":{"icaoId":"SBGO","flightCategory":"VFR","rawOb":"METAR SBGO 112100Z 15007KT CAVOK 22/17 Q1018","temp":22,"dewp":17,"wdir":150,"wspd":7,"visib":"6+","altim":1018,"clouds":[],"obsTime":1778533200},"SBGR":{"icaoId":"SBGR","flightCategory":"VFR","rawOb":"METAR SBGR 112100Z 28001KT CAVOK 12/09 Q1021","temp":12,"dewp":9,"wdir":280,"wspd":1,"visib":"6+","altim":1021,"clouds":[],"obsTime":1778533200},"SBIL":{"icaoId":"SBIL","flightCategory":"VFR","rawOb":"METAR SBIL 112100Z 15006KT 120V180 CAVOK 27/23 Q1015","temp":27,"dewp":23,"wdir":150,"wspd":6,"visib":"6+","altim":1015,"clouds":[],"obsTime":1778533200},"SBJU":{"icaoId":"SBJU","flightCategory":"VFR","rawOb":"METAR SBJU 112100Z 00000KT 9999 FEW022 28/22 Q1013","temp":28,"dewp":22,"wdir":0,"wspd":0,"visib":"6+","altim":1013,"clouds":[{"cover":"FEW","base":2200}],"obsTime":1778533200},"SBKP":{"icaoId":"SBKP","flightCategory":"VFR","rawOb":"METAR SBKP 112100Z 24006KT 180V250 CAVOK 15/08 Q1021","temp":15,"dewp":8,"wdir":240,"wspd":6,"visib":"6+","altim":1021,"clouds":[],"obsTime":1778533200},"SBLO":{"icaoId":"SBLO","flightCategory":"VFR","rawOb":"METAR SBLO 112100Z 10003KT CAVOK 15/09 Q1020","temp":15,"dewp":9,"wdir":100,"wspd":3,"visib":"6+","altim":1020,"clouds":[],"obsTime":1778533200},"SBMA":{"icaoId":"SBMA","flightCategory":"VFR","rawOb":"METAR SBMA 112100Z 08004KT 9999 FEW020 FEW025TCU 29/23 Q1009","temp":29,"dewp":23,"wdir":80,"wspd":4,"visib":"6+","altim":1009,"clouds":[{"cover":"FEW","base":2000},{"cover":"FEW","base":2500}],"obsTime":1778533200},"SBME":{"icaoId":"SBME","flightCategory":"VFR","rawOb":"METAR SBME 112100Z 24007KT 9999 SCT040 BKN070 21/16 Q1017","temp":21,"dewp":16,"wdir":240,"wspd":7,"visib":"6+","altim":1017,"clouds":[{"cover":"SCT","base":4000},{"cover":"BKN","base":7000}],"obsTime":1778533200},"SBMG":{"icaoId":"SBMG","flightCategory":"VFR","rawOb":"METAR SBMG 112100Z 21005KT CAVOK 14/09 Q1020","temp":14,"dewp":9,"wdir":210,"wspd":5,"visib":"6+","altim":1020,"clouds":[],"obsTime":1778533200},"SBMK":{"icaoId":"SBMK","flightCategory":"VFR","rawOb":"METAR SBMK 112100Z 17004KT 9999 FEW045 26/15 Q1016","temp":26,"dewp":15,"wdir":170,"wspd":4,"visib":"6+","altim":1016,"clouds":[{"cover":"FEW","base":4500}],"obsTime":1778533200},"SBMO":{"icaoId":"SBMO","flightCategory":"VFR","rawOb":"METAR SBMO 112100Z 13008KT 9999 FEW026 SCT070 27/23 Q1013","temp":27,"dewp":23,"wdir":130,"wspd":8,"visib":"6+","altim":1013,"clouds":[{"cover":"FEW","base":2600},{"cover":"SCT","base":7000}],"obsTime":1778533200},"SBMQ":{"icaoId":"SBMQ","flightCategory":"VFR","rawOb":"METAR SBMQ 112100Z 05005KT 9999 FEW023 29/26 Q1009","temp":29,"dewp":26,"wdir":50,"wspd":5,"visib":"6+","altim":1009,"clouds":[{"cover":"FEW","base":2300}],"obsTime":1778533200},"SBNT":{"icaoId":"SBNT","flightCategory":"VFR","rawOb":"METAR SBNT 112100Z 13009KT 9999 FEW028 SCT100 27/24 Q1011","temp":27,"dewp":24,"wdir":130,"wspd":9,"visib":"6+","altim":1011,"clouds":[{"cover":"FEW","base":2800},{"cover":"SCT","base":10000}],"obsTime":1778533200},"SBPA":{"icaoId":"SBPA","flightCategory":"VFR","rawOb":"METAR SBPA 112100Z 28010KT CAVOK 15/06 Q1020","temp":15,"dewp":6,"wdir":280,"wspd":10,"visib":"6+","altim":1020,"clouds":[],"obsTime":1778533200},"SBPJ":{"icaoId":"SBPJ","flightCategory":"VFR","rawOb":"METAR SBPJ 112100Z 21004KT CAVOK 31/22 Q1011","temp":31,"dewp":22,"wdir":210,"wspd":4,"visib":"6+","altim":1011,"clouds":[],"obsTime":1778533200},"SBPV":{"icaoId":"SBPV","flightCategory":"VFR","rawOb":"METAR SBPV 112100Z 18006KT 9999 FEW025 SCT100 25/21 Q1013","temp":25,"dewp":21,"wdir":180,"wspd":6,"visib":"6+","altim":1013,"clouds":[{"cover":"FEW","base":2500},{"cover":"SCT","base":10000}],"obsTime":1778533200},"SBRB":{"icaoId":"SBRB","flightCategory":"VFR","rawOb":"METAR SBRB 112100Z 16002KT 9000 FEW010 BKN100 21/16 Q1016","temp":21,"dewp":16,"wdir":160,"wspd":2,"visib":5.59,"altim":1016,"clouds":[{"cover":"FEW","base":1000},{"cover":"BKN","base":10000}],"obsTime":1778533200},"SBRF":{"icaoId":"SBRF","flightCategory":"VFR","rawOb":"METAR SBRF 112100Z 18005KT 9999 SCT023 BKN050 26/23 Q1012","temp":26,"dewp":23,"wdir":180,"wspd":5,"visib":"6+","altim":1012,"clouds":[{"cover":"SCT","base":2300},{"cover":"BKN","base":5000}],"obsTime":1778533200},"SBSG":{"icaoId":"SBSG","flightCategory":"VFR","rawOb":"METAR SBSG 112100Z 13007KT 9999 FEW023 26/24 Q1012","temp":26,"dewp":24,"wdir":130,"wspd":7,"visib":"6+","altim":1012,"clouds":[{"cover":"FEW","base":2300}],"obsTime":1778533200},"SBSL":{"icaoId":"SBSL","flightCategory":"VFR","rawOb":"METAR SBSL 112100Z 08004KT 9999 SCT025 BKN070 27/25 Q1010","temp":27,"dewp":25,"wdir":80,"wspd":4,"visib":"6+","altim":1010,"clouds":[{"cover":"SCT","base":2500},{"cover":"BKN","base":7000}],"obsTime":1778533200},"SBSN":{"icaoId":"SBSN","flightCategory":"VFR","rawOb":"METAR SBSN 112100Z 07004KT 040V100 9999 FEW019 29/25 Q1008","temp":29,"dewp":25,"wdir":70,"wspd":4,"visib":"6+","altim":1008,"clouds":[{"cover":"FEW","base":1900}],"obsTime":1778533200},"SBSP":{"icaoId":"SBSP","flightCategory":"VFR","rawOb":"METAR SBSP 112100Z 16007KT CAVOK 14/11 Q1021","temp":14,"dewp":11,"wdir":160,"wspd":7,"visib":"6+","altim":1021,"clouds":[],"obsTime":1778533200},"SBSV":{"icaoId":"SBSV","flightCategory":"MVFR","rawOb":"METAR SBSV 112100Z 09008KT 9999 FEW015 BKN020 BKN075 26/24 Q1014","temp":26,"dewp":24,"wdir":90,"wspd":8,"visib":"6+","altim":1014,"clouds":[{"cover":"FEW","base":1500},{"cover":"BKN","base":2000},{"cover":"BKN","base":7500}],"obsTime":1778533200},"SBTE":{"icaoId":"SBTE","flightCategory":"VFR","rawOb":"METAR SBTE 112100Z 17006KT 9999 FEW020 BKN100 27/24 Q1009 RETS","temp":27,"dewp":24,"wdir":170,"wspd":6,"visib":"6+","altim":1009,"clouds":[{"cover":"FEW","base":2000},{"cover":"BKN","base":10000}],"obsTime":1778533200},"SBUL":{"icaoId":"SBUL","flightCategory":"VFR","rawOb":"METAR SBUL 112100Z 23007KT CAVOK 20/15 Q1020","temp":20,"dewp":15,"wdir":230,"wspd":7,"visib":"6+","altim":1020,"clouds":[],"obsTime":1778533200},"SBUR":{"icaoId":"SBUR","flightCategory":"VFR","rawOb":"METAR SBUR 112100Z 20006KT CAVOK 19/12 Q1020","temp":19,"dewp":12,"wdir":200,"wspd":6,"visib":"6+","altim":1020,"clouds":[],"obsTime":1778533200},"SBVT":{"icaoId":"SBVT","flightCategory":"MVFR","rawOb":"METAR SBVT 112100Z 21012KT 9999 BKN020 23/19 Q1017","temp":23,"dewp":19,"wdir":210,"wspd":12,"visib":"6+","altim":1017,"clouds":[{"cover":"BKN","base":2000}],"obsTime":1778533200},"SBCB":{"icaoId":"SBCB","flightCategory":"VFR","rawOb":"METAR SBCB 112100Z 25012KT 9999 SCT025 OVC040 22/16 Q1018","temp":22,"dewp":16,"wdir":250,"wspd":12,"visib":"6+","altim":1018,"clouds":[{"cover":"SCT","base":2500},{"cover":"OVC","base":4000}],"obsTime":1778533200},"SBCR":{"icaoId":"SBCR","flightCategory":"VFR","rawOb":"METAR SBCR 112100Z 20006KT 170V230 CAVOK 20/09 Q1018","temp":20,"dewp":9,"wdir":200,"wspd":6,"visib":"6+","altim":1018,"clouds":[],"obsTime":1778533200},"SBAT":{"icaoId":"SBAT","flightCategory":"MVFR","rawOb":"METAR SBAT 112100Z 19003KT 9999 BKN030 27/22 Q1013","temp":27,"dewp":22,"wdir":190,"wspd":3,"visib":"6+","altim":1013,"clouds":[{"cover":"BKN","base":3000}],"obsTime":1778533200},"SBHT":{"icaoId":"SBHT","flightCategory":"VFR","rawOb":"METAR SBHT 112100Z 00000KT 9999 FEW025 29/26 Q1008","temp":29,"dewp":26,"wdir":0,"wspd":0,"visib":"6+","altim":1008,"clouds":[{"cover":"FEW","base":2500}],"obsTime":1778533200},"SBTF":{"icaoId":"SBTF","flightCategory":"VFR","rawOb":"METAR SBTF 112100Z 23005KT 9000 -DZ SCT006 SCT009 OVC100 24/23 Q1011","temp":24,"dewp":23,"wdir":230,"wspd":5,"visib":5.59,"altim":1011,"clouds":[{"cover":"SCT","base":600},{"cover":"SCT","base":900},{"cover":"OVC","base":10000}],"obsTime":1778533200},"SBOI":{"icaoId":"SBOI","flightCategory":"MVFR","rawOb":"METAR SBOI 112100Z AUTO 02005KT 340V070 9999 -RA SCT008 BKN023 25/25 Q1010 RERA","temp":25,"dewp":25,"wdir":20,"wspd":5,"visib":"6+","altim":1010,"clouds":[{"cover":"SCT","base":800},{"cover":"BKN","base":2300}],"obsTime":1778533200},"SBPL":{"icaoId":"SBPL","flightCategory":"VFR","rawOb":"METAR SBPL 112100Z 15004KT CAVOK 28/19 Q1013","temp":28,"dewp":19,"wdir":150,"wspd":4,"visib":"6+","altim":1013,"clouds":[],"obsTime":1778533200},"SBBU":{"icaoId":"SBBU","flightCategory":"VFR","rawOb":"METAR SBBU 112100Z 21004KT CAVOK 17/10 Q1020","temp":17,"dewp":10,"wdir":210,"wspd":4,"visib":"6+","altim":1020,"clouds":[],"obsTime":1778533200},"SBDN":{"icaoId":"SBDN","flightCategory":"VFR","rawOb":"METAR SBDN 112100Z 18003KT CAVOK 17/09 Q1020","temp":17,"dewp":9,"wdir":180,"wspd":3,"visib":"6+","altim":1020,"clouds":[],"obsTime":1778533200},"SBPS":{"icaoId":"SBPS","flightCategory":"VFR","rawOb":"METAR SBPS 112100Z 12006KT CAVOK 25/22 Q1015","temp":25,"dewp":22,"wdir":120,"wspd":6,"visib":"6+","altim":1015,"clouds":[],"obsTime":1778533200},"SBAR":{"icaoId":"SBAR","flightCategory":"VFR","rawOb":"METAR SBAR 112100Z 14007KT 9999 FEW025 28/22 Q1013","temp":28,"dewp":22,"wdir":140,"wspd":7,"visib":"6+","altim":1013,"clouds":[{"cover":"FEW","base":2500}],"obsTime":1778533200},"SBSC":{"icaoId":"SBSC","flightCategory":"MVFR","rawOb":"METAR SBSC 112100Z 22006KT 9999 FEW015 BKN030 OVC040 20/15 Q1019","temp":20,"dewp":15,"wdir":220,"wspd":6,"visib":"6+","altim":1019,"clouds":[{"cover":"FEW","base":1500},{"cover":"BKN","base":3000},{"cover":"OVC","base":4000}],"obsTime":1778533200},"SBES":{"icaoId":"SBES","flightCategory":"VFR","rawOb":"METAR SBES 112100Z VRB07KT 9999 FEW015 SCT020 OVC040 21/// Q1018","temp":null,"dewp":null,"wdir":"VRB","wspd":7,"visib":"6+","altim":1018,"clouds":[{"cover":"FEW","base":1500},{"cover":"SCT","base":2000},{"cover":"OVC","base":4000}],"obsTime":1778533200},"SBSJ":{"icaoId":"SBSJ","flightCategory":"VFR","rawOb":"METAR SBSJ 112100Z 15004KT CAVOK 14/08 Q1020","temp":14,"dewp":8,"wdir":150,"wspd":4,"visib":"6+","altim":1020,"clouds":[],"obsTime":1778533200},"SBCA":{"icaoId":"SBCA","flightCategory":"VFR","rawOb":"METAR SBCA 112100Z 17008KT CAVOK 11/06 Q1022","temp":11,"dewp":6,"wdir":170,"wspd":8,"visib":"6+","altim":1022,"clouds":[],"obsTime":1778533200},"SBSM":{"icaoId":"SBSM","flightCategory":"VFR","rawOb":"METAR SBSM 112100Z 28002KT CAVOK 13/06 Q1022","temp":13,"dewp":6,"wdir":280,"wspd":2,"visib":"6+","altim":1022,"clouds":[],"obsTime":1778533200},"SBIP":{"icaoId":"SBIP","flightCategory":"VFR","rawOb":"METAR SBIP 112100Z AUTO 20003KT CAVOK 24/21 Q1015","temp":24,"dewp":21,"wdir":200,"wspd":3,"visib":"6+","altim":1015,"clouds":[],"obsTime":1778533200},"SBSR":{"icaoId":"SBSR","flightCategory":"VFR","rawOb":"METAR SBSR 112100Z 22005KT CAVOK 20/07 Q1019","temp":20,"dewp":7,"wdir":220,"wspd":5,"visib":"6+","altim":1019,"clouds":[],"obsTime":1778533200},"SBKG":{"icaoId":"SBKG","flightCategory":"VFR","rawOb":"METAR SBKG 112100Z 11004KT 9999 SCT016 BKN070 25/22 Q1014","temp":25,"dewp":22,"wdir":110,"wspd":4,"visib":"6+","altim":1014,"clouds":[{"cover":"SCT","base":1600},{"cover":"BKN","base":7000}],"obsTime":1778533200},"SBTT":{"icaoId":"SBTT","flightCategory":"MVFR","rawOb":"METAR SBTT 112100Z 23006KT 9999 BKN016 21/17 Q1015","temp":21,"dewp":17,"wdir":230,"wspd":6,"visib":"6+","altim":1015,"clouds":[{"cover":"BKN","base":1600}],"obsTime":1778533200},"SBAX":{"icaoId":"SBAX","flightCategory":"VFR","rawOb":"METAR SBAX 112100Z 23006KT 9999 FEW035 20/14 Q1020","temp":20,"dewp":14,"wdir":230,"wspd":6,"visib":"6+","altim":1020,"clouds":[{"cover":"FEW","base":3500}],"obsTime":1778533200},"SBCO":{"icaoId":"SBCO","flightCategory":"VFR","rawOb":"METAR SBCO 112100Z 29007KT CAVOK 14/05 Q1021","temp":14,"dewp":5,"wdir":290,"wspd":7,"visib":"6+","altim":1021,"clouds":[],"obsTime":1778533200},"SBUY":{"icaoId":"SBUY","flightCategory":"MVFR","rawOb":"METAR SBUY 112100Z 00000KT 9999 BKN020 OVC100 22/20 Q1012","temp":22,"dewp":20,"wdir":0,"wspd":0,"visib":"6+","altim":1012,"clouds":[{"cover":"BKN","base":2000},{"cover":"OVC","base":10000}],"obsTime":1778533200},"SBBH":{"icaoId":"SBBH","flightCategory":"VFR","rawOb":"METAR SBBH 112100Z 30003KT 9999 FEW045 SCT100 25/18 Q1018","temp":25,"dewp":18,"wdir":300,"wspd":3,"visib":"6+","altim":1018,"clouds":[{"cover":"FEW","base":4500},{"cover":"SCT","base":10000}],"obsTime":1778533200},"SBVH":{"icaoId":"SBVH","flightCategory":"VFR","rawOb":"METAR SBVH 112100Z 20007KT 9999 SCT040 23/17 Q1017","temp":23,"dewp":17,"wdir":200,"wspd":7,"visib":"6+","altim":1017,"clouds":[{"cover":"SCT","base":4000}],"obsTime":1778533200},"SBTU":{"icaoId":"SBTU","flightCategory":"VFR","rawOb":"METAR SBTU 112100Z AUTO 30003KT 9999 // ///////// ///// Q1010","temp":null,"dewp":null,"wdir":300,"wspd":3,"visib":"6+","altim":1010,"clouds":[],"obsTime":1778533200},"SBPB":{"icaoId":"SBPB","flightCategory":"VFR","rawOb":"METAR SBPB 112100Z 03004KT 9999 SCT020 28/25 Q1010","temp":28,"dewp":25,"wdir":30,"wspd":4,"visib":"6+","altim":1010,"clouds":[{"cover":"SCT","base":2000}],"obsTime":1778533200},"SBCJ":{"icaoId":"SBCJ","flightCategory":"VFR","rawOb":"METAR SBCJ 112100Z 00000KT 9999 SCT018 BKN100 24/22 Q1014","temp":24,"dewp":22,"wdir":0,"wspd":0,"visib":"6+","altim":1014,"clouds":[{"cover":"SCT","base":1800},{"cover":"BKN","base":10000}],"obsTime":1778533200},"SBPP":{"icaoId":"SBPP","flightCategory":"VFR","rawOb":"METAR SBPP 112100Z 00000KT CAVOK 14/08 Q1021","temp":14,"dewp":8,"wdir":0,"wspd":0,"visib":"6+","altim":1021,"clouds":[],"obsTime":1778533200},"SBAN":{"icaoId":"SBAN","flightCategory":"VFR","rawOb":"METAR SBAN 112100Z 32004KT 300V360 CAVOK 21/17 Q1020","temp":21,"dewp":17,"wdir":320,"wspd":4,"visib":"6+","altim":1020,"clouds":[],"obsTime":1778533200},"SBLE":{"icaoId":"SBLE","flightCategory":"VFR","rawOb":"METAR SBLE 112100Z AUTO 06006KT 020V090 9999 FEW045 27/19 Q1016","temp":27,"dewp":19,"wdir":60,"wspd":6,"visib":"6+","altim":1016,"clouds":[{"cover":"FEW","base":4500}],"obsTime":1778533200},"SBAF":{"icaoId":"SBAF","flightCategory":"VFR","rawOb":"METAR SBAF 112100Z 21005KT 9999 FEW025 OVC046 20/16 Q1019","temp":20,"dewp":16,"wdir":210,"wspd":5,"visib":"6+","altim":1019,"clouds":[{"cover":"FEW","base":2500},{"cover":"OVC","base":4600}],"obsTime":1778533200},"SBGW":{"icaoId":"SBGW","flightCategory":"MVFR","rawOb":"METAR SBGW 112100Z 34002KT 8000 SCT030 17/11 Q1020","temp":17,"dewp":11,"wdir":340,"wspd":2,"visib":4.97,"altim":1020,"clouds":[{"cover":"SCT","base":3000}],"obsTime":1778533200},"SBJR":{"icaoId":"SBJR","flightCategory":"VFR","rawOb":"METAR SBJR 112100Z 24003KT 9999 FEW020 OVC040 21/15 Q1019","temp":21,"dewp":15,"wdir":240,"wspd":3,"visib":"6+","altim":1019,"clouds":[{"cover":"FEW","base":2000},{"cover":"OVC","base":4000}],"obsTime":1778533200},"SBLS":{"icaoId":"SBLS","flightCategory":"VFR","rawOb":"METAR SBLS 112100Z 01002KT 9999 FEW040 BKN100 23/18 Q1018","temp":23,"dewp":18,"wdir":10,"wspd":2,"visib":"6+","altim":1018,"clouds":[{"cover":"FEW","base":4000},{"cover":"BKN","base":10000}],"obsTime":1778533200},"SBMT":{"icaoId":"SBMT","flightCategory":"VFR","rawOb":"METAR SBMT 112100Z 29001KT CAVOK 14/08 Q1021","temp":14,"dewp":8,"wdir":290,"wspd":1,"visib":"6+","altim":1021,"clouds":[],"obsTime":1778533200},"SBTA":{"icaoId":"SBTA","flightCategory":"VFR","rawOb":"METAR SBTA 112100Z 24002KT 9999 FEW030 16/11 Q1019","temp":16,"dewp":11,"wdir":240,"wspd":2,"visib":"6+","altim":1019,"clouds":[{"cover":"FEW","base":3000}],"obsTime":1778533200},"SBJV":{"icaoId":"SBJV","flightCategory":"VFR","rawOb":"METAR SBJV 112100Z 00000KT CAVOK 13/11 Q1019","temp":13,"dewp":11,"wdir":0,"wspd":0,"visib":"6+","altim":1019,"clouds":[],"obsTime":1778533200},"SBNM":{"icaoId":"SBNM","flightCategory":"VFR","rawOb":"METAR SBNM 112100Z AUTO 22003KT CAVOK 13/03 Q1022","temp":13,"dewp":3,"wdir":220,"wspd":3,"visib":"6+","altim":1022,"clouds":[],"obsTime":1778533200},"SBJP":{"icaoId":"SBJP","flightCategory":"VFR","rawOb":"METAR SBJP 112100Z 14008KT 9999 FEW030 BKN100 27/24 Q1012","temp":27,"dewp":24,"wdir":140,"wspd":8,"visib":"6+","altim":1012,"clouds":[{"cover":"FEW","base":3000},{"cover":"BKN","base":10000}],"obsTime":1778533200},"SBIH":{"icaoId":"SBIH","flightCategory":"VFR","rawOb":"METAR SBIH 112100Z 20003KT 9999 FEW018 SCT080 30/26 Q1008","temp":30,"dewp":26,"wdir":200,"wspd":3,"visib":"6+","altim":1008,"clouds":[{"cover":"FEW","base":1800},{"cover":"SCT","base":8000}],"obsTime":1778533200},"SBPF":{"icaoId":"SBPF","flightCategory":"VFR","rawOb":"METAR SBPF 112100Z 27003KT CAVOK 10/02 Q1022","temp":10,"dewp":2,"wdir":270,"wspd":3,"visib":"6+","altim":1022,"clouds":[],"obsTime":1778533200},"SBST":{"icaoId":"SBST","flightCategory":"MVFR","rawOb":"METAR SBST 112100Z 19002KT 9999 BKN030 18/13 Q1020","temp":18,"dewp":13,"wdir":190,"wspd":2,"visib":"6+","altim":1020,"clouds":[{"cover":"BKN","base":3000}],"obsTime":1778533200}}}