{"updated":1784231583,"count":87,"data":{"SBBV":{"icaoId":"SBBV","flightCategory":"VFR","rawOb":"METAR SBBV 161800Z 11009KT 070V140 9999 VCSH BKN040 FEW045TCU SCT080 33/21 Q1013","temp":33,"dewp":21,"wdir":110,"wspd":9,"visib":"6+","altim":1013,"clouds":[{"cover":"BKN","base":4000},{"cover":"FEW","base":4500},{"cover":"SCT","base":8000}],"obsTime":1784224800},"SBEG":{"icaoId":"SBEG","flightCategory":"VFR","rawOb":"METAR SBEG 161800Z 08008KT 050V120 9999 SCT030 FEW035TCU 33/24 Q1012","temp":33,"dewp":24,"wdir":80,"wspd":8,"visib":"6+","altim":1012,"clouds":[{"cover":"SCT","base":3000},{"cover":"FEW","base":3500}],"obsTime":1784224800},"SBSN":{"icaoId":"SBSN","flightCategory":"VFR","rawOb":"METAR SBSN 161800Z 09012KT 9999 FEW025 SCT100 31/24 Q1013","temp":31,"dewp":24,"wdir":90,"wspd":12,"visib":"6+","altim":1013,"clouds":[{"cover":"FEW","base":2500},{"cover":"SCT","base":10000}],"obsTime":1784224800},"SBFZ":{"icaoId":"SBFZ","flightCategory":"VFR","rawOb":"METAR SBFZ 161800Z 09015KT 9999 FEW030 30/22 Q1014","temp":30,"dewp":22,"wdir":90,"wspd":15,"visib":"6+","altim":1014,"clouds":[{"cover":"FEW","base":3000}],"obsTime":1784224800},"SBBE":{"icaoId":"SBBE","flightCategory":"VFR","rawOb":"METAR SBBE 161800Z 13009KT 9999 SCT035 FEW040TCU 30/24 Q1013","temp":30,"dewp":24,"wdir":130,"wspd":9,"visib":"6+","altim":1013,"clouds":[{"cover":"SCT","base":3500},{"cover":"FEW","base":4000}],"obsTime":1784224800},"SBMO":{"icaoId":"SBMO","flightCategory":"MVFR","rawOb":"METAR SBMO 161800Z 12013KT 9999 BKN020 24/22 Q1019","temp":24,"dewp":22,"wdir":120,"wspd":13,"visib":"6+","altim":1019,"clouds":[{"cover":"BKN","base":2000}],"obsTime":1784224800},"SBBR":{"icaoId":"SBBR","flightCategory":"VFR","rawOb":"METAR SBBR 161800Z 10009KT 080V140 CAVOK 25/10 Q1023","temp":25,"dewp":10,"wdir":100,"wspd":9,"visib":"6+","altim":1023,"clouds":[],"obsTime":1784224800},"SBSL":{"icaoId":"SBSL","flightCategory":"MVFR","rawOb":"METAR SBSL 161800Z 12007KT 9999 BKN030 29/24 Q1013","temp":29,"dewp":24,"wdir":120,"wspd":7,"visib":"6+","altim":1013,"clouds":[{"cover":"BKN","base":3000}],"obsTime":1784224800},"SBFL":{"icaoId":"SBFL","flightCategory":"VFR","rawOb":"METAR SBFL 161800Z 01013KT CAVOK 23/14 Q1017","temp":23,"dewp":14,"wdir":10,"wspd":13,"visib":"6+","altim":1017,"clouds":[],"obsTime":1784224800},"SBCF":{"icaoId":"SBCF","flightCategory":"VFR","rawOb":"METAR SBCF 161800Z 03008KT CAVOK 21/08 Q1026","temp":21,"dewp":8,"wdir":30,"wspd":8,"visib":"6+","altim":1026,"clouds":[],"obsTime":1784224800},"SBCZ":{"icaoId":"SBCZ","flightCategory":"MVFR","rawOb":"METAR SBCZ 161800Z 35003KT 9999 BKN027 BKN100 30/23 Q1014","temp":30,"dewp":23,"wdir":350,"wspd":3,"visib":"6+","altim":1014,"clouds":[{"cover":"BKN","base":2700},{"cover":"BKN","base":10000}],"obsTime":1784224800},"SBNT":{"icaoId":"SBNT","flightCategory":"MVFR","rawOb":"METAR SBNT 161800Z 17013KT 9999 BKN024 FEW030TCU BKN033 BKN100 28/22 Q1016","temp":28,"dewp":22,"wdir":170,"wspd":13,"visib":"6+","altim":1016,"clouds":[{"cover":"BKN","base":2400},{"cover":"FEW","base":3000},{"cover":"BKN","base":3300},{"cover":"BKN","base":10000}],"obsTime":1784224800},"SBSV":{"icaoId":"SBSV","flightCategory":"VFR","rawOb":"METAR SBSV 161800Z 15016KT 110V180 9999 SCT020 BKN050 25/18 Q1021","temp":25,"dewp":18,"wdir":150,"wspd":16,"visib":"6+","altim":1021,"clouds":[{"cover":"SCT","base":2000},{"cover":"BKN","base":5000}],"obsTime":1784224800},"SBCT":{"icaoId":"SBCT","flightCategory":"VFR","rawOb":"METAR SBCT 161800Z 36008KT CAVOK 23/10 Q1022","temp":23,"dewp":10,"wdir":360,"wspd":8,"visib":"6+","altim":1022,"clouds":[],"obsTime":1784224800},"SBPJ":{"icaoId":"SBPJ","flightCategory":"VFR","rawOb":"METAR SBPJ 161800Z 12009KT CAVOK 33/17 Q1015","temp":33,"dewp":17,"wdir":120,"wspd":9,"visib":"6+","altim":1015,"clouds":[],"obsTime":1784224800},"SBKP":{"icaoId":"SBKP","flightCategory":"VFR","rawOb":"METAR SBKP 161800Z 36004KT 300V050 CAVOK 26/10 Q1022","temp":26,"dewp":10,"wdir":360,"wspd":4,"visib":"6+","altim":1022,"clouds":[],"obsTime":1784224800},"SBGL":{"icaoId":"SBGL","flightCategory":"VFR","rawOb":"METAR SBGL 161800Z 12006KT CAVOK 25/13 Q1021","temp":25,"dewp":13,"wdir":120,"wspd":6,"visib":"6+","altim":1021,"clouds":[],"obsTime":1784224800},"SBMA":{"icaoId":"SBMA","flightCategory":"MVFR","rawOb":"METAR SBMA 161800Z 05009KT 9999 BKN030 32/21 Q1014","temp":32,"dewp":21,"wdir":50,"wspd":9,"visib":"6+","altim":1014,"clouds":[{"cover":"BKN","base":3000}],"obsTime":1784224800},"SBCB":{"icaoId":"SBCB","flightCategory":"VFR","rawOb":"METAR SBCB 161800Z 08015KT CAVOK 25/13 Q1022","temp":25,"dewp":13,"wdir":80,"wspd":15,"visib":"6+","altim":1022,"clouds":[],"obsTime":1784224800},"SBLO":{"icaoId":"SBLO","flightCategory":"VFR","rawOb":"METAR SBLO 161800Z 05007KT 030V090 CAVOK 25/14 Q1019","temp":25,"dewp":14,"wdir":50,"wspd":7,"visib":"6+","altim":1019,"clouds":[],"obsTime":1784224800},"SBIL":{"icaoId":"SBIL","flightCategory":"VFR","rawOb":"METAR SBIL 161800Z 16009KT 140V200 9999 FEW025 BKN045 26/17 Q1022","temp":26,"dewp":17,"wdir":160,"wspd":9,"visib":"6+","altim":1022,"clouds":[{"cover":"FEW","base":2500},{"cover":"BKN","base":4500}],"obsTime":1784224800},"SBJU":{"icaoId":"SBJU","flightCategory":"MVFR","rawOb":"METAR SBJU 161800Z 12009KT 9999 BKN022 29/15 Q1018","temp":29,"dewp":15,"wdir":120,"wspd":9,"visib":"6+","altim":1018,"clouds":[{"cover":"BKN","base":2200}],"obsTime":1784224800},"SBMG":{"icaoId":"SBMG","flightCategory":"VFR","rawOb":"METAR SBMG 161800Z 02014KT CAVOK 27/15 Q1017","temp":27,"dewp":15,"wdir":20,"wspd":14,"visib":"6+","altim":1017,"clouds":[],"obsTime":1784224800},"SBAT":{"icaoId":"SBAT","flightCategory":"VFR","rawOb":"METAR SBAT 161800Z 09009KT 9999 SCT030 33/22 Q1014","temp":33,"dewp":22,"wdir":90,"wspd":9,"visib":"6+","altim":1014,"clouds":[{"cover":"SCT","base":3000}],"obsTime":1784224800},"SBHT":{"icaoId":"SBHT","flightCategory":"MVFR","rawOb":"METAR SBHT 161800Z 13005KT 9999 BKN025 31/24 Q1013","temp":31,"dewp":24,"wdir":130,"wspd":5,"visib":"6+","altim":1013,"clouds":[{"cover":"BKN","base":2500}],"obsTime":1784224800},"SBME":{"icaoId":"SBME","flightCategory":"VFR","rawOb":"METAR SBME 161800Z 04016KT CAVOK 26/11 Q1022","temp":26,"dewp":11,"wdir":40,"wspd":16,"visib":"6+","altim":1022,"clouds":[],"obsTime":1784224800},"SBMK":{"icaoId":"SBMK","flightCategory":"VFR","rawOb":"METAR SBMK 161800Z 08010KT CAVOK 24/08 Q1023","temp":24,"dewp":8,"wdir":80,"wspd":10,"visib":"6+","altim":1023,"clouds":[],"obsTime":1784224800},"SBUL":{"icaoId":"SBUL","flightCategory":"VFR","rawOb":"METAR SBUL 161800Z 10008KT 040V120 CAVOK 25/11 Q1023","temp":25,"dewp":11,"wdir":100,"wspd":8,"visib":"6+","altim":1023,"clouds":[],"obsTime":1784224800},"SBUR":{"icaoId":"SBUR","flightCategory":"VFR","rawOb":"METAR SBUR 161800Z 05004KT CAVOK 28/11 Q1022","temp":28,"dewp":11,"wdir":50,"wspd":4,"visib":"6+","altim":1022,"clouds":[],"obsTime":1784224800},"SBRB":{"icaoId":"SBRB","flightCategory":"VFR","rawOb":"METAR SBRB 161800Z 30004KT 9999 BKN040 SCT100 31/24 Q1014","temp":31,"dewp":24,"wdir":300,"wspd":4,"visib":"6+","altim":1014,"clouds":[{"cover":"BKN","base":4000},{"cover":"SCT","base":10000}],"obsTime":1784224800},"SBSG":{"icaoId":"SBSG","flightCategory":"VFR","rawOb":"METAR SBSG 161800Z 15007KT 110V190 9999 VCSH SCT023 FEW030TCU SCT050 27/23 Q1016","temp":27,"dewp":23,"wdir":150,"wspd":7,"visib":"6+","altim":1016,"clouds":[{"cover":"SCT","base":2300},{"cover":"FEW","base":3000},{"cover":"SCT","base":5000}],"obsTime":1784224800},"SBCR":{"icaoId":"SBCR","flightCategory":"VFR","rawOb":"METAR SBCR 161800Z 03011KT 9999 BKN049 34/21 Q1010","temp":34,"dewp":21,"wdir":30,"wspd":11,"visib":"6+","altim":1010,"clouds":[{"cover":"BKN","base":4900}],"obsTime":1784224800},"SBTE":{"icaoId":"SBTE","flightCategory":"VFR","rawOb":"METAR SBTE 161800Z 12009KT 9999 BKN040 32/19 Q1013","temp":32,"dewp":19,"wdir":120,"wspd":9,"visib":"6+","altim":1013,"clouds":[{"cover":"BKN","base":4000}],"obsTime":1784224800},"SBMQ":{"icaoId":"SBMQ","flightCategory":"VFR","rawOb":"METAR SBMQ 161800Z 05009KT 9999 SCT028 BKN070 31/23 Q1013","temp":31,"dewp":23,"wdir":50,"wspd":9,"visib":"6+","altim":1013,"clouds":[{"cover":"SCT","base":2800},{"cover":"BKN","base":7000}],"obsTime":1784224800},"SBVT":{"icaoId":"SBVT","flightCategory":"VFR","rawOb":"METAR SBVT 161800Z 06009KT 030V090 9999 SCT040 SCT050 24/14 Q1024","temp":24,"dewp":14,"wdir":60,"wspd":9,"visib":"6+","altim":1024,"clouds":[{"cover":"SCT","base":4000},{"cover":"SCT","base":5000}],"obsTime":1784224800},"SBRF":{"icaoId":"SBRF","flightCategory":"VFR","rawOb":"METAR SBRF 161800Z 15018KT 9999 SCT020 SCT060 28/21 Q1017","temp":28,"dewp":21,"wdir":150,"wspd":18,"visib":"6+","altim":1017,"clouds":[{"cover":"SCT","base":2000},{"cover":"SCT","base":6000}],"obsTime":1784224800},"SBPV":{"icaoId":"SBPV","flightCategory":"VFR","rawOb":"METAR SBPV 161800Z 33008KT 9999 FEW040TCU BKN045 31/24 Q1012","temp":31,"dewp":24,"wdir":330,"wspd":8,"visib":"6+","altim":1012,"clouds":[{"cover":"FEW","base":4000},{"cover":"BKN","base":4500}],"obsTime":1784224800},"SBFI":{"icaoId":"SBFI","flightCategory":"VFR","rawOb":"METAR SBFI 161800Z 03017G27KT CAVOK 29/12 Q1011","temp":29,"dewp":12,"wdir":30,"wspd":17,"visib":"6+","altim":1011,"clouds":[],"obsTime":1784224800},"SBCP":{"icaoId":"SBCP","flightCategory":"VFR","rawOb":"METAR SBCP 161800Z 08014KT CAVOK 25/12 Q1023","temp":25,"dewp":12,"wdir":80,"wspd":14,"visib":"6+","altim":1023,"clouds":[],"obsTime":1784224800},"SBGO":{"icaoId":"SBGO","flightCategory":"VFR","rawOb":"METAR SBGO 161800Z 08004KT 9999 SCT049 31/14 Q1020","temp":31,"dewp":14,"wdir":80,"wspd":4,"visib":"6+","altim":1020,"clouds":[{"cover":"SCT","base":4900}],"obsTime":1784224800},"SBPA":{"icaoId":"SBPA","flightCategory":"VFR","rawOb":"METAR SBPA 161800Z 35005KT 320V030 CAVOK 29/13 Q1011","temp":29,"dewp":13,"wdir":350,"wspd":5,"visib":"6+","altim":1011,"clouds":[],"obsTime":1784224800},"SBGR":{"icaoId":"SBGR","flightCategory":"VFR","rawOb":"METAR SBGR 161800Z 30006KT CAVOK 26/09 Q1023","temp":26,"dewp":9,"wdir":300,"wspd":6,"visib":"6+","altim":1023,"clouds":[],"obsTime":1784224800},"SBSP":{"icaoId":"SBSP","flightCategory":"VFR","rawOb":"METAR SBSP 161800Z 36007KT 310V040 CAVOK 25/06 Q1023","temp":25,"dewp":6,"wdir":360,"wspd":7,"visib":"6+","altim":1023,"clouds":[],"obsTime":1784224800},"SBCG":{"icaoId":"SBCG","flightCategory":"VFR","rawOb":"METAR SBCG 161800Z 34012KT CAVOK 32/15 Q1015","temp":32,"dewp":15,"wdir":340,"wspd":12,"visib":"6+","altim":1015,"clouds":[],"obsTime":1784224800},"SBSJ":{"icaoId":"SBSJ","flightCategory":"VFR","rawOb":"METAR SBSJ 161800Z VRB02KT CAVOK 23/11 Q1023","temp":23,"dewp":11,"wdir":"VRB","wspd":2,"visib":"6+","altim":1023,"clouds":[],"obsTime":1784224800},"SBCA":{"icaoId":"SBCA","flightCategory":"VFR","rawOb":"METAR SBCA 161800Z 04022G32KT CAVOK 26/10 Q1017","temp":26,"dewp":10,"wdir":40,"wspd":22,"visib":"6+","altim":1017,"clouds":[],"obsTime":1784224800},"SBTF":{"icaoId":"SBTF","flightCategory":"VFR","rawOb":"METAR SBTF 161800Z 06009KT 9999 SCT020 33/26 Q1012","temp":33,"dewp":26,"wdir":60,"wspd":9,"visib":"6+","altim":1012,"clouds":[{"cover":"SCT","base":2000}],"obsTime":1784224800},"SBCO":{"icaoId":"SBCO","flightCategory":"VFR","rawOb":"METAR SBCO 161800Z 02005KT 340V050 CAVOK 29/13 Q1012","temp":29,"dewp":13,"wdir":20,"wspd":5,"visib":"6+","altim":1012,"clouds":[],"obsTime":1784224800},"SBCC":{"icaoId":"SBCC","flightCategory":"VFR","rawOb":"METAR SBCC 161800Z 03012KT 360V080 9999 BKN040 FEW045TCU 31/19 Q1016","temp":31,"dewp":19,"wdir":30,"wspd":12,"visib":"6+","altim":1016,"clouds":[{"cover":"BKN","base":4000},{"cover":"FEW","base":4500}],"obsTime":1784224800},"SBES":{"icaoId":"SBES","flightCategory":"VFR","rawOb":"METAR SBES 161800Z 06018G28KT CAVOK 24/// Q1022","temp":null,"dewp":null,"wdir":60,"wspd":18,"visib":"6+","altim":1022,"clouds":[],"obsTime":1784224800},"SBGM":{"icaoId":"SBGM","flightCategory":"VFR","rawOb":"METAR SBGM 161800Z 26005KT 9999 VCSH BKN033 BKN100 32/21 Q1013","temp":32,"dewp":21,"wdir":260,"wspd":5,"visib":"6+","altim":1013,"clouds":[{"cover":"BKN","base":3300},{"cover":"BKN","base":10000}],"obsTime":1784224800},"SBPB":{"icaoId":"SBPB","flightCategory":"VFR","rawOb":"METAR SBPB 161800Z 04010KT 9999 SCT020 31/24 Q1013","temp":31,"dewp":24,"wdir":40,"wspd":10,"visib":"6+","altim":1013,"clouds":[{"cover":"SCT","base":2000}],"obsTime":1784224800},"SBVH":{"icaoId":"SBVH","flightCategory":"MVFR","rawOb":"METAR SBVH 161800Z 08006KT 9999 BKN030 FEW035TCU BKN070 27/23 Q1016","temp":27,"dewp":23,"wdir":80,"wspd":6,"visib":"6+","altim":1016,"clouds":[{"cover":"BKN","base":3000},{"cover":"FEW","base":3500},{"cover":"BKN","base":7000}],"obsTime":1784224800},"SBAX":{"icaoId":"SBAX","flightCategory":"VFR","rawOb":"METAR SBAX 161800Z AUTO 03004KT 320V110 CAVOK 24/10 Q1024","temp":24,"dewp":10,"wdir":30,"wspd":4,"visib":"6+","altim":1024,"clouds":[],"obsTime":1784224800},"SBBH":{"icaoId":"SBBH","flightCategory":"VFR","rawOb":"METAR SBBH 161800Z 09006KT CAVOK 20/08 Q1026","temp":20,"dewp":8,"wdir":90,"wspd":6,"visib":"6+","altim":1026,"clouds":[],"obsTime":1784224800},"SBBQ":{"icaoId":"SBBQ","flightCategory":"VFR","rawOb":"METAR SBBQ 161800Z 05006KT 310V090 CAVOK 18/09 Q1028","temp":18,"dewp":9,"wdir":50,"wspd":6,"visib":"6+","altim":1028,"clouds":[],"obsTime":1784224800},"SBBU":{"icaoId":"SBBU","flightCategory":"VFR","rawOb":"METAR SBBU 161800Z 04008KT CAVOK 28/14 Q1021","temp":28,"dewp":14,"wdir":40,"wspd":8,"visib":"6+","altim":1021,"clouds":[],"obsTime":1784224800},"SBDN":{"icaoId":"SBDN","flightCategory":"VFR","rawOb":"METAR SBDN 161800Z 03011KT CAVOK 29/14 Q1018","temp":29,"dewp":14,"wdir":30,"wspd":11,"visib":"6+","altim":1018,"clouds":[],"obsTime":1784224800},"SBSM":{"icaoId":"SBSM","flightCategory":"VFR","rawOb":"METAR SBSM 161800Z 02016G26KT CAVOK 29/14 Q1009 WS ALL RWY","temp":29,"dewp":14,"wdir":20,"wspd":16,"visib":"6+","altim":1009,"clouds":[],"obsTime":1784224800},"SBIP":{"icaoId":"SBIP","flightCategory":"VFR","rawOb":"METAR SBIP 161800Z AUTO 02006KT 350V060 CAVOK 23/11 Q1025","temp":23,"dewp":11,"wdir":20,"wspd":6,"visib":"6+","altim":1025,"clouds":[],"obsTime":1784224800},"SBOI":{"icaoId":"SBOI","flightCategory":"VFR","rawOb":"METAR SBOI 161900Z AUTO 13008KT 080V180 9999 FEW045 32/22 Q1013","temp":32,"dewp":22,"wdir":130,"wspd":8,"visib":"6+","altim":1013,"clouds":[{"cover":"FEW","base":4500}],"obsTime":1784228400},"SBSC":{"icaoId":"SBSC","flightCategory":"VFR","rawOb":"METAR SBSC 161800Z 01007KT CAVOK 26/13 Q1021","temp":26,"dewp":13,"wdir":10,"wspd":7,"visib":"6+","altim":1021,"clouds":[],"obsTime":1784224800},"SBSR":{"icaoId":"SBSR","flightCategory":"VFR","rawOb":"METAR SBSR 161800Z 06009KT CAVOK 29/10 Q1020","temp":29,"dewp":10,"wdir":60,"wspd":9,"visib":"6+","altim":1020,"clouds":[],"obsTime":1784224800},"SBTU":{"icaoId":"SBTU","flightCategory":"VFR","rawOb":"METAR SBTU 161800Z AUTO 27009KT 240V310 9999 // FEW024/// SCT069/// BKN078/// ///// Q1015","temp":null,"dewp":null,"wdir":270,"wspd":9,"visib":"6+","altim":1015,"clouds":[{"cover":"FEW","base":2400},{"cover":"SCT","base":6900},{"cover":"BKN","base":7800}],"obsTime":1784224800},"SBPP":{"icaoId":"SBPP","flightCategory":"VFR","rawOb":"METAR SBPP 161800Z 04015KT CAVOK 30/14 Q1014","temp":30,"dewp":14,"wdir":40,"wspd":15,"visib":"6+","altim":1014,"clouds":[],"obsTime":1784224800},"SBCJ":{"icaoId":"SBCJ","flightCategory":"MVFR","rawOb":"METAR SBCJ 161800Z 10006KT 9999 BKN025 26/20 Q1018","temp":26,"dewp":20,"wdir":100,"wspd":6,"visib":"6+","altim":1018,"clouds":[{"cover":"BKN","base":2500}],"obsTime":1784224800},"SBKG":{"icaoId":"SBKG","flightCategory":"VFR","rawOb":"METAR SBKG 161800Z 16010KT 9999 SCT012 BKN070 23/20 Q1019","temp":23,"dewp":20,"wdir":160,"wspd":10,"visib":"6+","altim":1019,"clouds":[{"cover":"SCT","base":1200},{"cover":"BKN","base":7000}],"obsTime":1784224800},"SBPS":{"icaoId":"SBPS","flightCategory":"VFR","rawOb":"METAR SBPS 161800Z 17004KT 100V260 9999 SCT025 BKN070 24/16 Q1023","temp":24,"dewp":16,"wdir":170,"wspd":4,"visib":"6+","altim":1023,"clouds":[{"cover":"SCT","base":2500},{"cover":"BKN","base":7000}],"obsTime":1784224800},"SBTT":{"icaoId":"SBTT","flightCategory":"MVFR","rawOb":"METAR SBTT 161800Z VRB02KT 9999 BKN025 29/26 Q1014","temp":29,"dewp":26,"wdir":"VRB","wspd":2,"visib":"6+","altim":1014,"clouds":[{"cover":"BKN","base":2500}],"obsTime":1784224800},"SBUY":{"icaoId":"SBUY","flightCategory":"VFR","rawOb":"METAR SBUY 161800Z 33004KT 9999 SCT025 SCT100 30/27 Q1011","temp":30,"dewp":27,"wdir":330,"wspd":4,"visib":"6+","altim":1011,"clouds":[{"cover":"SCT","base":2500},{"cover":"SCT","base":10000}],"obsTime":1784224800},"SBPL":{"icaoId":"SBPL","flightCategory":"VFR","rawOb":"METAR SBPL 161800Z 10016KT 9999 SCT035 SCT070 26/14 Q1020","temp":26,"dewp":14,"wdir":100,"wspd":16,"visib":"6+","altim":1020,"clouds":[{"cover":"SCT","base":3500},{"cover":"SCT","base":7000}],"obsTime":1784224800},"SBAR":{"icaoId":"SBAR","flightCategory":"VFR","rawOb":"METAR SBAR 161800Z 13014KT 9999 VCSH FEW035 BKN060 26/19 Q1019","temp":26,"dewp":19,"wdir":130,"wspd":14,"visib":"6+","altim":1019,"clouds":[{"cover":"FEW","base":3500},{"cover":"BKN","base":6000}],"obsTime":1784224800},"SBAU":{"icaoId":"SBAU","flightCategory":"VFR","rawOb":"METAR SBAU 161800Z 03010KT CAVOK 32/12 Q1018","temp":32,"dewp":12,"wdir":30,"wspd":10,"visib":"6+","altim":1018,"clouds":[],"obsTime":1784224800},"SBNM":{"icaoId":"SBNM","flightCategory":"VFR","rawOb":"METAR SBNM 161800Z 04012KT CAVOK 28/13 Q1010","temp":28,"dewp":13,"wdir":40,"wspd":12,"visib":"6+","altim":1010,"clouds":[],"obsTime":1784224800},"SBJP":{"icaoId":"SBJP","flightCategory":"MVFR","rawOb":"METAR SBJP 161800Z 15016KT 9999 SCT010 BKN020 BKN090 25/23 Q1017","temp":25,"dewp":23,"wdir":150,"wspd":16,"visib":"6+","altim":1017,"clouds":[{"cover":"SCT","base":1000},{"cover":"BKN","base":2000},{"cover":"BKN","base":9000}],"obsTime":1784224800},"SBLE":{"icaoId":"SBLE","flightCategory":"VFR","rawOb":"METAR SBLE 161800Z AUTO 17005KT 120V220 9999 FEW042 22/14 Q1023","temp":22,"dewp":14,"wdir":170,"wspd":5,"visib":"6+","altim":1023,"clouds":[{"cover":"FEW","base":4200}],"obsTime":1784224800},"SBJV":{"icaoId":"SBJV","flightCategory":"VFR","rawOb":"METAR SBJV 161800Z 11004KT CAVOK 22/16 Q1018","temp":22,"dewp":16,"wdir":110,"wspd":4,"visib":"6+","altim":1018,"clouds":[],"obsTime":1784224800},"SBPF":{"icaoId":"SBPF","flightCategory":"VFR","rawOb":"METAR SBPF 161800Z 03013KT CAVOK 22/11 Q1016","temp":22,"dewp":11,"wdir":30,"wspd":13,"visib":"6+","altim":1016,"clouds":[],"obsTime":1784224800},"SBAN":{"icaoId":"SBAN","flightCategory":"VFR","rawOb":"METAR SBAN 161800Z 09008KT 9999 SCT030 27/12 Q1023","temp":27,"dewp":12,"wdir":90,"wspd":8,"visib":"6+","altim":1023,"clouds":[{"cover":"SCT","base":3000}],"obsTime":1784224800},"SBIH":{"icaoId":"SBIH","flightCategory":"VFR","rawOb":"METAR SBIH 161800Z 05004KT 9999 FEW020 32/23 Q1012","temp":32,"dewp":23,"wdir":50,"wspd":4,"visib":"6+","altim":1012,"clouds":[{"cover":"FEW","base":2000}],"obsTime":1784224800},"SBAF":{"icaoId":"SBAF","flightCategory":"VFR","rawOb":"METAR SBAF 161800Z 29003KT CAVOK 26/12 Q1021","temp":26,"dewp":12,"wdir":290,"wspd":3,"visib":"6+","altim":1021,"clouds":[],"obsTime":1784224800},"SBGW":{"icaoId":"SBGW","flightCategory":"VFR","rawOb":"METAR SBGW 161800Z 02003KT CAVOK 24/08 Q1023","temp":24,"dewp":8,"wdir":20,"wspd":3,"visib":"6+","altim":1023,"clouds":[],"obsTime":1784224800},"SBJR":{"icaoId":"SBJR","flightCategory":"VFR","rawOb":"METAR SBJR 161800Z 18006KT CAVOK 27/14 Q1021","temp":27,"dewp":14,"wdir":180,"wspd":6,"visib":"6+","altim":1021,"clouds":[],"obsTime":1784224800},"SBLS":{"icaoId":"SBLS","flightCategory":"VFR","rawOb":"METAR SBLS 161800Z 13006KT 010V150 9999 FEW048 20/08 Q1026","temp":20,"dewp":8,"wdir":130,"wspd":6,"visib":"6+","altim":1026,"clouds":[{"cover":"FEW","base":4800}],"obsTime":1784224800},"SBMT":{"icaoId":"SBMT","flightCategory":"VFR","rawOb":"METAR SBMT 161800Z 28007KT 250V020 CAVOK 24/07 Q1022","temp":24,"dewp":7,"wdir":280,"wspd":7,"visib":"6+","altim":1022,"clouds":[],"obsTime":1784224800},"SBST":{"icaoId":"SBST","flightCategory":"VFR","rawOb":"METAR SBST 161800Z 16004KT 130V190 CAVOK 24/13 Q1020","temp":24,"dewp":13,"wdir":160,"wspd":4,"visib":"6+","altim":1020,"clouds":[],"obsTime":1784224800},"SBTA":{"icaoId":"SBTA","flightCategory":"VFR","rawOb":"METAR SBTA 161800Z 05006KT 010V100 CAVOK 24/10 Q1022","temp":24,"dewp":10,"wdir":50,"wspd":6,"visib":"6+","altim":1022,"clouds":[],"obsTime":1784224800}}}