{"updated":1776956704,"count":86,"data":{"SBLO":{"icaoId":"SBLO","flightCategory":"VFR","rawOb":"METAR SBLO 231400Z 13008KT CAVOK 25/15 Q1019","temp":25,"dewp":15,"wdir":130,"wspd":8,"visib":"6+","altim":1019,"clouds":[],"obsTime":1776952800},"SBMA":{"icaoId":"SBMA","flightCategory":"VFR","rawOb":"METAR SBMA 231400Z 04006KT 9999 SCT015 BKN080 30/24 Q1013","temp":30,"dewp":24,"wdir":40,"wspd":6,"visib":"6+","altim":1013,"clouds":[{"cover":"SCT","base":1500},{"cover":"BKN","base":8000}],"obsTime":1776952800},"SBBV":{"icaoId":"SBBV","flightCategory":"MVFR","rawOb":"METAR SBBV 231400Z 13004KT 9999 BKN010 FEW030TCU BKN100 26/22 Q1014","temp":26,"dewp":22,"wdir":130,"wspd":4,"visib":"6+","altim":1014,"clouds":[{"cover":"BKN","base":1000},{"cover":"FEW","base":3000},{"cover":"BKN","base":10000}],"obsTime":1776952800},"SBFI":{"icaoId":"SBFI","flightCategory":"VFR","rawOb":"METAR SBFI 231400Z 16003KT CAVOK 27/23 Q1017","temp":27,"dewp":23,"wdir":160,"wspd":3,"visib":"6+","altim":1017,"clouds":[],"obsTime":1776952800},"SBFL":{"icaoId":"SBFL","flightCategory":"VFR","rawOb":"METAR SBFL 231400Z 28003KT 240V330 9999 FEW020 BKN050 26/21 Q1019","temp":26,"dewp":21,"wdir":280,"wspd":3,"visib":"6+","altim":1019,"clouds":[{"cover":"FEW","base":2000},{"cover":"BKN","base":5000}],"obsTime":1776952800},"SBCG":{"icaoId":"SBCG","flightCategory":"VFR","rawOb":"METAR SBCG 231400Z 07010KT CAVOK 28/15 Q1018","temp":28,"dewp":15,"wdir":70,"wspd":10,"visib":"6+","altim":1018,"clouds":[],"obsTime":1776952800},"SBMO":{"icaoId":"SBMO","flightCategory":"MVFR","rawOb":"METAR SBMO 231400Z 12014KT 9999 VCSH BKN018 29/25 Q1013","temp":29,"dewp":25,"wdir":120,"wspd":14,"visib":"6+","altim":1013,"clouds":[{"cover":"BKN","base":1800}],"obsTime":1776952800},"SBMQ":{"icaoId":"SBMQ","flightCategory":"MVFR","rawOb":"METAR SBMQ 231400Z 01003KT 9999 BKN020 BKN100 30/25 Q1013","temp":30,"dewp":25,"wdir":10,"wspd":3,"visib":"6+","altim":1013,"clouds":[{"cover":"BKN","base":2000},{"cover":"BKN","base":10000}],"obsTime":1776952800},"SBBE":{"icaoId":"SBBE","flightCategory":"VFR","rawOb":"METAR SBBE 231400Z 07005KT 9999 SCT025 BKN070 30/25 Q1012","temp":30,"dewp":25,"wdir":70,"wspd":5,"visib":"6+","altim":1012,"clouds":[{"cover":"SCT","base":2500},{"cover":"BKN","base":7000}],"obsTime":1776952800},"SBFZ":{"icaoId":"SBFZ","flightCategory":"VFR","rawOb":"METAR SBFZ 231400Z 11012KT 9999 SCT025 30/25 Q1011","temp":30,"dewp":25,"wdir":110,"wspd":12,"visib":"6+","altim":1011,"clouds":[{"cover":"SCT","base":2500}],"obsTime":1776952800},"SBCP":{"icaoId":"SBCP","flightCategory":"VFR","rawOb":"METAR SBCP 231400Z 15004KT 9999 SCT020 28/19 Q1018","temp":28,"dewp":19,"wdir":150,"wspd":4,"visib":"6+","altim":1018,"clouds":[{"cover":"SCT","base":2000}],"obsTime":1776952800},"SBPA":{"icaoId":"SBPA","flightCategory":"MVFR","rawOb":"METAR SBPA 231400Z 11006KT 080V140 9999 SCT017 BKN025 24/20 Q1019","temp":24,"dewp":20,"wdir":110,"wspd":6,"visib":"6+","altim":1019,"clouds":[{"cover":"SCT","base":1700},{"cover":"BKN","base":2500}],"obsTime":1776952800},"SBGL":{"icaoId":"SBGL","flightCategory":"VFR","rawOb":"METAR SBGL 231400Z 06003KT 9999 FEW040 28/20 Q1019","temp":28,"dewp":20,"wdir":60,"wspd":3,"visib":"6+","altim":1019,"clouds":[{"cover":"FEW","base":4000}],"obsTime":1776952800},"SBPJ":{"icaoId":"SBPJ","flightCategory":"VFR","rawOb":"METAR SBPJ 231400Z 25005KT 9999 FEW016 29/25 Q1014","temp":29,"dewp":25,"wdir":250,"wspd":5,"visib":"6+","altim":1014,"clouds":[{"cover":"FEW","base":1600}],"obsTime":1776952800},"SBPV":{"icaoId":"SBPV","flightCategory":"VFR","rawOb":"METAR SBPV 231400Z 12003KT 9999 SCT005 BKN060 26/25 Q1013","temp":26,"dewp":25,"wdir":120,"wspd":3,"visib":"6+","altim":1013,"clouds":[{"cover":"SCT","base":500},{"cover":"BKN","base":6000}],"obsTime":1776952800},"SBBR":{"icaoId":"SBBR","flightCategory":"VFR","rawOb":"METAR SBBR 231400Z 10009KT 9999 FEW035 25/17 Q1021","temp":25,"dewp":17,"wdir":100,"wspd":9,"visib":"6+","altim":1021,"clouds":[{"cover":"FEW","base":3500}],"obsTime":1776952800},"SBGO":{"icaoId":"SBGO","flightCategory":"VFR","rawOb":"METAR SBGO 231400Z 06006KT 360V090 9999 SCT049 29/19 Q1019","temp":29,"dewp":19,"wdir":60,"wspd":6,"visib":"6+","altim":1019,"clouds":[{"cover":"SCT","base":4900}],"obsTime":1776952800},"SBRB":{"icaoId":"SBRB","flightCategory":"VFR","rawOb":"METAR SBRB 231400Z 19004KT 9000 SCT008 SCT020 BKN065 25/24 Q1014","temp":25,"dewp":24,"wdir":190,"wspd":4,"visib":5.59,"altim":1014,"clouds":[{"cover":"SCT","base":800},{"cover":"SCT","base":2000},{"cover":"BKN","base":6500}],"obsTime":1776952800},"SBCR":{"icaoId":"SBCR","flightCategory":"VFR","rawOb":"METAR SBCR 231400Z 07008KT CAVOK 30/18 Q1015","temp":30,"dewp":18,"wdir":70,"wspd":8,"visib":"6+","altim":1015,"clouds":[],"obsTime":1776952800},"SBRF":{"icaoId":"SBRF","flightCategory":"VFR","rawOb":"METAR SBRF 231400Z 10010KT 9999 SCT022 30/25 Q1012","temp":30,"dewp":25,"wdir":100,"wspd":10,"visib":"6+","altim":1012,"clouds":[{"cover":"SCT","base":2200}],"obsTime":1776952800},"SBGR":{"icaoId":"SBGR","flightCategory":"MVFR","rawOb":"METAR SBGR 231400Z 06012KT 9999 BKN020 24/17 Q1021","temp":24,"dewp":17,"wdir":60,"wspd":12,"visib":"6+","altim":1021,"clouds":[{"cover":"BKN","base":2000}],"obsTime":1776952800},"SBSG":{"icaoId":"SBSG","flightCategory":"MVFR","rawOb":"METAR SBSG 231400Z 11010KT 090V160 9999 BKN027 30/23 Q1012","temp":30,"dewp":23,"wdir":110,"wspd":10,"visib":"6+","altim":1012,"clouds":[{"cover":"BKN","base":2700}],"obsTime":1776952800},"SBCB":{"icaoId":"SBCB","flightCategory":"VFR","rawOb":"METAR SBCB 231400Z 22010KT 9999 FEW020 27/21 Q1019","temp":27,"dewp":21,"wdir":220,"wspd":10,"visib":"6+","altim":1019,"clouds":[{"cover":"FEW","base":2000}],"obsTime":1776952800},"SBSL":{"icaoId":"SBSL","flightCategory":"VFR","rawOb":"METAR SBSL 231400Z 05010KT 9999 SCT020 30/25 Q1011","temp":30,"dewp":25,"wdir":50,"wspd":10,"visib":"6+","altim":1011,"clouds":[{"cover":"SCT","base":2000}],"obsTime":1776952800},"SBCT":{"icaoId":"SBCT","flightCategory":"MVFR","rawOb":"SPECI SBCT 231315Z 10004KT 040V180 9999 BKN016 20/16 Q1023","temp":20,"dewp":16,"wdir":100,"wspd":4,"visib":"6+","altim":1023,"clouds":[{"cover":"BKN","base":1600}],"obsTime":1776950100},"SBTE":{"icaoId":"SBTE","flightCategory":"VFR","rawOb":"METAR SBTE 231400Z 14006KT 100V190 9999 SCT020 30/24 Q1011","temp":30,"dewp":24,"wdir":140,"wspd":6,"visib":"6+","altim":1011,"clouds":[{"cover":"SCT","base":2000}],"obsTime":1776952800},"SBEG":{"icaoId":"SBEG","flightCategory":"VFR","rawOb":"METAR SBEG 231400Z 07003KT 020V130 9999 SCT020 27/24 Q1014","temp":27,"dewp":24,"wdir":70,"wspd":3,"visib":"6+","altim":1014,"clouds":[{"cover":"SCT","base":2000}],"obsTime":1776952800},"SBSN":{"icaoId":"SBSN","flightCategory":"IFR","rawOb":"METAR SBSN 231400Z 27009KT 2500 -RA BR FEW006 OVC036 24/24 Q1014","temp":24,"dewp":24,"wdir":270,"wspd":9,"visib":1.55,"altim":1014,"clouds":[{"cover":"FEW","base":600},{"cover":"OVC","base":3600}],"obsTime":1776952800},"SBVT":{"icaoId":"SBVT","flightCategory":"VFR","rawOb":"METAR SBVT 231400Z 15007KT 9999 SCT025 27/21 Q1018","temp":27,"dewp":21,"wdir":150,"wspd":7,"visib":"6+","altim":1018,"clouds":[{"cover":"SCT","base":2500}],"obsTime":1776952800},"SBSP":{"icaoId":"SBSP","flightCategory":"VFR","rawOb":"METAR SBSP 231400Z 07007KT 030V130 9999 SCT026 23/16 Q1022","temp":23,"dewp":16,"wdir":70,"wspd":7,"visib":"6+","altim":1022,"clouds":[{"cover":"SCT","base":2600}],"obsTime":1776952800},"SBCF":{"icaoId":"SBCF","flightCategory":"MVFR","rawOb":"METAR SBCF 231400Z 15005KT 090V190 9999 BKN030 25/17 Q1022","temp":25,"dewp":17,"wdir":150,"wspd":5,"visib":"6+","altim":1022,"clouds":[{"cover":"BKN","base":3000}],"obsTime":1776952800},"SBSV":{"icaoId":"SBSV","flightCategory":"VFR","rawOb":"METAR SBSV 231400Z 10012KT 9999 VCSH SCT009 SCT025 BKN040 27/25 Q1015","temp":27,"dewp":25,"wdir":100,"wspd":12,"visib":"6+","altim":1015,"clouds":[{"cover":"SCT","base":900},{"cover":"SCT","base":2500},{"cover":"BKN","base":4000}],"obsTime":1776952800},"SBKP":{"icaoId":"SBKP","flightCategory":"VFR","rawOb":"METAR SBKP 231400Z 11006KT 030V170 CAVOK 26/17 Q1020","temp":26,"dewp":17,"wdir":110,"wspd":6,"visib":"6+","altim":1020,"clouds":[],"obsTime":1776952800},"SBUL":{"icaoId":"SBUL","flightCategory":"VFR","rawOb":"METAR SBUL 231400Z 08011KT 9999 SCT030 25/18 Q1021","temp":25,"dewp":18,"wdir":80,"wspd":11,"visib":"6+","altim":1021,"clouds":[{"cover":"SCT","base":3000}],"obsTime":1776952800},"SBUR":{"icaoId":"SBUR","flightCategory":"VFR","rawOb":"METAR SBUR 231400Z 02008KT CAVOK 28/18 Q1019","temp":28,"dewp":18,"wdir":20,"wspd":8,"visib":"6+","altim":1019,"clouds":[],"obsTime":1776952800},"SBCZ":{"icaoId":"SBCZ","flightCategory":"VFR","rawOb":"METAR SBCZ 231400Z 11005KT 9999 FEW007 BKN080 25/23 Q1013","temp":25,"dewp":23,"wdir":110,"wspd":5,"visib":"6+","altim":1013,"clouds":[{"cover":"FEW","base":700},{"cover":"BKN","base":8000}],"obsTime":1776952800},"SBHT":{"icaoId":"SBHT","flightCategory":"MVFR","rawOb":"METAR SBHT 231400Z 07006KT 9999 BKN020 30/25 Q1013","temp":30,"dewp":25,"wdir":70,"wspd":6,"visib":"6+","altim":1013,"clouds":[{"cover":"BKN","base":2000}],"obsTime":1776952800},"SBIL":{"icaoId":"SBIL","flightCategory":"MVFR","rawOb":"METAR SBIL 231400Z 20006KT 160V230 8000 -RA SCT010 BKN015 BKN050 26/24 Q1016","temp":26,"dewp":24,"wdir":200,"wspd":6,"visib":4.97,"altim":1016,"clouds":[{"cover":"SCT","base":1000},{"cover":"BKN","base":1500},{"cover":"BKN","base":5000}],"obsTime":1776952800},"SBJU":{"icaoId":"SBJU","flightCategory":"MVFR","rawOb":"METAR SBJU 231400Z 09004KT 9999 BKN020 28/23 Q1015","temp":28,"dewp":23,"wdir":90,"wspd":4,"visib":"6+","altim":1015,"clouds":[{"cover":"BKN","base":2000}],"obsTime":1776952800},"SBME":{"icaoId":"SBME","flightCategory":"VFR","rawOb":"METAR SBME 231400Z 17006KT 9999 FEW023 28/20 Q1018","temp":28,"dewp":20,"wdir":170,"wspd":6,"visib":"6+","altim":1018,"clouds":[{"cover":"FEW","base":2300}],"obsTime":1776952800},"SBMG":{"icaoId":"SBMG","flightCategory":"VFR","rawOb":"METAR SBMG 231400Z 12005KT 090V150 CAVOK 26/15 Q1018","temp":26,"dewp":15,"wdir":120,"wspd":5,"visib":"6+","altim":1018,"clouds":[],"obsTime":1776952800},"SBMK":{"icaoId":"SBMK","flightCategory":"VFR","rawOb":"METAR SBMK 231400Z 08008KT 9999 FEW046 27/17 Q1019","temp":27,"dewp":17,"wdir":80,"wspd":8,"visib":"6+","altim":1019,"clouds":[{"cover":"FEW","base":4600}],"obsTime":1776952800},"SBNT":{"icaoId":"SBNT","flightCategory":"VFR","rawOb":"METAR SBNT 231400Z 12014KT 9999 SCT030 SCT046 31/23 Q1012","temp":31,"dewp":23,"wdir":120,"wspd":14,"visib":"6+","altim":1012,"clouds":[{"cover":"SCT","base":3000},{"cover":"SCT","base":4600}],"obsTime":1776952800},"SBAT":{"icaoId":"SBAT","flightCategory":"MVFR","rawOb":"METAR SBAT 231400Z 34004KT 9999 BKN015 26/24 Q1016","temp":26,"dewp":24,"wdir":340,"wspd":4,"visib":"6+","altim":1016,"clouds":[{"cover":"BKN","base":1500}],"obsTime":1776952800},"SBSJ":{"icaoId":"SBSJ","flightCategory":"VFR","rawOb":"METAR SBSJ 231400Z 05006KT 010V120 9999 SCT025 24/17 Q1021","temp":24,"dewp":17,"wdir":50,"wspd":6,"visib":"6+","altim":1021,"clouds":[{"cover":"SCT","base":2500}],"obsTime":1776952800},"SBCJ":{"icaoId":"SBCJ","flightCategory":"VFR","rawOb":"METAR SBCJ 231400Z 10012KT 9999 FEW015 27/22 Q1017","temp":27,"dewp":22,"wdir":100,"wspd":12,"visib":"6+","altim":1017,"clouds":[{"cover":"FEW","base":1500}],"obsTime":1776952800},"SBPP":{"icaoId":"SBPP","flightCategory":"VFR","rawOb":"METAR SBPP 231400Z 08011KT CAVOK 26/18 Q1019","temp":26,"dewp":18,"wdir":80,"wspd":11,"visib":"6+","altim":1019,"clouds":[],"obsTime":1776952800},"SBPB":{"icaoId":"SBPB","flightCategory":"VFR","rawOb":"METAR SBPB 231400Z 06009KT 9999 SCT018 30/26 Q1011","temp":30,"dewp":26,"wdir":60,"wspd":9,"visib":"6+","altim":1011,"clouds":[{"cover":"SCT","base":1800}],"obsTime":1776952800},"SBTD":{"icaoId":"SBTD","flightCategory":"VFR","rawOb":"METAR SBTD 231400Z /////KT CAVOK 28/19 Q1019","temp":28,"dewp":19,"wdir":null,"wspd":null,"visib":"6+","altim":1019,"clouds":[],"obsTime":1776952800},"SBPS":{"icaoId":"SBPS","flightCategory":"VFR","rawOb":"METAR SBPS 231400Z 16007KT 9999 SCT020 28/23 Q1017","temp":28,"dewp":23,"wdir":160,"wspd":7,"visib":"6+","altim":1017,"clouds":[{"cover":"SCT","base":2000}],"obsTime":1776952800},"SBTF":{"icaoId":"SBTF","flightCategory":"VFR","rawOb":"METAR SBTF 231400Z 10006KT 9999 SCT009 SCT100 29/25 Q1013","temp":29,"dewp":25,"wdir":100,"wspd":6,"visib":"6+","altim":1013,"clouds":[{"cover":"SCT","base":900},{"cover":"SCT","base":10000}],"obsTime":1776952800},"SBTT":{"icaoId":"SBTT","flightCategory":"VFR","rawOb":"METAR SBTT 231400Z 15004KT 9999 FEW015 SCT100 28/22 Q1013","temp":28,"dewp":22,"wdir":150,"wspd":4,"visib":"6+","altim":1013,"clouds":[{"cover":"FEW","base":1500},{"cover":"SCT","base":10000}],"obsTime":1776952800},"SBOI":{"icaoId":"SBOI","flightCategory":"VFR","rawOb":"METAR SBOI 231400Z AUTO VRB02KT 9999 FEW010 SCT015 27/24 Q1013","temp":27,"dewp":24,"wdir":"VRB","wspd":2,"visib":"6+","altim":1013,"clouds":[{"cover":"FEW","base":1000},{"cover":"SCT","base":1500}],"obsTime":1776952800},"SBPL":{"icaoId":"SBPL","flightCategory":"MVFR","rawOb":"METAR SBPL 231400Z 12010KT 9999 BKN025 SCT070 29/21 Q1015","temp":29,"dewp":21,"wdir":120,"wspd":10,"visib":"6+","altim":1015,"clouds":[{"cover":"BKN","base":2500},{"cover":"SCT","base":7000}],"obsTime":1776952800},"SBUY":{"icaoId":"SBUY","flightCategory":"VFR","rawOb":"METAR SBUY 231400Z 16005KT 9999 SCT025 SCT100 28/24 Q1012","temp":28,"dewp":24,"wdir":160,"wspd":5,"visib":"6+","altim":1012,"clouds":[{"cover":"SCT","base":2500},{"cover":"SCT","base":10000}],"obsTime":1776952800},"SBAR":{"icaoId":"SBAR","flightCategory":"VFR","rawOb":"METAR SBAR 231400Z 10008KT 9999 SCT020 SCT100 29/25 Q1013","temp":29,"dewp":25,"wdir":100,"wspd":8,"visib":"6+","altim":1013,"clouds":[{"cover":"SCT","base":2000},{"cover":"SCT","base":10000}],"obsTime":1776952800},"SBGM":{"icaoId":"SBGM","flightCategory":"MVFR","rawOb":"METAR SBGM 231400Z 11006KT 080V140 9999 BKN020 27/22 Q1013","temp":27,"dewp":22,"wdir":110,"wspd":6,"visib":"6+","altim":1013,"clouds":[{"cover":"BKN","base":2000}],"obsTime":1776952800},"SBIP":{"icaoId":"SBIP","flightCategory":"VFR","rawOb":"METAR SBIP 231400Z AUTO 02008KT 320V050 9999 FEW031 27/19 Q1019","temp":27,"dewp":19,"wdir":20,"wspd":8,"visib":"6+","altim":1019,"clouds":[{"cover":"FEW","base":3100}],"obsTime":1776952800},"SBKG":{"icaoId":"SBKG","flightCategory":"MVFR","rawOb":"METAR SBKG 231400Z 12010KT 9999 BKN022 27/21 Q1015","temp":27,"dewp":21,"wdir":120,"wspd":10,"visib":"6+","altim":1015,"clouds":[{"cover":"BKN","base":2200}],"obsTime":1776952800},"SBSC":{"icaoId":"SBSC","flightCategory":"VFR","rawOb":"METAR SBSC 231400Z 08002KT 9999 SCT030 SCT060 28/19 Q1019","temp":28,"dewp":19,"wdir":80,"wspd":2,"visib":"6+","altim":1019,"clouds":[{"cover":"SCT","base":3000},{"cover":"SCT","base":6000}],"obsTime":1776952800},"SBSM":{"icaoId":"SBSM","flightCategory":"MVFR","rawOb":"METAR SBSM 231400Z 06006KT 9999 -RA FEW006 BKN013 BKN035 19/18 Q1019","temp":19,"dewp":18,"wdir":60,"wspd":6,"visib":"6+","altim":1019,"clouds":[{"cover":"FEW","base":600},{"cover":"BKN","base":1300},{"cover":"BKN","base":3500}],"obsTime":1776952800},"SBSR":{"icaoId":"SBSR","flightCategory":"VFR","rawOb":"METAR SBSR 231400Z 07004KT 9000 NSC 28/17 Q1018","temp":28,"dewp":17,"wdir":70,"wspd":4,"visib":5.59,"altim":1018,"clouds":[],"obsTime":1776952800},"SBVH":{"icaoId":"SBVH","flightCategory":"VFR","rawOb":"METAR SBVH 231400Z 10007KT 9999 SCT010 SCT025 BKN100 25/22 Q1017","temp":25,"dewp":22,"wdir":100,"wspd":7,"visib":"6+","altim":1017,"clouds":[{"cover":"SCT","base":1000},{"cover":"SCT","base":2500},{"cover":"BKN","base":10000}],"obsTime":1776952800},"SBAX":{"icaoId":"SBAX","flightCategory":"VFR","rawOb":"METAR SBAX 231400Z 05006KT 9999 BKN035 25/16 Q1021","temp":25,"dewp":16,"wdir":50,"wspd":6,"visib":"6+","altim":1021,"clouds":[{"cover":"BKN","base":3500}],"obsTime":1776952800},"SBBH":{"icaoId":"SBBH","flightCategory":"VFR","rawOb":"METAR SBBH 231400Z 09009KT 9999 BKN035 24/15 Q1021","temp":24,"dewp":15,"wdir":90,"wspd":9,"visib":"6+","altim":1021,"clouds":[{"cover":"BKN","base":3500}],"obsTime":1776952800},"SBBQ":{"icaoId":"SBBQ","flightCategory":"MVFR","rawOb":"METAR SBBQ 231400Z 09006KT 050V130 9999 OVC015 19/15 Q1025","temp":19,"dewp":15,"wdir":90,"wspd":6,"visib":"6+","altim":1025,"clouds":[{"cover":"OVC","base":1500}],"obsTime":1776952800},"SBBU":{"icaoId":"SBBU","flightCategory":"VFR","rawOb":"METAR SBBU 231400Z 07008KT CAVOK 26/18 Q1019","temp":26,"dewp":18,"wdir":70,"wspd":8,"visib":"6+","altim":1019,"clouds":[],"obsTime":1776952800},"SBCA":{"icaoId":"SBCA","flightCategory":"VFR","rawOb":"METAR SBCA 231400Z 07009KT CAVOK 27/16 Q1021","temp":27,"dewp":16,"wdir":70,"wspd":9,"visib":"6+","altim":1021,"clouds":[],"obsTime":1776952800},"SBCC":{"icaoId":"SBCC","flightCategory":"VFR","rawOb":"METAR SBCC 231400Z 19004KT 9999 SCT025 27/22 Q1016","temp":27,"dewp":22,"wdir":190,"wspd":4,"visib":"6+","altim":1016,"clouds":[{"cover":"SCT","base":2500}],"obsTime":1776952800},"SBCO":{"icaoId":"SBCO","flightCategory":"MVFR","rawOb":"METAR SBCO 231400Z 11006KT 9999 OVC013 24/21 Q1020","temp":24,"dewp":21,"wdir":110,"wspd":6,"visib":"6+","altim":1020,"clouds":[{"cover":"OVC","base":1300}],"obsTime":1776952800},"SBDN":{"icaoId":"SBDN","flightCategory":"VFR","rawOb":"METAR SBDN 231400Z 08010KT CAVOK 26/14 Q1018","temp":26,"dewp":14,"wdir":80,"wspd":10,"visib":"6+","altim":1018,"clouds":[],"obsTime":1776952800},"SBES":{"icaoId":"SBES","flightCategory":"VFR","rawOb":"METAR SBES 231400Z VRB03KT 9999 FEW020 28/// Q1019","temp":null,"dewp":null,"wdir":"VRB","wspd":3,"visib":"6+","altim":1019,"clouds":[{"cover":"FEW","base":2000}],"obsTime":1776952800},"SBJP":{"icaoId":"SBJP","flightCategory":"VFR","rawOb":"METAR SBJP 231400Z 11012KT 9999 SCT025 30/24 Q1012","temp":30,"dewp":24,"wdir":110,"wspd":12,"visib":"6+","altim":1012,"clouds":[{"cover":"SCT","base":2500}],"obsTime":1776952800},"SBJV":{"icaoId":"SBJV","flightCategory":"VFR","rawOb":"METAR SBJV 231400Z 09004KT 9999 SCT025 26/21 Q1019","temp":26,"dewp":21,"wdir":90,"wspd":4,"visib":"6+","altim":1019,"clouds":[{"cover":"SCT","base":2500}],"obsTime":1776952800},"SBNM":{"icaoId":"SBNM","flightCategory":"VFR","rawOb":"METAR SBNM 231400Z 19012KT 9999 SCT003 SCT030 BKN070 21/20 Q1020","temp":21,"dewp":20,"wdir":190,"wspd":12,"visib":"6+","altim":1020,"clouds":[{"cover":"SCT","base":300},{"cover":"SCT","base":3000},{"cover":"BKN","base":7000}],"obsTime":1776952800},"SBPF":{"icaoId":"SBPF","flightCategory":"VFR","rawOb":"METAR SBPF 231400Z 11008KT 9999 FEW010 23/18 Q1021","temp":23,"dewp":18,"wdir":110,"wspd":8,"visib":"6+","altim":1021,"clouds":[{"cover":"FEW","base":1000}],"obsTime":1776952800},"SBAN":{"icaoId":"SBAN","flightCategory":"VFR","rawOb":"METAR SBAN 231400Z 14010KT 100V180 9999 FEW040 25/16 Q1022","temp":25,"dewp":16,"wdir":140,"wspd":10,"visib":"6+","altim":1022,"clouds":[{"cover":"FEW","base":4000}],"obsTime":1776952800},"SBIH":{"icaoId":"SBIH","flightCategory":"MVFR","rawOb":"METAR SBIH 231400Z 25003KT 8000 SCT015 FEW023TCU 26/24 Q1014","temp":26,"dewp":24,"wdir":250,"wspd":3,"visib":4.97,"altim":1014,"clouds":[{"cover":"SCT","base":1500},{"cover":"FEW","base":2300}],"obsTime":1776952800},"SBLE":{"icaoId":"SBLE","flightCategory":"MVFR","rawOb":"METAR SBLE 231400Z AUTO 16007KT 120V190 9999 BKN029 25/19 Q1018","temp":25,"dewp":19,"wdir":160,"wspd":7,"visib":"6+","altim":1018,"clouds":[{"cover":"BKN","base":2900}],"obsTime":1776952800},"SBGW":{"icaoId":"SBGW","flightCategory":"MVFR","rawOb":"METAR SBGW 231400Z 06007KT 030V110 9000 BKN026 24/15 Q1021","temp":24,"dewp":15,"wdir":60,"wspd":7,"visib":5.59,"altim":1021,"clouds":[{"cover":"BKN","base":2600}],"obsTime":1776952800},"SBJR":{"icaoId":"SBJR","flightCategory":"VFR","rawOb":"METAR SBJR 231400Z 18005KT 9999 FEW030 30/20 Q1019","temp":30,"dewp":20,"wdir":180,"wspd":5,"visib":"6+","altim":1019,"clouds":[{"cover":"FEW","base":3000}],"obsTime":1776952800},"SBLS":{"icaoId":"SBLS","flightCategory":"MVFR","rawOb":"METAR SBLS 231400Z 16007KT 090V190 9999 BKN025 24/17 Q1021","temp":24,"dewp":17,"wdir":160,"wspd":7,"visib":"6+","altim":1021,"clouds":[{"cover":"BKN","base":2500}],"obsTime":1776952800},"SBMT":{"icaoId":"SBMT","flightCategory":"MVFR","rawOb":"METAR SBMT 231400Z 06008KT 020V120 8000 BKN023 23/16 Q1021","temp":23,"dewp":16,"wdir":60,"wspd":8,"visib":4.97,"altim":1021,"clouds":[{"cover":"BKN","base":2300}],"obsTime":1776952800},"SBST":{"icaoId":"SBST","flightCategory":"VFR","rawOb":"METAR SBST 231400Z 13007KT 9999 FEW028 26/22 Q1018","temp":26,"dewp":22,"wdir":130,"wspd":7,"visib":"6+","altim":1018,"clouds":[{"cover":"FEW","base":2800}],"obsTime":1776952800},"SBTA":{"icaoId":"SBTA","flightCategory":"MVFR","rawOb":"METAR SBTA 231400Z 06007KT 340V090 9999 BKN025 25/16 Q1020","temp":25,"dewp":16,"wdir":60,"wspd":7,"visib":"6+","altim":1020,"clouds":[{"cover":"BKN","base":2500}],"obsTime":1776952800},"SBAF":{"icaoId":"SBAF","flightCategory":"VFR","rawOb":"METAR SBAF 231400Z 31003KT 9999 FEW030 28/19 Q1019","temp":28,"dewp":19,"wdir":310,"wspd":3,"visib":"6+","altim":1019,"clouds":[{"cover":"FEW","base":3000}],"obsTime":1776952800}}}