{"updated":1783483760,"count":56,"data":{"SBCG":{"icaoId":"SBCG","flightCategory":"VFR","rawOb":"METAR SBCG 080300Z 10006KT CAVOK 17/14 Q1020","temp":17,"dewp":14,"wdir":100,"wspd":6,"visib":"6+","altim":1020,"clouds":[],"obsTime":1783479600},"SBPV":{"icaoId":"SBPV","flightCategory":"VFR","rawOb":"METAR SBPV 080300Z 00000KT CAVOK 25/23 Q1014","temp":25,"dewp":23,"wdir":0,"wspd":0,"visib":"6+","altim":1014,"clouds":[],"obsTime":1783479600},"SBBE":{"icaoId":"SBBE","flightCategory":"VFR","rawOb":"METAR SBBE 080300Z 07007KT 9999 FEW020 SCT045 26/24 Q1016","temp":26,"dewp":24,"wdir":70,"wspd":7,"visib":"6+","altim":1016,"clouds":[{"cover":"FEW","base":2000},{"cover":"SCT","base":4500}],"obsTime":1783479600},"SBGL":{"icaoId":"SBGL","flightCategory":"MVFR","rawOb":"METAR SBGL 080300Z 25005KT 9999 BKN025 BKN050 21/17 Q1020","temp":21,"dewp":17,"wdir":250,"wspd":5,"visib":"6+","altim":1020,"clouds":[{"cover":"BKN","base":2500},{"cover":"BKN","base":5000}],"obsTime":1783479600},"SBEG":{"icaoId":"SBEG","flightCategory":"VFR","rawOb":"METAR SBEG 080300Z 00000KT CAVOK 26/25 Q1015","temp":26,"dewp":25,"wdir":0,"wspd":0,"visib":"6+","altim":1015,"clouds":[],"obsTime":1783479600},"SBSG":{"icaoId":"SBSG","flightCategory":"VFR","rawOb":"METAR SBSG 080300Z 14004KT 090V180 9999 FEW021 SCT070 25/22 Q1017","temp":25,"dewp":22,"wdir":140,"wspd":4,"visib":"6+","altim":1017,"clouds":[{"cover":"FEW","base":2100},{"cover":"SCT","base":7000}],"obsTime":1783479600},"SBBV":{"icaoId":"SBBV","flightCategory":"VFR","rawOb":"METAR SBBV 080300Z 18003KT 9999 FEW040 FEW045TCU SCT100 27/25 Q1015","temp":27,"dewp":25,"wdir":180,"wspd":3,"visib":"6+","altim":1015,"clouds":[{"cover":"FEW","base":4000},{"cover":"FEW","base":4500},{"cover":"SCT","base":10000}],"obsTime":1783479600},"SBCF":{"icaoId":"SBCF","flightCategory":"VFR","rawOb":"METAR SBCF 080300Z 20002KT CAVOK 17/10 Q1021","temp":17,"dewp":10,"wdir":200,"wspd":2,"visib":"6+","altim":1021,"clouds":[],"obsTime":1783479600},"SBRB":{"icaoId":"SBRB","flightCategory":"MVFR","rawOb":"METAR SBRB 080300Z 18004KT 7000 SCT010 BKN015 19/18 Q1018","temp":19,"dewp":18,"wdir":180,"wspd":4,"visib":4.35,"altim":1018,"clouds":[{"cover":"SCT","base":1000},{"cover":"BKN","base":1500}],"obsTime":1783479600},"SBFZ":{"icaoId":"SBFZ","flightCategory":"VFR","rawOb":"METAR SBFZ 080300Z 10006KT 9999 SCT017 BKN090 27/24 Q1015","temp":27,"dewp":24,"wdir":100,"wspd":6,"visib":"6+","altim":1015,"clouds":[{"cover":"SCT","base":1700},{"cover":"BKN","base":9000}],"obsTime":1783479600},"SBRF":{"icaoId":"SBRF","flightCategory":"VFR","rawOb":"METAR SBRF 080300Z 12005KT 9999 SCT023 24/21 Q1017","temp":24,"dewp":21,"wdir":120,"wspd":5,"visib":"6+","altim":1017,"clouds":[{"cover":"SCT","base":2300}],"obsTime":1783479600},"SBCT":{"icaoId":"SBCT","flightCategory":"VFR","rawOb":"METAR SBCT 080300Z 05004KT CAVOK 05/05 Q1022","temp":5,"dewp":5,"wdir":50,"wspd":4,"visib":"6+","altim":1022,"clouds":[],"obsTime":1783479600},"SBMO":{"icaoId":"SBMO","flightCategory":"VFR","rawOb":"METAR SBMO 080300Z 32004KT 9999 FEW023 20/20 Q1018","temp":20,"dewp":20,"wdir":320,"wspd":4,"visib":"6+","altim":1018,"clouds":[{"cover":"FEW","base":2300}],"obsTime":1783479600},"SBNT":{"icaoId":"SBNT","flightCategory":"VFR","rawOb":"METAR SBNT 080300Z 15007KT 9999 FEW025 SCT066 25/22 Q1016","temp":25,"dewp":22,"wdir":150,"wspd":7,"visib":"6+","altim":1016,"clouds":[{"cover":"FEW","base":2500},{"cover":"SCT","base":6600}],"obsTime":1783479600},"SBSV":{"icaoId":"SBSV","flightCategory":"VFR","rawOb":"METAR SBSV 080300Z 07008KT CAVOK 24/20 Q1018","temp":24,"dewp":20,"wdir":70,"wspd":8,"visib":"6+","altim":1018,"clouds":[],"obsTime":1783479600},"SBBR":{"icaoId":"SBBR","flightCategory":"VFR","rawOb":"METAR SBBR 080300Z VRB01KT CAVOK 19/09 Q1023","temp":19,"dewp":9,"wdir":"VRB","wspd":1,"visib":"6+","altim":1023,"clouds":[],"obsTime":1783479600},"SBFI":{"icaoId":"SBFI","flightCategory":"VFR","rawOb":"METAR SBFI 080300Z 00000KT CAVOK 05/05 Q1020","temp":5,"dewp":5,"wdir":0,"wspd":0,"visib":"6+","altim":1020,"clouds":[],"obsTime":1783479600},"SBKP":{"icaoId":"SBKP","flightCategory":"VFR","rawOb":"METAR SBKP 080300Z 12010KT CAVOK 15/13 Q1021","temp":15,"dewp":13,"wdir":120,"wspd":10,"visib":"6+","altim":1021,"clouds":[],"obsTime":1783479600},"SBSL":{"icaoId":"SBSL","flightCategory":"IFR","rawOb":"METAR SBSL 080300Z 05007KT 4000 -RA BR SCT015 BKN060 26/26 Q1016","temp":26,"dewp":26,"wdir":50,"wspd":7,"visib":2.49,"altim":1016,"clouds":[{"cover":"SCT","base":1500},{"cover":"BKN","base":6000}],"obsTime":1783479600},"SBPA":{"icaoId":"SBPA","flightCategory":"VFR","rawOb":"METAR SBPA 080300Z VRB02KT CAVOK 06/05 Q1021","temp":6,"dewp":5,"wdir":"VRB","wspd":2,"visib":"6+","altim":1021,"clouds":[],"obsTime":1783479600},"SBPJ":{"icaoId":"SBPJ","flightCategory":"VFR","rawOb":"METAR SBPJ 080300Z 11003KT CAVOK 22/18 Q1015","temp":22,"dewp":18,"wdir":110,"wspd":3,"visib":"6+","altim":1015,"clouds":[],"obsTime":1783479600},"SBGO":{"icaoId":"SBGO","flightCategory":"VFR","rawOb":"METAR SBGO 080300Z 14003KT CAVOK 19/13 Q1020","temp":19,"dewp":13,"wdir":140,"wspd":3,"visib":"6+","altim":1020,"clouds":[],"obsTime":1783479600},"SBVT":{"icaoId":"SBVT","flightCategory":"VFR","rawOb":"METAR SBVT 080300Z 02004KT CAVOK 20/18 Q1017","temp":20,"dewp":18,"wdir":20,"wspd":4,"visib":"6+","altim":1017,"clouds":[],"obsTime":1783479600},"SBSP":{"icaoId":"SBSP","flightCategory":"IFR","rawOb":"METAR SBSP 080300Z AUTO 10004KT 8000 OVC006 13/13 Q1022","temp":13,"dewp":13,"wdir":100,"wspd":4,"visib":4.97,"altim":1022,"clouds":[{"cover":"OVC","base":600}],"obsTime":1783479600},"SBFL":{"icaoId":"SBFL","flightCategory":"VFR","rawOb":"METAR SBFL 080300Z 29003KT 9999 FEW027 10/09 Q1021","temp":10,"dewp":9,"wdir":290,"wspd":3,"visib":"6+","altim":1021,"clouds":[{"cover":"FEW","base":2700}],"obsTime":1783479600},"SBMA":{"icaoId":"SBMA","flightCategory":"VFR","rawOb":"METAR SBMA 080300Z 02009KT 9999 -RA VCTS FEW012 FEW020CB BKN080 26/22 Q1015","temp":26,"dewp":22,"wdir":20,"wspd":9,"visib":"6+","altim":1015,"clouds":[{"cover":"FEW","base":1200},{"cover":"FEW","base":2000},{"cover":"BKN","base":8000}],"obsTime":1783479600},"SBMQ":{"icaoId":"SBMQ","flightCategory":"VFR","rawOb":"METAR SBMQ 080300Z 02007KT 9999 SCT019 28/26 Q1015","temp":28,"dewp":26,"wdir":20,"wspd":7,"visib":"6+","altim":1015,"clouds":[{"cover":"SCT","base":1900}],"obsTime":1783479600},"SBTE":{"icaoId":"SBTE","flightCategory":"VFR","rawOb":"METAR SBTE 080300Z 35005KT CAVOK 26/22 Q1015","temp":26,"dewp":22,"wdir":350,"wspd":5,"visib":"6+","altim":1015,"clouds":[],"obsTime":1783479600},"SBLO":{"icaoId":"SBLO","flightCategory":"VFR","rawOb":"METAR SBLO 080300Z 25003KT 220V280 CAVOK 14/06 Q1020","temp":14,"dewp":6,"wdir":250,"wspd":3,"visib":"6+","altim":1020,"clouds":[],"obsTime":1783479600},"SBGR":{"icaoId":"SBGR","flightCategory":"IFR","rawOb":"METAR SBGR 080300Z 12003KT 8000 OVC008 14/13 Q1022","temp":14,"dewp":13,"wdir":120,"wspd":3,"visib":4.97,"altim":1022,"clouds":[{"cover":"OVC","base":800}],"obsTime":1783479600},"SBSN":{"icaoId":"SBSN","flightCategory":"VFR","rawOb":"METAR SBSN 080300Z 18004KT CAVOK 25/23 Q1015","temp":25,"dewp":23,"wdir":180,"wspd":4,"visib":"6+","altim":1015,"clouds":[],"obsTime":1783479600},"SBMG":{"icaoId":"SBMG","flightCategory":"VFR","rawOb":"METAR SBMG 080300Z 35002KT CAVOK 13/05 Q1020","temp":13,"dewp":5,"wdir":350,"wspd":2,"visib":"6+","altim":1020,"clouds":[],"obsTime":1783479600},"SBJU":{"icaoId":"SBJU","flightCategory":"VFR","rawOb":"METAR SBJU 080300Z 20003KT 9999 FEW020 24/12 Q1018","temp":24,"dewp":12,"wdir":200,"wspd":3,"visib":"6+","altim":1018,"clouds":[{"cover":"FEW","base":2000}],"obsTime":1783479600},"SBME":{"icaoId":"SBME","flightCategory":"MVFR","rawOb":"METAR SBME 080300Z 21009KT 9999 BKN011 20/18 Q1019","temp":20,"dewp":18,"wdir":210,"wspd":9,"visib":"6+","altim":1019,"clouds":[{"cover":"BKN","base":1100}],"obsTime":1783479600},"SBMK":{"icaoId":"SBMK","flightCategory":"VFR","rawOb":"METAR SBMK 080300Z 24002KT CAVOK 17/12 Q1020","temp":17,"dewp":12,"wdir":240,"wspd":2,"visib":"6+","altim":1020,"clouds":[],"obsTime":1783479600},"SBUL":{"icaoId":"SBUL","flightCategory":"VFR","rawOb":"METAR SBUL 080300Z 20007KT CAVOK 18/12 Q1022","temp":18,"dewp":12,"wdir":200,"wspd":7,"visib":"6+","altim":1022,"clouds":[],"obsTime":1783479600},"SBUR":{"icaoId":"SBUR","flightCategory":"VFR","rawOb":"METAR SBUR 080300Z 20004KT CAVOK 20/13 Q1022","temp":20,"dewp":13,"wdir":200,"wspd":4,"visib":"6+","altim":1022,"clouds":[],"obsTime":1783479600},"SBPS":{"icaoId":"SBPS","flightCategory":"VFR","rawOb":"METAR SBPS 080300Z 35003KT 9999 FEW020 21/19 Q1018","temp":21,"dewp":19,"wdir":350,"wspd":3,"visib":"6+","altim":1018,"clouds":[{"cover":"FEW","base":2000}],"obsTime":1783479600},"SBPL":{"icaoId":"SBPL","flightCategory":"VFR","rawOb":"METAR SBPL 080300Z 11005KT CAVOK 24/15 Q1019","temp":24,"dewp":15,"wdir":110,"wspd":5,"visib":"6+","altim":1019,"clouds":[],"obsTime":1783479600},"SBAR":{"icaoId":"SBAR","flightCategory":"VFR","rawOb":"METAR SBAR 080300Z 30002KT 9999 FEW026 21/20 Q1018","temp":21,"dewp":20,"wdir":300,"wspd":2,"visib":"6+","altim":1018,"clouds":[{"cover":"FEW","base":2600}],"obsTime":1783479600},"SBCO":{"icaoId":"SBCO","flightCategory":"VFR","rawOb":"METAR SBCO 080300Z 33003KT CAVOK 06/03 Q1022","temp":6,"dewp":3,"wdir":330,"wspd":3,"visib":"6+","altim":1022,"clouds":[],"obsTime":1783479600},"SBSM":{"icaoId":"SBSM","flightCategory":"VFR","rawOb":"METAR SBSM 080300Z 00000KT CAVOK 03/03 Q1022","temp":3,"dewp":3,"wdir":0,"wspd":0,"visib":"6+","altim":1022,"clouds":[],"obsTime":1783479600},"SBKG":{"icaoId":"SBKG","flightCategory":"VFR","rawOb":"METAR SBKG 080300Z 13003KT CAVOK 20/19 Q1019","temp":20,"dewp":19,"wdir":130,"wspd":3,"visib":"6+","altim":1019,"clouds":[],"obsTime":1783479600},"SBAX":{"icaoId":"SBAX","flightCategory":"VFR","rawOb":"METAR SBAX 080300Z AUTO 20003KT CAVOK 17/12 Q1022","temp":17,"dewp":12,"wdir":200,"wspd":3,"visib":"6+","altim":1022,"clouds":[],"obsTime":1783479600},"SBDN":{"icaoId":"SBDN","flightCategory":"VFR","rawOb":"METAR SBDN 080300Z 00000KT CAVOK 13/10 Q1021","temp":13,"dewp":10,"wdir":0,"wspd":0,"visib":"6+","altim":1021,"clouds":[],"obsTime":1783479600},"SBIP":{"icaoId":"SBIP","flightCategory":"MVFR","rawOb":"METAR SBIP 080300Z AUTO VRB01KT 7000 NCD 17/17 Q1018","temp":17,"dewp":17,"wdir":"VRB","wspd":1,"visib":4.35,"altim":1018,"clouds":[],"obsTime":1783479600},"SBSC":{"icaoId":"SBSC","flightCategory":"IFR","rawOb":"METAR SBSC 080300Z 21006KT 3000 -RA BR SCT007 BKN015 OVC030 20/18 Q1020","temp":20,"dewp":18,"wdir":210,"wspd":6,"visib":1.86,"altim":1020,"clouds":[{"cover":"SCT","base":700},{"cover":"BKN","base":1500},{"cover":"OVC","base":3000}],"obsTime":1783479600},"SBSR":{"icaoId":"SBSR","flightCategory":"VFR","rawOb":"METAR SBSR 080300Z 24005KT CAVOK 17/15 Q1020","temp":17,"dewp":15,"wdir":240,"wspd":5,"visib":"6+","altim":1020,"clouds":[],"obsTime":1783479600},"SBTU":{"icaoId":"SBTU","flightCategory":"VFR","rawOb":"METAR SBTU 080300Z AUTO 04006KT 9999 // FEW032/// OVC037/// 24/23 Q1017","temp":24,"dewp":23,"wdir":40,"wspd":6,"visib":"6+","altim":1017,"clouds":[{"cover":"FEW","base":3200},{"cover":"OVC","base":3700}],"obsTime":1783479600},"SBOI":{"icaoId":"SBOI","flightCategory":"VFR","rawOb":"METAR SBOI 080300Z AUTO 00000KT CAVOK 25/24 Q1016","temp":25,"dewp":24,"wdir":0,"wspd":0,"visib":"6+","altim":1016,"clouds":[],"obsTime":1783479600},"SBSJ":{"icaoId":"SBSJ","flightCategory":"MVFR","rawOb":"SPECI SBSJ 080230Z 17003KT 100V200 9999 OVC021 15/12 Q1022","temp":15,"dewp":12,"wdir":170,"wspd":3,"visib":"6+","altim":1022,"clouds":[{"cover":"OVC","base":2100}],"obsTime":1783477800},"SBJP":{"icaoId":"SBJP","flightCategory":"VFR","rawOb":"METAR SBJP 080300Z 14005KT 9999 FEW020 BKN070 23/21 Q1017","temp":23,"dewp":21,"wdir":140,"wspd":5,"visib":"6+","altim":1017,"clouds":[{"cover":"FEW","base":2000},{"cover":"BKN","base":7000}],"obsTime":1783479600},"SBNM":{"icaoId":"SBNM","flightCategory":"VFR","rawOb":"METAR SBNM 080300Z AUTO 03007KT CAVOK 07/03 Q1020","temp":7,"dewp":3,"wdir":30,"wspd":7,"visib":"6+","altim":1020,"clouds":[],"obsTime":1783479600},"SBLE":{"icaoId":"SBLE","flightCategory":"MVFR","rawOb":"METAR SBLE 080300Z AUTO 00000KT 9999 BKN015 ///// Q1021","temp":null,"dewp":null,"wdir":0,"wspd":0,"visib":"6+","altim":1021,"clouds":[{"cover":"BKN","base":1500}],"obsTime":1783479600},"SBTA":{"icaoId":"SBTA","flightCategory":"MVFR","rawOb":"METAR SBTA 080300Z 00000KT 9999 BKN025 16/13 Q1021","temp":16,"dewp":13,"wdir":0,"wspd":0,"visib":"6+","altim":1021,"clouds":[{"cover":"BKN","base":2500}],"obsTime":1783479600},"SBAN":{"icaoId":"SBAN","flightCategory":"VFR","rawOb":"METAR SBAN 080300Z 15006KT CAVOK 18/10 Q1023","temp":18,"dewp":10,"wdir":150,"wspd":6,"visib":"6+","altim":1023,"clouds":[],"obsTime":1783479600}}}