{"updated":1781999817,"count":73,"data":{"SBSP":{"icaoId":"SBSP","flightCategory":"VFR","rawOb":"METAR SBSP 202200Z 34005KT CAVOK 21/16 Q1015","temp":21,"dewp":16,"wdir":340,"wspd":5,"visib":"6+","altim":1015,"clouds":[],"obsTime":1781992800},"SBKP":{"icaoId":"SBKP","flightCategory":"VFR","rawOb":"METAR SBKP 202200Z 33006KT 9999 FEW040 BKN070 21/17 Q1015","temp":21,"dewp":17,"wdir":330,"wspd":6,"visib":"6+","altim":1015,"clouds":[{"cover":"FEW","base":4000},{"cover":"BKN","base":7000}],"obsTime":1781992800},"SBRF":{"icaoId":"SBRF","flightCategory":"MVFR","rawOb":"METAR SBRF 202200Z 18008KT 9999 SCT014 BKN020 26/23 Q1014","temp":26,"dewp":23,"wdir":180,"wspd":8,"visib":"6+","altim":1014,"clouds":[{"cover":"SCT","base":1400},{"cover":"BKN","base":2000}],"obsTime":1781992800},"SBFL":{"icaoId":"SBFL","flightCategory":"MVFR","rawOb":"METAR SBFL 202200Z 17010KT 140V210 9000 -RA BKN010 SCT040 OVC083 14/12 Q1014","temp":14,"dewp":12,"wdir":170,"wspd":10,"visib":5.59,"altim":1014,"clouds":[{"cover":"BKN","base":1000},{"cover":"SCT","base":4000},{"cover":"OVC","base":8300}],"obsTime":1781992800},"SBMQ":{"icaoId":"SBMQ","flightCategory":"VFR","rawOb":"METAR SBMQ 202200Z 06006KT 9999 SCT025 FEW030TCU 29/24 Q1011","temp":29,"dewp":24,"wdir":60,"wspd":6,"visib":"6+","altim":1011,"clouds":[{"cover":"SCT","base":2500},{"cover":"FEW","base":3000}],"obsTime":1781992800},"SBGL":{"icaoId":"SBGL","flightCategory":"VFR","rawOb":"METAR SBGL 202200Z 13003KT 100V170 CAVOK 22/16 Q1010","temp":22,"dewp":16,"wdir":130,"wspd":3,"visib":"6+","altim":1010,"clouds":[],"obsTime":1781992800},"SBNT":{"icaoId":"SBNT","flightCategory":"VFR","rawOb":"METAR SBNT 202200Z 14005KT 9999 FEW018 25/23 Q1014","temp":25,"dewp":23,"wdir":140,"wspd":5,"visib":"6+","altim":1014,"clouds":[{"cover":"FEW","base":1800}],"obsTime":1781992800},"SBCF":{"icaoId":"SBCF","flightCategory":"VFR","rawOb":"METAR SBCF 202200Z 07006KT CAVOK 19/12 Q1018","temp":19,"dewp":12,"wdir":70,"wspd":6,"visib":"6+","altim":1018,"clouds":[],"obsTime":1781992800},"SBPA":{"icaoId":"SBPA","flightCategory":"MVFR","rawOb":"METAR SBPA 202200Z 00000KT 9000 BKN023 12/08 Q1016","temp":12,"dewp":8,"wdir":0,"wspd":0,"visib":5.59,"altim":1016,"clouds":[{"cover":"BKN","base":2300}],"obsTime":1781992800},"SBGO":{"icaoId":"SBGO","flightCategory":"VFR","rawOb":"METAR SBGO 202200Z 34004KT CAVOK 25/18 Q1016","temp":25,"dewp":18,"wdir":340,"wspd":4,"visib":"6+","altim":1016,"clouds":[],"obsTime":1781992800},"SBCZ":{"icaoId":"SBCZ","flightCategory":"VFR","rawOb":"METAR SBCZ 202200Z 16005KT 130V210 9999 VCSH SCT035 28/21 Q1011","temp":28,"dewp":21,"wdir":160,"wspd":5,"visib":"6+","altim":1011,"clouds":[{"cover":"SCT","base":3500}],"obsTime":1781992800},"SBPJ":{"icaoId":"SBPJ","flightCategory":"VFR","rawOb":"METAR SBPJ 202200Z 18002KT CAVOK 25/21 Q1014","temp":25,"dewp":21,"wdir":180,"wspd":2,"visib":"6+","altim":1014,"clouds":[],"obsTime":1781992800},"SBPV":{"icaoId":"SBPV","flightCategory":"VFR","rawOb":"METAR SBPV 202200Z 26002KT 9999 SCT025 FEW030TCU 26/24 Q1010","temp":26,"dewp":24,"wdir":260,"wspd":2,"visib":"6+","altim":1010,"clouds":[{"cover":"SCT","base":2500},{"cover":"FEW","base":3000}],"obsTime":1781992800},"SBGR":{"icaoId":"SBGR","flightCategory":"VFR","rawOb":"METAR SBGR 202200Z 36007KT 9999 SCT045 BKN100 22/15 Q1015","temp":22,"dewp":15,"wdir":360,"wspd":7,"visib":"6+","altim":1015,"clouds":[{"cover":"SCT","base":4500},{"cover":"BKN","base":10000}],"obsTime":1781992800},"SBRB":{"icaoId":"SBRB","flightCategory":"VFR","rawOb":"METAR SBRB 202200Z 16003KT 120V200 9999 FEW025 26/22 Q1012","temp":26,"dewp":22,"wdir":160,"wspd":3,"visib":"6+","altim":1012,"clouds":[{"cover":"FEW","base":2500}],"obsTime":1781992800},"SBBR":{"icaoId":"SBBR","flightCategory":"VFR","rawOb":"METAR SBBR 202200Z 09004KT CAVOK 23/14 Q1018","temp":23,"dewp":14,"wdir":90,"wspd":4,"visib":"6+","altim":1018,"clouds":[],"obsTime":1781992800},"SBIL":{"icaoId":"SBIL","flightCategory":"VFR","rawOb":"METAR SBIL 202200Z 31005KT CAVOK 21/19 Q1016","temp":21,"dewp":19,"wdir":310,"wspd":5,"visib":"6+","altim":1016,"clouds":[],"obsTime":1781992800},"SBSG":{"icaoId":"SBSG","flightCategory":"VFR","rawOb":"METAR SBSG 202200Z 13003KT 090V150 9999 VCSH FEW025 BKN100 25/23 Q1014","temp":25,"dewp":23,"wdir":130,"wspd":3,"visib":"6+","altim":1014,"clouds":[{"cover":"FEW","base":2500},{"cover":"BKN","base":10000}],"obsTime":1781992800},"SBEG":{"icaoId":"SBEG","flightCategory":"VFR","rawOb":"METAR SBEG 202200Z 11004KT 9999 FEW030 FEW035TCU 30/23 Q1010","temp":30,"dewp":23,"wdir":110,"wspd":4,"visib":"6+","altim":1010,"clouds":[{"cover":"FEW","base":3000},{"cover":"FEW","base":3500}],"obsTime":1781992800},"SBSL":{"icaoId":"SBSL","flightCategory":"VFR","rawOb":"METAR SBSL 202200Z 01003KT 9999 SCT020 BKN080 26/24 Q1012","temp":26,"dewp":24,"wdir":10,"wspd":3,"visib":"6+","altim":1012,"clouds":[{"cover":"SCT","base":2000},{"cover":"BKN","base":8000}],"obsTime":1781992800},"SBJU":{"icaoId":"SBJU","flightCategory":"VFR","rawOb":"METAR SBJU 202200Z 00000KT 9999 SCT020 27/16 Q1015","temp":27,"dewp":16,"wdir":0,"wspd":0,"visib":"6+","altim":1015,"clouds":[{"cover":"SCT","base":2000}],"obsTime":1781992800},"SBSN":{"icaoId":"SBSN","flightCategory":"VFR","rawOb":"METAR SBSN 202200Z 18005KT CAVOK 28/24 Q1011","temp":28,"dewp":24,"wdir":180,"wspd":5,"visib":"6+","altim":1011,"clouds":[],"obsTime":1781992800},"SBCG":{"icaoId":"SBCG","flightCategory":"VFR","rawOb":"METAR SBCG 202200Z 24002KT CAVOK 16/10 Q1017","temp":16,"dewp":10,"wdir":240,"wspd":2,"visib":"6+","altim":1017,"clouds":[],"obsTime":1781992800},"SBSV":{"icaoId":"SBSV","flightCategory":"VFR","rawOb":"METAR SBSV 202200Z 15007KT 9999 FEW023 SCT070 25/16 Q1016","temp":25,"dewp":16,"wdir":150,"wspd":7,"visib":"6+","altim":1016,"clouds":[{"cover":"FEW","base":2300},{"cover":"SCT","base":7000}],"obsTime":1781992800},"SBTE":{"icaoId":"SBTE","flightCategory":"VFR","rawOb":"METAR SBTE 202200Z 32004KT CAVOK 30/21 Q1011","temp":30,"dewp":21,"wdir":320,"wspd":4,"visib":"6+","altim":1011,"clouds":[],"obsTime":1781992800},"SBUL":{"icaoId":"SBUL","flightCategory":"VFR","rawOb":"METAR SBUL 202200Z 08002KT CAVOK 21/15 Q1018","temp":21,"dewp":15,"wdir":80,"wspd":2,"visib":"6+","altim":1018,"clouds":[],"obsTime":1781992800},"SBFI":{"icaoId":"SBFI","flightCategory":"MVFR","rawOb":"METAR SBFI 202200Z 01002KT 9999 FEW012 BKN020 13/12 Q1015","temp":13,"dewp":12,"wdir":10,"wspd":2,"visib":"6+","altim":1015,"clouds":[{"cover":"FEW","base":1200},{"cover":"BKN","base":2000}],"obsTime":1781992800},"SBLO":{"icaoId":"SBLO","flightCategory":"VFR","rawOb":"METAR SBLO 202200Z 29004KT 9999 FEW030 16/12 Q1016","temp":16,"dewp":12,"wdir":290,"wspd":4,"visib":"6+","altim":1016,"clouds":[{"cover":"FEW","base":3000}],"obsTime":1781992800},"SBUR":{"icaoId":"SBUR","flightCategory":"VFR","rawOb":"METAR SBUR 202200Z 01004KT CAVOK 23/15 Q1016","temp":23,"dewp":15,"wdir":10,"wspd":4,"visib":"6+","altim":1016,"clouds":[],"obsTime":1781992800},"SBVT":{"icaoId":"SBVT","flightCategory":"VFR","rawOb":"METAR SBVT 202200Z 03008KT CAVOK 22/19 Q1016","temp":22,"dewp":19,"wdir":30,"wspd":8,"visib":"6+","altim":1016,"clouds":[],"obsTime":1781992800},"SBMG":{"icaoId":"SBMG","flightCategory":"VFR","rawOb":"METAR SBMG 202200Z 31005KT 9999 FEW030 14/12 Q1015","temp":14,"dewp":12,"wdir":310,"wspd":5,"visib":"6+","altim":1015,"clouds":[{"cover":"FEW","base":3000}],"obsTime":1781992800},"SBCB":{"icaoId":"SBCB","flightCategory":"VFR","rawOb":"METAR SBCB 202200Z /////KT CAVOK 20/17 Q1012","temp":20,"dewp":17,"wdir":null,"wspd":null,"visib":"6+","altim":1012,"clouds":[],"obsTime":1781992800},"SBMA":{"icaoId":"SBMA","flightCategory":"VFR","rawOb":"METAR SBMA 202200Z 33004KT 9999 FEW020 FEW025TCU 27/23 Q1012","temp":27,"dewp":23,"wdir":330,"wspd":4,"visib":"6+","altim":1012,"clouds":[{"cover":"FEW","base":2000},{"cover":"FEW","base":2500}],"obsTime":1781992800},"SBME":{"icaoId":"SBME","flightCategory":"VFR","rawOb":"METAR SBME 202200Z 01008KT CAVOK 22/15 Q1012","temp":22,"dewp":15,"wdir":10,"wspd":8,"visib":"6+","altim":1012,"clouds":[],"obsTime":1781992800},"SBBE":{"icaoId":"SBBE","flightCategory":"VFR","rawOb":"METAR SBBE 202200Z 09007KT 9999 -RA SCT045 BKN100 24/23 Q1013","temp":24,"dewp":23,"wdir":90,"wspd":7,"visib":"6+","altim":1013,"clouds":[{"cover":"SCT","base":4500},{"cover":"BKN","base":10000}],"obsTime":1781992800},"SBBV":{"icaoId":"SBBV","flightCategory":"VFR","rawOb":"METAR SBBV 202200Z 17008KT 9999 SCT035 FEW040TCU SCT080 29/23 Q1010","temp":29,"dewp":23,"wdir":170,"wspd":8,"visib":"6+","altim":1010,"clouds":[{"cover":"SCT","base":3500},{"cover":"FEW","base":4000},{"cover":"SCT","base":8000}],"obsTime":1781992800},"SBMK":{"icaoId":"SBMK","flightCategory":"VFR","rawOb":"METAR SBMK 202200Z 00000KT CAVOK 19/11 Q1017","temp":19,"dewp":11,"wdir":0,"wspd":0,"visib":"6+","altim":1017,"clouds":[],"obsTime":1781992800},"SBFZ":{"icaoId":"SBFZ","flightCategory":"VFR","rawOb":"METAR SBFZ 202200Z 13005KT 9999 FEW020 BKN060 28/22 Q1013","temp":28,"dewp":22,"wdir":130,"wspd":5,"visib":"6+","altim":1013,"clouds":[{"cover":"FEW","base":2000},{"cover":"BKN","base":6000}],"obsTime":1781992800},"SBMO":{"icaoId":"SBMO","flightCategory":"VFR","rawOb":"METAR SBMO 202200Z 19004KT 9999 FEW033 24/22 Q1015","temp":24,"dewp":22,"wdir":190,"wspd":4,"visib":"6+","altim":1015,"clouds":[{"cover":"FEW","base":3300}],"obsTime":1781992800},"SBCT":{"icaoId":"SBCT","flightCategory":"VFR","rawOb":"METAR SBCT 202200Z 29002KT 9999 MIFG FEW007 11/11 Q1015","temp":11,"dewp":11,"wdir":290,"wspd":2,"visib":"6+","altim":1015,"clouds":[{"cover":"FEW","base":700}],"obsTime":1781992800},"SBCP":{"icaoId":"SBCP","flightCategory":"VFR","rawOb":"METAR SBCP 202200Z 03005KT CAVOK 21/16 Q1014","temp":21,"dewp":16,"wdir":30,"wspd":5,"visib":"6+","altim":1014,"clouds":[],"obsTime":1781992800},"SBTF":{"icaoId":"SBTF","flightCategory":"VFR","rawOb":"METAR SBTF 202200Z 14003KT 9999 FEW020 30/24 Q1009","temp":30,"dewp":24,"wdir":140,"wspd":3,"visib":"6+","altim":1009,"clouds":[{"cover":"FEW","base":2000}],"obsTime":1781992800},"SBCO":{"icaoId":"SBCO","flightCategory":"MVFR","rawOb":"METAR SBCO 202200Z VRB02KT 9999 BKN023 12/09 Q1017","temp":12,"dewp":9,"wdir":"VRB","wspd":2,"visib":"6+","altim":1017,"clouds":[{"cover":"BKN","base":2300}],"obsTime":1781992800},"SBPS":{"icaoId":"SBPS","flightCategory":"VFR","rawOb":"METAR SBPS 202200Z 10004KT 9999 FEW025 23/18 Q1016","temp":23,"dewp":18,"wdir":100,"wspd":4,"visib":"6+","altim":1016,"clouds":[{"cover":"FEW","base":2500}],"obsTime":1781992800},"SBBH":{"icaoId":"SBBH","flightCategory":"VFR","rawOb":"METAR SBBH 202200Z 00000KT CAVOK 19/12 Q1018","temp":19,"dewp":12,"wdir":0,"wspd":0,"visib":"6+","altim":1018,"clouds":[],"obsTime":1781992800},"SBSC":{"icaoId":"SBSC","flightCategory":"VFR","rawOb":"METAR SBSC 202200Z 05005KT CAVOK 21/16 Q1010","temp":21,"dewp":16,"wdir":50,"wspd":5,"visib":"6+","altim":1010,"clouds":[],"obsTime":1781992800},"SBDN":{"icaoId":"SBDN","flightCategory":"VFR","rawOb":"METAR SBDN 202200Z 27002KT CAVOK 14/12 Q1016","temp":14,"dewp":12,"wdir":270,"wspd":2,"visib":"6+","altim":1016,"clouds":[],"obsTime":1781992800},"SBSJ":{"icaoId":"SBSJ","flightCategory":"VFR","rawOb":"METAR SBSJ 202200Z 08003KT 9999 FEW045 BKN090 22/14 Q1015","temp":22,"dewp":14,"wdir":80,"wspd":3,"visib":"6+","altim":1015,"clouds":[{"cover":"FEW","base":4500},{"cover":"BKN","base":9000}],"obsTime":1781992800},"SBCA":{"icaoId":"SBCA","flightCategory":"LIFR","rawOb":"METAR SBCA 202200Z 31005KT 7000 VCFG BKN004 SCT015 11/10 Q1016","temp":11,"dewp":10,"wdir":310,"wspd":5,"visib":4.35,"altim":1016,"clouds":[{"cover":"BKN","base":400},{"cover":"SCT","base":1500}],"obsTime":1781992800},"SBSM":{"icaoId":"SBSM","flightCategory":"VFR","rawOb":"METAR SBSM 202200Z 26001KT 9999 FEW045 07/07 Q1016","temp":7,"dewp":7,"wdir":260,"wspd":1,"visib":"6+","altim":1016,"clouds":[{"cover":"FEW","base":4500}],"obsTime":1781992800},"SBIP":{"icaoId":"SBIP","flightCategory":"VFR","rawOb":"METAR SBIP 202200Z AUTO 00000KT CAVOK 16/15 Q1017","temp":16,"dewp":15,"wdir":0,"wspd":0,"visib":"6+","altim":1017,"clouds":[],"obsTime":1781992800},"SBSR":{"icaoId":"SBSR","flightCategory":"MVFR","rawOb":"METAR SBSR 202200Z 25013KT 9999 BKN025 19/16 Q1017","temp":19,"dewp":16,"wdir":250,"wspd":13,"visib":"6+","altim":1017,"clouds":[{"cover":"BKN","base":2500}],"obsTime":1781992800},"SBAX":{"icaoId":"SBAX","flightCategory":"VFR","rawOb":"METAR SBAX 202200Z AUTO 29003KT 260V330 CAVOK 21/13 Q1018","temp":21,"dewp":13,"wdir":290,"wspd":3,"visib":"6+","altim":1018,"clouds":[],"obsTime":1781992800},"SBKG":{"icaoId":"SBKG","flightCategory":"VFR","rawOb":"METAR SBKG 202200Z 10007KT CAVOK 22/20 Q1016","temp":22,"dewp":20,"wdir":100,"wspd":7,"visib":"6+","altim":1016,"clouds":[],"obsTime":1781992800},"SBTT":{"icaoId":"SBTT","flightCategory":"VFR","rawOb":"METAR SBTT 202200Z 36001KT 9999 FEW025 25/23 Q1011","temp":25,"dewp":23,"wdir":360,"wspd":1,"visib":"6+","altim":1011,"clouds":[{"cover":"FEW","base":2500}],"obsTime":1781992800},"SBAR":{"icaoId":"SBAR","flightCategory":"VFR","rawOb":"METAR SBAR 202200Z 31003KT 9999 FEW015 BKN035 23/21 Q1015","temp":23,"dewp":21,"wdir":310,"wspd":3,"visib":"6+","altim":1015,"clouds":[{"cover":"FEW","base":1500},{"cover":"BKN","base":3500}],"obsTime":1781992800},"SBTU":{"icaoId":"SBTU","flightCategory":"VFR","rawOb":"METAR SBTU 202200Z AUTO VRB01KT 9999 // FEW041/// ///// Q1014","temp":null,"dewp":null,"wdir":"VRB","wspd":1,"visib":"6+","altim":1014,"clouds":[{"cover":"FEW","base":4100}],"obsTime":1781992800},"SBCC":{"icaoId":"SBCC","flightCategory":"VFR","rawOb":"METAR SBCC 202200Z 05006KT 9999 FEW020 SCT100 25/20 Q1014","temp":25,"dewp":20,"wdir":50,"wspd":6,"visib":"6+","altim":1014,"clouds":[{"cover":"FEW","base":2000},{"cover":"SCT","base":10000}],"obsTime":1781992800},"SBOI":{"icaoId":"SBOI","flightCategory":"VFR","rawOb":"METAR SBOI 202200Z AUTO 04004KT 010V070 9999 SCT037 27/24 Q1012","temp":27,"dewp":24,"wdir":40,"wspd":4,"visib":"6+","altim":1012,"clouds":[{"cover":"SCT","base":3700}],"obsTime":1781992800},"SBBU":{"icaoId":"SBBU","flightCategory":"MVFR","rawOb":"METAR SBBU 202200Z 24008KT 6000 FEW004 SCT008 BKN014 17/17 Q1017","temp":17,"dewp":17,"wdir":240,"wspd":8,"visib":3.73,"altim":1017,"clouds":[{"cover":"FEW","base":400},{"cover":"SCT","base":800},{"cover":"BKN","base":1400}],"obsTime":1781992800},"SBPL":{"icaoId":"SBPL","flightCategory":"VFR","rawOb":"METAR SBPL 202200Z 09005KT CAVOK 27/15 Q1015","temp":27,"dewp":15,"wdir":90,"wspd":5,"visib":"6+","altim":1015,"clouds":[],"obsTime":1781992800},"SBVH":{"icaoId":"SBVH","flightCategory":"VFR","rawOb":"METAR SBVH 202200Z 08005KT CAVOK 22/20 Q1015","temp":22,"dewp":20,"wdir":80,"wspd":5,"visib":"6+","altim":1015,"clouds":[],"obsTime":1781992800},"SBUY":{"icaoId":"SBUY","flightCategory":"VFR","rawOb":"METAR SBUY 202200Z 08002KT 9999 FEW020 BKN080 24/23 Q1009","temp":24,"dewp":23,"wdir":80,"wspd":2,"visib":"6+","altim":1009,"clouds":[{"cover":"FEW","base":2000},{"cover":"BKN","base":8000}],"obsTime":1781992800},"SBLE":{"icaoId":"SBLE","flightCategory":"VFR","rawOb":"METAR SBLE 202200Z AUTO 02002KT CAVOK 19/19 Q1017","temp":19,"dewp":19,"wdir":20,"wspd":2,"visib":"6+","altim":1017,"clouds":[],"obsTime":1781992800},"SBJV":{"icaoId":"SBJV","flightCategory":"MVFR","rawOb":"METAR SBJV 202200Z 28003KT 9999 FEW005 BKN010 BKN100 15/15 Q1013","temp":15,"dewp":15,"wdir":280,"wspd":3,"visib":"6+","altim":1013,"clouds":[{"cover":"FEW","base":500},{"cover":"BKN","base":1000},{"cover":"BKN","base":10000}],"obsTime":1781992800},"SBNM":{"icaoId":"SBNM","flightCategory":"MVFR","rawOb":"METAR SBNM 202200Z AUTO 19002KT 9999 FEW020 BKN029 11/10 Q1015","temp":11,"dewp":10,"wdir":190,"wspd":2,"visib":"6+","altim":1015,"clouds":[{"cover":"FEW","base":2000},{"cover":"BKN","base":2900}],"obsTime":1781992800},"SBAN":{"icaoId":"SBAN","flightCategory":"VFR","rawOb":"METAR SBAN 202200Z 00000KT CAVOK 19/15 Q1019","temp":19,"dewp":15,"wdir":0,"wspd":0,"visib":"6+","altim":1019,"clouds":[],"obsTime":1781992800},"SBAF":{"icaoId":"SBAF","flightCategory":"VFR","rawOb":"METAR SBAF 202200Z 25006KT CAVOK 19/19 Q1010","temp":19,"dewp":19,"wdir":250,"wspd":6,"visib":"6+","altim":1010,"clouds":[],"obsTime":1781992800},"SBJR":{"icaoId":"SBJR","flightCategory":"VFR","rawOb":"METAR SBJR 202200Z 33005KT CAVOK 24/14 Q1010","temp":24,"dewp":14,"wdir":330,"wspd":5,"visib":"6+","altim":1010,"clouds":[],"obsTime":1781992800},"SBLS":{"icaoId":"SBLS","flightCategory":"VFR","rawOb":"METAR SBLS 202200Z 11005KT CAVOK 19/11 Q1017","temp":19,"dewp":11,"wdir":110,"wspd":5,"visib":"6+","altim":1017,"clouds":[],"obsTime":1781992800},"SBMT":{"icaoId":"SBMT","flightCategory":"VFR","rawOb":"METAR SBMT 202200Z 35002KT 9999 BKN040 BKN070 19/16 Q1014","temp":19,"dewp":16,"wdir":350,"wspd":2,"visib":"6+","altim":1014,"clouds":[{"cover":"BKN","base":4000},{"cover":"BKN","base":7000}],"obsTime":1781992800},"SBJP":{"icaoId":"SBJP","flightCategory":"VFR","rawOb":"METAR SBJP 202200Z 14007KT CAVOK 25/23 Q1014","temp":25,"dewp":23,"wdir":140,"wspd":7,"visib":"6+","altim":1014,"clouds":[],"obsTime":1781992800},"SBGW":{"icaoId":"SBGW","flightCategory":"VFR","rawOb":"METAR SBGW 202200Z 01003KT 9999 FEW020 BKN100 21/12 Q1014","temp":21,"dewp":12,"wdir":10,"wspd":3,"visib":"6+","altim":1014,"clouds":[{"cover":"FEW","base":2000},{"cover":"BKN","base":10000}],"obsTime":1781992800}}}