{"updated":1776895676,"count":81,"data":{"SBVT":{"icaoId":"SBVT","flightCategory":"VFR","rawOb":"METAR SBVT 222100Z 16006KT 9999 FEW020 25/22 Q1016","temp":25,"dewp":22,"wdir":160,"wspd":6,"visib":"6+","altim":1016,"clouds":[{"cover":"FEW","base":2000}],"obsTime":1776891600},"SBBE":{"icaoId":"SBBE","flightCategory":"VFR","rawOb":"METAR SBBE 222100Z 04007KT 9999 SCT035 FEW040TCU 29/24 Q1008","temp":29,"dewp":24,"wdir":40,"wspd":7,"visib":"6+","altim":1008,"clouds":[{"cover":"SCT","base":3500},{"cover":"FEW","base":4000}],"obsTime":1776891600},"SBBR":{"icaoId":"SBBR","flightCategory":"VFR","rawOb":"METAR SBBR 222100Z 12007KT CAVOK 26/16 Q1017","temp":26,"dewp":16,"wdir":120,"wspd":7,"visib":"6+","altim":1017,"clouds":[],"obsTime":1776891600},"SBBV":{"icaoId":"SBBV","flightCategory":"VFR","rawOb":"METAR SBBV 222100Z 21002KT 9999 FEW010 SCT035 FEW040TCU BKN100 24/22 Q1010","temp":24,"dewp":22,"wdir":210,"wspd":2,"visib":"6+","altim":1010,"clouds":[{"cover":"FEW","base":1000},{"cover":"SCT","base":3500},{"cover":"FEW","base":4000},{"cover":"BKN","base":10000}],"obsTime":1776891600},"SBCF":{"icaoId":"SBCF","flightCategory":"VFR","rawOb":"METAR SBCF 222100Z 10005KT 070V130 9999 FEW045 25/17 Q1018","temp":25,"dewp":17,"wdir":100,"wspd":5,"visib":"6+","altim":1018,"clouds":[{"cover":"FEW","base":4500}],"obsTime":1776891600},"SBCG":{"icaoId":"SBCG","flightCategory":"VFR","rawOb":"METAR SBCG 222100Z 12009KT CAVOK 28/15 Q1015","temp":28,"dewp":15,"wdir":120,"wspd":9,"visib":"6+","altim":1015,"clouds":[],"obsTime":1776891600},"SBCP":{"icaoId":"SBCP","flightCategory":"VFR","rawOb":"METAR SBCP 222100Z 10007KT CAVOK 23/20 Q1016","temp":23,"dewp":20,"wdir":100,"wspd":7,"visib":"6+","altim":1016,"clouds":[],"obsTime":1776891600},"SBCT":{"icaoId":"SBCT","flightCategory":"VFR","rawOb":"METAR SBCT 222100Z 10004KT CAVOK 21/15 Q1020","temp":21,"dewp":15,"wdir":100,"wspd":4,"visib":"6+","altim":1020,"clouds":[],"obsTime":1776891600},"SBCZ":{"icaoId":"SBCZ","flightCategory":"VFR","rawOb":"METAR SBCZ 222100Z 25005KT 9999 FEW030 29/25 Q1008","temp":29,"dewp":25,"wdir":250,"wspd":5,"visib":"6+","altim":1008,"clouds":[{"cover":"FEW","base":3000}],"obsTime":1776891600},"SBEG":{"icaoId":"SBEG","flightCategory":"MVFR","rawOb":"METAR SBEG 222100Z 23006KT 9999 BKN010 FEW025TCU BKN080 25/23 Q1011","temp":25,"dewp":23,"wdir":230,"wspd":6,"visib":"6+","altim":1011,"clouds":[{"cover":"BKN","base":1000},{"cover":"FEW","base":2500},{"cover":"BKN","base":8000}],"obsTime":1776891600},"SBFI":{"icaoId":"SBFI","flightCategory":"VFR","rawOb":"METAR SBFI 222100Z 18003KT CAVOK 28/23 Q1015","temp":28,"dewp":23,"wdir":180,"wspd":3,"visib":"6+","altim":1015,"clouds":[],"obsTime":1776891600},"SBFL":{"icaoId":"SBFL","flightCategory":"VFR","rawOb":"METAR SBFL 222100Z 01004KT 340V040 9999 FEW020 25/19 Q1015","temp":25,"dewp":19,"wdir":10,"wspd":4,"visib":"6+","altim":1015,"clouds":[{"cover":"FEW","base":2000}],"obsTime":1776891600},"SBFZ":{"icaoId":"SBFZ","flightCategory":"VFR","rawOb":"METAR SBFZ 222100Z 09008KT CAVOK 28/23 Q1009","temp":28,"dewp":23,"wdir":90,"wspd":8,"visib":"6+","altim":1009,"clouds":[],"obsTime":1776891600},"SBGL":{"icaoId":"SBGL","flightCategory":"VFR","rawOb":"METAR SBGL 222100Z 14011KT 9999 BKN040 24/20 Q1015","temp":24,"dewp":20,"wdir":140,"wspd":11,"visib":"6+","altim":1015,"clouds":[{"cover":"BKN","base":4000}],"obsTime":1776891600},"SBGO":{"icaoId":"SBGO","flightCategory":"VFR","rawOb":"METAR SBGO 222100Z 36004KT 9999 SCT049 FEW053TCU 27/20 Q1015","temp":27,"dewp":20,"wdir":360,"wspd":4,"visib":"6+","altim":1015,"clouds":[{"cover":"SCT","base":4900},{"cover":"FEW","base":5300}],"obsTime":1776891600},"SBGR":{"icaoId":"SBGR","flightCategory":"MVFR","rawOb":"METAR SBGR 222100Z 16006KT 8000 BKN015 21/17 Q1019","temp":21,"dewp":17,"wdir":160,"wspd":6,"visib":4.97,"altim":1019,"clouds":[{"cover":"BKN","base":1500}],"obsTime":1776891600},"SBKP":{"icaoId":"SBKP","flightCategory":"VFR","rawOb":"METAR SBKP 222100Z 19007KT CAVOK 26/15 Q1017","temp":26,"dewp":15,"wdir":190,"wspd":7,"visib":"6+","altim":1017,"clouds":[],"obsTime":1776891600},"SBLO":{"icaoId":"SBLO","flightCategory":"VFR","rawOb":"METAR SBLO 222100Z 10005KT CAVOK 26/15 Q1017","temp":26,"dewp":15,"wdir":100,"wspd":5,"visib":"6+","altim":1017,"clouds":[],"obsTime":1776891600},"SBMA":{"icaoId":"SBMA","flightCategory":"VFR","rawOb":"METAR SBMA 222100Z 35005KT 9999 FEW025TCU BKN080 29/25 Q1008","temp":29,"dewp":25,"wdir":350,"wspd":5,"visib":"6+","altim":1008,"clouds":[{"cover":"FEW","base":2500},{"cover":"BKN","base":8000}],"obsTime":1776891600},"SBMO":{"icaoId":"SBMO","flightCategory":"VFR","rawOb":"SPECI SBMO 222015Z 20005KT 9999 VCTS SCT013 SCT017 FEW027CB 26/24 Q1012","temp":26,"dewp":24,"wdir":200,"wspd":5,"visib":"6+","altim":1012,"clouds":[{"cover":"SCT","base":1300},{"cover":"SCT","base":1700},{"cover":"FEW","base":2700}],"obsTime":1776888900},"SBMQ":{"icaoId":"SBMQ","flightCategory":"VFR","rawOb":"METAR SBMQ 222100Z 08003KT 9999 FEW020 BKN100 28/26 Q1008","temp":28,"dewp":26,"wdir":80,"wspd":3,"visib":"6+","altim":1008,"clouds":[{"cover":"FEW","base":2000},{"cover":"BKN","base":10000}],"obsTime":1776891600},"SBNT":{"icaoId":"SBNT","flightCategory":"VFR","rawOb":"METAR SBNT 222100Z 13008KT CAVOK 27/24 Q1010","temp":27,"dewp":24,"wdir":130,"wspd":8,"visib":"6+","altim":1010,"clouds":[],"obsTime":1776891600},"SBPA":{"icaoId":"SBPA","flightCategory":"VFR","rawOb":"METAR SBPA 222100Z 16007KT 9999 FEW040 27/21 Q1014","temp":27,"dewp":21,"wdir":160,"wspd":7,"visib":"6+","altim":1014,"clouds":[{"cover":"FEW","base":4000}],"obsTime":1776891600},"SBPJ":{"icaoId":"SBPJ","flightCategory":"VFR","rawOb":"METAR SBPJ 222100Z 00000KT 9999 FEW040 31/24 Q1010","temp":31,"dewp":24,"wdir":0,"wspd":0,"visib":"6+","altim":1010,"clouds":[{"cover":"FEW","base":4000}],"obsTime":1776891600},"SBPV":{"icaoId":"SBPV","flightCategory":"VFR","rawOb":"METAR SBPV 222100Z 23001KT 9999 FEW045 29/25 Q1008","temp":29,"dewp":25,"wdir":230,"wspd":1,"visib":"6+","altim":1008,"clouds":[{"cover":"FEW","base":4500}],"obsTime":1776891600},"SBRB":{"icaoId":"SBRB","flightCategory":"MVFR","rawOb":"METAR SBRB 222100Z 31002KT 9999 BKN025 FEW030TCU 31/23 Q1008","temp":31,"dewp":23,"wdir":310,"wspd":2,"visib":"6+","altim":1008,"clouds":[{"cover":"BKN","base":2500},{"cover":"FEW","base":3000}],"obsTime":1776891600},"SBRF":{"icaoId":"SBRF","flightCategory":"VFR","rawOb":"METAR SBRF 222100Z 15012KT 9999 FEW025 28/23 Q1011","temp":28,"dewp":23,"wdir":150,"wspd":12,"visib":"6+","altim":1011,"clouds":[{"cover":"FEW","base":2500}],"obsTime":1776891600},"SBSG":{"icaoId":"SBSG","flightCategory":"VFR","rawOb":"METAR SBSG 222100Z 13005KT 090V160 9999 FEW025 27/24 Q1010","temp":27,"dewp":24,"wdir":130,"wspd":5,"visib":"6+","altim":1010,"clouds":[{"cover":"FEW","base":2500}],"obsTime":1776891600},"SBSL":{"icaoId":"SBSL","flightCategory":"MVFR","rawOb":"METAR SBSL 222100Z 07009KT 9999 BKN017 27/24 Q1009","temp":27,"dewp":24,"wdir":70,"wspd":9,"visib":"6+","altim":1009,"clouds":[{"cover":"BKN","base":1700}],"obsTime":1776891600},"SBSN":{"icaoId":"SBSN","flightCategory":"VFR","rawOb":"METAR SBSN 222100Z 07006KT 9999 FEW021 FEW040TCU 30/25 Q1007","temp":30,"dewp":25,"wdir":70,"wspd":6,"visib":"6+","altim":1007,"clouds":[{"cover":"FEW","base":2100},{"cover":"FEW","base":4000}],"obsTime":1776891600},"SBSP":{"icaoId":"SBSP","flightCategory":"MVFR","rawOb":"METAR SBSP 222100Z 16011KT 9999 BKN013 19/17 Q1020","temp":19,"dewp":17,"wdir":160,"wspd":11,"visib":"6+","altim":1020,"clouds":[{"cover":"BKN","base":1300}],"obsTime":1776891600},"SBSV":{"icaoId":"SBSV","flightCategory":"IFR","rawOb":"SPECI SBSV 222014Z 17011KT 3000 -SHRA BKN013 FEW025TCU BKN060 26/24 Q1013","temp":26,"dewp":24,"wdir":170,"wspd":11,"visib":1.86,"altim":1013,"clouds":[{"cover":"BKN","base":1300},{"cover":"FEW","base":2500},{"cover":"BKN","base":6000}],"obsTime":1776888840},"SBTE":{"icaoId":"SBTE","flightCategory":"VFR","rawOb":"METAR SBTE 222100Z 11004KT 9999 FEW020 FEW025TCU 31/23 Q1008","temp":31,"dewp":23,"wdir":110,"wspd":4,"visib":"6+","altim":1008,"clouds":[{"cover":"FEW","base":2000},{"cover":"FEW","base":2500}],"obsTime":1776891600},"SBIL":{"icaoId":"SBIL","flightCategory":"VFR","rawOb":"METAR SBIL 222100Z 19010KT CAVOK 28/22 Q1014","temp":28,"dewp":22,"wdir":190,"wspd":10,"visib":"6+","altim":1014,"clouds":[],"obsTime":1776891600},"SBJU":{"icaoId":"SBJU","flightCategory":"VFR","rawOb":"METAR SBJU 222100Z 27003KT 9999 FEW020 26/23 Q1012","temp":26,"dewp":23,"wdir":270,"wspd":3,"visib":"6+","altim":1012,"clouds":[{"cover":"FEW","base":2000}],"obsTime":1776891600},"SBAT":{"icaoId":"SBAT","flightCategory":"VFR","rawOb":"METAR SBAT 222100Z 36004KT 9999 SCT035 FEW040TCU 29/25 Q1009","temp":29,"dewp":25,"wdir":360,"wspd":4,"visib":"6+","altim":1009,"clouds":[{"cover":"SCT","base":3500},{"cover":"FEW","base":4000}],"obsTime":1776891600},"SBME":{"icaoId":"SBME","flightCategory":"MVFR","rawOb":"METAR SBME 222100Z 13002KT 9999 BKN025 25/21 Q1016","temp":25,"dewp":21,"wdir":130,"wspd":2,"visib":"6+","altim":1016,"clouds":[{"cover":"BKN","base":2500}],"obsTime":1776891600},"SBMG":{"icaoId":"SBMG","flightCategory":"VFR","rawOb":"METAR SBMG 222100Z 20004KT CAVOK 26/16 Q1015","temp":26,"dewp":16,"wdir":200,"wspd":4,"visib":"6+","altim":1015,"clouds":[],"obsTime":1776891600},"SBMK":{"icaoId":"SBMK","flightCategory":"VFR","rawOb":"METAR SBMK 222100Z 10006KT 9999 FEW046 26/17 Q1016","temp":26,"dewp":17,"wdir":100,"wspd":6,"visib":"6+","altim":1016,"clouds":[{"cover":"FEW","base":4600}],"obsTime":1776891600},"SBHT":{"icaoId":"SBHT","flightCategory":"MVFR","rawOb":"METAR SBHT 222100Z 00000KT 9999 BKN030 31/24 Q1008","temp":31,"dewp":24,"wdir":0,"wspd":0,"visib":"6+","altim":1008,"clouds":[{"cover":"BKN","base":3000}],"obsTime":1776891600},"SBUL":{"icaoId":"SBUL","flightCategory":"VFR","rawOb":"METAR SBUL 222100Z 03005KT 9999 SCT030 SCT090 26/18 Q1018","temp":26,"dewp":18,"wdir":30,"wspd":5,"visib":"6+","altim":1018,"clouds":[{"cover":"SCT","base":3000},{"cover":"SCT","base":9000}],"obsTime":1776891600},"SBCB":{"icaoId":"SBCB","flightCategory":"VFR","rawOb":"METAR SBCB 222100Z 11004KT CAVOK 24/19 Q1016","temp":24,"dewp":19,"wdir":110,"wspd":4,"visib":"6+","altim":1016,"clouds":[],"obsTime":1776891600},"SBCR":{"icaoId":"SBCR","flightCategory":"VFR","rawOb":"METAR SBCR 222100Z 12009KT 9999 SCT035 31/22 Q1011","temp":31,"dewp":22,"wdir":120,"wspd":9,"visib":"6+","altim":1011,"clouds":[{"cover":"SCT","base":3500}],"obsTime":1776891600},"SBUR":{"icaoId":"SBUR","flightCategory":"VFR","rawOb":"METAR SBUR 222100Z 13006KT CAVOK 28/18 Q1016","temp":28,"dewp":18,"wdir":130,"wspd":6,"visib":"6+","altim":1016,"clouds":[],"obsTime":1776891600},"SBOI":{"icaoId":"SBOI","flightCategory":"VFR","rawOb":"METAR SBOI 222100Z AUTO VRB02KT 9999 FEW005 25/24 Q1009","temp":25,"dewp":24,"wdir":"VRB","wspd":2,"visib":"6+","altim":1009,"clouds":[{"cover":"FEW","base":500}],"obsTime":1776891600},"SBTT":{"icaoId":"SBTT","flightCategory":"MVFR","rawOb":"METAR SBTT 222100Z 10006KT 9999 VCTS FEW025CB BKN030 29/23 Q1008","temp":29,"dewp":23,"wdir":100,"wspd":6,"visib":"6+","altim":1008,"clouds":[{"cover":"FEW","base":2500},{"cover":"BKN","base":3000}],"obsTime":1776891600},"SBPS":{"icaoId":"SBPS","flightCategory":"VFR","rawOb":"METAR SBPS 222100Z 15004KT 080V220 9999 SCT020 26/22 Q1015","temp":26,"dewp":22,"wdir":150,"wspd":4,"visib":"6+","altim":1015,"clouds":[{"cover":"SCT","base":2000}],"obsTime":1776891600},"SBAR":{"icaoId":"SBAR","flightCategory":"IFR","rawOb":"SPECI SBAR 222022Z 16008KT 3000 -RA BR SCT008 BKN015 OVC040 24/24 Q1013 RERA","temp":24,"dewp":24,"wdir":160,"wspd":8,"visib":1.86,"altim":1013,"clouds":[{"cover":"SCT","base":800},{"cover":"BKN","base":1500},{"cover":"OVC","base":4000}],"obsTime":1776889320},"SBSJ":{"icaoId":"SBSJ","flightCategory":"VFR","rawOb":"METAR SBSJ 222100Z 13010KT CAVOK 22/17 Q1018","temp":22,"dewp":17,"wdir":130,"wspd":10,"visib":"6+","altim":1018,"clouds":[],"obsTime":1776891600},"SBPL":{"icaoId":"SBPL","flightCategory":"VFR","rawOb":"METAR SBPL 222100Z 12010KT 9999 FEW030 BKN070 30/20 Q1012","temp":30,"dewp":20,"wdir":120,"wspd":10,"visib":"6+","altim":1012,"clouds":[{"cover":"FEW","base":3000},{"cover":"BKN","base":7000}],"obsTime":1776891600},"SBUY":{"icaoId":"SBUY","flightCategory":"VFR","rawOb":"METAR SBUY 222100Z 00000KT 9999 FEW030 BKN100 27/25 Q1008","temp":27,"dewp":25,"wdir":0,"wspd":0,"visib":"6+","altim":1008,"clouds":[{"cover":"FEW","base":3000},{"cover":"BKN","base":10000}],"obsTime":1776891600},"SBTF":{"icaoId":"SBTF","flightCategory":"VFR","rawOb":"METAR SBTF 222100Z 11004KT 9999 FEW018 BKN090 28/26 Q1009","temp":28,"dewp":26,"wdir":110,"wspd":4,"visib":"6+","altim":1009,"clouds":[{"cover":"FEW","base":1800},{"cover":"BKN","base":9000}],"obsTime":1776891600},"SBPB":{"icaoId":"SBPB","flightCategory":"VFR","rawOb":"METAR SBPB 222100Z 06008KT 9999 SCT016 FEW025TCU BKN080 28/24 Q1009","temp":28,"dewp":24,"wdir":60,"wspd":8,"visib":"6+","altim":1009,"clouds":[{"cover":"SCT","base":1600},{"cover":"FEW","base":2500},{"cover":"BKN","base":8000}],"obsTime":1776891600},"SBCJ":{"icaoId":"SBCJ","flightCategory":"VFR","rawOb":"METAR SBCJ 222100Z 00000KT 9999 FEW030 24/22 Q1013","temp":24,"dewp":22,"wdir":0,"wspd":0,"visib":"6+","altim":1013,"clouds":[{"cover":"FEW","base":3000}],"obsTime":1776891600},"SBIP":{"icaoId":"SBIP","flightCategory":"VFR","rawOb":"METAR SBIP 222100Z AUTO 21002KT CAVOK 22/19 Q1015","temp":22,"dewp":19,"wdir":210,"wspd":2,"visib":"6+","altim":1015,"clouds":[],"obsTime":1776891600},"SBKG":{"icaoId":"SBKG","flightCategory":"VFR","rawOb":"METAR SBKG 222100Z 11006KT 9999 FEW015 26/20 Q1013","temp":26,"dewp":20,"wdir":110,"wspd":6,"visib":"6+","altim":1013,"clouds":[{"cover":"FEW","base":1500}],"obsTime":1776891600},"SBPP":{"icaoId":"SBPP","flightCategory":"VFR","rawOb":"METAR SBPP 222100Z 06003KT CAVOK 26/20 Q1017","temp":26,"dewp":20,"wdir":60,"wspd":3,"visib":"6+","altim":1017,"clouds":[],"obsTime":1776891600},"SBSC":{"icaoId":"SBSC","flightCategory":"VFR","rawOb":"METAR SBSC 222100Z 18004KT 9999 SCT015 BKN050 24/20 Q1016","temp":24,"dewp":20,"wdir":180,"wspd":4,"visib":"6+","altim":1016,"clouds":[{"cover":"SCT","base":1500},{"cover":"BKN","base":5000}],"obsTime":1776891600},"SBSM":{"icaoId":"SBSM","flightCategory":"VFR","rawOb":"METAR SBSM 222100Z 15003KT 9999 FEW040 24/21 Q1015","temp":24,"dewp":21,"wdir":150,"wspd":3,"visib":"6+","altim":1015,"clouds":[{"cover":"FEW","base":4000}],"obsTime":1776891600},"SBVH":{"icaoId":"SBVH","flightCategory":"VFR","rawOb":"METAR SBVH 222100Z 12009KT 9999 SCT030 BKN090 27/21 Q1012","temp":27,"dewp":21,"wdir":120,"wspd":9,"visib":"6+","altim":1012,"clouds":[{"cover":"SCT","base":3000},{"cover":"BKN","base":9000}],"obsTime":1776891600},"SBAX":{"icaoId":"SBAX","flightCategory":"VFR","rawOb":"METAR SBAX 222100Z 07002KT 9999 SCT045 25/17 Q1018","temp":25,"dewp":17,"wdir":70,"wspd":2,"visib":"6+","altim":1018,"clouds":[{"cover":"SCT","base":4500}],"obsTime":1776891600},"SBBH":{"icaoId":"SBBH","flightCategory":"VFR","rawOb":"METAR SBBH 222100Z 07005KT 9999 FEW049 25/17 Q1018","temp":25,"dewp":17,"wdir":70,"wspd":5,"visib":"6+","altim":1018,"clouds":[{"cover":"FEW","base":4900}],"obsTime":1776891600},"SBBU":{"icaoId":"SBBU","flightCategory":"VFR","rawOb":"METAR SBBU 222100Z 15004KT CAVOK 28/16 Q1016","temp":28,"dewp":16,"wdir":150,"wspd":4,"visib":"6+","altim":1016,"clouds":[],"obsTime":1776891600},"SBCA":{"icaoId":"SBCA","flightCategory":"VFR","rawOb":"METAR SBCA 222100Z 19003KT 9999 SCT040 25/17 Q1019","temp":25,"dewp":17,"wdir":190,"wspd":3,"visib":"6+","altim":1019,"clouds":[{"cover":"SCT","base":4000}],"obsTime":1776891600},"SBCO":{"icaoId":"SBCO","flightCategory":"VFR","rawOb":"METAR SBCO 222100Z 18003KT 9999 FEW040 27/20 Q1015","temp":27,"dewp":20,"wdir":180,"wspd":3,"visib":"6+","altim":1015,"clouds":[{"cover":"FEW","base":4000}],"obsTime":1776891600},"SBDN":{"icaoId":"SBDN","flightCategory":"VFR","rawOb":"METAR SBDN 222100Z 17008KT CAVOK 27/15 Q1015","temp":27,"dewp":15,"wdir":170,"wspd":8,"visib":"6+","altim":1015,"clouds":[],"obsTime":1776891600},"SBES":{"icaoId":"SBES","flightCategory":"VFR","rawOb":"METAR SBES 222100Z 09004KT 050V130 CAVOK 23/// Q1016","temp":null,"dewp":null,"wdir":90,"wspd":4,"visib":"6+","altim":1016,"clouds":[],"obsTime":1776891600},"SBJP":{"icaoId":"SBJP","flightCategory":"VFR","rawOb":"METAR SBJP 222100Z 00000KT CAVOK 26/23 Q1011","temp":26,"dewp":23,"wdir":0,"wspd":0,"visib":"6+","altim":1011,"clouds":[],"obsTime":1776891600},"SBAN":{"icaoId":"SBAN","flightCategory":"VFR","rawOb":"METAR SBAN 222100Z 31002KT 9999 FEW040 24/19 Q1018","temp":24,"dewp":19,"wdir":310,"wspd":2,"visib":"6+","altim":1018,"clouds":[{"cover":"FEW","base":4000}],"obsTime":1776891600},"SBIH":{"icaoId":"SBIH","flightCategory":"VFR","rawOb":"METAR SBIH 222100Z 36004KT 9999 FEW020 32/24 Q1007","temp":32,"dewp":24,"wdir":360,"wspd":4,"visib":"6+","altim":1007,"clouds":[{"cover":"FEW","base":2000}],"obsTime":1776891600},"SBAF":{"icaoId":"SBAF","flightCategory":"VFR","rawOb":"METAR SBAF 222100Z 17005KT 9999 FEW030 24/20 Q1016","temp":24,"dewp":20,"wdir":170,"wspd":5,"visib":"6+","altim":1016,"clouds":[{"cover":"FEW","base":3000}],"obsTime":1776891600},"SBGW":{"icaoId":"SBGW","flightCategory":"VFR","rawOb":"METAR SBGW 222100Z 02003KT CAVOK 24/16 Q1017","temp":24,"dewp":16,"wdir":20,"wspd":3,"visib":"6+","altim":1017,"clouds":[],"obsTime":1776891600},"SBJR":{"icaoId":"SBJR","flightCategory":"VFR","rawOb":"METAR SBJR 222100Z 14004KT 9999 FEW040 25/18 Q1016","temp":25,"dewp":18,"wdir":140,"wspd":4,"visib":"6+","altim":1016,"clouds":[{"cover":"FEW","base":4000}],"obsTime":1776891600},"SBLS":{"icaoId":"SBLS","flightCategory":"VFR","rawOb":"METAR SBLS 222100Z 13007KT 9999 FEW045 24/17 Q1018","temp":24,"dewp":17,"wdir":130,"wspd":7,"visib":"6+","altim":1018,"clouds":[{"cover":"FEW","base":4500}],"obsTime":1776891600},"SBLE":{"icaoId":"SBLE","flightCategory":"VFR","rawOb":"METAR SBLE 222100Z AUTO 14003KT CAVOK 25/22 Q1015","temp":25,"dewp":22,"wdir":140,"wspd":3,"visib":"6+","altim":1015,"clouds":[],"obsTime":1776891600},"SBST":{"icaoId":"SBST","flightCategory":"VFR","rawOb":"METAR SBST 222100Z 15003KT 9000 OVC040 23/18 Q1016","temp":23,"dewp":18,"wdir":150,"wspd":3,"visib":5.59,"altim":1016,"clouds":[{"cover":"OVC","base":4000}],"obsTime":1776891600},"SBTA":{"icaoId":"SBTA","flightCategory":"VFR","rawOb":"METAR SBTA 222100Z 12004KT 9999 BKN040 24/17 Q1016","temp":24,"dewp":17,"wdir":120,"wspd":4,"visib":"6+","altim":1016,"clouds":[{"cover":"BKN","base":4000}],"obsTime":1776891600},"SBJV":{"icaoId":"SBJV","flightCategory":"VFR","rawOb":"METAR SBJV 222100Z 01003KT CAVOK 25/20 Q1015","temp":25,"dewp":20,"wdir":10,"wspd":3,"visib":"6+","altim":1015,"clouds":[],"obsTime":1776891600},"SBNM":{"icaoId":"SBNM","flightCategory":"VFR","rawOb":"METAR SBNM 222100Z 23002KT 9999 FEW030 27/21 Q1016","temp":27,"dewp":21,"wdir":230,"wspd":2,"visib":"6+","altim":1016,"clouds":[{"cover":"FEW","base":3000}],"obsTime":1776891600},"SBPF":{"icaoId":"SBPF","flightCategory":"VFR","rawOb":"METAR SBPF 222100Z 23004KT CAVOK 23/18 Q1019","temp":23,"dewp":18,"wdir":230,"wspd":4,"visib":"6+","altim":1019,"clouds":[],"obsTime":1776891600},"SBMT":{"icaoId":"SBMT","flightCategory":"VFR","rawOb":"METAR SBMT 222100Z 14008KT 110V170 9999 SCT019 20/17 Q1019","temp":20,"dewp":17,"wdir":140,"wspd":8,"visib":"6+","altim":1019,"clouds":[{"cover":"SCT","base":1900}],"obsTime":1776891600}}}