{"updated":1782082590,"count":84,"data":{"SBCT":{"icaoId":"SBCT","flightCategory":"VFR","rawOb":"METAR SBCT 212100Z 09005KT 9999 FEW013 13/11 Q1018","temp":13,"dewp":11,"wdir":90,"wspd":5,"visib":"6+","altim":1018,"clouds":[{"cover":"FEW","base":1300}],"obsTime":1782075600},"SBAT":{"icaoId":"SBAT","flightCategory":"VFR","rawOb":"METAR SBAT 212100Z 05001KT 9999 FEW035 31/22 Q1012","temp":31,"dewp":22,"wdir":50,"wspd":1,"visib":"6+","altim":1012,"clouds":[{"cover":"FEW","base":3500}],"obsTime":1782075600},"SBBE":{"icaoId":"SBBE","flightCategory":"VFR","rawOb":"METAR SBBE 212100Z 03007KT 9999 SCT040 FEW045TCU 28/23 Q1011","temp":28,"dewp":23,"wdir":30,"wspd":7,"visib":"6+","altim":1011,"clouds":[{"cover":"SCT","base":4000},{"cover":"FEW","base":4500}],"obsTime":1782075600},"SBVT":{"icaoId":"SBVT","flightCategory":"VFR","rawOb":"METAR SBVT 212100Z 20007KT CAVOK 22/16 Q1017","temp":22,"dewp":16,"wdir":200,"wspd":7,"visib":"6+","altim":1017,"clouds":[],"obsTime":1782075600},"SBBR":{"icaoId":"SBBR","flightCategory":"VFR","rawOb":"METAR SBBR 212100Z 14005KT 9999 FEW045 25/14 Q1020","temp":25,"dewp":14,"wdir":140,"wspd":5,"visib":"6+","altim":1020,"clouds":[{"cover":"FEW","base":4500}],"obsTime":1782075600},"SBBV":{"icaoId":"SBBV","flightCategory":"VFR","rawOb":"METAR SBBV 212100Z 09006KT 9999 FEW040 FEW045TCU SCT100 32/22 Q1009","temp":32,"dewp":22,"wdir":90,"wspd":6,"visib":"6+","altim":1009,"clouds":[{"cover":"FEW","base":4000},{"cover":"FEW","base":4500},{"cover":"SCT","base":10000}],"obsTime":1782075600},"SBCF":{"icaoId":"SBCF","flightCategory":"VFR","rawOb":"METAR SBCF 212100Z 26002KT CAVOK 23/12 Q1019","temp":23,"dewp":12,"wdir":260,"wspd":2,"visib":"6+","altim":1019,"clouds":[],"obsTime":1782075600},"SBCG":{"icaoId":"SBCG","flightCategory":"VFR","rawOb":"METAR SBCG 212100Z 01005KT CAVOK 24/18 Q1013","temp":24,"dewp":18,"wdir":10,"wspd":5,"visib":"6+","altim":1013,"clouds":[],"obsTime":1782075600},"SBCP":{"icaoId":"SBCP","flightCategory":"VFR","rawOb":"METAR SBCP 212100Z 20008KT CAVOK 22/18 Q1018","temp":22,"dewp":18,"wdir":200,"wspd":8,"visib":"6+","altim":1018,"clouds":[],"obsTime":1782075600},"SBCZ":{"icaoId":"SBCZ","flightCategory":"VFR","rawOb":"METAR SBCZ 212100Z 36003KT 9999 FEW030 31/22 Q1010","temp":31,"dewp":22,"wdir":360,"wspd":3,"visib":"6+","altim":1010,"clouds":[{"cover":"FEW","base":3000}],"obsTime":1782075600},"SBEG":{"icaoId":"SBEG","flightCategory":"VFR","rawOb":"METAR SBEG 212100Z 11007KT 9999 FEW035 FEW040TCU 30/24 Q1010","temp":30,"dewp":24,"wdir":110,"wspd":7,"visib":"6+","altim":1010,"clouds":[{"cover":"FEW","base":3500},{"cover":"FEW","base":4000}],"obsTime":1782075600},"SBFI":{"icaoId":"SBFI","flightCategory":"VFR","rawOb":"METAR SBFI 212100Z 09005KT CAVOK 18/14 Q1011","temp":18,"dewp":14,"wdir":90,"wspd":5,"visib":"6+","altim":1011,"clouds":[],"obsTime":1782075600},"SBFL":{"icaoId":"SBFL","flightCategory":"VFR","rawOb":"METAR SBFL 212100Z 02004KT 340V060 9999 FEW023 16/13 Q1016","temp":16,"dewp":13,"wdir":20,"wspd":4,"visib":"6+","altim":1016,"clouds":[{"cover":"FEW","base":2300}],"obsTime":1782075600},"SBFZ":{"icaoId":"SBFZ","flightCategory":"VFR","rawOb":"METAR SBFZ 212100Z 09008KT CAVOK 28/23 Q1012","temp":28,"dewp":23,"wdir":90,"wspd":8,"visib":"6+","altim":1012,"clouds":[],"obsTime":1782075600},"SBGL":{"icaoId":"SBGL","flightCategory":"MVFR","rawOb":"METAR SBGL 212100Z 02006KT 9999 BKN021 OVC035 21/19 Q1018","temp":21,"dewp":19,"wdir":20,"wspd":6,"visib":"6+","altim":1018,"clouds":[{"cover":"BKN","base":2100},{"cover":"OVC","base":3500}],"obsTime":1782075600},"SBGO":{"icaoId":"SBGO","flightCategory":"VFR","rawOb":"METAR SBGO 212100Z 07002KT 9999 FEW049 27/17 Q1017","temp":27,"dewp":17,"wdir":70,"wspd":2,"visib":"6+","altim":1017,"clouds":[{"cover":"FEW","base":4900}],"obsTime":1782075600},"SBGR":{"icaoId":"SBGR","flightCategory":"VFR","rawOb":"METAR SBGR 212100Z 13007KT CAVOK 17/14 Q1019","temp":17,"dewp":14,"wdir":130,"wspd":7,"visib":"6+","altim":1019,"clouds":[],"obsTime":1782075600},"SBIL":{"icaoId":"SBIL","flightCategory":"VFR","rawOb":"METAR SBIL 212100Z 14005KT 9999 SCT040 25/20 Q1015","temp":25,"dewp":20,"wdir":140,"wspd":5,"visib":"6+","altim":1015,"clouds":[{"cover":"SCT","base":4000}],"obsTime":1782075600},"SBJU":{"icaoId":"SBJU","flightCategory":"VFR","rawOb":"METAR SBJU 212100Z 00000KT 9999 FEW022 29/18 Q1014","temp":29,"dewp":18,"wdir":0,"wspd":0,"visib":"6+","altim":1014,"clouds":[{"cover":"FEW","base":2200}],"obsTime":1782075600},"SBKP":{"icaoId":"SBKP","flightCategory":"VFR","rawOb":"METAR SBKP 212100Z 26004G16KT 220V360 CAVOK 20/08 Q1019","temp":20,"dewp":8,"wdir":260,"wspd":4,"visib":"6+","altim":1019,"clouds":[],"obsTime":1782075600},"SBLO":{"icaoId":"SBLO","flightCategory":"VFR","rawOb":"METAR SBLO 212100Z 07004KT CAVOK 14/12 Q1017","temp":14,"dewp":12,"wdir":70,"wspd":4,"visib":"6+","altim":1017,"clouds":[],"obsTime":1782075600},"SBMA":{"icaoId":"SBMA","flightCategory":"VFR","rawOb":"METAR SBMA 212100Z 05002KT 9999 SCT030 32/21 Q1011","temp":32,"dewp":21,"wdir":50,"wspd":2,"visib":"6+","altim":1011,"clouds":[{"cover":"SCT","base":3000}],"obsTime":1782075600},"SBME":{"icaoId":"SBME","flightCategory":"VFR","rawOb":"METAR SBME 212100Z 25003KT 9999 SCT020 OVC070 22/18 Q1018","temp":22,"dewp":18,"wdir":250,"wspd":3,"visib":"6+","altim":1018,"clouds":[{"cover":"SCT","base":2000},{"cover":"OVC","base":7000}],"obsTime":1782075600},"SBMG":{"icaoId":"SBMG","flightCategory":"VFR","rawOb":"METAR SBMG 212100Z 07009KT CAVOK 16/12 Q1015","temp":16,"dewp":12,"wdir":70,"wspd":9,"visib":"6+","altim":1015,"clouds":[],"obsTime":1782075600},"SBMK":{"icaoId":"SBMK","flightCategory":"VFR","rawOb":"METAR SBMK 212100Z 15005KT CAVOK 25/13 Q1018","temp":25,"dewp":13,"wdir":150,"wspd":5,"visib":"6+","altim":1018,"clouds":[],"obsTime":1782075600},"SBMO":{"icaoId":"SBMO","flightCategory":"VFR","rawOb":"METAR SBMO 212100Z 14008KT 9999 SCT021 25/21 Q1016","temp":25,"dewp":21,"wdir":140,"wspd":8,"visib":"6+","altim":1016,"clouds":[{"cover":"SCT","base":2100}],"obsTime":1782075600},"SBMQ":{"icaoId":"SBMQ","flightCategory":"VFR","rawOb":"METAR SBMQ 212100Z 06010KT 9999 SCT025 FEW033TCU 30/26 Q1011","temp":30,"dewp":26,"wdir":60,"wspd":10,"visib":"6+","altim":1011,"clouds":[{"cover":"SCT","base":2500},{"cover":"FEW","base":3300}],"obsTime":1782075600},"SBNT":{"icaoId":"SBNT","flightCategory":"VFR","rawOb":"METAR SBNT 212100Z 15008KT 9999 SCT015 26/23 Q1014","temp":26,"dewp":23,"wdir":150,"wspd":8,"visib":"6+","altim":1014,"clouds":[{"cover":"SCT","base":1500}],"obsTime":1782075600},"SBPA":{"icaoId":"SBPA","flightCategory":"MVFR","rawOb":"METAR SBPA 212100Z 20006KT 9999 OVC030 15/11 Q1015","temp":15,"dewp":11,"wdir":200,"wspd":6,"visib":"6+","altim":1015,"clouds":[{"cover":"OVC","base":3000}],"obsTime":1782075600},"SBPJ":{"icaoId":"SBPJ","flightCategory":"VFR","rawOb":"METAR SBPJ 212100Z 25002KT 9999 FEW040 31/22 Q1012","temp":31,"dewp":22,"wdir":250,"wspd":2,"visib":"6+","altim":1012,"clouds":[{"cover":"FEW","base":4000}],"obsTime":1782075600},"SBPV":{"icaoId":"SBPV","flightCategory":"VFR","rawOb":"METAR SBPV 212100Z 34002KT 9999 SCT035 32/23 Q1010","temp":32,"dewp":23,"wdir":340,"wspd":2,"visib":"6+","altim":1010,"clouds":[{"cover":"SCT","base":3500}],"obsTime":1782075600},"SBRB":{"icaoId":"SBRB","flightCategory":"VFR","rawOb":"METAR SBRB 212100Z 31003KT 9999 SCT030 30/22 Q1011","temp":30,"dewp":22,"wdir":310,"wspd":3,"visib":"6+","altim":1011,"clouds":[{"cover":"SCT","base":3000}],"obsTime":1782075600},"SBRF":{"icaoId":"SBRF","flightCategory":"VFR","rawOb":"METAR SBRF 212100Z 14010KT 9999 SCT023 26/23 Q1015","temp":26,"dewp":23,"wdir":140,"wspd":10,"visib":"6+","altim":1015,"clouds":[{"cover":"SCT","base":2300}],"obsTime":1782075600},"SBSG":{"icaoId":"SBSG","flightCategory":"VFR","rawOb":"METAR SBSG 212100Z 13007KT 100V170 9999 FEW025 26/23 Q1015","temp":26,"dewp":23,"wdir":130,"wspd":7,"visib":"6+","altim":1015,"clouds":[{"cover":"FEW","base":2500}],"obsTime":1782075600},"SBSL":{"icaoId":"SBSL","flightCategory":"VFR","rawOb":"METAR SBSL 212100Z 05014KT 9999 SCT030 28/24 Q1012","temp":28,"dewp":24,"wdir":50,"wspd":14,"visib":"6+","altim":1012,"clouds":[{"cover":"SCT","base":3000}],"obsTime":1782075600},"SBSN":{"icaoId":"SBSN","flightCategory":"VFR","rawOb":"METAR SBSN 212100Z 09012KT CAVOK 31/23 Q1010","temp":31,"dewp":23,"wdir":90,"wspd":12,"visib":"6+","altim":1010,"clouds":[],"obsTime":1782075600},"SBSP":{"icaoId":"SBSP","flightCategory":"VFR","rawOb":"METAR SBSP 212100Z 13004KT CAVOK 16/13 Q1020","temp":16,"dewp":13,"wdir":130,"wspd":4,"visib":"6+","altim":1020,"clouds":[],"obsTime":1782075600},"SBSV":{"icaoId":"SBSV","flightCategory":"VFR","rawOb":"METAR SBSV 212100Z 14004KT 120V180 9999 FEW013 25/19 Q1016","temp":25,"dewp":19,"wdir":140,"wspd":4,"visib":"6+","altim":1016,"clouds":[{"cover":"FEW","base":1300}],"obsTime":1782075600},"SBTE":{"icaoId":"SBTE","flightCategory":"VFR","rawOb":"METAR SBTE 212100Z 35005KT 9999 FEW040 32/20 Q1011","temp":32,"dewp":20,"wdir":350,"wspd":5,"visib":"6+","altim":1011,"clouds":[{"cover":"FEW","base":4000}],"obsTime":1782075600},"SBUL":{"icaoId":"SBUL","flightCategory":"VFR","rawOb":"METAR SBUL 212100Z 24004KT CAVOK 23/13 Q1019","temp":23,"dewp":13,"wdir":240,"wspd":4,"visib":"6+","altim":1019,"clouds":[],"obsTime":1782075600},"SBUR":{"icaoId":"SBUR","flightCategory":"VFR","rawOb":"METAR SBUR 212100Z 22002KT CAVOK 25/13 Q1018","temp":25,"dewp":13,"wdir":220,"wspd":2,"visib":"6+","altim":1018,"clouds":[],"obsTime":1782075600},"SBCB":{"icaoId":"SBCB","flightCategory":"VFR","rawOb":"METAR SBCB 212100Z /////KT 9999 SCT015 SCT050 21/17 Q1018","temp":21,"dewp":17,"wdir":null,"wspd":null,"visib":"6+","altim":1018,"clouds":[{"cover":"SCT","base":1500},{"cover":"SCT","base":5000}],"obsTime":1782075600},"SBCR":{"icaoId":"SBCR","flightCategory":"VFR","rawOb":"METAR SBCR 212100Z 07011KT 9999 FEW030 27/20 Q1009","temp":27,"dewp":20,"wdir":70,"wspd":11,"visib":"6+","altim":1009,"clouds":[{"cover":"FEW","base":3000}],"obsTime":1782075600},"SBHT":{"icaoId":"SBHT","flightCategory":"VFR","rawOb":"METAR SBHT 212100Z 12002KT 9999 SCT030 30/24 Q1011","temp":30,"dewp":24,"wdir":120,"wspd":2,"visib":"6+","altim":1011,"clouds":[{"cover":"SCT","base":3000}],"obsTime":1782075600},"SBTF":{"icaoId":"SBTF","flightCategory":"VFR","rawOb":"METAR SBTF 212100Z 12002KT 9999 FEW018 33/24 Q1009","temp":33,"dewp":24,"wdir":120,"wspd":2,"visib":"6+","altim":1009,"clouds":[{"cover":"FEW","base":1800}],"obsTime":1782075600},"SBPP":{"icaoId":"SBPP","flightCategory":"VFR","rawOb":"METAR SBPP 212100Z 06011KT CAVOK 20/15 Q1012","temp":20,"dewp":15,"wdir":60,"wspd":11,"visib":"6+","altim":1012,"clouds":[],"obsTime":1782075600},"SBTU":{"icaoId":"SBTU","flightCategory":"VFR","rawOb":"METAR SBTU 212100Z AUTO 19003KT 9999 // NCD ///// Q1013","temp":null,"dewp":null,"wdir":190,"wspd":3,"visib":"6+","altim":1013,"clouds":[],"obsTime":1782075600},"SBBH":{"icaoId":"SBBH","flightCategory":"VFR","rawOb":"METAR SBBH 212100Z 00000KT CAVOK 20/14 Q1019","temp":20,"dewp":14,"wdir":0,"wspd":0,"visib":"6+","altim":1019,"clouds":[],"obsTime":1782075600},"SBCC":{"icaoId":"SBCC","flightCategory":"VFR","rawOb":"METAR SBCC 212100Z 19004KT 9999 VCSH SCT030 FEW035TCU 24/21 Q1014","temp":24,"dewp":21,"wdir":190,"wspd":4,"visib":"6+","altim":1014,"clouds":[{"cover":"SCT","base":3000},{"cover":"FEW","base":3500}],"obsTime":1782075600},"SBSC":{"icaoId":"SBSC","flightCategory":"MVFR","rawOb":"METAR SBSC 212100Z 25003KT 8000 SCT010 BKN015 OVC030 19/18 Q1018","temp":19,"dewp":18,"wdir":250,"wspd":3,"visib":4.97,"altim":1018,"clouds":[{"cover":"SCT","base":1000},{"cover":"BKN","base":1500},{"cover":"OVC","base":3000}],"obsTime":1782075600},"SBIP":{"icaoId":"SBIP","flightCategory":"VFR","rawOb":"METAR SBIP 212100Z AUTO 00000KT CAVOK 18/17 Q1017","temp":18,"dewp":17,"wdir":0,"wspd":0,"visib":"6+","altim":1017,"clouds":[],"obsTime":1782075600},"SBSJ":{"icaoId":"SBSJ","flightCategory":"VFR","rawOb":"METAR SBSJ 212100Z 18007KT CAVOK 19/10 Q1018","temp":19,"dewp":10,"wdir":180,"wspd":7,"visib":"6+","altim":1018,"clouds":[],"obsTime":1782075600},"SBSM":{"icaoId":"SBSM","flightCategory":"VFR","rawOb":"METAR SBSM 212100Z 16003KT 130V190 9999 FEW040 12/10 Q1014","temp":12,"dewp":10,"wdir":160,"wspd":3,"visib":"6+","altim":1014,"clouds":[{"cover":"FEW","base":4000}],"obsTime":1782075600},"SBAX":{"icaoId":"SBAX","flightCategory":"VFR","rawOb":"METAR SBAX 212100Z AUTO 23004KT CAVOK 22/11 Q1019","temp":22,"dewp":11,"wdir":230,"wspd":4,"visib":"6+","altim":1019,"clouds":[],"obsTime":1782075600},"SBSR":{"icaoId":"SBSR","flightCategory":"VFR","rawOb":"METAR SBSR 212100Z 21004KT CAVOK 24/15 Q1016","temp":24,"dewp":15,"wdir":210,"wspd":4,"visib":"6+","altim":1016,"clouds":[],"obsTime":1782075600},"SBKG":{"icaoId":"SBKG","flightCategory":"VFR","rawOb":"METAR SBKG 212100Z 11011KT 9999 SCT020 23/21 Q1017","temp":23,"dewp":21,"wdir":110,"wspd":11,"visib":"6+","altim":1017,"clouds":[{"cover":"SCT","base":2000}],"obsTime":1782075600},"SBDN":{"icaoId":"SBDN","flightCategory":"VFR","rawOb":"METAR SBDN 212100Z 09004KT CAVOK 19/12 Q1016","temp":19,"dewp":12,"wdir":90,"wspd":4,"visib":"6+","altim":1016,"clouds":[],"obsTime":1782075600},"SBPS":{"icaoId":"SBPS","flightCategory":"VFR","rawOb":"METAR SBPS 212100Z 07006KT 9999 FEW020 22/18 Q1016","temp":22,"dewp":18,"wdir":70,"wspd":6,"visib":"6+","altim":1016,"clouds":[{"cover":"FEW","base":2000}],"obsTime":1782075600},"SBVH":{"icaoId":"SBVH","flightCategory":"VFR","rawOb":"METAR SBVH 212100Z 33006KT 9999 FEW040 28/20 Q1014","temp":28,"dewp":20,"wdir":330,"wspd":6,"visib":"6+","altim":1014,"clouds":[{"cover":"FEW","base":4000}],"obsTime":1782075600},"SBAR":{"icaoId":"SBAR","flightCategory":"VFR","rawOb":"METAR SBAR 212100Z 12005KT 9999 FEW025 26/20 Q1015","temp":26,"dewp":20,"wdir":120,"wspd":5,"visib":"6+","altim":1015,"clouds":[{"cover":"FEW","base":2500}],"obsTime":1782075600},"SBPL":{"icaoId":"SBPL","flightCategory":"VFR","rawOb":"METAR SBPL 212100Z 30002KT CAVOK 28/13 Q1014","temp":28,"dewp":13,"wdir":300,"wspd":2,"visib":"6+","altim":1014,"clouds":[],"obsTime":1782075600},"SBBU":{"icaoId":"SBBU","flightCategory":"VFR","rawOb":"METAR SBBU 212100Z 11005KT CAVOK 19/11 Q1017","temp":19,"dewp":11,"wdir":110,"wspd":5,"visib":"6+","altim":1017,"clouds":[],"obsTime":1782075600},"SBTT":{"icaoId":"SBTT","flightCategory":"VFR","rawOb":"METAR SBTT 212100Z 27002KT 9999 FEW016 SCT030 27/23 Q1011","temp":27,"dewp":23,"wdir":270,"wspd":2,"visib":"6+","altim":1011,"clouds":[{"cover":"FEW","base":1600},{"cover":"SCT","base":3000}],"obsTime":1782075600},"SBOI":{"icaoId":"SBOI","flightCategory":"VFR","rawOb":"METAR SBOI 212100Z AUTO VRB02KT CAVOK 26/24 Q1012","temp":26,"dewp":24,"wdir":"VRB","wspd":2,"visib":"6+","altim":1012,"clouds":[],"obsTime":1782075600},"SBUY":{"icaoId":"SBUY","flightCategory":"VFR","rawOb":"METAR SBUY 212100Z 01002KT 9999 FEW030 31/24 Q1009","temp":31,"dewp":24,"wdir":10,"wspd":2,"visib":"6+","altim":1009,"clouds":[{"cover":"FEW","base":3000}],"obsTime":1782075600},"SBCO":{"icaoId":"SBCO","flightCategory":"VFR","rawOb":"METAR SBCO 212100Z 20004KT 9999 BKN033 15/11 Q1016","temp":15,"dewp":11,"wdir":200,"wspd":4,"visib":"6+","altim":1016,"clouds":[{"cover":"BKN","base":3300}],"obsTime":1782075600},"SBPB":{"icaoId":"SBPB","flightCategory":"MVFR","rawOb":"METAR SBPB 212100Z 04007KT 9999 BKN020 28/25 Q1012","temp":28,"dewp":25,"wdir":40,"wspd":7,"visib":"6+","altim":1012,"clouds":[{"cover":"BKN","base":2000}],"obsTime":1782075600},"SBCJ":{"icaoId":"SBCJ","flightCategory":"VFR","rawOb":"METAR SBCJ 212100Z 00000KT 9999 SCT017 26/22 Q1016","temp":26,"dewp":22,"wdir":0,"wspd":0,"visib":"6+","altim":1016,"clouds":[{"cover":"SCT","base":1700}],"obsTime":1782075600},"SBCA":{"icaoId":"SBCA","flightCategory":"VFR","rawOb":"METAR SBCA 212100Z 04013KT CAVOK 16/09 Q1014","temp":16,"dewp":9,"wdir":40,"wspd":13,"visib":"6+","altim":1014,"clouds":[],"obsTime":1782075600},"SBES":{"icaoId":"SBES","flightCategory":"VFR","rawOb":"METAR SBES 212100Z 22005KT 190V250 9999 FEW013 BKN040 20/// Q1018","temp":null,"dewp":null,"wdir":220,"wspd":5,"visib":"6+","altim":1018,"clouds":[{"cover":"FEW","base":1300},{"cover":"BKN","base":4000}],"obsTime":1782075600},"SBNM":{"icaoId":"SBNM","flightCategory":"VFR","rawOb":"METAR SBNM 212100Z AUTO 18003KT CAVOK 14/10 Q1013","temp":14,"dewp":10,"wdir":180,"wspd":3,"visib":"6+","altim":1013,"clouds":[],"obsTime":1782075600},"SBAN":{"icaoId":"SBAN","flightCategory":"VFR","rawOb":"METAR SBAN 212100Z 21005KT 9999 FEW045 22/16 Q1020","temp":22,"dewp":16,"wdir":210,"wspd":5,"visib":"6+","altim":1020,"clouds":[{"cover":"FEW","base":4500}],"obsTime":1782075600},"SBJV":{"icaoId":"SBJV","flightCategory":"VFR","rawOb":"METAR SBJV 212100Z 05002KT 9999 FEW015 BKN035 17/15 Q1016","temp":17,"dewp":15,"wdir":50,"wspd":2,"visib":"6+","altim":1016,"clouds":[{"cover":"FEW","base":1500},{"cover":"BKN","base":3500}],"obsTime":1782075600},"SBPF":{"icaoId":"SBPF","flightCategory":"VFR","rawOb":"METAR SBPF 212100Z 34002KT CAVOK 15/08 Q1015","temp":15,"dewp":8,"wdir":340,"wspd":2,"visib":"6+","altim":1015,"clouds":[],"obsTime":1782075600},"SBAF":{"icaoId":"SBAF","flightCategory":"MVFR","rawOb":"METAR SBAF 212100Z 25002KT 9999 OVC026 21/19 Q1018","temp":21,"dewp":19,"wdir":250,"wspd":2,"visib":"6+","altim":1018,"clouds":[{"cover":"OVC","base":2600}],"obsTime":1782075600},"SBGW":{"icaoId":"SBGW","flightCategory":"VFR","rawOb":"METAR SBGW 212100Z VRB01KT CAVOK 20/12 Q1018","temp":20,"dewp":12,"wdir":"VRB","wspd":1,"visib":"6+","altim":1018,"clouds":[],"obsTime":1782075600},"SBJR":{"icaoId":"SBJR","flightCategory":"MVFR","rawOb":"METAR SBJR 212100Z 30001KT 9999 BKN025 OVC040 21/19 Q1018","temp":21,"dewp":19,"wdir":300,"wspd":1,"visib":"6+","altim":1018,"clouds":[{"cover":"BKN","base":2500},{"cover":"OVC","base":4000}],"obsTime":1782075600},"SBJP":{"icaoId":"SBJP","flightCategory":"MVFR","rawOb":"METAR SBJP 212100Z 12010KT 5000 -RA BKN012 BKN018 24/23 Q1015","temp":24,"dewp":23,"wdir":120,"wspd":10,"visib":3.11,"altim":1015,"clouds":[{"cover":"BKN","base":1200},{"cover":"BKN","base":1800}],"obsTime":1782075600},"SBMT":{"icaoId":"SBMT","flightCategory":"VFR","rawOb":"METAR SBMT 212100Z 11004KT CAVOK 18/10 Q1019","temp":18,"dewp":10,"wdir":110,"wspd":4,"visib":"6+","altim":1019,"clouds":[],"obsTime":1782075600},"SBLS":{"icaoId":"SBLS","flightCategory":"VFR","rawOb":"METAR SBLS 212100Z 29003KT CAVOK 22/13 Q1019","temp":22,"dewp":13,"wdir":290,"wspd":3,"visib":"6+","altim":1019,"clouds":[],"obsTime":1782075600},"SBLE":{"icaoId":"SBLE","flightCategory":"VFR","rawOb":"METAR SBLE 212100Z AUTO VRB02KT CAVOK 23/16 Q1017","temp":23,"dewp":16,"wdir":"VRB","wspd":2,"visib":"6+","altim":1017,"clouds":[],"obsTime":1782075600},"SBTA":{"icaoId":"SBTA","flightCategory":"VFR","rawOb":"METAR SBTA 212100Z 02001KT CAVOK 19/15 Q1017","temp":19,"dewp":15,"wdir":20,"wspd":1,"visib":"6+","altim":1017,"clouds":[],"obsTime":1782075600},"SBIH":{"icaoId":"SBIH","flightCategory":"VFR","rawOb":"METAR SBIH 212100Z 04002KT 9999 FEW020 FEW025TCU SCT100 30/23 Q1010","temp":30,"dewp":23,"wdir":40,"wspd":2,"visib":"6+","altim":1010,"clouds":[{"cover":"FEW","base":2000},{"cover":"FEW","base":2500},{"cover":"SCT","base":10000}],"obsTime":1782075600},"SBST":{"icaoId":"SBST","flightCategory":"VFR","rawOb":"METAR SBST 212100Z 16004KT 9000 NSC 18/15 Q1017","temp":18,"dewp":15,"wdir":160,"wspd":4,"visib":5.59,"altim":1017,"clouds":[],"obsTime":1782075600}}}