{"updated":1774076842,"count":49,"data":{"SBCG":{"icaoId":"SBCG","flightCategory":"VFR","rawOb":"METAR SBCG 210600Z 01006KT CAVOK 23/21 Q1010","temp":23,"dewp":21,"wdir":10,"wspd":6,"visib":"6+","altim":1010,"clouds":[],"obsTime":1774072800},"SBMO":{"icaoId":"SBMO","flightCategory":"VFR","rawOb":"METAR SBMO 210600Z 35004KT 9999 FEW023 24/23 Q1010","temp":24,"dewp":23,"wdir":350,"wspd":4,"visib":"6+","altim":1010,"clouds":[{"cover":"FEW","base":2300}],"obsTime":1774072800},"SBMQ":{"icaoId":"SBMQ","flightCategory":"LIFR","rawOb":"METAR SBMQ 210600Z 28002KT 9999 BKN004 OVC015 24/24 Q1009","temp":24,"dewp":24,"wdir":280,"wspd":2,"visib":"6+","altim":1009,"clouds":[{"cover":"BKN","base":400},{"cover":"OVC","base":1500}],"obsTime":1774072800},"SBCT":{"icaoId":"SBCT","flightCategory":"MVFR","rawOb":"METAR SBCT 210600Z 05003KT 9999 BKN012 19/19 Q1015","temp":19,"dewp":19,"wdir":50,"wspd":3,"visib":"6+","altim":1015,"clouds":[{"cover":"BKN","base":1200}],"obsTime":1774072800},"SBGL":{"icaoId":"SBGL","flightCategory":"VFR","rawOb":"METAR SBGL 210600Z 26003KT 9999 SCT009 23/22 Q1010","temp":23,"dewp":22,"wdir":260,"wspd":3,"visib":"6+","altim":1010,"clouds":[{"cover":"SCT","base":900}],"obsTime":1774072800},"SBBV":{"icaoId":"SBBV","flightCategory":"VFR","rawOb":"METAR SBBV 210600Z 11009KT CAVOK 26/21 Q1008","temp":26,"dewp":21,"wdir":110,"wspd":9,"visib":"6+","altim":1008,"clouds":[],"obsTime":1774072800},"SBPA":{"icaoId":"SBPA","flightCategory":"VFR","rawOb":"METAR SBPA 210600Z 09008KT CAVOK 22/21 Q1007","temp":22,"dewp":21,"wdir":90,"wspd":8,"visib":"6+","altim":1007,"clouds":[],"obsTime":1774072800},"SBGO":{"icaoId":"SBGO","flightCategory":"VFR","rawOb":"METAR SBGO 210600Z 24001KT 9999 FEW020 FEW050TCU BKN100 21/20 Q1014","temp":21,"dewp":20,"wdir":240,"wspd":1,"visib":"6+","altim":1014,"clouds":[{"cover":"FEW","base":2000},{"cover":"FEW","base":5000},{"cover":"BKN","base":10000}],"obsTime":1774072800},"SBBR":{"icaoId":"SBBR","flightCategory":"VFR","rawOb":"METAR SBBR 210600Z 06002KT CAVOK 19/19 Q1016","temp":19,"dewp":19,"wdir":60,"wspd":2,"visib":"6+","altim":1016,"clouds":[],"obsTime":1774072800},"SBPV":{"icaoId":"SBPV","flightCategory":"VFR","rawOb":"METAR SBPV 210600Z 03004KT CAVOK 26/23 Q1006","temp":26,"dewp":23,"wdir":30,"wspd":4,"visib":"6+","altim":1006,"clouds":[],"obsTime":1774072800},"SBGR":{"icaoId":"SBGR","flightCategory":"MVFR","rawOb":"METAR SBGR 210600Z 09003KT 8000 BKN011 19/18 Q1014","temp":19,"dewp":18,"wdir":90,"wspd":3,"visib":4.97,"altim":1014,"clouds":[{"cover":"BKN","base":1100}],"obsTime":1774072800},"SBRB":{"icaoId":"SBRB","flightCategory":"MVFR","rawOb":"METAR SBRB 210600Z 05002KT 8000 -TSRA SCT004 FEW035CB BKN100 24/24 Q1007","temp":24,"dewp":24,"wdir":50,"wspd":2,"visib":4.97,"altim":1007,"clouds":[{"cover":"SCT","base":400},{"cover":"FEW","base":3500},{"cover":"BKN","base":10000}],"obsTime":1774072800},"SBEG":{"icaoId":"SBEG","flightCategory":"VFR","rawOb":"METAR SBEG 210600Z 07003KT CAVOK 25/24 Q1008","temp":25,"dewp":24,"wdir":70,"wspd":3,"visib":"6+","altim":1008,"clouds":[],"obsTime":1774072800},"SBRF":{"icaoId":"SBRF","flightCategory":"VFR","rawOb":"METAR SBRF 210600Z 10007KT 070V140 9999 SCT021 28/24 Q1009","temp":28,"dewp":24,"wdir":100,"wspd":7,"visib":"6+","altim":1009,"clouds":[{"cover":"SCT","base":2100}],"obsTime":1774072800},"SBFI":{"icaoId":"SBFI","flightCategory":"VFR","rawOb":"METAR SBFI 210600Z 11005KT CAVOK 25/24 Q1006","temp":25,"dewp":24,"wdir":110,"wspd":5,"visib":"6+","altim":1006,"clouds":[],"obsTime":1774072800},"SBSG":{"icaoId":"SBSG","flightCategory":"VFR","rawOb":"METAR SBSG 210600Z 21003KT 9999 -RA SCT025 24/24 Q1009","temp":24,"dewp":24,"wdir":210,"wspd":3,"visib":"6+","altim":1009,"clouds":[{"cover":"SCT","base":2500}],"obsTime":1774072800},"SBKP":{"icaoId":"SBKP","flightCategory":"VFR","rawOb":"METAR SBKP 210600Z 13008KT CAVOK 19/18 Q1012","temp":19,"dewp":18,"wdir":130,"wspd":8,"visib":"6+","altim":1012,"clouds":[],"obsTime":1774072800},"SBSL":{"icaoId":"SBSL","flightCategory":"VFR","rawOb":"METAR SBSL 210600Z 29005KT 9999 FEW020 BKN080 25/24 Q1009","temp":25,"dewp":24,"wdir":290,"wspd":5,"visib":"6+","altim":1009,"clouds":[{"cover":"FEW","base":2000},{"cover":"BKN","base":8000}],"obsTime":1774072800},"SBSN":{"icaoId":"SBSN","flightCategory":"MVFR","rawOb":"METAR SBSN 210600Z 11004KT 9999 FEW013 BKN025 BKN100 25/23 Q1009","temp":25,"dewp":23,"wdir":110,"wspd":4,"visib":"6+","altim":1009,"clouds":[{"cover":"FEW","base":1300},{"cover":"BKN","base":2500},{"cover":"BKN","base":10000}],"obsTime":1774072800},"SBCF":{"icaoId":"SBCF","flightCategory":"IFR","rawOb":"METAR SBCF 210600Z 35003KT 4000 BR BKN006 BKN010 21/20 Q1014","temp":21,"dewp":20,"wdir":350,"wspd":3,"visib":2.49,"altim":1014,"clouds":[{"cover":"BKN","base":600},{"cover":"BKN","base":1000}],"obsTime":1774072800},"SBLO":{"icaoId":"SBLO","flightCategory":"VFR","rawOb":"METAR SBLO 210600Z 08007KT 9999 SCT035 SCT100 23/20 Q1012","temp":23,"dewp":20,"wdir":80,"wspd":7,"visib":"6+","altim":1012,"clouds":[{"cover":"SCT","base":3500},{"cover":"SCT","base":10000}],"obsTime":1774072800},"SBSV":{"icaoId":"SBSV","flightCategory":"VFR","rawOb":"METAR SBSV 210600Z 35004KT 9999 SCT017 26/23 Q1009","temp":26,"dewp":23,"wdir":350,"wspd":4,"visib":"6+","altim":1009,"clouds":[{"cover":"SCT","base":1700}],"obsTime":1774072800},"SBBE":{"icaoId":"SBBE","flightCategory":"VFR","rawOb":"METAR SBBE 210600Z 08007KT 9999 FEW009 SCT013 OVC100 23/23 Q1010","temp":23,"dewp":23,"wdir":80,"wspd":7,"visib":"6+","altim":1010,"clouds":[{"cover":"FEW","base":900},{"cover":"SCT","base":1300},{"cover":"OVC","base":10000}],"obsTime":1774072800},"SBMA":{"icaoId":"SBMA","flightCategory":"VFR","rawOb":"METAR SBMA 210600Z 21007KT 9999 FEW010 FEW020TCU BKN080 25/22 Q1010","temp":25,"dewp":22,"wdir":210,"wspd":7,"visib":"6+","altim":1010,"clouds":[{"cover":"FEW","base":1000},{"cover":"FEW","base":2000},{"cover":"BKN","base":8000}],"obsTime":1774072800},"SBTE":{"icaoId":"SBTE","flightCategory":"VFR","rawOb":"METAR SBTE 210600Z 32004KT 9999 SCT020 SCT100 26/24 Q1009","temp":26,"dewp":24,"wdir":320,"wspd":4,"visib":"6+","altim":1009,"clouds":[{"cover":"SCT","base":2000},{"cover":"SCT","base":10000}],"obsTime":1774072800},"SBFL":{"icaoId":"SBFL","flightCategory":"MVFR","rawOb":"METAR SBFL 210600Z 23002KT 9999 BKN010 BKN025 BKN050 23/23 Q1010","temp":23,"dewp":23,"wdir":230,"wspd":2,"visib":"6+","altim":1010,"clouds":[{"cover":"BKN","base":1000},{"cover":"BKN","base":2500},{"cover":"BKN","base":5000}],"obsTime":1774072800},"SBFZ":{"icaoId":"SBFZ","flightCategory":"MVFR","rawOb":"METAR SBFZ 210600Z 08004KT 8000 -RA BKN020 BKN100 26/24 Q1008","temp":26,"dewp":24,"wdir":80,"wspd":4,"visib":4.97,"altim":1008,"clouds":[{"cover":"BKN","base":2000},{"cover":"BKN","base":10000}],"obsTime":1774072800},"SBMG":{"icaoId":"SBMG","flightCategory":"IFR","rawOb":"METAR SBMG 210600Z AUTO 05012G25KT 3000 -RA FEW025 SCT029 BKN043 24/22 Q1010","temp":24,"dewp":22,"wdir":50,"wspd":12,"visib":1.86,"altim":1010,"clouds":[{"cover":"FEW","base":2500},{"cover":"SCT","base":2900},{"cover":"BKN","base":4300}],"obsTime":1774072800},"SBSP":{"icaoId":"SBSP","flightCategory":"VFR","rawOb":"METAR SBSP 210600Z AUTO 18001KT CAVOK 19/18 Q1014","temp":19,"dewp":18,"wdir":180,"wspd":1,"visib":"6+","altim":1014,"clouds":[],"obsTime":1774072800},"SBUL":{"icaoId":"SBUL","flightCategory":"LIFR","rawOb":"METAR SBUL 210600Z 03004KT 9999 3000NW BCFG OVC002 20/20 Q1015","temp":20,"dewp":20,"wdir":30,"wspd":4,"visib":"6+","altim":1015,"clouds":[{"cover":"OVC","base":200}],"obsTime":1774072800},"SBUR":{"icaoId":"SBUR","flightCategory":"VFR","rawOb":"METAR SBUR 210600Z 34004KT CAVOK 22/20 Q1013","temp":22,"dewp":20,"wdir":340,"wspd":4,"visib":"6+","altim":1013,"clouds":[],"obsTime":1774072800},"SBVT":{"icaoId":"SBVT","flightCategory":"VFR","rawOb":"METAR SBVT 210600Z 30004KT 9999 SCT025 BKN100 23/23 Q1008","temp":23,"dewp":23,"wdir":300,"wspd":4,"visib":"6+","altim":1008,"clouds":[{"cover":"SCT","base":2500},{"cover":"BKN","base":10000}],"obsTime":1774072800},"SBJU":{"icaoId":"SBJU","flightCategory":"VFR","rawOb":"METAR SBJU 210600Z 00000KT 9999 SCT020 23/22 Q1011","temp":23,"dewp":22,"wdir":0,"wspd":0,"visib":"6+","altim":1011,"clouds":[{"cover":"SCT","base":2000}],"obsTime":1774072800},"SBME":{"icaoId":"SBME","flightCategory":"MVFR","rawOb":"METAR SBME 210600Z 28004KT 9999 BKN020 OVC070 24/23 Q1009","temp":24,"dewp":23,"wdir":280,"wspd":4,"visib":"6+","altim":1009,"clouds":[{"cover":"BKN","base":2000},{"cover":"OVC","base":7000}],"obsTime":1774072800},"SBNT":{"icaoId":"SBNT","flightCategory":"VFR","rawOb":"METAR SBNT 210600Z 20004KT 9999 FEW020 26/24 Q1009","temp":26,"dewp":24,"wdir":200,"wspd":4,"visib":"6+","altim":1009,"clouds":[{"cover":"FEW","base":2000}],"obsTime":1774072800},"SBPJ":{"icaoId":"SBPJ","flightCategory":"MVFR","rawOb":"METAR SBPJ 210600Z 07003KT 7000 -RA FEW010 SCT025 OVC090 23/23 Q1012 RETSRA","temp":23,"dewp":23,"wdir":70,"wspd":3,"visib":4.35,"altim":1012,"clouds":[{"cover":"FEW","base":1000},{"cover":"SCT","base":2500},{"cover":"OVC","base":9000}],"obsTime":1774072800},"SBPS":{"icaoId":"SBPS","flightCategory":"VFR","rawOb":"METAR SBPS 210600Z 35005KT 9999 FEW020 25/24 Q1009","temp":25,"dewp":24,"wdir":350,"wspd":5,"visib":"6+","altim":1009,"clouds":[{"cover":"FEW","base":2000}],"obsTime":1774072800},"SBPL":{"icaoId":"SBPL","flightCategory":"VFR","rawOb":"METAR SBPL 210600Z 11005KT CAVOK 26/20 Q1011","temp":26,"dewp":20,"wdir":110,"wspd":5,"visib":"6+","altim":1011,"clouds":[],"obsTime":1774072800},"SBOI":{"icaoId":"SBOI","flightCategory":"LIFR","rawOb":"SPECI SBOI 210508Z AUTO VRB02KT 9999 // BKN004/// OVC010/// 24/23 Q1010","temp":24,"dewp":23,"wdir":"VRB","wspd":2,"visib":"6+","altim":1010,"clouds":[{"cover":"BKN","base":400},{"cover":"OVC","base":1000}],"obsTime":1774069680},"SBAR":{"icaoId":"SBAR","flightCategory":"VFR","rawOb":"METAR SBAR 210600Z 07007KT 9999 FEW020 27/23 Q1009","temp":27,"dewp":23,"wdir":70,"wspd":7,"visib":"6+","altim":1009,"clouds":[{"cover":"FEW","base":2000}],"obsTime":1774072800},"SBAX":{"icaoId":"SBAX","flightCategory":"IFR","rawOb":"METAR SBAX 210600Z AUTO 33003KT 9999 SCT003 BKN007 OVC010 ///// Q1014","temp":null,"dewp":null,"wdir":330,"wspd":3,"visib":"6+","altim":1014,"clouds":[{"cover":"SCT","base":300},{"cover":"BKN","base":700},{"cover":"OVC","base":1000}],"obsTime":1774072800},"SBDN":{"icaoId":"SBDN","flightCategory":"VFR","rawOb":"METAR SBDN 210600Z 07003KT CAVOK 24/22 Q1010","temp":24,"dewp":22,"wdir":70,"wspd":3,"visib":"6+","altim":1010,"clouds":[],"obsTime":1774072800},"SBIP":{"icaoId":"SBIP","flightCategory":"MVFR","rawOb":"METAR SBIP 210600Z AUTO 17002KT 9999 -RA OVC015 23/23 Q1010","temp":23,"dewp":23,"wdir":170,"wspd":2,"visib":"6+","altim":1010,"clouds":[{"cover":"OVC","base":1500}],"obsTime":1774072800},"SBKG":{"icaoId":"SBKG","flightCategory":"IFR","rawOb":"METAR SBKG 210600Z 10008KT 8000 SCT006 BKN009 23/22 Q1012","temp":23,"dewp":22,"wdir":100,"wspd":8,"visib":4.97,"altim":1012,"clouds":[{"cover":"SCT","base":600},{"cover":"BKN","base":900}],"obsTime":1774072800},"SBSC":{"icaoId":"SBSC","flightCategory":"IFR","rawOb":"METAR SBSC 210600Z 02002KT 3000 BR FEW009 22/21 Q1010","temp":22,"dewp":21,"wdir":20,"wspd":2,"visib":1.86,"altim":1010,"clouds":[{"cover":"FEW","base":900}],"obsTime":1774072800},"SBSR":{"icaoId":"SBSR","flightCategory":"VFR","rawOb":"METAR SBSR 210600Z 00000KT CAVOK 23/21 Q1011","temp":23,"dewp":21,"wdir":0,"wspd":0,"visib":"6+","altim":1011,"clouds":[],"obsTime":1774072800},"SBJP":{"icaoId":"SBJP","flightCategory":"VFR","rawOb":"METAR SBJP 210600Z 22004KT 9999 FEW020 25/24 Q1009","temp":25,"dewp":24,"wdir":220,"wspd":4,"visib":"6+","altim":1009,"clouds":[{"cover":"FEW","base":2000}],"obsTime":1774072800},"SBAN":{"icaoId":"SBAN","flightCategory":"VFR","rawOb":"METAR SBAN 210600Z 08001KT 9999 FEW004 18/17 Q1016","temp":18,"dewp":17,"wdir":80,"wspd":1,"visib":"6+","altim":1016,"clouds":[{"cover":"FEW","base":400}],"obsTime":1774072800},"SBLE":{"icaoId":"SBLE","flightCategory":"VFR","rawOb":"METAR SBLE 210600Z AUTO 29004KT CAVOK ///// Q////","temp":null,"dewp":null,"wdir":290,"wspd":4,"visib":"6+","altim":null,"clouds":[],"obsTime":1774072800}}}