{"updated":1783732670,"count":68,"data":{"SBFI":{"icaoId":"SBFI","flightCategory":"VFR","rawOb":"METAR SBFI 110000Z 11003KT 9999 FEW030 SCT070 19/18 Q1011","temp":19,"dewp":18,"wdir":110,"wspd":3,"visib":"6+","altim":1011,"clouds":[{"cover":"FEW","base":3000},{"cover":"SCT","base":7000}],"obsTime":1783728000},"SBVT":{"icaoId":"SBVT","flightCategory":"VFR","rawOb":"METAR SBVT 110000Z 02011KT CAVOK 22/20 Q1015","temp":22,"dewp":20,"wdir":20,"wspd":11,"visib":"6+","altim":1015,"clouds":[],"obsTime":1783728000},"SBMO":{"icaoId":"SBMO","flightCategory":"VFR","rawOb":"METAR SBMO 110000Z 30001KT 9999 FEW020 23/21 Q1018","temp":23,"dewp":21,"wdir":300,"wspd":1,"visib":"6+","altim":1018,"clouds":[{"cover":"FEW","base":2000}],"obsTime":1783728000},"SBNT":{"icaoId":"SBNT","flightCategory":"VFR","rawOb":"METAR SBNT 110000Z 16007KT 9999 FEW025 25/23 Q1015","temp":25,"dewp":23,"wdir":160,"wspd":7,"visib":"6+","altim":1015,"clouds":[{"cover":"FEW","base":2500}],"obsTime":1783728000},"SBCG":{"icaoId":"SBCG","flightCategory":"VFR","rawOb":"METAR SBCG 110000Z 05005KT CAVOK 21/17 Q1014","temp":21,"dewp":17,"wdir":50,"wspd":5,"visib":"6+","altim":1014,"clouds":[],"obsTime":1783728000},"SBFL":{"icaoId":"SBFL","flightCategory":"VFR","rawOb":"METAR SBFL 110000Z VRB01KT 9999 BKN036 OVC090 16/15 Q1016","temp":16,"dewp":15,"wdir":"VRB","wspd":1,"visib":"6+","altim":1016,"clouds":[{"cover":"BKN","base":3600},{"cover":"OVC","base":9000}],"obsTime":1783728000},"SBPA":{"icaoId":"SBPA","flightCategory":"VFR","rawOb":"METAR SBPA 110000Z 08007KT 9999 SCT045 15/11 Q1014","temp":15,"dewp":11,"wdir":80,"wspd":7,"visib":"6+","altim":1014,"clouds":[{"cover":"SCT","base":4500}],"obsTime":1783728000},"SBCT":{"icaoId":"SBCT","flightCategory":"IFR","rawOb":"METAR SBCT 110000Z 03004KT 360V060 4500 BR SCT004 OVC070 15/15 Q1018","temp":15,"dewp":15,"wdir":30,"wspd":4,"visib":2.8,"altim":1018,"clouds":[{"cover":"SCT","base":400},{"cover":"OVC","base":7000}],"obsTime":1783728000},"SBGO":{"icaoId":"SBGO","flightCategory":"VFR","rawOb":"METAR SBGO 110000Z 29002KT CAVOK 21/17 Q1017","temp":21,"dewp":17,"wdir":290,"wspd":2,"visib":"6+","altim":1017,"clouds":[],"obsTime":1783728000},"SBCF":{"icaoId":"SBCF","flightCategory":"VFR","rawOb":"METAR SBCF 110000Z 02003KT CAVOK 21/10 Q1019","temp":21,"dewp":10,"wdir":20,"wspd":3,"visib":"6+","altim":1019,"clouds":[],"obsTime":1783728000},"SBTE":{"icaoId":"SBTE","flightCategory":"VFR","rawOb":"METAR SBTE 110000Z 32003KT 9999 FEW030 29/22 Q1012","temp":29,"dewp":22,"wdir":320,"wspd":3,"visib":"6+","altim":1012,"clouds":[{"cover":"FEW","base":3000}],"obsTime":1783728000},"SBKP":{"icaoId":"SBKP","flightCategory":"VFR","rawOb":"METAR SBKP 110000Z 12005KT CAVOK 18/12 Q1017","temp":18,"dewp":12,"wdir":120,"wspd":5,"visib":"6+","altim":1017,"clouds":[],"obsTime":1783728000},"SBSN":{"icaoId":"SBSN","flightCategory":"VFR","rawOb":"METAR SBSN 110000Z 15004KT 9999 VCTS FEW025CB 27/24 Q1011","temp":27,"dewp":24,"wdir":150,"wspd":4,"visib":"6+","altim":1011,"clouds":[{"cover":"FEW","base":2500}],"obsTime":1783728000},"SBMQ":{"icaoId":"SBMQ","flightCategory":"VFR","rawOb":"METAR SBMQ 110000Z 02008KT 9999 SCT030 27/23 Q1013","temp":27,"dewp":23,"wdir":20,"wspd":8,"visib":"6+","altim":1013,"clouds":[{"cover":"SCT","base":3000}],"obsTime":1783728000},"SBPJ":{"icaoId":"SBPJ","flightCategory":"VFR","rawOb":"METAR SBPJ 110000Z 12005KT CAVOK 26/20 Q1013","temp":26,"dewp":20,"wdir":120,"wspd":5,"visib":"6+","altim":1013,"clouds":[],"obsTime":1783728000},"SBGR":{"icaoId":"SBGR","flightCategory":"VFR","rawOb":"METAR SBGR 110000Z 20003KT CAVOK 18/11 Q1019","temp":18,"dewp":11,"wdir":200,"wspd":3,"visib":"6+","altim":1019,"clouds":[],"obsTime":1783728000},"SBSL":{"icaoId":"SBSL","flightCategory":"VFR","rawOb":"METAR SBSL 110000Z 06013KT CAVOK 27/24 Q1013","temp":27,"dewp":24,"wdir":60,"wspd":13,"visib":"6+","altim":1013,"clouds":[],"obsTime":1783728000},"SBLO":{"icaoId":"SBLO","flightCategory":"VFR","rawOb":"METAR SBLO 110000Z 08002KT CAVOK 21/13 Q1015","temp":21,"dewp":13,"wdir":80,"wspd":2,"visib":"6+","altim":1015,"clouds":[],"obsTime":1783728000},"SBGL":{"icaoId":"SBGL","flightCategory":"VFR","rawOb":"METAR SBGL 110000Z 29004KT CAVOK 20/19 Q1015","temp":20,"dewp":19,"wdir":290,"wspd":4,"visib":"6+","altim":1015,"clouds":[],"obsTime":1783728000},"SBSV":{"icaoId":"SBSV","flightCategory":"VFR","rawOb":"METAR SBSV 110000Z 09005KT 9999 SCT020 25/21 Q1017","temp":25,"dewp":21,"wdir":90,"wspd":5,"visib":"6+","altim":1017,"clouds":[{"cover":"SCT","base":2000}],"obsTime":1783728000},"SBBE":{"icaoId":"SBBE","flightCategory":"VFR","rawOb":"METAR SBBE 110000Z 06006KT CAVOK 27/23 Q1013","temp":27,"dewp":23,"wdir":60,"wspd":6,"visib":"6+","altim":1013,"clouds":[],"obsTime":1783728000},"SBSP":{"icaoId":"SBSP","flightCategory":"VFR","rawOb":"METAR SBSP 110000Z 19008KT CAVOK 17/09 Q1020","temp":17,"dewp":9,"wdir":190,"wspd":8,"visib":"6+","altim":1020,"clouds":[],"obsTime":1783728000},"SBEG":{"icaoId":"SBEG","flightCategory":"VFR","rawOb":"METAR SBEG 110000Z 05002KT CAVOK 26/24 Q1011","temp":26,"dewp":24,"wdir":50,"wspd":2,"visib":"6+","altim":1011,"clouds":[],"obsTime":1783728000},"SBRF":{"icaoId":"SBRF","flightCategory":"VFR","rawOb":"METAR SBRF 110000Z 15012KT 9999 SCT021 26/22 Q1016","temp":26,"dewp":22,"wdir":150,"wspd":12,"visib":"6+","altim":1016,"clouds":[{"cover":"SCT","base":2100}],"obsTime":1783728000},"SBPV":{"icaoId":"SBPV","flightCategory":"VFR","rawOb":"METAR SBPV 110000Z VRB02KT CAVOK 26/24 Q1010","temp":26,"dewp":24,"wdir":"VRB","wspd":2,"visib":"6+","altim":1010,"clouds":[],"obsTime":1783728000},"SBAT":{"icaoId":"SBAT","flightCategory":"VFR","rawOb":"METAR SBAT 110000Z 35003KT 9999 FEW020 SCT040 26/22 Q1013","temp":26,"dewp":22,"wdir":350,"wspd":3,"visib":"6+","altim":1013,"clouds":[{"cover":"FEW","base":2000},{"cover":"SCT","base":4000}],"obsTime":1783728000},"SBMG":{"icaoId":"SBMG","flightCategory":"VFR","rawOb":"METAR SBMG 110000Z 03009KT CAVOK 21/15 Q1014","temp":21,"dewp":15,"wdir":30,"wspd":9,"visib":"6+","altim":1014,"clouds":[],"obsTime":1783728000},"SBBR":{"icaoId":"SBBR","flightCategory":"VFR","rawOb":"METAR SBBR 110000Z VRB02KT CAVOK 20/13 Q1020","temp":20,"dewp":13,"wdir":"VRB","wspd":2,"visib":"6+","altim":1020,"clouds":[],"obsTime":1783728000},"SBIL":{"icaoId":"SBIL","flightCategory":"VFR","rawOb":"METAR SBIL 110000Z 28002KT 9999 SCT020 24/21 Q1017","temp":24,"dewp":21,"wdir":280,"wspd":2,"visib":"6+","altim":1017,"clouds":[{"cover":"SCT","base":2000}],"obsTime":1783728000},"SBFZ":{"icaoId":"SBFZ","flightCategory":"MVFR","rawOb":"METAR SBFZ 110000Z 09009KT 9999 BKN016 27/24 Q1014","temp":27,"dewp":24,"wdir":90,"wspd":9,"visib":"6+","altim":1014,"clouds":[{"cover":"BKN","base":1600}],"obsTime":1783728000},"SBJU":{"icaoId":"SBJU","flightCategory":"VFR","rawOb":"METAR SBJU 110000Z 00000KT 9999 SCT022 25/18 Q1017","temp":25,"dewp":18,"wdir":0,"wspd":0,"visib":"6+","altim":1017,"clouds":[{"cover":"SCT","base":2200}],"obsTime":1783728000},"SBSG":{"icaoId":"SBSG","flightCategory":"VFR","rawOb":"METAR SBSG 110000Z 16004KT 9999 SCT015 SCT070 25/23 Q1016","temp":25,"dewp":23,"wdir":160,"wspd":4,"visib":"6+","altim":1016,"clouds":[{"cover":"SCT","base":1500},{"cover":"SCT","base":7000}],"obsTime":1783728000},"SBME":{"icaoId":"SBME","flightCategory":"VFR","rawOb":"METAR SBME 110000Z 02002KT CAVOK 19/18 Q1014","temp":19,"dewp":18,"wdir":20,"wspd":2,"visib":"6+","altim":1014,"clouds":[],"obsTime":1783728000},"SBMA":{"icaoId":"SBMA","flightCategory":"VFR","rawOb":"METAR SBMA 110000Z 00000KT CAVOK 27/23 Q1013","temp":27,"dewp":23,"wdir":0,"wspd":0,"visib":"6+","altim":1013,"clouds":[],"obsTime":1783728000},"SBMK":{"icaoId":"SBMK","flightCategory":"VFR","rawOb":"METAR SBMK 110000Z 00000KT CAVOK 19/14 Q1018","temp":19,"dewp":14,"wdir":0,"wspd":0,"visib":"6+","altim":1018,"clouds":[],"obsTime":1783728000},"SBRB":{"icaoId":"SBRB","flightCategory":"MVFR","rawOb":"METAR SBRB 110000Z 05003KT 8000 FEW020 BKN100 26/23 Q1012","temp":26,"dewp":23,"wdir":50,"wspd":3,"visib":4.97,"altim":1012,"clouds":[{"cover":"FEW","base":2000},{"cover":"BKN","base":10000}],"obsTime":1783728000},"SBUL":{"icaoId":"SBUL","flightCategory":"VFR","rawOb":"METAR SBUL 110000Z 06003KT CAVOK 22/09 Q1019","temp":22,"dewp":9,"wdir":60,"wspd":3,"visib":"6+","altim":1019,"clouds":[],"obsTime":1783728000},"SBUR":{"icaoId":"SBUR","flightCategory":"VFR","rawOb":"METAR SBUR 110000Z 04004KT CAVOK 23/08 Q1018","temp":23,"dewp":8,"wdir":40,"wspd":4,"visib":"6+","altim":1018,"clouds":[],"obsTime":1783728000},"SBBV":{"icaoId":"SBBV","flightCategory":"VFR","rawOb":"METAR SBBV 110000Z 16002KT 9999 FEW035 FEW040TCU SCT080 28/23 Q1011","temp":28,"dewp":23,"wdir":160,"wspd":2,"visib":"6+","altim":1011,"clouds":[{"cover":"FEW","base":3500},{"cover":"FEW","base":4000},{"cover":"SCT","base":8000}],"obsTime":1783728000},"SBCZ":{"icaoId":"SBCZ","flightCategory":"VFR","rawOb":"METAR SBCZ 110000Z 36004KT 9000 -RA FEW004 OVC090 23/23 Q1012","temp":23,"dewp":23,"wdir":360,"wspd":4,"visib":5.59,"altim":1012,"clouds":[{"cover":"FEW","base":400},{"cover":"OVC","base":9000}],"obsTime":1783728000},"SBIP":{"icaoId":"SBIP","flightCategory":"VFR","rawOb":"METAR SBIP 110000Z AUTO 00000KT CAVOK 16/16 Q1017","temp":16,"dewp":16,"wdir":0,"wspd":0,"visib":"6+","altim":1017,"clouds":[],"obsTime":1783728000},"SBPL":{"icaoId":"SBPL","flightCategory":"VFR","rawOb":"METAR SBPL 110000Z 13008KT CAVOK 27/15 Q1017","temp":27,"dewp":15,"wdir":130,"wspd":8,"visib":"6+","altim":1017,"clouds":[],"obsTime":1783728000},"SBTU":{"icaoId":"SBTU","flightCategory":"VFR","rawOb":"METAR SBTU 110000Z AUTO 24003KT 9999 // NCD 25/22 Q1014","temp":25,"dewp":22,"wdir":240,"wspd":3,"visib":"6+","altim":1014,"clouds":[],"obsTime":1783728000},"SBCO":{"icaoId":"SBCO","flightCategory":"VFR","rawOb":"METAR SBCO 110000Z 10003KT 050V130 9999 BKN043 15/09 Q1015","temp":15,"dewp":9,"wdir":100,"wspd":3,"visib":"6+","altim":1015,"clouds":[{"cover":"BKN","base":4300}],"obsTime":1783728000},"SBSM":{"icaoId":"SBSM","flightCategory":"VFR","rawOb":"METAR SBSM 110000Z 12004KT 9999 FEW035 BKN090 16/13 Q1012","temp":16,"dewp":13,"wdir":120,"wspd":4,"visib":"6+","altim":1012,"clouds":[{"cover":"FEW","base":3500},{"cover":"BKN","base":9000}],"obsTime":1783728000},"SBKG":{"icaoId":"SBKG","flightCategory":"VFR","rawOb":"METAR SBKG 110000Z 10005KT CAVOK 21/20 Q1018","temp":21,"dewp":20,"wdir":100,"wspd":5,"visib":"6+","altim":1018,"clouds":[],"obsTime":1783728000},"SBAX":{"icaoId":"SBAX","flightCategory":"VFR","rawOb":"METAR SBAX 110000Z 17003KT CAVOK 21/09 Q1019","temp":21,"dewp":9,"wdir":170,"wspd":3,"visib":"6+","altim":1019,"clouds":[],"obsTime":1783728000},"SBAR":{"icaoId":"SBAR","flightCategory":"VFR","rawOb":"METAR SBAR 110000Z 09005KT 9999 SCT021 25/21 Q1017","temp":25,"dewp":21,"wdir":90,"wspd":5,"visib":"6+","altim":1017,"clouds":[{"cover":"SCT","base":2100}],"obsTime":1783728000},"SBBH":{"icaoId":"SBBH","flightCategory":"VFR","rawOb":"METAR SBBH 110000Z 00000KT CAVOK 16/14 Q1019","temp":16,"dewp":14,"wdir":0,"wspd":0,"visib":"6+","altim":1019,"clouds":[],"obsTime":1783728000},"SBBU":{"icaoId":"SBBU","flightCategory":"VFR","rawOb":"METAR SBBU 110000Z 00000KT CAVOK 23/10 Q1017","temp":23,"dewp":10,"wdir":0,"wspd":0,"visib":"6+","altim":1017,"clouds":[],"obsTime":1783728000},"SBDN":{"icaoId":"SBDN","flightCategory":"VFR","rawOb":"METAR SBDN 110000Z 08004KT CAVOK 22/14 Q1014","temp":22,"dewp":14,"wdir":80,"wspd":4,"visib":"6+","altim":1014,"clouds":[],"obsTime":1783728000},"SBOI":{"icaoId":"SBOI","flightCategory":"VFR","rawOb":"METAR SBOI 110000Z AUTO VRB02KT CAVOK 26/24 Q1014","temp":26,"dewp":24,"wdir":"VRB","wspd":2,"visib":"6+","altim":1014,"clouds":[],"obsTime":1783728000},"SBUY":{"icaoId":"SBUY","flightCategory":"MVFR","rawOb":"METAR SBUY 110000Z 16007KT 5000 -RA SCT025 BKN070 22/22 Q1011","temp":22,"dewp":22,"wdir":160,"wspd":7,"visib":3.11,"altim":1011,"clouds":[{"cover":"SCT","base":2500},{"cover":"BKN","base":7000}],"obsTime":1783728000},"SBSC":{"icaoId":"SBSC","flightCategory":"VFR","rawOb":"METAR SBSC 110000Z 23002KT CAVOK 18/17 Q1015","temp":18,"dewp":17,"wdir":230,"wspd":2,"visib":"6+","altim":1015,"clouds":[],"obsTime":1783728000},"SBSJ":{"icaoId":"SBSJ","flightCategory":"VFR","rawOb":"METAR SBSJ 110000Z 13007G17KT CAVOK 16/14 Q1018","temp":16,"dewp":14,"wdir":130,"wspd":7,"visib":"6+","altim":1018,"clouds":[],"obsTime":1783728000},"SBSR":{"icaoId":"SBSR","flightCategory":"VFR","rawOb":"METAR SBSR 110000Z 00000KT CAVOK 23/11 Q1016","temp":23,"dewp":11,"wdir":0,"wspd":0,"visib":"6+","altim":1016,"clouds":[],"obsTime":1783728000},"SBPS":{"icaoId":"SBPS","flightCategory":"VFR","rawOb":"METAR SBPS 110000Z 01006KT 9999 FEW020 23/21 Q1017","temp":23,"dewp":21,"wdir":10,"wspd":6,"visib":"6+","altim":1017,"clouds":[{"cover":"FEW","base":2000}],"obsTime":1783728000},"SBTF":{"icaoId":"SBTF","flightCategory":"VFR","rawOb":"METAR SBTF 110000Z 00000KT 9999 FEW020 26/24 Q1010","temp":26,"dewp":24,"wdir":0,"wspd":0,"visib":"6+","altim":1010,"clouds":[{"cover":"FEW","base":2000}],"obsTime":1783728000},"SBCA":{"icaoId":"SBCA","flightCategory":"VFR","rawOb":"METAR SBCA 110000Z 02006KT CAVOK 22/16 Q1015","temp":22,"dewp":16,"wdir":20,"wspd":6,"visib":"6+","altim":1015,"clouds":[],"obsTime":1783728000},"SBTA":{"icaoId":"SBTA","flightCategory":"VFR","rawOb":"METAR SBTA 110000Z VRB02KT CAVOK 16/14 Q1017","temp":16,"dewp":14,"wdir":"VRB","wspd":2,"visib":"6+","altim":1017,"clouds":[],"obsTime":1783728000},"SBJP":{"icaoId":"SBJP","flightCategory":"VFR","rawOb":"METAR SBJP 110000Z 15006KT 9999 FEW020 24/23 Q1016","temp":24,"dewp":23,"wdir":150,"wspd":6,"visib":"6+","altim":1016,"clouds":[{"cover":"FEW","base":2000}],"obsTime":1783728000},"SBAN":{"icaoId":"SBAN","flightCategory":"VFR","rawOb":"METAR SBAN 110000Z VRB01KT CAVOK 18/12 Q1020","temp":18,"dewp":12,"wdir":"VRB","wspd":1,"visib":"6+","altim":1020,"clouds":[],"obsTime":1783728000},"SBJV":{"icaoId":"SBJV","flightCategory":"LIFR","rawOb":"METAR SBJV 110000Z 17003KT 3000 -RA BKN004 BKN010 16/16 Q1016","temp":16,"dewp":16,"wdir":170,"wspd":3,"visib":1.86,"altim":1016,"clouds":[{"cover":"BKN","base":400},{"cover":"BKN","base":1000}],"obsTime":1783728000},"SBNM":{"icaoId":"SBNM","flightCategory":"VFR","rawOb":"METAR SBNM 110100Z AUTO 05006KT CAVOK 17/16 Q1012","temp":17,"dewp":16,"wdir":50,"wspd":6,"visib":"6+","altim":1012,"clouds":[],"obsTime":1783731600},"SBLE":{"icaoId":"SBLE","flightCategory":"VFR","rawOb":"METAR SBLE 110000Z AUTO 30005KT CAVOK ///// Q1019","temp":null,"dewp":null,"wdir":300,"wspd":5,"visib":"6+","altim":1019,"clouds":[],"obsTime":1783728000},"SBLS":{"icaoId":"SBLS","flightCategory":"VFR","rawOb":"METAR SBLS 110000Z 03003KT CAVOK 21/08 Q1019","temp":21,"dewp":8,"wdir":30,"wspd":3,"visib":"6+","altim":1019,"clouds":[],"obsTime":1783728000},"SBMT":{"icaoId":"SBMT","flightCategory":"VFR","rawOb":"METAR SBMT 110000Z 14005KT 090V190 CAVOK 18/12 Q1019","temp":18,"dewp":12,"wdir":140,"wspd":5,"visib":"6+","altim":1019,"clouds":[],"obsTime":1783728000},"SBJR":{"icaoId":"SBJR","flightCategory":"MVFR","rawOb":"METAR SBJR 110000Z 02002KT 6000 NSC 18/17 Q1015","temp":18,"dewp":17,"wdir":20,"wspd":2,"visib":3.73,"altim":1015,"clouds":[],"obsTime":1783728000}}}