{"updated":1774770184,"count":48,"data":{"SBSP":{"icaoId":"SBSP","flightCategory":"MVFR","rawOb":"METAR SBSP 290600Z AUTO 08005KT 050V120 9999 BKN012 21/18 Q1021","temp":21,"dewp":18,"wdir":80,"wspd":5,"visib":"6+","altim":1021,"clouds":[{"cover":"BKN","base":1200}],"obsTime":1774764000},"SBFZ":{"icaoId":"SBFZ","flightCategory":"VFR","rawOb":"METAR SBFZ 290600Z 22004KT 9999 FEW022 26/23 Q1009","temp":26,"dewp":23,"wdir":220,"wspd":4,"visib":"6+","altim":1009,"clouds":[{"cover":"FEW","base":2200}],"obsTime":1774764000},"SBMO":{"icaoId":"SBMO","flightCategory":"IFR","rawOb":"METAR SBMO 290600Z 21003KT 4000 -DZ BR FEW002 BKN011 24/23 Q1011","temp":24,"dewp":23,"wdir":210,"wspd":3,"visib":2.49,"altim":1011,"clouds":[{"cover":"FEW","base":200},{"cover":"BKN","base":1100}],"obsTime":1774764000},"SBBV":{"icaoId":"SBBV","flightCategory":"MVFR","rawOb":"METAR SBBV 290600Z 14003KT 9999 BKN030 FEW045TCU BKN060 25/24 Q1011","temp":25,"dewp":24,"wdir":140,"wspd":3,"visib":"6+","altim":1011,"clouds":[{"cover":"BKN","base":3000},{"cover":"FEW","base":4500},{"cover":"BKN","base":6000}],"obsTime":1774764000},"SBMQ":{"icaoId":"SBMQ","flightCategory":"VFR","rawOb":"METAR SBMQ 290600Z 29003KT 9999 FEW006 26/26 Q1010","temp":26,"dewp":26,"wdir":290,"wspd":3,"visib":"6+","altim":1010,"clouds":[{"cover":"FEW","base":600}],"obsTime":1774764000},"SBNT":{"icaoId":"SBNT","flightCategory":"VFR","rawOb":"METAR SBNT 290600Z 20005KT 9999 FEW030 24/21 Q1009","temp":24,"dewp":21,"wdir":200,"wspd":5,"visib":"6+","altim":1009,"clouds":[{"cover":"FEW","base":3000}],"obsTime":1774764000},"SBGL":{"icaoId":"SBGL","flightCategory":"VFR","rawOb":"METAR SBGL 290600Z 18006KT 9999 FEW015 24/22 Q1018","temp":24,"dewp":22,"wdir":180,"wspd":6,"visib":"6+","altim":1018,"clouds":[{"cover":"FEW","base":1500}],"obsTime":1774764000},"SBGO":{"icaoId":"SBGO","flightCategory":"VFR","rawOb":"METAR SBGO 290600Z 15005KT CAVOK 21/18 Q1018","temp":21,"dewp":18,"wdir":150,"wspd":5,"visib":"6+","altim":1018,"clouds":[],"obsTime":1774764000},"SBPA":{"icaoId":"SBPA","flightCategory":"VFR","rawOb":"METAR SBPA 290600Z 17003KT 080V250 9999 FEW004 26/23 Q1015","temp":26,"dewp":23,"wdir":170,"wspd":3,"visib":"6+","altim":1015,"clouds":[{"cover":"FEW","base":400}],"obsTime":1774764000},"SBCT":{"icaoId":"SBCT","flightCategory":"VFR","rawOb":"METAR SBCT 290600Z 14005KT 9999 SCT014 16/16 Q1022","temp":16,"dewp":16,"wdir":140,"wspd":5,"visib":"6+","altim":1022,"clouds":[{"cover":"SCT","base":1400}],"obsTime":1774764000},"SBPJ":{"icaoId":"SBPJ","flightCategory":"VFR","rawOb":"METAR SBPJ 290600Z 16003KT 130V190 CAVOK 25/22 Q1012","temp":25,"dewp":22,"wdir":160,"wspd":3,"visib":"6+","altim":1012,"clouds":[],"obsTime":1774764000},"SBBR":{"icaoId":"SBBR","flightCategory":"VFR","rawOb":"METAR SBBR 290600Z VRB01KT 9999 FEW030 19/18 Q1020","temp":19,"dewp":18,"wdir":"VRB","wspd":1,"visib":"6+","altim":1020,"clouds":[{"cover":"FEW","base":3000}],"obsTime":1774764000},"SBPV":{"icaoId":"SBPV","flightCategory":"VFR","rawOb":"METAR SBPV 290600Z 00000KT CAVOK 24/23 Q1013","temp":24,"dewp":23,"wdir":0,"wspd":0,"visib":"6+","altim":1013,"clouds":[],"obsTime":1774764000},"SBGR":{"icaoId":"SBGR","flightCategory":"MVFR","rawOb":"METAR SBGR 290600Z 07008KT 9999 BKN011 19/18 Q1020","temp":19,"dewp":18,"wdir":70,"wspd":8,"visib":"6+","altim":1020,"clouds":[{"cover":"BKN","base":1100}],"obsTime":1774764000},"SBRB":{"icaoId":"SBRB","flightCategory":"LIFR","rawOb":"METAR SBRB 290600Z 00000KT 0150 R07///// R25/0600D FG VV002 22/21 Q1013","temp":22,"dewp":21,"wdir":0,"wspd":0,"visib":0.09,"altim":1013,"clouds":[{"cover":"OVX","base":200}],"obsTime":1774764000},"SBRF":{"icaoId":"SBRF","flightCategory":"VFR","rawOb":"METAR SBRF 290600Z COR 19003KT 9999 FEW020 SCT050 24/23 Q1010","temp":24,"dewp":23,"wdir":190,"wspd":3,"visib":"6+","altim":1010,"clouds":[{"cover":"FEW","base":2000},{"cover":"SCT","base":5000}],"obsTime":1774764000},"SBEG":{"icaoId":"SBEG","flightCategory":"VFR","rawOb":"METAR SBEG 290600Z 00000KT 9999 FEW010 24/24 Q1011","temp":24,"dewp":24,"wdir":0,"wspd":0,"visib":"6+","altim":1011,"clouds":[{"cover":"FEW","base":1000}],"obsTime":1774764000},"SBJU":{"icaoId":"SBJU","flightCategory":"MVFR","rawOb":"METAR SBJU 290600Z 00000KT 9999 BKN020 24/22 Q1013","temp":24,"dewp":22,"wdir":0,"wspd":0,"visib":"6+","altim":1013,"clouds":[{"cover":"BKN","base":2000}],"obsTime":1774764000},"SBSG":{"icaoId":"SBSG","flightCategory":"VFR","rawOb":"METAR SBSG 290600Z 20004KT 9999 FEW025 23/21 Q1010","temp":23,"dewp":21,"wdir":200,"wspd":4,"visib":"6+","altim":1010,"clouds":[{"cover":"FEW","base":2500}],"obsTime":1774764000},"SBSL":{"icaoId":"SBSL","flightCategory":"VFR","rawOb":"METAR SBSL 290600Z 10011KT 9999 -RA FEW008 SCT020 25/24 Q1010","temp":25,"dewp":24,"wdir":100,"wspd":11,"visib":"6+","altim":1010,"clouds":[{"cover":"FEW","base":800},{"cover":"SCT","base":2000}],"obsTime":1774764000},"SBCF":{"icaoId":"SBCF","flightCategory":"VFR","rawOb":"METAR SBCF 290600Z 17003KT CAVOK 18/16 Q1020","temp":18,"dewp":16,"wdir":170,"wspd":3,"visib":"6+","altim":1020,"clouds":[],"obsTime":1774764000},"SBKP":{"icaoId":"SBKP","flightCategory":"VFR","rawOb":"METAR SBKP 290600Z 12005KT CAVOK 20/19 Q1019","temp":20,"dewp":19,"wdir":120,"wspd":5,"visib":"6+","altim":1019,"clouds":[],"obsTime":1774764000},"SBSN":{"icaoId":"SBSN","flightCategory":"VFR","rawOb":"METAR SBSN 290600Z 13004KT 9999 FEW017 FEW025TCU 25/24 Q1010 RETS","temp":25,"dewp":24,"wdir":130,"wspd":4,"visib":"6+","altim":1010,"clouds":[{"cover":"FEW","base":1700},{"cover":"FEW","base":2500}],"obsTime":1774764000},"SBFI":{"icaoId":"SBFI","flightCategory":"VFR","rawOb":"METAR SBFI 290600Z 00000KT CAVOK 22/22 Q1015","temp":22,"dewp":22,"wdir":0,"wspd":0,"visib":"6+","altim":1015,"clouds":[],"obsTime":1774764000},"SBBE":{"icaoId":"SBBE","flightCategory":"VFR","rawOb":"METAR SBBE 290600Z 08002KT CAVOK 26/25 Q1011","temp":26,"dewp":25,"wdir":80,"wspd":2,"visib":"6+","altim":1011,"clouds":[],"obsTime":1774764000},"SBMG":{"icaoId":"SBMG","flightCategory":"VFR","rawOb":"METAR SBMG 290600Z AUTO 07011KT CAVOK 25/16 Q1017","temp":25,"dewp":16,"wdir":70,"wspd":11,"visib":"6+","altim":1017,"clouds":[],"obsTime":1774764000},"SBLO":{"icaoId":"SBLO","flightCategory":"VFR","rawOb":"METAR SBLO 290600Z 13002KT CAVOK 22/18 Q1018","temp":22,"dewp":18,"wdir":130,"wspd":2,"visib":"6+","altim":1018,"clouds":[],"obsTime":1774764000},"SBSV":{"icaoId":"SBSV","flightCategory":"VFR","rawOb":"METAR SBSV 290600Z 20002KT 9999 VCSH SCT018 FEW025TCU SCT030 BKN070 25/23 Q1012 RESHRA","temp":25,"dewp":23,"wdir":200,"wspd":2,"visib":"6+","altim":1012,"clouds":[{"cover":"SCT","base":1800},{"cover":"FEW","base":2500},{"cover":"SCT","base":3000},{"cover":"BKN","base":7000}],"obsTime":1774764000},"SBCG":{"icaoId":"SBCG","flightCategory":"VFR","rawOb":"METAR SBCG 290600Z 07009KT CAVOK 25/18 Q1017","temp":25,"dewp":18,"wdir":70,"wspd":9,"visib":"6+","altim":1017,"clouds":[],"obsTime":1774764000},"SBTE":{"icaoId":"SBTE","flightCategory":"VFR","rawOb":"METAR SBTE 290600Z 32004KT 9999 FEW020 BKN100 26/24 Q1009","temp":26,"dewp":24,"wdir":320,"wspd":4,"visib":"6+","altim":1009,"clouds":[{"cover":"FEW","base":2000},{"cover":"BKN","base":10000}],"obsTime":1774764000},"SBMA":{"icaoId":"SBMA","flightCategory":"VFR","rawOb":"METAR SBMA 290600Z 03004KT CAVOK 27/25 Q1010","temp":27,"dewp":25,"wdir":30,"wspd":4,"visib":"6+","altim":1010,"clouds":[],"obsTime":1774764000},"SBUR":{"icaoId":"SBUR","flightCategory":"VFR","rawOb":"METAR SBUR 290600Z 04003KT CAVOK 22/16 Q1019","temp":22,"dewp":16,"wdir":40,"wspd":3,"visib":"6+","altim":1019,"clouds":[],"obsTime":1774764000},"SBVT":{"icaoId":"SBVT","flightCategory":"VFR","rawOb":"METAR SBVT 290600Z 00000KT 9999 SCT030 BKN048 22/22 Q1016 RERA","temp":22,"dewp":22,"wdir":0,"wspd":0,"visib":"6+","altim":1016,"clouds":[{"cover":"SCT","base":3000},{"cover":"BKN","base":4800}],"obsTime":1774764000},"SBFL":{"icaoId":"SBFL","flightCategory":"VFR","rawOb":"METAR SBFL 290600Z 30008KT CAVOK 25/21 Q1017","temp":25,"dewp":21,"wdir":300,"wspd":8,"visib":"6+","altim":1017,"clouds":[],"obsTime":1774764000},"SBME":{"icaoId":"SBME","flightCategory":"VFR","rawOb":"METAR SBME 290600Z 32004KT 9999 FEW020 22/21 Q1017","temp":22,"dewp":21,"wdir":320,"wspd":4,"visib":"6+","altim":1017,"clouds":[{"cover":"FEW","base":2000}],"obsTime":1774764000},"SBAR":{"icaoId":"SBAR","flightCategory":"VFR","rawOb":"METAR SBAR 290600Z 12007KT 9999 VCSH FEW020 FEW023TCU 28/24 Q1011","temp":28,"dewp":24,"wdir":120,"wspd":7,"visib":"6+","altim":1011,"clouds":[{"cover":"FEW","base":2000},{"cover":"FEW","base":2300}],"obsTime":1774764000},"SBAX":{"icaoId":"SBAX","flightCategory":"VFR","rawOb":"METAR SBAX 290600Z AUTO 12009KT CAVOK 20/16 Q1020","temp":20,"dewp":16,"wdir":120,"wspd":9,"visib":"6+","altim":1020,"clouds":[],"obsTime":1774764000},"SBDN":{"icaoId":"SBDN","flightCategory":"VFR","rawOb":"METAR SBDN 290600Z 10004KT CAVOK 24/17 Q1017","temp":24,"dewp":17,"wdir":100,"wspd":4,"visib":"6+","altim":1017,"clouds":[],"obsTime":1774764000},"SBIP":{"icaoId":"SBIP","flightCategory":"LIFR","rawOb":"METAR SBIP 290600Z AUTO VRB01KT 1300 BR SCT002 20/20 Q1018","temp":20,"dewp":20,"wdir":"VRB","wspd":1,"visib":0.81,"altim":1018,"clouds":[{"cover":"SCT","base":200}],"obsTime":1774764000},"SBKG":{"icaoId":"SBKG","flightCategory":"VFR","rawOb":"METAR SBKG 290600Z 13003KT 9999 SCT015 SCT080 22/22 Q1013","temp":22,"dewp":22,"wdir":130,"wspd":3,"visib":"6+","altim":1013,"clouds":[{"cover":"SCT","base":1500},{"cover":"SCT","base":8000}],"obsTime":1774764000},"SBOI":{"icaoId":"SBOI","flightCategory":"VFR","rawOb":"METAR SBOI 290600Z AUTO 01005KT 9999 // SCT004/// BKN053/// OVC077/// 24/24 Q1011","temp":24,"dewp":24,"wdir":10,"wspd":5,"visib":"6+","altim":1011,"clouds":[{"cover":"SCT","base":400},{"cover":"BKN","base":5300},{"cover":"OVC","base":7700}],"obsTime":1774764000},"SBPL":{"icaoId":"SBPL","flightCategory":"VFR","rawOb":"METAR SBPL 290600Z 12006KT CAVOK 25/22 Q1013","temp":25,"dewp":22,"wdir":120,"wspd":6,"visib":"6+","altim":1013,"clouds":[],"obsTime":1774764000},"SBPS":{"icaoId":"SBPS","flightCategory":"VFR","rawOb":"METAR SBPS 290600Z 23005KT 9999 FEW020 SCT070 22/21 Q1014","temp":22,"dewp":21,"wdir":230,"wspd":5,"visib":"6+","altim":1014,"clouds":[{"cover":"FEW","base":2000},{"cover":"SCT","base":7000}],"obsTime":1774764000},"SBSC":{"icaoId":"SBSC","flightCategory":"MVFR","rawOb":"METAR SBSC 290600Z 35003KT 6000 FEW020 23/21 Q1017","temp":23,"dewp":21,"wdir":350,"wspd":3,"visib":3.73,"altim":1017,"clouds":[{"cover":"FEW","base":2000}],"obsTime":1774764000},"SBSR":{"icaoId":"SBSR","flightCategory":"VFR","rawOb":"METAR SBSR 290600Z 15002KT CAVOK 24/15 Q1017","temp":24,"dewp":15,"wdir":150,"wspd":2,"visib":"6+","altim":1017,"clouds":[],"obsTime":1774764000},"SBLE":{"icaoId":"SBLE","flightCategory":"MVFR","rawOb":"METAR SBLE 290600Z AUTO 14003KT 110V170 9999 -RA FEW016 OVC022 ///// Q////","temp":null,"dewp":null,"wdir":140,"wspd":3,"visib":"6+","altim":null,"clouds":[{"cover":"FEW","base":1600},{"cover":"OVC","base":2200}],"obsTime":1774764000},"SBAN":{"icaoId":"SBAN","flightCategory":"VFR","rawOb":"METAR SBAN 290600Z 14010KT CAVOK 18/16 Q1020","temp":18,"dewp":16,"wdir":140,"wspd":10,"visib":"6+","altim":1020,"clouds":[],"obsTime":1774764000},"SBJP":{"icaoId":"SBJP","flightCategory":"VFR","rawOb":"METAR SBJP 290600Z 21005KT 9999 SCT025 24/23 Q1010","temp":24,"dewp":23,"wdir":210,"wspd":5,"visib":"6+","altim":1010,"clouds":[{"cover":"SCT","base":2500}],"obsTime":1774764000}}}