{"updated":1781380671,"count":86,"data":{"SBBE":{"icaoId":"SBBE","flightCategory":"IFR","rawOb":"METAR SBBE 131800Z 14012G28KT 2000 RA SCT015 BKN040 FEW042TCU 31/24 Q1012","temp":31,"dewp":24,"wdir":140,"wspd":12,"visib":1.24,"altim":1012,"clouds":[{"cover":"SCT","base":1500},{"cover":"BKN","base":4000},{"cover":"FEW","base":4200}],"obsTime":1781373600},"SBCZ":{"icaoId":"SBCZ","flightCategory":"MVFR","rawOb":"METAR SBCZ 131800Z 36005KT 9999 BKN030 32/22 Q1013","temp":32,"dewp":22,"wdir":360,"wspd":5,"visib":"6+","altim":1013,"clouds":[{"cover":"BKN","base":3000}],"obsTime":1781373600},"SBMA":{"icaoId":"SBMA","flightCategory":"VFR","rawOb":"METAR SBMA 131800Z 04009KT 9999 FEW023 33/22 Q1013","temp":33,"dewp":22,"wdir":40,"wspd":9,"visib":"6+","altim":1013,"clouds":[{"cover":"FEW","base":2300}],"obsTime":1781373600},"SBBR":{"icaoId":"SBBR","flightCategory":"MVFR","rawOb":"METAR SBBR 131800Z 10010KT 070V140 9999 VCTS BKN010 BKN030 FEW035CB 20/18 Q1021","temp":20,"dewp":18,"wdir":100,"wspd":10,"visib":"6+","altim":1021,"clouds":[{"cover":"BKN","base":1000},{"cover":"BKN","base":3000},{"cover":"FEW","base":3500}],"obsTime":1781373600},"SBME":{"icaoId":"SBME","flightCategory":"VFR","rawOb":"METAR SBME 131800Z 21012KT CAVOK 27/19 Q1013","temp":27,"dewp":19,"wdir":210,"wspd":12,"visib":"6+","altim":1013,"clouds":[],"obsTime":1781373600},"SBEG":{"icaoId":"SBEG","flightCategory":"VFR","rawOb":"METAR SBEG 131800Z 12009KT 9999 SCT030 32/24 Q1012","temp":32,"dewp":24,"wdir":120,"wspd":9,"visib":"6+","altim":1012,"clouds":[{"cover":"SCT","base":3000}],"obsTime":1781373600},"SBMG":{"icaoId":"SBMG","flightCategory":"VFR","rawOb":"METAR SBMG 131800Z 16004KT 120V180 9999 SCT025 BKN070 20/15 Q1016","temp":20,"dewp":15,"wdir":160,"wspd":4,"visib":"6+","altim":1016,"clouds":[{"cover":"SCT","base":2500},{"cover":"BKN","base":7000}],"obsTime":1781373600},"SBCF":{"icaoId":"SBCF","flightCategory":"VFR","rawOb":"METAR SBCF 131800Z 34007KT 9999 SCT019 SCT100 22/16 Q1021","temp":22,"dewp":16,"wdir":340,"wspd":7,"visib":"6+","altim":1021,"clouds":[{"cover":"SCT","base":1900},{"cover":"SCT","base":10000}],"obsTime":1781373600},"SBMK":{"icaoId":"SBMK","flightCategory":"VFR","rawOb":"METAR SBMK 131800Z 21003KT 9999 SCT014 OVC070 20/18 Q1021","temp":20,"dewp":18,"wdir":210,"wspd":3,"visib":"6+","altim":1021,"clouds":[{"cover":"SCT","base":1400},{"cover":"OVC","base":7000}],"obsTime":1781373600},"SBFI":{"icaoId":"SBFI","flightCategory":"VFR","rawOb":"METAR SBFI 131800Z 10004KT 9999 SCT025 20/12 Q1015","temp":20,"dewp":12,"wdir":100,"wspd":4,"visib":"6+","altim":1015,"clouds":[{"cover":"SCT","base":2500}],"obsTime":1781373600},"SBFL":{"icaoId":"SBFL","flightCategory":"VFR","rawOb":"METAR SBFL 131800Z 14009KT 9999 FEW040 20/14 Q1014","temp":20,"dewp":14,"wdir":140,"wspd":9,"visib":"6+","altim":1014,"clouds":[{"cover":"FEW","base":4000}],"obsTime":1781373600},"SBMO":{"icaoId":"SBMO","flightCategory":"VFR","rawOb":"METAR SBMO 131800Z 11009KT 9999 SCT025 28/23 Q1016","temp":28,"dewp":23,"wdir":110,"wspd":9,"visib":"6+","altim":1016,"clouds":[{"cover":"SCT","base":2500}],"obsTime":1781373600},"SBMQ":{"icaoId":"SBMQ","flightCategory":"VFR","rawOb":"METAR SBMQ 131800Z 03009KT 9999 -RA SCT021 FEW050TCU SCT080 28/25 Q1012 RETS","temp":28,"dewp":25,"wdir":30,"wspd":9,"visib":"6+","altim":1012,"clouds":[{"cover":"SCT","base":2100},{"cover":"FEW","base":5000},{"cover":"SCT","base":8000}],"obsTime":1781373600},"SBAT":{"icaoId":"SBAT","flightCategory":"VFR","rawOb":"METAR SBAT 131800Z 12006KT 9999 FEW020 SCT025 33/24 Q1013","temp":33,"dewp":24,"wdir":120,"wspd":6,"visib":"6+","altim":1013,"clouds":[{"cover":"FEW","base":2000},{"cover":"SCT","base":2500}],"obsTime":1781373600},"SBFZ":{"icaoId":"SBFZ","flightCategory":"VFR","rawOb":"METAR SBFZ 131800Z 10010KT 9999 FEW030 30/22 Q1013","temp":30,"dewp":22,"wdir":100,"wspd":10,"visib":"6+","altim":1013,"clouds":[{"cover":"FEW","base":3000}],"obsTime":1781373600},"SBNT":{"icaoId":"SBNT","flightCategory":"VFR","rawOb":"METAR SBNT 131800Z 12010KT 9999 FEW034 30/22 Q1014","temp":30,"dewp":22,"wdir":120,"wspd":10,"visib":"6+","altim":1014,"clouds":[{"cover":"FEW","base":3400}],"obsTime":1781373600},"SBCG":{"icaoId":"SBCG","flightCategory":"VFR","rawOb":"METAR SBCG 131800Z 08005KT 050V110 9999 FEW004 BKN035 BKN042 20/19 Q1015","temp":20,"dewp":19,"wdir":80,"wspd":5,"visib":"6+","altim":1015,"clouds":[{"cover":"FEW","base":400},{"cover":"BKN","base":3500},{"cover":"BKN","base":4200}],"obsTime":1781373600},"SBPA":{"icaoId":"SBPA","flightCategory":"VFR","rawOb":"METAR SBPA 131800Z 29007KT 270V330 9999 BKN035 17/12 Q1016","temp":17,"dewp":12,"wdir":290,"wspd":7,"visib":"6+","altim":1016,"clouds":[{"cover":"BKN","base":3500}],"obsTime":1781373600},"SBPJ":{"icaoId":"SBPJ","flightCategory":"VFR","rawOb":"METAR SBPJ 131800Z 22006KT 9999 FEW030 34/19 Q1014","temp":34,"dewp":19,"wdir":220,"wspd":6,"visib":"6+","altim":1014,"clouds":[{"cover":"FEW","base":3000}],"obsTime":1781373600},"SBGL":{"icaoId":"SBGL","flightCategory":"VFR","rawOb":"METAR SBGL 131800Z 17004KT 110V210 9999 FEW035 27/19 Q1013","temp":27,"dewp":19,"wdir":170,"wspd":4,"visib":"6+","altim":1013,"clouds":[{"cover":"FEW","base":3500}],"obsTime":1781373600},"SBPV":{"icaoId":"SBPV","flightCategory":"VFR","rawOb":"METAR SBPV 131800Z 03006KT 9999 SCT035 33/22 Q1012","temp":33,"dewp":22,"wdir":30,"wspd":6,"visib":"6+","altim":1012,"clouds":[{"cover":"SCT","base":3500}],"obsTime":1781373600},"SBCP":{"icaoId":"SBCP","flightCategory":"VFR","rawOb":"METAR SBCP 131800Z 33010KT 9999 FEW040 SCT090 29/19 Q1013","temp":29,"dewp":19,"wdir":330,"wspd":10,"visib":"6+","altim":1013,"clouds":[{"cover":"FEW","base":4000},{"cover":"SCT","base":9000}],"obsTime":1781373600},"SBRB":{"icaoId":"SBRB","flightCategory":"MVFR","rawOb":"METAR SBRB 131800Z 36006KT 9999 BKN030 32/24 Q1013","temp":32,"dewp":24,"wdir":360,"wspd":6,"visib":"6+","altim":1013,"clouds":[{"cover":"BKN","base":3000}],"obsTime":1781373600},"SBGO":{"icaoId":"SBGO","flightCategory":"VFR","rawOb":"METAR SBGO 131800Z COR 09011KT 9999 TS BKN045 FEW050CB 27/20 Q1018","temp":27,"dewp":20,"wdir":90,"wspd":11,"visib":"6+","altim":1018,"clouds":[{"cover":"BKN","base":4500},{"cover":"FEW","base":5000}],"obsTime":1781373600},"SBRF":{"icaoId":"SBRF","flightCategory":"VFR","rawOb":"METAR SBRF 131800Z 14011KT 9999 FEW025 28/23 Q1015","temp":28,"dewp":23,"wdir":140,"wspd":11,"visib":"6+","altim":1015,"clouds":[{"cover":"FEW","base":2500}],"obsTime":1781373600},"SBSG":{"icaoId":"SBSG","flightCategory":"VFR","rawOb":"METAR SBSG 131800Z 11009KT 080V150 9999 SCT033 30/23 Q1014","temp":30,"dewp":23,"wdir":110,"wspd":9,"visib":"6+","altim":1014,"clouds":[{"cover":"SCT","base":3300}],"obsTime":1781373600},"SBSL":{"icaoId":"SBSL","flightCategory":"VFR","rawOb":"METAR SBSL 131800Z 07013KT 9999 SCT030 FEW032TCU 31/25 Q1012","temp":31,"dewp":25,"wdir":70,"wspd":13,"visib":"6+","altim":1012,"clouds":[{"cover":"SCT","base":3000},{"cover":"FEW","base":3200}],"obsTime":1781373600},"SBCR":{"icaoId":"SBCR","flightCategory":"VFR","rawOb":"METAR SBCR 131800Z VRB02KT 9999 BKN035 30/23 Q1011","temp":30,"dewp":23,"wdir":"VRB","wspd":2,"visib":"6+","altim":1011,"clouds":[{"cover":"BKN","base":3500}],"obsTime":1781373600},"SBGR":{"icaoId":"SBGR","flightCategory":"MVFR","rawOb":"METAR SBGR 131800Z 30010KT 9999 BKN026 21/16 Q1017","temp":21,"dewp":16,"wdir":300,"wspd":10,"visib":"6+","altim":1017,"clouds":[{"cover":"BKN","base":2600}],"obsTime":1781373600},"SBSN":{"icaoId":"SBSN","flightCategory":"VFR","rawOb":"METAR SBSN 131800Z 08010KT 9999 FEW023 31/24 Q1012","temp":31,"dewp":24,"wdir":80,"wspd":10,"visib":"6+","altim":1012,"clouds":[{"cover":"FEW","base":2300}],"obsTime":1781373600},"SBSP":{"icaoId":"SBSP","flightCategory":"MVFR","rawOb":"METAR SBSP 131800Z COR 31015KT 280V350 9999 BKN020 21/16 Q1018","temp":21,"dewp":16,"wdir":310,"wspd":15,"visib":"6+","altim":1018,"clouds":[{"cover":"BKN","base":2000}],"obsTime":1781373600},"SBHT":{"icaoId":"SBHT","flightCategory":"MVFR","rawOb":"METAR SBHT 131800Z 15005KT 9999 BKN030 31/25 Q1013","temp":31,"dewp":25,"wdir":150,"wspd":5,"visib":"6+","altim":1013,"clouds":[{"cover":"BKN","base":3000}],"obsTime":1781373600},"SBBV":{"icaoId":"SBBV","flightCategory":"VFR","rawOb":"METAR SBBV 131800Z 09009KT 9999 VCSH BKN035 FEW040TCU SCT070 31/22 Q1012","temp":31,"dewp":22,"wdir":90,"wspd":9,"visib":"6+","altim":1012,"clouds":[{"cover":"BKN","base":3500},{"cover":"FEW","base":4000},{"cover":"SCT","base":7000}],"obsTime":1781373600},"SBSV":{"icaoId":"SBSV","flightCategory":"VFR","rawOb":"METAR SBSV 131800Z 12007KT 9999 SCT027 28/21 Q1017","temp":28,"dewp":21,"wdir":120,"wspd":7,"visib":"6+","altim":1017,"clouds":[{"cover":"SCT","base":2700}],"obsTime":1781373600},"SBIL":{"icaoId":"SBIL","flightCategory":"VFR","rawOb":"METAR SBIL 131800Z 07008KT CAVOK 28/22 Q1017","temp":28,"dewp":22,"wdir":70,"wspd":8,"visib":"6+","altim":1017,"clouds":[],"obsTime":1781373600},"SBTE":{"icaoId":"SBTE","flightCategory":"MVFR","rawOb":"METAR SBTE 131800Z 06008KT 9999 BKN025 34/22 Q1012","temp":34,"dewp":22,"wdir":60,"wspd":8,"visib":"6+","altim":1012,"clouds":[{"cover":"BKN","base":2500}],"obsTime":1781373600},"SBCB":{"icaoId":"SBCB","flightCategory":"VFR","rawOb":"METAR SBCB 131800Z 17011KT 9999 SCT025 BKN070 24/21 Q1014","temp":24,"dewp":21,"wdir":170,"wspd":11,"visib":"6+","altim":1014,"clouds":[{"cover":"SCT","base":2500},{"cover":"BKN","base":7000}],"obsTime":1781373600},"SBLO":{"icaoId":"SBLO","flightCategory":"MVFR","rawOb":"METAR SBLO 131800Z 06006KT 020V090 9999 OVC022 20/16 Q1017","temp":20,"dewp":16,"wdir":60,"wspd":6,"visib":"6+","altim":1017,"clouds":[{"cover":"OVC","base":2200}],"obsTime":1781373600},"SBUL":{"icaoId":"SBUL","flightCategory":"MVFR","rawOb":"METAR SBUL 131800Z 18007KT 130V200 7000 -RA FEW015 BKN040 FEW045TCU 18/16 Q1022","temp":18,"dewp":16,"wdir":180,"wspd":7,"visib":4.35,"altim":1022,"clouds":[{"cover":"FEW","base":1500},{"cover":"BKN","base":4000},{"cover":"FEW","base":4500}],"obsTime":1781373600},"SBUR":{"icaoId":"SBUR","flightCategory":"IFR","rawOb":"METAR SBUR 131800Z 30002KT 5000 -RA BR BKN005 OVC100 17/17 Q1021","temp":17,"dewp":17,"wdir":300,"wspd":2,"visib":3.11,"altim":1021,"clouds":[{"cover":"BKN","base":500},{"cover":"OVC","base":10000}],"obsTime":1781373600},"SBJU":{"icaoId":"SBJU","flightCategory":"VFR","rawOb":"METAR SBJU 131800Z 09005KT 9999 SCT022 31/18 Q1016","temp":31,"dewp":18,"wdir":90,"wspd":5,"visib":"6+","altim":1016,"clouds":[{"cover":"SCT","base":2200}],"obsTime":1781373600},"SBVT":{"icaoId":"SBVT","flightCategory":"VFR","rawOb":"METAR SBVT 131800Z 32012KT 9999 FEW045 BKN100 28/19 Q1013","temp":28,"dewp":19,"wdir":320,"wspd":12,"visib":"6+","altim":1013,"clouds":[{"cover":"FEW","base":4500},{"cover":"BKN","base":10000}],"obsTime":1781373600},"SBCT":{"icaoId":"SBCT","flightCategory":"VFR","rawOb":"METAR SBCT 131800Z 27008KT 210V310 CAVOK 18/08 Q1017","temp":18,"dewp":8,"wdir":270,"wspd":8,"visib":"6+","altim":1017,"clouds":[],"obsTime":1781373600},"SBKP":{"icaoId":"SBKP","flightCategory":"MVFR","rawOb":"METAR SBKP 131800Z 32009KT 9999 BKN025 22/17 Q1017","temp":22,"dewp":17,"wdir":320,"wspd":9,"visib":"6+","altim":1017,"clouds":[{"cover":"BKN","base":2500}],"obsTime":1781373600},"SBTT":{"icaoId":"SBTT","flightCategory":"VFR","rawOb":"METAR SBTT 131800Z 26003KT 9999 FEW015 BKN070 29/20 Q1012","temp":29,"dewp":20,"wdir":260,"wspd":3,"visib":"6+","altim":1012,"clouds":[{"cover":"FEW","base":1500},{"cover":"BKN","base":7000}],"obsTime":1781373600},"SBBQ":{"icaoId":"SBBQ","flightCategory":"VFR","rawOb":"METAR SBBQ 131800Z 30009KT 270V330 9999 SCT024 SCT035 BKN090 20/15 Q1021","temp":20,"dewp":15,"wdir":300,"wspd":9,"visib":"6+","altim":1021,"clouds":[{"cover":"SCT","base":2400},{"cover":"SCT","base":3500},{"cover":"BKN","base":9000}],"obsTime":1781373600},"SBCO":{"icaoId":"SBCO","flightCategory":"VFR","rawOb":"METAR SBCO 131800Z 25006KT 220V280 9999 SCT023 17/12 Q1017","temp":17,"dewp":12,"wdir":250,"wspd":6,"visib":"6+","altim":1017,"clouds":[{"cover":"SCT","base":2300}],"obsTime":1781373600},"SBPL":{"icaoId":"SBPL","flightCategory":"VFR","rawOb":"METAR SBPL 131800Z 07006KT 9999 SCT030 32/17 Q1016","temp":32,"dewp":17,"wdir":70,"wspd":6,"visib":"6+","altim":1016,"clouds":[{"cover":"SCT","base":3000}],"obsTime":1781373600},"SBAX":{"icaoId":"SBAX","flightCategory":"VFR","rawOb":"METAR SBAX 131800Z AUTO 28005KT 240V320 CAVOK 19/15 Q1021","temp":19,"dewp":15,"wdir":280,"wspd":5,"visib":"6+","altim":1021,"clouds":[],"obsTime":1781373600},"SBPP":{"icaoId":"SBPP","flightCategory":"IFR","rawOb":"METAR SBPP 131800Z 07008KT 8000 OVC007 16/15 Q1015","temp":16,"dewp":15,"wdir":70,"wspd":8,"visib":4.97,"altim":1015,"clouds":[{"cover":"OVC","base":700}],"obsTime":1781373600},"SBBH":{"icaoId":"SBBH","flightCategory":"VFR","rawOb":"METAR SBBH 131800Z 30005KT 9999 SCT033 23/16 Q1020","temp":23,"dewp":16,"wdir":300,"wspd":5,"visib":"6+","altim":1020,"clouds":[{"cover":"SCT","base":3300}],"obsTime":1781373600},"SBPS":{"icaoId":"SBPS","flightCategory":"VFR","rawOb":"METAR SBPS 131800Z 05007KT 9999 SCT020 SCT100 28/22 Q1017","temp":28,"dewp":22,"wdir":50,"wspd":7,"visib":"6+","altim":1017,"clouds":[{"cover":"SCT","base":2000},{"cover":"SCT","base":10000}],"obsTime":1781373600},"SBDN":{"icaoId":"SBDN","flightCategory":"IFR","rawOb":"METAR SBDN 131800Z 34004KT 9999 -RA OVC009 20/17 Q1017","temp":20,"dewp":17,"wdir":340,"wspd":4,"visib":"6+","altim":1017,"clouds":[{"cover":"OVC","base":900}],"obsTime":1781373600},"SBSC":{"icaoId":"SBSC","flightCategory":"VFR","rawOb":"METAR SBSC 131800Z 18010KT 9999 SCT015 24/20 Q1014","temp":24,"dewp":20,"wdir":180,"wspd":10,"visib":"6+","altim":1014,"clouds":[{"cover":"SCT","base":1500}],"obsTime":1781373600},"SBES":{"icaoId":"SBES","flightCategory":"VFR","rawOb":"METAR SBES 131800Z 22012KT 9999 FEW018 BKN100 24/// Q1014","temp":null,"dewp":null,"wdir":220,"wspd":12,"visib":"6+","altim":1014,"clouds":[{"cover":"FEW","base":1800},{"cover":"BKN","base":10000}],"obsTime":1781373600},"SBSJ":{"icaoId":"SBSJ","flightCategory":"VFR","rawOb":"METAR SBSJ 131800Z 32012KT 9999 FEW045 24/14 Q1017","temp":24,"dewp":14,"wdir":320,"wspd":12,"visib":"6+","altim":1017,"clouds":[{"cover":"FEW","base":4500}],"obsTime":1781373600},"SBSM":{"icaoId":"SBSM","flightCategory":"VFR","rawOb":"METAR SBSM 131800Z 26003KT 200V300 9999 FEW025 BKN045 18/12 Q1017","temp":18,"dewp":12,"wdir":260,"wspd":3,"visib":"6+","altim":1017,"clouds":[{"cover":"FEW","base":2500},{"cover":"BKN","base":4500}],"obsTime":1781373600},"SBBU":{"icaoId":"SBBU","flightCategory":"MVFR","rawOb":"METAR SBBU 131800Z 32011KT 9999 SCT012 BKN015 BKN030 22/19 Q1018","temp":22,"dewp":19,"wdir":320,"wspd":11,"visib":"6+","altim":1018,"clouds":[{"cover":"SCT","base":1200},{"cover":"BKN","base":1500},{"cover":"BKN","base":3000}],"obsTime":1781373600},"SBSR":{"icaoId":"SBSR","flightCategory":"IFR","rawOb":"METAR SBSR 131800Z 03004KT 8000 -RA BKN005 OVC020 18/17 Q1019","temp":18,"dewp":17,"wdir":30,"wspd":4,"visib":4.97,"altim":1019,"clouds":[{"cover":"BKN","base":500},{"cover":"OVC","base":2000}],"obsTime":1781373600},"SBCA":{"icaoId":"SBCA","flightCategory":"VFR","rawOb":"METAR SBCA 131900Z 36005KT CAVOK 20/10 Q1017","temp":20,"dewp":10,"wdir":360,"wspd":5,"visib":"6+","altim":1017,"clouds":[],"obsTime":1781377200},"SBTF":{"icaoId":"SBTF","flightCategory":"VFR","rawOb":"METAR SBTF 131800Z 06005KT 9999 SCT016 FEW025TCU SCT100 30/26 Q1011","temp":30,"dewp":26,"wdir":60,"wspd":5,"visib":"6+","altim":1011,"clouds":[{"cover":"SCT","base":1600},{"cover":"FEW","base":2500},{"cover":"SCT","base":10000}],"obsTime":1781373600},"SBGM":{"icaoId":"SBGM","flightCategory":"VFR","rawOb":"METAR SBGM 131800Z 34007KT 9999 BKN040 34/21 Q1013","temp":34,"dewp":21,"wdir":340,"wspd":7,"visib":"6+","altim":1013,"clouds":[{"cover":"BKN","base":4000}],"obsTime":1781373600},"SBIP":{"icaoId":"SBIP","flightCategory":"VFR","rawOb":"METAR SBIP 131800Z AUTO 05003KT 360V100 9999 FEW010 23/20 Q1017","temp":23,"dewp":20,"wdir":50,"wspd":3,"visib":"6+","altim":1017,"clouds":[{"cover":"FEW","base":1000}],"obsTime":1781373600},"SBTU":{"icaoId":"SBTU","flightCategory":"VFR","rawOb":"METAR SBTU 131800Z AUTO 27007KT 250V310 9999 // FEW033/// 31/22 Q1014","temp":31,"dewp":22,"wdir":270,"wspd":7,"visib":"6+","altim":1014,"clouds":[{"cover":"FEW","base":3300}],"obsTime":1781373600},"SBCC":{"icaoId":"SBCC","flightCategory":"VFR","rawOb":"METAR SBCC 131800Z 04009KT 360V080 9999 SCT040 FEW045TCU 33/19 Q1015","temp":33,"dewp":19,"wdir":40,"wspd":9,"visib":"6+","altim":1015,"clouds":[{"cover":"SCT","base":4000},{"cover":"FEW","base":4500}],"obsTime":1781373600},"SBKG":{"icaoId":"SBKG","flightCategory":"VFR","rawOb":"METAR SBKG 131800Z 12008KT 9999 SCT025 28/19 Q1017","temp":28,"dewp":19,"wdir":120,"wspd":8,"visib":"6+","altim":1017,"clouds":[{"cover":"SCT","base":2500}],"obsTime":1781373600},"SBUY":{"icaoId":"SBUY","flightCategory":"VFR","rawOb":"METAR SBUY 131800Z 13008KT 9999 SCT025 32/24 Q1011","temp":32,"dewp":24,"wdir":130,"wspd":8,"visib":"6+","altim":1011,"clouds":[{"cover":"SCT","base":2500}],"obsTime":1781373600},"SBVH":{"icaoId":"SBVH","flightCategory":"VFR","rawOb":"METAR SBVH 131800Z 34007KT 9999 BKN035 31/21 Q1016","temp":31,"dewp":21,"wdir":340,"wspd":7,"visib":"6+","altim":1016,"clouds":[{"cover":"BKN","base":3500}],"obsTime":1781373600},"SBAR":{"icaoId":"SBAR","flightCategory":"VFR","rawOb":"METAR SBAR 131800Z 13007KT 090V170 9999 FEW019 28/22 Q1016","temp":28,"dewp":22,"wdir":130,"wspd":7,"visib":"6+","altim":1016,"clouds":[{"cover":"FEW","base":1900}],"obsTime":1781373600},"SBOI":{"icaoId":"SBOI","flightCategory":"VFR","rawOb":"METAR SBOI 131800Z AUTO 11005KT 070V150 CAVOK 31/22 Q1013","temp":31,"dewp":22,"wdir":110,"wspd":5,"visib":"6+","altim":1013,"clouds":[],"obsTime":1781373600},"SBPB":{"icaoId":"SBPB","flightCategory":"VFR","rawOb":"METAR SBPB 131800Z 06012KT 9999 FEW020 31/25 Q1012","temp":31,"dewp":25,"wdir":60,"wspd":12,"visib":"6+","altim":1012,"clouds":[{"cover":"FEW","base":2000}],"obsTime":1781373600},"SBCJ":{"icaoId":"SBCJ","flightCategory":"VFR","rawOb":"METAR SBCJ 131800Z 04003KT 9999 SCT027 29/21 Q1017","temp":29,"dewp":21,"wdir":40,"wspd":3,"visib":"6+","altim":1017,"clouds":[{"cover":"SCT","base":2700}],"obsTime":1781373600},"SBJV":{"icaoId":"SBJV","flightCategory":"VFR","rawOb":"METAR SBJV 131800Z 11006KT 9999 FEW040 24/14 Q1014","temp":24,"dewp":14,"wdir":110,"wspd":6,"visib":"6+","altim":1014,"clouds":[{"cover":"FEW","base":4000}],"obsTime":1781373600},"SBMT":{"icaoId":"SBMT","flightCategory":"MVFR","rawOb":"METAR SBMT 131800Z 32008KT 300V010 9999 BKN029 21/16 Q1017","temp":21,"dewp":16,"wdir":320,"wspd":8,"visib":"6+","altim":1017,"clouds":[{"cover":"BKN","base":2900}],"obsTime":1781373600},"SBST":{"icaoId":"SBST","flightCategory":"VFR","rawOb":"METAR SBST 131800Z 23004KT 9999 SCT030 22/15 Q1014","temp":22,"dewp":15,"wdir":230,"wspd":4,"visib":"6+","altim":1014,"clouds":[{"cover":"SCT","base":3000}],"obsTime":1781373600},"SBTA":{"icaoId":"SBTA","flightCategory":"VFR","rawOb":"METAR SBTA 131800Z 30002KT 9999 SCT045 SCT100 25/16 Q1016","temp":25,"dewp":16,"wdir":300,"wspd":2,"visib":"6+","altim":1016,"clouds":[{"cover":"SCT","base":4500},{"cover":"SCT","base":10000}],"obsTime":1781373600},"SBNM":{"icaoId":"SBNM","flightCategory":"MVFR","rawOb":"METAR SBNM 131800Z 15002KT 9999 BKN020 16/11 Q1017","temp":16,"dewp":11,"wdir":150,"wspd":2,"visib":"6+","altim":1017,"clouds":[{"cover":"BKN","base":2000}],"obsTime":1781373600},"SBJP":{"icaoId":"SBJP","flightCategory":"VFR","rawOb":"METAR SBJP 131800Z 13009KT 9999 SCT030 30/23 Q1014","temp":30,"dewp":23,"wdir":130,"wspd":9,"visib":"6+","altim":1014,"clouds":[{"cover":"SCT","base":3000}],"obsTime":1781373600},"SBIH":{"icaoId":"SBIH","flightCategory":"VFR","rawOb":"METAR SBIH 131800Z 01005KT 9999 SCT020 33/25 Q1012","temp":33,"dewp":25,"wdir":10,"wspd":5,"visib":"6+","altim":1012,"clouds":[{"cover":"SCT","base":2000}],"obsTime":1781373600},"SBTC":{"icaoId":"SBTC","flightCategory":"VFR","rawOb":"METAR SBTC 131800Z 04008KT 9999 FEW030 27/22 Q1016","temp":27,"dewp":22,"wdir":40,"wspd":8,"visib":"6+","altim":1016,"clouds":[{"cover":"FEW","base":3000}],"obsTime":1781373600},"SBAF":{"icaoId":"SBAF","flightCategory":"VFR","rawOb":"METAR SBAF 131800Z 19014KT 9999 FEW015 SCT030 25/23 Q1014","temp":25,"dewp":23,"wdir":190,"wspd":14,"visib":"6+","altim":1014,"clouds":[{"cover":"FEW","base":1500},{"cover":"SCT","base":3000}],"obsTime":1781373600},"SBLE":{"icaoId":"SBLE","flightCategory":"VFR","rawOb":"METAR SBLE 131800Z AUTO 16003KT 090V220 9999 FEW026 OVC034 24/19 Q1019","temp":24,"dewp":19,"wdir":160,"wspd":3,"visib":"6+","altim":1019,"clouds":[{"cover":"FEW","base":2600},{"cover":"OVC","base":3400}],"obsTime":1781373600},"SBGW":{"icaoId":"SBGW","flightCategory":"VFR","rawOb":"METAR SBGW 131800Z VRB01KT 9999 FEW030 SCT100 26/14 Q1016","temp":26,"dewp":14,"wdir":"VRB","wspd":1,"visib":"6+","altim":1016,"clouds":[{"cover":"FEW","base":3000},{"cover":"SCT","base":10000}],"obsTime":1781373600},"SBJR":{"icaoId":"SBJR","flightCategory":"VFR","rawOb":"METAR SBJR 131800Z 21008KT 9999 FEW012 BKN100 26/21 Q1014","temp":26,"dewp":21,"wdir":210,"wspd":8,"visib":"6+","altim":1014,"clouds":[{"cover":"FEW","base":1200},{"cover":"BKN","base":10000}],"obsTime":1781373600},"SBLS":{"icaoId":"SBLS","flightCategory":"VFR","rawOb":"METAR SBLS 131800Z 34005KT 220V030 9999 SCT019 21/17 Q1020","temp":21,"dewp":17,"wdir":340,"wspd":5,"visib":"6+","altim":1020,"clouds":[{"cover":"SCT","base":1900}],"obsTime":1781373600},"SBAN":{"icaoId":"SBAN","flightCategory":"VFR","rawOb":"METAR SBAN 131800Z 03005KT 9999 SCT040 FEW045TCU SCT100 27/18 Q1021","temp":27,"dewp":18,"wdir":30,"wspd":5,"visib":"6+","altim":1021,"clouds":[{"cover":"SCT","base":4000},{"cover":"FEW","base":4500},{"cover":"SCT","base":10000}],"obsTime":1781373600}}}