{"updated":1776599666,"count":81,"data":{"SBRB":{"icaoId":"SBRB","flightCategory":"VFR","rawOb":"METAR SBRB 191000Z 02002KT 9999 SCT004 SCT017 BKN083 23/23 Q1009","temp":23,"dewp":23,"wdir":20,"wspd":2,"visib":"6+","altim":1009,"clouds":[{"cover":"SCT","base":400},{"cover":"SCT","base":1700},{"cover":"BKN","base":8300}],"obsTime":1776592800},"SBCT":{"icaoId":"SBCT","flightCategory":"LIFR","rawOb":"METAR SBCT 191000Z VRB02KT 0250 R33/0200 R15/0300 FG OVC001 15/15 Q1016","temp":15,"dewp":15,"wdir":"VRB","wspd":2,"visib":0.16,"altim":1016,"clouds":[{"cover":"OVC","base":100}],"obsTime":1776592800},"SBBE":{"icaoId":"SBBE","flightCategory":"IFR","rawOb":"METAR SBBE 191000Z 32004KT 9999 BKN006 25/25 Q1009","temp":25,"dewp":25,"wdir":320,"wspd":4,"visib":"6+","altim":1009,"clouds":[{"cover":"BKN","base":600}],"obsTime":1776592800},"SBBR":{"icaoId":"SBBR","flightCategory":"VFR","rawOb":"METAR SBBR 191000Z 00000KT CAVOK 16/15 Q1017","temp":16,"dewp":15,"wdir":0,"wspd":0,"visib":"6+","altim":1017,"clouds":[],"obsTime":1776592800},"SBBV":{"icaoId":"SBBV","flightCategory":"IFR","rawOb":"METAR SBBV 191000Z 36003KT 9999 BKN009 BKN080 25/24 Q1011","temp":25,"dewp":24,"wdir":360,"wspd":3,"visib":"6+","altim":1011,"clouds":[{"cover":"BKN","base":900},{"cover":"BKN","base":8000}],"obsTime":1776592800},"SBCB":{"icaoId":"SBCB","flightCategory":"MVFR","rawOb":"METAR SBCB 191000Z 28012KT 9000 SCT010 BKN025 25/22 Q1011","temp":25,"dewp":22,"wdir":280,"wspd":12,"visib":5.59,"altim":1011,"clouds":[{"cover":"SCT","base":1000},{"cover":"BKN","base":2500}],"obsTime":1776592800},"SBCF":{"icaoId":"SBCF","flightCategory":"MVFR","rawOb":"METAR SBCF 191000Z 25002KT 6000 NSC 17/16 Q1016","temp":17,"dewp":16,"wdir":250,"wspd":2,"visib":3.73,"altim":1016,"clouds":[],"obsTime":1776592800},"SBCG":{"icaoId":"SBCG","flightCategory":"VFR","rawOb":"METAR SBCG 191000Z 06008KT 9999 FEW020 23/21 Q1012","temp":23,"dewp":21,"wdir":60,"wspd":8,"visib":"6+","altim":1012,"clouds":[{"cover":"FEW","base":2000}],"obsTime":1776592800},"SBCP":{"icaoId":"SBCP","flightCategory":"VFR","rawOb":"METAR SBCP 191000Z 29005KT 9999 FEW010 BKN080 24/23 Q1010","temp":24,"dewp":23,"wdir":290,"wspd":5,"visib":"6+","altim":1010,"clouds":[{"cover":"FEW","base":1000},{"cover":"BKN","base":8000}],"obsTime":1776592800},"SBCR":{"icaoId":"SBCR","flightCategory":"VFR","rawOb":"METAR SBCR 191100Z 09003KT 060V120 CAVOK 27/23 Q1009","temp":27,"dewp":23,"wdir":90,"wspd":3,"visib":"6+","altim":1009,"clouds":[],"obsTime":1776596400},"SBEG":{"icaoId":"SBEG","flightCategory":"VFR","rawOb":"METAR SBEG 191000Z 05003KT 9999 FEW007 SCT100 23/23 Q1010","temp":23,"dewp":23,"wdir":50,"wspd":3,"visib":"6+","altim":1010,"clouds":[{"cover":"FEW","base":700},{"cover":"SCT","base":10000}],"obsTime":1776592800},"SBFI":{"icaoId":"SBFI","flightCategory":"VFR","rawOb":"METAR SBFI 191000Z 10010KT CAVOK 19/19 Q1011","temp":19,"dewp":19,"wdir":100,"wspd":10,"visib":"6+","altim":1011,"clouds":[],"obsTime":1776592800},"SBFL":{"icaoId":"SBFL","flightCategory":"VFR","rawOb":"METAR SBFL 191000Z 23002KT CAVOK 17/16 Q1012","temp":17,"dewp":16,"wdir":230,"wspd":2,"visib":"6+","altim":1012,"clouds":[],"obsTime":1776592800},"SBFZ":{"icaoId":"SBFZ","flightCategory":"IFR","rawOb":"METAR SBFZ 191000Z 20005KT 5000 -RA BKN007 FEW025TCU OVC080 24/24 Q1010 RERA","temp":24,"dewp":24,"wdir":200,"wspd":5,"visib":3.11,"altim":1010,"clouds":[{"cover":"BKN","base":700},{"cover":"FEW","base":2500},{"cover":"OVC","base":8000}],"obsTime":1776592800},"SBGL":{"icaoId":"SBGL","flightCategory":"VFR","rawOb":"METAR SBGL 191000Z 31004KT 280V340 9999 FEW020 SCT050 BKN066 25/21 Q1011","temp":25,"dewp":21,"wdir":310,"wspd":4,"visib":"6+","altim":1011,"clouds":[{"cover":"FEW","base":2000},{"cover":"SCT","base":5000},{"cover":"BKN","base":6600}],"obsTime":1776592800},"SBGO":{"icaoId":"SBGO","flightCategory":"VFR","rawOb":"METAR SBGO 191000Z 12002KT CAVOK 20/19 Q1015","temp":20,"dewp":19,"wdir":120,"wspd":2,"visib":"6+","altim":1015,"clouds":[],"obsTime":1776592800},"SBGR":{"icaoId":"SBGR","flightCategory":"VFR","rawOb":"METAR SBGR 191000Z 05001KT 9000 NSC 18/16 Q1016","temp":18,"dewp":16,"wdir":50,"wspd":1,"visib":5.59,"altim":1016,"clouds":[],"obsTime":1776592800},"SBHT":{"icaoId":"SBHT","flightCategory":"VFR","rawOb":"METAR SBHT 191000Z 28008KT 9999 -RA NSC 23/23 Q1011","temp":23,"dewp":23,"wdir":280,"wspd":8,"visib":"6+","altim":1011,"clouds":[],"obsTime":1776592800},"SBIL":{"icaoId":"SBIL","flightCategory":"VFR","rawOb":"METAR SBIL 191000Z VRB01KT 9999 SCT020 SCT050 26/24 Q1011","temp":26,"dewp":24,"wdir":"VRB","wspd":1,"visib":"6+","altim":1011,"clouds":[{"cover":"SCT","base":2000},{"cover":"SCT","base":5000}],"obsTime":1776592800},"SBJU":{"icaoId":"SBJU","flightCategory":"MVFR","rawOb":"METAR SBJU 191000Z 00000KT 9999 SCT010 BKN020 24/23 Q1012","temp":24,"dewp":23,"wdir":0,"wspd":0,"visib":"6+","altim":1012,"clouds":[{"cover":"SCT","base":1000},{"cover":"BKN","base":2000}],"obsTime":1776592800},"SBKP":{"icaoId":"SBKP","flightCategory":"VFR","rawOb":"METAR SBKP 191000Z 12004KT 9000 3000SE NSC 19/17 Q1014","temp":19,"dewp":17,"wdir":120,"wspd":4,"visib":5.59,"altim":1014,"clouds":[],"obsTime":1776592800},"SBLO":{"icaoId":"SBLO","flightCategory":"VFR","rawOb":"METAR SBLO 191000Z 16002KT CAVOK 19/18 Q1014","temp":19,"dewp":18,"wdir":160,"wspd":2,"visib":"6+","altim":1014,"clouds":[],"obsTime":1776592800},"SBMA":{"icaoId":"SBMA","flightCategory":"MVFR","rawOb":"METAR SBMA 191000Z 27003KT 5000 -RA SCT010 OVC070 24/23 Q1011","temp":24,"dewp":23,"wdir":270,"wspd":3,"visib":3.11,"altim":1011,"clouds":[{"cover":"SCT","base":1000},{"cover":"OVC","base":7000}],"obsTime":1776592800},"SBME":{"icaoId":"SBME","flightCategory":"VFR","rawOb":"METAR SBME 191000Z 30003KT 290V360 CAVOK 23/22 Q1010","temp":23,"dewp":22,"wdir":300,"wspd":3,"visib":"6+","altim":1010,"clouds":[],"obsTime":1776592800},"SBMG":{"icaoId":"SBMG","flightCategory":"VFR","rawOb":"METAR SBMG 191000Z 12002KT 9999 1500SW BCFG NSC 20/19 Q1012","temp":20,"dewp":19,"wdir":120,"wspd":2,"visib":"6+","altim":1012,"clouds":[],"obsTime":1776592800},"SBMK":{"icaoId":"SBMK","flightCategory":"VFR","rawOb":"METAR SBMK 191000Z 00000KT CAVOK 18/16 Q1014","temp":18,"dewp":16,"wdir":0,"wspd":0,"visib":"6+","altim":1014,"clouds":[],"obsTime":1776592800},"SBMO":{"icaoId":"SBMO","flightCategory":"VFR","rawOb":"METAR SBMO 191000Z 04003KT 9999 FEW020 25/24 Q1010","temp":25,"dewp":24,"wdir":40,"wspd":3,"visib":"6+","altim":1010,"clouds":[{"cover":"FEW","base":2000}],"obsTime":1776592800},"SBMQ":{"icaoId":"SBMQ","flightCategory":"LIFR","rawOb":"METAR SBMQ 191000Z 09002KT 2000 RA BR BKN004 OVC010 25/25 Q1010","temp":25,"dewp":25,"wdir":90,"wspd":2,"visib":1.24,"altim":1010,"clouds":[{"cover":"BKN","base":400},{"cover":"OVC","base":1000}],"obsTime":1776592800},"SBNT":{"icaoId":"SBNT","flightCategory":"MVFR","rawOb":"METAR SBNT 191000Z 22003KT 190V250 5000 -RA BR SCT009 BKN017 BKN033 24/24 Q1010","temp":24,"dewp":24,"wdir":220,"wspd":3,"visib":3.11,"altim":1010,"clouds":[{"cover":"SCT","base":900},{"cover":"BKN","base":1700},{"cover":"BKN","base":3300}],"obsTime":1776592800},"SBPA":{"icaoId":"SBPA","flightCategory":"VFR","rawOb":"METAR SBPA 191000Z 27004KT CAVOK 16/14 Q1012","temp":16,"dewp":14,"wdir":270,"wspd":4,"visib":"6+","altim":1012,"clouds":[],"obsTime":1776592800},"SBPJ":{"icaoId":"SBPJ","flightCategory":"VFR","rawOb":"METAR SBPJ 191000Z 17004KT 9999 VCSH FEW007 FEW027TCU SCT035 BKN100 24/23 Q1012","temp":24,"dewp":23,"wdir":170,"wspd":4,"visib":"6+","altim":1012,"clouds":[{"cover":"FEW","base":700},{"cover":"FEW","base":2700},{"cover":"SCT","base":3500},{"cover":"BKN","base":10000}],"obsTime":1776592800},"SBPV":{"icaoId":"SBPV","flightCategory":"VFR","rawOb":"METAR SBPV 191000Z 00000KT 9999 FEW030 24/23 Q1009","temp":24,"dewp":23,"wdir":0,"wspd":0,"visib":"6+","altim":1009,"clouds":[{"cover":"FEW","base":3000}],"obsTime":1776592800},"SBAT":{"icaoId":"SBAT","flightCategory":"IFR","rawOb":"METAR SBAT 191100Z 00000KT 8000 -RA BKN005 BKN080 24/24 Q1012","temp":24,"dewp":24,"wdir":0,"wspd":0,"visib":4.97,"altim":1012,"clouds":[{"cover":"BKN","base":500},{"cover":"BKN","base":8000}],"obsTime":1776596400},"SBRF":{"icaoId":"SBRF","flightCategory":"VFR","rawOb":"METAR SBRF 191000Z 22004KT 9999 FEW022 27/24 Q1010","temp":27,"dewp":24,"wdir":220,"wspd":4,"visib":"6+","altim":1010,"clouds":[{"cover":"FEW","base":2200}],"obsTime":1776592800},"SBSG":{"icaoId":"SBSG","flightCategory":"LIFR","rawOb":"METAR SBSG 191000Z 21003KT 170V240 4000 -RA BR BKN003 BKN050 24/24 Q1010","temp":24,"dewp":24,"wdir":210,"wspd":3,"visib":2.49,"altim":1010,"clouds":[{"cover":"BKN","base":300},{"cover":"BKN","base":5000}],"obsTime":1776592800},"SBSL":{"icaoId":"SBSL","flightCategory":"VFR","rawOb":"METAR SBSL 191000Z 36002KT 9999 FEW017 FEW020TCU BKN080 25/24 Q1009 RETS","temp":25,"dewp":24,"wdir":360,"wspd":2,"visib":"6+","altim":1009,"clouds":[{"cover":"FEW","base":1700},{"cover":"FEW","base":2000},{"cover":"BKN","base":8000}],"obsTime":1776592800},"SBSN":{"icaoId":"SBSN","flightCategory":"VFR","rawOb":"METAR SBSN 191000Z 18003KT 9999 SCT013 BKN100 24/23 Q1010","temp":24,"dewp":23,"wdir":180,"wspd":3,"visib":"6+","altim":1010,"clouds":[{"cover":"SCT","base":1300},{"cover":"BKN","base":10000}],"obsTime":1776592800},"SBSP":{"icaoId":"SBSP","flightCategory":"VFR","rawOb":"METAR SBSP 191000Z COR AUTO 15004KT CAVOK 17/16 Q1016","temp":17,"dewp":16,"wdir":150,"wspd":4,"visib":"6+","altim":1016,"clouds":[],"obsTime":1776592800},"SBSV":{"icaoId":"SBSV","flightCategory":"VFR","rawOb":"METAR SBSV 191000Z 28002KT 9999 VCSH SCT020 FEW025TCU SCT050 25/24 Q1011","temp":25,"dewp":24,"wdir":280,"wspd":2,"visib":"6+","altim":1011,"clouds":[{"cover":"SCT","base":2000},{"cover":"FEW","base":2500},{"cover":"SCT","base":5000}],"obsTime":1776592800},"SBTE":{"icaoId":"SBTE","flightCategory":"VFR","rawOb":"METAR SBTE 191000Z 07003KT 9999 SCT016 BKN080 25/23 Q1009","temp":25,"dewp":23,"wdir":70,"wspd":3,"visib":"6+","altim":1009,"clouds":[{"cover":"SCT","base":1600},{"cover":"BKN","base":8000}],"obsTime":1776592800},"SBUL":{"icaoId":"SBUL","flightCategory":"VFR","rawOb":"METAR SBUL 191000Z 07003KT CAVOK 21/15 Q1016","temp":21,"dewp":15,"wdir":70,"wspd":3,"visib":"6+","altim":1016,"clouds":[],"obsTime":1776592800},"SBUR":{"icaoId":"SBUR","flightCategory":"VFR","rawOb":"METAR SBUR 191000Z 03005KT CAVOK 20/16 Q1015","temp":20,"dewp":16,"wdir":30,"wspd":5,"visib":"6+","altim":1015,"clouds":[],"obsTime":1776592800},"SBVT":{"icaoId":"SBVT","flightCategory":"VFR","rawOb":"METAR SBVT 191000Z 34002KT CAVOK 24/22 Q1010","temp":24,"dewp":22,"wdir":340,"wspd":2,"visib":"6+","altim":1010,"clouds":[],"obsTime":1776592800},"SBPP":{"icaoId":"SBPP","flightCategory":"VFR","rawOb":"SPECI SBPP 191115Z 04005KT CAVOK 22/21 Q1014","temp":22,"dewp":21,"wdir":40,"wspd":5,"visib":"6+","altim":1014,"clouds":[],"obsTime":1776597300},"SBTF":{"icaoId":"SBTF","flightCategory":"VFR","rawOb":"SPECI SBTF 191115Z 00000KT 9999 SCT006 OVC100 24/24 Q1011","temp":24,"dewp":24,"wdir":0,"wspd":0,"visib":"6+","altim":1011,"clouds":[{"cover":"SCT","base":600},{"cover":"OVC","base":10000}],"obsTime":1776597300},"SBUY":{"icaoId":"SBUY","flightCategory":"IFR","rawOb":"METAR SBUY 191100Z 35002KT 3000 BR FEW004 SCT018 OVC090 23/22 Q1010 RERA","temp":23,"dewp":22,"wdir":350,"wspd":2,"visib":1.86,"altim":1010,"clouds":[{"cover":"FEW","base":400},{"cover":"SCT","base":1800},{"cover":"OVC","base":9000}],"obsTime":1776596400},"SBBH":{"icaoId":"SBBH","flightCategory":"VFR","rawOb":"METAR SBBH 191000Z 00000KT CAVOK 18/17 Q1015","temp":18,"dewp":17,"wdir":0,"wspd":0,"visib":"6+","altim":1015,"clouds":[],"obsTime":1776592800},"SBTT":{"icaoId":"SBTT","flightCategory":"VFR","rawOb":"METAR SBTT 191100Z 06004KT 9999 FEW010 BKN100 23/21 Q1010","temp":23,"dewp":21,"wdir":60,"wspd":4,"visib":"6+","altim":1010,"clouds":[{"cover":"FEW","base":1000},{"cover":"BKN","base":10000}],"obsTime":1776596400},"SBBU":{"icaoId":"SBBU","flightCategory":"VFR","rawOb":"METAR SBBU 191000Z 12008KT CAVOK 20/19 Q1013","temp":20,"dewp":19,"wdir":120,"wspd":8,"visib":"6+","altim":1013,"clouds":[],"obsTime":1776592800},"SBCA":{"icaoId":"SBCA","flightCategory":"VFR","rawOb":"METAR SBCA 191100Z 04005KT CAVOK 22/14 Q1015","temp":22,"dewp":14,"wdir":40,"wspd":5,"visib":"6+","altim":1015,"clouds":[],"obsTime":1776596400},"SBCC":{"icaoId":"SBCC","flightCategory":"LIFR","rawOb":"METAR SBCC 191100Z 35006KT 0800 R12/1000D FG OVC006 22/22 Q1013","temp":22,"dewp":22,"wdir":350,"wspd":6,"visib":0.5,"altim":1013,"clouds":[{"cover":"OVC","base":600}],"obsTime":1776596400},"SBAR":{"icaoId":"SBAR","flightCategory":"VFR","rawOb":"METAR SBAR 191000Z 30005KT 9999 VCSH SCT020 26/25 Q1010","temp":26,"dewp":25,"wdir":300,"wspd":5,"visib":"6+","altim":1010,"clouds":[{"cover":"SCT","base":2000}],"obsTime":1776592800},"SBCJ":{"icaoId":"SBCJ","flightCategory":"VFR","rawOb":"SPECI SBCJ 191015Z 00000KT 9000 SCT009 BKN080 22/21 Q1014","temp":22,"dewp":21,"wdir":0,"wspd":0,"visib":5.59,"altim":1014,"clouds":[{"cover":"SCT","base":900},{"cover":"BKN","base":8000}],"obsTime":1776593700},"SBCO":{"icaoId":"SBCO","flightCategory":"VFR","rawOb":"METAR SBCO 191000Z 29002KT CAVOK 14/14 Q1012","temp":14,"dewp":14,"wdir":290,"wspd":2,"visib":"6+","altim":1012,"clouds":[],"obsTime":1776592800},"SBSR":{"icaoId":"SBSR","flightCategory":"VFR","rawOb":"METAR SBSR 191000Z 00000KT CAVOK 22/19 Q1013","temp":22,"dewp":19,"wdir":0,"wspd":0,"visib":"6+","altim":1013,"clouds":[],"obsTime":1776592800},"SBDN":{"icaoId":"SBDN","flightCategory":"VFR","rawOb":"METAR SBDN 191000Z 08003KT CAVOK 21/19 Q1012","temp":21,"dewp":19,"wdir":80,"wspd":3,"visib":"6+","altim":1012,"clouds":[],"obsTime":1776592800},"SBSM":{"icaoId":"SBSM","flightCategory":"VFR","rawOb":"METAR SBSM 191000Z 00000KT CAVOK 12/12 Q1012","temp":12,"dewp":12,"wdir":0,"wspd":0,"visib":"6+","altim":1012,"clouds":[],"obsTime":1776592800},"SBSJ":{"icaoId":"SBSJ","flightCategory":"IFR","rawOb":"METAR SBSJ 191000Z 15002KT 3000 1000W BCFG NSC 17/16 Q1015","temp":17,"dewp":16,"wdir":150,"wspd":2,"visib":1.86,"altim":1015,"clouds":[],"obsTime":1776592800},"SBES":{"icaoId":"SBES","flightCategory":"VFR","rawOb":"METAR SBES 191000Z VRB03KT 9999 FEW020 21/// Q1011","temp":null,"dewp":null,"wdir":"VRB","wspd":3,"visib":"6+","altim":1011,"clouds":[{"cover":"FEW","base":2000}],"obsTime":1776592800},"SBIP":{"icaoId":"SBIP","flightCategory":"LIFR","rawOb":"METAR SBIP 191000Z AUTO VRB01KT 2700 BR BKN002 20/20 Q1013","temp":20,"dewp":20,"wdir":"VRB","wspd":1,"visib":1.68,"altim":1013,"clouds":[{"cover":"BKN","base":200}],"obsTime":1776592800},"SBSC":{"icaoId":"SBSC","flightCategory":"MVFR","rawOb":"METAR SBSC 191000Z 02002KT 5000 BR FEW010 SCT020 BKN040 23/21 Q1011","temp":23,"dewp":21,"wdir":20,"wspd":2,"visib":3.11,"altim":1011,"clouds":[{"cover":"FEW","base":1000},{"cover":"SCT","base":2000},{"cover":"BKN","base":4000}],"obsTime":1776592800},"SBPS":{"icaoId":"SBPS","flightCategory":"VFR","rawOb":"METAR SBPS 191000Z 26003KT 9999 SCT020 24/22 Q1011","temp":24,"dewp":22,"wdir":260,"wspd":3,"visib":"6+","altim":1011,"clouds":[{"cover":"SCT","base":2000}],"obsTime":1776592800},"SBKG":{"icaoId":"SBKG","flightCategory":"MVFR","rawOb":"METAR SBKG 191000Z 13002KT 9999 BKN012 24/23 Q1013","temp":24,"dewp":23,"wdir":130,"wspd":2,"visib":"6+","altim":1013,"clouds":[{"cover":"BKN","base":1200}],"obsTime":1776592800},"SBOI":{"icaoId":"SBOI","flightCategory":"VFR","rawOb":"METAR SBOI 191100Z AUTO VRB01KT 9999 SCT025 SCT047 25/24 Q1010","temp":25,"dewp":24,"wdir":"VRB","wspd":1,"visib":"6+","altim":1010,"clouds":[{"cover":"SCT","base":2500},{"cover":"SCT","base":4700}],"obsTime":1776596400},"SBVH":{"icaoId":"SBVH","flightCategory":"LIFR","rawOb":"METAR SBVH 191100Z 32007KT 8000 BKN003 BKN080 21/21 Q1013","temp":21,"dewp":21,"wdir":320,"wspd":7,"visib":4.97,"altim":1013,"clouds":[{"cover":"BKN","base":300},{"cover":"BKN","base":8000}],"obsTime":1776596400},"SBPL":{"icaoId":"SBPL","flightCategory":"VFR","rawOb":"METAR SBPL 191000Z 14005KT 9999 SCT022 24/21 Q1012","temp":24,"dewp":21,"wdir":140,"wspd":5,"visib":"6+","altim":1012,"clouds":[{"cover":"SCT","base":2200}],"obsTime":1776592800},"SBPB":{"icaoId":"SBPB","flightCategory":"VFR","rawOb":"SPECI SBPB 191015Z 11006KT 9999 SCT018 BKN070 26/24 Q1010","temp":26,"dewp":24,"wdir":110,"wspd":6,"visib":"6+","altim":1010,"clouds":[{"cover":"SCT","base":1800},{"cover":"BKN","base":7000}],"obsTime":1776593700},"SBAX":{"icaoId":"SBAX","flightCategory":"VFR","rawOb":"METAR SBAX 191000Z AUTO 09001KT CAVOK 19/16 Q1016","temp":19,"dewp":16,"wdir":90,"wspd":1,"visib":"6+","altim":1016,"clouds":[],"obsTime":1776592800},"SBJP":{"icaoId":"SBJP","flightCategory":"MVFR","rawOb":"METAR SBJP 191000Z 26004KT 9999 BKN020 25/25 Q1011","temp":25,"dewp":25,"wdir":260,"wspd":4,"visib":"6+","altim":1011,"clouds":[{"cover":"BKN","base":2000}],"obsTime":1776592800},"SBLE":{"icaoId":"SBLE","flightCategory":"VFR","rawOb":"METAR SBLE 191000Z AUTO VRB02KT 9999 -RA FEW028 BKN036 OVC044 ///// Q////","temp":null,"dewp":null,"wdir":"VRB","wspd":2,"visib":"6+","altim":null,"clouds":[{"cover":"FEW","base":2800},{"cover":"BKN","base":3600},{"cover":"OVC","base":4400}],"obsTime":1776592800},"SBIH":{"icaoId":"SBIH","flightCategory":"VFR","rawOb":"METAR SBIH 191100Z 00000KT 9999 FEW010 25/23 Q1011","temp":25,"dewp":23,"wdir":0,"wspd":0,"visib":"6+","altim":1011,"clouds":[{"cover":"FEW","base":1000}],"obsTime":1776596400},"SBAF":{"icaoId":"SBAF","flightCategory":"VFR","rawOb":"METAR SBAF 191000Z 00000KT 9999 FEW030 BKN050 23/23 Q1011","temp":23,"dewp":23,"wdir":0,"wspd":0,"visib":"6+","altim":1011,"clouds":[{"cover":"FEW","base":3000},{"cover":"BKN","base":5000}],"obsTime":1776592800},"SBGW":{"icaoId":"SBGW","flightCategory":"MVFR","rawOb":"METAR SBGW 191000Z 00000KT 8000 FEW015 BKN040 20/16 Q1014","temp":20,"dewp":16,"wdir":0,"wspd":0,"visib":4.97,"altim":1014,"clouds":[{"cover":"FEW","base":1500},{"cover":"BKN","base":4000}],"obsTime":1776592800},"SBJR":{"icaoId":"SBJR","flightCategory":"VFR","rawOb":"METAR SBJR 191000Z 24001KT 9999 FEW020 SCT050 24/22 Q1011","temp":24,"dewp":22,"wdir":240,"wspd":1,"visib":"6+","altim":1011,"clouds":[{"cover":"FEW","base":2000},{"cover":"SCT","base":5000}],"obsTime":1776592800},"SBLS":{"icaoId":"SBLS","flightCategory":"VFR","rawOb":"METAR SBLS 191000Z 19004KT CAVOK 18/16 Q1015","temp":18,"dewp":16,"wdir":190,"wspd":4,"visib":"6+","altim":1015,"clouds":[],"obsTime":1776592800},"SBMT":{"icaoId":"SBMT","flightCategory":"VFR","rawOb":"METAR SBMT 191000Z 00000KT CAVOK 16/15 Q1015","temp":16,"dewp":15,"wdir":0,"wspd":0,"visib":"6+","altim":1015,"clouds":[],"obsTime":1776592800},"SBTA":{"icaoId":"SBTA","flightCategory":"IFR","rawOb":"METAR SBTA 191000Z VRB02KT 4000 1500E BR NSC 18/18 Q1014","temp":18,"dewp":18,"wdir":"VRB","wspd":2,"visib":2.49,"altim":1014,"clouds":[],"obsTime":1776592800},"SBST":{"icaoId":"SBST","flightCategory":"VFR","rawOb":"METAR SBST 191100Z 00000KT 9999 SCT016 22/22 Q1013","temp":22,"dewp":22,"wdir":0,"wspd":0,"visib":"6+","altim":1013,"clouds":[{"cover":"SCT","base":1600}],"obsTime":1776596400},"SBAN":{"icaoId":"SBAN","flightCategory":"VFR","rawOb":"METAR SBAN 191000Z 00000KT CAVOK 18/17 Q1017","temp":18,"dewp":17,"wdir":0,"wspd":0,"visib":"6+","altim":1017,"clouds":[],"obsTime":1776592800},"SBJV":{"icaoId":"SBJV","flightCategory":"VFR","rawOb":"METAR SBJV 191000Z 30001KT 9999 FEW040 20/20 Q1012","temp":20,"dewp":20,"wdir":300,"wspd":1,"visib":"6+","altim":1012,"clouds":[{"cover":"FEW","base":4000}],"obsTime":1776592800},"SBPF":{"icaoId":"SBPF","flightCategory":"VFR","rawOb":"METAR SBPF 191000Z 05010KT CAVOK 15/12 Q1015","temp":15,"dewp":12,"wdir":50,"wspd":10,"visib":"6+","altim":1015,"clouds":[],"obsTime":1776592800}}}