{"updated":1779753213,"count":74,"data":{"SBBE":{"icaoId":"SBBE","flightCategory":"VFR","rawOb":"METAR SBBE 252200Z 36003KT 9999 SCT034 SCT100 28/25 Q1012","temp":28,"dewp":25,"wdir":360,"wspd":3,"visib":"6+","altim":1012,"clouds":[{"cover":"SCT","base":3400},{"cover":"SCT","base":10000}],"obsTime":1779746400},"SBBR":{"icaoId":"SBBR","flightCategory":"VFR","rawOb":"METAR SBBR 252200Z 13006KT CAVOK 24/15 Q1022","temp":24,"dewp":15,"wdir":130,"wspd":6,"visib":"6+","altim":1022,"clouds":[],"obsTime":1779746400},"SBRB":{"icaoId":"SBRB","flightCategory":"VFR","rawOb":"METAR SBRB 252200Z 00000KT 9999 SCT035 29/22 Q1013","temp":29,"dewp":22,"wdir":0,"wspd":0,"visib":"6+","altim":1013,"clouds":[{"cover":"SCT","base":3500}],"obsTime":1779746400},"SBBV":{"icaoId":"SBBV","flightCategory":"VFR","rawOb":"METAR SBBV 252200Z 14005KT 9999 FEW020 FEW030TCU SCT080 28/23 Q1011","temp":28,"dewp":23,"wdir":140,"wspd":5,"visib":"6+","altim":1011,"clouds":[{"cover":"FEW","base":2000},{"cover":"FEW","base":3000},{"cover":"SCT","base":8000}],"obsTime":1779746400},"SBCF":{"icaoId":"SBCF","flightCategory":"VFR","rawOb":"METAR SBCF 252200Z 15007KT CAVOK 22/17 Q1023","temp":22,"dewp":17,"wdir":150,"wspd":7,"visib":"6+","altim":1023,"clouds":[],"obsTime":1779746400},"SBCG":{"icaoId":"SBCG","flightCategory":"VFR","rawOb":"METAR SBCG 252200Z 15006KT 9999 FEW045 SCT090 24/18 Q1018","temp":24,"dewp":18,"wdir":150,"wspd":6,"visib":"6+","altim":1018,"clouds":[{"cover":"FEW","base":4500},{"cover":"SCT","base":9000}],"obsTime":1779746400},"SBCT":{"icaoId":"SBCT","flightCategory":"MVFR","rawOb":"METAR SBCT 252200Z 08005KT 9999 BKN013 15/15 Q1024","temp":15,"dewp":15,"wdir":80,"wspd":5,"visib":"6+","altim":1024,"clouds":[{"cover":"BKN","base":1300}],"obsTime":1779746400},"SBCZ":{"icaoId":"SBCZ","flightCategory":"VFR","rawOb":"METAR SBCZ 252200Z 34002KT 9999 SCT030 SCT100 27/23 Q1013","temp":27,"dewp":23,"wdir":340,"wspd":2,"visib":"6+","altim":1013,"clouds":[{"cover":"SCT","base":3000},{"cover":"SCT","base":10000}],"obsTime":1779746400},"SBEG":{"icaoId":"SBEG","flightCategory":"VFR","rawOb":"METAR SBEG 252200Z 10003KT 9999 SCT025 FEW030TCU SCT090 26/23 Q1011","temp":26,"dewp":23,"wdir":100,"wspd":3,"visib":"6+","altim":1011,"clouds":[{"cover":"SCT","base":2500},{"cover":"FEW","base":3000},{"cover":"SCT","base":9000}],"obsTime":1779746400},"SBFI":{"icaoId":"SBFI","flightCategory":"VFR","rawOb":"METAR SBFI 252200Z 03004KT 9999 FEW030 SCT100 23/20 Q1016","temp":23,"dewp":20,"wdir":30,"wspd":4,"visib":"6+","altim":1016,"clouds":[{"cover":"FEW","base":3000},{"cover":"SCT","base":10000}],"obsTime":1779746400},"SBFL":{"icaoId":"SBFL","flightCategory":"VFR","rawOb":"METAR SBFL 252200Z 36003KT 9999 -RA SCT026 OVC050 19/17 Q1022","temp":19,"dewp":17,"wdir":360,"wspd":3,"visib":"6+","altim":1022,"clouds":[{"cover":"SCT","base":2600},{"cover":"OVC","base":5000}],"obsTime":1779746400},"SBFZ":{"icaoId":"SBFZ","flightCategory":"VFR","rawOb":"METAR SBFZ 252200Z 10009KT CAVOK 28/22 Q1012","temp":28,"dewp":22,"wdir":100,"wspd":9,"visib":"6+","altim":1012,"clouds":[],"obsTime":1779746400},"SBGL":{"icaoId":"SBGL","flightCategory":"MVFR","rawOb":"METAR SBGL 252200Z 33002KT 8000 BKN018 SCT035TCU 23/19 Q1021","temp":23,"dewp":19,"wdir":330,"wspd":2,"visib":4.97,"altim":1021,"clouds":[{"cover":"BKN","base":1800},{"cover":"SCT","base":3500}],"obsTime":1779746400},"SBGO":{"icaoId":"SBGO","flightCategory":"VFR","rawOb":"METAR SBGO 252200Z 14005KT 9999 FEW048 26/17 Q1019","temp":26,"dewp":17,"wdir":140,"wspd":5,"visib":"6+","altim":1019,"clouds":[{"cover":"FEW","base":4800}],"obsTime":1779746400},"SBGR":{"icaoId":"SBGR","flightCategory":"MVFR","rawOb":"METAR SBGR 252200Z 12006KT 090V150 9999 BKN021 18/17 Q1024","temp":18,"dewp":17,"wdir":120,"wspd":6,"visib":"6+","altim":1024,"clouds":[{"cover":"BKN","base":2100}],"obsTime":1779746400},"SBIL":{"icaoId":"SBIL","flightCategory":"VFR","rawOb":"METAR SBIL 252200Z 23004KT 9999 SCT020 BKN070 25/23 Q1018","temp":25,"dewp":23,"wdir":230,"wspd":4,"visib":"6+","altim":1018,"clouds":[{"cover":"SCT","base":2000},{"cover":"BKN","base":7000}],"obsTime":1779746400},"SBJU":{"icaoId":"SBJU","flightCategory":"MVFR","rawOb":"METAR SBJU 252200Z 18005KT 9999 BKN022 25/18 Q1016","temp":25,"dewp":18,"wdir":180,"wspd":5,"visib":"6+","altim":1016,"clouds":[{"cover":"BKN","base":2200}],"obsTime":1779746400},"SBKP":{"icaoId":"SBKP","flightCategory":"VFR","rawOb":"METAR SBKP 252200Z 13005KT CAVOK 21/18 Q1022","temp":21,"dewp":18,"wdir":130,"wspd":5,"visib":"6+","altim":1022,"clouds":[],"obsTime":1779746400},"SBLO":{"icaoId":"SBLO","flightCategory":"VFR","rawOb":"METAR SBLO 252200Z 05003KT 9999 FEW040 21/19 Q1020","temp":21,"dewp":19,"wdir":50,"wspd":3,"visib":"6+","altim":1020,"clouds":[{"cover":"FEW","base":4000}],"obsTime":1779746400},"SBMA":{"icaoId":"SBMA","flightCategory":"VFR","rawOb":"METAR SBMA 252200Z 08002KT 9999 FEW020 30/21 Q1012","temp":30,"dewp":21,"wdir":80,"wspd":2,"visib":"6+","altim":1012,"clouds":[{"cover":"FEW","base":2000}],"obsTime":1779746400},"SBME":{"icaoId":"SBME","flightCategory":"VFR","rawOb":"METAR SBME 252200Z 27002KT 9999 SCT030 OVC080 23/20 Q1021","temp":23,"dewp":20,"wdir":270,"wspd":2,"visib":"6+","altim":1021,"clouds":[{"cover":"SCT","base":3000},{"cover":"OVC","base":8000}],"obsTime":1779746400},"SBMG":{"icaoId":"SBMG","flightCategory":"VFR","rawOb":"METAR SBMG 252200Z 05007KT CAVOK 22/19 Q1019","temp":22,"dewp":19,"wdir":50,"wspd":7,"visib":"6+","altim":1019,"clouds":[],"obsTime":1779746400},"SBMK":{"icaoId":"SBMK","flightCategory":"VFR","rawOb":"METAR SBMK 252200Z 12007KT CAVOK 25/14 Q1020","temp":25,"dewp":14,"wdir":120,"wspd":7,"visib":"6+","altim":1020,"clouds":[],"obsTime":1779746400},"SBMO":{"icaoId":"SBMO","flightCategory":"VFR","rawOb":"METAR SBMO 252200Z 15003KT 120V180 CAVOK 26/22 Q1016","temp":26,"dewp":22,"wdir":150,"wspd":3,"visib":"6+","altim":1016,"clouds":[],"obsTime":1779746400},"SBMQ":{"icaoId":"SBMQ","flightCategory":"VFR","rawOb":"METAR SBMQ 252200Z 01005KT 9999 FEW023 27/25 Q1012","temp":27,"dewp":25,"wdir":10,"wspd":5,"visib":"6+","altim":1012,"clouds":[{"cover":"FEW","base":2300}],"obsTime":1779746400},"SBNT":{"icaoId":"SBNT","flightCategory":"VFR","rawOb":"METAR SBNT 252200Z 15007KT 9999 FEW020 26/23 Q1014","temp":26,"dewp":23,"wdir":150,"wspd":7,"visib":"6+","altim":1014,"clouds":[{"cover":"FEW","base":2000}],"obsTime":1779746400},"SBPA":{"icaoId":"SBPA","flightCategory":"VFR","rawOb":"METAR SBPA 252200Z 11005KT 9000 -RA BKN039 FEW045TCU BKN087 18/17 Q1019","temp":18,"dewp":17,"wdir":110,"wspd":5,"visib":5.59,"altim":1019,"clouds":[{"cover":"BKN","base":3900},{"cover":"FEW","base":4500},{"cover":"BKN","base":8700}],"obsTime":1779746400},"SBPJ":{"icaoId":"SBPJ","flightCategory":"VFR","rawOb":"METAR SBPJ 252200Z 17006KT 9999 FEW035 30/21 Q1014","temp":30,"dewp":21,"wdir":170,"wspd":6,"visib":"6+","altim":1014,"clouds":[{"cover":"FEW","base":3500}],"obsTime":1779746400},"SBPV":{"icaoId":"SBPV","flightCategory":"VFR","rawOb":"METAR SBPV 252200Z 08003KT CAVOK 30/22 Q1011","temp":30,"dewp":22,"wdir":80,"wspd":3,"visib":"6+","altim":1011,"clouds":[],"obsTime":1779746400},"SBRF":{"icaoId":"SBRF","flightCategory":"VFR","rawOb":"METAR SBRF 252200Z 14010KT 9999 SCT023 SCT060 26/24 Q1015","temp":26,"dewp":24,"wdir":140,"wspd":10,"visib":"6+","altim":1015,"clouds":[{"cover":"SCT","base":2300},{"cover":"SCT","base":6000}],"obsTime":1779746400},"SBSG":{"icaoId":"SBSG","flightCategory":"VFR","rawOb":"METAR SBSG 252200Z 15003KT 110V190 9999 SCT020 25/23 Q1014","temp":25,"dewp":23,"wdir":150,"wspd":3,"visib":"6+","altim":1014,"clouds":[{"cover":"SCT","base":2000}],"obsTime":1779746400},"SBSL":{"icaoId":"SBSL","flightCategory":"VFR","rawOb":"METAR SBSL 252200Z 06004KT 9999 SCT020 BKN070 27/24 Q1012","temp":27,"dewp":24,"wdir":60,"wspd":4,"visib":"6+","altim":1012,"clouds":[{"cover":"SCT","base":2000},{"cover":"BKN","base":7000}],"obsTime":1779746400},"SBSN":{"icaoId":"SBSN","flightCategory":"VFR","rawOb":"METAR SBSN 252200Z 07007KT 9999 FEW040TCU SCT100 28/25 Q1011","temp":28,"dewp":25,"wdir":70,"wspd":7,"visib":"6+","altim":1011,"clouds":[{"cover":"FEW","base":4000},{"cover":"SCT","base":10000}],"obsTime":1779746400},"SBSP":{"icaoId":"SBSP","flightCategory":"IFR","rawOb":"METAR SBSP 252200Z 16007KT 9000 OVC005 17/16 Q1025","temp":17,"dewp":16,"wdir":160,"wspd":7,"visib":5.59,"altim":1025,"clouds":[{"cover":"OVC","base":500}],"obsTime":1779746400},"SBSV":{"icaoId":"SBSV","flightCategory":"VFR","rawOb":"METAR SBSV 252200Z 18009KT 9999 SCT023 FEW025TCU SCT050 26/22 Q1017","temp":26,"dewp":22,"wdir":180,"wspd":9,"visib":"6+","altim":1017,"clouds":[{"cover":"SCT","base":2300},{"cover":"FEW","base":2500},{"cover":"SCT","base":5000}],"obsTime":1779746400},"SBTE":{"icaoId":"SBTE","flightCategory":"VFR","rawOb":"METAR SBTE 252200Z 33002KT CAVOK 29/21 Q1012","temp":29,"dewp":21,"wdir":330,"wspd":2,"visib":"6+","altim":1012,"clouds":[],"obsTime":1779746400},"SBUL":{"icaoId":"SBUL","flightCategory":"VFR","rawOb":"METAR SBUL 252200Z 08002GP99KT CAVOK 24/14 Q1022","temp":24,"dewp":14,"wdir":null,"wspd":null,"visib":"6+","altim":1022,"clouds":[],"obsTime":1779746400},"SBUR":{"icaoId":"SBUR","flightCategory":"VFR","rawOb":"METAR SBUR 252200Z 15006KT CAVOK 24/16 Q1021","temp":24,"dewp":16,"wdir":150,"wspd":6,"visib":"6+","altim":1021,"clouds":[],"obsTime":1779746400},"SBVT":{"icaoId":"SBVT","flightCategory":"VFR","rawOb":"METAR SBVT 252200Z 19003KT 9999 FEW030 22/19 Q1020","temp":22,"dewp":19,"wdir":190,"wspd":3,"visib":"6+","altim":1020,"clouds":[{"cover":"FEW","base":3000}],"obsTime":1779746400},"SBCP":{"icaoId":"SBCP","flightCategory":"VFR","rawOb":"METAR SBCP 252200Z 20006KT CAVOK 23/22 Q1021","temp":23,"dewp":22,"wdir":200,"wspd":6,"visib":"6+","altim":1021,"clouds":[],"obsTime":1779746400},"SBBQ":{"icaoId":"SBBQ","flightCategory":"VFR","rawOb":"SPECI SBBQ 252305Z VRB01KT CAVOK 16/16 Q1027","temp":16,"dewp":16,"wdir":"VRB","wspd":1,"visib":"6+","altim":1027,"clouds":[],"obsTime":1779750300},"SBAR":{"icaoId":"SBAR","flightCategory":"VFR","rawOb":"METAR SBAR 252200Z 19004KT 9999 FEW020 25/22 Q1016","temp":25,"dewp":22,"wdir":190,"wspd":4,"visib":"6+","altim":1016,"clouds":[{"cover":"FEW","base":2000}],"obsTime":1779746400},"SBAX":{"icaoId":"SBAX","flightCategory":"VFR","rawOb":"METAR SBAX 252200Z 13007KT 9999 SCT045 23/17 Q1023","temp":23,"dewp":17,"wdir":130,"wspd":7,"visib":"6+","altim":1023,"clouds":[{"cover":"SCT","base":4500}],"obsTime":1779746400},"SBBH":{"icaoId":"SBBH","flightCategory":"VFR","rawOb":"METAR SBBH 252200Z 11007KT CAVOK 22/17 Q1023","temp":22,"dewp":17,"wdir":110,"wspd":7,"visib":"6+","altim":1023,"clouds":[],"obsTime":1779746400},"SBBU":{"icaoId":"SBBU","flightCategory":"VFR","rawOb":"METAR SBBU 252200Z 10007KT CAVOK 22/19 Q1021","temp":22,"dewp":19,"wdir":100,"wspd":7,"visib":"6+","altim":1021,"clouds":[],"obsTime":1779746400},"SBCO":{"icaoId":"SBCO","flightCategory":"MVFR","rawOb":"METAR SBCO 252200Z 11004KT 080V150 7000 -RA FEW006 FEW030TCU SCT040 BKN090 17/16 Q1019","temp":17,"dewp":16,"wdir":110,"wspd":4,"visib":4.35,"altim":1019,"clouds":[{"cover":"FEW","base":600},{"cover":"FEW","base":3000},{"cover":"SCT","base":4000},{"cover":"BKN","base":9000}],"obsTime":1779746400},"SBDN":{"icaoId":"SBDN","flightCategory":"VFR","rawOb":"METAR SBDN 252200Z 12005KT CAVOK 22/19 Q1019","temp":22,"dewp":19,"wdir":120,"wspd":5,"visib":"6+","altim":1019,"clouds":[],"obsTime":1779746400},"SBES":{"icaoId":"SBES","flightCategory":"VFR","rawOb":"METAR SBES 252200Z VRB06KT 9999 SCT009 22/// Q1021","temp":null,"dewp":null,"wdir":"VRB","wspd":6,"visib":"6+","altim":1021,"clouds":[{"cover":"SCT","base":900}],"obsTime":1779746400},"SBIP":{"icaoId":"SBIP","flightCategory":"VFR","rawOb":"METAR SBIP 252200Z AUTO VRB01KT CAVOK 19/19 Q1020","temp":19,"dewp":19,"wdir":"VRB","wspd":1,"visib":"6+","altim":1020,"clouds":[],"obsTime":1779746400},"SBKG":{"icaoId":"SBKG","flightCategory":"VFR","rawOb":"METAR SBKG 252200Z 10006KT 9999 FEW017 23/21 Q1017","temp":23,"dewp":21,"wdir":100,"wspd":6,"visib":"6+","altim":1017,"clouds":[{"cover":"FEW","base":1700}],"obsTime":1779746400},"SBOI":{"icaoId":"SBOI","flightCategory":"VFR","rawOb":"METAR SBOI 252200Z AUTO VRB02KT CAVOK 25/24 Q1013","temp":25,"dewp":24,"wdir":"VRB","wspd":2,"visib":"6+","altim":1013,"clouds":[],"obsTime":1779746400},"SBPL":{"icaoId":"SBPL","flightCategory":"VFR","rawOb":"METAR SBPL 252200Z 10008KT CAVOK 28/14 Q1016","temp":28,"dewp":14,"wdir":100,"wspd":8,"visib":"6+","altim":1016,"clouds":[],"obsTime":1779746400},"SBPS":{"icaoId":"SBPS","flightCategory":"MVFR","rawOb":"METAR SBPS 252200Z VRB02KT 6000 -RA BKN015 BKN050 23/22 Q1019","temp":23,"dewp":22,"wdir":"VRB","wspd":2,"visib":3.73,"altim":1019,"clouds":[{"cover":"BKN","base":1500},{"cover":"BKN","base":5000}],"obsTime":1779746400},"SBSC":{"icaoId":"SBSC","flightCategory":"MVFR","rawOb":"METAR SBSC 252200Z 28002KT 8000 SCT017 BKN030 BKN070 21/20 Q1022","temp":21,"dewp":20,"wdir":280,"wspd":2,"visib":4.97,"altim":1022,"clouds":[{"cover":"SCT","base":1700},{"cover":"BKN","base":3000},{"cover":"BKN","base":7000}],"obsTime":1779746400},"SBSJ":{"icaoId":"SBSJ","flightCategory":"MVFR","rawOb":"METAR SBSJ 252200Z 13005KT 7000 OVC021 19/17 Q1024","temp":19,"dewp":17,"wdir":130,"wspd":5,"visib":4.35,"altim":1024,"clouds":[{"cover":"OVC","base":2100}],"obsTime":1779746400},"SBSM":{"icaoId":"SBSM","flightCategory":"IFR","rawOb":"METAR SBSM 252200Z 27007KT 2000 +TSRA SCT009 OVC015 //////CB 15/15 Q1019 RERA RETS","temp":15,"dewp":15,"wdir":270,"wspd":7,"visib":1.24,"altim":1019,"clouds":[{"cover":"SCT","base":900},{"cover":"OVC","base":1500}],"obsTime":1779746400},"SBSR":{"icaoId":"SBSR","flightCategory":"VFR","rawOb":"METAR SBSR 252200Z 12003KT CAVOK 26/16 Q1019","temp":26,"dewp":16,"wdir":120,"wspd":3,"visib":"6+","altim":1019,"clouds":[],"obsTime":1779746400},"SBTT":{"icaoId":"SBTT","flightCategory":"VFR","rawOb":"METAR SBTT 252200Z 35004KT 9999 FEW030 BKN080 27/22 Q1012","temp":27,"dewp":22,"wdir":350,"wspd":4,"visib":"6+","altim":1012,"clouds":[{"cover":"FEW","base":3000},{"cover":"BKN","base":8000}],"obsTime":1779746400},"SBTU":{"icaoId":"SBTU","flightCategory":"VFR","rawOb":"METAR SBTU 252200Z AUTO VRB02KT 9999 // OVC093/// 26/25 Q1014","temp":26,"dewp":25,"wdir":"VRB","wspd":2,"visib":"6+","altim":1014,"clouds":[{"cover":"OVC","base":9300}],"obsTime":1779746400},"SBVH":{"icaoId":"SBVH","flightCategory":"VFR","rawOb":"METAR SBVH 252200Z 10005KT CAVOK 24/19 Q1016","temp":24,"dewp":19,"wdir":100,"wspd":5,"visib":"6+","altim":1016,"clouds":[],"obsTime":1779746400},"SBTF":{"icaoId":"SBTF","flightCategory":"VFR","rawOb":"METAR SBTF 252200Z 22004KT 9999 SCT010 BKN080 25/25 Q1011","temp":25,"dewp":25,"wdir":220,"wspd":4,"visib":"6+","altim":1011,"clouds":[{"cover":"SCT","base":1000},{"cover":"BKN","base":8000}],"obsTime":1779746400},"SBCA":{"icaoId":"SBCA","flightCategory":"VFR","rawOb":"METAR SBCA 252200Z 03007KT 9999 FEW030 21/18 Q1020","temp":21,"dewp":18,"wdir":30,"wspd":7,"visib":"6+","altim":1020,"clouds":[{"cover":"FEW","base":3000}],"obsTime":1779746400},"SBUY":{"icaoId":"SBUY","flightCategory":"VFR","rawOb":"METAR SBUY 252200Z 00000KT 9999 FEW015 SCT090 24/23 Q1011","temp":24,"dewp":23,"wdir":0,"wspd":0,"visib":"6+","altim":1011,"clouds":[{"cover":"FEW","base":1500},{"cover":"SCT","base":9000}],"obsTime":1779746400},"SBNM":{"icaoId":"SBNM","flightCategory":"LIFR","rawOb":"METAR SBNM 252200Z AUTO 16005KT 120V180 1100 BR VV002 17/17 Q1018","temp":17,"dewp":17,"wdir":160,"wspd":5,"visib":0.68,"altim":1018,"clouds":[{"cover":"OVX","base":200}],"obsTime":1779746400},"SBJP":{"icaoId":"SBJP","flightCategory":"VFR","rawOb":"METAR SBJP 252200Z 16005KT 9999 FEW020 25/23 Q1015","temp":25,"dewp":23,"wdir":160,"wspd":5,"visib":"6+","altim":1015,"clouds":[{"cover":"FEW","base":2000}],"obsTime":1779746400},"SBTA":{"icaoId":"SBTA","flightCategory":"MVFR","rawOb":"METAR SBTA 252200Z 18005KT 150V210 9999 BKN030 BKN090 20/20 Q1022","temp":20,"dewp":20,"wdir":180,"wspd":5,"visib":"6+","altim":1022,"clouds":[{"cover":"BKN","base":3000},{"cover":"BKN","base":9000}],"obsTime":1779746400},"SBLE":{"icaoId":"SBLE","flightCategory":"VFR","rawOb":"METAR SBLE 252200Z AUTO 00000KT CAVOK ///// Q////","temp":null,"dewp":null,"wdir":0,"wspd":0,"visib":"6+","altim":null,"clouds":[],"obsTime":1779746400},"SBAN":{"icaoId":"SBAN","flightCategory":"VFR","rawOb":"METAR SBAN 252200Z 20005KT CAVOK 22/15 Q1022","temp":22,"dewp":15,"wdir":200,"wspd":5,"visib":"6+","altim":1022,"clouds":[],"obsTime":1779746400},"SBJV":{"icaoId":"SBJV","flightCategory":"MVFR","rawOb":"METAR SBJV 252200Z 27003KT 8000 FEW005 SCT013 BKN030 19/18 Q1022","temp":19,"dewp":18,"wdir":270,"wspd":3,"visib":4.97,"altim":1022,"clouds":[{"cover":"FEW","base":500},{"cover":"SCT","base":1300},{"cover":"BKN","base":3000}],"obsTime":1779746400},"SBAF":{"icaoId":"SBAF","flightCategory":"VFR","rawOb":"METAR SBAF 252200Z 19005KT 9999 FEW015 BKN035 22/22 Q1022","temp":22,"dewp":22,"wdir":190,"wspd":5,"visib":"6+","altim":1022,"clouds":[{"cover":"FEW","base":1500},{"cover":"BKN","base":3500}],"obsTime":1779746400},"SBJR":{"icaoId":"SBJR","flightCategory":"VFR","rawOb":"METAR SBJR 252200Z 00000KT 9999 FEW008 BKN035 22/20 Q1022","temp":22,"dewp":20,"wdir":0,"wspd":0,"visib":"6+","altim":1022,"clouds":[{"cover":"FEW","base":800},{"cover":"BKN","base":3500}],"obsTime":1779746400},"SBLS":{"icaoId":"SBLS","flightCategory":"VFR","rawOb":"METAR SBLS 252200Z 16009KT CAVOK 21/17 Q1022","temp":21,"dewp":17,"wdir":160,"wspd":9,"visib":"6+","altim":1022,"clouds":[],"obsTime":1779746400},"SBMT":{"icaoId":"SBMT","flightCategory":"IFR","rawOb":"METAR SBMT 252200Z 15005KT 4000 BR BKN009 17/16 Q1024","temp":17,"dewp":16,"wdir":150,"wspd":5,"visib":2.49,"altim":1024,"clouds":[{"cover":"BKN","base":900}],"obsTime":1779746400},"SBGW":{"icaoId":"SBGW","flightCategory":"MVFR","rawOb":"METAR SBGW 252200Z VRB02KT 8000 FEW025 BKN100 21/16 Q1023","temp":21,"dewp":16,"wdir":"VRB","wspd":2,"visib":4.97,"altim":1023,"clouds":[{"cover":"FEW","base":2500},{"cover":"BKN","base":10000}],"obsTime":1779746400}}}