{"updated":1782859533,"count":83,"data":{"SBFL":{"icaoId":"SBFL","flightCategory":"IFR","rawOb":"METAR SBFL 302100Z 10005KT 9999 BKN006 16/15 Q1016","temp":16,"dewp":15,"wdir":100,"wspd":5,"visib":"6+","altim":1016,"clouds":[{"cover":"BKN","base":600}],"obsTime":1782853200},"SBBR":{"icaoId":"SBBR","flightCategory":"VFR","rawOb":"METAR SBBR 302100Z 14006KT CAVOK 24/12 Q1020","temp":24,"dewp":12,"wdir":140,"wspd":6,"visib":"6+","altim":1020,"clouds":[],"obsTime":1782853200},"SBPV":{"icaoId":"SBPV","flightCategory":"VFR","rawOb":"METAR SBPV 302100Z 10006KT 9999 SCT030 33/20 Q1008","temp":33,"dewp":20,"wdir":100,"wspd":6,"visib":"6+","altim":1008,"clouds":[{"cover":"SCT","base":3000}],"obsTime":1782853200},"SBCP":{"icaoId":"SBCP","flightCategory":"VFR","rawOb":"METAR SBCP 302100Z 07010KT CAVOK 24/21 Q1018","temp":24,"dewp":21,"wdir":70,"wspd":10,"visib":"6+","altim":1018,"clouds":[],"obsTime":1782853200},"SBSL":{"icaoId":"SBSL","flightCategory":"VFR","rawOb":"METAR SBSL 302100Z 06005KT 9999 SCT030 29/24 Q1010","temp":29,"dewp":24,"wdir":60,"wspd":5,"visib":"6+","altim":1010,"clouds":[{"cover":"SCT","base":3000}],"obsTime":1782853200},"SBVT":{"icaoId":"SBVT","flightCategory":"VFR","rawOb":"METAR SBVT 302100Z 29001KT 9999 FEW025 BKN062 22/19 Q1019","temp":22,"dewp":19,"wdir":290,"wspd":1,"visib":"6+","altim":1019,"clouds":[{"cover":"FEW","base":2500},{"cover":"BKN","base":6200}],"obsTime":1782853200},"SBKP":{"icaoId":"SBKP","flightCategory":"VFR","rawOb":"METAR SBKP 302100Z 01004KT CAVOK 25/14 Q1018","temp":25,"dewp":14,"wdir":10,"wspd":4,"visib":"6+","altim":1018,"clouds":[],"obsTime":1782853200},"SBRB":{"icaoId":"SBRB","flightCategory":"VFR","rawOb":"METAR SBRB 302100Z 06004KT 350V130 9999 SCT030 32/22 Q1010","temp":32,"dewp":22,"wdir":60,"wspd":4,"visib":"6+","altim":1010,"clouds":[{"cover":"SCT","base":3000}],"obsTime":1782853200},"SBGO":{"icaoId":"SBGO","flightCategory":"VFR","rawOb":"METAR SBGO 302100Z 04004KT 360V090 CAVOK 29/13 Q1017","temp":29,"dewp":13,"wdir":40,"wspd":4,"visib":"6+","altim":1017,"clouds":[],"obsTime":1782853200},"SBCT":{"icaoId":"SBCT","flightCategory":"VFR","rawOb":"METAR SBCT 302100Z 03004KT 9999 VCSH FEW025 20/17 Q1018","temp":20,"dewp":17,"wdir":30,"wspd":4,"visib":"6+","altim":1018,"clouds":[{"cover":"FEW","base":2500}],"obsTime":1782853200},"SBCF":{"icaoId":"SBCF","flightCategory":"VFR","rawOb":"METAR SBCF 302100Z 07007KT 9999 FEW040 22/15 Q1022","temp":22,"dewp":15,"wdir":70,"wspd":7,"visib":"6+","altim":1022,"clouds":[{"cover":"FEW","base":4000}],"obsTime":1782853200},"SBMO":{"icaoId":"SBMO","flightCategory":"VFR","rawOb":"METAR SBMO 302100Z 13009KT 9999 SCT020 BKN050 25/22 Q1015","temp":25,"dewp":22,"wdir":130,"wspd":9,"visib":"6+","altim":1015,"clouds":[{"cover":"SCT","base":2000},{"cover":"BKN","base":5000}],"obsTime":1782853200},"SBIL":{"icaoId":"SBIL","flightCategory":"VFR","rawOb":"METAR SBIL 302100Z 23002KT CAVOK 25/22 Q1018","temp":25,"dewp":22,"wdir":230,"wspd":2,"visib":"6+","altim":1018,"clouds":[],"obsTime":1782853200},"SBJU":{"icaoId":"SBJU","flightCategory":"VFR","rawOb":"METAR SBJU 302100Z 18005KT CAVOK 28/13 Q1014","temp":28,"dewp":13,"wdir":180,"wspd":5,"visib":"6+","altim":1014,"clouds":[],"obsTime":1782853200},"SBMG":{"icaoId":"SBMG","flightCategory":"VFR","rawOb":"METAR SBMG 302100Z 02008KT 9999 FEW045 25/18 Q1014","temp":25,"dewp":18,"wdir":20,"wspd":8,"visib":"6+","altim":1014,"clouds":[{"cover":"FEW","base":4500}],"obsTime":1782853200},"SBEG":{"icaoId":"SBEG","flightCategory":"VFR","rawOb":"METAR SBEG 302100Z 34002KT 9999 SCT035 BKN100 28/24 Q1009","temp":28,"dewp":24,"wdir":340,"wspd":2,"visib":"6+","altim":1009,"clouds":[{"cover":"SCT","base":3500},{"cover":"BKN","base":10000}],"obsTime":1782853200},"SBME":{"icaoId":"SBME","flightCategory":"VFR","rawOb":"METAR SBME 302100Z 04009KT CAVOK 25/20 Q1018","temp":25,"dewp":20,"wdir":40,"wspd":9,"visib":"6+","altim":1018,"clouds":[],"obsTime":1782853200},"SBMK":{"icaoId":"SBMK","flightCategory":"VFR","rawOb":"METAR SBMK 302100Z 08005KT 9999 FEW040 24/15 Q1019","temp":24,"dewp":15,"wdir":80,"wspd":5,"visib":"6+","altim":1019,"clouds":[{"cover":"FEW","base":4000}],"obsTime":1782853200},"SBUL":{"icaoId":"SBUL","flightCategory":"VFR","rawOb":"METAR SBUL 302100Z 07005KT CAVOK 23/13 Q1020","temp":23,"dewp":13,"wdir":70,"wspd":5,"visib":"6+","altim":1020,"clouds":[],"obsTime":1782853200},"SBUR":{"icaoId":"SBUR","flightCategory":"VFR","rawOb":"METAR SBUR 302100Z 02004KT CAVOK 25/11 Q1019","temp":25,"dewp":11,"wdir":20,"wspd":4,"visib":"6+","altim":1019,"clouds":[],"obsTime":1782853200},"SBTE":{"icaoId":"SBTE","flightCategory":"VFR","rawOb":"METAR SBTE 302100Z 14004KT 9999 FEW040 32/20 Q1010","temp":32,"dewp":20,"wdir":140,"wspd":4,"visib":"6+","altim":1010,"clouds":[{"cover":"FEW","base":4000}],"obsTime":1782853200},"SBMQ":{"icaoId":"SBMQ","flightCategory":"VFR","rawOb":"METAR SBMQ 302100Z 07008KT 9999 FEW025 30/25 Q1009","temp":30,"dewp":25,"wdir":70,"wspd":8,"visib":"6+","altim":1009,"clouds":[{"cover":"FEW","base":2500}],"obsTime":1782853200},"SBRF":{"icaoId":"SBRF","flightCategory":"VFR","rawOb":"METAR SBRF 302100Z 16014KT 9999 SCT025 26/21 Q1014","temp":26,"dewp":21,"wdir":160,"wspd":14,"visib":"6+","altim":1014,"clouds":[{"cover":"SCT","base":2500}],"obsTime":1782853200},"SBGL":{"icaoId":"SBGL","flightCategory":"VFR","rawOb":"METAR SBGL 302100Z 12005KT CAVOK 24/20 Q1016","temp":24,"dewp":20,"wdir":120,"wspd":5,"visib":"6+","altim":1016,"clouds":[],"obsTime":1782853200},"SBCG":{"icaoId":"SBCG","flightCategory":"VFR","rawOb":"METAR SBCG 302100Z 32006KT 9999 SCT049 27/18 Q1014","temp":27,"dewp":18,"wdir":320,"wspd":6,"visib":"6+","altim":1014,"clouds":[{"cover":"SCT","base":4900}],"obsTime":1782853200},"SBGR":{"icaoId":"SBGR","flightCategory":"VFR","rawOb":"METAR SBGR 302100Z 00000KT CAVOK 21/16 Q1019","temp":21,"dewp":16,"wdir":0,"wspd":0,"visib":"6+","altim":1019,"clouds":[],"obsTime":1782853200},"SBCZ":{"icaoId":"SBCZ","flightCategory":"LIFR","rawOb":"METAR SBCZ 302100Z 05007KT 1000 0100E +RA BKN015 BKN030 26/25 Q1010","temp":26,"dewp":25,"wdir":50,"wspd":7,"visib":0.62,"altim":1010,"clouds":[{"cover":"BKN","base":1500},{"cover":"BKN","base":3000}],"obsTime":1782853200},"SBFI":{"icaoId":"SBFI","flightCategory":"LIFR","rawOb":"METAR SBFI 302100Z 17003KT 0800 R15///// R33///// FG VV004 18/18 Q1013","temp":18,"dewp":18,"wdir":170,"wspd":3,"visib":0.5,"altim":1013,"clouds":[{"cover":"OVX","base":400}],"obsTime":1782853200},"SBNT":{"icaoId":"SBNT","flightCategory":"VFR","rawOb":"METAR SBNT 302100Z 15008KT 9999 FEW020 SCT050 25/21 Q1013","temp":25,"dewp":21,"wdir":150,"wspd":8,"visib":"6+","altim":1013,"clouds":[{"cover":"FEW","base":2000},{"cover":"SCT","base":5000}],"obsTime":1782853200},"SBSG":{"icaoId":"SBSG","flightCategory":"VFR","rawOb":"METAR SBSG 302100Z 14007KT 100V190 9999 SCT023 25/22 Q1013","temp":25,"dewp":22,"wdir":140,"wspd":7,"visib":"6+","altim":1013,"clouds":[{"cover":"SCT","base":2300}],"obsTime":1782853200},"SBSP":{"icaoId":"SBSP","flightCategory":"VFR","rawOb":"METAR SBSP 302100Z 32006KT CAVOK 24/13 Q1020","temp":24,"dewp":13,"wdir":320,"wspd":6,"visib":"6+","altim":1020,"clouds":[],"obsTime":1782853200},"SBSV":{"icaoId":"SBSV","flightCategory":"VFR","rawOb":"METAR SBSV 302100Z 13009KT 100V160 9999 SCT020 26/20 Q1017","temp":26,"dewp":20,"wdir":130,"wspd":9,"visib":"6+","altim":1017,"clouds":[{"cover":"SCT","base":2000}],"obsTime":1782853200},"SBFZ":{"icaoId":"SBFZ","flightCategory":"VFR","rawOb":"METAR SBFZ 302100Z 12012KT 9999 FEW023 28/22 Q1011","temp":28,"dewp":22,"wdir":120,"wspd":12,"visib":"6+","altim":1011,"clouds":[{"cover":"FEW","base":2300}],"obsTime":1782853200},"SBPJ":{"icaoId":"SBPJ","flightCategory":"VFR","rawOb":"METAR SBPJ 302100Z 12005KT CAVOK 32/17 Q1012","temp":32,"dewp":17,"wdir":120,"wspd":5,"visib":"6+","altim":1012,"clouds":[],"obsTime":1782853200},"SBBV":{"icaoId":"SBBV","flightCategory":"VFR","rawOb":"METAR SBBV 302100Z 02003KT 9999 SCT030 FEW035TCU 31/24 Q1008","temp":31,"dewp":24,"wdir":20,"wspd":3,"visib":"6+","altim":1008,"clouds":[{"cover":"SCT","base":3000},{"cover":"FEW","base":3500}],"obsTime":1782853200},"SBBE":{"icaoId":"SBBE","flightCategory":"VFR","rawOb":"METAR SBBE 302100Z 35004KT 9999 SCT035 FEW040TCU 30/25 Q1010","temp":30,"dewp":25,"wdir":350,"wspd":4,"visib":"6+","altim":1010,"clouds":[{"cover":"SCT","base":3500},{"cover":"FEW","base":4000}],"obsTime":1782853200},"SBSN":{"icaoId":"SBSN","flightCategory":"VFR","rawOb":"METAR SBSN 302100Z 09008KT CAVOK 29/23 Q1009","temp":29,"dewp":23,"wdir":90,"wspd":8,"visib":"6+","altim":1009,"clouds":[],"obsTime":1782853200},"SBLO":{"icaoId":"SBLO","flightCategory":"VFR","rawOb":"METAR SBLO 302100Z 05004KT CAVOK 24/18 Q1016","temp":24,"dewp":18,"wdir":50,"wspd":4,"visib":"6+","altim":1016,"clouds":[],"obsTime":1782853200},"SBPA":{"icaoId":"SBPA","flightCategory":"IFR","rawOb":"METAR SBPA 302100Z 15005KT 110V190 9999 BKN007 OVC011 14/13 Q1016","temp":14,"dewp":13,"wdir":150,"wspd":5,"visib":"6+","altim":1016,"clouds":[{"cover":"BKN","base":700},{"cover":"OVC","base":1100}],"obsTime":1782853200},"SBMA":{"icaoId":"SBMA","flightCategory":"VFR","rawOb":"METAR SBMA 302100Z 08003KT 9999 FEW020 32/21 Q1010","temp":32,"dewp":21,"wdir":80,"wspd":3,"visib":"6+","altim":1010,"clouds":[{"cover":"FEW","base":2000}],"obsTime":1782853200},"SBCB":{"icaoId":"SBCB","flightCategory":"VFR","rawOb":"METAR SBCB 302100Z 08009KT CAVOK 23/21 Q1018","temp":23,"dewp":21,"wdir":80,"wspd":9,"visib":"6+","altim":1018,"clouds":[],"obsTime":1782853200},"SBCR":{"icaoId":"SBCR","flightCategory":"VFR","rawOb":"METAR SBCR 302100Z 06008KT 9999 FEW020 29/20 Q1010","temp":29,"dewp":20,"wdir":60,"wspd":8,"visib":"6+","altim":1010,"clouds":[{"cover":"FEW","base":2000}],"obsTime":1782853200},"SBAT":{"icaoId":"SBAT","flightCategory":"VFR","rawOb":"METAR SBAT 302100Z 06006KT 9999 FEW040 32/18 Q1011","temp":32,"dewp":18,"wdir":60,"wspd":6,"visib":"6+","altim":1011,"clouds":[{"cover":"FEW","base":4000}],"obsTime":1782853200},"SBHT":{"icaoId":"SBHT","flightCategory":"VFR","rawOb":"METAR SBHT 302100Z 12002KT 9999 FEW025 30/24 Q1010","temp":30,"dewp":24,"wdir":120,"wspd":2,"visib":"6+","altim":1010,"clouds":[{"cover":"FEW","base":2500}],"obsTime":1782853200},"SBTU":{"icaoId":"SBTU","flightCategory":"VFR","rawOb":"METAR SBTU 302100Z AUTO 06006KT 9999 // SCT100/// ///// Q1012","temp":null,"dewp":null,"wdir":60,"wspd":6,"visib":"6+","altim":1012,"clouds":[{"cover":"SCT","base":10000}],"obsTime":1782853200},"SBTT":{"icaoId":"SBTT","flightCategory":"VFR","rawOb":"METAR SBTT 302100Z 31002KT 9999 FEW021 FEW023TCU BKN100 29/23 Q1009","temp":29,"dewp":23,"wdir":310,"wspd":2,"visib":"6+","altim":1009,"clouds":[{"cover":"FEW","base":2100},{"cover":"FEW","base":2300},{"cover":"BKN","base":10000}],"obsTime":1782853200},"SBTF":{"icaoId":"SBTF","flightCategory":"VFR","rawOb":"METAR SBTF 302100Z 14020KT 9999 2000S -RA SCT009 SCT018 BKN080 27/25 Q1010","temp":27,"dewp":25,"wdir":140,"wspd":20,"visib":"6+","altim":1010,"clouds":[{"cover":"SCT","base":900},{"cover":"SCT","base":1800},{"cover":"BKN","base":8000}],"obsTime":1782853200},"SBPS":{"icaoId":"SBPS","flightCategory":"MVFR","rawOb":"METAR SBPS 302100Z 11007KT 9999 BKN025 23/21 Q1019","temp":23,"dewp":21,"wdir":110,"wspd":7,"visib":"6+","altim":1019,"clouds":[{"cover":"BKN","base":2500}],"obsTime":1782853200},"SBSJ":{"icaoId":"SBSJ","flightCategory":"VFR","rawOb":"METAR SBSJ 302100Z 35001KT CAVOK 23/17 Q1019","temp":23,"dewp":17,"wdir":350,"wspd":1,"visib":"6+","altim":1019,"clouds":[],"obsTime":1782853200},"SBOI":{"icaoId":"SBOI","flightCategory":"VFR","rawOb":"METAR SBOI 302100Z AUTO 10003KT 060V150 CAVOK 29/23 Q1010","temp":29,"dewp":23,"wdir":100,"wspd":3,"visib":"6+","altim":1010,"clouds":[],"obsTime":1782853200},"SBAR":{"icaoId":"SBAR","flightCategory":"VFR","rawOb":"METAR SBAR 302100Z 16004KT 120V210 9999 FEW015 SCT025 25/22 Q1016","temp":25,"dewp":22,"wdir":160,"wspd":4,"visib":"6+","altim":1016,"clouds":[{"cover":"FEW","base":1500},{"cover":"SCT","base":2500}],"obsTime":1782853200},"SBPL":{"icaoId":"SBPL","flightCategory":"VFR","rawOb":"METAR SBPL 302100Z 12010KT CAVOK 28/17 Q1015","temp":28,"dewp":17,"wdir":120,"wspd":10,"visib":"6+","altim":1015,"clouds":[],"obsTime":1782853200},"SBUY":{"icaoId":"SBUY","flightCategory":"VFR","rawOb":"METAR SBUY 302100Z 14002KT 9999 FEW020 FEW025TCU SCT100 25/24 Q1008","temp":25,"dewp":24,"wdir":140,"wspd":2,"visib":"6+","altim":1008,"clouds":[{"cover":"FEW","base":2000},{"cover":"FEW","base":2500},{"cover":"SCT","base":10000}],"obsTime":1782853200},"SBSR":{"icaoId":"SBSR","flightCategory":"VFR","rawOb":"METAR SBSR 302100Z 09005KT CAVOK 26/12 Q1017","temp":26,"dewp":12,"wdir":90,"wspd":5,"visib":"6+","altim":1017,"clouds":[],"obsTime":1782853200},"SBSC":{"icaoId":"SBSC","flightCategory":"VFR","rawOb":"METAR SBSC 302100Z 26005KT CAVOK 22/21 Q1016","temp":22,"dewp":21,"wdir":260,"wspd":5,"visib":"6+","altim":1016,"clouds":[],"obsTime":1782853200},"SBKG":{"icaoId":"SBKG","flightCategory":"VFR","rawOb":"METAR SBKG 302100Z 12005KT 9999 FEW020 22/19 Q1016","temp":22,"dewp":19,"wdir":120,"wspd":5,"visib":"6+","altim":1016,"clouds":[{"cover":"FEW","base":2000}],"obsTime":1782853200},"SBCA":{"icaoId":"SBCA","flightCategory":"VFR","rawOb":"METAR SBCA 302100Z 01007KT 9999 TS FEW007 FEW040CB SCT100 21/18 Q1015","temp":21,"dewp":18,"wdir":10,"wspd":7,"visib":"6+","altim":1015,"clouds":[{"cover":"FEW","base":700},{"cover":"FEW","base":4000},{"cover":"SCT","base":10000}],"obsTime":1782853200},"SBCO":{"icaoId":"SBCO","flightCategory":"IFR","rawOb":"METAR SBCO 302100Z 14004KT 9999 OVC009 14/12 Q1016","temp":14,"dewp":12,"wdir":140,"wspd":4,"visib":"6+","altim":1016,"clouds":[{"cover":"OVC","base":900}],"obsTime":1782853200},"SBIP":{"icaoId":"SBIP","flightCategory":"VFR","rawOb":"METAR SBIP 302100Z AUTO 00000KT CAVOK 21/19 Q1019","temp":21,"dewp":19,"wdir":0,"wspd":0,"visib":"6+","altim":1019,"clouds":[],"obsTime":1782853200},"SBSM":{"icaoId":"SBSM","flightCategory":"MVFR","rawOb":"METAR SBSM 302100Z 09006KT 060V120 9999 OVC010 12/11 Q1016","temp":12,"dewp":11,"wdir":90,"wspd":6,"visib":"6+","altim":1016,"clouds":[{"cover":"OVC","base":1000}],"obsTime":1782853200},"SBVH":{"icaoId":"SBVH","flightCategory":"VFR","rawOb":"METAR SBVH 302100Z 12007KT CAVOK 28/18 Q1013","temp":28,"dewp":18,"wdir":120,"wspd":7,"visib":"6+","altim":1013,"clouds":[],"obsTime":1782853200},"SBAX":{"icaoId":"SBAX","flightCategory":"VFR","rawOb":"METAR SBAX 302100Z 07002KT CAVOK 21/10 Q1021","temp":21,"dewp":10,"wdir":70,"wspd":2,"visib":"6+","altim":1021,"clouds":[],"obsTime":1782853200},"SBBH":{"icaoId":"SBBH","flightCategory":"VFR","rawOb":"METAR SBBH 302100Z 08006KT 9999 SCT049 23/15 Q1021","temp":23,"dewp":15,"wdir":80,"wspd":6,"visib":"6+","altim":1021,"clouds":[{"cover":"SCT","base":4900}],"obsTime":1782853200},"SBDN":{"icaoId":"SBDN","flightCategory":"VFR","rawOb":"METAR SBDN 302100Z 02003KT CAVOK 26/15 Q1015","temp":26,"dewp":15,"wdir":20,"wspd":3,"visib":"6+","altim":1015,"clouds":[],"obsTime":1782853200},"SBBU":{"icaoId":"SBBU","flightCategory":"VFR","rawOb":"METAR SBBU 302100Z 02003KT CAVOK 26/16 Q1017","temp":26,"dewp":16,"wdir":20,"wspd":3,"visib":"6+","altim":1017,"clouds":[],"obsTime":1782853200},"SBES":{"icaoId":"SBES","flightCategory":"VFR","rawOb":"METAR SBES 302100Z 03003KT 340V060 CAVOK 21/// Q1018","temp":null,"dewp":null,"wdir":30,"wspd":3,"visib":"6+","altim":1018,"clouds":[],"obsTime":1782853200},"SBPB":{"icaoId":"SBPB","flightCategory":"VFR","rawOb":"METAR SBPB 302100Z 05008KT 9999 FEW020 28/25 Q1010","temp":28,"dewp":25,"wdir":50,"wspd":8,"visib":"6+","altim":1010,"clouds":[{"cover":"FEW","base":2000}],"obsTime":1782853200},"SBCJ":{"icaoId":"SBCJ","flightCategory":"VFR","rawOb":"METAR SBCJ 302100Z 09004KT CAVOK 27/19 Q1015","temp":27,"dewp":19,"wdir":90,"wspd":4,"visib":"6+","altim":1015,"clouds":[],"obsTime":1782853200},"SBPP":{"icaoId":"SBPP","flightCategory":"MVFR","rawOb":"METAR SBPP 302100Z 07009KT 9999 BKN015 23/20 Q1014","temp":23,"dewp":20,"wdir":70,"wspd":9,"visib":"6+","altim":1014,"clouds":[{"cover":"BKN","base":1500}],"obsTime":1782853200},"SBAN":{"icaoId":"SBAN","flightCategory":"VFR","rawOb":"METAR SBAN 302100Z 09002KT 9999 FEW045 23/12 Q1020","temp":23,"dewp":12,"wdir":90,"wspd":2,"visib":"6+","altim":1020,"clouds":[{"cover":"FEW","base":4500}],"obsTime":1782853200},"SBJV":{"icaoId":"SBJV","flightCategory":"LIFR","rawOb":"METAR SBJV 302100Z 10003KT 050V150 2000 -DZ BR BKN003 BKN018 17/16 Q1016","temp":17,"dewp":16,"wdir":100,"wspd":3,"visib":1.24,"altim":1016,"clouds":[{"cover":"BKN","base":300},{"cover":"BKN","base":1800}],"obsTime":1782853200},"SBNM":{"icaoId":"SBNM","flightCategory":"IFR","rawOb":"METAR SBNM 302100Z AUTO 18003KT 3100 -RA BR FEW015 OVC026 14/14 Q1014","temp":14,"dewp":14,"wdir":180,"wspd":3,"visib":1.93,"altim":1014,"clouds":[{"cover":"FEW","base":1500},{"cover":"OVC","base":2600}],"obsTime":1782853200},"SBPF":{"icaoId":"SBPF","flightCategory":"IFR","rawOb":"METAR SBPF 302100Z 16003KT 9999 BKN005 BKN018 14/12 Q1015","temp":14,"dewp":12,"wdir":160,"wspd":3,"visib":"6+","altim":1015,"clouds":[{"cover":"BKN","base":500},{"cover":"BKN","base":1800}],"obsTime":1782853200},"SBIH":{"icaoId":"SBIH","flightCategory":"VFR","rawOb":"METAR SBIH 302100Z 11015KT 9999 VCSH SCT017 FEW025TCU 27/22 Q1010","temp":27,"dewp":22,"wdir":110,"wspd":15,"visib":"6+","altim":1010,"clouds":[{"cover":"SCT","base":1700},{"cover":"FEW","base":2500}],"obsTime":1782853200},"SBAF":{"icaoId":"SBAF","flightCategory":"VFR","rawOb":"METAR SBAF 302100Z VRB01KT 9000 NSC 22/22 Q1016","temp":22,"dewp":22,"wdir":"VRB","wspd":1,"visib":5.59,"altim":1016,"clouds":[],"obsTime":1782853200},"SBGW":{"icaoId":"SBGW","flightCategory":"VFR","rawOb":"METAR SBGW 302100Z 06003KT 020V090 CAVOK 22/13 Q1018","temp":22,"dewp":13,"wdir":60,"wspd":3,"visib":"6+","altim":1018,"clouds":[],"obsTime":1782853200},"SBJR":{"icaoId":"SBJR","flightCategory":"VFR","rawOb":"METAR SBJR 302100Z 25003KT CAVOK 22/20 Q1016","temp":22,"dewp":20,"wdir":250,"wspd":3,"visib":"6+","altim":1016,"clouds":[],"obsTime":1782853200},"SBLS":{"icaoId":"SBLS","flightCategory":"VFR","rawOb":"METAR SBLS 302100Z 09004KT 040V110 9999 FEW040 21/14 Q1021","temp":21,"dewp":14,"wdir":90,"wspd":4,"visib":"6+","altim":1021,"clouds":[{"cover":"FEW","base":4000}],"obsTime":1782853200},"SBMT":{"icaoId":"SBMT","flightCategory":"VFR","rawOb":"METAR SBMT 302100Z 35002KT CAVOK 22/13 Q1019","temp":22,"dewp":13,"wdir":350,"wspd":2,"visib":"6+","altim":1019,"clouds":[],"obsTime":1782853200},"SBTA":{"icaoId":"SBTA","flightCategory":"VFR","rawOb":"METAR SBTA 302100Z VRB01KT CAVOK 21/17 Q1018","temp":21,"dewp":17,"wdir":"VRB","wspd":1,"visib":"6+","altim":1018,"clouds":[],"obsTime":1782853200},"SBJP":{"icaoId":"SBJP","flightCategory":"VFR","rawOb":"METAR SBJP 302100Z 14007KT 9999 SCT015 SCT070 25/23 Q1014","temp":25,"dewp":23,"wdir":140,"wspd":7,"visib":"6+","altim":1014,"clouds":[{"cover":"SCT","base":1500},{"cover":"SCT","base":7000}],"obsTime":1782853200},"SBLE":{"icaoId":"SBLE","flightCategory":"VFR","rawOb":"METAR SBLE 302100Z AUTO 03005KT CAVOK ///// Q////","temp":null,"dewp":null,"wdir":30,"wspd":5,"visib":"6+","altim":null,"clouds":[],"obsTime":1782853200},"SBST":{"icaoId":"SBST","flightCategory":"MVFR","rawOb":"METAR SBST 302100Z VRB02KT 7000 OVC016 22/19 Q1016","temp":22,"dewp":19,"wdir":"VRB","wspd":2,"visib":4.35,"altim":1016,"clouds":[{"cover":"OVC","base":1600}],"obsTime":1782853200}}}