{"updated":1782646152,"count":83,"data":{"SBGR":{"icaoId":"SBGR","flightCategory":"LIFR","rawOb":"METAR SBGR 281000Z 05007KT 0800 R28R/1100N R28L/1100D R10R/1300U R10L/1800D FG OVC002 16/15 Q1024","temp":16,"dewp":15,"wdir":50,"wspd":7,"visib":0.5,"altim":1024,"clouds":[{"cover":"OVC","base":200}],"obsTime":1782640800},"SBFI":{"icaoId":"SBFI","flightCategory":"VFR","rawOb":"METAR SBFI 281000Z 06007KT 9999 SCT020 FEW030TCU SCT100 16/16 Q1015","temp":16,"dewp":16,"wdir":60,"wspd":7,"visib":"6+","altim":1015,"clouds":[{"cover":"SCT","base":2000},{"cover":"FEW","base":3000},{"cover":"SCT","base":10000}],"obsTime":1782640800},"SBNT":{"icaoId":"SBNT","flightCategory":"VFR","rawOb":"METAR SBNT 281000Z 17010KT 9999 FEW020 SCT100 24/22 Q1015","temp":24,"dewp":22,"wdir":170,"wspd":10,"visib":"6+","altim":1015,"clouds":[{"cover":"FEW","base":2000},{"cover":"SCT","base":10000}],"obsTime":1782640800},"SBCB":{"icaoId":"SBCB","flightCategory":"VFR","rawOb":"METAR SBCB 281000Z 08008KT 9999 SCT020 22/21 Q1022","temp":22,"dewp":21,"wdir":80,"wspd":8,"visib":"6+","altim":1022,"clouds":[{"cover":"SCT","base":2000}],"obsTime":1782640800},"SBRB":{"icaoId":"SBRB","flightCategory":"VFR","rawOb":"METAR SBRB 281000Z 00000KT CAVOK 20/19 Q1015","temp":20,"dewp":19,"wdir":0,"wspd":0,"visib":"6+","altim":1015,"clouds":[],"obsTime":1782640800},"SBBE":{"icaoId":"SBBE","flightCategory":"VFR","rawOb":"METAR SBBE 281000Z 10004KT CAVOK 25/23 Q1013","temp":25,"dewp":23,"wdir":100,"wspd":4,"visib":"6+","altim":1013,"clouds":[],"obsTime":1782640800},"SBPV":{"icaoId":"SBPV","flightCategory":"VFR","rawOb":"METAR SBPV 281000Z 00000KT 9999 SCT004 22/21 Q1014","temp":22,"dewp":21,"wdir":0,"wspd":0,"visib":"6+","altim":1014,"clouds":[{"cover":"SCT","base":400}],"obsTime":1782640800},"SBCF":{"icaoId":"SBCF","flightCategory":"VFR","rawOb":"METAR SBCF 281000Z 17002KT 9999 FEW020 15/14 Q1025","temp":15,"dewp":14,"wdir":170,"wspd":2,"visib":"6+","altim":1025,"clouds":[{"cover":"FEW","base":2000}],"obsTime":1782640800},"SBRF":{"icaoId":"SBRF","flightCategory":"VFR","rawOb":"METAR SBRF 281000Z 14011KT 9999 FEW020 26/18 Q1016","temp":26,"dewp":18,"wdir":140,"wspd":11,"visib":"6+","altim":1016,"clouds":[{"cover":"FEW","base":2000}],"obsTime":1782640800},"SBSV":{"icaoId":"SBSV","flightCategory":"VFR","rawOb":"SPECI SBSV 280930Z 10016G27KT 9000 -RA FEW011 SCT020 24/22 Q1018","temp":24,"dewp":22,"wdir":100,"wspd":16,"visib":5.59,"altim":1018,"clouds":[{"cover":"FEW","base":1100},{"cover":"SCT","base":2000}],"obsTime":1782639000},"SBFZ":{"icaoId":"SBFZ","flightCategory":"VFR","rawOb":"METAR SBFZ 281000Z 15009KT 9999 SCT030 SCT060 25/23 Q1014","temp":25,"dewp":23,"wdir":150,"wspd":9,"visib":"6+","altim":1014,"clouds":[{"cover":"SCT","base":3000},{"cover":"SCT","base":6000}],"obsTime":1782640800},"SBSL":{"icaoId":"SBSL","flightCategory":"VFR","rawOb":"METAR SBSL 281000Z 14004KT 110V170 9999 FEW030 BKN070 25/24 Q1013","temp":25,"dewp":24,"wdir":140,"wspd":4,"visib":"6+","altim":1013,"clouds":[{"cover":"FEW","base":3000},{"cover":"BKN","base":7000}],"obsTime":1782640800},"SBBV":{"icaoId":"SBBV","flightCategory":"VFR","rawOb":"METAR SBBV 281000Z 01002KT 9999 FEW015 BKN100 25/24 Q1014","temp":25,"dewp":24,"wdir":10,"wspd":2,"visib":"6+","altim":1014,"clouds":[{"cover":"FEW","base":1500},{"cover":"BKN","base":10000}],"obsTime":1782640800},"SBEG":{"icaoId":"SBEG","flightCategory":"VFR","rawOb":"METAR SBEG 281000Z 34003KT 9999 FEW020 BKN080 24/24 Q1014","temp":24,"dewp":24,"wdir":340,"wspd":3,"visib":"6+","altim":1014,"clouds":[{"cover":"FEW","base":2000},{"cover":"BKN","base":8000}],"obsTime":1782640800},"SBSG":{"icaoId":"SBSG","flightCategory":"VFR","rawOb":"METAR SBSG 281000Z 18004KT 150V210 9999 FEW020 BKN050 23/23 Q1016","temp":23,"dewp":23,"wdir":180,"wspd":4,"visib":"6+","altim":1016,"clouds":[{"cover":"FEW","base":2000},{"cover":"BKN","base":5000}],"obsTime":1782640800},"SBMO":{"icaoId":"SBMO","flightCategory":"VFR","rawOb":"METAR SBMO 281000Z 33002KT 9999 FEW030 22/22 Q1017","temp":22,"dewp":22,"wdir":330,"wspd":2,"visib":"6+","altim":1017,"clouds":[{"cover":"FEW","base":3000}],"obsTime":1782640800},"SBCT":{"icaoId":"SBCT","flightCategory":"LIFR","rawOb":"METAR SBCT 281000Z 00000KT 1300 R33/0650 R15/1100 BR MIFG SCT003 BKN100 12/12 Q1024","temp":12,"dewp":12,"wdir":0,"wspd":0,"visib":0.81,"altim":1024,"clouds":[{"cover":"SCT","base":300},{"cover":"BKN","base":10000}],"obsTime":1782640800},"SBLO":{"icaoId":"SBLO","flightCategory":"VFR","rawOb":"METAR SBLO 281000Z 19003KT CAVOK 16/15 Q1021","temp":16,"dewp":15,"wdir":190,"wspd":3,"visib":"6+","altim":1021,"clouds":[],"obsTime":1782640800},"SBVT":{"icaoId":"SBVT","flightCategory":"VFR","rawOb":"METAR SBVT 281000Z 31001KT 9999 SCT035 18/18 Q1023","temp":18,"dewp":18,"wdir":310,"wspd":1,"visib":"6+","altim":1023,"clouds":[{"cover":"SCT","base":3500}],"obsTime":1782640800},"SBSN":{"icaoId":"SBSN","flightCategory":"VFR","rawOb":"METAR SBSN 281000Z 08008KT CAVOK 27/24 Q1013","temp":27,"dewp":24,"wdir":80,"wspd":8,"visib":"6+","altim":1013,"clouds":[],"obsTime":1782640800},"SBMQ":{"icaoId":"SBMQ","flightCategory":"VFR","rawOb":"METAR SBMQ 281000Z 31002KT 9999 FEW019 24/24 Q1013","temp":24,"dewp":24,"wdir":310,"wspd":2,"visib":"6+","altim":1013,"clouds":[{"cover":"FEW","base":1900}],"obsTime":1782640800},"SBKP":{"icaoId":"SBKP","flightCategory":"VFR","rawOb":"METAR SBKP 281000Z 11004KT CAVOK 16/14 Q1023","temp":16,"dewp":14,"wdir":110,"wspd":4,"visib":"6+","altim":1023,"clouds":[],"obsTime":1782640800},"SBSP":{"icaoId":"SBSP","flightCategory":"LIFR","rawOb":"METAR SBSP 281000Z 05003KT 2500 BR OVC003 16/16 Q1025","temp":16,"dewp":16,"wdir":50,"wspd":3,"visib":1.55,"altim":1025,"clouds":[{"cover":"OVC","base":300}],"obsTime":1782640800},"SBFL":{"icaoId":"SBFL","flightCategory":"VFR","rawOb":"METAR SBFL 281000Z 01005KT 9999 FEW010 SCT040 17/16 Q1018","temp":17,"dewp":16,"wdir":10,"wspd":5,"visib":"6+","altim":1018,"clouds":[{"cover":"FEW","base":1000},{"cover":"SCT","base":4000}],"obsTime":1782640800},"SBGO":{"icaoId":"SBGO","flightCategory":"VFR","rawOb":"METAR SBGO 281000Z 16002KT CAVOK 19/14 Q1022","temp":19,"dewp":14,"wdir":160,"wspd":2,"visib":"6+","altim":1022,"clouds":[],"obsTime":1782640800},"SBIL":{"icaoId":"SBIL","flightCategory":"VFR","rawOb":"METAR SBIL 281000Z 23004KT 9999 SCT020 22/21 Q1020","temp":22,"dewp":21,"wdir":230,"wspd":4,"visib":"6+","altim":1020,"clouds":[{"cover":"SCT","base":2000}],"obsTime":1782640800},"SBJU":{"icaoId":"SBJU","flightCategory":"MVFR","rawOb":"METAR SBJU 281000Z 15010KT 9999 BKN020 22/19 Q1018","temp":22,"dewp":19,"wdir":150,"wspd":10,"visib":"6+","altim":1018,"clouds":[{"cover":"BKN","base":2000}],"obsTime":1782640800},"SBMG":{"icaoId":"SBMG","flightCategory":"VFR","rawOb":"METAR SBMG 281000Z 16006KT 9999 0900SW R10/1600U BCFG NSC 15/15 Q1020","temp":15,"dewp":15,"wdir":160,"wspd":6,"visib":"6+","altim":1020,"clouds":[],"obsTime":1782640800},"SBAT":{"icaoId":"SBAT","flightCategory":"VFR","rawOb":"METAR SBAT 281100Z 00000KT CAVOK 25/20 Q1016","temp":25,"dewp":20,"wdir":0,"wspd":0,"visib":"6+","altim":1016,"clouds":[],"obsTime":1782644400},"SBHT":{"icaoId":"SBHT","flightCategory":"VFR","rawOb":"METAR SBHT 281000Z 00000KT 9999 SCT012 24/24 Q1013","temp":24,"dewp":24,"wdir":0,"wspd":0,"visib":"6+","altim":1013,"clouds":[{"cover":"SCT","base":1200}],"obsTime":1782640800},"SBME":{"icaoId":"SBME","flightCategory":"VFR","rawOb":"METAR SBME 281000Z VRB02KT CAVOK 19/18 Q1022","temp":19,"dewp":18,"wdir":"VRB","wspd":2,"visib":"6+","altim":1022,"clouds":[],"obsTime":1782640800},"SBMK":{"icaoId":"SBMK","flightCategory":"VFR","rawOb":"METAR SBMK 281000Z 13004KT CAVOK 18/14 Q1024","temp":18,"dewp":14,"wdir":130,"wspd":4,"visib":"6+","altim":1024,"clouds":[],"obsTime":1782640800},"SBUL":{"icaoId":"SBUL","flightCategory":"VFR","rawOb":"METAR SBUL 281000Z 10011KT CAVOK 17/13 Q1024","temp":17,"dewp":13,"wdir":100,"wspd":11,"visib":"6+","altim":1024,"clouds":[],"obsTime":1782640800},"SBUR":{"icaoId":"SBUR","flightCategory":"VFR","rawOb":"METAR SBUR 281000Z 03006KT CAVOK 17/13 Q1023","temp":17,"dewp":13,"wdir":30,"wspd":6,"visib":"6+","altim":1023,"clouds":[],"obsTime":1782640800},"SBPA":{"icaoId":"SBPA","flightCategory":"VFR","rawOb":"METAR SBPA 281000Z VRB01KT 9000 -TSRA FEW010 FEW030CB SCT035 BKN100 14/13 Q1016","temp":14,"dewp":13,"wdir":"VRB","wspd":1,"visib":5.59,"altim":1016,"clouds":[{"cover":"FEW","base":1000},{"cover":"FEW","base":3000},{"cover":"SCT","base":3500},{"cover":"BKN","base":10000}],"obsTime":1782640800},"SBMA":{"icaoId":"SBMA","flightCategory":"VFR","rawOb":"METAR SBMA 281000Z 04002KT CAVOK 25/22 Q1014","temp":25,"dewp":22,"wdir":40,"wspd":2,"visib":"6+","altim":1014,"clouds":[],"obsTime":1782640800},"SBCR":{"icaoId":"SBCR","flightCategory":"VFR","rawOb":"METAR SBCR 281100Z 15005KT CAVOK 23/21 Q1015","temp":23,"dewp":21,"wdir":150,"wspd":5,"visib":"6+","altim":1015,"clouds":[],"obsTime":1782644400},"SBCG":{"icaoId":"SBCG","flightCategory":"VFR","rawOb":"METAR SBCG 281000Z 03008KT CAVOK 19/16 Q1018","temp":19,"dewp":16,"wdir":30,"wspd":8,"visib":"6+","altim":1018,"clouds":[],"obsTime":1782640800},"SBCP":{"icaoId":"SBCP","flightCategory":"VFR","rawOb":"METAR SBCP 281000Z 36002KT 9999 FEW020 18/18 Q1023","temp":18,"dewp":18,"wdir":360,"wspd":2,"visib":"6+","altim":1023,"clouds":[{"cover":"FEW","base":2000}],"obsTime":1782640800},"SBGL":{"icaoId":"SBGL","flightCategory":"IFR","rawOb":"METAR SBGL 281000Z 32001KT 2200 BR SCT005 OVC008 21/20 Q1021","temp":21,"dewp":20,"wdir":320,"wspd":1,"visib":1.37,"altim":1021,"clouds":[{"cover":"SCT","base":500},{"cover":"OVC","base":800}],"obsTime":1782640800},"SBPJ":{"icaoId":"SBPJ","flightCategory":"VFR","rawOb":"METAR SBPJ 281000Z 02002KT CAVOK 26/18 Q1016","temp":26,"dewp":18,"wdir":20,"wspd":2,"visib":"6+","altim":1016,"clouds":[],"obsTime":1782640800},"SBTE":{"icaoId":"SBTE","flightCategory":"VFR","rawOb":"METAR SBTE 281000Z 16004KT 9999 FEW015 SCT040 BKN070 24/22 Q1014","temp":24,"dewp":22,"wdir":160,"wspd":4,"visib":"6+","altim":1014,"clouds":[{"cover":"FEW","base":1500},{"cover":"SCT","base":4000},{"cover":"BKN","base":7000}],"obsTime":1782640800},"SBBR":{"icaoId":"SBBR","flightCategory":"VFR","rawOb":"METAR SBBR 281000Z 20003KT CAVOK 15/13 Q1025","temp":15,"dewp":13,"wdir":200,"wspd":3,"visib":"6+","altim":1025,"clouds":[],"obsTime":1782640800},"SBOI":{"icaoId":"SBOI","flightCategory":"MVFR","rawOb":"METAR SBOI 281000Z AUTO VRB01KT 9999 FEW009 BKN023 24/24 Q1014","temp":24,"dewp":24,"wdir":"VRB","wspd":1,"visib":"6+","altim":1014,"clouds":[{"cover":"FEW","base":900},{"cover":"BKN","base":2300}],"obsTime":1782640800},"SBTF":{"icaoId":"SBTF","flightCategory":"IFR","rawOb":"SPECI SBTF 281115Z 23002KT 9999 BKN007 24/24 Q1014","temp":24,"dewp":24,"wdir":230,"wspd":2,"visib":"6+","altim":1014,"clouds":[{"cover":"BKN","base":700}],"obsTime":1782645300},"SBPP":{"icaoId":"SBPP","flightCategory":"VFR","rawOb":"SPECI SBPP 281115Z 08005KT 9999 SCT025 17/16 Q1019","temp":17,"dewp":16,"wdir":80,"wspd":5,"visib":"6+","altim":1019,"clouds":[{"cover":"SCT","base":2500}],"obsTime":1782645300},"SBES":{"icaoId":"SBES","flightCategory":"VFR","rawOb":"METAR SBES 281000Z 05007KT 010V080 9999 SCT010 20/// Q1022","temp":null,"dewp":null,"wdir":50,"wspd":7,"visib":"6+","altim":1022,"clouds":[{"cover":"SCT","base":1000}],"obsTime":1782640800},"SBSJ":{"icaoId":"SBSJ","flightCategory":"LIFR","rawOb":"METAR SBSJ 281000Z VRB02KT 0800 R16/P2000 R34/P2000 FG VV004 16/16 Q1024","temp":16,"dewp":16,"wdir":"VRB","wspd":2,"visib":0.5,"altim":1024,"clouds":[{"cover":"OVX","base":400}],"obsTime":1782640800},"SBVH":{"icaoId":"SBVH","flightCategory":"VFR","rawOb":"METAR SBVH 281100Z 09003KT CAVOK 19/16 Q1018","temp":19,"dewp":16,"wdir":90,"wspd":3,"visib":"6+","altim":1018,"clouds":[],"obsTime":1782644400},"SBPL":{"icaoId":"SBPL","flightCategory":"VFR","rawOb":"METAR SBPL 281000Z 11007KT CAVOK 22/18 Q1019","temp":22,"dewp":18,"wdir":110,"wspd":7,"visib":"6+","altim":1019,"clouds":[],"obsTime":1782640800},"SBTU":{"icaoId":"SBTU","flightCategory":"VFR","rawOb":"METAR SBTU 281000Z AUTO 27002KT 9999 // FEW031/// BKN040/// OVC082/// ///// Q1015","temp":null,"dewp":null,"wdir":270,"wspd":2,"visib":"6+","altim":1015,"clouds":[{"cover":"FEW","base":3100},{"cover":"BKN","base":4000},{"cover":"OVC","base":8200}],"obsTime":1782640800},"SBPS":{"icaoId":"SBPS","flightCategory":"VFR","rawOb":"METAR SBPS 281000Z 25006KT 9999 FEW025 SCT050 21/20 Q1021","temp":21,"dewp":20,"wdir":250,"wspd":6,"visib":"6+","altim":1021,"clouds":[{"cover":"FEW","base":2500},{"cover":"SCT","base":5000}],"obsTime":1782640800},"SBTT":{"icaoId":"SBTT","flightCategory":"IFR","rawOb":"METAR SBTT 281100Z 18005KT 9999 BKN009 BKN025 22/21 Q1015","temp":22,"dewp":21,"wdir":180,"wspd":5,"visib":"6+","altim":1015,"clouds":[{"cover":"BKN","base":900},{"cover":"BKN","base":2500}],"obsTime":1782644400},"SBAR":{"icaoId":"SBAR","flightCategory":"IFR","rawOb":"METAR SBAR 281000Z 12008KT 2000 -RA BKN013 OVC030 25/23 Q1017","temp":25,"dewp":23,"wdir":120,"wspd":8,"visib":1.24,"altim":1017,"clouds":[{"cover":"BKN","base":1300},{"cover":"OVC","base":3000}],"obsTime":1782640800},"SBCJ":{"icaoId":"SBCJ","flightCategory":"VFR","rawOb":"SPECI SBCJ 281015Z 14005KT 9999 FEW025 23/19 Q1019","temp":23,"dewp":19,"wdir":140,"wspd":5,"visib":"6+","altim":1019,"clouds":[{"cover":"FEW","base":2500}],"obsTime":1782641700},"SBPB":{"icaoId":"SBPB","flightCategory":"VFR","rawOb":"SPECI SBPB 281015Z 17003KT 9999 FEW020 BKN090 26/24 Q1014","temp":26,"dewp":24,"wdir":170,"wspd":3,"visib":"6+","altim":1014,"clouds":[{"cover":"FEW","base":2000},{"cover":"BKN","base":9000}],"obsTime":1782641700},"SBKG":{"icaoId":"SBKG","flightCategory":"MVFR","rawOb":"METAR SBKG 281000Z 14006KT 9999 SCT007 BKN015 21/19 Q1019","temp":21,"dewp":19,"wdir":140,"wspd":6,"visib":"6+","altim":1019,"clouds":[{"cover":"SCT","base":700},{"cover":"BKN","base":1500}],"obsTime":1782640800},"SBCA":{"icaoId":"SBCA","flightCategory":"VFR","rawOb":"METAR SBCA 281000Z 04013KT 9999 FEW007 BKN100 17/15 Q1020","temp":17,"dewp":15,"wdir":40,"wspd":13,"visib":"6+","altim":1020,"clouds":[{"cover":"FEW","base":700},{"cover":"BKN","base":10000}],"obsTime":1782640800},"SBCO":{"icaoId":"SBCO","flightCategory":"VFR","rawOb":"METAR SBCO 281000Z VRB02KT 9999 -TSRA FEW010 FEW030CB BKN100 13/12 Q1017","temp":13,"dewp":12,"wdir":"VRB","wspd":2,"visib":"6+","altim":1017,"clouds":[{"cover":"FEW","base":1000},{"cover":"FEW","base":3000},{"cover":"BKN","base":10000}],"obsTime":1782640800},"SBSM":{"icaoId":"SBSM","flightCategory":"MVFR","rawOb":"METAR SBSM 281000Z 06002KT 8000 TSRA BKN022 BKN045 FEW050CB 16/16 Q1015 RETSRA","temp":16,"dewp":16,"wdir":60,"wspd":2,"visib":4.97,"altim":1015,"clouds":[{"cover":"BKN","base":2200},{"cover":"BKN","base":4500},{"cover":"FEW","base":5000}],"obsTime":1782640800},"SBCC":{"icaoId":"SBCC","flightCategory":"VFR","rawOb":"METAR SBCC 281100Z 07004KT CAVOK 24/19 Q1017","temp":24,"dewp":19,"wdir":70,"wspd":4,"visib":"6+","altim":1017,"clouds":[],"obsTime":1782644400},"SBAX":{"icaoId":"SBAX","flightCategory":"VFR","rawOb":"METAR SBAX 281000Z AUTO 11005KT CAVOK 14/14 Q1025","temp":14,"dewp":14,"wdir":110,"wspd":5,"visib":"6+","altim":1025,"clouds":[],"obsTime":1782640800},"SBBH":{"icaoId":"SBBH","flightCategory":"VFR","rawOb":"METAR SBBH 281000Z 00000KT CAVOK 15/13 Q1026","temp":15,"dewp":13,"wdir":0,"wspd":0,"visib":"6+","altim":1026,"clouds":[],"obsTime":1782640800},"SBBU":{"icaoId":"SBBU","flightCategory":"VFR","rawOb":"METAR SBBU 281000Z 07008KT CAVOK 19/17 Q1021","temp":19,"dewp":17,"wdir":70,"wspd":8,"visib":"6+","altim":1021,"clouds":[],"obsTime":1782640800},"SBDN":{"icaoId":"SBDN","flightCategory":"VFR","rawOb":"METAR SBDN 281000Z 08005KT CAVOK 17/15 Q1019","temp":17,"dewp":15,"wdir":80,"wspd":5,"visib":"6+","altim":1019,"clouds":[],"obsTime":1782640800},"SBIP":{"icaoId":"SBIP","flightCategory":"VFR","rawOb":"METAR SBIP 281000Z AUTO 00000KT 9999 FEW003 16/16 Q1024","temp":16,"dewp":16,"wdir":0,"wspd":0,"visib":"6+","altim":1024,"clouds":[{"cover":"FEW","base":300}],"obsTime":1782640800},"SBSC":{"icaoId":"SBSC","flightCategory":"IFR","rawOb":"METAR SBSC 281000Z 03004KT 3000 BR FEW005 SCT025 19/18 Q1021","temp":19,"dewp":18,"wdir":30,"wspd":4,"visib":1.86,"altim":1021,"clouds":[{"cover":"FEW","base":500},{"cover":"SCT","base":2500}],"obsTime":1782640800},"SBSR":{"icaoId":"SBSR","flightCategory":"VFR","rawOb":"METAR SBSR 281000Z 08006KT CAVOK 18/15 Q1021","temp":18,"dewp":15,"wdir":80,"wspd":6,"visib":"6+","altim":1021,"clouds":[],"obsTime":1782640800},"SBUY":{"icaoId":"SBUY","flightCategory":"IFR","rawOb":"METAR SBUY 281100Z 22001KT 5000 BR BKN008 SCT070 22/22 Q1013","temp":22,"dewp":22,"wdir":220,"wspd":1,"visib":3.11,"altim":1013,"clouds":[{"cover":"BKN","base":800},{"cover":"SCT","base":7000}],"obsTime":1782644400},"SBLE":{"icaoId":"SBLE","flightCategory":"LIFR","rawOb":"METAR SBLE 281000Z AUTO 15007KT 9000 OVC003 ///// Q////","temp":null,"dewp":null,"wdir":150,"wspd":7,"visib":5.59,"altim":null,"clouds":[{"cover":"OVC","base":300}],"obsTime":1782640800},"SBAF":{"icaoId":"SBAF","flightCategory":"IFR","rawOb":"METAR SBAF 281000Z 26002KT 2000 BR OVC009 19/19 Q1022","temp":19,"dewp":19,"wdir":260,"wspd":2,"visib":1.24,"altim":1022,"clouds":[{"cover":"OVC","base":900}],"obsTime":1782640800},"SBGW":{"icaoId":"SBGW","flightCategory":"IFR","rawOb":"METAR SBGW 281000Z VRB03KT 4000 BR OVC009 17/14 Q1024","temp":17,"dewp":14,"wdir":"VRB","wspd":3,"visib":2.49,"altim":1024,"clouds":[{"cover":"OVC","base":900}],"obsTime":1782640800},"SBJR":{"icaoId":"SBJR","flightCategory":"MVFR","rawOb":"METAR SBJR 281000Z 05002KT 5000 BR NSC 19/19 Q1021","temp":19,"dewp":19,"wdir":50,"wspd":2,"visib":3.11,"altim":1021,"clouds":[],"obsTime":1782640800},"SBAN":{"icaoId":"SBAN","flightCategory":"VFR","rawOb":"METAR SBAN 281000Z 13005KT CAVOK 15/13 Q1024","temp":15,"dewp":13,"wdir":130,"wspd":5,"visib":"6+","altim":1024,"clouds":[],"obsTime":1782640800},"SBLS":{"icaoId":"SBLS","flightCategory":"VFR","rawOb":"METAR SBLS 281000Z 15007KT CAVOK 16/14 Q1025","temp":16,"dewp":14,"wdir":150,"wspd":7,"visib":"6+","altim":1025,"clouds":[],"obsTime":1782640800},"SBMT":{"icaoId":"SBMT","flightCategory":"LIFR","rawOb":"METAR SBMT 281000Z 07005KT 1000 BR OVC003 15/15 Q1024","temp":15,"dewp":15,"wdir":70,"wspd":5,"visib":0.62,"altim":1024,"clouds":[{"cover":"OVC","base":300}],"obsTime":1782640800},"SBST":{"icaoId":"SBST","flightCategory":"IFR","rawOb":"METAR SBST 281100Z 05002KT 4000 BR OVC012 19/18 Q1021","temp":19,"dewp":18,"wdir":50,"wspd":2,"visib":2.49,"altim":1021,"clouds":[{"cover":"OVC","base":1200}],"obsTime":1782644400},"SBTA":{"icaoId":"SBTA","flightCategory":"IFR","rawOb":"METAR SBTA 281000Z VRB01KT 3000 1000N BR OVC005 16/15 Q1023","temp":16,"dewp":15,"wdir":"VRB","wspd":1,"visib":1.86,"altim":1023,"clouds":[{"cover":"OVC","base":500}],"obsTime":1782640800},"SBJP":{"icaoId":"SBJP","flightCategory":"VFR","rawOb":"METAR SBJP 281000Z 17005KT 9999 FEW025 24/22 Q1017","temp":24,"dewp":22,"wdir":170,"wspd":5,"visib":"6+","altim":1017,"clouds":[{"cover":"FEW","base":2500}],"obsTime":1782640800},"SBJV":{"icaoId":"SBJV","flightCategory":"LIFR","rawOb":"METAR SBJV 281000Z 03003KT 3000 -DZ BR BKN002 BKN080 16/16 Q1021","temp":16,"dewp":16,"wdir":30,"wspd":3,"visib":1.86,"altim":1021,"clouds":[{"cover":"BKN","base":200},{"cover":"BKN","base":8000}],"obsTime":1782640800},"SBNM":{"icaoId":"SBNM","flightCategory":"MVFR","rawOb":"SPECI SBNM 281001Z AUTO 01005KT 340V050 7000 TSRA FEW024 BKN030 //////CB 16/16 Q1016","temp":16,"dewp":16,"wdir":10,"wspd":5,"visib":4.35,"altim":1016,"clouds":[{"cover":"FEW","base":2400},{"cover":"BKN","base":3000}],"obsTime":1782640860},"SBIH":{"icaoId":"SBIH","flightCategory":"VFR","rawOb":"METAR SBIH 281100Z 24002KT 9999 FEW015 SCT080 25/25 Q1013","temp":25,"dewp":25,"wdir":240,"wspd":2,"visib":"6+","altim":1013,"clouds":[{"cover":"FEW","base":1500},{"cover":"SCT","base":8000}],"obsTime":1782644400},"SBPF":{"icaoId":"SBPF","flightCategory":"LIFR","rawOb":"METAR SBPF 281000Z 09008KT 1200 -TSRA BKN012 FEW034CB BKN070 14/14 Q1020","temp":14,"dewp":14,"wdir":90,"wspd":8,"visib":0.75,"altim":1020,"clouds":[{"cover":"BKN","base":1200},{"cover":"FEW","base":3400},{"cover":"BKN","base":7000}],"obsTime":1782640800}}}