{"updated":1777807979,"count":81,"data":{"SBCT":{"icaoId":"SBCT","flightCategory":"LIFR","rawOb":"METAR SBCT 031000Z 12004KT 3000 -DZ BKN003 OVC015 15/15 Q1023","temp":15,"dewp":15,"wdir":120,"wspd":4,"visib":1.86,"altim":1023,"clouds":[{"cover":"BKN","base":300},{"cover":"OVC","base":1500}],"obsTime":1777802400},"SBME":{"icaoId":"SBME","flightCategory":"VFR","rawOb":"METAR SBME 031000Z 25009KT CAVOK 25/20 Q1016","temp":25,"dewp":20,"wdir":250,"wspd":9,"visib":"6+","altim":1016,"clouds":[],"obsTime":1777802400},"SBEG":{"icaoId":"SBEG","flightCategory":"MVFR","rawOb":"METAR SBEG 031000Z 14011KT 5000 2000W SHRA BKN020 FEW025TCU BKN070 25/24 Q1011","temp":25,"dewp":24,"wdir":140,"wspd":11,"visib":3.11,"altim":1011,"clouds":[{"cover":"BKN","base":2000},{"cover":"FEW","base":2500},{"cover":"BKN","base":7000}],"obsTime":1777802400},"SBBV":{"icaoId":"SBBV","flightCategory":"VFR","rawOb":"METAR SBBV 031000Z 10007KT 9999 FEW020 FEW035TCU BKN080 25/23 Q1012","temp":25,"dewp":23,"wdir":100,"wspd":7,"visib":"6+","altim":1012,"clouds":[{"cover":"FEW","base":2000},{"cover":"FEW","base":3500},{"cover":"BKN","base":8000}],"obsTime":1777802400},"SBMG":{"icaoId":"SBMG","flightCategory":"LIFR","rawOb":"METAR SBMG 031000Z 18004KT 0200 R10/0550N FG VV001 16/16 Q1018","temp":16,"dewp":16,"wdir":180,"wspd":4,"visib":0.12,"altim":1018,"clouds":[{"cover":"OVX","base":100}],"obsTime":1777802400},"SBMK":{"icaoId":"SBMK","flightCategory":"VFR","rawOb":"METAR SBMK 031000Z 00000KT CAVOK 20/18 Q1019","temp":20,"dewp":18,"wdir":0,"wspd":0,"visib":"6+","altim":1019,"clouds":[],"obsTime":1777802400},"SBFI":{"icaoId":"SBFI","flightCategory":"MVFR","rawOb":"METAR SBFI 031000Z 17003KT 8000 FEW017 16/16 Q1019","temp":16,"dewp":16,"wdir":170,"wspd":3,"visib":4.97,"altim":1019,"clouds":[{"cover":"FEW","base":1700}],"obsTime":1777802400},"SBBE":{"icaoId":"SBBE","flightCategory":"VFR","rawOb":"METAR SBBE 031000Z 15002KT 9999 SCT010 BKN100 24/24 Q1012","temp":24,"dewp":24,"wdir":150,"wspd":2,"visib":"6+","altim":1012,"clouds":[{"cover":"SCT","base":1000},{"cover":"BKN","base":10000}],"obsTime":1777802400},"SBMO":{"icaoId":"SBMO","flightCategory":"VFR","rawOb":"METAR SBMO 031000Z 30003KT 9999 FEW020 23/23 Q1014","temp":23,"dewp":23,"wdir":300,"wspd":3,"visib":"6+","altim":1014,"clouds":[{"cover":"FEW","base":2000}],"obsTime":1777802400},"SBMQ":{"icaoId":"SBMQ","flightCategory":"VFR","rawOb":"METAR SBMQ 031000Z 35003KT 9999 SCT006 BKN047 25/25 Q1012","temp":25,"dewp":25,"wdir":350,"wspd":3,"visib":"6+","altim":1012,"clouds":[{"cover":"SCT","base":600},{"cover":"BKN","base":4700}],"obsTime":1777802400},"SBFL":{"icaoId":"SBFL","flightCategory":"VFR","rawOb":"METAR SBFL 031000Z 16010KT CAVOK 16/08 Q1022","temp":16,"dewp":8,"wdir":160,"wspd":10,"visib":"6+","altim":1022,"clouds":[],"obsTime":1777802400},"SBNT":{"icaoId":"SBNT","flightCategory":"VFR","rawOb":"METAR SBNT 031000Z 20005KT 9999 FEW023 SCT050 BKN100 25/23 Q1013","temp":25,"dewp":23,"wdir":200,"wspd":5,"visib":"6+","altim":1013,"clouds":[{"cover":"FEW","base":2300},{"cover":"SCT","base":5000},{"cover":"BKN","base":10000}],"obsTime":1777802400},"SBCG":{"icaoId":"SBCG","flightCategory":"VFR","rawOb":"METAR SBCG 031000Z 10008KT CAVOK 21/15 Q1018","temp":21,"dewp":15,"wdir":100,"wspd":8,"visib":"6+","altim":1018,"clouds":[],"obsTime":1777802400},"SBFZ":{"icaoId":"SBFZ","flightCategory":"MVFR","rawOb":"METAR SBFZ 031000Z 16008KT 8000 -RA SCT020 BKN070 24/23 Q1013","temp":24,"dewp":23,"wdir":160,"wspd":8,"visib":4.97,"altim":1013,"clouds":[{"cover":"SCT","base":2000},{"cover":"BKN","base":7000}],"obsTime":1777802400},"SBPA":{"icaoId":"SBPA","flightCategory":"VFR","rawOb":"METAR SBPA 031000Z 21003KT 190V250 CAVOK 11/05 Q1024","temp":11,"dewp":5,"wdir":210,"wspd":3,"visib":"6+","altim":1024,"clouds":[],"obsTime":1777802400},"SBPJ":{"icaoId":"SBPJ","flightCategory":"VFR","rawOb":"METAR SBPJ 031000Z 16003KT CAVOK 25/22 Q1013","temp":25,"dewp":22,"wdir":160,"wspd":3,"visib":"6+","altim":1013,"clouds":[],"obsTime":1777802400},"SBGL":{"icaoId":"SBGL","flightCategory":"IFR","rawOb":"METAR SBGL 031000Z 31003KT 2500 -RA BR FEW010 BKN016 OVC070 24/21 Q1018","temp":24,"dewp":21,"wdir":310,"wspd":3,"visib":1.55,"altim":1018,"clouds":[{"cover":"FEW","base":1000},{"cover":"BKN","base":1600},{"cover":"OVC","base":7000}],"obsTime":1777802400},"SBPV":{"icaoId":"SBPV","flightCategory":"VFR","rawOb":"METAR SBPV 031000Z 11002KT CAVOK 26/23 Q1011","temp":26,"dewp":23,"wdir":110,"wspd":2,"visib":"6+","altim":1011,"clouds":[],"obsTime":1777802400},"SBBR":{"icaoId":"SBBR","flightCategory":"VFR","rawOb":"METAR SBBR 031000Z 12004KT CAVOK 20/17 Q1021","temp":20,"dewp":17,"wdir":120,"wspd":4,"visib":"6+","altim":1021,"clouds":[],"obsTime":1777802400},"SBRB":{"icaoId":"SBRB","flightCategory":"VFR","rawOb":"METAR SBRB 031000Z 19001KT 9999 SCT002 24/23 Q1012","temp":24,"dewp":23,"wdir":190,"wspd":1,"visib":"6+","altim":1012,"clouds":[{"cover":"SCT","base":200}],"obsTime":1777802400},"SBCP":{"icaoId":"SBCP","flightCategory":"VFR","rawOb":"METAR SBCP 031000Z 22007KT 9999 SCT040 SCT100 24/21 Q1016","temp":24,"dewp":21,"wdir":220,"wspd":7,"visib":"6+","altim":1016,"clouds":[{"cover":"SCT","base":4000},{"cover":"SCT","base":10000}],"obsTime":1777802400},"SBRF":{"icaoId":"SBRF","flightCategory":"VFR","rawOb":"METAR SBRF 031000Z VRB02KT 9999 SCT023 FEW025TCU 25/24 Q1014","temp":25,"dewp":24,"wdir":"VRB","wspd":2,"visib":"6+","altim":1014,"clouds":[{"cover":"SCT","base":2300},{"cover":"FEW","base":2500}],"obsTime":1777802400},"SBGO":{"icaoId":"SBGO","flightCategory":"VFR","rawOb":"METAR SBGO 031000Z VRB02KT CAVOK 19/17 Q1019","temp":19,"dewp":17,"wdir":"VRB","wspd":2,"visib":"6+","altim":1019,"clouds":[],"obsTime":1777802400},"SBSG":{"icaoId":"SBSG","flightCategory":"VFR","rawOb":"METAR SBSG 031000Z 18004KT 140V210 9999 FEW015 BKN070 24/23 Q1014","temp":24,"dewp":23,"wdir":180,"wspd":4,"visib":"6+","altim":1014,"clouds":[{"cover":"FEW","base":1500},{"cover":"BKN","base":7000}],"obsTime":1777802400},"SBCR":{"icaoId":"SBCR","flightCategory":"VFR","rawOb":"METAR SBCR 031100Z 25005KT 9999 FEW007 BKN070 24/23 Q1016","temp":24,"dewp":23,"wdir":250,"wspd":5,"visib":"6+","altim":1016,"clouds":[{"cover":"FEW","base":700},{"cover":"BKN","base":7000}],"obsTime":1777806000},"SBSL":{"icaoId":"SBSL","flightCategory":"MVFR","rawOb":"METAR SBSL 031000Z VRB01KT 9999 SCT010 BKN014 FEW025TCU 24/23 Q1012","temp":24,"dewp":23,"wdir":"VRB","wspd":1,"visib":"6+","altim":1012,"clouds":[{"cover":"SCT","base":1000},{"cover":"BKN","base":1400},{"cover":"FEW","base":2500}],"obsTime":1777802400},"SBCF":{"icaoId":"SBCF","flightCategory":"VFR","rawOb":"METAR SBCF 031000Z 18002KT 9000 NSC 17/16 Q1020","temp":17,"dewp":16,"wdir":180,"wspd":2,"visib":5.59,"altim":1020,"clouds":[],"obsTime":1777802400},"SBAT":{"icaoId":"SBAT","flightCategory":"VFR","rawOb":"METAR SBAT 031100Z 20001KT CAVOK 25/24 Q1014","temp":25,"dewp":24,"wdir":200,"wspd":1,"visib":"6+","altim":1014,"clouds":[],"obsTime":1777806000},"SBLO":{"icaoId":"SBLO","flightCategory":"VFR","rawOb":"METAR SBLO 031000Z 20004KT CAVOK 17/15 Q1019","temp":17,"dewp":15,"wdir":200,"wspd":4,"visib":"6+","altim":1019,"clouds":[],"obsTime":1777802400},"SBMA":{"icaoId":"SBMA","flightCategory":"VFR","rawOb":"METAR SBMA 031000Z 00000KT 9999 FEW012 BKN070 25/24 Q1012","temp":25,"dewp":24,"wdir":0,"wspd":0,"visib":"6+","altim":1012,"clouds":[{"cover":"FEW","base":1200},{"cover":"BKN","base":7000}],"obsTime":1777802400},"SBSN":{"icaoId":"SBSN","flightCategory":"VFR","rawOb":"METAR SBSN 031000Z 08010KT 9999 -RA SCT010 OVC100 26/24 Q1012 RERA","temp":26,"dewp":24,"wdir":80,"wspd":10,"visib":"6+","altim":1012,"clouds":[{"cover":"SCT","base":1000},{"cover":"OVC","base":10000}],"obsTime":1777802400},"SBGR":{"icaoId":"SBGR","flightCategory":"MVFR","rawOb":"METAR SBGR 031000Z 11003KT 8000 OVC011 19/17 Q1022","temp":19,"dewp":17,"wdir":110,"wspd":3,"visib":4.97,"altim":1022,"clouds":[{"cover":"OVC","base":1100}],"obsTime":1777802400},"SBSP":{"icaoId":"SBSP","flightCategory":"MVFR","rawOb":"METAR SBSP 031000Z 15012KT 9999 BKN015 18/17 Q1023","temp":18,"dewp":17,"wdir":150,"wspd":12,"visib":"6+","altim":1023,"clouds":[{"cover":"BKN","base":1500}],"obsTime":1777802400},"SBHT":{"icaoId":"SBHT","flightCategory":"MVFR","rawOb":"METAR SBHT 031000Z 00000KT 9999 FEW010 BKN015 BKN080 26/25 Q1012","temp":26,"dewp":25,"wdir":0,"wspd":0,"visib":"6+","altim":1012,"clouds":[{"cover":"FEW","base":1000},{"cover":"BKN","base":1500},{"cover":"BKN","base":8000}],"obsTime":1777802400},"SBSV":{"icaoId":"SBSV","flightCategory":"VFR","rawOb":"METAR SBSV 031000Z 16006KT 120V180 9999 FEW025 28/22 Q1015","temp":28,"dewp":22,"wdir":160,"wspd":6,"visib":"6+","altim":1015,"clouds":[{"cover":"FEW","base":2500}],"obsTime":1777802400},"SBTE":{"icaoId":"SBTE","flightCategory":"MVFR","rawOb":"METAR SBTE 031000Z 11005KT 9999 BKN016 BKN100 26/23 Q1012","temp":26,"dewp":23,"wdir":110,"wspd":5,"visib":"6+","altim":1012,"clouds":[{"cover":"BKN","base":1600},{"cover":"BKN","base":10000}],"obsTime":1777802400},"SBUL":{"icaoId":"SBUL","flightCategory":"VFR","rawOb":"METAR SBUL 031000Z 13007KT 9999 FEW040 19/14 Q1020","temp":19,"dewp":14,"wdir":130,"wspd":7,"visib":"6+","altim":1020,"clouds":[{"cover":"FEW","base":4000}],"obsTime":1777802400},"SBIL":{"icaoId":"SBIL","flightCategory":"VFR","rawOb":"METAR SBIL 031000Z 30005KT CAVOK 24/24 Q1016","temp":24,"dewp":24,"wdir":300,"wspd":5,"visib":"6+","altim":1016,"clouds":[],"obsTime":1777802400},"SBUR":{"icaoId":"SBUR","flightCategory":"VFR","rawOb":"METAR SBUR 031000Z 07004KT CAVOK 20/14 Q1018","temp":20,"dewp":14,"wdir":70,"wspd":4,"visib":"6+","altim":1018,"clouds":[],"obsTime":1777802400},"SBJU":{"icaoId":"SBJU","flightCategory":"VFR","rawOb":"METAR SBJU 031000Z 20003KT 9999 FEW018 SCT070 24/21 Q1016","temp":24,"dewp":21,"wdir":200,"wspd":3,"visib":"6+","altim":1016,"clouds":[{"cover":"FEW","base":1800},{"cover":"SCT","base":7000}],"obsTime":1777802400},"SBVT":{"icaoId":"SBVT","flightCategory":"VFR","rawOb":"METAR SBVT 031000Z 23006KT 9999 FEW040 SCT070 24/22 Q1016","temp":24,"dewp":22,"wdir":230,"wspd":6,"visib":"6+","altim":1016,"clouds":[{"cover":"FEW","base":4000},{"cover":"SCT","base":7000}],"obsTime":1777802400},"SBCB":{"icaoId":"SBCB","flightCategory":"MVFR","rawOb":"METAR SBCB 031000Z 27015KT 7000 SCT010 BKN025 25/22 Q1017","temp":25,"dewp":22,"wdir":270,"wspd":15,"visib":4.35,"altim":1017,"clouds":[{"cover":"SCT","base":1000},{"cover":"BKN","base":2500}],"obsTime":1777802400},"SBKP":{"icaoId":"SBKP","flightCategory":"VFR","rawOb":"METAR SBKP 031000Z 13006KT 9999 FEW017 19/16 Q1021","temp":19,"dewp":16,"wdir":130,"wspd":6,"visib":"6+","altim":1021,"clouds":[{"cover":"FEW","base":1700}],"obsTime":1777802400},"SBSJ":{"icaoId":"SBSJ","flightCategory":"MVFR","rawOb":"METAR SBSJ 031000Z 00000KT 7000 OVC020 18/16 Q1021","temp":18,"dewp":16,"wdir":0,"wspd":0,"visib":4.35,"altim":1021,"clouds":[{"cover":"OVC","base":2000}],"obsTime":1777802400},"SBPP":{"icaoId":"SBPP","flightCategory":"VFR","rawOb":"SPECI SBPP 031115Z 06007KT 9999 FEW009 BKN070 20/18 Q1020","temp":20,"dewp":18,"wdir":60,"wspd":7,"visib":"6+","altim":1020,"clouds":[{"cover":"FEW","base":900},{"cover":"BKN","base":7000}],"obsTime":1777806900},"SBBH":{"icaoId":"SBBH","flightCategory":"VFR","rawOb":"METAR SBBH 031000Z 09002KT CAVOK 18/15 Q1020","temp":18,"dewp":15,"wdir":90,"wspd":2,"visib":"6+","altim":1020,"clouds":[],"obsTime":1777802400},"SBVH":{"icaoId":"SBVH","flightCategory":"VFR","rawOb":"METAR SBVH 031100Z 11002KT CAVOK 21/20 Q1017","temp":21,"dewp":20,"wdir":110,"wspd":2,"visib":"6+","altim":1017,"clouds":[],"obsTime":1777806000},"SBAX":{"icaoId":"SBAX","flightCategory":"VFR","rawOb":"METAR SBAX 031000Z AUTO 10002KT CAVOK 17/15 Q1020","temp":17,"dewp":15,"wdir":100,"wspd":2,"visib":"6+","altim":1020,"clouds":[],"obsTime":1777802400},"SBCO":{"icaoId":"SBCO","flightCategory":"VFR","rawOb":"METAR SBCO 031000Z 06003KT CAVOK 09/08 Q1025","temp":9,"dewp":8,"wdir":60,"wspd":3,"visib":"6+","altim":1025,"clouds":[],"obsTime":1777802400},"SBDN":{"icaoId":"SBDN","flightCategory":"VFR","rawOb":"METAR SBDN 031000Z 07002KT CAVOK 17/15 Q1018","temp":17,"dewp":15,"wdir":70,"wspd":2,"visib":"6+","altim":1018,"clouds":[],"obsTime":1777802400},"SBES":{"icaoId":"SBES","flightCategory":"VFR","rawOb":"METAR SBES 031000Z 00000KT 9000 FEW015 SCT040 21/// Q1017","temp":null,"dewp":null,"wdir":0,"wspd":0,"visib":5.59,"altim":1017,"clouds":[{"cover":"FEW","base":1500},{"cover":"SCT","base":4000}],"obsTime":1777802400},"SBIP":{"icaoId":"SBIP","flightCategory":"LIFR","rawOb":"METAR SBIP 031000Z AUTO VRB01KT 0500 FG VV001 20/20 Q1018","temp":20,"dewp":20,"wdir":"VRB","wspd":1,"visib":0.31,"altim":1018,"clouds":[{"cover":"OVX","base":100}],"obsTime":1777802400},"SBKG":{"icaoId":"SBKG","flightCategory":"VFR","rawOb":"METAR SBKG 031000Z 17003KT 9999 FEW010 22/21 Q1016","temp":22,"dewp":21,"wdir":170,"wspd":3,"visib":"6+","altim":1016,"clouds":[{"cover":"FEW","base":1000}],"obsTime":1777802400},"SBOI":{"icaoId":"SBOI","flightCategory":"VFR","rawOb":"METAR SBOI 031100Z AUTO 03004KT 360V060 9999 FEW019 27/26 Q1013","temp":27,"dewp":26,"wdir":30,"wspd":4,"visib":"6+","altim":1013,"clouds":[{"cover":"FEW","base":1900}],"obsTime":1777806000},"SBPB":{"icaoId":"SBPB","flightCategory":"MVFR","rawOb":"METAR SBPB 031100Z 08011KT 9999 BKN016 OVC080 25/23 Q1014","temp":25,"dewp":23,"wdir":80,"wspd":11,"visib":"6+","altim":1014,"clouds":[{"cover":"BKN","base":1600},{"cover":"OVC","base":8000}],"obsTime":1777806000},"SBPL":{"icaoId":"SBPL","flightCategory":"VFR","rawOb":"METAR SBPL 031000Z 13008KT 9999 FEW025 24/20 Q1016","temp":24,"dewp":20,"wdir":130,"wspd":8,"visib":"6+","altim":1016,"clouds":[{"cover":"FEW","base":2500}],"obsTime":1777802400},"SBPS":{"icaoId":"SBPS","flightCategory":"VFR","rawOb":"METAR SBPS 031000Z 26004KT 9999 SCT020 24/22 Q1016","temp":24,"dewp":22,"wdir":260,"wspd":4,"visib":"6+","altim":1016,"clouds":[{"cover":"SCT","base":2000}],"obsTime":1777802400},"SBSC":{"icaoId":"SBSC","flightCategory":"MVFR","rawOb":"METAR SBSC 031000Z 18013KT 8000 FEW010 SCT030 BKN050 23/20 Q1018","temp":23,"dewp":20,"wdir":180,"wspd":13,"visib":4.97,"altim":1018,"clouds":[{"cover":"FEW","base":1000},{"cover":"SCT","base":3000},{"cover":"BKN","base":5000}],"obsTime":1777802400},"SBSM":{"icaoId":"SBSM","flightCategory":"VFR","rawOb":"METAR SBSM 031000Z VRB01KT 9999 MIFG NSC 05/05 Q1025","temp":5,"dewp":5,"wdir":"VRB","wspd":1,"visib":"6+","altim":1025,"clouds":[],"obsTime":1777802400},"SBSR":{"icaoId":"SBSR","flightCategory":"VFR","rawOb":"METAR SBSR 031000Z 10004KT 9999 FEW040 SCT100 20/14 Q1018","temp":20,"dewp":14,"wdir":100,"wspd":4,"visib":"6+","altim":1018,"clouds":[{"cover":"FEW","base":4000},{"cover":"SCT","base":10000}],"obsTime":1777802400},"SBTF":{"icaoId":"SBTF","flightCategory":"VFR","rawOb":"METAR SBTF 031000Z 16002KT 9999 FEW010 BKN090 25/25 Q1010","temp":25,"dewp":25,"wdir":160,"wspd":2,"visib":"6+","altim":1010,"clouds":[{"cover":"FEW","base":1000},{"cover":"BKN","base":9000}],"obsTime":1777802400},"SBTT":{"icaoId":"SBTT","flightCategory":"MVFR","rawOb":"METAR SBTT 031100Z 08004KT 7000 -RA SCT007 BKN050 23/22 Q1013","temp":23,"dewp":22,"wdir":80,"wspd":4,"visib":4.35,"altim":1013,"clouds":[{"cover":"SCT","base":700},{"cover":"BKN","base":5000}],"obsTime":1777806000},"SBUY":{"icaoId":"SBUY","flightCategory":"IFR","rawOb":"METAR SBUY 031100Z 00000KT 3000 BR FEW002 FEW030TCU BKN080 24/24 Q1011","temp":24,"dewp":24,"wdir":0,"wspd":0,"visib":1.86,"altim":1011,"clouds":[{"cover":"FEW","base":200},{"cover":"FEW","base":3000},{"cover":"BKN","base":8000}],"obsTime":1777806000},"SBAR":{"icaoId":"SBAR","flightCategory":"VFR","rawOb":"METAR SBAR 031000Z 22005KT 9999 FEW025 BKN050 25/24 Q1014","temp":25,"dewp":24,"wdir":220,"wspd":5,"visib":"6+","altim":1014,"clouds":[{"cover":"FEW","base":2500},{"cover":"BKN","base":5000}],"obsTime":1777802400},"SBBU":{"icaoId":"SBBU","flightCategory":"VFR","rawOb":"METAR SBBU 031000Z 11011KT CAVOK 19/16 Q1020","temp":19,"dewp":16,"wdir":110,"wspd":11,"visib":"6+","altim":1020,"clouds":[],"obsTime":1777802400},"SBCA":{"icaoId":"SBCA","flightCategory":"LIFR","rawOb":"METAR SBCA 031100Z 16009KT 9999 BKN004 15/15 Q1021","temp":15,"dewp":15,"wdir":160,"wspd":9,"visib":"6+","altim":1021,"clouds":[{"cover":"BKN","base":400}],"obsTime":1777806000},"SBCC":{"icaoId":"SBCC","flightCategory":"VFR","rawOb":"METAR SBCC 031100Z /////KT CAVOK ///// Q1015","temp":null,"dewp":null,"wdir":null,"wspd":null,"visib":"6+","altim":1015,"clouds":[],"obsTime":1777806000},"SBCJ":{"icaoId":"SBCJ","flightCategory":"MVFR","rawOb":"SPECI SBCJ 031015Z 00000KT 9999 BKN017 23/22 Q1017","temp":23,"dewp":22,"wdir":0,"wspd":0,"visib":"6+","altim":1017,"clouds":[{"cover":"BKN","base":1700}],"obsTime":1777803300},"SBJR":{"icaoId":"SBJR","flightCategory":"MVFR","rawOb":"METAR SBJR 031000Z 20009KT 8000 BKN010 BKN030 OVC060 23/21 Q1018","temp":23,"dewp":21,"wdir":200,"wspd":9,"visib":4.97,"altim":1018,"clouds":[{"cover":"BKN","base":1000},{"cover":"BKN","base":3000},{"cover":"OVC","base":6000}],"obsTime":1777802400},"SBPF":{"icaoId":"SBPF","flightCategory":"VFR","rawOb":"METAR SBPF 031000Z 15009KT CAVOK 08/05 Q1023","temp":8,"dewp":5,"wdir":150,"wspd":9,"visib":"6+","altim":1023,"clouds":[],"obsTime":1777802400},"SBLS":{"icaoId":"SBLS","flightCategory":"VFR","rawOb":"METAR SBLS 031000Z 20004KT CAVOK 16/15 Q1020","temp":16,"dewp":15,"wdir":200,"wspd":4,"visib":"6+","altim":1020,"clouds":[],"obsTime":1777802400},"SBMT":{"icaoId":"SBMT","flightCategory":"MVFR","rawOb":"METAR SBMT 031000Z 12008KT 100V170 6000 -DZ SCT009 BKN013 18/17 Q1022","temp":18,"dewp":17,"wdir":120,"wspd":8,"visib":3.73,"altim":1022,"clouds":[{"cover":"SCT","base":900},{"cover":"BKN","base":1300}],"obsTime":1777802400},"SBIH":{"icaoId":"SBIH","flightCategory":"VFR","rawOb":"METAR SBIH 031100Z 08003KT 9999 FEW010 BKN080 26/25 Q1012","temp":26,"dewp":25,"wdir":80,"wspd":3,"visib":"6+","altim":1012,"clouds":[{"cover":"FEW","base":1000},{"cover":"BKN","base":8000}],"obsTime":1777806000},"SBTA":{"icaoId":"SBTA","flightCategory":"VFR","rawOb":"METAR SBTA 031000Z 23003KT 9999 SCT025 BKN035 18/18 Q1021","temp":18,"dewp":18,"wdir":230,"wspd":3,"visib":"6+","altim":1021,"clouds":[{"cover":"SCT","base":2500},{"cover":"BKN","base":3500}],"obsTime":1777802400},"SBLE":{"icaoId":"SBLE","flightCategory":"LIFR","rawOb":"METAR SBLE 031000Z AUTO 19004KT 130V230 9999 BKN002 OVC010 ///// Q////","temp":null,"dewp":null,"wdir":190,"wspd":4,"visib":"6+","altim":null,"clouds":[{"cover":"BKN","base":200},{"cover":"OVC","base":1000}],"obsTime":1777802400},"SBJP":{"icaoId":"SBJP","flightCategory":"MVFR","rawOb":"METAR SBJP 031000Z 21006KT 9999 BKN020 OVC070 25/24 Q1014","temp":25,"dewp":24,"wdir":210,"wspd":6,"visib":"6+","altim":1014,"clouds":[{"cover":"BKN","base":2000},{"cover":"OVC","base":7000}],"obsTime":1777802400},"SBAF":{"icaoId":"SBAF","flightCategory":"IFR","rawOb":"METAR SBAF 031000Z 19010KT 3000 -RA BR BKN011 BKN015 23/23 Q1018","temp":23,"dewp":23,"wdir":190,"wspd":10,"visib":1.86,"altim":1018,"clouds":[{"cover":"BKN","base":1100},{"cover":"BKN","base":1500}],"obsTime":1777802400},"SBJV":{"icaoId":"SBJV","flightCategory":"MVFR","rawOb":"METAR SBJV 031000Z 14011KT 9999 BKN020 19/15 Q1021","temp":19,"dewp":15,"wdir":140,"wspd":11,"visib":"6+","altim":1021,"clouds":[{"cover":"BKN","base":2000}],"obsTime":1777802400},"SBST":{"icaoId":"SBST","flightCategory":"IFR","rawOb":"METAR SBST 031100Z /////KT 2000 -RA BR OVC015 ///// Q1021","temp":null,"dewp":null,"wdir":null,"wspd":null,"visib":1.24,"altim":1021,"clouds":[{"cover":"OVC","base":1500}],"obsTime":1777806000},"SBGW":{"icaoId":"SBGW","flightCategory":"MVFR","rawOb":"METAR SBGW 031000Z 19004KT 8000 FEW015 BKN070 18/14 Q1021","temp":18,"dewp":14,"wdir":190,"wspd":4,"visib":4.97,"altim":1021,"clouds":[{"cover":"FEW","base":1500},{"cover":"BKN","base":7000}],"obsTime":1777802400},"SBAN":{"icaoId":"SBAN","flightCategory":"VFR","rawOb":"METAR SBAN 031000Z 18006KT CAVOK 17/14 Q1021","temp":17,"dewp":14,"wdir":180,"wspd":6,"visib":"6+","altim":1021,"clouds":[],"obsTime":1777802400}}}