{"updated":1777223274,"count":85,"data":{"SBBV":{"icaoId":"SBBV","flightCategory":"MVFR","rawOb":"METAR SBBV 261600Z 22003KT 5000 -RA SCT008 SCT015 FEW030TCU BKN070 23/23 Q1015 RERA","temp":23,"dewp":23,"wdir":220,"wspd":3,"visib":3.11,"altim":1015,"clouds":[{"cover":"SCT","base":800},{"cover":"SCT","base":1500},{"cover":"FEW","base":3000},{"cover":"BKN","base":7000}],"obsTime":1777219200},"SBMA":{"icaoId":"SBMA","flightCategory":"MVFR","rawOb":"METAR SBMA 261600Z 21005KT 9999 BKN025 31/24 Q1010","temp":31,"dewp":24,"wdir":210,"wspd":5,"visib":"6+","altim":1010,"clouds":[{"cover":"BKN","base":2500}],"obsTime":1777219200},"SBVT":{"icaoId":"SBVT","flightCategory":"VFR","rawOb":"METAR SBVT 261600Z 35005KT 9999 FEW040 34/21 Q1010","temp":34,"dewp":21,"wdir":350,"wspd":5,"visib":"6+","altim":1010,"clouds":[{"cover":"FEW","base":4000}],"obsTime":1777219200},"SBCG":{"icaoId":"SBCG","flightCategory":"VFR","rawOb":"METAR SBCG 261600Z 31011KT 9999 SCT045 31/20 Q1014","temp":31,"dewp":20,"wdir":310,"wspd":11,"visib":"6+","altim":1014,"clouds":[{"cover":"SCT","base":4500}],"obsTime":1777219200},"SBKP":{"icaoId":"SBKP","flightCategory":"VFR","rawOb":"METAR SBKP 261600Z 33008KT 9999 SCT040 31/17 Q1014","temp":31,"dewp":17,"wdir":330,"wspd":8,"visib":"6+","altim":1014,"clouds":[{"cover":"SCT","base":4000}],"obsTime":1777219200},"SBEG":{"icaoId":"SBEG","flightCategory":"MVFR","rawOb":"METAR SBEG 261600Z 33006KT 290V050 9999 BKN025 29/24 Q1013","temp":29,"dewp":24,"wdir":330,"wspd":6,"visib":"6+","altim":1013,"clouds":[{"cover":"BKN","base":2500}],"obsTime":1777219200},"SBLO":{"icaoId":"SBLO","flightCategory":"VFR","rawOb":"METAR SBLO 261600Z 34011KT 9999 SCT040 30/19 Q1012","temp":30,"dewp":19,"wdir":340,"wspd":11,"visib":"6+","altim":1012,"clouds":[{"cover":"SCT","base":4000}],"obsTime":1777219200},"SBMO":{"icaoId":"SBMO","flightCategory":"VFR","rawOb":"METAR SBMO 261600Z 14011KT 9999 SCT033 30/22 Q1012","temp":30,"dewp":22,"wdir":140,"wspd":11,"visib":"6+","altim":1012,"clouds":[{"cover":"SCT","base":3300}],"obsTime":1777219200},"SBFI":{"icaoId":"SBFI","flightCategory":"IFR","rawOb":"SPECI SBFI 261549Z 24002KT 2000 -RA BR FEW003 BKN007 OVC020 23/23 Q1011","temp":23,"dewp":23,"wdir":240,"wspd":2,"visib":1.24,"altim":1011,"clouds":[{"cover":"FEW","base":300},{"cover":"BKN","base":700},{"cover":"OVC","base":2000}],"obsTime":1777218540},"SBMQ":{"icaoId":"SBMQ","flightCategory":"VFR","rawOb":"METAR SBMQ 261600Z 08007KT 9999 SCT023 32/24 Q1011","temp":32,"dewp":24,"wdir":80,"wspd":7,"visib":"6+","altim":1011,"clouds":[{"cover":"SCT","base":2300}],"obsTime":1777219200},"SBFL":{"icaoId":"SBFL","flightCategory":"VFR","rawOb":"METAR SBFL 261600Z COR 33008KT 9999 FEW010 SCT028 OVC100 22/20 Q1008","temp":22,"dewp":20,"wdir":330,"wspd":8,"visib":"6+","altim":1008,"clouds":[{"cover":"FEW","base":1000},{"cover":"SCT","base":2800},{"cover":"OVC","base":10000}],"obsTime":1777219200},"SBNT":{"icaoId":"SBNT","flightCategory":"VFR","rawOb":"METAR SBNT 261600Z 14011KT 9999 SCT030 FEW035TCU BKN080 30/23 Q1010","temp":30,"dewp":23,"wdir":140,"wspd":11,"visib":"6+","altim":1010,"clouds":[{"cover":"SCT","base":3000},{"cover":"FEW","base":3500},{"cover":"BKN","base":8000}],"obsTime":1777219200},"SBBR":{"icaoId":"SBBR","flightCategory":"VFR","rawOb":"METAR SBBR 261600Z 11006KT 060V160 9999 FEW045 27/15 Q1018","temp":27,"dewp":15,"wdir":110,"wspd":6,"visib":"6+","altim":1018,"clouds":[{"cover":"FEW","base":4500}],"obsTime":1777219200},"SBPA":{"icaoId":"SBPA","flightCategory":"MVFR","rawOb":"METAR SBPA 261600Z 28009KT 9999 OVC010 21/20 Q1009","temp":21,"dewp":20,"wdir":280,"wspd":9,"visib":"6+","altim":1009,"clouds":[{"cover":"OVC","base":1000}],"obsTime":1777219200},"SBFZ":{"icaoId":"SBFZ","flightCategory":"MVFR","rawOb":"METAR SBFZ 261600Z COR 07005KT 020V110 9999 BKN015 BKN070 28/24 Q1010","temp":28,"dewp":24,"wdir":70,"wspd":5,"visib":"6+","altim":1010,"clouds":[{"cover":"BKN","base":1500},{"cover":"BKN","base":7000}],"obsTime":1777219200},"SBPJ":{"icaoId":"SBPJ","flightCategory":"VFR","rawOb":"METAR SBPJ 261600Z 29006KT 9999 SCT025 32/24 Q1012","temp":32,"dewp":24,"wdir":290,"wspd":6,"visib":"6+","altim":1012,"clouds":[{"cover":"SCT","base":2500}],"obsTime":1777219200},"SBCP":{"icaoId":"SBCP","flightCategory":"VFR","rawOb":"METAR SBCP 261600Z 31010KT CAVOK 34/20 Q1010","temp":34,"dewp":20,"wdir":310,"wspd":10,"visib":"6+","altim":1010,"clouds":[],"obsTime":1777219200},"SBPV":{"icaoId":"SBPV","flightCategory":"MVFR","rawOb":"METAR SBPV 261600Z 31003KT 260V360 9999 VCSH BKN025 FEW030TCU SCT090 29/26 Q1012","temp":29,"dewp":26,"wdir":310,"wspd":3,"visib":"6+","altim":1012,"clouds":[{"cover":"BKN","base":2500},{"cover":"FEW","base":3000},{"cover":"SCT","base":9000}],"obsTime":1777219200},"SBCB":{"icaoId":"SBCB","flightCategory":"VFR","rawOb":"METAR SBCB 261600Z 08004KT CAVOK 33/21 Q1010","temp":33,"dewp":21,"wdir":80,"wspd":4,"visib":"6+","altim":1010,"clouds":[],"obsTime":1777219200},"SBGL":{"icaoId":"SBGL","flightCategory":"VFR","rawOb":"METAR SBGL 261600Z 35004KT 310V060 CAVOK 35/19 Q1009","temp":35,"dewp":19,"wdir":350,"wspd":4,"visib":"6+","altim":1009,"clouds":[],"obsTime":1777219200},"SBRB":{"icaoId":"SBRB","flightCategory":"MVFR","rawOb":"METAR SBRB 261600Z 04003KT 9999 BKN025 SCT070 31/24 Q1013","temp":31,"dewp":24,"wdir":40,"wspd":3,"visib":"6+","altim":1013,"clouds":[{"cover":"BKN","base":2500},{"cover":"SCT","base":7000}],"obsTime":1777219200},"SBRF":{"icaoId":"SBRF","flightCategory":"VFR","rawOb":"METAR SBRF 261600Z 16016KT 9999 FEW025 30/23 Q1011","temp":30,"dewp":23,"wdir":160,"wspd":16,"visib":"6+","altim":1011,"clouds":[{"cover":"FEW","base":2500}],"obsTime":1777219200},"SBCR":{"icaoId":"SBCR","flightCategory":"VFR","rawOb":"METAR SBCR 261600Z 36007KT 310V050 9999 BKN035 34/22 Q1011","temp":34,"dewp":22,"wdir":360,"wspd":7,"visib":"6+","altim":1011,"clouds":[{"cover":"BKN","base":3500}],"obsTime":1777219200},"SBGO":{"icaoId":"SBGO","flightCategory":"VFR","rawOb":"METAR SBGO 261600Z 34006KT 280V030 CAVOK 31/16 Q1016","temp":31,"dewp":16,"wdir":340,"wspd":6,"visib":"6+","altim":1016,"clouds":[],"obsTime":1777219200},"SBSG":{"icaoId":"SBSG","flightCategory":"MVFR","rawOb":"METAR SBSG 261600Z 14007KT 090V200 9999 BKN030 FEW033TCU 29/23 Q1011","temp":29,"dewp":23,"wdir":140,"wspd":7,"visib":"6+","altim":1011,"clouds":[{"cover":"BKN","base":3000},{"cover":"FEW","base":3300}],"obsTime":1777219200},"SBGR":{"icaoId":"SBGR","flightCategory":"VFR","rawOb":"METAR SBGR 261600Z 31014KT CAVOK 30/17 Q1014","temp":30,"dewp":17,"wdir":310,"wspd":14,"visib":"6+","altim":1014,"clouds":[],"obsTime":1777219200},"SBSL":{"icaoId":"SBSL","flightCategory":"VFR","rawOb":"METAR SBSL 261600Z 05003KT 9999 SCT035 31/24 Q1010","temp":31,"dewp":24,"wdir":50,"wspd":3,"visib":"6+","altim":1010,"clouds":[{"cover":"SCT","base":3500}],"obsTime":1777219200},"SBCT":{"icaoId":"SBCT","flightCategory":"VFR","rawOb":"METAR SBCT 261600Z 28009KT 9999 BKN040 BKN080 22/19 Q1014","temp":22,"dewp":19,"wdir":280,"wspd":9,"visib":"6+","altim":1014,"clouds":[{"cover":"BKN","base":4000},{"cover":"BKN","base":8000}],"obsTime":1777219200},"SBSN":{"icaoId":"SBSN","flightCategory":"VFR","rawOb":"METAR SBSN 261600Z 04008KT 350V060 9999 VCSH SCT021 FEW026TCU 30/25 Q1011","temp":30,"dewp":25,"wdir":40,"wspd":8,"visib":"6+","altim":1011,"clouds":[{"cover":"SCT","base":2100},{"cover":"FEW","base":2600}],"obsTime":1777219200},"SBSP":{"icaoId":"SBSP","flightCategory":"VFR","rawOb":"METAR SBSP 261600Z 33015KT 300V010 9999 SCT045 29/16 Q1015","temp":29,"dewp":16,"wdir":330,"wspd":15,"visib":"6+","altim":1015,"clouds":[{"cover":"SCT","base":4500}],"obsTime":1777219200},"SBCF":{"icaoId":"SBCF","flightCategory":"MVFR","rawOb":"METAR SBCF 261600Z 26004KT 9999 BKN030 28/16 Q1017","temp":28,"dewp":16,"wdir":260,"wspd":4,"visib":"6+","altim":1017,"clouds":[{"cover":"BKN","base":3000}],"obsTime":1777219200},"SBSV":{"icaoId":"SBSV","flightCategory":"VFR","rawOb":"METAR SBSV 261600Z 13009KT 090V160 9999 SCT023 29/23 Q1012","temp":29,"dewp":23,"wdir":130,"wspd":9,"visib":"6+","altim":1012,"clouds":[{"cover":"SCT","base":2300}],"obsTime":1777219200},"SBCZ":{"icaoId":"SBCZ","flightCategory":"MVFR","rawOb":"METAR SBCZ 261600Z 30003KT 9999 BKN024 29/23 Q1013","temp":29,"dewp":23,"wdir":300,"wspd":3,"visib":"6+","altim":1013,"clouds":[{"cover":"BKN","base":2400}],"obsTime":1777219200},"SBBE":{"icaoId":"SBBE","flightCategory":"VFR","rawOb":"METAR SBBE 261600Z 01008KT 9999 SCT037 29/23 Q1010","temp":29,"dewp":23,"wdir":10,"wspd":8,"visib":"6+","altim":1010,"clouds":[{"cover":"SCT","base":3700}],"obsTime":1777219200},"SBTE":{"icaoId":"SBTE","flightCategory":"VFR","rawOb":"METAR SBTE 261600Z 14008KT 9999 SCT020 29/23 Q1010","temp":29,"dewp":23,"wdir":140,"wspd":8,"visib":"6+","altim":1010,"clouds":[{"cover":"SCT","base":2000}],"obsTime":1777219200},"SBUL":{"icaoId":"SBUL","flightCategory":"VFR","rawOb":"METAR SBUL 261600Z 34006KT 9999 SCT030 28/14 Q1018","temp":28,"dewp":14,"wdir":340,"wspd":6,"visib":"6+","altim":1018,"clouds":[{"cover":"SCT","base":3000}],"obsTime":1777219200},"SBUR":{"icaoId":"SBUR","flightCategory":"VFR","rawOb":"METAR SBUR 261600Z 33008KT CAVOK 30/15 Q1016","temp":30,"dewp":15,"wdir":330,"wspd":8,"visib":"6+","altim":1016,"clouds":[],"obsTime":1777219200},"SBHT":{"icaoId":"SBHT","flightCategory":"MVFR","rawOb":"METAR SBHT 261600Z 10003KT 9999 BKN030 31/24 Q1011","temp":31,"dewp":24,"wdir":100,"wspd":3,"visib":"6+","altim":1011,"clouds":[{"cover":"BKN","base":3000}],"obsTime":1777219200},"SBIL":{"icaoId":"SBIL","flightCategory":"VFR","rawOb":"METAR SBIL 261600Z 11007KT 9999 SCT024 FEW025TCU 30/25 Q1013","temp":30,"dewp":25,"wdir":110,"wspd":7,"visib":"6+","altim":1013,"clouds":[{"cover":"SCT","base":2400},{"cover":"FEW","base":2500}],"obsTime":1777219200},"SBJU":{"icaoId":"SBJU","flightCategory":"VFR","rawOb":"METAR SBJU 261600Z 12008KT 9999 FEW020 30/20 Q1013","temp":30,"dewp":20,"wdir":120,"wspd":8,"visib":"6+","altim":1013,"clouds":[{"cover":"FEW","base":2000}],"obsTime":1777219200},"SBME":{"icaoId":"SBME","flightCategory":"VFR","rawOb":"METAR SBME 261600Z 34004KT CAVOK 37/18 Q1009","temp":37,"dewp":18,"wdir":340,"wspd":4,"visib":"6+","altim":1009,"clouds":[],"obsTime":1777219200},"SBMG":{"icaoId":"SBMG","flightCategory":"VFR","rawOb":"METAR SBMG 261600Z 31012KT 9999 SCT045 30/18 Q1012","temp":30,"dewp":18,"wdir":310,"wspd":12,"visib":"6+","altim":1012,"clouds":[{"cover":"SCT","base":4500}],"obsTime":1777219200},"SBMK":{"icaoId":"SBMK","flightCategory":"VFR","rawOb":"METAR SBMK 261600Z 19003KT 9999 BKN040 30/18 Q1015","temp":30,"dewp":18,"wdir":190,"wspd":3,"visib":"6+","altim":1015,"clouds":[{"cover":"BKN","base":4000}],"obsTime":1777219200},"SBAT":{"icaoId":"SBAT","flightCategory":"VFR","rawOb":"METAR SBAT 261600Z 04004KT 9999 SCT030 33/25 Q1012","temp":33,"dewp":25,"wdir":40,"wspd":4,"visib":"6+","altim":1012,"clouds":[{"cover":"SCT","base":3000}],"obsTime":1777219200},"SBAR":{"icaoId":"SBAR","flightCategory":"VFR","rawOb":"METAR SBAR 261600Z 12008KT 9999 FEW025 30/23 Q1012","temp":30,"dewp":23,"wdir":120,"wspd":8,"visib":"6+","altim":1012,"clouds":[{"cover":"FEW","base":2500}],"obsTime":1777219200},"SBSJ":{"icaoId":"SBSJ","flightCategory":"VFR","rawOb":"METAR SBSJ 261600Z 33007KT 9999 FEW040 30/18 Q1014","temp":30,"dewp":18,"wdir":330,"wspd":7,"visib":"6+","altim":1014,"clouds":[{"cover":"FEW","base":4000}],"obsTime":1777219200},"SBPL":{"icaoId":"SBPL","flightCategory":"VFR","rawOb":"METAR SBPL 261600Z 14007KT 9999 FEW035 32/19 Q1013","temp":32,"dewp":19,"wdir":140,"wspd":7,"visib":"6+","altim":1013,"clouds":[{"cover":"FEW","base":3500}],"obsTime":1777219200},"SBPP":{"icaoId":"SBPP","flightCategory":"VFR","rawOb":"METAR SBPP 261600Z 27014KT 9999 SCT020 29/20 Q1014","temp":29,"dewp":20,"wdir":270,"wspd":14,"visib":"6+","altim":1014,"clouds":[{"cover":"SCT","base":2000}],"obsTime":1777219200},"SBOI":{"icaoId":"SBOI","flightCategory":"VFR","rawOb":"METAR SBOI 261600Z AUTO 04008KT 010V090 9999 FEW033 SCT048 32/25 Q1011","temp":32,"dewp":25,"wdir":40,"wspd":8,"visib":"6+","altim":1011,"clouds":[{"cover":"FEW","base":3300},{"cover":"SCT","base":4800}],"obsTime":1777219200},"SBTF":{"icaoId":"SBTF","flightCategory":"MVFR","rawOb":"METAR SBTF 261600Z 05006KT 9999 BKN019 33/25 Q1012","temp":33,"dewp":25,"wdir":50,"wspd":6,"visib":"6+","altim":1012,"clouds":[{"cover":"BKN","base":1900}],"obsTime":1777219200},"SBCJ":{"icaoId":"SBCJ","flightCategory":"VFR","rawOb":"METAR SBCJ 261600Z 11006KT 9999 SCT023 28/21 Q1015","temp":28,"dewp":21,"wdir":110,"wspd":6,"visib":"6+","altim":1015,"clouds":[{"cover":"SCT","base":2300}],"obsTime":1777219200},"SBTT":{"icaoId":"SBTT","flightCategory":"MVFR","rawOb":"METAR SBTT 261600Z 13006KT 9999 BKN020 30/24 Q1012","temp":30,"dewp":24,"wdir":130,"wspd":6,"visib":"6+","altim":1012,"clouds":[{"cover":"BKN","base":2000}],"obsTime":1777219200},"SBUY":{"icaoId":"SBUY","flightCategory":"VFR","rawOb":"METAR SBUY 261600Z 26002KT 9999 SCT025 FEW030TCU SCT100 30/25 Q1011","temp":30,"dewp":25,"wdir":260,"wspd":2,"visib":"6+","altim":1011,"clouds":[{"cover":"SCT","base":2500},{"cover":"FEW","base":3000},{"cover":"SCT","base":10000}],"obsTime":1777219200},"SBPS":{"icaoId":"SBPS","flightCategory":"VFR","rawOb":"METAR SBPS 261600Z 08010KT 9999 SCT025 29/24 Q1013","temp":29,"dewp":24,"wdir":80,"wspd":10,"visib":"6+","altim":1013,"clouds":[{"cover":"SCT","base":2500}],"obsTime":1777219200},"SBPB":{"icaoId":"SBPB","flightCategory":"VFR","rawOb":"METAR SBPB 261600Z 06009KT 9999 SCT020 30/25 Q1010","temp":30,"dewp":25,"wdir":60,"wspd":9,"visib":"6+","altim":1010,"clouds":[{"cover":"SCT","base":2000}],"obsTime":1777219200},"SBGM":{"icaoId":"SBGM","flightCategory":"VFR","rawOb":"METAR SBGM 261600Z 24006KT 9999 SCT020 BKN033 30/23 Q1012","temp":30,"dewp":23,"wdir":240,"wspd":6,"visib":"6+","altim":1012,"clouds":[{"cover":"SCT","base":2000},{"cover":"BKN","base":3300}],"obsTime":1777219200},"SBIP":{"icaoId":"SBIP","flightCategory":"VFR","rawOb":"METAR SBIP 261600Z AUTO VRB05KT CAVOK 32/20 Q1012","temp":32,"dewp":20,"wdir":"VRB","wspd":5,"visib":"6+","altim":1012,"clouds":[],"obsTime":1777219200},"SBKG":{"icaoId":"SBKG","flightCategory":"MVFR","rawOb":"METAR SBKG 261600Z 11007KT 9999 BKN025 28/20 Q1013","temp":28,"dewp":20,"wdir":110,"wspd":7,"visib":"6+","altim":1013,"clouds":[{"cover":"BKN","base":2500}],"obsTime":1777219200},"SBSC":{"icaoId":"SBSC","flightCategory":"VFR","rawOb":"METAR SBSC 261600Z 22006KT CAVOK 31/22 Q1009","temp":31,"dewp":22,"wdir":220,"wspd":6,"visib":"6+","altim":1009,"clouds":[],"obsTime":1777219200},"SBSM":{"icaoId":"SBSM","flightCategory":"VFR","rawOb":"METAR SBSM 261600Z 26006KT 9999 SCT035 26/18 Q1010","temp":26,"dewp":18,"wdir":260,"wspd":6,"visib":"6+","altim":1010,"clouds":[{"cover":"SCT","base":3500}],"obsTime":1777219200},"SBSR":{"icaoId":"SBSR","flightCategory":"VFR","rawOb":"METAR SBSR 261600Z 33006KT 9999 SCT030 32/15 Q1014","temp":32,"dewp":15,"wdir":330,"wspd":6,"visib":"6+","altim":1014,"clouds":[{"cover":"SCT","base":3000}],"obsTime":1777219200},"SBVH":{"icaoId":"SBVH","flightCategory":"VFR","rawOb":"METAR SBVH 261600Z 04008KT 9999 SCT025 SCT045 29/23 Q1015","temp":29,"dewp":23,"wdir":40,"wspd":8,"visib":"6+","altim":1015,"clouds":[{"cover":"SCT","base":2500},{"cover":"SCT","base":4500}],"obsTime":1777219200},"SBAX":{"icaoId":"SBAX","flightCategory":"VFR","rawOb":"METAR SBAX 261600Z AUTO 35005KT 230V030 CAVOK 28/13 Q1018","temp":28,"dewp":13,"wdir":350,"wspd":5,"visib":"6+","altim":1018,"clouds":[],"obsTime":1777219200},"SBBH":{"icaoId":"SBBH","flightCategory":"VFR","rawOb":"METAR SBBH 261600Z 27005KT 9999 SCT049 27/15 Q1016","temp":27,"dewp":15,"wdir":270,"wspd":5,"visib":"6+","altim":1016,"clouds":[{"cover":"SCT","base":4900}],"obsTime":1777219200},"SBBQ":{"icaoId":"SBBQ","flightCategory":"VFR","rawOb":"METAR SBBQ 261600Z 25006KT 9999 BKN045 26/13 Q1019","temp":26,"dewp":13,"wdir":250,"wspd":6,"visib":"6+","altim":1019,"clouds":[{"cover":"BKN","base":4500}],"obsTime":1777219200},"SBBU":{"icaoId":"SBBU","flightCategory":"MVFR","rawOb":"METAR SBBU 261600Z 25008KT 9999 BKN030 31/20 Q1014","temp":31,"dewp":20,"wdir":250,"wspd":8,"visib":"6+","altim":1014,"clouds":[{"cover":"BKN","base":3000}],"obsTime":1777219200},"SBCA":{"icaoId":"SBCA","flightCategory":"LIFR","rawOb":"METAR SBCA 261600Z 33012KT 8000 BKN004 SCT020 BKN100 20/20 Q1014 RETS","temp":20,"dewp":20,"wdir":330,"wspd":12,"visib":4.97,"altim":1014,"clouds":[{"cover":"BKN","base":400},{"cover":"SCT","base":2000},{"cover":"BKN","base":10000}],"obsTime":1777219200},"SBCC":{"icaoId":"SBCC","flightCategory":"VFR","rawOb":"METAR SBCC 261600Z 03009KT 9999 SCT020 30/20 Q1013","temp":30,"dewp":20,"wdir":30,"wspd":9,"visib":"6+","altim":1013,"clouds":[{"cover":"SCT","base":2000}],"obsTime":1777219200},"SBCO":{"icaoId":"SBCO","flightCategory":"MVFR","rawOb":"METAR SBCO 261600Z 27008KT 9999 BKN010 21/19 Q1009","temp":21,"dewp":19,"wdir":270,"wspd":8,"visib":"6+","altim":1009,"clouds":[{"cover":"BKN","base":1000}],"obsTime":1777219200},"SBDN":{"icaoId":"SBDN","flightCategory":"VFR","rawOb":"METAR SBDN 261600Z 32007KT CAVOK 34/17 Q1012","temp":34,"dewp":17,"wdir":320,"wspd":7,"visib":"6+","altim":1012,"clouds":[],"obsTime":1777219200},"SBES":{"icaoId":"SBES","flightCategory":"VFR","rawOb":"METAR SBES 261600Z VRB04KT 9999 FEW025 34/// Q1009","temp":null,"dewp":null,"wdir":"VRB","wspd":4,"visib":"6+","altim":1009,"clouds":[{"cover":"FEW","base":2500}],"obsTime":1777219200},"SBJP":{"icaoId":"SBJP","flightCategory":"VFR","rawOb":"METAR SBJP 261600Z 12014KT 9999 BKN033 31/23 Q1011","temp":31,"dewp":23,"wdir":120,"wspd":14,"visib":"6+","altim":1011,"clouds":[{"cover":"BKN","base":3300}],"obsTime":1777219200},"SBLE":{"icaoId":"SBLE","flightCategory":"VFR","rawOb":"METAR SBLE 261600Z AUTO 20004KT 110V270 9999 FEW033 27/20 Q1015","temp":27,"dewp":20,"wdir":200,"wspd":4,"visib":"6+","altim":1015,"clouds":[{"cover":"FEW","base":3300}],"obsTime":1777219200},"SBTC":{"icaoId":"SBTC","flightCategory":"VFR","rawOb":"METAR SBTC 261600Z 08008KT 9999 SCT025 29/24 Q1013","temp":29,"dewp":24,"wdir":80,"wspd":8,"visib":"6+","altim":1013,"clouds":[{"cover":"SCT","base":2500}],"obsTime":1777219200},"SBJV":{"icaoId":"SBJV","flightCategory":"MVFR","rawOb":"METAR SBJV 261600Z 15006KT 130V190 9000 -RA FEW005 BKN020 BKN100 25/23 Q1009","temp":25,"dewp":23,"wdir":150,"wspd":6,"visib":5.59,"altim":1009,"clouds":[{"cover":"FEW","base":500},{"cover":"BKN","base":2000},{"cover":"BKN","base":10000}],"obsTime":1777219200},"SBNM":{"icaoId":"SBNM","flightCategory":"VFR","rawOb":"METAR SBNM 261600Z 22007KT 9999 SCT030 25/16 Q1011","temp":25,"dewp":16,"wdir":220,"wspd":7,"visib":"6+","altim":1011,"clouds":[{"cover":"SCT","base":3000}],"obsTime":1777219200},"SBIH":{"icaoId":"SBIH","flightCategory":"VFR","rawOb":"METAR SBIH 261600Z 13002KT 9999 SCT020 32/24 Q1010","temp":32,"dewp":24,"wdir":130,"wspd":2,"visib":"6+","altim":1010,"clouds":[{"cover":"SCT","base":2000}],"obsTime":1777219200},"SBAF":{"icaoId":"SBAF","flightCategory":"VFR","rawOb":"METAR SBAF 261600Z 34007KT 290V040 CAVOK 35/18 Q1009","temp":35,"dewp":18,"wdir":340,"wspd":7,"visib":"6+","altim":1009,"clouds":[],"obsTime":1777219200},"SBAN":{"icaoId":"SBAN","flightCategory":"VFR","rawOb":"METAR SBAN 261600Z VRB02KT 9999 BKN045 28/15 Q1019","temp":28,"dewp":15,"wdir":"VRB","wspd":2,"visib":"6+","altim":1019,"clouds":[{"cover":"BKN","base":4500}],"obsTime":1777219200},"SBJR":{"icaoId":"SBJR","flightCategory":"VFR","rawOb":"METAR SBJR 261600Z 18006KT CAVOK 35/21 Q1009","temp":35,"dewp":21,"wdir":180,"wspd":6,"visib":"6+","altim":1009,"clouds":[],"obsTime":1777219200},"SBLS":{"icaoId":"SBLS","flightCategory":"VFR","rawOb":"METAR SBLS 261600Z VRB03KT 9999 SCT030 28/15 Q1016","temp":28,"dewp":15,"wdir":"VRB","wspd":3,"visib":"6+","altim":1016,"clouds":[{"cover":"SCT","base":3000}],"obsTime":1777219200},"SBMT":{"icaoId":"SBMT","flightCategory":"VFR","rawOb":"METAR SBMT 261600Z 32011KT 9999 SCT040 29/16 Q1014","temp":29,"dewp":16,"wdir":320,"wspd":11,"visib":"6+","altim":1014,"clouds":[{"cover":"SCT","base":4000}],"obsTime":1777219200},"SBST":{"icaoId":"SBST","flightCategory":"VFR","rawOb":"METAR SBST 261600Z 13006KT CAVOK 31/23 Q1008","temp":31,"dewp":23,"wdir":130,"wspd":6,"visib":"6+","altim":1008,"clouds":[],"obsTime":1777219200},"SBTA":{"icaoId":"SBTA","flightCategory":"VFR","rawOb":"METAR SBTA 261600Z 36009KT 320V050 9999 FEW030 31/15 Q1012","temp":31,"dewp":15,"wdir":360,"wspd":9,"visib":"6+","altim":1012,"clouds":[{"cover":"FEW","base":3000}],"obsTime":1777219200},"SBGW":{"icaoId":"SBGW","flightCategory":"VFR","rawOb":"METAR SBGW 261600Z VRB03KT 9999 FEW025 31/16 Q1013","temp":31,"dewp":16,"wdir":"VRB","wspd":3,"visib":"6+","altim":1013,"clouds":[{"cover":"FEW","base":2500}],"obsTime":1777219200}}}