{"updated":1781523475,"count":84,"data":{"SBCT":{"icaoId":"SBCT","flightCategory":"LIFR","rawOb":"METAR SBCT 151000Z 11005KT 080V140 4000 -RADZ OVC003 11/11 Q1021","temp":11,"dewp":11,"wdir":110,"wspd":5,"visib":2.49,"altim":1021,"clouds":[{"cover":"OVC","base":300}],"obsTime":1781517600},"SBKP":{"icaoId":"SBKP","flightCategory":"MVFR","rawOb":"METAR SBKP 151000Z 03003KT 010V070 6000 2500NE -DZ SCT008 BKN018 OVC025 18/17 Q1019","temp":18,"dewp":17,"wdir":30,"wspd":3,"visib":3.73,"altim":1019,"clouds":[{"cover":"SCT","base":800},{"cover":"BKN","base":1800},{"cover":"OVC","base":2500}],"obsTime":1781517600},"SBMG":{"icaoId":"SBMG","flightCategory":"LIFR","rawOb":"METAR SBMG 151000Z 29005KT 0100 R10/0650D FG VV001 19/18 Q1017","temp":19,"dewp":18,"wdir":290,"wspd":5,"visib":0.06,"altim":1017,"clouds":[{"cover":"OVX","base":100}],"obsTime":1781517600},"SBFL":{"icaoId":"SBFL","flightCategory":"VFR","rawOb":"METAR SBFL 151000Z 17012KT 9999 BKN040 14/09 Q1021","temp":14,"dewp":9,"wdir":170,"wspd":12,"visib":"6+","altim":1021,"clouds":[{"cover":"BKN","base":4000}],"obsTime":1781517600},"SBMK":{"icaoId":"SBMK","flightCategory":"VFR","rawOb":"METAR SBMK 151000Z 01002KT CAVOK 17/16 Q1020","temp":17,"dewp":16,"wdir":10,"wspd":2,"visib":"6+","altim":1020,"clouds":[],"obsTime":1781517600},"SBCG":{"icaoId":"SBCG","flightCategory":"LIFR","rawOb":"METAR SBCG 151000Z 18006KT 0300 R24///// R06/P2000N FG VV002 16/16 Q1019","temp":16,"dewp":16,"wdir":180,"wspd":6,"visib":0.19,"altim":1019,"clouds":[{"cover":"OVX","base":200}],"obsTime":1781517600},"SBMO":{"icaoId":"SBMO","flightCategory":"MVFR","rawOb":"METAR SBMO 151000Z 33004KT 9999 SCT007 BKN015 23/23 Q1016","temp":23,"dewp":23,"wdir":330,"wspd":4,"visib":"6+","altim":1016,"clouds":[{"cover":"SCT","base":700},{"cover":"BKN","base":1500}],"obsTime":1781517600},"SBFZ":{"icaoId":"SBFZ","flightCategory":"VFR","rawOb":"METAR SBFZ 151000Z 15006KT 9999 FEW020 26/24 Q1014","temp":26,"dewp":24,"wdir":150,"wspd":6,"visib":"6+","altim":1014,"clouds":[{"cover":"FEW","base":2000}],"obsTime":1781517600},"SBMQ":{"icaoId":"SBMQ","flightCategory":"MVFR","rawOb":"METAR SBMQ 151000Z 34002KT 9999 BKN023 25/24 Q1013","temp":25,"dewp":24,"wdir":340,"wspd":2,"visib":"6+","altim":1013,"clouds":[{"cover":"BKN","base":2300}],"obsTime":1781517600},"SBNT":{"icaoId":"SBNT","flightCategory":"VFR","rawOb":"METAR SBNT 151000Z 19006KT 170V230 9999 FEW018 BKN040 24/23 Q1016","temp":24,"dewp":23,"wdir":190,"wspd":6,"visib":"6+","altim":1016,"clouds":[{"cover":"FEW","base":1800},{"cover":"BKN","base":4000}],"obsTime":1781517600},"SBGL":{"icaoId":"SBGL","flightCategory":"MVFR","rawOb":"METAR SBGL 151000Z 32005KT 300V010 8000 FEW010 BKN080 21/20 Q1016","temp":21,"dewp":20,"wdir":320,"wspd":5,"visib":4.97,"altim":1016,"clouds":[{"cover":"FEW","base":1000},{"cover":"BKN","base":8000}],"obsTime":1781517600},"SBCP":{"icaoId":"SBCP","flightCategory":"VFR","rawOb":"METAR SBCP 151000Z 01004KT 9999 SCT020 BKN090 21/21 Q1016","temp":21,"dewp":21,"wdir":10,"wspd":4,"visib":"6+","altim":1016,"clouds":[{"cover":"SCT","base":2000},{"cover":"BKN","base":9000}],"obsTime":1781517600},"SBPA":{"icaoId":"SBPA","flightCategory":"VFR","rawOb":"METAR SBPA 151000Z 16004KT 9999 FEW020 BKN045 11/07 Q1022","temp":11,"dewp":7,"wdir":160,"wspd":4,"visib":"6+","altim":1022,"clouds":[{"cover":"FEW","base":2000},{"cover":"BKN","base":4500}],"obsTime":1781517600},"SBGO":{"icaoId":"SBGO","flightCategory":"VFR","rawOb":"METAR SBGO 151000Z 00000KT CAVOK 17/17 Q1020","temp":17,"dewp":17,"wdir":0,"wspd":0,"visib":"6+","altim":1020,"clouds":[],"obsTime":1781517600},"SBPJ":{"icaoId":"SBPJ","flightCategory":"VFR","rawOb":"METAR SBPJ 151000Z 13003KT CAVOK 22/20 Q1015","temp":22,"dewp":20,"wdir":130,"wspd":3,"visib":"6+","altim":1015,"clouds":[],"obsTime":1781517600},"SBBR":{"icaoId":"SBBR","flightCategory":"VFR","rawOb":"METAR SBBR 151000Z 20003KT CAVOK 17/17 Q1022","temp":17,"dewp":17,"wdir":200,"wspd":3,"visib":"6+","altim":1022,"clouds":[],"obsTime":1781517600},"SBPV":{"icaoId":"SBPV","flightCategory":"VFR","rawOb":"METAR SBPV 151000Z 00000KT CAVOK 24/23 Q1014","temp":24,"dewp":23,"wdir":0,"wspd":0,"visib":"6+","altim":1014,"clouds":[],"obsTime":1781517600},"SBGR":{"icaoId":"SBGR","flightCategory":"IFR","rawOb":"METAR SBGR 151000Z 18003KT 4500 -RA BR BKN007 OVC020 16/16 Q1021","temp":16,"dewp":16,"wdir":180,"wspd":3,"visib":2.8,"altim":1021,"clouds":[{"cover":"BKN","base":700},{"cover":"OVC","base":2000}],"obsTime":1781517600},"SBRB":{"icaoId":"SBRB","flightCategory":"MVFR","rawOb":"METAR SBRB 151000Z 00000KT 7000 FEW005 23/23 Q1014","temp":23,"dewp":23,"wdir":0,"wspd":0,"visib":4.35,"altim":1014,"clouds":[{"cover":"FEW","base":500}],"obsTime":1781517600},"SBCR":{"icaoId":"SBCR","flightCategory":"IFR","rawOb":"METAR SBCR 151100Z 22005KT 180V260 9000 OVC008 17/15 Q1020","temp":17,"dewp":15,"wdir":220,"wspd":5,"visib":5.59,"altim":1020,"clouds":[{"cover":"OVC","base":800}],"obsTime":1781521200},"SBRF":{"icaoId":"SBRF","flightCategory":"VFR","rawOb":"METAR SBRF 151000Z 12008KT 9999 FEW013 SCT022 25/24 Q1016","temp":25,"dewp":24,"wdir":120,"wspd":8,"visib":"6+","altim":1016,"clouds":[{"cover":"FEW","base":1300},{"cover":"SCT","base":2200}],"obsTime":1781517600},"SBSG":{"icaoId":"SBSG","flightCategory":"MVFR","rawOb":"METAR SBSG 151000Z 19004KT 150V220 9999 FEW004 BKN015 24/24 Q1016","temp":24,"dewp":24,"wdir":190,"wspd":4,"visib":"6+","altim":1016,"clouds":[{"cover":"FEW","base":400},{"cover":"BKN","base":1500}],"obsTime":1781517600},"SBHT":{"icaoId":"SBHT","flightCategory":"VFR","rawOb":"METAR SBHT 151000Z 00000KT 9999 SCT015 BKN080 23/23 Q1014","temp":23,"dewp":23,"wdir":0,"wspd":0,"visib":"6+","altim":1014,"clouds":[{"cover":"SCT","base":1500},{"cover":"BKN","base":8000}],"obsTime":1781517600},"SBSL":{"icaoId":"SBSL","flightCategory":"VFR","rawOb":"METAR SBSL 151000Z 08006KT CAVOK 27/25 Q1013","temp":27,"dewp":25,"wdir":80,"wspd":6,"visib":"6+","altim":1013,"clouds":[],"obsTime":1781517600},"SBCB":{"icaoId":"SBCB","flightCategory":"VFR","rawOb":"METAR SBCB 151000Z 09008KT 9999 SCT015 BKN040 22/21 Q1015","temp":22,"dewp":21,"wdir":90,"wspd":8,"visib":"6+","altim":1015,"clouds":[{"cover":"SCT","base":1500},{"cover":"BKN","base":4000}],"obsTime":1781517600},"SBCF":{"icaoId":"SBCF","flightCategory":"VFR","rawOb":"METAR SBCF 151000Z 09005KT 9000 FEW002 SCT100 17/16 Q1020","temp":17,"dewp":16,"wdir":90,"wspd":5,"visib":5.59,"altim":1020,"clouds":[{"cover":"FEW","base":200},{"cover":"SCT","base":10000}],"obsTime":1781517600},"SBAT":{"icaoId":"SBAT","flightCategory":"VFR","rawOb":"METAR SBAT 151100Z 00000KT CAVOK 25/22 Q1016","temp":25,"dewp":22,"wdir":0,"wspd":0,"visib":"6+","altim":1016,"clouds":[],"obsTime":1781521200},"SBIL":{"icaoId":"SBIL","flightCategory":"VFR","rawOb":"METAR SBIL 151000Z 30007KT 9999 FEW020 22/21 Q1018","temp":22,"dewp":21,"wdir":300,"wspd":7,"visib":"6+","altim":1018,"clouds":[{"cover":"FEW","base":2000}],"obsTime":1781517600},"SBSP":{"icaoId":"SBSP","flightCategory":"IFR","rawOb":"SPECI SBSP 150944Z 18007KT 160V220 4000 -RA BR BKN007 OVC014 16/15 Q1021","temp":16,"dewp":15,"wdir":180,"wspd":7,"visib":2.49,"altim":1021,"clouds":[{"cover":"BKN","base":700},{"cover":"OVC","base":1400}],"obsTime":1781516640},"SBSV":{"icaoId":"SBSV","flightCategory":"MVFR","rawOb":"METAR SBSV 151000Z 25003KT 9000 VCSH FEW016 BKN023 FEW025TCU OVC050 24/23 Q1017","temp":24,"dewp":23,"wdir":250,"wspd":3,"visib":5.59,"altim":1017,"clouds":[{"cover":"FEW","base":1600},{"cover":"BKN","base":2300},{"cover":"FEW","base":2500},{"cover":"OVC","base":5000}],"obsTime":1781517600},"SBTE":{"icaoId":"SBTE","flightCategory":"VFR","rawOb":"METAR SBTE 151000Z 06001KT CAVOK 26/23 Q1014","temp":26,"dewp":23,"wdir":60,"wspd":1,"visib":"6+","altim":1014,"clouds":[],"obsTime":1781517600},"SBJU":{"icaoId":"SBJU","flightCategory":"VFR","rawOb":"METAR SBJU 151000Z 00000KT 9999 FEW020 22/19 Q1018","temp":22,"dewp":19,"wdir":0,"wspd":0,"visib":"6+","altim":1018,"clouds":[{"cover":"FEW","base":2000}],"obsTime":1781517600},"SBUL":{"icaoId":"SBUL","flightCategory":"VFR","rawOb":"METAR SBUL 151000Z 10005KT 9999 FEW045 SCT070 16/14 Q1021","temp":16,"dewp":14,"wdir":100,"wspd":5,"visib":"6+","altim":1021,"clouds":[{"cover":"FEW","base":4500},{"cover":"SCT","base":7000}],"obsTime":1781517600},"SBBE":{"icaoId":"SBBE","flightCategory":"VFR","rawOb":"METAR SBBE 151000Z 10005KT CAVOK 25/24 Q1013","temp":25,"dewp":24,"wdir":100,"wspd":5,"visib":"6+","altim":1013,"clouds":[],"obsTime":1781517600},"SBUR":{"icaoId":"SBUR","flightCategory":"VFR","rawOb":"METAR SBUR 151000Z 36005KT CAVOK 17/16 Q1020","temp":17,"dewp":16,"wdir":360,"wspd":5,"visib":"6+","altim":1020,"clouds":[],"obsTime":1781517600},"SBVT":{"icaoId":"SBVT","flightCategory":"VFR","rawOb":"METAR SBVT 151000Z 33002KT 9999 FEW040 BKN080 20/20 Q1017","temp":20,"dewp":20,"wdir":330,"wspd":2,"visib":"6+","altim":1017,"clouds":[{"cover":"FEW","base":4000},{"cover":"BKN","base":8000}],"obsTime":1781517600},"SBSN":{"icaoId":"SBSN","flightCategory":"VFR","rawOb":"METAR SBSN 151000Z 15002KT 9999 FEW016 24/24 Q1013","temp":24,"dewp":24,"wdir":150,"wspd":2,"visib":"6+","altim":1013,"clouds":[{"cover":"FEW","base":1600}],"obsTime":1781517600},"SBME":{"icaoId":"SBME","flightCategory":"VFR","rawOb":"METAR SBME 151000Z 03008KT 9999 FEW030 21/19 Q1015","temp":21,"dewp":19,"wdir":30,"wspd":8,"visib":"6+","altim":1015,"clouds":[{"cover":"FEW","base":3000}],"obsTime":1781517600},"SBBV":{"icaoId":"SBBV","flightCategory":"MVFR","rawOb":"METAR SBBV 151000Z 11004KT 9999 SCT010 BKN030 FEW035TCU BKN070 26/24 Q1014","temp":26,"dewp":24,"wdir":110,"wspd":4,"visib":"6+","altim":1014,"clouds":[{"cover":"SCT","base":1000},{"cover":"BKN","base":3000},{"cover":"FEW","base":3500},{"cover":"BKN","base":7000}],"obsTime":1781517600},"SBMA":{"icaoId":"SBMA","flightCategory":"VFR","rawOb":"METAR SBMA 151000Z 00000KT CAVOK 24/23 Q1014","temp":24,"dewp":23,"wdir":0,"wspd":0,"visib":"6+","altim":1014,"clouds":[],"obsTime":1781517600},"SBEG":{"icaoId":"SBEG","flightCategory":"VFR","rawOb":"METAR SBEG 151000Z 31001KT CAVOK 24/23 Q1014","temp":24,"dewp":23,"wdir":310,"wspd":1,"visib":"6+","altim":1014,"clouds":[],"obsTime":1781517600},"SBLO":{"icaoId":"SBLO","flightCategory":"LIFR","rawOb":"METAR SBLO 151000Z 01003KT 0800 R13/P2000 -RADZ FG BKN002 OVC007 19/19 Q1017","temp":19,"dewp":19,"wdir":10,"wspd":3,"visib":0.5,"altim":1017,"clouds":[{"cover":"BKN","base":200},{"cover":"OVC","base":700}],"obsTime":1781517600},"SBFI":{"icaoId":"SBFI","flightCategory":"VFR","rawOb":"METAR SBFI 151000Z 33001KT CAVOK 07/07 Q1020","temp":7,"dewp":7,"wdir":330,"wspd":1,"visib":"6+","altim":1020,"clouds":[],"obsTime":1781517600},"SBPP":{"icaoId":"SBPP","flightCategory":"LIFR","rawOb":"SPECI SBPP 151115Z 21010KT 0200 FG VV000 10/10 Q1020","temp":10,"dewp":10,"wdir":210,"wspd":10,"visib":0.12,"altim":1020,"clouds":[{"cover":"OVX","base":0}],"obsTime":1781522100},"SBTF":{"icaoId":"SBTF","flightCategory":"VFR","rawOb":"SPECI SBTF 151115Z 00000KT 9999 SCT040 BKN100 25/24 Q1014","temp":25,"dewp":24,"wdir":0,"wspd":0,"visib":"6+","altim":1014,"clouds":[{"cover":"SCT","base":4000},{"cover":"BKN","base":10000}],"obsTime":1781522100},"SBAX":{"icaoId":"SBAX","flightCategory":"LIFR","rawOb":"METAR SBAX 151000Z AUTO 07005KT 1100 BR VV001 ///// Q1021","temp":null,"dewp":null,"wdir":70,"wspd":5,"visib":0.68,"altim":1021,"clouds":[{"cover":"OVX","base":100}],"obsTime":1781517600},"SBBH":{"icaoId":"SBBH","flightCategory":"VFR","rawOb":"METAR SBBH 151000Z 13003KT CAVOK 18/17 Q1020","temp":18,"dewp":17,"wdir":130,"wspd":3,"visib":"6+","altim":1020,"clouds":[],"obsTime":1781517600},"SBVH":{"icaoId":"SBVH","flightCategory":"LIFR","rawOb":"METAR SBVH 151100Z 19006KT 0500 FG VV002 21/21 Q1018","temp":21,"dewp":21,"wdir":190,"wspd":6,"visib":0.31,"altim":1018,"clouds":[{"cover":"OVX","base":200}],"obsTime":1781521200},"SBAR":{"icaoId":"SBAR","flightCategory":"VFR","rawOb":"METAR SBAR 151000Z 29003KT 240V320 9999 SCT019 23/22 Q1016","temp":23,"dewp":22,"wdir":290,"wspd":3,"visib":"6+","altim":1016,"clouds":[{"cover":"SCT","base":1900}],"obsTime":1781517600},"SBBU":{"icaoId":"SBBU","flightCategory":"LIFR","rawOb":"METAR SBBU 151000Z 02002KT 0500 FG OVC003 19/19 Q1019","temp":19,"dewp":19,"wdir":20,"wspd":2,"visib":0.31,"altim":1019,"clouds":[{"cover":"OVC","base":300}],"obsTime":1781517600},"SBCA":{"icaoId":"SBCA","flightCategory":"VFR","rawOb":"METAR SBCA 151000Z 15004KT CAVOK 09/09 Q1020","temp":9,"dewp":9,"wdir":150,"wspd":4,"visib":"6+","altim":1020,"clouds":[],"obsTime":1781517600},"SBCC":{"icaoId":"SBCC","flightCategory":"VFR","rawOb":"METAR SBCC 151000Z 06003KT 9999 FEW040 22/19 Q1016","temp":22,"dewp":19,"wdir":60,"wspd":3,"visib":"6+","altim":1016,"clouds":[{"cover":"FEW","base":4000}],"obsTime":1781517600},"SBCJ":{"icaoId":"SBCJ","flightCategory":"VFR","rawOb":"SPECI SBCJ 151015Z 06003KT CAVOK 23/20 Q1018","temp":23,"dewp":20,"wdir":60,"wspd":3,"visib":"6+","altim":1018,"clouds":[],"obsTime":1781518500},"SBCO":{"icaoId":"SBCO","flightCategory":"VFR","rawOb":"METAR SBCO 151000Z 00000KT 9999 BKN045 10/08 Q1023","temp":10,"dewp":8,"wdir":0,"wspd":0,"visib":"6+","altim":1023,"clouds":[{"cover":"BKN","base":4500}],"obsTime":1781517600},"SBDN":{"icaoId":"SBDN","flightCategory":"LIFR","rawOb":"METAR SBDN 151000Z 36003KT 3000 BR OVC003 20/19 Q1017","temp":20,"dewp":19,"wdir":360,"wspd":3,"visib":1.86,"altim":1017,"clouds":[{"cover":"OVC","base":300}],"obsTime":1781517600},"SBES":{"icaoId":"SBES","flightCategory":"MVFR","rawOb":"METAR SBES 151000Z 02003KT 330V110 9000 FEW006 BKN030 19/// Q1015","temp":null,"dewp":null,"wdir":20,"wspd":3,"visib":5.59,"altim":1015,"clouds":[{"cover":"FEW","base":600},{"cover":"BKN","base":3000}],"obsTime":1781517600},"SBIP":{"icaoId":"SBIP","flightCategory":"LIFR","rawOb":"METAR SBIP 151000Z AUTO VRB01KT 0700 FG VV002 18/18 Q1019","temp":18,"dewp":18,"wdir":"VRB","wspd":1,"visib":0.43,"altim":1019,"clouds":[{"cover":"OVX","base":200}],"obsTime":1781517600},"SBKG":{"icaoId":"SBKG","flightCategory":"IFR","rawOb":"METAR SBKG 151000Z 18006KT 8000 BKN008 21/21 Q1019","temp":21,"dewp":21,"wdir":180,"wspd":6,"visib":4.97,"altim":1019,"clouds":[{"cover":"BKN","base":800}],"obsTime":1781517600},"SBOI":{"icaoId":"SBOI","flightCategory":"VFR","rawOb":"METAR SBOI 151000Z AUTO VRB01KT 9999 // VV013 23/23 Q1014","temp":23,"dewp":23,"wdir":"VRB","wspd":1,"visib":"6+","altim":1014,"clouds":[{"cover":"OVX","base":1300}],"obsTime":1781517600},"SBPB":{"icaoId":"SBPB","flightCategory":"VFR","rawOb":"SPECI SBPB 151015Z 10008KT CAVOK 27/23 Q1013","temp":27,"dewp":23,"wdir":100,"wspd":8,"visib":"6+","altim":1013,"clouds":[],"obsTime":1781518500},"SBPL":{"icaoId":"SBPL","flightCategory":"MVFR","rawOb":"METAR SBPL 151000Z 10008KT 9999 BKN020 23/20 Q1018","temp":23,"dewp":20,"wdir":100,"wspd":8,"visib":"6+","altim":1018,"clouds":[{"cover":"BKN","base":2000}],"obsTime":1781517600},"SBPS":{"icaoId":"SBPS","flightCategory":"VFR","rawOb":"METAR SBPS 151000Z 25003KT 9999 0800W BCFG SCT018 SCT100 21/20 Q1018","temp":21,"dewp":20,"wdir":250,"wspd":3,"visib":"6+","altim":1018,"clouds":[{"cover":"SCT","base":1800},{"cover":"SCT","base":10000}],"obsTime":1781517600},"SBSC":{"icaoId":"SBSC","flightCategory":"MVFR","rawOb":"METAR SBSC 151000Z 01002KT 7000 NSC 20/19 Q1016","temp":20,"dewp":19,"wdir":10,"wspd":2,"visib":4.35,"altim":1016,"clouds":[],"obsTime":1781517600},"SBSJ":{"icaoId":"SBSJ","flightCategory":"IFR","rawOb":"METAR SBSJ 151000Z VRB02KT 2800 -DZ BR SCT013 BKN020 BKN040 18/17 Q1019","temp":18,"dewp":17,"wdir":"VRB","wspd":2,"visib":1.74,"altim":1019,"clouds":[{"cover":"SCT","base":1300},{"cover":"BKN","base":2000},{"cover":"BKN","base":4000}],"obsTime":1781517600},"SBSM":{"icaoId":"SBSM","flightCategory":"LIFR","rawOb":"METAR SBSM 151000Z 18003KT 0600 0200W R29///// R11/1900D FG SCT001 04/04 Q1023","temp":4,"dewp":4,"wdir":180,"wspd":3,"visib":0.37,"altim":1023,"clouds":[{"cover":"SCT","base":100}],"obsTime":1781517600},"SBSR":{"icaoId":"SBSR","flightCategory":"VFR","rawOb":"METAR SBSR 151000Z 00000KT 9999 SCT040 BKN080 18/18 Q1019","temp":18,"dewp":18,"wdir":0,"wspd":0,"visib":"6+","altim":1019,"clouds":[{"cover":"SCT","base":4000},{"cover":"BKN","base":8000}],"obsTime":1781517600},"SBTD":{"icaoId":"SBTD","flightCategory":"VFR","rawOb":"METAR SBTD 151100Z /////KT CAVOK 12/10 Q1019","temp":12,"dewp":10,"wdir":null,"wspd":null,"visib":"6+","altim":1019,"clouds":[],"obsTime":1781521200},"SBTT":{"icaoId":"SBTT","flightCategory":"VFR","rawOb":"METAR SBTT 151100Z 28002KT 9999 FEW004 24/23 Q1015","temp":24,"dewp":23,"wdir":280,"wspd":2,"visib":"6+","altim":1015,"clouds":[{"cover":"FEW","base":400}],"obsTime":1781521200},"SBTU":{"icaoId":"SBTU","flightCategory":"VFR","rawOb":"METAR SBTU 151000Z AUTO 21004KT 9999 // NCD ///// Q1015","temp":null,"dewp":null,"wdir":210,"wspd":4,"visib":"6+","altim":1015,"clouds":[],"obsTime":1781517600},"SBUY":{"icaoId":"SBUY","flightCategory":"VFR","rawOb":"METAR SBUY 151100Z 00000KT 9999 FEW025 FEW030TCU BKN090 23/22 Q1013","temp":23,"dewp":22,"wdir":0,"wspd":0,"visib":"6+","altim":1013,"clouds":[{"cover":"FEW","base":2500},{"cover":"FEW","base":3000},{"cover":"BKN","base":9000}],"obsTime":1781521200},"SBJP":{"icaoId":"SBJP","flightCategory":"MVFR","rawOb":"METAR SBJP 151000Z 16005KT 8000 -RA BKN013 BKN025 24/23 Q1016","temp":24,"dewp":23,"wdir":160,"wspd":5,"visib":4.97,"altim":1016,"clouds":[{"cover":"BKN","base":1300},{"cover":"BKN","base":2500}],"obsTime":1781517600},"SBJV":{"icaoId":"SBJV","flightCategory":"MVFR","rawOb":"METAR SBJV 151000Z 23002KT 8000 -RA BKN010 OVC020 15/15 Q1021","temp":15,"dewp":15,"wdir":230,"wspd":2,"visib":4.97,"altim":1021,"clouds":[{"cover":"BKN","base":1000},{"cover":"OVC","base":2000}],"obsTime":1781517600},"SBNM":{"icaoId":"SBNM","flightCategory":"LIFR","rawOb":"METAR SBNM 151000Z AUTO 11003KT 0550 FG VV001 04/04 Q1022","temp":4,"dewp":4,"wdir":110,"wspd":3,"visib":0.34,"altim":1022,"clouds":[{"cover":"OVX","base":100}],"obsTime":1781517600},"SBPF":{"icaoId":"SBPF","flightCategory":"LIFR","rawOb":"METAR SBPF 151000Z 14005KT 0800 FG NSC 06/05 Q1021","temp":6,"dewp":5,"wdir":140,"wspd":5,"visib":0.5,"altim":1021,"clouds":[],"obsTime":1781517600},"SBAN":{"icaoId":"SBAN","flightCategory":"VFR","rawOb":"METAR SBAN 151000Z 02002KT CAVOK 16/15 Q1022","temp":16,"dewp":15,"wdir":20,"wspd":2,"visib":"6+","altim":1022,"clouds":[],"obsTime":1781517600},"SBAF":{"icaoId":"SBAF","flightCategory":"VFR","rawOb":"METAR SBAF 151000Z VRB02KT 9999 FEW020 SCT090 19/19 Q1016","temp":19,"dewp":19,"wdir":"VRB","wspd":2,"visib":"6+","altim":1016,"clouds":[{"cover":"FEW","base":2000},{"cover":"SCT","base":9000}],"obsTime":1781517600},"SBGW":{"icaoId":"SBGW","flightCategory":"IFR","rawOb":"METAR SBGW 151000Z 18003KT 3000 BR SCT005 SCT009 OVC070 17/14 Q1019","temp":17,"dewp":14,"wdir":180,"wspd":3,"visib":1.86,"altim":1019,"clouds":[{"cover":"SCT","base":500},{"cover":"SCT","base":900},{"cover":"OVC","base":7000}],"obsTime":1781517600},"SBJR":{"icaoId":"SBJR","flightCategory":"VFR","rawOb":"METAR SBJR 151000Z 36001KT 9999 FEW030 BKN100 21/20 Q1016","temp":21,"dewp":20,"wdir":360,"wspd":1,"visib":"6+","altim":1016,"clouds":[{"cover":"FEW","base":3000},{"cover":"BKN","base":10000}],"obsTime":1781517600},"SBLS":{"icaoId":"SBLS","flightCategory":"VFR","rawOb":"METAR SBLS 151000Z 12005KT 9999 FEW020 SCT090 17/16 Q1020","temp":17,"dewp":16,"wdir":120,"wspd":5,"visib":"6+","altim":1020,"clouds":[{"cover":"FEW","base":2000},{"cover":"SCT","base":9000}],"obsTime":1781517600},"SBMT":{"icaoId":"SBMT","flightCategory":"MVFR","rawOb":"METAR SBMT 151000Z 16004KT 6000 -RA SCT006 BKN010 OVC020 15/15 Q1020","temp":15,"dewp":15,"wdir":160,"wspd":4,"visib":3.73,"altim":1020,"clouds":[{"cover":"SCT","base":600},{"cover":"BKN","base":1000},{"cover":"OVC","base":2000}],"obsTime":1781517600},"SBST":{"icaoId":"SBST","flightCategory":"IFR","rawOb":"METAR SBST 151100Z 32002KT 6000 -RA BKN008 OVC018 18/18 Q1019","temp":18,"dewp":18,"wdir":320,"wspd":2,"visib":3.73,"altim":1019,"clouds":[{"cover":"BKN","base":800},{"cover":"OVC","base":1800}],"obsTime":1781521200},"SBTA":{"icaoId":"SBTA","flightCategory":"IFR","rawOb":"METAR SBTA 151000Z VRB01KT 2000 -RA BR SCT010 OVC030 18/17 Q1019","temp":18,"dewp":17,"wdir":"VRB","wspd":1,"visib":1.24,"altim":1019,"clouds":[{"cover":"SCT","base":1000},{"cover":"OVC","base":3000}],"obsTime":1781517600},"SBIH":{"icaoId":"SBIH","flightCategory":"VFR","rawOb":"METAR SBIH 151100Z 00000KT 9999 FEW012 27/25 Q1014","temp":27,"dewp":25,"wdir":0,"wspd":0,"visib":"6+","altim":1014,"clouds":[{"cover":"FEW","base":1200}],"obsTime":1781521200},"SBLE":{"icaoId":"SBLE","flightCategory":"LIFR","rawOb":"METAR SBLE 151000Z AUTO 18003KT 8000 OVC004 ///// Q////","temp":null,"dewp":null,"wdir":180,"wspd":3,"visib":4.97,"altim":null,"clouds":[{"cover":"OVC","base":400}],"obsTime":1781517600}}}