{"updated":1778417156,"count":85,"data":{"SBCG":{"icaoId":"SBCG","flightCategory":"VFR","rawOb":"METAR SBCG 101100Z 15013KT 9999 FEW013 BKN060 OVC080 10/07 Q1024","temp":10,"dewp":7,"wdir":150,"wspd":13,"visib":"6+","altim":1024,"clouds":[{"cover":"FEW","base":1300},{"cover":"BKN","base":6000},{"cover":"OVC","base":8000}],"obsTime":1778410800},"SBAT":{"icaoId":"SBAT","flightCategory":"VFR","rawOb":"METAR SBAT 101100Z 00000KT CAVOK 26/24 Q1015","temp":26,"dewp":24,"wdir":0,"wspd":0,"visib":"6+","altim":1015,"clouds":[],"obsTime":1778410800},"SBBE":{"icaoId":"SBBE","flightCategory":"VFR","rawOb":"METAR SBBE 101100Z 09006KT 9999 FEW020 BKN090 25/23 Q1012","temp":25,"dewp":23,"wdir":90,"wspd":6,"visib":"6+","altim":1012,"clouds":[{"cover":"FEW","base":2000},{"cover":"BKN","base":9000}],"obsTime":1778410800},"SBCZ":{"icaoId":"SBCZ","flightCategory":"VFR","rawOb":"METAR SBCZ 101200Z 04002KT 9999 SCT015 24/24 Q1013","temp":24,"dewp":24,"wdir":40,"wspd":2,"visib":"6+","altim":1013,"clouds":[{"cover":"SCT","base":1500}],"obsTime":1778414400},"SBBR":{"icaoId":"SBBR","flightCategory":"VFR","rawOb":"METAR SBBR 101100Z 00000KT CAVOK 18/15 Q1022","temp":18,"dewp":15,"wdir":0,"wspd":0,"visib":"6+","altim":1022,"clouds":[],"obsTime":1778410800},"SBBV":{"icaoId":"SBBV","flightCategory":"VFR","rawOb":"METAR SBBV 101100Z 09009KT 9999 FEW035 FEW040TCU BKN070 26/23 Q1013","temp":26,"dewp":23,"wdir":90,"wspd":9,"visib":"6+","altim":1013,"clouds":[{"cover":"FEW","base":3500},{"cover":"FEW","base":4000},{"cover":"BKN","base":7000}],"obsTime":1778410800},"SBCB":{"icaoId":"SBCB","flightCategory":"VFR","rawOb":"METAR SBCB 101100Z 26005KT 9999 FEW010 SCT020 BKN070 24/23 Q1016","temp":24,"dewp":23,"wdir":260,"wspd":5,"visib":"6+","altim":1016,"clouds":[{"cover":"FEW","base":1000},{"cover":"SCT","base":2000},{"cover":"BKN","base":7000}],"obsTime":1778410800},"SBCF":{"icaoId":"SBCF","flightCategory":"VFR","rawOb":"METAR SBCF 101100Z 21002KT CAVOK 18/17 Q1022","temp":18,"dewp":17,"wdir":210,"wspd":2,"visib":"6+","altim":1022,"clouds":[],"obsTime":1778410800},"SBCP":{"icaoId":"SBCP","flightCategory":"VFR","rawOb":"METAR SBCP 101100Z 01006KT CAVOK 25/21 Q1016","temp":25,"dewp":21,"wdir":10,"wspd":6,"visib":"6+","altim":1016,"clouds":[],"obsTime":1778410800},"SBCR":{"icaoId":"SBCR","flightCategory":"VFR","rawOb":"METAR SBCR 101100Z 21003KT 160V300 9999 FEW009 BKN080 13/10 Q1025","temp":13,"dewp":10,"wdir":210,"wspd":3,"visib":"6+","altim":1025,"clouds":[{"cover":"FEW","base":900},{"cover":"BKN","base":8000}],"obsTime":1778410800},"SBCT":{"icaoId":"SBCT","flightCategory":"MVFR","rawOb":"METAR SBCT 101100Z 24010KT 9999 BKN010 OVC060 07/06 Q1022","temp":7,"dewp":6,"wdir":240,"wspd":10,"visib":"6+","altim":1022,"clouds":[{"cover":"BKN","base":1000},{"cover":"OVC","base":6000}],"obsTime":1778410800},"SBEG":{"icaoId":"SBEG","flightCategory":"VFR","rawOb":"METAR SBEG 101100Z 06004KT CAVOK 26/24 Q1012","temp":26,"dewp":24,"wdir":60,"wspd":4,"visib":"6+","altim":1012,"clouds":[],"obsTime":1778410800},"SBFI":{"icaoId":"SBFI","flightCategory":"VFR","rawOb":"METAR SBFI 101100Z 17003KT CAVOK 07/07 Q1024","temp":7,"dewp":7,"wdir":170,"wspd":3,"visib":"6+","altim":1024,"clouds":[],"obsTime":1778410800},"SBFL":{"icaoId":"SBFL","flightCategory":"VFR","rawOb":"METAR SBFL 101100Z 26007KT 9999 FEW030 13/10 Q1020","temp":13,"dewp":10,"wdir":260,"wspd":7,"visib":"6+","altim":1020,"clouds":[{"cover":"FEW","base":3000}],"obsTime":1778410800},"SBFZ":{"icaoId":"SBFZ","flightCategory":"MVFR","rawOb":"METAR SBFZ 101100Z 16007KT 9999 BKN020 27/25 Q1013","temp":27,"dewp":25,"wdir":160,"wspd":7,"visib":"6+","altim":1013,"clouds":[{"cover":"BKN","base":2000}],"obsTime":1778410800},"SBGL":{"icaoId":"SBGL","flightCategory":"VFR","rawOb":"METAR SBGL 101100Z 22009KT 9999 SCT026 25/21 Q1016","temp":25,"dewp":21,"wdir":220,"wspd":9,"visib":"6+","altim":1016,"clouds":[{"cover":"SCT","base":2600}],"obsTime":1778410800},"SBGO":{"icaoId":"SBGO","flightCategory":"VFR","rawOb":"METAR SBGO 101100Z 27004KT 240V300 CAVOK 19/17 Q1021","temp":19,"dewp":17,"wdir":270,"wspd":4,"visib":"6+","altim":1021,"clouds":[],"obsTime":1778410800},"SBGR":{"icaoId":"SBGR","flightCategory":"IFR","rawOb":"METAR SBGR 101100Z 13003KT 9999 -RA BKN007 OVC015 16/15 Q1021","temp":16,"dewp":15,"wdir":130,"wspd":3,"visib":"6+","altim":1021,"clouds":[{"cover":"BKN","base":700},{"cover":"OVC","base":1500}],"obsTime":1778410800},"SBHT":{"icaoId":"SBHT","flightCategory":"VFR","rawOb":"METAR SBHT 101100Z 05006KT 9999 SCT012 SCT080 25/24 Q1013","temp":25,"dewp":24,"wdir":50,"wspd":6,"visib":"6+","altim":1013,"clouds":[{"cover":"SCT","base":1200},{"cover":"SCT","base":8000}],"obsTime":1778410800},"SBIL":{"icaoId":"SBIL","flightCategory":"VFR","rawOb":"METAR SBIL 101100Z 28004KT 9999 FEW025 BKN060 25/23 Q1018","temp":25,"dewp":23,"wdir":280,"wspd":4,"visib":"6+","altim":1018,"clouds":[{"cover":"FEW","base":2500},{"cover":"BKN","base":6000}],"obsTime":1778410800},"SBJU":{"icaoId":"SBJU","flightCategory":"MVFR","rawOb":"METAR SBJU 101100Z 00000KT 9999 BKN020 25/22 Q1016","temp":25,"dewp":22,"wdir":0,"wspd":0,"visib":"6+","altim":1016,"clouds":[{"cover":"BKN","base":2000}],"obsTime":1778410800},"SBKP":{"icaoId":"SBKP","flightCategory":"MVFR","rawOb":"METAR SBKP 101100Z 10004KT 7000 -RA BKN013 SCT030 BKN040 18/17 Q1019","temp":18,"dewp":17,"wdir":100,"wspd":4,"visib":4.35,"altim":1019,"clouds":[{"cover":"BKN","base":1300},{"cover":"SCT","base":3000},{"cover":"BKN","base":4000}],"obsTime":1778410800},"SBLO":{"icaoId":"SBLO","flightCategory":"VFR","rawOb":"METAR SBLO 101100Z 22005KT 180V300 9999 FEW010 OVC060 10/09 Q1021","temp":10,"dewp":9,"wdir":220,"wspd":5,"visib":"6+","altim":1021,"clouds":[{"cover":"FEW","base":1000},{"cover":"OVC","base":6000}],"obsTime":1778410800},"SBMA":{"icaoId":"SBMA","flightCategory":"VFR","rawOb":"METAR SBMA 101100Z 29004KT CAVOK 26/24 Q1013","temp":26,"dewp":24,"wdir":290,"wspd":4,"visib":"6+","altim":1013,"clouds":[],"obsTime":1778410800},"SBME":{"icaoId":"SBME","flightCategory":"VFR","rawOb":"METAR SBME 101100Z 22006KT CAVOK 27/22 Q1016","temp":27,"dewp":22,"wdir":220,"wspd":6,"visib":"6+","altim":1016,"clouds":[],"obsTime":1778410800},"SBMG":{"icaoId":"SBMG","flightCategory":"VFR","rawOb":"METAR SBMG 101100Z 20009KT CAVOK 10/08 Q1022","temp":10,"dewp":8,"wdir":200,"wspd":9,"visib":"6+","altim":1022,"clouds":[],"obsTime":1778410800},"SBMK":{"icaoId":"SBMK","flightCategory":"VFR","rawOb":"METAR SBMK 101100Z 04006KT CAVOK 21/18 Q1021","temp":21,"dewp":18,"wdir":40,"wspd":6,"visib":"6+","altim":1021,"clouds":[],"obsTime":1778410800},"SBMO":{"icaoId":"SBMO","flightCategory":"MVFR","rawOb":"METAR SBMO 101100Z 12008KT 9999 BKN020 OVC070 27/24 Q1015","temp":27,"dewp":24,"wdir":120,"wspd":8,"visib":"6+","altim":1015,"clouds":[{"cover":"BKN","base":2000},{"cover":"OVC","base":7000}],"obsTime":1778410800},"SBMQ":{"icaoId":"SBMQ","flightCategory":"VFR","rawOb":"METAR SBMQ 101100Z 34003KT 9999 SCT005 SCT020 26/25 Q1013","temp":26,"dewp":25,"wdir":340,"wspd":3,"visib":"6+","altim":1013,"clouds":[{"cover":"SCT","base":500},{"cover":"SCT","base":2000}],"obsTime":1778410800},"SBNT":{"icaoId":"SBNT","flightCategory":"IFR","rawOb":"METAR SBNT 101100Z VRB02KT 4000 -RA BR BKN009 BKN013 BKN040 24/23 Q1014","temp":24,"dewp":23,"wdir":"VRB","wspd":2,"visib":2.49,"altim":1014,"clouds":[{"cover":"BKN","base":900},{"cover":"BKN","base":1300},{"cover":"BKN","base":4000}],"obsTime":1778410800},"SBPA":{"icaoId":"SBPA","flightCategory":"VFR","rawOb":"METAR SBPA 101100Z 30010KT 9999 SCT025 BKN041 10/08 Q1022","temp":10,"dewp":8,"wdir":300,"wspd":10,"visib":"6+","altim":1022,"clouds":[{"cover":"SCT","base":2500},{"cover":"BKN","base":4100}],"obsTime":1778410800},"SBPJ":{"icaoId":"SBPJ","flightCategory":"VFR","rawOb":"METAR SBPJ 101100Z 17005KT 9999 FEW030 BKN080 27/23 Q1015","temp":27,"dewp":23,"wdir":170,"wspd":5,"visib":"6+","altim":1015,"clouds":[{"cover":"FEW","base":3000},{"cover":"BKN","base":8000}],"obsTime":1778410800},"SBPV":{"icaoId":"SBPV","flightCategory":"VFR","rawOb":"METAR SBPV 101100Z 00000KT CAVOK 25/23 Q1012","temp":25,"dewp":23,"wdir":0,"wspd":0,"visib":"6+","altim":1012,"clouds":[],"obsTime":1778410800},"SBRB":{"icaoId":"SBRB","flightCategory":"IFR","rawOb":"METAR SBRB 101100Z 16011G22KT 4000 BR BKN005 BKN009 22/21 Q1014","temp":22,"dewp":21,"wdir":160,"wspd":11,"visib":2.49,"altim":1014,"clouds":[{"cover":"BKN","base":500},{"cover":"BKN","base":900}],"obsTime":1778410800},"SBRF":{"icaoId":"SBRF","flightCategory":"VFR","rawOb":"METAR SBRF 101100Z 11010KT 9999 SCT020 SCT060 29/24 Q1014","temp":29,"dewp":24,"wdir":110,"wspd":10,"visib":"6+","altim":1014,"clouds":[{"cover":"SCT","base":2000},{"cover":"SCT","base":6000}],"obsTime":1778410800},"SBSG":{"icaoId":"SBSG","flightCategory":"LIFR","rawOb":"METAR SBSG 101100Z 17004KT 140V200 3000 -RA BR BKN003 FEW022TCU BKN070 24/23 Q1015 RERA","temp":24,"dewp":23,"wdir":170,"wspd":4,"visib":1.86,"altim":1015,"clouds":[{"cover":"BKN","base":300},{"cover":"FEW","base":2200},{"cover":"BKN","base":7000}],"obsTime":1778410800},"SBSL":{"icaoId":"SBSL","flightCategory":"VFR","rawOb":"METAR SBSL 101100Z 13002KT 9999 SCT015 BKN080 25/24 Q1013","temp":25,"dewp":24,"wdir":130,"wspd":2,"visib":"6+","altim":1013,"clouds":[{"cover":"SCT","base":1500},{"cover":"BKN","base":8000}],"obsTime":1778410800},"SBSN":{"icaoId":"SBSN","flightCategory":"VFR","rawOb":"METAR SBSN 101100Z 09009KT 9999 FEW016 SCT100 28/26 Q1012","temp":28,"dewp":26,"wdir":90,"wspd":9,"visib":"6+","altim":1012,"clouds":[{"cover":"FEW","base":1600},{"cover":"SCT","base":10000}],"obsTime":1778410800},"SBSP":{"icaoId":"SBSP","flightCategory":"MVFR","rawOb":"METAR SBSP 101100Z 09003KT 9999 BKN020 14/13 Q1022","temp":14,"dewp":13,"wdir":90,"wspd":3,"visib":"6+","altim":1022,"clouds":[{"cover":"BKN","base":2000}],"obsTime":1778410800},"SBSV":{"icaoId":"SBSV","flightCategory":"VFR","rawOb":"METAR SBSV 101100Z 11010KT 9999 FEW030 28/21 Q1016","temp":28,"dewp":21,"wdir":110,"wspd":10,"visib":"6+","altim":1016,"clouds":[{"cover":"FEW","base":3000}],"obsTime":1778410800},"SBTE":{"icaoId":"SBTE","flightCategory":"MVFR","rawOb":"METAR SBTE 101100Z 09002KT 9999 BKN016 28/25 Q1013","temp":28,"dewp":25,"wdir":90,"wspd":2,"visib":"6+","altim":1013,"clouds":[{"cover":"BKN","base":1600}],"obsTime":1778410800},"SBUL":{"icaoId":"SBUL","flightCategory":"VFR","rawOb":"METAR SBUL 101100Z 25005KT CAVOK 20/16 Q1022","temp":20,"dewp":16,"wdir":250,"wspd":5,"visib":"6+","altim":1022,"clouds":[],"obsTime":1778410800},"SBUR":{"icaoId":"SBUR","flightCategory":"IFR","rawOb":"METAR SBUR 101100Z 22006KT 9000 BKN007 OVC070 19/18 Q1021","temp":19,"dewp":18,"wdir":220,"wspd":6,"visib":5.59,"altim":1021,"clouds":[{"cover":"BKN","base":700},{"cover":"OVC","base":7000}],"obsTime":1778410800},"SBVT":{"icaoId":"SBVT","flightCategory":"VFR","rawOb":"METAR SBVT 101100Z 32005KT CAVOK 24/22 Q1018","temp":24,"dewp":22,"wdir":320,"wspd":5,"visib":"6+","altim":1018,"clouds":[],"obsTime":1778410800},"SBCA":{"icaoId":"SBCA","flightCategory":"VFR","rawOb":"METAR SBCA 101100Z 19009KT 9999 FEW003 05/04 Q1023","temp":5,"dewp":4,"wdir":190,"wspd":9,"visib":"6+","altim":1023,"clouds":[{"cover":"FEW","base":300}],"obsTime":1778410800},"SBPB":{"icaoId":"SBPB","flightCategory":"VFR","rawOb":"METAR SBPB 101100Z 12007KT 9999 FEW020 27/25 Q1013","temp":27,"dewp":25,"wdir":120,"wspd":7,"visib":"6+","altim":1013,"clouds":[{"cover":"FEW","base":2000}],"obsTime":1778410800},"SBPL":{"icaoId":"SBPL","flightCategory":"VFR","rawOb":"METAR SBPL 101100Z 13009KT 9999 SCT020 25/20 Q1017","temp":25,"dewp":20,"wdir":130,"wspd":9,"visib":"6+","altim":1017,"clouds":[{"cover":"SCT","base":2000}],"obsTime":1778410800},"SBPP":{"icaoId":"SBPP","flightCategory":"VFR","rawOb":"SPECI SBPP 101115Z 20007KT CAVOK 06/05 Q1025","temp":6,"dewp":5,"wdir":200,"wspd":7,"visib":"6+","altim":1025,"clouds":[],"obsTime":1778411700},"SBDN":{"icaoId":"SBDN","flightCategory":"VFR","rawOb":"METAR SBDN 101100Z 21007KT 9999 SCT009 BKN040 BKN100 11/09 Q1022","temp":11,"dewp":9,"wdir":210,"wspd":7,"visib":"6+","altim":1022,"clouds":[{"cover":"SCT","base":900},{"cover":"BKN","base":4000},{"cover":"BKN","base":10000}],"obsTime":1778410800},"SBPS":{"icaoId":"SBPS","flightCategory":"VFR","rawOb":"METAR SBPS 101100Z 25004KT 9999 FEW020 24/22 Q1018","temp":24,"dewp":22,"wdir":250,"wspd":4,"visib":"6+","altim":1018,"clouds":[{"cover":"FEW","base":2000}],"obsTime":1778410800},"SBSC":{"icaoId":"SBSC","flightCategory":"MVFR","rawOb":"METAR SBSC 101100Z 21007KT 9999 FEW011 BKN025 24/22 Q1017","temp":24,"dewp":22,"wdir":210,"wspd":7,"visib":"6+","altim":1017,"clouds":[{"cover":"FEW","base":1100},{"cover":"BKN","base":2500}],"obsTime":1778410800},"SBBQ":{"icaoId":"SBBQ","flightCategory":"VFR","rawOb":"METAR SBBQ 101200Z 33005KT 300V050 CAVOK 21/17 Q1024","temp":21,"dewp":17,"wdir":330,"wspd":5,"visib":"6+","altim":1024,"clouds":[],"obsTime":1778414400},"SBES":{"icaoId":"SBES","flightCategory":"MVFR","rawOb":"METAR SBES 101100Z 24007KT 160V310 9999 BKN010 24/// Q1016","temp":null,"dewp":null,"wdir":240,"wspd":7,"visib":"6+","altim":1016,"clouds":[{"cover":"BKN","base":1000}],"obsTime":1778410800},"SBSJ":{"icaoId":"SBSJ","flightCategory":"MVFR","rawOb":"METAR SBSJ 101100Z 22008KT 9999 BKN019 18/15 Q1020","temp":18,"dewp":15,"wdir":220,"wspd":8,"visib":"6+","altim":1020,"clouds":[{"cover":"BKN","base":1900}],"obsTime":1778410800},"SBSM":{"icaoId":"SBSM","flightCategory":"MVFR","rawOb":"METAR SBSM 101100Z 28006KT 9999 BKN017 BKN025 09/07 Q1024","temp":9,"dewp":7,"wdir":280,"wspd":6,"visib":"6+","altim":1024,"clouds":[{"cover":"BKN","base":1700},{"cover":"BKN","base":2500}],"obsTime":1778410800},"SBBH":{"icaoId":"SBBH","flightCategory":"VFR","rawOb":"METAR SBBH 101100Z 11006KT CAVOK 21/17 Q1022","temp":21,"dewp":17,"wdir":110,"wspd":6,"visib":"6+","altim":1022,"clouds":[],"obsTime":1778410800},"SBSR":{"icaoId":"SBSR","flightCategory":"IFR","rawOb":"METAR SBSR 101100Z 27006KT 9999 BKN008 16/15 Q1021","temp":16,"dewp":15,"wdir":270,"wspd":6,"visib":"6+","altim":1021,"clouds":[{"cover":"BKN","base":800}],"obsTime":1778410800},"SBGM":{"icaoId":"SBGM","flightCategory":"MVFR","rawOb":"METAR SBGM 101200Z 11015KT 9999 BKN011 OVC040 17/15 Q1017","temp":17,"dewp":15,"wdir":110,"wspd":15,"visib":"6+","altim":1017,"clouds":[{"cover":"BKN","base":1100},{"cover":"OVC","base":4000}],"obsTime":1778414400},"SBTF":{"icaoId":"SBTF","flightCategory":"VFR","rawOb":"SPECI SBTF 101115Z 12002KT CAVOK 25/24 Q1012","temp":25,"dewp":24,"wdir":120,"wspd":2,"visib":"6+","altim":1012,"clouds":[],"obsTime":1778411700},"SBIP":{"icaoId":"SBIP","flightCategory":"VFR","rawOb":"METAR SBIP 101100Z AUTO VRB02KT CAVOK 23/20 Q1020","temp":23,"dewp":20,"wdir":"VRB","wspd":2,"visib":"6+","altim":1020,"clouds":[],"obsTime":1778410800},"SBTT":{"icaoId":"SBTT","flightCategory":"LIFR","rawOb":"METAR SBTT 101100Z 00000KT 2000 R12///// BR BKN004 24/23 Q1012","temp":24,"dewp":23,"wdir":0,"wspd":0,"visib":1.24,"altim":1012,"clouds":[{"cover":"BKN","base":400}],"obsTime":1778410800},"SBTU":{"icaoId":"SBTU","flightCategory":"VFR","rawOb":"METAR SBTU 101100Z AUTO 23009KT 200V260 9999 // ///////// ///// Q1015","temp":null,"dewp":null,"wdir":230,"wspd":9,"visib":"6+","altim":1015,"clouds":[],"obsTime":1778410800},"SBCC":{"icaoId":"SBCC","flightCategory":"VFR","rawOb":"METAR SBCC 101100Z 06005KT CAVOK 25/20 Q1016","temp":25,"dewp":20,"wdir":60,"wspd":5,"visib":"6+","altim":1016,"clouds":[],"obsTime":1778410800},"SBKG":{"icaoId":"SBKG","flightCategory":"MVFR","rawOb":"METAR SBKG 101100Z 10008KT 9999 BKN018 SCT080 24/22 Q1017","temp":24,"dewp":22,"wdir":100,"wspd":8,"visib":"6+","altim":1017,"clouds":[{"cover":"BKN","base":1800},{"cover":"SCT","base":8000}],"obsTime":1778410800},"SBUY":{"icaoId":"SBUY","flightCategory":"VFR","rawOb":"METAR SBUY 101100Z 09002KT CAVOK 23/23 Q1011","temp":23,"dewp":23,"wdir":90,"wspd":2,"visib":"6+","altim":1011,"clouds":[],"obsTime":1778410800},"SBVH":{"icaoId":"SBVH","flightCategory":"VFR","rawOb":"METAR SBVH 101100Z 16014KT 9999 SCT010 SCT035 16/14 Q1020","temp":16,"dewp":14,"wdir":160,"wspd":14,"visib":"6+","altim":1020,"clouds":[{"cover":"SCT","base":1000},{"cover":"SCT","base":3500}],"obsTime":1778410800},"SBAR":{"icaoId":"SBAR","flightCategory":"VFR","rawOb":"METAR SBAR 101100Z 12010KT 9999 FEW025 29/23 Q1015","temp":29,"dewp":23,"wdir":120,"wspd":10,"visib":"6+","altim":1015,"clouds":[{"cover":"FEW","base":2500}],"obsTime":1778410800},"SBBU":{"icaoId":"SBBU","flightCategory":"LIFR","rawOb":"METAR SBBU 101100Z 26006KT 0500 FG VV000 17/17 Q1020","temp":17,"dewp":17,"wdir":260,"wspd":6,"visib":0.31,"altim":1020,"clouds":[{"cover":"OVX","base":0}],"obsTime":1778410800},"SBCJ":{"icaoId":"SBCJ","flightCategory":"VFR","rawOb":"METAR SBCJ 101100Z 04005KT 9999 SCT005 BKN100 23/20 Q1018","temp":23,"dewp":20,"wdir":40,"wspd":5,"visib":"6+","altim":1018,"clouds":[{"cover":"SCT","base":500},{"cover":"BKN","base":10000}],"obsTime":1778410800},"SBOI":{"icaoId":"SBOI","flightCategory":"VFR","rawOb":"METAR SBOI 101100Z AUTO VRB02KT 9999 SCT001 SCT004 25/25 Q1013","temp":25,"dewp":25,"wdir":"VRB","wspd":2,"visib":"6+","altim":1013,"clouds":[{"cover":"SCT","base":100},{"cover":"SCT","base":400}],"obsTime":1778410800},"SBCO":{"icaoId":"SBCO","flightCategory":"VFR","rawOb":"METAR SBCO 101100Z 30008KT 9999 FEW014 BKN035 09/08 Q1022","temp":9,"dewp":8,"wdir":300,"wspd":8,"visib":"6+","altim":1022,"clouds":[{"cover":"FEW","base":1400},{"cover":"BKN","base":3500}],"obsTime":1778410800},"SBNM":{"icaoId":"SBNM","flightCategory":"MVFR","rawOb":"METAR SBNM 101100Z AUTO 30003KT 270V340 9999 FEW008 OVC030 07/06 Q1024","temp":7,"dewp":6,"wdir":300,"wspd":3,"visib":"6+","altim":1024,"clouds":[{"cover":"FEW","base":800},{"cover":"OVC","base":3000}],"obsTime":1778410800},"SBAN":{"icaoId":"SBAN","flightCategory":"VFR","rawOb":"METAR SBAN 101100Z 16007KT CAVOK 21/15 Q1023","temp":21,"dewp":15,"wdir":160,"wspd":7,"visib":"6+","altim":1023,"clouds":[],"obsTime":1778410800},"SBLE":{"icaoId":"SBLE","flightCategory":"VFR","rawOb":"METAR SBLE 101100Z AUTO 15003KT 100V200 9999 FEW005 SCT045 ///// Q////","temp":null,"dewp":null,"wdir":150,"wspd":3,"visib":"6+","altim":null,"clouds":[{"cover":"FEW","base":500},{"cover":"SCT","base":4500}],"obsTime":1778410800},"SBJV":{"icaoId":"SBJV","flightCategory":"VFR","rawOb":"METAR SBJV 101100Z 22003KT 9999 FEW040 BKN100 12/10 Q1021","temp":12,"dewp":10,"wdir":220,"wspd":3,"visib":"6+","altim":1021,"clouds":[{"cover":"FEW","base":4000},{"cover":"BKN","base":10000}],"obsTime":1778410800},"SBJP":{"icaoId":"SBJP","flightCategory":"VFR","rawOb":"METAR SBJP 101100Z 00000KT 9999 SCT020 BKN100 27/25 Q1014","temp":27,"dewp":25,"wdir":0,"wspd":0,"visib":"6+","altim":1014,"clouds":[{"cover":"SCT","base":2000},{"cover":"BKN","base":10000}],"obsTime":1778410800},"SBPF":{"icaoId":"SBPF","flightCategory":"MVFR","rawOb":"METAR SBPF 101100Z 23012KT 9999 BKN020 05/03 Q1023","temp":5,"dewp":3,"wdir":230,"wspd":12,"visib":"6+","altim":1023,"clouds":[{"cover":"BKN","base":2000}],"obsTime":1778410800},"SBIH":{"icaoId":"SBIH","flightCategory":"VFR","rawOb":"METAR SBIH 101100Z 00000KT 9999 FEW015 BKN100 26/25 Q1012","temp":26,"dewp":25,"wdir":0,"wspd":0,"visib":"6+","altim":1012,"clouds":[{"cover":"FEW","base":1500},{"cover":"BKN","base":10000}],"obsTime":1778410800},"SBAF":{"icaoId":"SBAF","flightCategory":"MVFR","rawOb":"METAR SBAF 101100Z 19006KT 9999 FEW010 SCT017 BKN022 24/24 Q1017","temp":24,"dewp":24,"wdir":190,"wspd":6,"visib":"6+","altim":1017,"clouds":[{"cover":"FEW","base":1000},{"cover":"SCT","base":1700},{"cover":"BKN","base":2200}],"obsTime":1778410800},"SBGW":{"icaoId":"SBGW","flightCategory":"IFR","rawOb":"METAR SBGW 101100Z 24004KT 5000 HZ OVC007 21/16 Q1019","temp":21,"dewp":16,"wdir":240,"wspd":4,"visib":3.11,"altim":1019,"clouds":[{"cover":"OVC","base":700}],"obsTime":1778410800},"SBJR":{"icaoId":"SBJR","flightCategory":"MVFR","rawOb":"METAR SBJR 101100Z 24005KT 9999 BKN010 SCT020 25/22 Q1016","temp":25,"dewp":22,"wdir":240,"wspd":5,"visib":"6+","altim":1016,"clouds":[{"cover":"BKN","base":1000},{"cover":"SCT","base":2000}],"obsTime":1778410800},"SBLS":{"icaoId":"SBLS","flightCategory":"VFR","rawOb":"METAR SBLS 101100Z 16004KT CAVOK 20/17 Q1022","temp":20,"dewp":17,"wdir":160,"wspd":4,"visib":"6+","altim":1022,"clouds":[],"obsTime":1778410800},"SBMT":{"icaoId":"SBMT","flightCategory":"MVFR","rawOb":"METAR SBMT 101100Z 17005KT 9999 FEW009 BKN011 15/14 Q1021 RERA","temp":15,"dewp":14,"wdir":170,"wspd":5,"visib":"6+","altim":1021,"clouds":[{"cover":"FEW","base":900},{"cover":"BKN","base":1100}],"obsTime":1778410800},"SBTA":{"icaoId":"SBTA","flightCategory":"MVFR","rawOb":"METAR SBTA 101100Z 26005KT 9000 FEW007 BKN011 BKN016 19/18 Q1018","temp":19,"dewp":18,"wdir":260,"wspd":5,"visib":5.59,"altim":1018,"clouds":[{"cover":"FEW","base":700},{"cover":"BKN","base":1100},{"cover":"BKN","base":1600}],"obsTime":1778410800},"SBST":{"icaoId":"SBST","flightCategory":"IFR","rawOb":"METAR SBST 101100Z 36008KT 2000 -DZ BR BKN010 BKN012 OVC015 17/17 Q1019","temp":17,"dewp":17,"wdir":360,"wspd":8,"visib":1.24,"altim":1019,"clouds":[{"cover":"BKN","base":1000},{"cover":"BKN","base":1200},{"cover":"OVC","base":1500}],"obsTime":1778410800}}}