{"updated":1782832226,"count":88,"data":{"SBCT":{"icaoId":"SBCT","flightCategory":"MVFR","rawOb":"SPECI SBCT 301320Z 35006KT 9999 FEW007 SCT015 BKN030 18/18 Q1021","temp":18,"dewp":18,"wdir":350,"wspd":6,"visib":"6+","altim":1021,"clouds":[{"cover":"FEW","base":700},{"cover":"SCT","base":1500},{"cover":"BKN","base":3000}],"obsTime":1782825600},"SBTE":{"icaoId":"SBTE","flightCategory":"VFR","rawOb":"METAR SBTE 301400Z 13007KT 070V180 9999 FEW025 31/19 Q1013","temp":31,"dewp":19,"wdir":130,"wspd":7,"visib":"6+","altim":1013,"clouds":[{"cover":"FEW","base":2500}],"obsTime":1782828000},"SBGR":{"icaoId":"SBGR","flightCategory":"VFR","rawOb":"METAR SBGR 301400Z 06006KT CAVOK 24/17 Q1022","temp":24,"dewp":17,"wdir":60,"wspd":6,"visib":"6+","altim":1022,"clouds":[],"obsTime":1782828000},"SBSL":{"icaoId":"SBSL","flightCategory":"VFR","rawOb":"METAR SBSL 301400Z 11010KT 9999 FEW030 30/24 Q1013","temp":30,"dewp":24,"wdir":110,"wspd":10,"visib":"6+","altim":1013,"clouds":[{"cover":"FEW","base":3000}],"obsTime":1782828000},"SBBV":{"icaoId":"SBBV","flightCategory":"MVFR","rawOb":"METAR SBBV 301400Z 17002KT 9999 BKN015 BKN020 28/24 Q1014","temp":28,"dewp":24,"wdir":170,"wspd":2,"visib":"6+","altim":1014,"clouds":[{"cover":"BKN","base":1500},{"cover":"BKN","base":2000}],"obsTime":1782828000},"SBLO":{"icaoId":"SBLO","flightCategory":"VFR","rawOb":"METAR SBLO 301400Z 06004KT CAVOK 23/18 Q1020","temp":23,"dewp":18,"wdir":60,"wspd":4,"visib":"6+","altim":1020,"clouds":[],"obsTime":1782828000},"SBRB":{"icaoId":"SBRB","flightCategory":"VFR","rawOb":"METAR SBRB 301400Z 20003KT 100V250 CAVOK 29/23 Q1015","temp":29,"dewp":23,"wdir":200,"wspd":3,"visib":"6+","altim":1015,"clouds":[],"obsTime":1782828000},"SBEG":{"icaoId":"SBEG","flightCategory":"MVFR","rawOb":"METAR SBEG 301400Z 07014KT 9999 BKN030 FEW035TCU BKN100 27/23 Q1014","temp":27,"dewp":23,"wdir":70,"wspd":14,"visib":"6+","altim":1014,"clouds":[{"cover":"BKN","base":3000},{"cover":"FEW","base":3500},{"cover":"BKN","base":10000}],"obsTime":1782828000},"SBSN":{"icaoId":"SBSN","flightCategory":"IFR","rawOb":"METAR SBSN 301400Z 09017KT 4800 -RA BKN012 SCT015 OVC100 26/24 Q1014","temp":26,"dewp":24,"wdir":90,"wspd":17,"visib":2.98,"altim":1014,"clouds":[{"cover":"BKN","base":1200},{"cover":"SCT","base":1500},{"cover":"OVC","base":10000}],"obsTime":1782828000},"SBRF":{"icaoId":"SBRF","flightCategory":"VFR","rawOb":"METAR SBRF 301400Z 15013KT 9999 SCT025 28/23 Q1016","temp":28,"dewp":23,"wdir":150,"wspd":13,"visib":"6+","altim":1016,"clouds":[{"cover":"SCT","base":2500}],"obsTime":1782828000},"SBGO":{"icaoId":"SBGO","flightCategory":"VFR","rawOb":"METAR SBGO 301400Z 01006KT 310V080 CAVOK 27/15 Q1021","temp":27,"dewp":15,"wdir":10,"wspd":6,"visib":"6+","altim":1021,"clouds":[],"obsTime":1782828000},"SBMQ":{"icaoId":"SBMQ","flightCategory":"VFR","rawOb":"METAR SBMQ 301400Z 12004KT 9999 SCT017 29/25 Q1013","temp":29,"dewp":25,"wdir":120,"wspd":4,"visib":"6+","altim":1013,"clouds":[{"cover":"SCT","base":1700}],"obsTime":1782828000},"SBSV":{"icaoId":"SBSV","flightCategory":"MVFR","rawOb":"SPECI SBSV 301330Z VRB03KT 8000 VCSH BKN015 BKN021 FEW023TCU BKN040 25/22 Q1019","temp":25,"dewp":22,"wdir":"VRB","wspd":3,"visib":4.97,"altim":1019,"clouds":[{"cover":"BKN","base":1500},{"cover":"BKN","base":2100},{"cover":"FEW","base":2300},{"cover":"BKN","base":4000}],"obsTime":1782826200},"SBBR":{"icaoId":"SBBR","flightCategory":"VFR","rawOb":"METAR SBBR 301400Z 10008KT 060V140 CAVOK 21/13 Q1024","temp":21,"dewp":13,"wdir":100,"wspd":8,"visib":"6+","altim":1024,"clouds":[],"obsTime":1782828000},"SBBE":{"icaoId":"SBBE","flightCategory":"VFR","rawOb":"METAR SBBE 301400Z 07009KT 9999 SCT027 30/24 Q1013","temp":30,"dewp":24,"wdir":70,"wspd":9,"visib":"6+","altim":1013,"clouds":[{"cover":"SCT","base":2700}],"obsTime":1782828000},"SBPV":{"icaoId":"SBPV","flightCategory":"VFR","rawOb":"METAR SBPV 301400Z 20002KT CAVOK 30/23 Q1014","temp":30,"dewp":23,"wdir":200,"wspd":2,"visib":"6+","altim":1014,"clouds":[],"obsTime":1782828000},"SBMG":{"icaoId":"SBMG","flightCategory":"VFR","rawOb":"METAR SBMG 301400Z 02009KT CAVOK 25/19 Q1018","temp":25,"dewp":19,"wdir":20,"wspd":9,"visib":"6+","altim":1018,"clouds":[],"obsTime":1782828000},"SBSG":{"icaoId":"SBSG","flightCategory":"MVFR","rawOb":"METAR SBSG 301400Z 14009KT 100V180 9999 BKN030 28/22 Q1015","temp":28,"dewp":22,"wdir":140,"wspd":9,"visib":"6+","altim":1015,"clouds":[{"cover":"BKN","base":3000}],"obsTime":1782828000},"SBCB":{"icaoId":"SBCB","flightCategory":"VFR","rawOb":"METAR SBCB 301400Z 09007KT 9999 FEW015 SCT040 25/20 Q1020","temp":25,"dewp":20,"wdir":90,"wspd":7,"visib":"6+","altim":1020,"clouds":[{"cover":"FEW","base":1500},{"cover":"SCT","base":4000}],"obsTime":1782828000},"SBCF":{"icaoId":"SBCF","flightCategory":"VFR","rawOb":"METAR SBCF 301400Z 04008KT CAVOK 23/15 Q1025","temp":23,"dewp":15,"wdir":40,"wspd":8,"visib":"6+","altim":1025,"clouds":[],"obsTime":1782828000},"SBCR":{"icaoId":"SBCR","flightCategory":"MVFR","rawOb":"METAR SBCR 301400Z 24004KT 170V340 9000 BKN010 21/19 Q1016","temp":21,"dewp":19,"wdir":240,"wspd":4,"visib":5.59,"altim":1016,"clouds":[{"cover":"BKN","base":1000}],"obsTime":1782828000},"SBPA":{"icaoId":"SBPA","flightCategory":"IFR","rawOb":"METAR SBPA 301400Z 17008KT 9999 BKN009 BKN023 14/12 Q1019","temp":14,"dewp":12,"wdir":170,"wspd":8,"visib":"6+","altim":1019,"clouds":[{"cover":"BKN","base":900},{"cover":"BKN","base":2300}],"obsTime":1782828000},"SBGL":{"icaoId":"SBGL","flightCategory":"VFR","rawOb":"METAR SBGL 301400Z 09003KT 9000 NSC 26/19 Q1019","temp":26,"dewp":19,"wdir":90,"wspd":3,"visib":5.59,"altim":1019,"clouds":[],"obsTime":1782828000},"SBFZ":{"icaoId":"SBFZ","flightCategory":"VFR","rawOb":"METAR SBFZ 301400Z 14017KT 9999 SCT030 31/21 Q1013","temp":31,"dewp":21,"wdir":140,"wspd":17,"visib":"6+","altim":1013,"clouds":[{"cover":"SCT","base":3000}],"obsTime":1782828000},"SBSP":{"icaoId":"SBSP","flightCategory":"VFR","rawOb":"METAR SBSP 301400Z 36007KT 320V030 CAVOK 24/15 Q1023","temp":24,"dewp":15,"wdir":360,"wspd":7,"visib":"6+","altim":1023,"clouds":[],"obsTime":1782828000},"SBKP":{"icaoId":"SBKP","flightCategory":"VFR","rawOb":"METAR SBKP 301400Z 02012KT CAVOK 25/15 Q1022","temp":25,"dewp":15,"wdir":20,"wspd":12,"visib":"6+","altim":1022,"clouds":[],"obsTime":1782828000},"SBFL":{"icaoId":"SBFL","flightCategory":"IFR","rawOb":"METAR SBFL 301400Z 31005KT 290V350 4500 2000S -DZ FEW001 BKN022 OVC100 16/15 Q1019","temp":16,"dewp":15,"wdir":310,"wspd":5,"visib":2.8,"altim":1019,"clouds":[{"cover":"FEW","base":100},{"cover":"BKN","base":2200},{"cover":"OVC","base":10000}],"obsTime":1782828000},"SBMA":{"icaoId":"SBMA","flightCategory":"VFR","rawOb":"METAR SBMA 301400Z 12005KT 9999 SCT022 31/23 Q1014","temp":31,"dewp":23,"wdir":120,"wspd":5,"visib":"6+","altim":1014,"clouds":[{"cover":"SCT","base":2200}],"obsTime":1782828000},"SBFI":{"icaoId":"SBFI","flightCategory":"LIFR","rawOb":"SPECI SBFI 301324Z 02004KT 3000 BR OVC003 16/16 Q1016","temp":16,"dewp":16,"wdir":20,"wspd":4,"visib":1.86,"altim":1016,"clouds":[{"cover":"OVC","base":300}],"obsTime":1782825840},"SBCZ":{"icaoId":"SBCZ","flightCategory":"VFR","rawOb":"METAR SBCZ 301400Z 19001KT 9999 FEW008 SCT100 27/24 Q1015","temp":27,"dewp":24,"wdir":190,"wspd":1,"visib":"6+","altim":1015,"clouds":[{"cover":"FEW","base":800},{"cover":"SCT","base":10000}],"obsTime":1782828000},"SBPJ":{"icaoId":"SBPJ","flightCategory":"VFR","rawOb":"METAR SBPJ 301400Z 13008KT 080V170 CAVOK 31/18 Q1016","temp":31,"dewp":18,"wdir":130,"wspd":8,"visib":"6+","altim":1016,"clouds":[],"obsTime":1782828000},"SBNT":{"icaoId":"SBNT","flightCategory":"MVFR","rawOb":"METAR SBNT 301400Z 14017KT 9999 BKN030 23/22 Q1015","temp":23,"dewp":22,"wdir":140,"wspd":17,"visib":"6+","altim":1015,"clouds":[{"cover":"BKN","base":3000}],"obsTime":1782828000},"SBCG":{"icaoId":"SBCG","flightCategory":"VFR","rawOb":"METAR SBCG 301400Z 08009KT CAVOK 27/18 Q1018","temp":27,"dewp":18,"wdir":80,"wspd":9,"visib":"6+","altim":1018,"clouds":[],"obsTime":1782828000},"SBVT":{"icaoId":"SBVT","flightCategory":"VFR","rawOb":"METAR SBVT 301400Z 04007KT 9999 VCSH SCT025 BKN050 26/21 Q1021","temp":26,"dewp":21,"wdir":40,"wspd":7,"visib":"6+","altim":1021,"clouds":[{"cover":"SCT","base":2500},{"cover":"BKN","base":5000}],"obsTime":1782828000},"SBMO":{"icaoId":"SBMO","flightCategory":"MVFR","rawOb":"METAR SBMO 301400Z 11013KT 9999 FEW023 BKN030 28/22 Q1017","temp":28,"dewp":22,"wdir":110,"wspd":13,"visib":"6+","altim":1017,"clouds":[{"cover":"FEW","base":2300},{"cover":"BKN","base":3000}],"obsTime":1782828000},"SBIL":{"icaoId":"SBIL","flightCategory":"VFR","rawOb":"METAR SBIL 301400Z 18004KT 130V210 9999 SCT023 27/23 Q1020","temp":27,"dewp":23,"wdir":180,"wspd":4,"visib":"6+","altim":1020,"clouds":[{"cover":"SCT","base":2300}],"obsTime":1782828000},"SBJU":{"icaoId":"SBJU","flightCategory":"MVFR","rawOb":"METAR SBJU 301400Z 15012KT 9999 BKN020 28/18 Q1018","temp":28,"dewp":18,"wdir":150,"wspd":12,"visib":"6+","altim":1018,"clouds":[{"cover":"BKN","base":2000}],"obsTime":1782828000},"SBME":{"icaoId":"SBME","flightCategory":"VFR","rawOb":"METAR SBME 301400Z 35003KT CAVOK 28/19 Q1019","temp":28,"dewp":19,"wdir":350,"wspd":3,"visib":"6+","altim":1019,"clouds":[],"obsTime":1782828000},"SBMK":{"icaoId":"SBMK","flightCategory":"MVFR","rawOb":"METAR SBMK 301400Z 06008KT 9999 BKN025 24/16 Q1023","temp":24,"dewp":16,"wdir":60,"wspd":8,"visib":"6+","altim":1023,"clouds":[{"cover":"BKN","base":2500}],"obsTime":1782828000},"SBUL":{"icaoId":"SBUL","flightCategory":"VFR","rawOb":"METAR SBUL 301400Z 07014KT CAVOK 22/12 Q1024","temp":22,"dewp":12,"wdir":70,"wspd":14,"visib":"6+","altim":1024,"clouds":[],"obsTime":1782828000},"SBUR":{"icaoId":"SBUR","flightCategory":"VFR","rawOb":"METAR SBUR 301400Z 03010KT CAVOK 24/12 Q1022","temp":24,"dewp":12,"wdir":30,"wspd":10,"visib":"6+","altim":1022,"clouds":[],"obsTime":1782828000},"SBAT":{"icaoId":"SBAT","flightCategory":"VFR","rawOb":"METAR SBAT 301400Z 11007KT CAVOK 34/20 Q1015","temp":34,"dewp":20,"wdir":110,"wspd":7,"visib":"6+","altim":1015,"clouds":[],"obsTime":1782828000},"SBHT":{"icaoId":"SBHT","flightCategory":"VFR","rawOb":"METAR SBHT 301400Z 00000KT 9999 SCT017 BKN090 27/23 Q1014","temp":27,"dewp":23,"wdir":0,"wspd":0,"visib":"6+","altim":1014,"clouds":[{"cover":"SCT","base":1700},{"cover":"BKN","base":9000}],"obsTime":1782828000},"SBCP":{"icaoId":"SBCP","flightCategory":"VFR","rawOb":"METAR SBCP 301400Z COR 01005KT 9999 FEW020 29/17 Q1019","temp":29,"dewp":17,"wdir":10,"wspd":5,"visib":"6+","altim":1019,"clouds":[{"cover":"FEW","base":2000}],"obsTime":1782828000},"SBTD":{"icaoId":"SBTD","flightCategory":"LIFR","rawOb":"METAR SBTD 301400Z /////KT 7000 BKN004 BKN080 19/18 Q1018","temp":19,"dewp":18,"wdir":null,"wspd":null,"visib":4.35,"altim":1018,"clouds":[{"cover":"BKN","base":400},{"cover":"BKN","base":8000}],"obsTime":1782828000},"SBSM":{"icaoId":"SBSM","flightCategory":"IFR","rawOb":"METAR SBSM 301400Z 09008KT 8000 BKN006 SCT015 11/11 Q1019","temp":11,"dewp":11,"wdir":90,"wspd":8,"visib":4.97,"altim":1019,"clouds":[{"cover":"BKN","base":600},{"cover":"SCT","base":1500}],"obsTime":1782828000},"SBPS":{"icaoId":"SBPS","flightCategory":"VFR","rawOb":"METAR SBPS 301400Z 09006KT 050V150 9999 SCT017 27/22 Q1021","temp":27,"dewp":22,"wdir":90,"wspd":6,"visib":"6+","altim":1021,"clouds":[{"cover":"SCT","base":1700}],"obsTime":1782828000},"SBTF":{"icaoId":"SBTF","flightCategory":"VFR","rawOb":"METAR SBTF 301400Z 19003KT 9999 SCT010 27/25 Q1013","temp":27,"dewp":25,"wdir":190,"wspd":3,"visib":"6+","altim":1013,"clouds":[{"cover":"SCT","base":1000}],"obsTime":1782828000},"SBUY":{"icaoId":"SBUY","flightCategory":"VFR","rawOb":"METAR SBUY 301400Z 01003KT 9999 SCT012 27/25 Q1013","temp":27,"dewp":25,"wdir":10,"wspd":3,"visib":"6+","altim":1013,"clouds":[{"cover":"SCT","base":1200}],"obsTime":1782828000},"SBTT":{"icaoId":"SBTT","flightCategory":"VFR","rawOb":"METAR SBTT 301400Z 17001KT CAVOK 25/23 Q1014","temp":25,"dewp":23,"wdir":170,"wspd":1,"visib":"6+","altim":1014,"clouds":[],"obsTime":1782828000},"SBCA":{"icaoId":"SBCA","flightCategory":"VFR","rawOb":"METAR SBCA 301400Z 03006KT 9999 VCSH FEW005 FEW040TCU BKN070 19/17 Q1019","temp":19,"dewp":17,"wdir":30,"wspd":6,"visib":"6+","altim":1019,"clouds":[{"cover":"FEW","base":500},{"cover":"FEW","base":4000},{"cover":"BKN","base":7000}],"obsTime":1782828000},"SBPP":{"icaoId":"SBPP","flightCategory":"LIFR","rawOb":"SPECI SBPP 301320Z 05012KT 1000 BR OVC001 18/18 Q1018","temp":18,"dewp":18,"wdir":50,"wspd":12,"visib":0.62,"altim":1018,"clouds":[{"cover":"OVC","base":100}],"obsTime":1782825600},"SBCO":{"icaoId":"SBCO","flightCategory":"MVFR","rawOb":"METAR SBCO 301400Z 15007KT 9999 FEW009 BKN014 OVC045 14/12 Q1020","temp":14,"dewp":12,"wdir":150,"wspd":7,"visib":"6+","altim":1020,"clouds":[{"cover":"FEW","base":900},{"cover":"BKN","base":1400},{"cover":"OVC","base":4500}],"obsTime":1782828000},"SBPL":{"icaoId":"SBPL","flightCategory":"VFR","rawOb":"METAR SBPL 301400Z 11012KT 9999 FEW025 28/17 Q1018","temp":28,"dewp":17,"wdir":110,"wspd":12,"visib":"6+","altim":1018,"clouds":[{"cover":"FEW","base":2500}],"obsTime":1782828000},"SBPB":{"icaoId":"SBPB","flightCategory":"VFR","rawOb":"METAR SBPB 301400Z 10012KT 9999 FEW020 31/23 Q1012","temp":31,"dewp":23,"wdir":100,"wspd":12,"visib":"6+","altim":1012,"clouds":[{"cover":"FEW","base":2000}],"obsTime":1782828000},"SBAR":{"icaoId":"SBAR","flightCategory":"MVFR","rawOb":"SPECI SBAR 301337Z 13007KT 8000 -RA FEW005 SCT012 OVC022 24/23 Q1018","temp":24,"dewp":23,"wdir":130,"wspd":7,"visib":4.97,"altim":1018,"clouds":[{"cover":"FEW","base":500},{"cover":"SCT","base":1200},{"cover":"OVC","base":2200}],"obsTime":1782826620},"SBSJ":{"icaoId":"SBSJ","flightCategory":"MVFR","rawOb":"METAR SBSJ 301400Z 35003KT 5000 BR BKN011 20/16 Q1022","temp":20,"dewp":16,"wdir":350,"wspd":3,"visib":3.11,"altim":1022,"clouds":[{"cover":"BKN","base":1100}],"obsTime":1782828000},"SBOI":{"icaoId":"SBOI","flightCategory":"VFR","rawOb":"SPECI SBOI 301311Z AUTO VRB01KT 9999 FEW008 SCT012 28/25 Q1013","temp":28,"dewp":25,"wdir":"VRB","wspd":1,"visib":"6+","altim":1013,"clouds":[{"cover":"FEW","base":800},{"cover":"SCT","base":1200}],"obsTime":1782825060},"SBCJ":{"icaoId":"SBCJ","flightCategory":"VFR","rawOb":"METAR SBCJ 301400Z 13007KT 9999 FEW020 27/19 Q1019","temp":27,"dewp":19,"wdir":130,"wspd":7,"visib":"6+","altim":1019,"clouds":[{"cover":"FEW","base":2000}],"obsTime":1782828000},"SBGM":{"icaoId":"SBGM","flightCategory":"VFR","rawOb":"METAR SBGM 301400Z 11008KT CAVOK 29/20 Q1015","temp":29,"dewp":20,"wdir":110,"wspd":8,"visib":"6+","altim":1015,"clouds":[],"obsTime":1782828000},"SBVH":{"icaoId":"SBVH","flightCategory":"VFR","rawOb":"METAR SBVH 301400Z 06007KT CAVOK 28/18 Q1018","temp":28,"dewp":18,"wdir":60,"wspd":7,"visib":"6+","altim":1018,"clouds":[],"obsTime":1782828000},"SBES":{"icaoId":"SBES","flightCategory":"VFR","rawOb":"METAR SBES 301400Z 08006KT 060V120 9999 FEW040 24/// Q1020","temp":null,"dewp":null,"wdir":80,"wspd":6,"visib":"6+","altim":1020,"clouds":[{"cover":"FEW","base":4000}],"obsTime":1782828000},"SBTU":{"icaoId":"SBTU","flightCategory":"MVFR","rawOb":"METAR SBTU 301400Z AUTO 26004KT 180V320 9999 // BKN013/// ///// Q1015","temp":null,"dewp":null,"wdir":260,"wspd":4,"visib":"6+","altim":1015,"clouds":[{"cover":"BKN","base":1300}],"obsTime":1782828000},"SBKG":{"icaoId":"SBKG","flightCategory":"VFR","rawOb":"METAR SBKG 301400Z 14011KT 9999 SCT025 26/19 Q1018","temp":26,"dewp":19,"wdir":140,"wspd":11,"visib":"6+","altim":1018,"clouds":[{"cover":"SCT","base":2500}],"obsTime":1782828000},"SBAU":{"icaoId":"SBAU","flightCategory":"VFR","rawOb":"METAR SBAU 301400Z 01010KT CAVOK 28/17 Q1019","temp":28,"dewp":17,"wdir":10,"wspd":10,"visib":"6+","altim":1019,"clouds":[],"obsTime":1782828000},"SBAX":{"icaoId":"SBAX","flightCategory":"VFR","rawOb":"METAR SBAX 301400Z 03008KT CAVOK 21/12 Q1024","temp":21,"dewp":12,"wdir":30,"wspd":8,"visib":"6+","altim":1024,"clouds":[],"obsTime":1782828000},"SBBH":{"icaoId":"SBBH","flightCategory":"VFR","rawOb":"METAR SBBH 301400Z 04003KT 9999 FEW040 23/14 Q1024","temp":23,"dewp":14,"wdir":40,"wspd":3,"visib":"6+","altim":1024,"clouds":[{"cover":"FEW","base":4000}],"obsTime":1782828000},"SBBQ":{"icaoId":"SBBQ","flightCategory":"VFR","rawOb":"METAR SBBQ 301400Z 36007KT CAVOK 22/13 Q1027","temp":22,"dewp":13,"wdir":360,"wspd":7,"visib":"6+","altim":1027,"clouds":[],"obsTime":1782828000},"SBBU":{"icaoId":"SBBU","flightCategory":"VFR","rawOb":"METAR SBBU 301400Z 01007KT CAVOK 25/16 Q1021","temp":25,"dewp":16,"wdir":10,"wspd":7,"visib":"6+","altim":1021,"clouds":[],"obsTime":1782828000},"SBDN":{"icaoId":"SBDN","flightCategory":"VFR","rawOb":"METAR SBDN 301400Z 34012KT CAVOK 26/17 Q1019","temp":26,"dewp":17,"wdir":340,"wspd":12,"visib":"6+","altim":1019,"clouds":[],"obsTime":1782828000},"SBIP":{"icaoId":"SBIP","flightCategory":"VFR","rawOb":"METAR SBIP 301400Z AUTO 19003KT 100V240 9999 BKN047 24/16 Q1022","temp":24,"dewp":16,"wdir":190,"wspd":3,"visib":"6+","altim":1022,"clouds":[{"cover":"BKN","base":4700}],"obsTime":1782828000},"SBSC":{"icaoId":"SBSC","flightCategory":"VFR","rawOb":"METAR SBSC 301400Z 04008KT CAVOK 27/19 Q1019","temp":27,"dewp":19,"wdir":40,"wspd":8,"visib":"6+","altim":1019,"clouds":[],"obsTime":1782828000},"SBSR":{"icaoId":"SBSR","flightCategory":"VFR","rawOb":"METAR SBSR 301400Z 03009KT CAVOK 25/14 Q1020","temp":25,"dewp":14,"wdir":30,"wspd":9,"visib":"6+","altim":1020,"clouds":[],"obsTime":1782828000},"SBCC":{"icaoId":"SBCC","flightCategory":"VFR","rawOb":"METAR SBCC 301400Z 07011KT CAVOK 30/18 Q1017","temp":30,"dewp":18,"wdir":70,"wspd":11,"visib":"6+","altim":1017,"clouds":[],"obsTime":1782828000},"SBAN":{"icaoId":"SBAN","flightCategory":"VFR","rawOb":"METAR SBAN 301400Z 07010KT 040V100 CAVOK 23/12 Q1024","temp":23,"dewp":12,"wdir":70,"wspd":10,"visib":"6+","altim":1024,"clouds":[],"obsTime":1782828000},"SBJV":{"icaoId":"SBJV","flightCategory":"IFR","rawOb":"METAR SBJV 301400Z COR 00000KT 4000 BR BKN006 BKN012 17/15 Q1020","temp":17,"dewp":15,"wdir":0,"wspd":0,"visib":2.49,"altim":1020,"clouds":[{"cover":"BKN","base":600},{"cover":"BKN","base":1200}],"obsTime":1782828000},"SBNM":{"icaoId":"SBNM","flightCategory":"IFR","rawOb":"METAR SBNM 301400Z 14004KT 2000 BR VCFG VV002 12/12 Q1018","temp":12,"dewp":12,"wdir":140,"wspd":4,"visib":1.24,"altim":1018,"clouds":[{"cover":"OVX","base":200}],"obsTime":1782828000},"SBPF":{"icaoId":"SBPF","flightCategory":"LIFR","rawOb":"METAR SBPF 301400Z 14007KT 0900 FG VV002 13/12 Q1019","temp":13,"dewp":12,"wdir":140,"wspd":7,"visib":0.56,"altim":1019,"clouds":[{"cover":"OVX","base":200}],"obsTime":1782828000},"SBJP":{"icaoId":"SBJP","flightCategory":"MVFR","rawOb":"METAR SBJP 301400Z 12015KT 9999 VCSH BKN025 BKN070 29/23 Q1016","temp":29,"dewp":23,"wdir":120,"wspd":15,"visib":"6+","altim":1016,"clouds":[{"cover":"BKN","base":2500},{"cover":"BKN","base":7000}],"obsTime":1782828000},"SBLE":{"icaoId":"SBLE","flightCategory":"MVFR","rawOb":"METAR SBLE 301400Z AUTO 19003KT 150V230 9999 FEW009 BKN015 ///// Q////","temp":null,"dewp":null,"wdir":190,"wspd":3,"visib":"6+","altim":null,"clouds":[{"cover":"FEW","base":900},{"cover":"BKN","base":1500}],"obsTime":1782828000},"SBAF":{"icaoId":"SBAF","flightCategory":"VFR","rawOb":"METAR SBAF 301400Z 09002KT 9000 FEW030 26/20 Q1020","temp":26,"dewp":20,"wdir":90,"wspd":2,"visib":5.59,"altim":1020,"clouds":[{"cover":"FEW","base":3000}],"obsTime":1782828000},"SBGW":{"icaoId":"SBGW","flightCategory":"VFR","rawOb":"METAR SBGW 301400Z 05005KT 9999 FEW015 23/14 Q1022","temp":23,"dewp":14,"wdir":50,"wspd":5,"visib":"6+","altim":1022,"clouds":[{"cover":"FEW","base":1500}],"obsTime":1782828000},"SBJR":{"icaoId":"SBJR","flightCategory":"MVFR","rawOb":"METAR SBJR 301400Z 05002KT 8000 NSC 29/21 Q1019","temp":29,"dewp":21,"wdir":50,"wspd":2,"visib":4.97,"altim":1019,"clouds":[],"obsTime":1782828000},"SBLS":{"icaoId":"SBLS","flightCategory":"VFR","rawOb":"METAR SBLS 301400Z 07005KT 9999 FEW030 24/15 Q1024","temp":24,"dewp":15,"wdir":70,"wspd":5,"visib":"6+","altim":1024,"clouds":[{"cover":"FEW","base":3000}],"obsTime":1782828000},"SBMT":{"icaoId":"SBMT","flightCategory":"VFR","rawOb":"METAR SBMT 301400Z VRB04KT CAVOK 23/13 Q1022","temp":23,"dewp":13,"wdir":"VRB","wspd":4,"visib":"6+","altim":1022,"clouds":[],"obsTime":1782828000},"SBST":{"icaoId":"SBST","flightCategory":"VFR","rawOb":"METAR SBST 301400Z 11003KT 060V160 9000 FEW015 23/19 Q1019","temp":23,"dewp":19,"wdir":110,"wspd":3,"visib":5.59,"altim":1019,"clouds":[{"cover":"FEW","base":1500}],"obsTime":1782828000},"SBTA":{"icaoId":"SBTA","flightCategory":"VFR","rawOb":"METAR SBTA 301400Z VRB03KT 9999 FEW010 22/17 Q1022","temp":22,"dewp":17,"wdir":"VRB","wspd":3,"visib":"6+","altim":1022,"clouds":[{"cover":"FEW","base":1000}],"obsTime":1782828000},"SBIH":{"icaoId":"SBIH","flightCategory":"MVFR","rawOb":"METAR SBIH 301400Z 11003KT 5000 -RA BR SCT007 FEW025TCU BKN100 26/25 Q1014","temp":26,"dewp":25,"wdir":110,"wspd":3,"visib":3.11,"altim":1014,"clouds":[{"cover":"SCT","base":700},{"cover":"FEW","base":2500},{"cover":"BKN","base":10000}],"obsTime":1782828000}}}