{"updated":1784743117,"count":87,"data":{"SBGL":{"icaoId":"SBGL","flightCategory":"VFR","rawOb":"METAR SBGL 221600Z 34010KT CAVOK 32/12 Q1012","temp":32,"dewp":12,"wdir":340,"wspd":10,"visib":"6+","altim":1012,"clouds":[],"obsTime":1784736000},"SBCR":{"icaoId":"SBCR","flightCategory":"VFR","rawOb":"METAR SBCR 221600Z 29008KT 9999 FEW040 OVC100 30/21 Q1012","temp":30,"dewp":21,"wdir":290,"wspd":8,"visib":"6+","altim":1012,"clouds":[{"cover":"FEW","base":4000},{"cover":"OVC","base":10000}],"obsTime":1784736000},"SBIL":{"icaoId":"SBIL","flightCategory":"VFR","rawOb":"METAR SBIL 221600Z 04004KT 360V080 9999 VCSH SCT020 SCT050 BKN080 27/20 Q1018","temp":27,"dewp":20,"wdir":40,"wspd":4,"visib":"6+","altim":1018,"clouds":[{"cover":"SCT","base":2000},{"cover":"SCT","base":5000},{"cover":"BKN","base":8000}],"obsTime":1784736000},"SBCB":{"icaoId":"SBCB","flightCategory":"VFR","rawOb":"METAR SBCB 221600Z 07010KT CAVOK 30/18 Q1013","temp":30,"dewp":18,"wdir":70,"wspd":10,"visib":"6+","altim":1013,"clouds":[],"obsTime":1784736000},"SBJU":{"icaoId":"SBJU","flightCategory":"VFR","rawOb":"METAR SBJU 221600Z 12007KT 9999 SCT020 32/16 Q1014","temp":32,"dewp":16,"wdir":120,"wspd":7,"visib":"6+","altim":1014,"clouds":[{"cover":"SCT","base":2000}],"obsTime":1784736000},"SBMG":{"icaoId":"SBMG","flightCategory":"VFR","rawOb":"METAR SBMG 221600Z 17018KT 9999 -RA FEW013 BKN050 BKN090 19/16 Q1015","temp":19,"dewp":16,"wdir":170,"wspd":18,"visib":"6+","altim":1015,"clouds":[{"cover":"FEW","base":1300},{"cover":"BKN","base":5000},{"cover":"BKN","base":9000}],"obsTime":1784736000},"SBAT":{"icaoId":"SBAT","flightCategory":"VFR","rawOb":"METAR SBAT 221600Z 09006KT 9999 FEW040 35/18 Q1014","temp":35,"dewp":18,"wdir":90,"wspd":6,"visib":"6+","altim":1014,"clouds":[{"cover":"FEW","base":4000}],"obsTime":1784736000},"SBHT":{"icaoId":"SBHT","flightCategory":"MVFR","rawOb":"METAR SBHT 221600Z 10006KT 9999 BKN023 30/25 Q1012","temp":30,"dewp":25,"wdir":100,"wspd":6,"visib":"6+","altim":1012,"clouds":[{"cover":"BKN","base":2300}],"obsTime":1784736000},"SBME":{"icaoId":"SBME","flightCategory":"VFR","rawOb":"METAR SBME 221600Z 33009KT 9999 FEW030 31/16 Q1013","temp":31,"dewp":16,"wdir":330,"wspd":9,"visib":"6+","altim":1013,"clouds":[{"cover":"FEW","base":3000}],"obsTime":1784736000},"SBMK":{"icaoId":"SBMK","flightCategory":"VFR","rawOb":"METAR SBMK 221600Z 00000KT 9999 SCT040 27/10 Q1018","temp":27,"dewp":10,"wdir":0,"wspd":0,"visib":"6+","altim":1018,"clouds":[{"cover":"SCT","base":4000}],"obsTime":1784736000},"SBSP":{"icaoId":"SBSP","flightCategory":"VFR","rawOb":"METAR SBSP 221600Z 15007KT 100V200 9999 SCT021 20/14 Q1019","temp":20,"dewp":14,"wdir":150,"wspd":7,"visib":"6+","altim":1019,"clouds":[{"cover":"SCT","base":2100}],"obsTime":1784736000},"SBUL":{"icaoId":"SBUL","flightCategory":"VFR","rawOb":"METAR SBUL 221600Z 36008KT 280V040 9999 SCT043 27/07 Q1019","temp":27,"dewp":7,"wdir":360,"wspd":8,"visib":"6+","altim":1019,"clouds":[{"cover":"SCT","base":4300}],"obsTime":1784736000},"SBUR":{"icaoId":"SBUR","flightCategory":"VFR","rawOb":"METAR SBUR 221600Z 30008KT 9999 FEW045 29/08 Q1017","temp":29,"dewp":8,"wdir":300,"wspd":8,"visib":"6+","altim":1017,"clouds":[{"cover":"FEW","base":4500}],"obsTime":1784736000},"SBFL":{"icaoId":"SBFL","flightCategory":"VFR","rawOb":"METAR SBFL 221600Z 33006KT 9999 SCT040 BKN100 19/17 Q1010","temp":19,"dewp":17,"wdir":330,"wspd":6,"visib":"6+","altim":1010,"clouds":[{"cover":"SCT","base":4000},{"cover":"BKN","base":10000}],"obsTime":1784736000},"SBGO":{"icaoId":"SBGO","flightCategory":"VFR","rawOb":"METAR SBGO 221600Z 25004KT 190V310 CAVOK 29/11 Q1018","temp":29,"dewp":11,"wdir":250,"wspd":4,"visib":"6+","altim":1018,"clouds":[],"obsTime":1784736000},"SBMO":{"icaoId":"SBMO","flightCategory":"MVFR","rawOb":"METAR SBMO 221600Z 10014KT 9999 BKN021 27/22 Q1015","temp":27,"dewp":22,"wdir":100,"wspd":14,"visib":"6+","altim":1015,"clouds":[{"cover":"BKN","base":2100}],"obsTime":1784736000},"SBRB":{"icaoId":"SBRB","flightCategory":"VFR","rawOb":"METAR SBRB 221600Z 36010KT 330V030 9999 SCT035 32/23 Q1013","temp":32,"dewp":23,"wdir":360,"wspd":10,"visib":"6+","altim":1013,"clouds":[{"cover":"SCT","base":3500}],"obsTime":1784736000},"SBLO":{"icaoId":"SBLO","flightCategory":"VFR","rawOb":"METAR SBLO 221600Z 07003KT 9999 FEW035 BKN100 21/13 Q1015","temp":21,"dewp":13,"wdir":70,"wspd":3,"visib":"6+","altim":1015,"clouds":[{"cover":"FEW","base":3500},{"cover":"BKN","base":10000}],"obsTime":1784736000},"SBSN":{"icaoId":"SBSN","flightCategory":"VFR","rawOb":"METAR SBSN 221600Z 09015KT 9999 SCT025 31/24 Q1012","temp":31,"dewp":24,"wdir":90,"wspd":15,"visib":"6+","altim":1012,"clouds":[{"cover":"SCT","base":2500}],"obsTime":1784736000},"SBPV":{"icaoId":"SBPV","flightCategory":"VFR","rawOb":"METAR SBPV 221600Z 04008KT 9999 SCT035 33/21 Q1012","temp":33,"dewp":21,"wdir":40,"wspd":8,"visib":"6+","altim":1012,"clouds":[{"cover":"SCT","base":3500}],"obsTime":1784736000},"SBSV":{"icaoId":"SBSV","flightCategory":"VFR","rawOb":"METAR SBSV 221600Z 13009KT 080V160 9999 SCT025 BKN100 27/21 Q1016","temp":27,"dewp":21,"wdir":130,"wspd":9,"visib":"6+","altim":1016,"clouds":[{"cover":"SCT","base":2500},{"cover":"BKN","base":10000}],"obsTime":1784736000},"SBBE":{"icaoId":"SBBE","flightCategory":"VFR","rawOb":"METAR SBBE 221600Z 09009KT 9999 BKN036 31/23 Q1012","temp":31,"dewp":23,"wdir":90,"wspd":9,"visib":"6+","altim":1012,"clouds":[{"cover":"BKN","base":3600}],"obsTime":1784736000},"SBPA":{"icaoId":"SBPA","flightCategory":"IFR","rawOb":"METAR SBPA 221600Z 16003KT 110V240 6000 -DZ BKN005 OVC011 17/17 Q1011","temp":17,"dewp":17,"wdir":160,"wspd":3,"visib":3.73,"altim":1011,"clouds":[{"cover":"BKN","base":500},{"cover":"OVC","base":1100}],"obsTime":1784736000},"SBVT":{"icaoId":"SBVT","flightCategory":"VFR","rawOb":"METAR SBVT 221600Z 36011KT 9999 SCT043 30/16 Q1016","temp":30,"dewp":16,"wdir":360,"wspd":11,"visib":"6+","altim":1016,"clouds":[{"cover":"SCT","base":4300}],"obsTime":1784736000},"SBPJ":{"icaoId":"SBPJ","flightCategory":"VFR","rawOb":"METAR SBPJ 221600Z 24007KT 9999 SCT030 33/17 Q1014","temp":33,"dewp":17,"wdir":240,"wspd":7,"visib":"6+","altim":1014,"clouds":[{"cover":"SCT","base":3000}],"obsTime":1784736000},"SBMA":{"icaoId":"SBMA","flightCategory":"MVFR","rawOb":"METAR SBMA 221600Z 31002KT 9999 BKN020 34/23 Q1012","temp":34,"dewp":23,"wdir":310,"wspd":2,"visib":"6+","altim":1012,"clouds":[{"cover":"BKN","base":2000}],"obsTime":1784736000},"SBTE":{"icaoId":"SBTE","flightCategory":"MVFR","rawOb":"METAR SBTE 221600Z 09007KT 040V150 9999 BKN030 33/20 Q1011","temp":33,"dewp":20,"wdir":90,"wspd":7,"visib":"6+","altim":1011,"clouds":[{"cover":"BKN","base":3000}],"obsTime":1784736000},"SBBV":{"icaoId":"SBBV","flightCategory":"MVFR","rawOb":"METAR SBBV 221600Z 13010KT 9999 BKN030 FEW035TCU 30/23 Q1012","temp":30,"dewp":23,"wdir":130,"wspd":10,"visib":"6+","altim":1012,"clouds":[{"cover":"BKN","base":3000},{"cover":"FEW","base":3500}],"obsTime":1784736000},"SBBR":{"icaoId":"SBBR","flightCategory":"VFR","rawOb":"METAR SBBR 221600Z VRB04KT 9999 FEW048 26/09 Q1020","temp":26,"dewp":9,"wdir":"VRB","wspd":4,"visib":"6+","altim":1020,"clouds":[{"cover":"FEW","base":4800}],"obsTime":1784736000},"SBEG":{"icaoId":"SBEG","flightCategory":"VFR","rawOb":"METAR SBEG 221600Z 10008KT 9999 FEW030 32/23 Q1012","temp":32,"dewp":23,"wdir":100,"wspd":8,"visib":"6+","altim":1012,"clouds":[{"cover":"FEW","base":3000}],"obsTime":1784736000},"SBCT":{"icaoId":"SBCT","flightCategory":"IFR","rawOb":"METAR SBCT 221600Z 26007KT 4000 -RA BR BKN010 OVC060 13/13 Q1020","temp":13,"dewp":13,"wdir":260,"wspd":7,"visib":2.49,"altim":1020,"clouds":[{"cover":"BKN","base":1000},{"cover":"OVC","base":6000}],"obsTime":1784736000},"SBRF":{"icaoId":"SBRF","flightCategory":"MVFR","rawOb":"METAR SBRF 221600Z 12011KT 8000 VCSH BKN013 BKN022 27/23 Q1014","temp":27,"dewp":23,"wdir":120,"wspd":11,"visib":4.97,"altim":1014,"clouds":[{"cover":"BKN","base":1300},{"cover":"BKN","base":2200}],"obsTime":1784736000},"SBCF":{"icaoId":"SBCF","flightCategory":"VFR","rawOb":"METAR SBCF 221600Z 32005KT 9999 SCT030 25/11 Q1019","temp":25,"dewp":11,"wdir":320,"wspd":5,"visib":"6+","altim":1019,"clouds":[{"cover":"SCT","base":3000}],"obsTime":1784736000},"SBCZ":{"icaoId":"SBCZ","flightCategory":"MVFR","rawOb":"METAR SBCZ 221600Z 35005KT 9999 BKN020 29/24 Q1013","temp":29,"dewp":24,"wdir":350,"wspd":5,"visib":"6+","altim":1013,"clouds":[{"cover":"BKN","base":2000}],"obsTime":1784736000},"SBNT":{"icaoId":"SBNT","flightCategory":"VFR","rawOb":"METAR SBNT 221600Z 13013KT 9999 SCT020 SCT080 28/23 Q1013","temp":28,"dewp":23,"wdir":130,"wspd":13,"visib":"6+","altim":1013,"clouds":[{"cover":"SCT","base":2000},{"cover":"SCT","base":8000}],"obsTime":1784736000},"SBFI":{"icaoId":"SBFI","flightCategory":"LIFR","rawOb":"METAR SBFI 221600Z 24005KT 2000 BR OVC002 18/18 Q1012","temp":18,"dewp":18,"wdir":240,"wspd":5,"visib":1.24,"altim":1012,"clouds":[{"cover":"OVC","base":200}],"obsTime":1784736000},"SBSL":{"icaoId":"SBSL","flightCategory":"VFR","rawOb":"METAR SBSL 221600Z 08008KT 9999 SCT020 30/23 Q1012","temp":30,"dewp":23,"wdir":80,"wspd":8,"visib":"6+","altim":1012,"clouds":[{"cover":"SCT","base":2000}],"obsTime":1784736000},"SBGR":{"icaoId":"SBGR","flightCategory":"VFR","rawOb":"METAR SBGR 221600Z COR 18006KT 9999 SCT025 20/14 Q1018","temp":20,"dewp":14,"wdir":180,"wspd":6,"visib":"6+","altim":1018,"clouds":[{"cover":"SCT","base":2500}],"obsTime":1784736000},"SBCG":{"icaoId":"SBCG","flightCategory":"VFR","rawOb":"METAR SBCG 221600Z 33014KT CAVOK 29/16 Q1014","temp":29,"dewp":16,"wdir":330,"wspd":14,"visib":"6+","altim":1014,"clouds":[],"obsTime":1784736000},"SBCP":{"icaoId":"SBCP","flightCategory":"VFR","rawOb":"METAR SBCP 221600Z 01009KT CAVOK 32/15 Q1014","temp":32,"dewp":15,"wdir":10,"wspd":9,"visib":"6+","altim":1014,"clouds":[],"obsTime":1784736000},"SBMQ":{"icaoId":"SBMQ","flightCategory":"VFR","rawOb":"METAR SBMQ 221600Z 05011KT 9999 SCT030 31/24 Q1013","temp":31,"dewp":24,"wdir":50,"wspd":11,"visib":"6+","altim":1013,"clouds":[{"cover":"SCT","base":3000}],"obsTime":1784736000},"SBFZ":{"icaoId":"SBFZ","flightCategory":"VFR","rawOb":"METAR SBFZ 221600Z 10018KT 080V140 9999 FEW030 30/21 Q1012","temp":30,"dewp":21,"wdir":100,"wspd":18,"visib":"6+","altim":1012,"clouds":[{"cover":"FEW","base":3000}],"obsTime":1784736000},"SBSG":{"icaoId":"SBSG","flightCategory":"VFR","rawOb":"METAR SBSG 221600Z 12009KT 080V160 9999 VCSH SCT023 FEW030TCU 29/24 Q1013","temp":29,"dewp":24,"wdir":120,"wspd":9,"visib":"6+","altim":1013,"clouds":[{"cover":"SCT","base":2300},{"cover":"FEW","base":3000}],"obsTime":1784736000},"SBKP":{"icaoId":"SBKP","flightCategory":"VFR","rawOb":"METAR SBKP 221600Z 33009KT CAVOK 27/11 Q1016","temp":27,"dewp":11,"wdir":330,"wspd":9,"visib":"6+","altim":1016,"clouds":[],"obsTime":1784736000},"SBAX":{"icaoId":"SBAX","flightCategory":"VFR","rawOb":"METAR SBAX 221600Z 36002KT 9999 FEW025 27/08 Q1019","temp":27,"dewp":8,"wdir":360,"wspd":2,"visib":"6+","altim":1019,"clouds":[{"cover":"FEW","base":2500}],"obsTime":1784736000},"SBBU":{"icaoId":"SBBU","flightCategory":"VFR","rawOb":"METAR SBBU 221600Z 34007KT CAVOK 30/13 Q1015","temp":30,"dewp":13,"wdir":340,"wspd":7,"visib":"6+","altim":1015,"clouds":[],"obsTime":1784736000},"SBDN":{"icaoId":"SBDN","flightCategory":"VFR","rawOb":"METAR SBDN 221600Z 34006KT CAVOK 29/14 Q1014","temp":29,"dewp":14,"wdir":340,"wspd":6,"visib":"6+","altim":1014,"clouds":[],"obsTime":1784736000},"SBIP":{"icaoId":"SBIP","flightCategory":"VFR","rawOb":"METAR SBIP 221600Z AUTO 36008KT 300V040 9999 FEW045 28/16 Q1017","temp":28,"dewp":16,"wdir":360,"wspd":8,"visib":"6+","altim":1017,"clouds":[{"cover":"FEW","base":4500}],"obsTime":1784736000},"SBSC":{"icaoId":"SBSC","flightCategory":"VFR","rawOb":"METAR SBSC 221600Z 34006KT CAVOK 32/14 Q1012","temp":32,"dewp":14,"wdir":340,"wspd":6,"visib":"6+","altim":1012,"clouds":[],"obsTime":1784736000},"SBSR":{"icaoId":"SBSR","flightCategory":"VFR","rawOb":"METAR SBSR 221600Z 36006KT 290V030 CAVOK 31/10 Q1016","temp":31,"dewp":10,"wdir":360,"wspd":6,"visib":"6+","altim":1016,"clouds":[],"obsTime":1784736000},"SBES":{"icaoId":"SBES","flightCategory":"VFR","rawOb":"METAR SBES 221600Z VRB07KT 9999 FEW020 30/// Q1013","temp":null,"dewp":null,"wdir":"VRB","wspd":7,"visib":"6+","altim":1013,"clouds":[{"cover":"FEW","base":2000}],"obsTime":1784736000},"SBSM":{"icaoId":"SBSM","flightCategory":"IFR","rawOb":"METAR SBSM 221600Z COR 16003KT 100V230 3000 -RA BR BKN005 OVC012 17/17 Q1012","temp":17,"dewp":17,"wdir":160,"wspd":3,"visib":1.86,"altim":1012,"clouds":[{"cover":"BKN","base":500},{"cover":"OVC","base":1200}],"obsTime":1784736000},"SBTU":{"icaoId":"SBTU","flightCategory":"MVFR","rawOb":"METAR SBTU 221600Z AUTO 24006KT 190V300 9999 // BKN027/// ///// Q1014","temp":null,"dewp":null,"wdir":240,"wspd":6,"visib":"6+","altim":1014,"clouds":[{"cover":"BKN","base":2700}],"obsTime":1784736000},"SBCJ":{"icaoId":"SBCJ","flightCategory":"VFR","rawOb":"METAR SBCJ 221600Z 04003KT 9999 SCT017 27/21 Q1016","temp":27,"dewp":21,"wdir":40,"wspd":3,"visib":"6+","altim":1016,"clouds":[{"cover":"SCT","base":1700}],"obsTime":1784736000},"SBPB":{"icaoId":"SBPB","flightCategory":"VFR","rawOb":"METAR SBPB 221600Z 08012KT 9999 FEW020 32/24 Q1011","temp":32,"dewp":24,"wdir":80,"wspd":12,"visib":"6+","altim":1011,"clouds":[{"cover":"FEW","base":2000}],"obsTime":1784736000},"SBTT":{"icaoId":"SBTT","flightCategory":"VFR","rawOb":"METAR SBTT 221600Z 28004KT 230V330 9999 SCT018 SCT100 29/26 Q1013","temp":29,"dewp":26,"wdir":280,"wspd":4,"visib":"6+","altim":1013,"clouds":[{"cover":"SCT","base":1800},{"cover":"SCT","base":10000}],"obsTime":1784736000},"SBAR":{"icaoId":"SBAR","flightCategory":"VFR","rawOb":"METAR SBAR 221600Z 09004KT 9999 VCSH SCT012 SCT025 BKN035 26/23 Q1015","temp":26,"dewp":23,"wdir":90,"wspd":4,"visib":"6+","altim":1015,"clouds":[{"cover":"SCT","base":1200},{"cover":"SCT","base":2500},{"cover":"BKN","base":3500}],"obsTime":1784736000},"SBPS":{"icaoId":"SBPS","flightCategory":"MVFR","rawOb":"METAR SBPS 221600Z 08004KT 030V150 9999 BKN020 BKN070 25/21 Q1018","temp":25,"dewp":21,"wdir":80,"wspd":4,"visib":"6+","altim":1018,"clouds":[{"cover":"BKN","base":2000},{"cover":"BKN","base":7000}],"obsTime":1784736000},"SBUY":{"icaoId":"SBUY","flightCategory":"VFR","rawOb":"METAR SBUY 221600Z 10008KT 9999 FEW025 SCT100 32/24 Q1011","temp":32,"dewp":24,"wdir":100,"wspd":8,"visib":"6+","altim":1011,"clouds":[{"cover":"FEW","base":2500},{"cover":"SCT","base":10000}],"obsTime":1784736000},"SBTF":{"icaoId":"SBTF","flightCategory":"VFR","rawOb":"METAR SBTF 221600Z 12012KT 9999 FEW012 SCT080 33/25 Q1012","temp":33,"dewp":25,"wdir":120,"wspd":12,"visib":"6+","altim":1012,"clouds":[{"cover":"FEW","base":1200},{"cover":"SCT","base":8000}],"obsTime":1784736000},"SBSJ":{"icaoId":"SBSJ","flightCategory":"VFR","rawOb":"METAR SBSJ 221600Z 16010KT 080V220 9999 FEW026 23/14 Q1017","temp":23,"dewp":14,"wdir":160,"wspd":10,"visib":"6+","altim":1017,"clouds":[{"cover":"FEW","base":2600}],"obsTime":1784736000},"SBOI":{"icaoId":"SBOI","flightCategory":"VFR","rawOb":"METAR SBOI 221600Z AUTO VRB07KT 9999 FEW036 32/23 Q1012","temp":32,"dewp":23,"wdir":"VRB","wspd":7,"visib":"6+","altim":1012,"clouds":[{"cover":"FEW","base":3600}],"obsTime":1784736000},"SBKG":{"icaoId":"SBKG","flightCategory":"MVFR","rawOb":"METAR SBKG 221600Z 10013KT 9999 -RA FEW005 SCT008 BKN020 24/22 Q1016","temp":24,"dewp":22,"wdir":100,"wspd":13,"visib":"6+","altim":1016,"clouds":[{"cover":"FEW","base":500},{"cover":"SCT","base":800},{"cover":"BKN","base":2000}],"obsTime":1784736000},"SBCA":{"icaoId":"SBCA","flightCategory":"MVFR","rawOb":"METAR SBCA 221700Z 03007KT 8000 -RA SCT006 BKN014 OVC070 16/15 Q1014 RETS","temp":16,"dewp":15,"wdir":30,"wspd":7,"visib":4.97,"altim":1014,"clouds":[{"cover":"SCT","base":600},{"cover":"BKN","base":1400},{"cover":"OVC","base":7000}],"obsTime":1784739600},"SBPL":{"icaoId":"SBPL","flightCategory":"VFR","rawOb":"METAR SBPL 221600Z 13008KT 9999 FEW030 32/18 Q1015","temp":32,"dewp":18,"wdir":130,"wspd":8,"visib":"6+","altim":1015,"clouds":[{"cover":"FEW","base":3000}],"obsTime":1784736000},"SBCO":{"icaoId":"SBCO","flightCategory":"IFR","rawOb":"METAR SBCO 221600Z VRB02KT 4000 -DZ BR FEW003 OVC005 17/17 Q1012","temp":17,"dewp":17,"wdir":"VRB","wspd":2,"visib":2.49,"altim":1012,"clouds":[{"cover":"FEW","base":300},{"cover":"OVC","base":500}],"obsTime":1784736000},"SBCC":{"icaoId":"SBCC","flightCategory":"VFR","rawOb":"METAR SBCC 221600Z VRB07G18KT 9999 SCT045 32/15 Q1016","temp":32,"dewp":15,"wdir":"VRB","wspd":7,"visib":"6+","altim":1016,"clouds":[{"cover":"SCT","base":4500}],"obsTime":1784736000},"SBGM":{"icaoId":"SBGM","flightCategory":"VFR","rawOb":"METAR SBGM 221600Z 30009KT 9999 BKN041 33/12 Q1012","temp":33,"dewp":12,"wdir":300,"wspd":9,"visib":"6+","altim":1012,"clouds":[{"cover":"BKN","base":4100}],"obsTime":1784736000},"SBVH":{"icaoId":"SBVH","flightCategory":"VFR","rawOb":"METAR SBVH 221600Z 34011KT CAVOK 30/18 Q1015","temp":30,"dewp":18,"wdir":340,"wspd":11,"visib":"6+","altim":1015,"clouds":[],"obsTime":1784736000},"SBAU":{"icaoId":"SBAU","flightCategory":"VFR","rawOb":"METAR SBAU 221600Z 33008KT CAVOK 33/11 Q1014","temp":33,"dewp":11,"wdir":330,"wspd":8,"visib":"6+","altim":1014,"clouds":[],"obsTime":1784736000},"SBPP":{"icaoId":"SBPP","flightCategory":"MVFR","rawOb":"METAR SBPP 221600Z 31005KT 9999 BKN015 23/19 Q1014","temp":23,"dewp":19,"wdir":310,"wspd":5,"visib":"6+","altim":1014,"clouds":[{"cover":"BKN","base":1500}],"obsTime":1784736000},"SBBQ":{"icaoId":"SBBQ","flightCategory":"VFR","rawOb":"METAR SBBQ 221600Z 31008KT 280V360 9999 FEW035 SCT100 22/09 Q1021","temp":22,"dewp":9,"wdir":310,"wspd":8,"visib":"6+","altim":1021,"clouds":[{"cover":"FEW","base":3500},{"cover":"SCT","base":10000}],"obsTime":1784736000},"SBBH":{"icaoId":"SBBH","flightCategory":"VFR","rawOb":"METAR SBBH 221600Z 36004KT 9999 BKN040 26/11 Q1019","temp":26,"dewp":11,"wdir":360,"wspd":4,"visib":"6+","altim":1019,"clouds":[{"cover":"BKN","base":4000}],"obsTime":1784736000},"SBTD":{"icaoId":"SBTD","flightCategory":"LIFR","rawOb":"METAR SBTD 221600Z /////KT 3000 -TSRA BR BKN002 FEW030CB OVC070 17/17 Q1015","temp":17,"dewp":17,"wdir":null,"wspd":null,"visib":1.86,"altim":1015,"clouds":[{"cover":"BKN","base":200},{"cover":"FEW","base":3000},{"cover":"OVC","base":7000}],"obsTime":1784736000},"SBNM":{"icaoId":"SBNM","flightCategory":"LIFR","rawOb":"METAR SBNM 221600Z 25006KT 1800 BR BKN002 OVC005 18/18 Q1011","temp":18,"dewp":18,"wdir":250,"wspd":6,"visib":1.12,"altim":1011,"clouds":[{"cover":"BKN","base":200},{"cover":"OVC","base":500}],"obsTime":1784736000},"SBLE":{"icaoId":"SBLE","flightCategory":"VFR","rawOb":"METAR SBLE 221600Z AUTO 16007KT 110V230 9999 SCT011 SCT019 ///// Q1019","temp":null,"dewp":null,"wdir":160,"wspd":7,"visib":"6+","altim":1019,"clouds":[{"cover":"SCT","base":1100},{"cover":"SCT","base":1900}],"obsTime":1784736000},"SBJP":{"icaoId":"SBJP","flightCategory":"MVFR","rawOb":"METAR SBJP 221600Z 09012KT 5000 -RA SCT012 BKN018 26/24 Q1014","temp":26,"dewp":24,"wdir":90,"wspd":12,"visib":3.11,"altim":1014,"clouds":[{"cover":"SCT","base":1200},{"cover":"BKN","base":1800}],"obsTime":1784736000},"SBJV":{"icaoId":"SBJV","flightCategory":"VFR","rawOb":"METAR SBJV 221600Z 01003KT 9999 -RA SCT040 OVC100 19/18 Q1014","temp":19,"dewp":18,"wdir":10,"wspd":3,"visib":"6+","altim":1014,"clouds":[{"cover":"SCT","base":4000},{"cover":"OVC","base":10000}],"obsTime":1784736000},"SBAN":{"icaoId":"SBAN","flightCategory":"VFR","rawOb":"METAR SBAN 221600Z VRB05KT 9999 SCT040 27/08 Q1021","temp":27,"dewp":8,"wdir":"VRB","wspd":5,"visib":"6+","altim":1021,"clouds":[{"cover":"SCT","base":4000}],"obsTime":1784736000},"SBIH":{"icaoId":"SBIH","flightCategory":"VFR","rawOb":"METAR SBIH 221600Z 04006KT 9999 SCT020 31/24 Q1012","temp":31,"dewp":24,"wdir":40,"wspd":6,"visib":"6+","altim":1012,"clouds":[{"cover":"SCT","base":2000}],"obsTime":1784736000},"SBAF":{"icaoId":"SBAF","flightCategory":"VFR","rawOb":"METAR SBAF 221600Z 29008KT 260V330 CAVOK 32/12 Q1012","temp":32,"dewp":12,"wdir":290,"wspd":8,"visib":"6+","altim":1012,"clouds":[],"obsTime":1784736000},"SBGW":{"icaoId":"SBGW","flightCategory":"VFR","rawOb":"METAR SBGW 221600Z 35002KT CAVOK 30/10 Q1015","temp":30,"dewp":10,"wdir":350,"wspd":2,"visib":"6+","altim":1015,"clouds":[],"obsTime":1784736000},"SBJR":{"icaoId":"SBJR","flightCategory":"VFR","rawOb":"METAR SBJR 221600Z 33004KT CAVOK 35/14 Q1012","temp":35,"dewp":14,"wdir":330,"wspd":4,"visib":"6+","altim":1012,"clouds":[],"obsTime":1784736000},"SBLS":{"icaoId":"SBLS","flightCategory":"VFR","rawOb":"METAR SBLS 221600Z 01003KT 9999 SCT040 SCT066 26/12 Q1019","temp":26,"dewp":12,"wdir":10,"wspd":3,"visib":"6+","altim":1019,"clouds":[{"cover":"SCT","base":4000},{"cover":"SCT","base":6600}],"obsTime":1784736000},"SBMT":{"icaoId":"SBMT","flightCategory":"VFR","rawOb":"METAR SBMT 221600Z 12006KT 080V170 9999 FEW030 20/13 Q1018","temp":20,"dewp":13,"wdir":120,"wspd":6,"visib":"6+","altim":1018,"clouds":[{"cover":"FEW","base":3000}],"obsTime":1784736000},"SBST":{"icaoId":"SBST","flightCategory":"VFR","rawOb":"METAR SBST 221600Z 32003KT 9999 SCT030 23/14 Q1016","temp":23,"dewp":14,"wdir":320,"wspd":3,"visib":"6+","altim":1016,"clouds":[{"cover":"SCT","base":3000}],"obsTime":1784736000},"SBTA":{"icaoId":"SBTA","flightCategory":"VFR","rawOb":"METAR SBTA 221600Z 27007KT 220V350 9999 FEW025 28/11 Q1015","temp":28,"dewp":11,"wdir":270,"wspd":7,"visib":"6+","altim":1015,"clouds":[{"cover":"FEW","base":2500}],"obsTime":1784736000}}}