{"updated":1773729348,"count":49,"data":{"SBMA":{"icaoId":"SBMA","flightCategory":"VFR","rawOb":"METAR SBMA 170500Z 06003KT 9999 FEW010 26/25 Q1010","temp":26,"dewp":25,"wdir":60,"wspd":3,"visib":"6+","altim":1010,"clouds":[{"cover":"FEW","base":1000}],"obsTime":1773723600},"SBFZ":{"icaoId":"SBFZ","flightCategory":"VFR","rawOb":"METAR SBFZ 170500Z 25003KT 9999 FEW023 26/24 Q1010","temp":26,"dewp":24,"wdir":250,"wspd":3,"visib":"6+","altim":1010,"clouds":[{"cover":"FEW","base":2300}],"obsTime":1773723600},"SBBE":{"icaoId":"SBBE","flightCategory":"VFR","rawOb":"METAR SBBE 170500Z 03004KT 9999 FEW010 SCT011 BKN100 25/25 Q1010","temp":25,"dewp":25,"wdir":30,"wspd":4,"visib":"6+","altim":1010,"clouds":[{"cover":"FEW","base":1000},{"cover":"SCT","base":1100},{"cover":"BKN","base":10000}],"obsTime":1773723600},"SBMO":{"icaoId":"SBMO","flightCategory":"VFR","rawOb":"METAR SBMO 170500Z 36003KT 9999 FEW030 24/24 Q1011","temp":24,"dewp":24,"wdir":360,"wspd":3,"visib":"6+","altim":1011,"clouds":[{"cover":"FEW","base":3000}],"obsTime":1773723600},"SBGL":{"icaoId":"SBGL","flightCategory":"VFR","rawOb":"METAR SBGL 170500Z 12003KT 9999 FEW017 23/21 Q1012","temp":23,"dewp":21,"wdir":120,"wspd":3,"visib":"6+","altim":1012,"clouds":[{"cover":"FEW","base":1700}],"obsTime":1773723600},"SBMQ":{"icaoId":"SBMQ","flightCategory":"MVFR","rawOb":"METAR SBMQ 170500Z 01004KT 9999 -RA SCT008 BKN013 OVC042 26/25 Q1010 RETS","temp":26,"dewp":25,"wdir":10,"wspd":4,"visib":"6+","altim":1010,"clouds":[{"cover":"SCT","base":800},{"cover":"BKN","base":1300},{"cover":"OVC","base":4200}],"obsTime":1773723600},"SBBV":{"icaoId":"SBBV","flightCategory":"VFR","rawOb":"METAR SBBV 170500Z 09014KT CAVOK 27/22 Q1011","temp":27,"dewp":22,"wdir":90,"wspd":14,"visib":"6+","altim":1011,"clouds":[],"obsTime":1773723600},"SBNT":{"icaoId":"SBNT","flightCategory":"VFR","rawOb":"METAR SBNT 170500Z 07003KT 9999 SCT020 27/24 Q1010","temp":27,"dewp":24,"wdir":70,"wspd":3,"visib":"6+","altim":1010,"clouds":[{"cover":"SCT","base":2000}],"obsTime":1773723600},"SBPA":{"icaoId":"SBPA","flightCategory":"VFR","rawOb":"METAR SBPA 170500Z 10006KT CAVOK 24/22 Q1010","temp":24,"dewp":22,"wdir":100,"wspd":6,"visib":"6+","altim":1010,"clouds":[],"obsTime":1773723600},"SBCT":{"icaoId":"SBCT","flightCategory":"VFR","rawOb":"METAR SBCT 170500Z VRB02KT 9999 FEW010 19/19 Q1017","temp":19,"dewp":19,"wdir":"VRB","wspd":2,"visib":"6+","altim":1017,"clouds":[{"cover":"FEW","base":1000}],"obsTime":1773723600},"SBGO":{"icaoId":"SBGO","flightCategory":"VFR","rawOb":"METAR SBGO 170500Z 27004KT 9999 -RA SCT004 SCT040 FEW045TCU OVC100 22/21 Q1015","temp":22,"dewp":21,"wdir":270,"wspd":4,"visib":"6+","altim":1015,"clouds":[{"cover":"SCT","base":400},{"cover":"SCT","base":4000},{"cover":"FEW","base":4500},{"cover":"OVC","base":10000}],"obsTime":1773723600},"SBPJ":{"icaoId":"SBPJ","flightCategory":"VFR","rawOb":"METAR SBPJ 170500Z 12004KT 9999 VCTS SCT016 FEW030CB SCT050 24/23 Q1012","temp":24,"dewp":23,"wdir":120,"wspd":4,"visib":"6+","altim":1012,"clouds":[{"cover":"SCT","base":1600},{"cover":"FEW","base":3000},{"cover":"SCT","base":5000}],"obsTime":1773723600},"SBBR":{"icaoId":"SBBR","flightCategory":"VFR","rawOb":"METAR SBBR 170500Z 21003KT 9999 FEW040 BKN100 21/20 Q1017","temp":21,"dewp":20,"wdir":210,"wspd":3,"visib":"6+","altim":1017,"clouds":[{"cover":"FEW","base":4000},{"cover":"BKN","base":10000}],"obsTime":1773723600},"SBPV":{"icaoId":"SBPV","flightCategory":"VFR","rawOb":"METAR SBPV 170500Z 00000KT 9999 FEW030 25/24 Q1009","temp":25,"dewp":24,"wdir":0,"wspd":0,"visib":"6+","altim":1009,"clouds":[{"cover":"FEW","base":3000}],"obsTime":1773723600},"SBGR":{"icaoId":"SBGR","flightCategory":"VFR","rawOb":"METAR SBGR 170500Z 07004KT 9000 NSC 19/17 Q1016","temp":19,"dewp":17,"wdir":70,"wspd":4,"visib":5.59,"altim":1016,"clouds":[],"obsTime":1773723600},"SBRB":{"icaoId":"SBRB","flightCategory":"MVFR","rawOb":"METAR SBRB 170500Z VRB02KT 8000 FEW020 FEW030TCU SCT100 24/23 Q1008","temp":24,"dewp":23,"wdir":"VRB","wspd":2,"visib":4.97,"altim":1008,"clouds":[{"cover":"FEW","base":2000},{"cover":"FEW","base":3000},{"cover":"SCT","base":10000}],"obsTime":1773723600},"SBRF":{"icaoId":"SBRF","flightCategory":"VFR","rawOb":"METAR SBRF 170500Z 06006KT 9999 FEW020 28/24 Q1010","temp":28,"dewp":24,"wdir":60,"wspd":6,"visib":"6+","altim":1010,"clouds":[{"cover":"FEW","base":2000}],"obsTime":1773723600},"SBJU":{"icaoId":"SBJU","flightCategory":"MVFR","rawOb":"METAR SBJU 170500Z 00000KT 9999 BKN020 24/22 Q1013","temp":24,"dewp":22,"wdir":0,"wspd":0,"visib":"6+","altim":1013,"clouds":[{"cover":"BKN","base":2000}],"obsTime":1773723600},"SBEG":{"icaoId":"SBEG","flightCategory":"VFR","rawOb":"METAR SBEG 170500Z 03003KT CAVOK 24/24 Q1010","temp":24,"dewp":24,"wdir":30,"wspd":3,"visib":"6+","altim":1010,"clouds":[],"obsTime":1773723600},"SBSG":{"icaoId":"SBSG","flightCategory":"VFR","rawOb":"METAR SBSG 170500Z VRB02KT 9999 FEW021 26/25 Q1011","temp":26,"dewp":25,"wdir":"VRB","wspd":2,"visib":"6+","altim":1011,"clouds":[{"cover":"FEW","base":2100}],"obsTime":1773723600},"SBFI":{"icaoId":"SBFI","flightCategory":"VFR","rawOb":"METAR SBFI 170500Z 22005KT 9999 -RA FEW006 BKN100 22/21 Q1009","temp":22,"dewp":21,"wdir":220,"wspd":5,"visib":"6+","altim":1009,"clouds":[{"cover":"FEW","base":600},{"cover":"BKN","base":10000}],"obsTime":1773723600},"SBSL":{"icaoId":"SBSL","flightCategory":"IFR","rawOb":"METAR SBSL 170500Z 07010KT 9999 BKN007 BKN080 25/24 Q1010","temp":25,"dewp":24,"wdir":70,"wspd":10,"visib":"6+","altim":1010,"clouds":[{"cover":"BKN","base":700},{"cover":"BKN","base":8000}],"obsTime":1773723600},"SBSN":{"icaoId":"SBSN","flightCategory":"VFR","rawOb":"METAR SBSN 170500Z COR 08013KT 9999 -TSRA SCT016 FEW020CB BKN073 28/24 Q1009","temp":28,"dewp":24,"wdir":80,"wspd":13,"visib":"6+","altim":1009,"clouds":[{"cover":"SCT","base":1600},{"cover":"FEW","base":2000},{"cover":"BKN","base":7300}],"obsTime":1773723600},"SBKP":{"icaoId":"SBKP","flightCategory":"VFR","rawOb":"METAR SBKP 170500Z 12008KT CAVOK 21/18 Q1014","temp":21,"dewp":18,"wdir":120,"wspd":8,"visib":"6+","altim":1014,"clouds":[],"obsTime":1773723600},"SBCF":{"icaoId":"SBCF","flightCategory":"VFR","rawOb":"METAR SBCF 170500Z 16005KT CAVOK 21/20 Q1016","temp":21,"dewp":20,"wdir":160,"wspd":5,"visib":"6+","altim":1016,"clouds":[],"obsTime":1773723600},"SBSP":{"icaoId":"SBSP","flightCategory":"VFR","rawOb":"METAR SBSP 170500Z AUTO 10003KT 060V140 CAVOK 21/18 Q1016","temp":21,"dewp":18,"wdir":100,"wspd":3,"visib":"6+","altim":1016,"clouds":[],"obsTime":1773723600},"SBLO":{"icaoId":"SBLO","flightCategory":"VFR","rawOb":"METAR SBLO 170500Z VRB01KT CAVOK 23/16 Q1012","temp":23,"dewp":16,"wdir":"VRB","wspd":1,"visib":"6+","altim":1012,"clouds":[],"obsTime":1773723600},"SBSV":{"icaoId":"SBSV","flightCategory":"VFR","rawOb":"METAR SBSV 170500Z 06007KT 9999 FEW023 27/22 Q1011","temp":27,"dewp":22,"wdir":60,"wspd":7,"visib":"6+","altim":1011,"clouds":[{"cover":"FEW","base":2300}],"obsTime":1773723600},"SBCG":{"icaoId":"SBCG","flightCategory":"VFR","rawOb":"METAR SBCG 170500Z 05007KT CAVOK 23/21 Q1011","temp":23,"dewp":21,"wdir":50,"wspd":7,"visib":"6+","altim":1011,"clouds":[],"obsTime":1773723600},"SBTE":{"icaoId":"SBTE","flightCategory":"VFR","rawOb":"METAR SBTE 170500Z 34002KT 9999 FEW016 BKN090 24/22 Q1009","temp":24,"dewp":22,"wdir":340,"wspd":2,"visib":"6+","altim":1009,"clouds":[{"cover":"FEW","base":1600},{"cover":"BKN","base":9000}],"obsTime":1773723600},"SBFL":{"icaoId":"SBFL","flightCategory":"VFR","rawOb":"METAR SBFL 170500Z 35011KT 9999 BKN035 26/23 Q1012","temp":26,"dewp":23,"wdir":350,"wspd":11,"visib":"6+","altim":1012,"clouds":[{"cover":"BKN","base":3500}],"obsTime":1773723600},"SBMG":{"icaoId":"SBMG","flightCategory":"VFR","rawOb":"METAR SBMG 170500Z AUTO 06004KT CAVOK 25/19 Q1010","temp":25,"dewp":19,"wdir":60,"wspd":4,"visib":"6+","altim":1010,"clouds":[],"obsTime":1773723600},"SBUL":{"icaoId":"SBUL","flightCategory":"VFR","rawOb":"METAR SBUL 170500Z 07005KT 030V100 9999 FEW004 SCT026 FEW035TCU BKN066 22/20 Q1016","temp":22,"dewp":20,"wdir":70,"wspd":5,"visib":"6+","altim":1016,"clouds":[{"cover":"FEW","base":400},{"cover":"SCT","base":2600},{"cover":"FEW","base":3500},{"cover":"BKN","base":6600}],"obsTime":1773723600},"SBUR":{"icaoId":"SBUR","flightCategory":"VFR","rawOb":"METAR SBUR 170500Z 02004KT CAVOK 22/21 Q1014","temp":22,"dewp":21,"wdir":20,"wspd":4,"visib":"6+","altim":1014,"clouds":[],"obsTime":1773723600},"SBME":{"icaoId":"SBME","flightCategory":"VFR","rawOb":"METAR SBME 170500Z 08002KT CAVOK 22/20 Q1013","temp":22,"dewp":20,"wdir":80,"wspd":2,"visib":"6+","altim":1013,"clouds":[],"obsTime":1773723600},"SBVT":{"icaoId":"SBVT","flightCategory":"VFR","rawOb":"METAR SBVT 170500Z 31003KT 9999 SCT030 22/21 Q1013","temp":22,"dewp":21,"wdir":310,"wspd":3,"visib":"6+","altim":1013,"clouds":[{"cover":"SCT","base":3000}],"obsTime":1773723600},"SBDN":{"icaoId":"SBDN","flightCategory":"VFR","rawOb":"METAR SBDN 170500Z 06001KT CAVOK 25/19 Q1010","temp":25,"dewp":19,"wdir":60,"wspd":1,"visib":"6+","altim":1010,"clouds":[],"obsTime":1773723600},"SBPL":{"icaoId":"SBPL","flightCategory":"VFR","rawOb":"METAR SBPL 170500Z 13004KT CAVOK 24/18 Q1012","temp":24,"dewp":18,"wdir":130,"wspd":4,"visib":"6+","altim":1012,"clouds":[],"obsTime":1773723600},"SBIP":{"icaoId":"SBIP","flightCategory":"MVFR","rawOb":"METAR SBIP 170500Z AUTO VRB01KT 9999 BKN025 BKN029 23/23 Q1013","temp":23,"dewp":23,"wdir":"VRB","wspd":1,"visib":"6+","altim":1013,"clouds":[{"cover":"BKN","base":2500},{"cover":"BKN","base":2900}],"obsTime":1773723600},"SBAX":{"icaoId":"SBAX","flightCategory":"VFR","rawOb":"METAR SBAX 170500Z AUTO 14004KT 110V170 CAVOK 22/22 Q1016","temp":22,"dewp":22,"wdir":140,"wspd":4,"visib":"6+","altim":1016,"clouds":[],"obsTime":1773723600},"SBPS":{"icaoId":"SBPS","flightCategory":"MVFR","rawOb":"METAR SBPS 170500Z 24002KT 9999 SCT010 BKN015 BKN070 24/24 Q1012","temp":24,"dewp":24,"wdir":240,"wspd":2,"visib":"6+","altim":1012,"clouds":[{"cover":"SCT","base":1000},{"cover":"BKN","base":1500},{"cover":"BKN","base":7000}],"obsTime":1773723600},"SBSC":{"icaoId":"SBSC","flightCategory":"VFR","rawOb":"METAR SBSC 170500Z 30002KT 9999 FEW015 23/22 Q1013","temp":23,"dewp":22,"wdir":300,"wspd":2,"visib":"6+","altim":1013,"clouds":[{"cover":"FEW","base":1500}],"obsTime":1773723600},"SBKG":{"icaoId":"SBKG","flightCategory":"MVFR","rawOb":"METAR SBKG 170500Z 09006KT 9999 BKN010 23/22 Q1013","temp":23,"dewp":22,"wdir":90,"wspd":6,"visib":"6+","altim":1013,"clouds":[{"cover":"BKN","base":1000}],"obsTime":1773723600},"SBSR":{"icaoId":"SBSR","flightCategory":"VFR","rawOb":"METAR SBSR 170500Z 03004KT CAVOK 25/21 Q1012","temp":25,"dewp":21,"wdir":30,"wspd":4,"visib":"6+","altim":1012,"clouds":[],"obsTime":1773723600},"SBAR":{"icaoId":"SBAR","flightCategory":"VFR","rawOb":"METAR SBAR 170500Z 09006KT 9999 FEW025 27/22 Q1011","temp":27,"dewp":22,"wdir":90,"wspd":6,"visib":"6+","altim":1011,"clouds":[{"cover":"FEW","base":2500}],"obsTime":1773723600},"SBJP":{"icaoId":"SBJP","flightCategory":"MVFR","rawOb":"METAR SBJP 170500Z 17004KT 9999 BKN020 26/25 Q1011","temp":26,"dewp":25,"wdir":170,"wspd":4,"visib":"6+","altim":1011,"clouds":[{"cover":"BKN","base":2000}],"obsTime":1773723600},"SBAN":{"icaoId":"SBAN","flightCategory":"VFR","rawOb":"METAR SBAN 170500Z VRB01KT 9000 2000S -RA SCT003 SCT020 FEW035TCU BKN070 20/19 Q1017","temp":20,"dewp":19,"wdir":"VRB","wspd":1,"visib":5.59,"altim":1017,"clouds":[{"cover":"SCT","base":300},{"cover":"SCT","base":2000},{"cover":"FEW","base":3500},{"cover":"BKN","base":7000}],"obsTime":1773723600},"SBLE":{"icaoId":"SBLE","flightCategory":"MVFR","rawOb":"METAR SBLE 170500Z AUTO 01003KT 330V030 9999 BKN019 ///// Q////","temp":null,"dewp":null,"wdir":10,"wspd":3,"visib":"6+","altim":null,"clouds":[{"cover":"BKN","base":1900}],"obsTime":1773723600},"SBPF":{"icaoId":"SBPF","flightCategory":"VFR","rawOb":"METAR SBPF 170500Z AUTO 05014KT 9999 // ///////// 20/17 Q////","temp":20,"dewp":17,"wdir":50,"wspd":14,"visib":"6+","altim":null,"clouds":[],"obsTime":1773723600}}}