{"updated":1777302021,"count":87,"data":{"SBCT":{"icaoId":"SBCT","flightCategory":"VFR","rawOb":"METAR SBCT 271400Z 22008KT 9999 FEW030 SCT050 BKN080 21/15 Q1018","temp":21,"dewp":15,"wdir":220,"wspd":8,"visib":"6+","altim":1018,"clouds":[{"cover":"FEW","base":3000},{"cover":"SCT","base":5000},{"cover":"BKN","base":8000}],"obsTime":1777298400},"SBCF":{"icaoId":"SBCF","flightCategory":"VFR","rawOb":"METAR SBCF 271400Z 33005KT 260V020 9999 FEW025 28/16 Q1019","temp":28,"dewp":16,"wdir":330,"wspd":5,"visib":"6+","altim":1019,"clouds":[{"cover":"FEW","base":2500}],"obsTime":1777298400},"SBKP":{"icaoId":"SBKP","flightCategory":"VFR","rawOb":"METAR SBKP 271400Z 02006KT 350V070 9999 FEW040 BKN100 26/18 Q1016","temp":26,"dewp":18,"wdir":20,"wspd":6,"visib":"6+","altim":1016,"clouds":[{"cover":"FEW","base":4000},{"cover":"BKN","base":10000}],"obsTime":1777298400},"SBVT":{"icaoId":"SBVT","flightCategory":"VFR","rawOb":"METAR SBVT 271400Z 02011KT 9999 FEW035 31/21 Q1014","temp":31,"dewp":21,"wdir":20,"wspd":11,"visib":"6+","altim":1014,"clouds":[{"cover":"FEW","base":3500}],"obsTime":1777298400},"SBEG":{"icaoId":"SBEG","flightCategory":"VFR","rawOb":"METAR SBEG 271400Z 03004KT 330V090 9999 FEW020 31/24 Q1014","temp":31,"dewp":24,"wdir":30,"wspd":4,"visib":"6+","altim":1014,"clouds":[{"cover":"FEW","base":2000}],"obsTime":1777298400},"SBLO":{"icaoId":"SBLO","flightCategory":"LIFR","rawOb":"METAR SBLO 271400Z 34007KT 4000 BR OVC003 22/21 Q1016","temp":22,"dewp":21,"wdir":340,"wspd":7,"visib":2.49,"altim":1016,"clouds":[{"cover":"OVC","base":300}],"obsTime":1777298400},"SBFI":{"icaoId":"SBFI","flightCategory":"VFR","rawOb":"METAR SBFI 271400Z 17010KT CAVOK 20/14 Q1018","temp":20,"dewp":14,"wdir":170,"wspd":10,"visib":"6+","altim":1018,"clouds":[],"obsTime":1777298400},"SBMA":{"icaoId":"SBMA","flightCategory":"VFR","rawOb":"METAR SBMA 271400Z 01007KT 9999 SCT015 BKN100 29/24 Q1015","temp":29,"dewp":24,"wdir":10,"wspd":7,"visib":"6+","altim":1015,"clouds":[{"cover":"SCT","base":1500},{"cover":"BKN","base":10000}],"obsTime":1777298400},"SBBV":{"icaoId":"SBBV","flightCategory":"MVFR","rawOb":"METAR SBBV 271400Z 10010KT 9999 BKN015 SCT100 28/24 Q1015","temp":28,"dewp":24,"wdir":100,"wspd":10,"visib":"6+","altim":1015,"clouds":[{"cover":"BKN","base":1500},{"cover":"SCT","base":10000}],"obsTime":1777298400},"SBCG":{"icaoId":"SBCG","flightCategory":"MVFR","rawOb":"SPECI SBCG 271342Z 31004KT 280V340 8000 -TSRA FEW007 SCT035 FEW040CB BKN090 22/21 Q1017","temp":22,"dewp":21,"wdir":310,"wspd":4,"visib":4.97,"altim":1017,"clouds":[{"cover":"FEW","base":700},{"cover":"SCT","base":3500},{"cover":"FEW","base":4000},{"cover":"BKN","base":9000}],"obsTime":1777297320},"SBFL":{"icaoId":"SBFL","flightCategory":"VFR","rawOb":"METAR SBFL 271400Z VRB02KT 9999 FEW033 26/19 Q1013","temp":26,"dewp":19,"wdir":"VRB","wspd":2,"visib":"6+","altim":1013,"clouds":[{"cover":"FEW","base":3300}],"obsTime":1777298400},"SBMO":{"icaoId":"SBMO","flightCategory":"MVFR","rawOb":"METAR SBMO 271400Z 19005KT 150V220 9999 VCSH SCT016 BKN023 BKN050 28/25 Q1014","temp":28,"dewp":25,"wdir":190,"wspd":5,"visib":"6+","altim":1014,"clouds":[{"cover":"SCT","base":1600},{"cover":"BKN","base":2300},{"cover":"BKN","base":5000}],"obsTime":1777298400},"SBBR":{"icaoId":"SBBR","flightCategory":"VFR","rawOb":"METAR SBBR 271400Z 05008KT 9999 SCT030 FEW040TCU 26/17 Q1021","temp":26,"dewp":17,"wdir":50,"wspd":8,"visib":"6+","altim":1021,"clouds":[{"cover":"SCT","base":3000},{"cover":"FEW","base":4000}],"obsTime":1777298400},"SBFZ":{"icaoId":"SBFZ","flightCategory":"MVFR","rawOb":"METAR SBFZ 271400Z 15006KT 9999 VCSH BKN020 FEW025TCU 28/25 Q1013","temp":28,"dewp":25,"wdir":150,"wspd":6,"visib":"6+","altim":1013,"clouds":[{"cover":"BKN","base":2000},{"cover":"FEW","base":2500}],"obsTime":1777298400},"SBMQ":{"icaoId":"SBMQ","flightCategory":"MVFR","rawOb":"METAR SBMQ 271400Z 04007KT 9999 BKN026 31/25 Q1014","temp":31,"dewp":25,"wdir":40,"wspd":7,"visib":"6+","altim":1014,"clouds":[{"cover":"BKN","base":2600}],"obsTime":1777298400},"SBGL":{"icaoId":"SBGL","flightCategory":"VFR","rawOb":"METAR SBGL 271400Z 32003KT 9000 NSC 33/21 Q1011","temp":33,"dewp":21,"wdir":320,"wspd":3,"visib":5.59,"altim":1011,"clouds":[],"obsTime":1777298400},"SBPA":{"icaoId":"SBPA","flightCategory":"VFR","rawOb":"METAR SBPA 271400Z 29016KT CAVOK 16/04 Q1017","temp":16,"dewp":4,"wdir":290,"wspd":16,"visib":"6+","altim":1017,"clouds":[],"obsTime":1777298400},"SBCP":{"icaoId":"SBCP","flightCategory":"VFR","rawOb":"METAR SBCP 271400Z 36012KT CAVOK 32/20 Q1012","temp":32,"dewp":20,"wdir":360,"wspd":12,"visib":"6+","altim":1012,"clouds":[],"obsTime":1777298400},"SBTE":{"icaoId":"SBTE","flightCategory":"MVFR","rawOb":"METAR SBTE 271400Z 32004KT 9999 BKN025 30/24 Q1013","temp":30,"dewp":24,"wdir":320,"wspd":4,"visib":"6+","altim":1013,"clouds":[{"cover":"BKN","base":2500}],"obsTime":1777298400},"SBPV":{"icaoId":"SBPV","flightCategory":"VFR","rawOb":"METAR SBPV 271400Z 05005KT 010V090 9999 FEW020 BKN100 28/25 Q1014","temp":28,"dewp":25,"wdir":50,"wspd":5,"visib":"6+","altim":1014,"clouds":[{"cover":"FEW","base":2000},{"cover":"BKN","base":10000}],"obsTime":1777298400},"SBGO":{"icaoId":"SBGO","flightCategory":"VFR","rawOb":"METAR SBGO 271400Z 35004KT 260V060 9999 FEW045 29/19 Q1018","temp":29,"dewp":19,"wdir":350,"wspd":4,"visib":"6+","altim":1018,"clouds":[{"cover":"FEW","base":4500}],"obsTime":1777298400},"SBCB":{"icaoId":"SBCB","flightCategory":"VFR","rawOb":"METAR SBCB 271400Z 25006KT CAVOK 30/21 Q1012","temp":30,"dewp":21,"wdir":250,"wspd":6,"visib":"6+","altim":1012,"clouds":[],"obsTime":1777298400},"SBRF":{"icaoId":"SBRF","flightCategory":"IFR","rawOb":"SPECI SBRF 271326Z 16012KT 2800 -DZ BR FEW007 BKN013 BKN050 27/24 Q1014","temp":27,"dewp":24,"wdir":160,"wspd":12,"visib":1.74,"altim":1014,"clouds":[{"cover":"FEW","base":700},{"cover":"BKN","base":1300},{"cover":"BKN","base":5000}],"obsTime":1777296360},"SBSL":{"icaoId":"SBSL","flightCategory":"VFR","rawOb":"METAR SBSL 271400Z 10004KT 9999 SCT010 FEW025TCU BKN080 27/25 Q1014","temp":27,"dewp":25,"wdir":100,"wspd":4,"visib":"6+","altim":1014,"clouds":[{"cover":"SCT","base":1000},{"cover":"FEW","base":2500},{"cover":"BKN","base":8000}],"obsTime":1777298400},"SBGR":{"icaoId":"SBGR","flightCategory":"VFR","rawOb":"METAR SBGR 271400Z 32006KT CAVOK 27/17 Q1017","temp":27,"dewp":17,"wdir":320,"wspd":6,"visib":"6+","altim":1017,"clouds":[],"obsTime":1777298400},"SBBE":{"icaoId":"SBBE","flightCategory":"VFR","rawOb":"METAR SBBE 271400Z 09007KT 9999 SCT029 BKN047 30/23 Q1014","temp":30,"dewp":23,"wdir":90,"wspd":7,"visib":"6+","altim":1014,"clouds":[{"cover":"SCT","base":2900},{"cover":"BKN","base":4700}],"obsTime":1777298400},"SBSG":{"icaoId":"SBSG","flightCategory":"MVFR","rawOb":"METAR SBSG 271400Z 17005KT 120V210 9999 BKN025 FEW027TCU 29/24 Q1013","temp":29,"dewp":24,"wdir":170,"wspd":5,"visib":"6+","altim":1013,"clouds":[{"cover":"BKN","base":2500},{"cover":"FEW","base":2700}],"obsTime":1777298400},"SBNT":{"icaoId":"SBNT","flightCategory":"MVFR","rawOb":"METAR SBNT 271400Z 16009KT 9999 BKN026 SCT100 29/24 Q1012","temp":29,"dewp":24,"wdir":160,"wspd":9,"visib":"6+","altim":1012,"clouds":[{"cover":"BKN","base":2600},{"cover":"SCT","base":10000}],"obsTime":1777298400},"SBPJ":{"icaoId":"SBPJ","flightCategory":"VFR","rawOb":"METAR SBPJ 271400Z 26005KT 9999 VCSH SCT020 BKN100 30/25 Q1015","temp":30,"dewp":25,"wdir":260,"wspd":5,"visib":"6+","altim":1015,"clouds":[{"cover":"SCT","base":2000},{"cover":"BKN","base":10000}],"obsTime":1777298400},"SBAT":{"icaoId":"SBAT","flightCategory":"VFR","rawOb":"METAR SBAT 271400Z 35001KT 9999 SCT025 31/25 Q1016","temp":31,"dewp":25,"wdir":350,"wspd":1,"visib":"6+","altim":1016,"clouds":[{"cover":"SCT","base":2500}],"obsTime":1777298400},"SBRB":{"icaoId":"SBRB","flightCategory":"VFR","rawOb":"METAR SBRB 271400Z 03003KT 9999 SCT013 SCT100 29/25 Q1014","temp":29,"dewp":25,"wdir":30,"wspd":3,"visib":"6+","altim":1014,"clouds":[{"cover":"SCT","base":1300},{"cover":"SCT","base":10000}],"obsTime":1777298400},"SBCR":{"icaoId":"SBCR","flightCategory":"MVFR","rawOb":"SPECI SBCR 271343Z 26004KT 9999 BKN010 SCT035 FEW040TCU BKN090 25/24 Q1015","temp":25,"dewp":24,"wdir":260,"wspd":4,"visib":"6+","altim":1015,"clouds":[{"cover":"BKN","base":1000},{"cover":"SCT","base":3500},{"cover":"FEW","base":4000},{"cover":"BKN","base":9000}],"obsTime":1777297380},"SBCZ":{"icaoId":"SBCZ","flightCategory":"VFR","rawOb":"METAR SBCZ 271400Z VRB02KT 9999 FEW012 28/24 Q1014","temp":28,"dewp":24,"wdir":"VRB","wspd":2,"visib":"6+","altim":1014,"clouds":[{"cover":"FEW","base":1200}],"obsTime":1777298400},"SBHT":{"icaoId":"SBHT","flightCategory":"MVFR","rawOb":"METAR SBHT 271400Z 07007KT 9999 BKN017 SCT100 31/24 Q1015","temp":31,"dewp":24,"wdir":70,"wspd":7,"visib":"6+","altim":1015,"clouds":[{"cover":"BKN","base":1700},{"cover":"SCT","base":10000}],"obsTime":1777298400},"SBIL":{"icaoId":"SBIL","flightCategory":"VFR","rawOb":"METAR SBIL 271400Z 12003KT 050V160 9999 FEW023 30/24 Q1016","temp":30,"dewp":24,"wdir":120,"wspd":3,"visib":"6+","altim":1016,"clouds":[{"cover":"FEW","base":2300}],"obsTime":1777298400},"SBJU":{"icaoId":"SBJU","flightCategory":"VFR","rawOb":"METAR SBJU 271400Z 00000KT 9999 FEW020 30/18 Q1015","temp":30,"dewp":18,"wdir":0,"wspd":0,"visib":"6+","altim":1015,"clouds":[{"cover":"FEW","base":2000}],"obsTime":1777298400},"SBME":{"icaoId":"SBME","flightCategory":"VFR","rawOb":"METAR SBME 271400Z 36006KT CAVOK 36/18 Q1011","temp":36,"dewp":18,"wdir":360,"wspd":6,"visib":"6+","altim":1011,"clouds":[],"obsTime":1777298400},"SBMG":{"icaoId":"SBMG","flightCategory":"MVFR","rawOb":"METAR SBMG 271400Z 18004KT 9999 SCT014 BKN022 BKN100 22/20 Q1016","temp":22,"dewp":20,"wdir":180,"wspd":4,"visib":"6+","altim":1016,"clouds":[{"cover":"SCT","base":1400},{"cover":"BKN","base":2200},{"cover":"BKN","base":10000}],"obsTime":1777298400},"SBMK":{"icaoId":"SBMK","flightCategory":"VFR","rawOb":"METAR SBMK 271400Z 01005KT CAVOK 28/19 Q1018","temp":28,"dewp":19,"wdir":10,"wspd":5,"visib":"6+","altim":1018,"clouds":[],"obsTime":1777298400},"SBUL":{"icaoId":"SBUL","flightCategory":"VFR","rawOb":"METAR SBUL 271400Z 05011KT CAVOK 27/16 Q1020","temp":27,"dewp":16,"wdir":50,"wspd":11,"visib":"6+","altim":1020,"clouds":[],"obsTime":1777298400},"SBUR":{"icaoId":"SBUR","flightCategory":"VFR","rawOb":"METAR SBUR 271400Z 01009KT CAVOK 30/16 Q1018","temp":30,"dewp":16,"wdir":10,"wspd":9,"visib":"6+","altim":1018,"clouds":[],"obsTime":1777298400},"SBSN":{"icaoId":"SBSN","flightCategory":"MVFR","rawOb":"SPECI SBSN 271333Z 04003KT 9999 -RA SCT008 BKN018 BKN100 25/24 Q1015 RETSRA","temp":25,"dewp":24,"wdir":40,"wspd":3,"visib":"6+","altim":1015,"clouds":[{"cover":"SCT","base":800},{"cover":"BKN","base":1800},{"cover":"BKN","base":10000}],"obsTime":1777296780},"SBSP":{"icaoId":"SBSP","flightCategory":"VFR","rawOb":"METAR SBSP 271400Z 32006KT 280V350 9999 FEW046 SCT100 24/18 Q1018","temp":24,"dewp":18,"wdir":320,"wspd":6,"visib":"6+","altim":1018,"clouds":[{"cover":"FEW","base":4600},{"cover":"SCT","base":10000}],"obsTime":1777298400},"SBSV":{"icaoId":"SBSV","flightCategory":"VFR","rawOb":"METAR SBSV 271400Z 12009KT 9999 SCT025 30/23 Q1015","temp":30,"dewp":23,"wdir":120,"wspd":9,"visib":"6+","altim":1015,"clouds":[{"cover":"SCT","base":2500}],"obsTime":1777298400},"SBPB":{"icaoId":"SBPB","flightCategory":"VFR","rawOb":"METAR SBPB 271400Z 07006KT 9999 SCT020 30/26 Q1013","temp":30,"dewp":26,"wdir":70,"wspd":6,"visib":"6+","altim":1013,"clouds":[{"cover":"SCT","base":2000}],"obsTime":1777298400},"SBPS":{"icaoId":"SBPS","flightCategory":"VFR","rawOb":"METAR SBPS 271400Z 07010KT 030V090 9999 SCT025 30/24 Q1015","temp":30,"dewp":24,"wdir":70,"wspd":10,"visib":"6+","altim":1015,"clouds":[{"cover":"SCT","base":2500}],"obsTime":1777298400},"SBCJ":{"icaoId":"SBCJ","flightCategory":"VFR","rawOb":"METAR SBCJ 271400Z 04004KT 9999 SCT023 26/21 Q1019","temp":26,"dewp":21,"wdir":40,"wspd":4,"visib":"6+","altim":1019,"clouds":[{"cover":"SCT","base":2300}],"obsTime":1777298400},"SBAR":{"icaoId":"SBAR","flightCategory":"VFR","rawOb":"METAR SBAR 271400Z 11011KT 9999 SCT026 30/22 Q1014","temp":30,"dewp":22,"wdir":110,"wspd":11,"visib":"6+","altim":1014,"clouds":[{"cover":"SCT","base":2600}],"obsTime":1777298400},"SBSJ":{"icaoId":"SBSJ","flightCategory":"VFR","rawOb":"METAR SBSJ 271400Z 08002KT 9999 FEW021 26/19 Q1016","temp":26,"dewp":19,"wdir":80,"wspd":2,"visib":"6+","altim":1016,"clouds":[{"cover":"FEW","base":2100}],"obsTime":1777298400},"SBPL":{"icaoId":"SBPL","flightCategory":"VFR","rawOb":"METAR SBPL 271400Z 12008KT 9999 FEW030 30/19 Q1016","temp":30,"dewp":19,"wdir":120,"wspd":8,"visib":"6+","altim":1016,"clouds":[{"cover":"FEW","base":3000}],"obsTime":1777298400},"SBUY":{"icaoId":"SBUY","flightCategory":"VFR","rawOb":"METAR SBUY 271400Z 09003KT 9999 FEW020 28/24 Q1012","temp":28,"dewp":24,"wdir":90,"wspd":3,"visib":"6+","altim":1012,"clouds":[{"cover":"FEW","base":2000}],"obsTime":1777298400},"SBTD":{"icaoId":"SBTD","flightCategory":"VFR","rawOb":"METAR SBTD 271400Z /////KT 9999 FEW040 BKN100 21/15 Q1018","temp":21,"dewp":15,"wdir":null,"wspd":null,"visib":"6+","altim":1018,"clouds":[{"cover":"FEW","base":4000},{"cover":"BKN","base":10000}],"obsTime":1777298400},"SBPP":{"icaoId":"SBPP","flightCategory":"IFR","rawOb":"SPECI SBPP 271320Z 14010KT 3000 -RA BR SCT010 OVC070 19/18 Q1018","temp":19,"dewp":18,"wdir":140,"wspd":10,"visib":1.86,"altim":1018,"clouds":[{"cover":"SCT","base":1000},{"cover":"OVC","base":7000}],"obsTime":1777296000},"SBTT":{"icaoId":"SBTT","flightCategory":"VFR","rawOb":"METAR SBTT 271400Z 22004KT 9999 SCT010 27/23 Q1013","temp":27,"dewp":23,"wdir":220,"wspd":4,"visib":"6+","altim":1013,"clouds":[{"cover":"SCT","base":1000}],"obsTime":1777298400},"SBTF":{"icaoId":"SBTF","flightCategory":"VFR","rawOb":"METAR SBTF 271400Z 11005KT 9999 SCT010 30/26 Q1013","temp":30,"dewp":26,"wdir":110,"wspd":5,"visib":"6+","altim":1013,"clouds":[{"cover":"SCT","base":1000}],"obsTime":1777298400},"SBOI":{"icaoId":"SBOI","flightCategory":"VFR","rawOb":"METAR SBOI 271400Z AUTO 06007KT 030V090 9999 FEW025 BKN036 29/24 Q1015","temp":29,"dewp":24,"wdir":60,"wspd":7,"visib":"6+","altim":1015,"clouds":[{"cover":"FEW","base":2500},{"cover":"BKN","base":3600}],"obsTime":1777298400},"SBGM":{"icaoId":"SBGM","flightCategory":"VFR","rawOb":"METAR SBGM 271400Z 30003KT CAVOK 28/23 Q1013","temp":28,"dewp":23,"wdir":300,"wspd":3,"visib":"6+","altim":1013,"clouds":[],"obsTime":1777298400},"SBIP":{"icaoId":"SBIP","flightCategory":"VFR","rawOb":"METAR SBIP 271400Z AUTO 01005KT 310V090 CAVOK 30/21 Q1016","temp":30,"dewp":21,"wdir":10,"wspd":5,"visib":"6+","altim":1016,"clouds":[],"obsTime":1777298400},"SBKG":{"icaoId":"SBKG","flightCategory":"MVFR","rawOb":"METAR SBKG 271400Z 13008KT 9999 BKN025 28/22 Q1016","temp":28,"dewp":22,"wdir":130,"wspd":8,"visib":"6+","altim":1016,"clouds":[{"cover":"BKN","base":2500}],"obsTime":1777298400},"SBSC":{"icaoId":"SBSC","flightCategory":"VFR","rawOb":"METAR SBSC 271400Z 24006KT CAVOK 31/23 Q1012","temp":31,"dewp":23,"wdir":240,"wspd":6,"visib":"6+","altim":1012,"clouds":[],"obsTime":1777298400},"SBSM":{"icaoId":"SBSM","flightCategory":"VFR","rawOb":"METAR SBSM 271400Z 28009KT 240V310 CAVOK 13/04 Q1019","temp":13,"dewp":4,"wdir":280,"wspd":9,"visib":"6+","altim":1019,"clouds":[],"obsTime":1777298400},"SBSR":{"icaoId":"SBSR","flightCategory":"VFR","rawOb":"METAR SBSR 271400Z VRB04KT 9999 FEW030 SCT070 28/19 Q1016","temp":28,"dewp":19,"wdir":"VRB","wspd":4,"visib":"6+","altim":1016,"clouds":[{"cover":"FEW","base":3000},{"cover":"SCT","base":7000}],"obsTime":1777298400},"SBVH":{"icaoId":"SBVH","flightCategory":"VFR","rawOb":"METAR SBVH 271400Z 06005KT 9999 FEW019 28/23 Q1018","temp":28,"dewp":23,"wdir":60,"wspd":5,"visib":"6+","altim":1018,"clouds":[{"cover":"FEW","base":1900}],"obsTime":1777298400},"SBAU":{"icaoId":"SBAU","flightCategory":"VFR","rawOb":"METAR SBAU 271400Z 18008KT CAVOK 30/20 Q1016","temp":30,"dewp":20,"wdir":180,"wspd":8,"visib":"6+","altim":1016,"clouds":[],"obsTime":1777298400},"SBAX":{"icaoId":"SBAX","flightCategory":"VFR","rawOb":"METAR SBAX 271400Z 33006KT CAVOK 27/16 Q1020","temp":27,"dewp":16,"wdir":330,"wspd":6,"visib":"6+","altim":1020,"clouds":[],"obsTime":1777298400},"SBBH":{"icaoId":"SBBH","flightCategory":"VFR","rawOb":"METAR SBBH 271400Z 19002KT 9999 FEW023 28/18 Q1019","temp":28,"dewp":18,"wdir":190,"wspd":2,"visib":"6+","altim":1019,"clouds":[{"cover":"FEW","base":2300}],"obsTime":1777298400},"SBBQ":{"icaoId":"SBBQ","flightCategory":"VFR","rawOb":"METAR SBBQ 271400Z 31007KT 9999 FEW030 26/15 Q1022","temp":26,"dewp":15,"wdir":310,"wspd":7,"visib":"6+","altim":1022,"clouds":[{"cover":"FEW","base":3000}],"obsTime":1777298400},"SBBU":{"icaoId":"SBBU","flightCategory":"VFR","rawOb":"METAR SBBU 271400Z 27005KT 9999 SCT045 28/22 Q1016","temp":28,"dewp":22,"wdir":270,"wspd":5,"visib":"6+","altim":1016,"clouds":[{"cover":"SCT","base":4500}],"obsTime":1777298400},"SBCA":{"icaoId":"SBCA","flightCategory":"VFR","rawOb":"METAR SBCA 271400Z 16013KT 9999 FEW005 BKN100 19/13 Q1019","temp":19,"dewp":13,"wdir":160,"wspd":13,"visib":"6+","altim":1019,"clouds":[{"cover":"FEW","base":500},{"cover":"BKN","base":10000}],"obsTime":1777298400},"SBCC":{"icaoId":"SBCC","flightCategory":"VFR","rawOb":"METAR SBCC 271400Z 01006KT 330V050 9999 SCT030 SCT100 29/21 Q1016","temp":29,"dewp":21,"wdir":10,"wspd":6,"visib":"6+","altim":1016,"clouds":[{"cover":"SCT","base":3000},{"cover":"SCT","base":10000}],"obsTime":1777298400},"SBCO":{"icaoId":"SBCO","flightCategory":"VFR","rawOb":"METAR SBCO 271400Z 28018G28KT CAVOK 16/03 Q1017","temp":16,"dewp":3,"wdir":280,"wspd":18,"visib":"6+","altim":1017,"clouds":[],"obsTime":1777298400},"SBDN":{"icaoId":"SBDN","flightCategory":"IFR","rawOb":"METAR SBDN 271400Z 35006KT 4000 RA NSC 21/20 Q1017","temp":21,"dewp":20,"wdir":350,"wspd":6,"visib":2.49,"altim":1017,"clouds":[],"obsTime":1777298400},"SBES":{"icaoId":"SBES","flightCategory":"VFR","rawOb":"METAR SBES 271400Z VRB09KT CAVOK 30/// Q1012","temp":null,"dewp":null,"wdir":"VRB","wspd":9,"visib":"6+","altim":1012,"clouds":[],"obsTime":1777298400},"SBJP":{"icaoId":"SBJP","flightCategory":"MVFR","rawOb":"METAR SBJP 271400Z 15013KT 9999 -RA BKN020 28/24 Q1013","temp":28,"dewp":24,"wdir":150,"wspd":13,"visib":"6+","altim":1013,"clouds":[{"cover":"BKN","base":2000}],"obsTime":1777298400},"SBAN":{"icaoId":"SBAN","flightCategory":"VFR","rawOb":"METAR SBAN 271400Z 14008KT 9999 FEW030 27/17 Q1021","temp":27,"dewp":17,"wdir":140,"wspd":8,"visib":"6+","altim":1021,"clouds":[{"cover":"FEW","base":3000}],"obsTime":1777298400},"SBIH":{"icaoId":"SBIH","flightCategory":"VFR","rawOb":"METAR SBIH 271400Z 00000KT 9999 SCT015 FEW023TCU BKN100 29/25 Q1014","temp":29,"dewp":25,"wdir":0,"wspd":0,"visib":"6+","altim":1014,"clouds":[{"cover":"SCT","base":1500},{"cover":"FEW","base":2300},{"cover":"BKN","base":10000}],"obsTime":1777298400},"SBLE":{"icaoId":"SBLE","flightCategory":"VFR","rawOb":"METAR SBLE 271400Z AUTO VRB05KT 9999 FEW034 SCT040 27/19 Q1018","temp":27,"dewp":19,"wdir":"VRB","wspd":5,"visib":"6+","altim":1018,"clouds":[{"cover":"FEW","base":3400},{"cover":"SCT","base":4000}],"obsTime":1777298400},"SBJV":{"icaoId":"SBJV","flightCategory":"VFR","rawOb":"METAR SBJV 271400Z 19004KT CAVOK 25/20 Q1013","temp":25,"dewp":20,"wdir":190,"wspd":4,"visib":"6+","altim":1013,"clouds":[],"obsTime":1777298400},"SBNM":{"icaoId":"SBNM","flightCategory":"VFR","rawOb":"METAR SBNM 271400Z 24007KT CAVOK 14/02 Q1020","temp":14,"dewp":2,"wdir":240,"wspd":7,"visib":"6+","altim":1020,"clouds":[],"obsTime":1777298400},"SBPF":{"icaoId":"SBPF","flightCategory":"VFR","rawOb":"METAR SBPF 271400Z 24010KT CAVOK 13/05 Q1019","temp":13,"dewp":5,"wdir":240,"wspd":10,"visib":"6+","altim":1019,"clouds":[],"obsTime":1777298400},"SBAF":{"icaoId":"SBAF","flightCategory":"VFR","rawOb":"METAR SBAF 271400Z 02006KT 9999 FEW030 34/19 Q1012","temp":34,"dewp":19,"wdir":20,"wspd":6,"visib":"6+","altim":1012,"clouds":[{"cover":"FEW","base":3000}],"obsTime":1777298400},"SBGW":{"icaoId":"SBGW","flightCategory":"VFR","rawOb":"METAR SBGW 271400Z 05004KT 350V100 9999 FEW020 SCT100 30/17 Q1015","temp":30,"dewp":17,"wdir":50,"wspd":4,"visib":"6+","altim":1015,"clouds":[{"cover":"FEW","base":2000},{"cover":"SCT","base":10000}],"obsTime":1777298400},"SBJR":{"icaoId":"SBJR","flightCategory":"VFR","rawOb":"METAR SBJR 271400Z 03003KT CAVOK 36/22 Q1011","temp":36,"dewp":22,"wdir":30,"wspd":3,"visib":"6+","altim":1011,"clouds":[],"obsTime":1777298400},"SBLS":{"icaoId":"SBLS","flightCategory":"VFR","rawOb":"METAR SBLS 271400Z VRB03KT 9999 FEW025 28/17 Q1019","temp":28,"dewp":17,"wdir":"VRB","wspd":3,"visib":"6+","altim":1019,"clouds":[{"cover":"FEW","base":2500}],"obsTime":1777298400},"SBMT":{"icaoId":"SBMT","flightCategory":"VFR","rawOb":"METAR SBMT 271400Z 30004KT 9999 FEW025 BKN090 27/17 Q1016","temp":27,"dewp":17,"wdir":300,"wspd":4,"visib":"6+","altim":1016,"clouds":[{"cover":"FEW","base":2500},{"cover":"BKN","base":9000}],"obsTime":1777298400},"SBST":{"icaoId":"SBST","flightCategory":"MVFR","rawOb":"METAR SBST 271400Z 06002KT 8000 SCT019 26/24 Q1013","temp":26,"dewp":24,"wdir":60,"wspd":2,"visib":4.97,"altim":1013,"clouds":[{"cover":"SCT","base":1900}],"obsTime":1777298400},"SBTA":{"icaoId":"SBTA","flightCategory":"VFR","rawOb":"METAR SBTA 271400Z VRB01KT 9999 FEW030 28/19 Q1015","temp":28,"dewp":19,"wdir":"VRB","wspd":1,"visib":"6+","altim":1015,"clouds":[{"cover":"FEW","base":3000}],"obsTime":1777298400}}}