{"updated":1775949972,"count":75,"data":{"SBSV":{"icaoId":"SBSV","flightCategory":"VFR","rawOb":"METAR SBSV 112200Z 15007KT 9999 SCT021 BKN060 28/24 Q1014","temp":28,"dewp":24,"wdir":150,"wspd":7,"visib":"6+","altim":1014,"clouds":[{"cover":"SCT","base":2100},{"cover":"BKN","base":6000}],"obsTime":1775944800},"SBVT":{"icaoId":"SBVT","flightCategory":"MVFR","rawOb":"METAR SBVT 112200Z 21012KT 9999 FEW015 OVC030 23/20 Q1019","temp":23,"dewp":20,"wdir":210,"wspd":12,"visib":"6+","altim":1019,"clouds":[{"cover":"FEW","base":1500},{"cover":"OVC","base":3000}],"obsTime":1775944800},"SBBV":{"icaoId":"SBBV","flightCategory":"VFR","rawOb":"METAR SBBV 112200Z 12008KT 9999 SCT040 FEW045TCU SCT090 33/19 Q1008","temp":33,"dewp":19,"wdir":120,"wspd":8,"visib":"6+","altim":1008,"clouds":[{"cover":"SCT","base":4000},{"cover":"FEW","base":4500},{"cover":"SCT","base":9000}],"obsTime":1775944800},"SBFI":{"icaoId":"SBFI","flightCategory":"VFR","rawOb":"METAR SBFI 112200Z 08004KT 9999 FEW030 BKN100 25/22 Q1015","temp":25,"dewp":22,"wdir":80,"wspd":4,"visib":"6+","altim":1015,"clouds":[{"cover":"FEW","base":3000},{"cover":"BKN","base":10000}],"obsTime":1775944800},"SBBR":{"icaoId":"SBBR","flightCategory":"VFR","rawOb":"METAR SBBR 112200Z 14008KT 9999 FEW040 25/19 Q1018","temp":25,"dewp":19,"wdir":140,"wspd":8,"visib":"6+","altim":1018,"clouds":[{"cover":"FEW","base":4000}],"obsTime":1775944800},"SBCB":{"icaoId":"SBCB","flightCategory":"VFR","rawOb":"METAR SBCB 112200Z 24007KT 9999 FEW030 BKN070 24/21 Q1021","temp":24,"dewp":21,"wdir":240,"wspd":7,"visib":"6+","altim":1021,"clouds":[{"cover":"FEW","base":3000},{"cover":"BKN","base":7000}],"obsTime":1775944800},"SBCF":{"icaoId":"SBCF","flightCategory":"VFR","rawOb":"METAR SBCF 112200Z 13010KT 9999 FEW045 22/18 Q1021","temp":22,"dewp":18,"wdir":130,"wspd":10,"visib":"6+","altim":1021,"clouds":[{"cover":"FEW","base":4500}],"obsTime":1775944800},"SBCG":{"icaoId":"SBCG","flightCategory":"VFR","rawOb":"METAR SBCG 112200Z 10008KT 9999 VCSH SCT040 FEW045TCU 28/21 Q1014","temp":28,"dewp":21,"wdir":100,"wspd":8,"visib":"6+","altim":1014,"clouds":[{"cover":"SCT","base":4000},{"cover":"FEW","base":4500}],"obsTime":1775944800},"SBCT":{"icaoId":"SBCT","flightCategory":"VFR","rawOb":"METAR SBCT 112200Z 10006KT 9999 FEW010 16/15 Q1024","temp":16,"dewp":15,"wdir":100,"wspd":6,"visib":"6+","altim":1024,"clouds":[{"cover":"FEW","base":1000}],"obsTime":1775944800},"SBCZ":{"icaoId":"SBCZ","flightCategory":"VFR","rawOb":"METAR SBCZ 112200Z 23004KT 200V260 9999 TS FEW004 SCT035 FEW040CB BKN090 24/23 Q1009","temp":24,"dewp":23,"wdir":230,"wspd":4,"visib":"6+","altim":1009,"clouds":[{"cover":"FEW","base":400},{"cover":"SCT","base":3500},{"cover":"FEW","base":4000},{"cover":"BKN","base":9000}],"obsTime":1775944800},"SBEG":{"icaoId":"SBEG","flightCategory":"VFR","rawOb":"METAR SBEG 112200Z VRB02KT 9999 FEW020 FEW025TCU 26/25 Q1008","temp":26,"dewp":25,"wdir":"VRB","wspd":2,"visib":"6+","altim":1008,"clouds":[{"cover":"FEW","base":2000},{"cover":"FEW","base":2500}],"obsTime":1775944800},"SBBE":{"icaoId":"SBBE","flightCategory":"VFR","rawOb":"METAR SBBE 112200Z 01003KT 9999 SCT007 BKN100 25/25 Q1012","temp":25,"dewp":25,"wdir":10,"wspd":3,"visib":"6+","altim":1012,"clouds":[{"cover":"SCT","base":700},{"cover":"BKN","base":10000}],"obsTime":1775944800},"SBFL":{"icaoId":"SBFL","flightCategory":"VFR","rawOb":"METAR SBFL 112200Z 35006KT 9999 FEW010 BKN040 OVC050 23/19 Q1021","temp":23,"dewp":19,"wdir":350,"wspd":6,"visib":"6+","altim":1021,"clouds":[{"cover":"FEW","base":1000},{"cover":"BKN","base":4000},{"cover":"OVC","base":5000}],"obsTime":1775944800},"SBFZ":{"icaoId":"SBFZ","flightCategory":"VFR","rawOb":"METAR SBFZ 112200Z VRB02KT 9999 FEW020 BKN070 26/24 Q1011","temp":26,"dewp":24,"wdir":"VRB","wspd":2,"visib":"6+","altim":1011,"clouds":[{"cover":"FEW","base":2000},{"cover":"BKN","base":7000}],"obsTime":1775944800},"SBGL":{"icaoId":"SBGL","flightCategory":"VFR","rawOb":"METAR SBGL 112200Z 12006KT 9999 FEW030 BKN080 23/13 Q1020","temp":23,"dewp":13,"wdir":120,"wspd":6,"visib":"6+","altim":1020,"clouds":[{"cover":"FEW","base":3000},{"cover":"BKN","base":8000}],"obsTime":1775944800},"SBGO":{"icaoId":"SBGO","flightCategory":"VFR","rawOb":"METAR SBGO 112200Z 08006KT CAVOK 28/21 Q1016","temp":28,"dewp":21,"wdir":80,"wspd":6,"visib":"6+","altim":1016,"clouds":[],"obsTime":1775944800},"SBGR":{"icaoId":"SBGR","flightCategory":"VFR","rawOb":"METAR SBGR 112200Z 12005KT 9999 SCT040 19/15 Q1023","temp":19,"dewp":15,"wdir":120,"wspd":5,"visib":"6+","altim":1023,"clouds":[{"cover":"SCT","base":4000}],"obsTime":1775944800},"SBIL":{"icaoId":"SBIL","flightCategory":"VFR","rawOb":"METAR SBIL 112200Z 17006KT 140V200 9999 FEW020 28/23 Q1015","temp":28,"dewp":23,"wdir":170,"wspd":6,"visib":"6+","altim":1015,"clouds":[{"cover":"FEW","base":2000}],"obsTime":1775944800},"SBJU":{"icaoId":"SBJU","flightCategory":"VFR","rawOb":"METAR SBJU 112200Z 00000KT 9999 FEW022 27/21 Q1013","temp":27,"dewp":21,"wdir":0,"wspd":0,"visib":"6+","altim":1013,"clouds":[{"cover":"FEW","base":2200}],"obsTime":1775944800},"SBKP":{"icaoId":"SBKP","flightCategory":"VFR","rawOb":"METAR SBKP 112200Z 14014KT CAVOK 23/16 Q1020","temp":23,"dewp":16,"wdir":140,"wspd":14,"visib":"6+","altim":1020,"clouds":[],"obsTime":1775944800},"SBLO":{"icaoId":"SBLO","flightCategory":"VFR","rawOb":"METAR SBLO 112200Z 13006KT CAVOK 24/16 Q1018","temp":24,"dewp":16,"wdir":130,"wspd":6,"visib":"6+","altim":1018,"clouds":[],"obsTime":1775944800},"SBMA":{"icaoId":"SBMA","flightCategory":"VFR","rawOb":"METAR SBMA 112200Z 04002KT CAVOK 28/25 Q1011","temp":28,"dewp":25,"wdir":40,"wspd":2,"visib":"6+","altim":1011,"clouds":[],"obsTime":1775944800},"SBME":{"icaoId":"SBME","flightCategory":"VFR","rawOb":"METAR SBME 112200Z 28003KT 9999 FEW025 BKN100 24/20 Q1020","temp":24,"dewp":20,"wdir":280,"wspd":3,"visib":"6+","altim":1020,"clouds":[{"cover":"FEW","base":2500},{"cover":"BKN","base":10000}],"obsTime":1775944800},"SBMG":{"icaoId":"SBMG","flightCategory":"VFR","rawOb":"METAR SBMG 112200Z 10008KT CAVOK 25/16 Q1017","temp":25,"dewp":16,"wdir":100,"wspd":8,"visib":"6+","altim":1017,"clouds":[],"obsTime":1775944800},"SBMK":{"icaoId":"SBMK","flightCategory":"VFR","rawOb":"METAR SBMK 112200Z 15005KT 9999 SCT040 25/20 Q1018","temp":25,"dewp":20,"wdir":150,"wspd":5,"visib":"6+","altim":1018,"clouds":[{"cover":"SCT","base":4000}],"obsTime":1775944800},"SBMO":{"icaoId":"SBMO","flightCategory":"VFR","rawOb":"METAR SBMO 112200Z 10004KT 9999 FEW035 26/23 Q1013","temp":26,"dewp":23,"wdir":100,"wspd":4,"visib":"6+","altim":1013,"clouds":[{"cover":"FEW","base":3500}],"obsTime":1775944800},"SBMQ":{"icaoId":"SBMQ","flightCategory":"VFR","rawOb":"METAR SBMQ 112200Z 36004KT 9999 SCT023 BKN044 27/25 Q1011","temp":27,"dewp":25,"wdir":360,"wspd":4,"visib":"6+","altim":1011,"clouds":[{"cover":"SCT","base":2300},{"cover":"BKN","base":4400}],"obsTime":1775944800},"SBNT":{"icaoId":"SBNT","flightCategory":"VFR","rawOb":"METAR SBNT 112200Z 14005KT 9999 FEW019 28/25 Q1012","temp":28,"dewp":25,"wdir":140,"wspd":5,"visib":"6+","altim":1012,"clouds":[{"cover":"FEW","base":1900}],"obsTime":1775944800},"SBPA":{"icaoId":"SBPA","flightCategory":"VFR","rawOb":"METAR SBPA 112200Z 10013KT CAVOK 23/18 Q1016","temp":23,"dewp":18,"wdir":100,"wspd":13,"visib":"6+","altim":1016,"clouds":[],"obsTime":1775944800},"SBPJ":{"icaoId":"SBPJ","flightCategory":"VFR","rawOb":"METAR SBPJ 112200Z VRB01KT 9999 VCTS FEW015 FEW030CB SCT080 25/25 Q1012","temp":25,"dewp":25,"wdir":"VRB","wspd":1,"visib":"6+","altim":1012,"clouds":[{"cover":"FEW","base":1500},{"cover":"FEW","base":3000},{"cover":"SCT","base":8000}],"obsTime":1775944800},"SBPV":{"icaoId":"SBPV","flightCategory":"VFR","rawOb":"METAR SBPV 112200Z 00000KT CAVOK 28/25 Q1007","temp":28,"dewp":25,"wdir":0,"wspd":0,"visib":"6+","altim":1007,"clouds":[],"obsTime":1775944800},"SBRB":{"icaoId":"SBRB","flightCategory":"VFR","rawOb":"METAR SBRB 112200Z 19003KT 9999 FEW025 FEW040TCU SCT080 27/25 Q1009","temp":27,"dewp":25,"wdir":190,"wspd":3,"visib":"6+","altim":1009,"clouds":[{"cover":"FEW","base":2500},{"cover":"FEW","base":4000},{"cover":"SCT","base":8000}],"obsTime":1775944800},"SBRF":{"icaoId":"SBRF","flightCategory":"VFR","rawOb":"METAR SBRF 112200Z 15010KT 9999 SCT017 BKN090 28/25 Q1012","temp":28,"dewp":25,"wdir":150,"wspd":10,"visib":"6+","altim":1012,"clouds":[{"cover":"SCT","base":1700},{"cover":"BKN","base":9000}],"obsTime":1775944800},"SBSG":{"icaoId":"SBSG","flightCategory":"VFR","rawOb":"METAR SBSG 112200Z 13004KT 100V160 9999 SCT020 27/25 Q1012","temp":27,"dewp":25,"wdir":130,"wspd":4,"visib":"6+","altim":1012,"clouds":[{"cover":"SCT","base":2000}],"obsTime":1775944800},"SBSL":{"icaoId":"SBSL","flightCategory":"VFR","rawOb":"METAR SBSL 112200Z 06007KT 9999 FEW020 SCT070 27/24 Q1011","temp":27,"dewp":24,"wdir":60,"wspd":7,"visib":"6+","altim":1011,"clouds":[{"cover":"FEW","base":2000},{"cover":"SCT","base":7000}],"obsTime":1775944800},"SBSN":{"icaoId":"SBSN","flightCategory":"VFR","rawOb":"METAR SBSN 112200Z 07004KT 9999 FEW023 FEW040TCU 29/25 Q1009","temp":29,"dewp":25,"wdir":70,"wspd":4,"visib":"6+","altim":1009,"clouds":[{"cover":"FEW","base":2300},{"cover":"FEW","base":4000}],"obsTime":1775944800},"SBSP":{"icaoId":"SBSP","flightCategory":"VFR","rawOb":"METAR SBSP 112200Z 13010KT 9999 FEW046 18/15 Q1024","temp":18,"dewp":15,"wdir":130,"wspd":10,"visib":"6+","altim":1024,"clouds":[{"cover":"FEW","base":4600}],"obsTime":1775944800},"SBTE":{"icaoId":"SBTE","flightCategory":"VFR","rawOb":"METAR SBTE 112200Z 36003KT 9999 VCTS SCT020 FEW030CB 30/25 Q1010","temp":30,"dewp":25,"wdir":360,"wspd":3,"visib":"6+","altim":1010,"clouds":[{"cover":"SCT","base":2000},{"cover":"FEW","base":3000}],"obsTime":1775944800},"SBUL":{"icaoId":"SBUL","flightCategory":"VFR","rawOb":"METAR SBUL 112200Z 15004KT 9999 TS VCSH SCT035 FEW040CB 25/18 Q1019","temp":25,"dewp":18,"wdir":150,"wspd":4,"visib":"6+","altim":1019,"clouds":[{"cover":"SCT","base":3500},{"cover":"FEW","base":4000}],"obsTime":1775944800},"SBUR":{"icaoId":"SBUR","flightCategory":"VFR","rawOb":"METAR SBUR 112200Z 12008KT 9999 SCT048 FEW050TCU SCT100 26/19 Q1018","temp":26,"dewp":19,"wdir":120,"wspd":8,"visib":"6+","altim":1018,"clouds":[{"cover":"SCT","base":4800},{"cover":"FEW","base":5000},{"cover":"SCT","base":10000}],"obsTime":1775944800},"SBCP":{"icaoId":"SBCP","flightCategory":"VFR","rawOb":"METAR SBCP 112200Z 20007KT CAVOK 24/20 Q1020","temp":24,"dewp":20,"wdir":200,"wspd":7,"visib":"6+","altim":1020,"clouds":[],"obsTime":1775944800},"SBOI":{"icaoId":"SBOI","flightCategory":"VFR","rawOb":"METAR SBOI 112200Z AUTO 06006KT 020V110 9999 FEW026 SCT033 28/23 Q1012","temp":28,"dewp":23,"wdir":60,"wspd":6,"visib":"6+","altim":1012,"clouds":[{"cover":"FEW","base":2600},{"cover":"SCT","base":3300}],"obsTime":1775944800},"SBVH":{"icaoId":"SBVH","flightCategory":"VFR","rawOb":"METAR SBVH 112200Z 28003KT 9999 SCT040 25/23 Q1012","temp":25,"dewp":23,"wdir":280,"wspd":3,"visib":"6+","altim":1012,"clouds":[{"cover":"SCT","base":4000}],"obsTime":1775944800},"SBPL":{"icaoId":"SBPL","flightCategory":"MVFR","rawOb":"METAR SBPL 112200Z 13008KT 9999 -RA FEW022 BKN025 30/20 Q1012","temp":30,"dewp":20,"wdir":130,"wspd":8,"visib":"6+","altim":1012,"clouds":[{"cover":"FEW","base":2200},{"cover":"BKN","base":2500}],"obsTime":1775944800},"SBDN":{"icaoId":"SBDN","flightCategory":"VFR","rawOb":"METAR SBDN 112200Z 12004KT CAVOK 26/19 Q1016","temp":26,"dewp":19,"wdir":120,"wspd":4,"visib":"6+","altim":1016,"clouds":[],"obsTime":1775944800},"SBPS":{"icaoId":"SBPS","flightCategory":"VFR","rawOb":"METAR SBPS 112200Z VRB03KT 9999 FEW020 25/23 Q1016","temp":25,"dewp":23,"wdir":"VRB","wspd":3,"visib":"6+","altim":1016,"clouds":[{"cover":"FEW","base":2000}],"obsTime":1775944800},"SBBH":{"icaoId":"SBBH","flightCategory":"VFR","rawOb":"METAR SBBH 112200Z 10009KT CAVOK 22/18 Q1021","temp":22,"dewp":18,"wdir":100,"wspd":9,"visib":"6+","altim":1021,"clouds":[],"obsTime":1775944800},"SBSC":{"icaoId":"SBSC","flightCategory":"VFR","rawOb":"METAR SBSC 112200Z 18001KT 9999 FEW020 BKN080 23/20 Q1021","temp":23,"dewp":20,"wdir":180,"wspd":1,"visib":"6+","altim":1021,"clouds":[{"cover":"FEW","base":2000},{"cover":"BKN","base":8000}],"obsTime":1775944800},"SBES":{"icaoId":"SBES","flightCategory":"VFR","rawOb":"METAR SBES 112200Z VRB02KT 9999 FEW020 BKN080 23/// Q1021","temp":null,"dewp":null,"wdir":"VRB","wspd":2,"visib":"6+","altim":1021,"clouds":[{"cover":"FEW","base":2000},{"cover":"BKN","base":8000}],"obsTime":1775944800},"SBSJ":{"icaoId":"SBSJ","flightCategory":"VFR","rawOb":"METAR SBSJ 112200Z 13011KT 9999 SCT040 19/15 Q1021","temp":19,"dewp":15,"wdir":130,"wspd":11,"visib":"6+","altim":1021,"clouds":[{"cover":"SCT","base":4000}],"obsTime":1775944800},"SBAX":{"icaoId":"SBAX","flightCategory":"VFR","rawOb":"METAR SBAX 112200Z AUTO 11009KT CAVOK 23/18 Q1020","temp":23,"dewp":18,"wdir":110,"wspd":9,"visib":"6+","altim":1020,"clouds":[],"obsTime":1775944800},"SBAR":{"icaoId":"SBAR","flightCategory":"VFR","rawOb":"METAR SBAR 112200Z 12008KT 9999 VCSH SCT023 29/23 Q1013","temp":29,"dewp":23,"wdir":120,"wspd":8,"visib":"6+","altim":1013,"clouds":[{"cover":"SCT","base":2300}],"obsTime":1775944800},"SBSM":{"icaoId":"SBSM","flightCategory":"VFR","rawOb":"METAR SBSM 112200Z VRB02KT 9999 -RA BKN040 FEW045TCU OVC090 22/21 Q1015","temp":22,"dewp":21,"wdir":"VRB","wspd":2,"visib":"6+","altim":1015,"clouds":[{"cover":"BKN","base":4000},{"cover":"FEW","base":4500},{"cover":"OVC","base":9000}],"obsTime":1775944800},"SBSR":{"icaoId":"SBSR","flightCategory":"VFR","rawOb":"METAR SBSR 112200Z 17006KT 9999 FEW030 28/20 Q0101","temp":28,"dewp":20,"wdir":170,"wspd":6,"visib":"6+","altim":101,"clouds":[{"cover":"FEW","base":3000}],"obsTime":1775944800},"SBIP":{"icaoId":"SBIP","flightCategory":"VFR","rawOb":"METAR SBIP 112200Z AUTO 00000KT CAVOK 22/21 Q1018","temp":22,"dewp":21,"wdir":0,"wspd":0,"visib":"6+","altim":1018,"clouds":[],"obsTime":1775944800},"SBKG":{"icaoId":"SBKG","flightCategory":"VFR","rawOb":"METAR SBKG 112200Z 09008KT CAVOK 25/22 Q1015","temp":25,"dewp":22,"wdir":90,"wspd":8,"visib":"6+","altim":1015,"clouds":[],"obsTime":1775944800},"SBCO":{"icaoId":"SBCO","flightCategory":"VFR","rawOb":"METAR SBCO 112200Z 11010KT CAVOK 22/18 Q1016","temp":22,"dewp":18,"wdir":110,"wspd":10,"visib":"6+","altim":1016,"clouds":[],"obsTime":1775944800},"SBTT":{"icaoId":"SBTT","flightCategory":"MVFR","rawOb":"METAR SBTT 112200Z 24003KT 8000 FEW020 BKN090 25/23 Q1008","temp":25,"dewp":23,"wdir":240,"wspd":3,"visib":4.97,"altim":1008,"clouds":[{"cover":"FEW","base":2000},{"cover":"BKN","base":9000}],"obsTime":1775944800},"SBBU":{"icaoId":"SBBU","flightCategory":"VFR","rawOb":"METAR SBBU 112200Z 11008KT CAVOK 25/19 Q1018","temp":25,"dewp":19,"wdir":110,"wspd":8,"visib":"6+","altim":1018,"clouds":[],"obsTime":1775944800},"SBTF":{"icaoId":"SBTF","flightCategory":"VFR","rawOb":"METAR SBTF 112200Z 02006KT 9999 FEW022 FEW030TCU SCT100 29/26 Q1008 RETS","temp":29,"dewp":26,"wdir":20,"wspd":6,"visib":"6+","altim":1008,"clouds":[{"cover":"FEW","base":2200},{"cover":"FEW","base":3000},{"cover":"SCT","base":10000}],"obsTime":1775944800},"SBUY":{"icaoId":"SBUY","flightCategory":"VFR","rawOb":"METAR SBUY 112200Z 00000KT 9999 FEW006 FEW035TCU BKN080 25/24 Q1007","temp":25,"dewp":24,"wdir":0,"wspd":0,"visib":"6+","altim":1007,"clouds":[{"cover":"FEW","base":600},{"cover":"FEW","base":3500},{"cover":"BKN","base":8000}],"obsTime":1775944800},"SBCA":{"icaoId":"SBCA","flightCategory":"VFR","rawOb":"METAR SBCA 112200Z 08009KT CAVOK 22/17 Q1019","temp":22,"dewp":17,"wdir":80,"wspd":9,"visib":"6+","altim":1019,"clouds":[],"obsTime":1775944800},"SBPB":{"icaoId":"SBPB","flightCategory":"VFR","rawOb":"SPECI SBPB 112145Z 06009KT 9999 SCT016 BKN090 28/24 Q1011","temp":28,"dewp":24,"wdir":60,"wspd":9,"visib":"6+","altim":1011,"clouds":[{"cover":"SCT","base":1600},{"cover":"BKN","base":9000}],"obsTime":1775943900},"SBCJ":{"icaoId":"SBCJ","flightCategory":"MVFR","rawOb":"SPECI SBCJ 112130Z 00000KT 5000 BR FEW003 SCT100 22/21 Q1015","temp":22,"dewp":21,"wdir":0,"wspd":0,"visib":3.11,"altim":1015,"clouds":[{"cover":"FEW","base":300},{"cover":"SCT","base":10000}],"obsTime":1775943000},"SBJP":{"icaoId":"SBJP","flightCategory":"VFR","rawOb":"METAR SBJP 112200Z 15006KT CAVOK 27/24 Q1013","temp":27,"dewp":24,"wdir":150,"wspd":6,"visib":"6+","altim":1013,"clouds":[],"obsTime":1775944800},"SBAN":{"icaoId":"SBAN","flightCategory":"VFR","rawOb":"METAR SBAN 112200Z 16005KT 9999 FEW035 FEW040TCU 23/18 Q1019","temp":23,"dewp":18,"wdir":160,"wspd":5,"visib":"6+","altim":1019,"clouds":[{"cover":"FEW","base":3500},{"cover":"FEW","base":4000}],"obsTime":1775944800},"SBJV":{"icaoId":"SBJV","flightCategory":"VFR","rawOb":"METAR SBJV 112200Z 12007KT 9999 FEW015 SCT030 BKN050 23/21 Q1021","temp":23,"dewp":21,"wdir":120,"wspd":7,"visib":"6+","altim":1021,"clouds":[{"cover":"FEW","base":1500},{"cover":"SCT","base":3000},{"cover":"BKN","base":5000}],"obsTime":1775944800},"SBLE":{"icaoId":"SBLE","flightCategory":"VFR","rawOb":"METAR SBLE 112200Z AUTO VRB02KT CAVOK 23/23 Q1016","temp":23,"dewp":23,"wdir":"VRB","wspd":2,"visib":"6+","altim":1016,"clouds":[],"obsTime":1775944800},"SBAF":{"icaoId":"SBAF","flightCategory":"VFR","rawOb":"METAR SBAF 112200Z 19005KT 140V230 CAVOK 23/21 Q1021","temp":23,"dewp":21,"wdir":190,"wspd":5,"visib":"6+","altim":1021,"clouds":[],"obsTime":1775944800},"SBJR":{"icaoId":"SBJR","flightCategory":"VFR","rawOb":"METAR SBJR 112200Z 25002KT CAVOK 23/20 Q1020","temp":23,"dewp":20,"wdir":250,"wspd":2,"visib":"6+","altim":1020,"clouds":[],"obsTime":1775944800},"SBLS":{"icaoId":"SBLS","flightCategory":"VFR","rawOb":"METAR SBLS 112200Z 14010KT 9999 FEW020 21/18 Q1021","temp":21,"dewp":18,"wdir":140,"wspd":10,"visib":"6+","altim":1021,"clouds":[{"cover":"FEW","base":2000}],"obsTime":1775944800},"SBMT":{"icaoId":"SBMT","flightCategory":"VFR","rawOb":"METAR SBMT 112200Z 12008KT 9999 FEW020 19/15 Q1022","temp":19,"dewp":15,"wdir":120,"wspd":8,"visib":"6+","altim":1022,"clouds":[{"cover":"FEW","base":2000}],"obsTime":1775944800},"SBST":{"icaoId":"SBST","flightCategory":"VFR","rawOb":"METAR SBST 112200Z 16002KT 9999 FEW025 21/17 Q1020","temp":21,"dewp":17,"wdir":160,"wspd":2,"visib":"6+","altim":1020,"clouds":[{"cover":"FEW","base":2500}],"obsTime":1775944800},"SBIH":{"icaoId":"SBIH","flightCategory":"VFR","rawOb":"METAR SBIH 112200Z 31006KT 9999 VCTS SCT020 FEW025CB 29/26 Q1008","temp":29,"dewp":26,"wdir":310,"wspd":6,"visib":"6+","altim":1008,"clouds":[{"cover":"SCT","base":2000},{"cover":"FEW","base":2500}],"obsTime":1775944800},"SBGW":{"icaoId":"SBGW","flightCategory":"VFR","rawOb":"METAR SBGW 112200Z 11004KT 050V150 9999 BKN042 OVC060 22/13 Q1021","temp":22,"dewp":13,"wdir":110,"wspd":4,"visib":"6+","altim":1021,"clouds":[{"cover":"BKN","base":4200},{"cover":"OVC","base":6000}],"obsTime":1775944800}}}