{"updated":1775555740,"count":60,"data":{"SBMO":{"icaoId":"SBMO","flightCategory":"VFR","rawOb":"METAR SBMO 070800Z 28003KT 9999 SCT040 BKN080 22/22 Q1014","temp":22,"dewp":22,"wdir":280,"wspd":3,"visib":"6+","altim":1014,"clouds":[{"cover":"SCT","base":4000},{"cover":"BKN","base":8000}],"obsTime":1775548800},"SBLO":{"icaoId":"SBLO","flightCategory":"MVFR","rawOb":"METAR SBLO 070800Z 10004KT 9999 FEW009 BKN011 BKN080 21/20 Q1017","temp":21,"dewp":20,"wdir":100,"wspd":4,"visib":"6+","altim":1017,"clouds":[{"cover":"FEW","base":900},{"cover":"BKN","base":1100},{"cover":"BKN","base":8000}],"obsTime":1775548800},"SBCT":{"icaoId":"SBCT","flightCategory":"MVFR","rawOb":"METAR SBCT 070800Z 04004KT 9999 BKN010 19/18 Q1020","temp":19,"dewp":18,"wdir":40,"wspd":4,"visib":"6+","altim":1020,"clouds":[{"cover":"BKN","base":1000}],"obsTime":1775548800},"SBFL":{"icaoId":"SBFL","flightCategory":"IFR","rawOb":"METAR SBFL 070800Z 07011KT 040V100 4000 RA BR BKN014 OVC036 25/23 Q1015","temp":25,"dewp":23,"wdir":70,"wspd":11,"visib":2.49,"altim":1015,"clouds":[{"cover":"BKN","base":1400},{"cover":"OVC","base":3600}],"obsTime":1775548800},"SBGR":{"icaoId":"SBGR","flightCategory":"MVFR","rawOb":"METAR SBGR 070800Z 04003KT 9999 OVC015 22/19 Q1019","temp":22,"dewp":19,"wdir":40,"wspd":3,"visib":"6+","altim":1019,"clouds":[{"cover":"OVC","base":1500}],"obsTime":1775548800},"SBCG":{"icaoId":"SBCG","flightCategory":"VFR","rawOb":"METAR SBCG 070800Z 08003KT CAVOK 22/20 Q1014","temp":22,"dewp":20,"wdir":80,"wspd":3,"visib":"6+","altim":1014,"clouds":[],"obsTime":1775548800},"SBVT":{"icaoId":"SBVT","flightCategory":"MVFR","rawOb":"METAR SBVT 070800Z 27003KT 9999 BKN020 23/22 Q1016","temp":23,"dewp":22,"wdir":270,"wspd":3,"visib":"6+","altim":1016,"clouds":[{"cover":"BKN","base":2000}],"obsTime":1775548800},"SBBR":{"icaoId":"SBBR","flightCategory":"VFR","rawOb":"METAR SBBR 070800Z 20004KT 9999 FEW040 BKN090 20/18 Q1019","temp":20,"dewp":18,"wdir":200,"wspd":4,"visib":"6+","altim":1019,"clouds":[{"cover":"FEW","base":4000},{"cover":"BKN","base":9000}],"obsTime":1775548800},"SBBV":{"icaoId":"SBBV","flightCategory":"VFR","rawOb":"METAR SBBV 070800Z 10008KT 9999 FEW040 SCT100 26/23 Q1010","temp":26,"dewp":23,"wdir":100,"wspd":8,"visib":"6+","altim":1010,"clouds":[{"cover":"FEW","base":4000},{"cover":"SCT","base":10000}],"obsTime":1775548800},"SBCB":{"icaoId":"SBCB","flightCategory":"VFR","rawOb":"METAR SBCB 070900Z 08004KT CAVOK 23/22 Q1017","temp":23,"dewp":22,"wdir":80,"wspd":4,"visib":"6+","altim":1017,"clouds":[],"obsTime":1775552400},"SBCF":{"icaoId":"SBCF","flightCategory":"VFR","rawOb":"METAR SBCF 070800Z 14005KT CAVOK 20/18 Q1020","temp":20,"dewp":18,"wdir":140,"wspd":5,"visib":"6+","altim":1020,"clouds":[],"obsTime":1775548800},"SBEG":{"icaoId":"SBEG","flightCategory":"VFR","rawOb":"METAR SBEG 070800Z 08002KT CAVOK 25/24 Q1010","temp":25,"dewp":24,"wdir":80,"wspd":2,"visib":"6+","altim":1010,"clouds":[],"obsTime":1775548800},"SBFI":{"icaoId":"SBFI","flightCategory":"VFR","rawOb":"METAR SBFI 070800Z 06005KT 9999 FEW030TCU BKN100 25/22 Q1010","temp":25,"dewp":22,"wdir":60,"wspd":5,"visib":"6+","altim":1010,"clouds":[{"cover":"FEW","base":3000},{"cover":"BKN","base":10000}],"obsTime":1775548800},"SBFZ":{"icaoId":"SBFZ","flightCategory":"VFR","rawOb":"METAR SBFZ 070800Z 00000KT 9999 FEW020 BKN050 24/23 Q1011 RETS","temp":24,"dewp":23,"wdir":0,"wspd":0,"visib":"6+","altim":1011,"clouds":[{"cover":"FEW","base":2000},{"cover":"BKN","base":5000}],"obsTime":1775548800},"SBGL":{"icaoId":"SBGL","flightCategory":"VFR","rawOb":"METAR SBGL 070800Z COR 05002KT 9999 FEW020 SCT070 24/22 Q1016","temp":24,"dewp":22,"wdir":50,"wspd":2,"visib":"6+","altim":1016,"clouds":[{"cover":"FEW","base":2000},{"cover":"SCT","base":7000}],"obsTime":1775548800},"SBGO":{"icaoId":"SBGO","flightCategory":"VFR","rawOb":"METAR SBGO 070800Z 15003KT CAVOK 22/20 Q1018","temp":22,"dewp":20,"wdir":150,"wspd":3,"visib":"6+","altim":1018,"clouds":[],"obsTime":1775548800},"SBJU":{"icaoId":"SBJU","flightCategory":"VFR","rawOb":"METAR SBJU 070800Z 00000KT 9999 SCT020 23/23 Q1014","temp":23,"dewp":23,"wdir":0,"wspd":0,"visib":"6+","altim":1014,"clouds":[{"cover":"SCT","base":2000}],"obsTime":1775548800},"SBKP":{"icaoId":"SBKP","flightCategory":"VFR","rawOb":"METAR SBKP 070800Z 07003KT 030V110 9999 -RA FEW014 SCT040 21/20 Q1019","temp":21,"dewp":20,"wdir":70,"wspd":3,"visib":"6+","altim":1019,"clouds":[{"cover":"FEW","base":1400},{"cover":"SCT","base":4000}],"obsTime":1775548800},"SBMA":{"icaoId":"SBMA","flightCategory":"VFR","rawOb":"METAR SBMA 070800Z 18003KT CAVOK 24/23 Q1011","temp":24,"dewp":23,"wdir":180,"wspd":3,"visib":"6+","altim":1011,"clouds":[],"obsTime":1775548800},"SBME":{"icaoId":"SBME","flightCategory":"VFR","rawOb":"METAR SBME 070800Z 19001KT CAVOK 22/21 Q1017","temp":22,"dewp":21,"wdir":190,"wspd":1,"visib":"6+","altim":1017,"clouds":[],"obsTime":1775548800},"SBMG":{"icaoId":"SBMG","flightCategory":"VFR","rawOb":"METAR SBMG 070900Z AUTO 05010KT CAVOK 22/20 Q1015","temp":22,"dewp":20,"wdir":50,"wspd":10,"visib":"6+","altim":1015,"clouds":[],"obsTime":1775552400},"SBMK":{"icaoId":"SBMK","flightCategory":"VFR","rawOb":"METAR SBMK 070800Z 00000KT CAVOK 20/19 Q1018","temp":20,"dewp":19,"wdir":0,"wspd":0,"visib":"6+","altim":1018,"clouds":[],"obsTime":1775548800},"SBMQ":{"icaoId":"SBMQ","flightCategory":"MVFR","rawOb":"METAR SBMQ 070800Z 09004KT 9999 BKN011 27/26 Q1010","temp":27,"dewp":26,"wdir":90,"wspd":4,"visib":"6+","altim":1010,"clouds":[{"cover":"BKN","base":1100}],"obsTime":1775548800},"SBNT":{"icaoId":"SBNT","flightCategory":"VFR","rawOb":"METAR SBNT 070800Z 18004KT 9999 FEW019 SCT030 BKN036 24/23 Q1012","temp":24,"dewp":23,"wdir":180,"wspd":4,"visib":"6+","altim":1012,"clouds":[{"cover":"FEW","base":1900},{"cover":"SCT","base":3000},{"cover":"BKN","base":3600}],"obsTime":1775548800},"SBPA":{"icaoId":"SBPA","flightCategory":"VFR","rawOb":"METAR SBPA 070800Z 09010KT 9999 SCT040 BKN100 23/21 Q1010","temp":23,"dewp":21,"wdir":90,"wspd":10,"visib":"6+","altim":1010,"clouds":[{"cover":"SCT","base":4000},{"cover":"BKN","base":10000}],"obsTime":1775548800},"SBPJ":{"icaoId":"SBPJ","flightCategory":"VFR","rawOb":"METAR SBPJ 070800Z 13003KT CAVOK 24/23 Q1013","temp":24,"dewp":23,"wdir":130,"wspd":3,"visib":"6+","altim":1013,"clouds":[],"obsTime":1775548800},"SBPV":{"icaoId":"SBPV","flightCategory":"MVFR","rawOb":"METAR SBPV 070800Z 20001KT 9999 -TSRA BKN030 FEW035CB BKN070 24/23 Q1011","temp":24,"dewp":23,"wdir":200,"wspd":1,"visib":"6+","altim":1011,"clouds":[{"cover":"BKN","base":3000},{"cover":"FEW","base":3500},{"cover":"BKN","base":7000}],"obsTime":1775548800},"SBRB":{"icaoId":"SBRB","flightCategory":"VFR","rawOb":"METAR SBRB 070800Z 12003KT 9999 FEW011 SCT080 23/22 Q1011","temp":23,"dewp":22,"wdir":120,"wspd":3,"visib":"6+","altim":1011,"clouds":[{"cover":"FEW","base":1100},{"cover":"SCT","base":8000}],"obsTime":1775548800},"SBRF":{"icaoId":"SBRF","flightCategory":"IFR","rawOb":"METAR SBRF 070800Z 20006KT 2000 RA BR SCT006 BKN010 OVC015 24/24 Q1013","temp":24,"dewp":24,"wdir":200,"wspd":6,"visib":1.24,"altim":1013,"clouds":[{"cover":"SCT","base":600},{"cover":"BKN","base":1000},{"cover":"OVC","base":1500}],"obsTime":1775548800},"SBSG":{"icaoId":"SBSG","flightCategory":"MVFR","rawOb":"METAR SBSG 070800Z 18003KT 9999 BKN010 SCT023 23/23 Q1012","temp":23,"dewp":23,"wdir":180,"wspd":3,"visib":"6+","altim":1012,"clouds":[{"cover":"BKN","base":1000},{"cover":"SCT","base":2300}],"obsTime":1775548800},"SBSL":{"icaoId":"SBSL","flightCategory":"VFR","rawOb":"METAR SBSL 070800Z 13004KT CAVOK 25/24 Q1010","temp":25,"dewp":24,"wdir":130,"wspd":4,"visib":"6+","altim":1010,"clouds":[],"obsTime":1775548800},"SBSN":{"icaoId":"SBSN","flightCategory":"VFR","rawOb":"METAR SBSN 070800Z 12005KT 9999 SCT010 OVC100 25/24 Q1009","temp":25,"dewp":24,"wdir":120,"wspd":5,"visib":"6+","altim":1009,"clouds":[{"cover":"SCT","base":1000},{"cover":"OVC","base":10000}],"obsTime":1775548800},"SBSP":{"icaoId":"SBSP","flightCategory":"VFR","rawOb":"METAR SBSP 070800Z AUTO 06003KT 9999 FEW015 21/20 Q1020","temp":21,"dewp":20,"wdir":60,"wspd":3,"visib":"6+","altim":1020,"clouds":[{"cover":"FEW","base":1500}],"obsTime":1775548800},"SBSV":{"icaoId":"SBSV","flightCategory":"VFR","rawOb":"METAR SBSV 070800Z 05005KT 020V080 9999 FEW020 26/22 Q1014","temp":26,"dewp":22,"wdir":50,"wspd":5,"visib":"6+","altim":1014,"clouds":[{"cover":"FEW","base":2000}],"obsTime":1775548800},"SBTE":{"icaoId":"SBTE","flightCategory":"LIFR","rawOb":"METAR SBTE 070800Z 00000KT 0600 FG BKN003 24/24 Q1010","temp":24,"dewp":24,"wdir":0,"wspd":0,"visib":0.37,"altim":1010,"clouds":[{"cover":"BKN","base":300}],"obsTime":1775548800},"SBUL":{"icaoId":"SBUL","flightCategory":"VFR","rawOb":"METAR SBUL 070800Z 22005KT CAVOK 20/19 Q1019","temp":20,"dewp":19,"wdir":220,"wspd":5,"visib":"6+","altim":1019,"clouds":[],"obsTime":1775548800},"SBUR":{"icaoId":"SBUR","flightCategory":"LIFR","rawOb":"METAR SBUR 070800Z 23005KT 9999 BKN003 20/19 Q1019","temp":20,"dewp":19,"wdir":230,"wspd":5,"visib":"6+","altim":1019,"clouds":[{"cover":"BKN","base":300}],"obsTime":1775548800},"SBBE":{"icaoId":"SBBE","flightCategory":"VFR","rawOb":"METAR SBBE 070800Z 02003KT CAVOK 24/24 Q1012","temp":24,"dewp":24,"wdir":20,"wspd":3,"visib":"6+","altim":1012,"clouds":[],"obsTime":1775548800},"SBSJ":{"icaoId":"SBSJ","flightCategory":"IFR","rawOb":"SPECI SBSJ 070830Z 02004KT 340V080 4000 BR FEW012 BKN020 22/20 Q1019","temp":22,"dewp":20,"wdir":20,"wspd":4,"visib":2.49,"altim":1019,"clouds":[{"cover":"FEW","base":1200},{"cover":"BKN","base":2000}],"obsTime":1775550600},"SBSC":{"icaoId":"SBSC","flightCategory":"MVFR","rawOb":"METAR SBSC 070800Z 02004KT 5000 BR BKN020 23/22 Q1016","temp":23,"dewp":22,"wdir":20,"wspd":4,"visib":3.11,"altim":1016,"clouds":[{"cover":"BKN","base":2000}],"obsTime":1775548800},"SBPS":{"icaoId":"SBPS","flightCategory":"MVFR","rawOb":"METAR SBPS 070800Z 27002KT 6000 -RA BKN015 24/23 Q1016","temp":24,"dewp":23,"wdir":270,"wspd":2,"visib":3.73,"altim":1016,"clouds":[{"cover":"BKN","base":1500}],"obsTime":1775548800},"SBES":{"icaoId":"SBES","flightCategory":"VFR","rawOb":"METAR SBES 070900Z 05003KT 010V080 9999 FEW020 20/// Q1017","temp":null,"dewp":null,"wdir":50,"wspd":3,"visib":"6+","altim":1017,"clouds":[{"cover":"FEW","base":2000}],"obsTime":1775552400},"SBSM":{"icaoId":"SBSM","flightCategory":"MVFR","rawOb":"METAR SBSM 070900Z 04006KT 010V070 6000 RA VCTS FEW040 FEW045CB OVC100 20/20 Q1009","temp":20,"dewp":20,"wdir":40,"wspd":6,"visib":3.73,"altim":1009,"clouds":[{"cover":"FEW","base":4000},{"cover":"FEW","base":4500},{"cover":"OVC","base":10000}],"obsTime":1775552400},"SBSR":{"icaoId":"SBSR","flightCategory":"VFR","rawOb":"METAR SBSR 070800Z 10004KT 9999 FEW040 SCT060 22/20 Q1017","temp":22,"dewp":20,"wdir":100,"wspd":4,"visib":"6+","altim":1017,"clouds":[{"cover":"FEW","base":4000},{"cover":"SCT","base":6000}],"obsTime":1775548800},"SBAR":{"icaoId":"SBAR","flightCategory":"VFR","rawOb":"METAR SBAR 070800Z 11012KT 9999 FEW015 27/24 Q1013","temp":27,"dewp":24,"wdir":110,"wspd":12,"visib":"6+","altim":1013,"clouds":[{"cover":"FEW","base":1500}],"obsTime":1775548800},"SBKG":{"icaoId":"SBKG","flightCategory":"VFR","rawOb":"METAR SBKG 070800Z 16005KT CAVOK 22/20 Q1015","temp":22,"dewp":20,"wdir":160,"wspd":5,"visib":"6+","altim":1015,"clouds":[],"obsTime":1775548800},"SBBU":{"icaoId":"SBBU","flightCategory":"IFR","rawOb":"METAR SBBU 070900Z 08006KT 9999 BKN005 21/20 Q1017","temp":21,"dewp":20,"wdir":80,"wspd":6,"visib":"6+","altim":1017,"clouds":[{"cover":"BKN","base":500}],"obsTime":1775552400},"SBCO":{"icaoId":"SBCO","flightCategory":"VFR","rawOb":"METAR SBCO 070900Z 09005KT 9999 BKN040 21/20 Q1011","temp":21,"dewp":20,"wdir":90,"wspd":5,"visib":"6+","altim":1011,"clouds":[{"cover":"BKN","base":4000}],"obsTime":1775552400},"SBOI":{"icaoId":"SBOI","flightCategory":"VFR","rawOb":"METAR SBOI 070800Z AUTO VRB01KT 9999 // FEW020/// BKN032/// BKN056/// 25/24 Q1011","temp":25,"dewp":24,"wdir":"VRB","wspd":1,"visib":"6+","altim":1011,"clouds":[{"cover":"FEW","base":2000},{"cover":"BKN","base":3200},{"cover":"BKN","base":5600}],"obsTime":1775548800},"SBBH":{"icaoId":"SBBH","flightCategory":"VFR","rawOb":"METAR SBBH 070900Z 09004KT CAVOK 20/18 Q1020","temp":20,"dewp":18,"wdir":90,"wspd":4,"visib":"6+","altim":1020,"clouds":[],"obsTime":1775552400},"SBPL":{"icaoId":"SBPL","flightCategory":"VFR","rawOb":"METAR SBPL 070800Z 11011KT 9999 FEW025 25/21 Q1015","temp":25,"dewp":21,"wdir":110,"wspd":11,"visib":"6+","altim":1015,"clouds":[{"cover":"FEW","base":2500}],"obsTime":1775548800},"SBDN":{"icaoId":"SBDN","flightCategory":"VFR","rawOb":"METAR SBDN 070800Z 07007KT CAVOK 21/20 Q1015","temp":21,"dewp":20,"wdir":70,"wspd":7,"visib":"6+","altim":1015,"clouds":[],"obsTime":1775548800},"SBJP":{"icaoId":"SBJP","flightCategory":"MVFR","rawOb":"METAR SBJP 070800Z VRB09KT 9999 -RA SCT018 BKN030 OVC080 24/23 Q1013","temp":24,"dewp":23,"wdir":"VRB","wspd":9,"visib":"6+","altim":1013,"clouds":[{"cover":"SCT","base":1800},{"cover":"BKN","base":3000},{"cover":"OVC","base":8000}],"obsTime":1775548800},"SBLS":{"icaoId":"SBLS","flightCategory":"VFR","rawOb":"METAR SBLS 070900Z 15008KT CAVOK 19/18 Q1020","temp":19,"dewp":18,"wdir":150,"wspd":8,"visib":"6+","altim":1020,"clouds":[],"obsTime":1775552400},"SBMT":{"icaoId":"SBMT","flightCategory":"IFR","rawOb":"METAR SBMT 070900Z 36004KT 310V050 3500 -RA SCT013 BKN019 21/19 Q1019","temp":21,"dewp":19,"wdir":360,"wspd":4,"visib":2.17,"altim":1019,"clouds":[{"cover":"SCT","base":1300},{"cover":"BKN","base":1900}],"obsTime":1775552400},"SBTA":{"icaoId":"SBTA","flightCategory":"MVFR","rawOb":"METAR SBTA 070900Z 00000KT 7000 SCT010 BKN017 20/20 Q1018","temp":20,"dewp":20,"wdir":0,"wspd":0,"visib":4.35,"altim":1018,"clouds":[{"cover":"SCT","base":1000},{"cover":"BKN","base":1700}],"obsTime":1775552400},"SBJV":{"icaoId":"SBJV","flightCategory":"VFR","rawOb":"METAR SBJV 070900Z 00000KT 9999 SCT004 22/22 Q1015","temp":22,"dewp":22,"wdir":0,"wspd":0,"visib":"6+","altim":1015,"clouds":[{"cover":"SCT","base":400}],"obsTime":1775552400},"SBPF":{"icaoId":"SBPF","flightCategory":"VFR","rawOb":"METAR SBPF 070900Z 06010KT CAVOK 19/17 Q1014","temp":19,"dewp":17,"wdir":60,"wspd":10,"visib":"6+","altim":1014,"clouds":[],"obsTime":1775552400},"SBAN":{"icaoId":"SBAN","flightCategory":"VFR","rawOb":"METAR SBAN 070800Z 12003KT 9999 FEW040 SCT100 21/15 Q1022","temp":21,"dewp":15,"wdir":120,"wspd":3,"visib":"6+","altim":1022,"clouds":[{"cover":"FEW","base":4000},{"cover":"SCT","base":10000}],"obsTime":1775548800},"SBGW":{"icaoId":"SBGW","flightCategory":"IFR","rawOb":"METAR SBGW 070900Z VRB02KT 3000 BR OVC012 21/18 Q1019","temp":21,"dewp":18,"wdir":"VRB","wspd":2,"visib":1.86,"altim":1019,"clouds":[{"cover":"OVC","base":1200}],"obsTime":1775552400}}}