{"updated":1774627796,"count":86,"data":{"SBCZ":{"icaoId":"SBCZ","flightCategory":"MVFR","rawOb":"METAR SBCZ 271500Z 36002KT 9999 BKN015 BKN100 26/22 Q1013","temp":26,"dewp":22,"wdir":360,"wspd":2,"visib":"6+","altim":1013,"clouds":[{"cover":"BKN","base":1500},{"cover":"BKN","base":10000}],"obsTime":1774623600},"SBBE":{"icaoId":"SBBE","flightCategory":"VFR","rawOb":"METAR SBBE 271500Z 10010KT 9999 SCT030 31/22 Q1011","temp":31,"dewp":22,"wdir":100,"wspd":10,"visib":"6+","altim":1011,"clouds":[{"cover":"SCT","base":3000}],"obsTime":1774623600},"SBBR":{"icaoId":"SBBR","flightCategory":"MVFR","rawOb":"METAR SBBR 271500Z 10014KT 9999 FEW025 BKN030 24/18 Q1021","temp":24,"dewp":18,"wdir":100,"wspd":14,"visib":"6+","altim":1021,"clouds":[{"cover":"FEW","base":2500},{"cover":"BKN","base":3000}],"obsTime":1774623600},"SBBV":{"icaoId":"SBBV","flightCategory":"MVFR","rawOb":"METAR SBBV 271500Z 12004KT 9999 BKN030 FEW045TCU 29/22 Q1012","temp":29,"dewp":22,"wdir":120,"wspd":4,"visib":"6+","altim":1012,"clouds":[{"cover":"BKN","base":3000},{"cover":"FEW","base":4500}],"obsTime":1774623600},"SBCB":{"icaoId":"SBCB","flightCategory":"VFR","rawOb":"METAR SBCB 271500Z 07014KT 9999 FEW015 29/22 Q1019","temp":29,"dewp":22,"wdir":70,"wspd":14,"visib":"6+","altim":1019,"clouds":[{"cover":"FEW","base":1500}],"obsTime":1774623600},"SBCF":{"icaoId":"SBCF","flightCategory":"VFR","rawOb":"METAR SBCF 271500Z 10010KT 070V140 9999 SCT030 26/15 Q1022","temp":26,"dewp":15,"wdir":100,"wspd":10,"visib":"6+","altim":1022,"clouds":[{"cover":"SCT","base":3000}],"obsTime":1774623600},"SBCG":{"icaoId":"SBCG","flightCategory":"VFR","rawOb":"METAR SBCG 271500Z 33005KT 280V040 9999 SCT035 29/20 Q1017","temp":29,"dewp":20,"wdir":330,"wspd":5,"visib":"6+","altim":1017,"clouds":[{"cover":"SCT","base":3500}],"obsTime":1774623600},"SBCP":{"icaoId":"SBCP","flightCategory":"VFR","rawOb":"METAR SBCP 271500Z 10010KT 9999 SCT020 SCT090 30/23 Q1018","temp":30,"dewp":23,"wdir":100,"wspd":10,"visib":"6+","altim":1018,"clouds":[{"cover":"SCT","base":2000},{"cover":"SCT","base":9000}],"obsTime":1774623600},"SBCR":{"icaoId":"SBCR","flightCategory":"MVFR","rawOb":"METAR SBCR 271500Z 09004KT 360V130 9999 SCT018 BKN030 28/23 Q1014","temp":28,"dewp":23,"wdir":90,"wspd":4,"visib":"6+","altim":1014,"clouds":[{"cover":"SCT","base":1800},{"cover":"BKN","base":3000}],"obsTime":1774623600},"SBCT":{"icaoId":"SBCT","flightCategory":"VFR","rawOb":"METAR SBCT 271500Z 05008KT 9999 SCT020 26/19 Q1023","temp":26,"dewp":19,"wdir":50,"wspd":8,"visib":"6+","altim":1023,"clouds":[{"cover":"SCT","base":2000}],"obsTime":1774623600},"SBEG":{"icaoId":"SBEG","flightCategory":"MVFR","rawOb":"METAR SBEG 271500Z 12010KT 9999 BKN025 FEW030TCU 31/25 Q1011","temp":31,"dewp":25,"wdir":120,"wspd":10,"visib":"6+","altim":1011,"clouds":[{"cover":"BKN","base":2500},{"cover":"FEW","base":3000}],"obsTime":1774623600},"SBFI":{"icaoId":"SBFI","flightCategory":"VFR","rawOb":"METAR SBFI 271500Z 03009KT 9999 SCT035 32/23 Q1016","temp":32,"dewp":23,"wdir":30,"wspd":9,"visib":"6+","altim":1016,"clouds":[{"cover":"SCT","base":3500}],"obsTime":1774623600},"SBFL":{"icaoId":"SBFL","flightCategory":"VFR","rawOb":"METAR SBFL 271500Z 35010KT 320V020 9999 FEW040 31/24 Q1017","temp":31,"dewp":24,"wdir":350,"wspd":10,"visib":"6+","altim":1017,"clouds":[{"cover":"FEW","base":4000}],"obsTime":1774623600},"SBFZ":{"icaoId":"SBFZ","flightCategory":"MVFR","rawOb":"METAR SBFZ 271500Z 10011KT 9999 BKN030 30/23 Q1010","temp":30,"dewp":23,"wdir":100,"wspd":11,"visib":"6+","altim":1010,"clouds":[{"cover":"BKN","base":3000}],"obsTime":1774623600},"SBGL":{"icaoId":"SBGL","flightCategory":"VFR","rawOb":"METAR SBGL 271500Z 11011KT 9999 FEW023 31/19 Q1017","temp":31,"dewp":19,"wdir":110,"wspd":11,"visib":"6+","altim":1017,"clouds":[{"cover":"FEW","base":2300}],"obsTime":1774623600},"SBGO":{"icaoId":"SBGO","flightCategory":"VFR","rawOb":"METAR SBGO 271500Z 09010KT 9999 BKN046 28/19 Q1019","temp":28,"dewp":19,"wdir":90,"wspd":10,"visib":"6+","altim":1019,"clouds":[{"cover":"BKN","base":4600}],"obsTime":1774623600},"SBGR":{"icaoId":"SBGR","flightCategory":"VFR","rawOb":"METAR SBGR 271500Z 07006KT 9999 FEW030 28/17 Q1022","temp":28,"dewp":17,"wdir":70,"wspd":6,"visib":"6+","altim":1022,"clouds":[{"cover":"FEW","base":3000}],"obsTime":1774623600},"SBKP":{"icaoId":"SBKP","flightCategory":"VFR","rawOb":"METAR SBKP 271500Z VRB04KT 9999 FEW040 30/16 Q1020","temp":30,"dewp":16,"wdir":"VRB","wspd":4,"visib":"6+","altim":1020,"clouds":[{"cover":"FEW","base":4000}],"obsTime":1774623600},"SBLO":{"icaoId":"SBLO","flightCategory":"VFR","rawOb":"METAR SBLO 271500Z 06006KT 9999 SCT035 30/21 Q1019","temp":30,"dewp":21,"wdir":60,"wspd":6,"visib":"6+","altim":1019,"clouds":[{"cover":"SCT","base":3500}],"obsTime":1774623600},"SBMA":{"icaoId":"SBMA","flightCategory":"VFR","rawOb":"METAR SBMA 271500Z 04002KT 9999 SCT018 FEW025TCU SCT100 29/24 Q1012","temp":29,"dewp":24,"wdir":40,"wspd":2,"visib":"6+","altim":1012,"clouds":[{"cover":"SCT","base":1800},{"cover":"FEW","base":2500},{"cover":"SCT","base":10000}],"obsTime":1774623600},"SBMO":{"icaoId":"SBMO","flightCategory":"MVFR","rawOb":"SPECI SBMO 271422Z 13010KT 110V170 6000 VCSH FEW010 SCT020 BKN080 28/25 Q1012 RERA","temp":28,"dewp":25,"wdir":130,"wspd":10,"visib":3.73,"altim":1012,"clouds":[{"cover":"FEW","base":1000},{"cover":"SCT","base":2000},{"cover":"BKN","base":8000}],"obsTime":1774621320},"SBMQ":{"icaoId":"SBMQ","flightCategory":"VFR","rawOb":"METAR SBMQ 271500Z 06010KT 9999 FEW020 FEW025TCU 31/25 Q1011","temp":31,"dewp":25,"wdir":60,"wspd":10,"visib":"6+","altim":1011,"clouds":[{"cover":"FEW","base":2000},{"cover":"FEW","base":2500}],"obsTime":1774623600},"SBNT":{"icaoId":"SBNT","flightCategory":"VFR","rawOb":"METAR SBNT 271500Z 10014KT 9999 BKN035 32/23 Q1010","temp":32,"dewp":23,"wdir":100,"wspd":14,"visib":"6+","altim":1010,"clouds":[{"cover":"BKN","base":3500}],"obsTime":1774623600},"SBPA":{"icaoId":"SBPA","flightCategory":"VFR","rawOb":"METAR SBPA 271500Z 08004KT 030V150 9999 FEW020 31/23 Q1016","temp":31,"dewp":23,"wdir":80,"wspd":4,"visib":"6+","altim":1016,"clouds":[{"cover":"FEW","base":2000}],"obsTime":1774623600},"SBPJ":{"icaoId":"SBPJ","flightCategory":"VFR","rawOb":"METAR SBPJ 271500Z 11006KT 9999 SCT027 31/23 Q1013","temp":31,"dewp":23,"wdir":110,"wspd":6,"visib":"6+","altim":1013,"clouds":[{"cover":"SCT","base":2700}],"obsTime":1774623600},"SBPV":{"icaoId":"SBPV","flightCategory":"VFR","rawOb":"METAR SBPV 271500Z 25002KT 9999 FEW015 BKN090 29/23 Q1012","temp":29,"dewp":23,"wdir":250,"wspd":2,"visib":"6+","altim":1012,"clouds":[{"cover":"FEW","base":1500},{"cover":"BKN","base":9000}],"obsTime":1774623600},"SBRB":{"icaoId":"SBRB","flightCategory":"VFR","rawOb":"METAR SBRB 271500Z 29005KT 9999 SCT015 BKN100 28/24 Q1012","temp":28,"dewp":24,"wdir":290,"wspd":5,"visib":"6+","altim":1012,"clouds":[{"cover":"SCT","base":1500},{"cover":"BKN","base":10000}],"obsTime":1774623600},"SBRF":{"icaoId":"SBRF","flightCategory":"VFR","rawOb":"METAR SBRF 271500Z 15012KT 9999 SCT021 30/24 Q1010","temp":30,"dewp":24,"wdir":150,"wspd":12,"visib":"6+","altim":1010,"clouds":[{"cover":"SCT","base":2100}],"obsTime":1774623600},"SBSG":{"icaoId":"SBSG","flightCategory":"MVFR","rawOb":"METAR SBSG 271500Z 11010KT 080V150 9999 BKN030 31/22 Q1010","temp":31,"dewp":22,"wdir":110,"wspd":10,"visib":"6+","altim":1010,"clouds":[{"cover":"BKN","base":3000}],"obsTime":1774623600},"SBSL":{"icaoId":"SBSL","flightCategory":"MVFR","rawOb":"METAR SBSL 271500Z 08007KT 9999 BKN013 BKN070 28/24 Q1011","temp":28,"dewp":24,"wdir":80,"wspd":7,"visib":"6+","altim":1011,"clouds":[{"cover":"BKN","base":1300},{"cover":"BKN","base":7000}],"obsTime":1774623600},"SBSN":{"icaoId":"SBSN","flightCategory":"MVFR","rawOb":"METAR SBSN 271500Z 08010KT 9999 BKN019 SCT100 29/26 Q1011","temp":29,"dewp":26,"wdir":80,"wspd":10,"visib":"6+","altim":1011,"clouds":[{"cover":"BKN","base":1900},{"cover":"SCT","base":10000}],"obsTime":1774623600},"SBSP":{"icaoId":"SBSP","flightCategory":"VFR","rawOb":"METAR SBSP 271500Z 10005KT 350V150 CAVOK 28/15 Q1022","temp":28,"dewp":15,"wdir":100,"wspd":5,"visib":"6+","altim":1022,"clouds":[],"obsTime":1774623600},"SBSV":{"icaoId":"SBSV","flightCategory":"VFR","rawOb":"SPECI SBSV 271415Z 13010KT 100V160 9999 2000NE SHRA SCT021 FEW025TCU 27/23 Q1014","temp":27,"dewp":23,"wdir":130,"wspd":10,"visib":"6+","altim":1014,"clouds":[{"cover":"SCT","base":2100},{"cover":"FEW","base":2500}],"obsTime":1774620900},"SBTE":{"icaoId":"SBTE","flightCategory":"MVFR","rawOb":"METAR SBTE 271500Z 11004KT 9999 BKN020 BKN100 32/24 Q1010","temp":32,"dewp":24,"wdir":110,"wspd":4,"visib":"6+","altim":1010,"clouds":[{"cover":"BKN","base":2000},{"cover":"BKN","base":10000}],"obsTime":1774623600},"SBVT":{"icaoId":"SBVT","flightCategory":"VFR","rawOb":"METAR SBVT 271500Z 17006KT 9999 FEW040 28/24 Q1018","temp":28,"dewp":24,"wdir":170,"wspd":6,"visib":"6+","altim":1018,"clouds":[{"cover":"FEW","base":4000}],"obsTime":1774623600},"SBIL":{"icaoId":"SBIL","flightCategory":"VFR","rawOb":"METAR SBIL 271500Z 19007KT 9999 FEW023TCU SCT025 28/25 Q1014 RERA","temp":28,"dewp":25,"wdir":190,"wspd":7,"visib":"6+","altim":1014,"clouds":[{"cover":"FEW","base":2300},{"cover":"SCT","base":2500}],"obsTime":1774623600},"SBJU":{"icaoId":"SBJU","flightCategory":"VFR","rawOb":"METAR SBJU 271500Z 12008KT 9999 SCT020 30/20 Q1013","temp":30,"dewp":20,"wdir":120,"wspd":8,"visib":"6+","altim":1013,"clouds":[{"cover":"SCT","base":2000}],"obsTime":1774623600},"SBUR":{"icaoId":"SBUR","flightCategory":"VFR","rawOb":"METAR SBUR 271500Z 01007KT 9999 BKN040 28/19 Q1020","temp":28,"dewp":19,"wdir":10,"wspd":7,"visib":"6+","altim":1020,"clouds":[{"cover":"BKN","base":4000}],"obsTime":1774623600},"SBHT":{"icaoId":"SBHT","flightCategory":"MVFR","rawOb":"METAR SBHT 271500Z 13002KT 9999 FEW012 BKN015 OVC080 26/24 Q1012","temp":26,"dewp":24,"wdir":130,"wspd":2,"visib":"6+","altim":1012,"clouds":[{"cover":"FEW","base":1200},{"cover":"BKN","base":1500},{"cover":"OVC","base":8000}],"obsTime":1774623600},"SBME":{"icaoId":"SBME","flightCategory":"VFR","rawOb":"METAR SBME 271500Z 11007KT 9999 SCT040 30/23 Q1018","temp":30,"dewp":23,"wdir":110,"wspd":7,"visib":"6+","altim":1018,"clouds":[{"cover":"SCT","base":4000}],"obsTime":1774623600},"SBMG":{"icaoId":"SBMG","flightCategory":"VFR","rawOb":"METAR SBMG 271500Z 04010KT 360V080 9999 VCSH SCT043 FEW045TCU 30/20 Q1017","temp":30,"dewp":20,"wdir":40,"wspd":10,"visib":"6+","altim":1017,"clouds":[{"cover":"SCT","base":4300},{"cover":"FEW","base":4500}],"obsTime":1774623600},"SBMK":{"icaoId":"SBMK","flightCategory":"VFR","rawOb":"METAR SBMK 271500Z 10010KT 9999 FEW045 28/16 Q1019","temp":28,"dewp":16,"wdir":100,"wspd":10,"visib":"6+","altim":1019,"clouds":[{"cover":"FEW","base":4500}],"obsTime":1774623600},"SBAT":{"icaoId":"SBAT","flightCategory":"MVFR","rawOb":"METAR SBAT 271500Z 12007KT 9999 BKN020 BKN100 28/22 Q1014","temp":28,"dewp":22,"wdir":120,"wspd":7,"visib":"6+","altim":1014,"clouds":[{"cover":"BKN","base":2000},{"cover":"BKN","base":10000}],"obsTime":1774623600},"SBUL":{"icaoId":"SBUL","flightCategory":"VFR","rawOb":"METAR SBUL 271500Z 07013KT 030V100 9999 SCT023 25/19 Q1021","temp":25,"dewp":19,"wdir":70,"wspd":13,"visib":"6+","altim":1021,"clouds":[{"cover":"SCT","base":2300}],"obsTime":1774623600},"SBSJ":{"icaoId":"SBSJ","flightCategory":"VFR","rawOb":"METAR SBSJ 271500Z 08003KT 9999 FEW030 28/19 Q1021","temp":28,"dewp":19,"wdir":80,"wspd":3,"visib":"6+","altim":1021,"clouds":[{"cover":"FEW","base":3000}],"obsTime":1774623600},"SBAR":{"icaoId":"SBAR","flightCategory":"VFR","rawOb":"METAR SBAR 271500Z 14014KT 9999 SCT022 31/24 Q1012","temp":31,"dewp":24,"wdir":140,"wspd":14,"visib":"6+","altim":1012,"clouds":[{"cover":"SCT","base":2200}],"obsTime":1774623600},"SBOI":{"icaoId":"SBOI","flightCategory":"MVFR","rawOb":"METAR SBOI 271500Z AUTO 09008KT 040V150 8000 +RA FEW009 SCT017 BKN028 26/25 Q1011","temp":26,"dewp":25,"wdir":90,"wspd":8,"visib":4.97,"altim":1011,"clouds":[{"cover":"FEW","base":900},{"cover":"SCT","base":1700},{"cover":"BKN","base":2800}],"obsTime":1774623600},"SBPP":{"icaoId":"SBPP","flightCategory":"VFR","rawOb":"METAR SBPP 271500Z 03014KT 9999 SCT025 28/20 Q1018","temp":28,"dewp":20,"wdir":30,"wspd":14,"visib":"6+","altim":1018,"clouds":[{"cover":"SCT","base":2500}],"obsTime":1774623600},"SBTD":{"icaoId":"SBTD","flightCategory":"VFR","rawOb":"METAR SBTD 271500Z /////KT 9999 SCT030 29/21 Q1019","temp":29,"dewp":21,"wdir":null,"wspd":null,"visib":"6+","altim":1019,"clouds":[{"cover":"SCT","base":3000}],"obsTime":1774623600},"SBPB":{"icaoId":"SBPB","flightCategory":"VFR","rawOb":"METAR SBPB 271500Z 04006KT 9999 SCT016 BKN100 29/25 Q1010","temp":29,"dewp":25,"wdir":40,"wspd":6,"visib":"6+","altim":1010,"clouds":[{"cover":"SCT","base":1600},{"cover":"BKN","base":10000}],"obsTime":1774623600},"SBTF":{"icaoId":"SBTF","flightCategory":"VFR","rawOb":"METAR SBTF 271500Z 19005KT 9999 FEW015 BKN100 32/26 Q1011","temp":32,"dewp":26,"wdir":190,"wspd":5,"visib":"6+","altim":1011,"clouds":[{"cover":"FEW","base":1500},{"cover":"BKN","base":10000}],"obsTime":1774623600},"SBTT":{"icaoId":"SBTT","flightCategory":"VFR","rawOb":"METAR SBTT 271500Z 12007KT 080V170 9999 FEW020 BKN090 28/23 Q1012","temp":28,"dewp":23,"wdir":120,"wspd":7,"visib":"6+","altim":1012,"clouds":[{"cover":"FEW","base":2000},{"cover":"BKN","base":9000}],"obsTime":1774623600},"SBPS":{"icaoId":"SBPS","flightCategory":"VFR","rawOb":"METAR SBPS 271500Z 15007KT 9999 SCT020 29/24 Q1015","temp":29,"dewp":24,"wdir":150,"wspd":7,"visib":"6+","altim":1015,"clouds":[{"cover":"SCT","base":2000}],"obsTime":1774623600},"SBCJ":{"icaoId":"SBCJ","flightCategory":"VFR","rawOb":"METAR SBCJ 271500Z 15003KT 9999 FEW005 SCT015 25/22 Q1016","temp":25,"dewp":22,"wdir":150,"wspd":3,"visib":"6+","altim":1016,"clouds":[{"cover":"FEW","base":500},{"cover":"SCT","base":1500}],"obsTime":1774623600},"SBUY":{"icaoId":"SBUY","flightCategory":"VFR","rawOb":"METAR SBUY 271500Z 18002KT 9999 FEW020 SCT100 29/24 Q1011","temp":29,"dewp":24,"wdir":180,"wspd":2,"visib":"6+","altim":1011,"clouds":[{"cover":"FEW","base":2000},{"cover":"SCT","base":10000}],"obsTime":1774623600},"SBPL":{"icaoId":"SBPL","flightCategory":"MVFR","rawOb":"METAR SBPL 271500Z 09010KT 9999 BKN025 31/19 Q1013","temp":31,"dewp":19,"wdir":90,"wspd":10,"visib":"6+","altim":1013,"clouds":[{"cover":"BKN","base":2500}],"obsTime":1774623600},"SBIP":{"icaoId":"SBIP","flightCategory":"VFR","rawOb":"METAR SBIP 271500Z AUTO VRB05KT 9999 FEW036 30/19 Q1019","temp":30,"dewp":19,"wdir":"VRB","wspd":5,"visib":"6+","altim":1019,"clouds":[{"cover":"FEW","base":3600}],"obsTime":1774623600},"SBKG":{"icaoId":"SBKG","flightCategory":"VFR","rawOb":"METAR SBKG 271500Z 13008KT 080V170 9999 SCT025 SCT070 29/19 Q1013","temp":29,"dewp":19,"wdir":130,"wspd":8,"visib":"6+","altim":1013,"clouds":[{"cover":"SCT","base":2500},{"cover":"SCT","base":7000}],"obsTime":1774623600},"SBSC":{"icaoId":"SBSC","flightCategory":"VFR","rawOb":"METAR SBSC 271500Z 02005KT CAVOK 32/20 Q1017","temp":32,"dewp":20,"wdir":20,"wspd":5,"visib":"6+","altim":1017,"clouds":[],"obsTime":1774623600},"SBSM":{"icaoId":"SBSM","flightCategory":"VFR","rawOb":"METAR SBSM 271500Z VRB01KT 9999 FEW015 29/24 Q1016","temp":29,"dewp":24,"wdir":"VRB","wspd":1,"visib":"6+","altim":1016,"clouds":[{"cover":"FEW","base":1500}],"obsTime":1774623600},"SBSR":{"icaoId":"SBSR","flightCategory":"VFR","rawOb":"METAR SBSR 271500Z 06008KT 9999 SCT030 29/18 Q1018","temp":29,"dewp":18,"wdir":60,"wspd":8,"visib":"6+","altim":1018,"clouds":[{"cover":"SCT","base":3000}],"obsTime":1774623600},"SBVH":{"icaoId":"SBVH","flightCategory":"IFR","rawOb":"METAR SBVH 271500Z 05008KT 9999 BKN009 BKN020 23/21 Q1016","temp":23,"dewp":21,"wdir":50,"wspd":8,"visib":"6+","altim":1016,"clouds":[{"cover":"BKN","base":900},{"cover":"BKN","base":2000}],"obsTime":1774623600},"SBAU":{"icaoId":"SBAU","flightCategory":"VFR","rawOb":"METAR SBAU 271500Z 01007KT 9999 FEW040 31/19 Q1017","temp":31,"dewp":19,"wdir":10,"wspd":7,"visib":"6+","altim":1017,"clouds":[{"cover":"FEW","base":4000}],"obsTime":1774623600},"SBAX":{"icaoId":"SBAX","flightCategory":"VFR","rawOb":"METAR SBAX 271500Z 06008KT 9999 SCT025 26/18 Q1021","temp":26,"dewp":18,"wdir":60,"wspd":8,"visib":"6+","altim":1021,"clouds":[{"cover":"SCT","base":2500}],"obsTime":1774623600},"SBBH":{"icaoId":"SBBH","flightCategory":"VFR","rawOb":"METAR SBBH 271500Z 09007KT 9999 FEW040 27/16 Q1021","temp":27,"dewp":16,"wdir":90,"wspd":7,"visib":"6+","altim":1021,"clouds":[{"cover":"FEW","base":4000}],"obsTime":1774623600},"SBBQ":{"icaoId":"SBBQ","flightCategory":"VFR","rawOb":"METAR SBBQ 271500Z 10007KT 060V190 9999 BKN035 24/14 Q1025","temp":24,"dewp":14,"wdir":100,"wspd":7,"visib":"6+","altim":1025,"clouds":[{"cover":"BKN","base":3500}],"obsTime":1774623600},"SBBU":{"icaoId":"SBBU","flightCategory":"VFR","rawOb":"METAR SBBU 271500Z 03004KT 9999 SCT040 31/21 Q1020","temp":31,"dewp":21,"wdir":30,"wspd":4,"visib":"6+","altim":1020,"clouds":[{"cover":"SCT","base":4000}],"obsTime":1774623600},"SBCC":{"icaoId":"SBCC","flightCategory":"VFR","rawOb":"METAR SBCC 271500Z 11010KT 9999 SCT020 BKN100 27/21 Q1014","temp":27,"dewp":21,"wdir":110,"wspd":10,"visib":"6+","altim":1014,"clouds":[{"cover":"SCT","base":2000},{"cover":"BKN","base":10000}],"obsTime":1774623600},"SBCO":{"icaoId":"SBCO","flightCategory":"VFR","rawOb":"METAR SBCO 271500Z VRB04KT 9999 FEW025 31/24 Q1016","temp":31,"dewp":24,"wdir":"VRB","wspd":4,"visib":"6+","altim":1016,"clouds":[{"cover":"FEW","base":2500}],"obsTime":1774623600},"SBDN":{"icaoId":"SBDN","flightCategory":"VFR","rawOb":"METAR SBDN 271500Z 04006KT CAVOK 32/21 Q1018","temp":32,"dewp":21,"wdir":40,"wspd":6,"visib":"6+","altim":1018,"clouds":[],"obsTime":1774623600},"SBES":{"icaoId":"SBES","flightCategory":"VFR","rawOb":"METAR SBES 271500Z 06012KT 9999 SCT023 29/// Q1018","temp":null,"dewp":null,"wdir":60,"wspd":12,"visib":"6+","altim":1018,"clouds":[{"cover":"SCT","base":2300}],"obsTime":1774623600},"SBGM":{"icaoId":"SBGM","flightCategory":"MVFR","rawOb":"METAR SBGM 271500Z VRB02KT 9999 FEW016 BKN020 27/21 Q1012","temp":27,"dewp":21,"wdir":"VRB","wspd":2,"visib":"6+","altim":1012,"clouds":[{"cover":"FEW","base":1600},{"cover":"BKN","base":2000}],"obsTime":1774623600},"SBJP":{"icaoId":"SBJP","flightCategory":"VFR","rawOb":"METAR SBJP 271500Z 12009KT 080V160 9999 SCT035 32/21 Q1010","temp":32,"dewp":21,"wdir":120,"wspd":9,"visib":"6+","altim":1010,"clouds":[{"cover":"SCT","base":3500}],"obsTime":1774623600},"SBPF":{"icaoId":"SBPF","flightCategory":"VFR","rawOb":"METAR SBPF 271500Z AUTO 34007KT 310V040 9999 FEW040 29/19 Q1021","temp":29,"dewp":19,"wdir":340,"wspd":7,"visib":"6+","altim":1021,"clouds":[{"cover":"FEW","base":4000}],"obsTime":1774623600},"SBNM":{"icaoId":"SBNM","flightCategory":"VFR","rawOb":"METAR SBNM 271500Z 35005KT 9999 FEW020 32/22 Q1017","temp":32,"dewp":22,"wdir":350,"wspd":5,"visib":"6+","altim":1017,"clouds":[{"cover":"FEW","base":2000}],"obsTime":1774623600},"SBIH":{"icaoId":"SBIH","flightCategory":"VFR","rawOb":"METAR SBIH 271500Z 16002KT 9999 FEW017 FEW025TCU 31/25 Q1010","temp":31,"dewp":25,"wdir":160,"wspd":2,"visib":"6+","altim":1010,"clouds":[{"cover":"FEW","base":1700},{"cover":"FEW","base":2500}],"obsTime":1774623600},"SBAF":{"icaoId":"SBAF","flightCategory":"VFR","rawOb":"METAR SBAF 271500Z 19010KT 9999 FEW025 31/25 Q1018","temp":31,"dewp":25,"wdir":190,"wspd":10,"visib":"6+","altim":1018,"clouds":[{"cover":"FEW","base":2500}],"obsTime":1774623600},"SBGW":{"icaoId":"SBGW","flightCategory":"VFR","rawOb":"METAR SBGW 271500Z 01006KT 310V110 9999 SCT030 29/17 Q1020","temp":29,"dewp":17,"wdir":10,"wspd":6,"visib":"6+","altim":1020,"clouds":[{"cover":"SCT","base":3000}],"obsTime":1774623600},"SBJR":{"icaoId":"SBJR","flightCategory":"VFR","rawOb":"METAR SBJR 271500Z 17007KT 9999 FEW020 31/23 Q1018","temp":31,"dewp":23,"wdir":170,"wspd":7,"visib":"6+","altim":1018,"clouds":[{"cover":"FEW","base":2000}],"obsTime":1774623600},"SBLS":{"icaoId":"SBLS","flightCategory":"VFR","rawOb":"METAR SBLS 271500Z 12009KT 050V140 9999 SCT033 26/16 Q1021","temp":26,"dewp":16,"wdir":120,"wspd":9,"visib":"6+","altim":1021,"clouds":[{"cover":"SCT","base":3300}],"obsTime":1774623600},"SBMT":{"icaoId":"SBMT","flightCategory":"VFR","rawOb":"METAR SBMT 271500Z VRB05KT CAVOK 28/14 Q1021","temp":28,"dewp":14,"wdir":"VRB","wspd":5,"visib":"6+","altim":1021,"clouds":[],"obsTime":1774623600},"SBST":{"icaoId":"SBST","flightCategory":"MVFR","rawOb":"METAR SBST 271500Z 20006KT 150V250 7000 SCT025 29/24 Q1017","temp":29,"dewp":24,"wdir":200,"wspd":6,"visib":4.35,"altim":1017,"clouds":[{"cover":"SCT","base":2500}],"obsTime":1774623600},"SBTA":{"icaoId":"SBTA","flightCategory":"VFR","rawOb":"METAR SBTA 271500Z 04005KT 350V090 9999 FEW025 27/24 Q1020","temp":27,"dewp":24,"wdir":40,"wspd":5,"visib":"6+","altim":1020,"clouds":[{"cover":"FEW","base":2500}],"obsTime":1774623600},"SBAN":{"icaoId":"SBAN","flightCategory":"MVFR","rawOb":"METAR SBAN 271500Z 12011KT 9999 BKN025 25/17 Q1021","temp":25,"dewp":17,"wdir":120,"wspd":11,"visib":"6+","altim":1021,"clouds":[{"cover":"BKN","base":2500}],"obsTime":1774623600},"SBLE":{"icaoId":"SBLE","flightCategory":"VFR","rawOb":"METAR SBLE 271500Z AUTO 15006KT 120V200 9999 SCT027 BKN040 26/21 Q1017","temp":26,"dewp":21,"wdir":150,"wspd":6,"visib":"6+","altim":1017,"clouds":[{"cover":"SCT","base":2700},{"cover":"BKN","base":4000}],"obsTime":1774623600},"SBJV":{"icaoId":"SBJV","flightCategory":"VFR","rawOb":"METAR SBJV 271500Z 11004KT 9999 SCT025 31/25 Q1018","temp":31,"dewp":25,"wdir":110,"wspd":4,"visib":"6+","altim":1018,"clouds":[{"cover":"SCT","base":2500}],"obsTime":1774623600}}}