{"updated":1781460326,"count":88,"data":{"SBVT":{"icaoId":"SBVT","flightCategory":"VFR","rawOb":"METAR SBVT 141700Z 16012KT 9999 SCT030 25/21 Q1016","temp":25,"dewp":21,"wdir":160,"wspd":12,"visib":"6+","altim":1016,"clouds":[{"cover":"SCT","base":3000}],"obsTime":1781456400},"SBCG":{"icaoId":"SBCG","flightCategory":"IFR","rawOb":"SPECI SBCG 141649Z 25005KT 3000 TSRA BKN015 BKN025 FEW040CB BKN100 22/21 Q1017","temp":22,"dewp":21,"wdir":250,"wspd":5,"visib":1.86,"altim":1017,"clouds":[{"cover":"BKN","base":1500},{"cover":"BKN","base":2500},{"cover":"FEW","base":4000},{"cover":"BKN","base":10000}],"obsTime":1781455740},"SBFL":{"icaoId":"SBFL","flightCategory":"MVFR","rawOb":"METAR SBFL 141700Z 14007KT 080V220 9999 BKN025 BKN040 19/13 Q1017","temp":19,"dewp":13,"wdir":140,"wspd":7,"visib":"6+","altim":1017,"clouds":[{"cover":"BKN","base":2500},{"cover":"BKN","base":4000}],"obsTime":1781456400},"SBMO":{"icaoId":"SBMO","flightCategory":"VFR","rawOb":"METAR SBMO 141700Z 12010KT 9999 SCT030 BKN070 29/23 Q1016","temp":29,"dewp":23,"wdir":120,"wspd":10,"visib":"6+","altim":1016,"clouds":[{"cover":"SCT","base":3000},{"cover":"BKN","base":7000}],"obsTime":1781456400},"SBFZ":{"icaoId":"SBFZ","flightCategory":"VFR","rawOb":"METAR SBFZ 141700Z 11017KT 9999 SCT025 29/23 Q1013","temp":29,"dewp":23,"wdir":110,"wspd":17,"visib":"6+","altim":1013,"clouds":[{"cover":"SCT","base":2500}],"obsTime":1781456400},"SBMQ":{"icaoId":"SBMQ","flightCategory":"VFR","rawOb":"METAR SBMQ 141700Z 07009KT 9999 FEW030 30/25 Q1013","temp":30,"dewp":25,"wdir":70,"wspd":9,"visib":"6+","altim":1013,"clouds":[{"cover":"FEW","base":3000}],"obsTime":1781456400},"SBBR":{"icaoId":"SBBR","flightCategory":"VFR","rawOb":"METAR SBBR 141700Z 09006KT 9999 FEW030 25/17 Q1022","temp":25,"dewp":17,"wdir":90,"wspd":6,"visib":"6+","altim":1022,"clouds":[{"cover":"FEW","base":3000}],"obsTime":1781456400},"SBCP":{"icaoId":"SBCP","flightCategory":"VFR","rawOb":"METAR SBCP 141700Z 13004KT 9999 SCT020 BKN090 26/19 Q1016","temp":26,"dewp":19,"wdir":130,"wspd":4,"visib":"6+","altim":1016,"clouds":[{"cover":"SCT","base":2000},{"cover":"BKN","base":9000}],"obsTime":1781456400},"SBGL":{"icaoId":"SBGL","flightCategory":"VFR","rawOb":"METAR SBGL 141700Z 04005KT 9999 FEW020 SCT090 25/18 Q1015","temp":25,"dewp":18,"wdir":40,"wspd":5,"visib":"6+","altim":1015,"clouds":[{"cover":"FEW","base":2000},{"cover":"SCT","base":9000}],"obsTime":1781456400},"SBPA":{"icaoId":"SBPA","flightCategory":"VFR","rawOb":"METAR SBPA 141700Z 22005KT 9999 BKN040 16/09 Q1019","temp":16,"dewp":9,"wdir":220,"wspd":5,"visib":"6+","altim":1019,"clouds":[{"cover":"BKN","base":4000}],"obsTime":1781456400},"SBGO":{"icaoId":"SBGO","flightCategory":"VFR","rawOb":"METAR SBGO 141700Z 32006KT 9999 FEW040 28/19 Q1019","temp":28,"dewp":19,"wdir":320,"wspd":6,"visib":"6+","altim":1019,"clouds":[{"cover":"FEW","base":4000}],"obsTime":1781456400},"SBPJ":{"icaoId":"SBPJ","flightCategory":"VFR","rawOb":"METAR SBPJ 141700Z 10006KT 060V140 9999 SCT048 35/18 Q1014","temp":35,"dewp":18,"wdir":100,"wspd":6,"visib":"6+","altim":1014,"clouds":[{"cover":"SCT","base":4800}],"obsTime":1781456400},"SBPV":{"icaoId":"SBPV","flightCategory":"VFR","rawOb":"METAR SBPV 141700Z 33003KT 9999 BKN035 32/24 Q1014","temp":32,"dewp":24,"wdir":330,"wspd":3,"visib":"6+","altim":1014,"clouds":[{"cover":"BKN","base":3500}],"obsTime":1781456400},"SBCB":{"icaoId":"SBCB","flightCategory":"VFR","rawOb":"METAR SBCB 141700Z 09008KT 9999 SCT015 SCT090 25/20 Q1016","temp":25,"dewp":20,"wdir":90,"wspd":8,"visib":"6+","altim":1016,"clouds":[{"cover":"SCT","base":1500},{"cover":"SCT","base":9000}],"obsTime":1781456400},"SBRB":{"icaoId":"SBRB","flightCategory":"MVFR","rawOb":"METAR SBRB 141700Z 15003KT 9999 BKN030 33/22 Q1016","temp":33,"dewp":22,"wdir":150,"wspd":3,"visib":"6+","altim":1016,"clouds":[{"cover":"BKN","base":3000}],"obsTime":1781456400},"SBCR":{"icaoId":"SBCR","flightCategory":"MVFR","rawOb":"METAR SBCR 141700Z 22010KT 9999 BKN013 SCT025 FEW030TCU 21/18 Q1017","temp":21,"dewp":18,"wdir":220,"wspd":10,"visib":"6+","altim":1017,"clouds":[{"cover":"BKN","base":1300},{"cover":"SCT","base":2500},{"cover":"FEW","base":3000}],"obsTime":1781456400},"SBGR":{"icaoId":"SBGR","flightCategory":"MVFR","rawOb":"METAR SBGR 141700Z 31009KT 9999 OVC023 22/16 Q1019","temp":22,"dewp":16,"wdir":310,"wspd":9,"visib":"6+","altim":1019,"clouds":[{"cover":"OVC","base":2300}],"obsTime":1781456400},"SBRF":{"icaoId":"SBRF","flightCategory":"VFR","rawOb":"METAR SBRF 141700Z 14010KT 9999 FEW020 28/24 Q1015","temp":28,"dewp":24,"wdir":140,"wspd":10,"visib":"6+","altim":1015,"clouds":[{"cover":"FEW","base":2000}],"obsTime":1781456400},"SBSG":{"icaoId":"SBSG","flightCategory":"MVFR","rawOb":"METAR SBSG 141700Z 12010KT 100V160 9999 BKN020 28/25 Q1014","temp":28,"dewp":25,"wdir":120,"wspd":10,"visib":"6+","altim":1014,"clouds":[{"cover":"BKN","base":2000}],"obsTime":1781456400},"SBBV":{"icaoId":"SBBV","flightCategory":"VFR","rawOb":"METAR SBBV 141700Z 11004KT 9999 SCT020 FEW025TCU 32/23 Q1013","temp":32,"dewp":23,"wdir":110,"wspd":4,"visib":"6+","altim":1013,"clouds":[{"cover":"SCT","base":2000},{"cover":"FEW","base":2500}],"obsTime":1781456400},"SBSL":{"icaoId":"SBSL","flightCategory":"VFR","rawOb":"METAR SBSL 141700Z 08009KT 9999 SCT030 32/23 Q1013","temp":32,"dewp":23,"wdir":80,"wspd":9,"visib":"6+","altim":1013,"clouds":[{"cover":"SCT","base":3000}],"obsTime":1781456400},"SBCT":{"icaoId":"SBCT","flightCategory":"IFR","rawOb":"METAR SBCT 141700Z 25006KT 5000 -DZ BR SCT006 BKN009 OVC015 16/16 Q1019","temp":16,"dewp":16,"wdir":250,"wspd":6,"visib":3.11,"altim":1019,"clouds":[{"cover":"SCT","base":600},{"cover":"BKN","base":900},{"cover":"OVC","base":1500}],"obsTime":1781456400},"SBCF":{"icaoId":"SBCF","flightCategory":"VFR","rawOb":"METAR SBCF 141700Z 28004KT 9999 SCT018 23/16 Q1021","temp":23,"dewp":16,"wdir":280,"wspd":4,"visib":"6+","altim":1021,"clouds":[{"cover":"SCT","base":1800}],"obsTime":1781456400},"SBSN":{"icaoId":"SBSN","flightCategory":"VFR","rawOb":"METAR SBSN 141700Z 08008KT 9999 SCT018 FEW025TCU 30/25 Q1013","temp":30,"dewp":25,"wdir":80,"wspd":8,"visib":"6+","altim":1013,"clouds":[{"cover":"SCT","base":1800},{"cover":"FEW","base":2500}],"obsTime":1781456400},"SBBE":{"icaoId":"SBBE","flightCategory":"VFR","rawOb":"METAR SBBE 141700Z 11012KT 9999 BKN040 33/24 Q1013","temp":33,"dewp":24,"wdir":110,"wspd":12,"visib":"6+","altim":1013,"clouds":[{"cover":"BKN","base":4000}],"obsTime":1781456400},"SBSP":{"icaoId":"SBSP","flightCategory":"MVFR","rawOb":"METAR SBSP 141700Z 33010KT 9999 BKN019 20/16 Q1019","temp":20,"dewp":16,"wdir":330,"wspd":10,"visib":"6+","altim":1019,"clouds":[{"cover":"BKN","base":1900}],"obsTime":1781456400},"SBSV":{"icaoId":"SBSV","flightCategory":"MVFR","rawOb":"METAR SBSV 141700Z COR 17010KT 9999 BKN025 28/23 Q1017","temp":28,"dewp":23,"wdir":170,"wspd":10,"visib":"6+","altim":1017,"clouds":[{"cover":"BKN","base":2500}],"obsTime":1781456400},"SBKP":{"icaoId":"SBKP","flightCategory":"MVFR","rawOb":"METAR SBKP 141700Z 02007KT 9999 FEW017 BKN025 OVC100 21/17 Q1019","temp":21,"dewp":17,"wdir":20,"wspd":7,"visib":"6+","altim":1019,"clouds":[{"cover":"FEW","base":1700},{"cover":"BKN","base":2500},{"cover":"OVC","base":10000}],"obsTime":1781456400},"SBTE":{"icaoId":"SBTE","flightCategory":"VFR","rawOb":"METAR SBTE 141700Z 15008KT 9999 FEW025 34/21 Q1012","temp":34,"dewp":21,"wdir":150,"wspd":8,"visib":"6+","altim":1012,"clouds":[{"cover":"FEW","base":2500}],"obsTime":1781456400},"SBEG":{"icaoId":"SBEG","flightCategory":"VFR","rawOb":"METAR SBEG 141700Z 10011KT 9999 SCT030 33/23 Q1013","temp":33,"dewp":23,"wdir":100,"wspd":11,"visib":"6+","altim":1013,"clouds":[{"cover":"SCT","base":3000}],"obsTime":1781456400},"SBLO":{"icaoId":"SBLO","flightCategory":"MVFR","rawOb":"METAR SBLO 141700Z 35012KT 9999 -RA BKN010 OVC018 20/19 Q1017","temp":20,"dewp":19,"wdir":350,"wspd":12,"visib":"6+","altim":1017,"clouds":[{"cover":"BKN","base":1000},{"cover":"OVC","base":1800}],"obsTime":1781456400},"SBFI":{"icaoId":"SBFI","flightCategory":"VFR","rawOb":"METAR SBFI 141700Z 20007KT 9999 SCT020 SCT070 19/14 Q1017","temp":19,"dewp":14,"wdir":200,"wspd":7,"visib":"6+","altim":1017,"clouds":[{"cover":"SCT","base":2000},{"cover":"SCT","base":7000}],"obsTime":1781456400},"SBMA":{"icaoId":"SBMA","flightCategory":"VFR","rawOb":"METAR SBMA 141700Z 06004KT 9999 SCT020 SCT025TCU 32/23 Q1013","temp":32,"dewp":23,"wdir":60,"wspd":4,"visib":"6+","altim":1013,"clouds":[{"cover":"SCT","base":2000},{"cover":"SCT","base":2500}],"obsTime":1781456400},"SBAT":{"icaoId":"SBAT","flightCategory":"MVFR","rawOb":"METAR SBAT 141700Z 11007KT 9999 BKN030 36/21 Q1014","temp":36,"dewp":21,"wdir":110,"wspd":7,"visib":"6+","altim":1014,"clouds":[{"cover":"BKN","base":3000}],"obsTime":1781456400},"SBUL":{"icaoId":"SBUL","flightCategory":"VFR","rawOb":"METAR SBUL 141700Z 03010KT 9999 FEW040 BKN070 23/18 Q1021","temp":23,"dewp":18,"wdir":30,"wspd":10,"visib":"6+","altim":1021,"clouds":[{"cover":"FEW","base":4000},{"cover":"BKN","base":7000}],"obsTime":1781456400},"SBUR":{"icaoId":"SBUR","flightCategory":"VFR","rawOb":"METAR SBUR 141700Z 25007KT 9999 TS VCSH FEW050CB SCT070 OVC100 21/18 Q1020","temp":21,"dewp":18,"wdir":250,"wspd":7,"visib":"6+","altim":1020,"clouds":[{"cover":"FEW","base":5000},{"cover":"SCT","base":7000},{"cover":"OVC","base":10000}],"obsTime":1781456400},"SBCZ":{"icaoId":"SBCZ","flightCategory":"MVFR","rawOb":"METAR SBCZ 141700Z 00000KT 9999 BKN030 31/24 Q1016","temp":31,"dewp":24,"wdir":0,"wspd":0,"visib":"6+","altim":1016,"clouds":[{"cover":"BKN","base":3000}],"obsTime":1781456400},"SBHT":{"icaoId":"SBHT","flightCategory":"MVFR","rawOb":"METAR SBHT 141700Z 10005KT 9999 BKN030 32/24 Q1013","temp":32,"dewp":24,"wdir":100,"wspd":5,"visib":"6+","altim":1013,"clouds":[{"cover":"BKN","base":3000}],"obsTime":1781456400},"SBIL":{"icaoId":"SBIL","flightCategory":"VFR","rawOb":"METAR SBIL 141700Z 09007KT 9999 FEW023 29/23 Q1017","temp":29,"dewp":23,"wdir":90,"wspd":7,"visib":"6+","altim":1017,"clouds":[{"cover":"FEW","base":2300}],"obsTime":1781456400},"SBJU":{"icaoId":"SBJU","flightCategory":"VFR","rawOb":"METAR SBJU 141700Z 00000KT CAVOK 32/18 Q1016","temp":32,"dewp":18,"wdir":0,"wspd":0,"visib":"6+","altim":1016,"clouds":[],"obsTime":1781456400},"SBME":{"icaoId":"SBME","flightCategory":"VFR","rawOb":"METAR SBME 141700Z 10006KT 070V130 9999 OVC040 24/19 Q1016","temp":24,"dewp":19,"wdir":100,"wspd":6,"visib":"6+","altim":1016,"clouds":[{"cover":"OVC","base":4000}],"obsTime":1781456400},"SBMG":{"icaoId":"SBMG","flightCategory":"IFR","rawOb":"METAR SBMG 141700Z 36012KT 9999 BKN007 BKN070 20/19 Q1016","temp":20,"dewp":19,"wdir":360,"wspd":12,"visib":"6+","altim":1016,"clouds":[{"cover":"BKN","base":700},{"cover":"BKN","base":7000}],"obsTime":1781456400},"SBMK":{"icaoId":"SBMK","flightCategory":"VFR","rawOb":"METAR SBMK 141700Z 08006KT CAVOK 27/16 Q1019","temp":27,"dewp":16,"wdir":80,"wspd":6,"visib":"6+","altim":1019,"clouds":[],"obsTime":1781456400},"SBNT":{"icaoId":"SBNT","flightCategory":"VFR","rawOb":"METAR SBNT 141700Z 14014KT 9999 SCT013 BKN040 28/24 Q1014","temp":28,"dewp":24,"wdir":140,"wspd":14,"visib":"6+","altim":1014,"clouds":[{"cover":"SCT","base":1300},{"cover":"BKN","base":4000}],"obsTime":1781456400},"SBCJ":{"icaoId":"SBCJ","flightCategory":"VFR","rawOb":"METAR SBCJ 141700Z 12006KT 9999 SCT027 30/21 Q1018","temp":30,"dewp":21,"wdir":120,"wspd":6,"visib":"6+","altim":1018,"clouds":[{"cover":"SCT","base":2700}],"obsTime":1781456400},"SBOI":{"icaoId":"SBOI","flightCategory":"VFR","rawOb":"METAR SBOI 141700Z AUTO 11004KT 040V190 9999 FEW046 31/25 Q1013","temp":31,"dewp":25,"wdir":110,"wspd":4,"visib":"6+","altim":1013,"clouds":[{"cover":"FEW","base":4600}],"obsTime":1781456400},"SBSJ":{"icaoId":"SBSJ","flightCategory":"VFR","rawOb":"METAR SBSJ 141700Z 35003KT 9999 FEW030 24/16 Q1018","temp":24,"dewp":16,"wdir":350,"wspd":3,"visib":"6+","altim":1018,"clouds":[{"cover":"FEW","base":3000}],"obsTime":1781456400},"SBPL":{"icaoId":"SBPL","flightCategory":"VFR","rawOb":"METAR SBPL 141700Z 06007KT CAVOK 33/16 Q1015","temp":33,"dewp":16,"wdir":60,"wspd":7,"visib":"6+","altim":1015,"clouds":[],"obsTime":1781456400},"SBUY":{"icaoId":"SBUY","flightCategory":"VFR","rawOb":"METAR SBUY 141700Z 09005KT 9999 SCT030 32/23 Q1013","temp":32,"dewp":23,"wdir":90,"wspd":5,"visib":"6+","altim":1013,"clouds":[{"cover":"SCT","base":3000}],"obsTime":1781456400},"SBAR":{"icaoId":"SBAR","flightCategory":"VFR","rawOb":"METAR SBAR 141700Z 11008KT 9999 SCT021 28/23 Q1016","temp":28,"dewp":23,"wdir":110,"wspd":8,"visib":"6+","altim":1016,"clouds":[{"cover":"SCT","base":2100}],"obsTime":1781456400},"SBTF":{"icaoId":"SBTF","flightCategory":"VFR","rawOb":"METAR SBTF 141700Z 10008KT 9999 SCT020 33/24 Q1013","temp":33,"dewp":24,"wdir":100,"wspd":8,"visib":"6+","altim":1013,"clouds":[{"cover":"SCT","base":2000}],"obsTime":1781456400},"SBPP":{"icaoId":"SBPP","flightCategory":"LIFR","rawOb":"SPECI SBPP 141635Z 24013KT 1000 BR OVC001 17/17 Q1018","temp":17,"dewp":17,"wdir":240,"wspd":13,"visib":0.62,"altim":1018,"clouds":[{"cover":"OVC","base":100}],"obsTime":1781454900},"SBTT":{"icaoId":"SBTT","flightCategory":"VFR","rawOb":"METAR SBTT 141700Z 21005KT 9999 FEW025 30/25 Q1015","temp":30,"dewp":25,"wdir":210,"wspd":5,"visib":"6+","altim":1015,"clouds":[{"cover":"FEW","base":2500}],"obsTime":1781456400},"SBPS":{"icaoId":"SBPS","flightCategory":"VFR","rawOb":"METAR SBPS 141700Z 07009KT 9999 FEW025 28/22 Q1016","temp":28,"dewp":22,"wdir":70,"wspd":9,"visib":"6+","altim":1016,"clouds":[{"cover":"FEW","base":2500}],"obsTime":1781456400},"SBPB":{"icaoId":"SBPB","flightCategory":"VFR","rawOb":"METAR SBPB 141700Z 07012KT 9999 SCT016 SCT025TCU BKN090 30/25 Q1013","temp":30,"dewp":25,"wdir":70,"wspd":12,"visib":"6+","altim":1013,"clouds":[{"cover":"SCT","base":1600},{"cover":"SCT","base":2500},{"cover":"BKN","base":9000}],"obsTime":1781456400},"SBES":{"icaoId":"SBES","flightCategory":"VFR","rawOb":"METAR SBES 141700Z 08005KT 9999 SCT025 24/// Q1016","temp":null,"dewp":null,"wdir":80,"wspd":5,"visib":"6+","altim":1016,"clouds":[{"cover":"SCT","base":2500}],"obsTime":1781456400},"SBGM":{"icaoId":"SBGM","flightCategory":"VFR","rawOb":"METAR SBGM 141700Z 16002KT 9999 SCT040 BKN060 32/21 Q1015","temp":32,"dewp":21,"wdir":160,"wspd":2,"visib":"6+","altim":1015,"clouds":[{"cover":"SCT","base":4000},{"cover":"BKN","base":6000}],"obsTime":1781456400},"SBIP":{"icaoId":"SBIP","flightCategory":"VFR","rawOb":"METAR SBIP 141700Z AUTO 17004KT 140V200 CAVOK 24/20 Q1017","temp":24,"dewp":20,"wdir":170,"wspd":4,"visib":"6+","altim":1017,"clouds":[],"obsTime":1781456400},"SBKG":{"icaoId":"SBKG","flightCategory":"MVFR","rawOb":"METAR SBKG 141700Z 09011KT 9999 BKN028 29/19 Q1017","temp":29,"dewp":19,"wdir":90,"wspd":11,"visib":"6+","altim":1017,"clouds":[{"cover":"BKN","base":2800}],"obsTime":1781456400},"SBSC":{"icaoId":"SBSC","flightCategory":"VFR","rawOb":"METAR SBSC 141700Z 22005KT 9999 FEW030 BKN070 25/20 Q1015","temp":25,"dewp":20,"wdir":220,"wspd":5,"visib":"6+","altim":1015,"clouds":[{"cover":"FEW","base":3000},{"cover":"BKN","base":7000}],"obsTime":1781456400},"SBSM":{"icaoId":"SBSM","flightCategory":"MVFR","rawOb":"METAR SBSM 141700Z 23005KT 160V300 9999 SCT020 OVC025 15/10 Q1020","temp":15,"dewp":10,"wdir":230,"wspd":5,"visib":"6+","altim":1020,"clouds":[{"cover":"SCT","base":2000},{"cover":"OVC","base":2500}],"obsTime":1781456400},"SBSR":{"icaoId":"SBSR","flightCategory":"MVFR","rawOb":"METAR SBSR 141700Z 01003KT 9999 -TSRA BKN010 BKN020 FEW025CB 18/18 Q1019","temp":18,"dewp":18,"wdir":10,"wspd":3,"visib":"6+","altim":1019,"clouds":[{"cover":"BKN","base":1000},{"cover":"BKN","base":2000},{"cover":"FEW","base":2500}],"obsTime":1781456400},"SBTU":{"icaoId":"SBTU","flightCategory":"VFR","rawOb":"METAR SBTU 141700Z AUTO 25009KT 200V300 9999 // BKN031/// 32/23 Q1015","temp":32,"dewp":23,"wdir":250,"wspd":9,"visib":"6+","altim":1015,"clouds":[{"cover":"BKN","base":3100}],"obsTime":1781456400},"SBVH":{"icaoId":"SBVH","flightCategory":"VFR","rawOb":"METAR SBVH 141700Z 32003KT 9999 BKN035 31/21 Q1018","temp":31,"dewp":21,"wdir":320,"wspd":3,"visib":"6+","altim":1018,"clouds":[{"cover":"BKN","base":3500}],"obsTime":1781456400},"SBAU":{"icaoId":"SBAU","flightCategory":"VFR","rawOb":"METAR SBAU 141700Z 36008KT 9999 FEW005 SCT070 22/19 Q1017","temp":22,"dewp":19,"wdir":360,"wspd":8,"visib":"6+","altim":1017,"clouds":[{"cover":"FEW","base":500},{"cover":"SCT","base":7000}],"obsTime":1781456400},"SBAX":{"icaoId":"SBAX","flightCategory":"VFR","rawOb":"METAR SBAX 141700Z AUTO 34004KT 260V030 CAVOK 24/17 Q1021","temp":24,"dewp":17,"wdir":340,"wspd":4,"visib":"6+","altim":1021,"clouds":[],"obsTime":1781456400},"SBBH":{"icaoId":"SBBH","flightCategory":"VFR","rawOb":"METAR SBBH 141700Z 31004KT 9999 SCT025 SCT100 23/17 Q1021","temp":23,"dewp":17,"wdir":310,"wspd":4,"visib":"6+","altim":1021,"clouds":[{"cover":"SCT","base":2500},{"cover":"SCT","base":10000}],"obsTime":1781456400},"SBBQ":{"icaoId":"SBBQ","flightCategory":"VFR","rawOb":"METAR SBBQ 141700Z 29008KT 9999 SCT035 22/15 Q1023","temp":22,"dewp":15,"wdir":290,"wspd":8,"visib":"6+","altim":1023,"clouds":[{"cover":"SCT","base":3500}],"obsTime":1781456400},"SBBU":{"icaoId":"SBBU","flightCategory":"MVFR","rawOb":"METAR SBBU 141700Z 32003KT 5000 BR SCT004 BKN010 BKN070 20/20 Q1019","temp":20,"dewp":20,"wdir":320,"wspd":3,"visib":3.11,"altim":1019,"clouds":[{"cover":"SCT","base":400},{"cover":"BKN","base":1000},{"cover":"BKN","base":7000}],"obsTime":1781456400},"SBCA":{"icaoId":"SBCA","flightCategory":"LIFR","rawOb":"METAR SBCA 141700Z 18008KT 3000 -DZ BR OVC002 16/16 Q1019","temp":16,"dewp":16,"wdir":180,"wspd":8,"visib":1.86,"altim":1019,"clouds":[{"cover":"OVC","base":200}],"obsTime":1781456400},"SBCC":{"icaoId":"SBCC","flightCategory":"VFR","rawOb":"METAR SBCC 141700Z 05010KT 9999 FEW035 33/18 Q1016","temp":33,"dewp":18,"wdir":50,"wspd":10,"visib":"6+","altim":1016,"clouds":[{"cover":"FEW","base":3500}],"obsTime":1781456400},"SBCO":{"icaoId":"SBCO","flightCategory":"VFR","rawOb":"METAR SBCO 141700Z 22004KT 160V280 9999 BKN033 16/08 Q1019","temp":16,"dewp":8,"wdir":220,"wspd":4,"visib":"6+","altim":1019,"clouds":[{"cover":"BKN","base":3300}],"obsTime":1781456400},"SBDN":{"icaoId":"SBDN","flightCategory":"VFR","rawOb":"METAR SBDN 141700Z 04005KT 9999 -RA SCT011 BKN045 20/18 Q1017","temp":20,"dewp":18,"wdir":40,"wspd":5,"visib":"6+","altim":1017,"clouds":[{"cover":"SCT","base":1100},{"cover":"BKN","base":4500}],"obsTime":1781456400},"SBJP":{"icaoId":"SBJP","flightCategory":"VFR","rawOb":"METAR SBJP 141700Z 12011KT 9999 SCT030 30/23 Q1015","temp":30,"dewp":23,"wdir":120,"wspd":11,"visib":"6+","altim":1015,"clouds":[{"cover":"SCT","base":3000}],"obsTime":1781456400},"SBNM":{"icaoId":"SBNM","flightCategory":"VFR","rawOb":"METAR SBNM 141700Z AUTO 17009KT 140V200 9999 OVC035 16/09 Q1020","temp":16,"dewp":9,"wdir":170,"wspd":9,"visib":"6+","altim":1020,"clouds":[{"cover":"OVC","base":3500}],"obsTime":1781456400},"SBPF":{"icaoId":"SBPF","flightCategory":"MVFR","rawOb":"METAR SBPF 141700Z 21006KT 9999 BKN025 12/05 Q1020","temp":12,"dewp":5,"wdir":210,"wspd":6,"visib":"6+","altim":1020,"clouds":[{"cover":"BKN","base":2500}],"obsTime":1781456400},"SBAN":{"icaoId":"SBAN","flightCategory":"MVFR","rawOb":"METAR SBAN 141700Z 35004KT 9999 BKN025 26/18 Q1022","temp":26,"dewp":18,"wdir":350,"wspd":4,"visib":"6+","altim":1022,"clouds":[{"cover":"BKN","base":2500}],"obsTime":1781456400},"SBLE":{"icaoId":"SBLE","flightCategory":"VFR","rawOb":"METAR SBLE 141700Z AUTO VRB03KT CAVOK 29/18 Q1018","temp":29,"dewp":18,"wdir":"VRB","wspd":3,"visib":"6+","altim":1018,"clouds":[],"obsTime":1781456400},"SBTC":{"icaoId":"SBTC","flightCategory":"VFR","rawOb":"METAR SBTC 141700Z 05007KT 9999 FEW025 27/22 Q1017","temp":27,"dewp":22,"wdir":50,"wspd":7,"visib":"6+","altim":1017,"clouds":[{"cover":"FEW","base":2500}],"obsTime":1781456400},"SBIH":{"icaoId":"SBIH","flightCategory":"VFR","rawOb":"METAR SBIH 141700Z 03003KT 9999 SCT020 33/25 Q1012","temp":33,"dewp":25,"wdir":30,"wspd":3,"visib":"6+","altim":1012,"clouds":[{"cover":"SCT","base":2000}],"obsTime":1781456400},"SBAF":{"icaoId":"SBAF","flightCategory":"VFR","rawOb":"METAR SBAF 141700Z 09004KT 9999 FEW040 26/19 Q1016","temp":26,"dewp":19,"wdir":90,"wspd":4,"visib":"6+","altim":1016,"clouds":[{"cover":"FEW","base":4000}],"obsTime":1781456400},"SBJV":{"icaoId":"SBJV","flightCategory":"VFR","rawOb":"METAR SBJV 141700Z 11002KT 9999 SCT015 BKN035 21/17 Q1016","temp":21,"dewp":17,"wdir":110,"wspd":2,"visib":"6+","altim":1016,"clouds":[{"cover":"SCT","base":1500},{"cover":"BKN","base":3500}],"obsTime":1781456400},"SBJR":{"icaoId":"SBJR","flightCategory":"VFR","rawOb":"METAR SBJR 141700Z 19004KT 9999 FEW025 26/20 Q1015","temp":26,"dewp":20,"wdir":190,"wspd":4,"visib":"6+","altim":1015,"clouds":[{"cover":"FEW","base":2500}],"obsTime":1781456400},"SBLS":{"icaoId":"SBLS","flightCategory":"VFR","rawOb":"METAR SBLS 141700Z VRB02KT 9999 SCT020 22/16 Q1021","temp":22,"dewp":16,"wdir":"VRB","wspd":2,"visib":"6+","altim":1021,"clouds":[{"cover":"SCT","base":2000}],"obsTime":1781456400},"SBMT":{"icaoId":"SBMT","flightCategory":"MVFR","rawOb":"METAR SBMT 141700Z 32007KT 290V010 9999 BKN023 21/16 Q1019","temp":21,"dewp":16,"wdir":320,"wspd":7,"visib":"6+","altim":1019,"clouds":[{"cover":"BKN","base":2300}],"obsTime":1781456400},"SBST":{"icaoId":"SBST","flightCategory":"MVFR","rawOb":"METAR SBST 141700Z 02001KT 9999 BKN023 23/17 Q1016","temp":23,"dewp":17,"wdir":20,"wspd":1,"visib":"6+","altim":1016,"clouds":[{"cover":"BKN","base":2300}],"obsTime":1781456400},"SBTA":{"icaoId":"SBTA","flightCategory":"VFR","rawOb":"METAR SBTA 141700Z VRB03KT 9999 FEW030 24/17 Q1016","temp":24,"dewp":17,"wdir":"VRB","wspd":3,"visib":"6+","altim":1016,"clouds":[{"cover":"FEW","base":3000}],"obsTime":1781456400},"SBGW":{"icaoId":"SBGW","flightCategory":"VFR","rawOb":"METAR SBGW 141700Z 02003KT 290V080 9000 FEW017 SCT080 24/14 Q1017","temp":24,"dewp":14,"wdir":20,"wspd":3,"visib":5.59,"altim":1017,"clouds":[{"cover":"FEW","base":1700},{"cover":"SCT","base":8000}],"obsTime":1781456400}}}