{"updated":1784414082,"count":82,"data":{"SBSN":{"icaoId":"SBSN","flightCategory":"VFR","rawOb":"METAR SBSN 182100Z 07006KT CAVOK 31/24 Q1009","temp":31,"dewp":24,"wdir":70,"wspd":6,"visib":"6+","altim":1009,"clouds":[],"obsTime":1784408400},"SBBV":{"icaoId":"SBBV","flightCategory":"VFR","rawOb":"METAR SBBV 182100Z 01006KT 9999 FEW040 FEW045TCU SCT080 30/24 Q1009","temp":30,"dewp":24,"wdir":10,"wspd":6,"visib":"6+","altim":1009,"clouds":[{"cover":"FEW","base":4000},{"cover":"FEW","base":4500},{"cover":"SCT","base":8000}],"obsTime":1784408400},"SBCF":{"icaoId":"SBCF","flightCategory":"VFR","rawOb":"METAR SBCF 182100Z 05006KT CAVOK 21/10 Q1022","temp":21,"dewp":10,"wdir":50,"wspd":6,"visib":"6+","altim":1022,"clouds":[],"obsTime":1784408400},"SBPV":{"icaoId":"SBPV","flightCategory":"VFR","rawOb":"METAR SBPV 182100Z 04006KT 9999 VCSH SCT035 FEW040TCU 33/23 Q1008","temp":33,"dewp":23,"wdir":40,"wspd":6,"visib":"6+","altim":1008,"clouds":[{"cover":"SCT","base":3500},{"cover":"FEW","base":4000}],"obsTime":1784408400},"SBSG":{"icaoId":"SBSG","flightCategory":"VFR","rawOb":"METAR SBSG 182100Z 16007KT 9999 SCT021 SCT050 24/23 Q1014","temp":24,"dewp":23,"wdir":160,"wspd":7,"visib":"6+","altim":1014,"clouds":[{"cover":"SCT","base":2100},{"cover":"SCT","base":5000}],"obsTime":1784408400},"SBSL":{"icaoId":"SBSL","flightCategory":"VFR","rawOb":"METAR SBSL 182100Z 16004KT 9999 FEW020 BKN080 29/24 Q1010","temp":29,"dewp":24,"wdir":160,"wspd":4,"visib":"6+","altim":1010,"clouds":[{"cover":"FEW","base":2000},{"cover":"BKN","base":8000}],"obsTime":1784408400},"SBSV":{"icaoId":"SBSV","flightCategory":"MVFR","rawOb":"METAR SBSV 182100Z 11008KT 9999 BKN021 BKN060 24/20 Q1018","temp":24,"dewp":20,"wdir":110,"wspd":8,"visib":"6+","altim":1018,"clouds":[{"cover":"BKN","base":2100},{"cover":"BKN","base":6000}],"obsTime":1784408400},"SBGL":{"icaoId":"SBGL","flightCategory":"VFR","rawOb":"METAR SBGL 182100Z 02010KT CAVOK 26/13 Q1016","temp":26,"dewp":13,"wdir":20,"wspd":10,"visib":"6+","altim":1016,"clouds":[],"obsTime":1784408400},"SBGR":{"icaoId":"SBGR","flightCategory":"VFR","rawOb":"METAR SBGR 182100Z 01006KT CAVOK 22/10 Q1019","temp":22,"dewp":10,"wdir":10,"wspd":6,"visib":"6+","altim":1019,"clouds":[],"obsTime":1784408400},"SBCP":{"icaoId":"SBCP","flightCategory":"VFR","rawOb":"METAR SBCP 182100Z 07014KT CAVOK 22/19 Q1019","temp":22,"dewp":19,"wdir":70,"wspd":14,"visib":"6+","altim":1019,"clouds":[],"obsTime":1784408400},"SBGO":{"icaoId":"SBGO","flightCategory":"VFR","rawOb":"METAR SBGO 182100Z 12007KT CAVOK 26/08 Q1017","temp":26,"dewp":8,"wdir":120,"wspd":7,"visib":"6+","altim":1017,"clouds":[],"obsTime":1784408400},"SBRF":{"icaoId":"SBRF","flightCategory":"VFR","rawOb":"METAR SBRF 182100Z 16013KT 9999 SCT026 BKN050 26/21 Q1015","temp":26,"dewp":21,"wdir":160,"wspd":13,"visib":"6+","altim":1015,"clouds":[{"cover":"SCT","base":2600},{"cover":"BKN","base":5000}],"obsTime":1784408400},"SBCZ":{"icaoId":"SBCZ","flightCategory":"VFR","rawOb":"METAR SBCZ 182100Z 30003KT 9999 SCT030 32/23 Q1009","temp":32,"dewp":23,"wdir":300,"wspd":3,"visib":"6+","altim":1009,"clouds":[{"cover":"SCT","base":3000}],"obsTime":1784408400},"SBFL":{"icaoId":"SBFL","flightCategory":"VFR","rawOb":"METAR SBFL 182100Z 36013KT CAVOK 24/13 Q1010","temp":24,"dewp":13,"wdir":360,"wspd":13,"visib":"6+","altim":1010,"clouds":[],"obsTime":1784408400},"SBVT":{"icaoId":"SBVT","flightCategory":"VFR","rawOb":"METAR SBVT 182100Z 35004KT 9999 SCT020 BKN035 OVC052 22/18 Q1020","temp":22,"dewp":18,"wdir":350,"wspd":4,"visib":"6+","altim":1020,"clouds":[{"cover":"SCT","base":2000},{"cover":"BKN","base":3500},{"cover":"OVC","base":5200}],"obsTime":1784408400},"SBIL":{"icaoId":"SBIL","flightCategory":"VFR","rawOb":"METAR SBIL 182100Z 15007KT 9999 SCT023 25/20 Q1019","temp":25,"dewp":20,"wdir":150,"wspd":7,"visib":"6+","altim":1019,"clouds":[{"cover":"SCT","base":2300}],"obsTime":1784408400},"SBPJ":{"icaoId":"SBPJ","flightCategory":"VFR","rawOb":"METAR SBPJ 182100Z 12005KT CAVOK 31/16 Q1013","temp":31,"dewp":16,"wdir":120,"wspd":5,"visib":"6+","altim":1013,"clouds":[],"obsTime":1784408400},"SBPA":{"icaoId":"SBPA","flightCategory":"VFR","rawOb":"METAR SBPA 182100Z 32008KT CAVOK 31/17 Q1003","temp":31,"dewp":17,"wdir":320,"wspd":8,"visib":"6+","altim":1003,"clouds":[],"obsTime":1784408400},"SBJU":{"icaoId":"SBJU","flightCategory":"VFR","rawOb":"METAR SBJU 182100Z 20008KT 9999 FEW020 25/18 Q1015","temp":25,"dewp":18,"wdir":200,"wspd":8,"visib":"6+","altim":1015,"clouds":[{"cover":"FEW","base":2000}],"obsTime":1784408400},"SBNT":{"icaoId":"SBNT","flightCategory":"VFR","rawOb":"METAR SBNT 182100Z 17010KT 9999 SCT018 BKN046 25/22 Q1013","temp":25,"dewp":22,"wdir":170,"wspd":10,"visib":"6+","altim":1013,"clouds":[{"cover":"SCT","base":1800},{"cover":"BKN","base":4600}],"obsTime":1784408400},"SBMA":{"icaoId":"SBMA","flightCategory":"VFR","rawOb":"METAR SBMA 182100Z 06005KT 9999 FEW020 32/18 Q1010","temp":32,"dewp":18,"wdir":60,"wspd":5,"visib":"6+","altim":1010,"clouds":[{"cover":"FEW","base":2000}],"obsTime":1784408400},"SBMG":{"icaoId":"SBMG","flightCategory":"VFR","rawOb":"METAR SBMG 182100Z 03012KT CAVOK 24/12 Q1013","temp":24,"dewp":12,"wdir":30,"wspd":12,"visib":"6+","altim":1013,"clouds":[],"obsTime":1784408400},"SBFI":{"icaoId":"SBFI","flightCategory":"VFR","rawOb":"METAR SBFI 182100Z 03013G23KT CAVOK 28/17 Q1005","temp":28,"dewp":17,"wdir":30,"wspd":13,"visib":"6+","altim":1005,"clouds":[],"obsTime":1784408400},"SBKP":{"icaoId":"SBKP","flightCategory":"VFR","rawOb":"METAR SBKP 182100Z 01006KT CAVOK 22/08 Q1019","temp":22,"dewp":8,"wdir":10,"wspd":6,"visib":"6+","altim":1019,"clouds":[],"obsTime":1784408400},"SBME":{"icaoId":"SBME","flightCategory":"VFR","rawOb":"METAR SBME 182100Z 03014KT CAVOK 23/18 Q1018","temp":23,"dewp":18,"wdir":30,"wspd":14,"visib":"6+","altim":1018,"clouds":[],"obsTime":1784408400},"SBTE":{"icaoId":"SBTE","flightCategory":"VFR","rawOb":"METAR SBTE 182100Z 15006KT CAVOK 31/18 Q1011","temp":31,"dewp":18,"wdir":150,"wspd":6,"visib":"6+","altim":1011,"clouds":[],"obsTime":1784408400},"SBMK":{"icaoId":"SBMK","flightCategory":"VFR","rawOb":"METAR SBMK 182100Z 08007KT CAVOK 22/10 Q1020","temp":22,"dewp":10,"wdir":80,"wspd":7,"visib":"6+","altim":1020,"clouds":[],"obsTime":1784408400},"SBUL":{"icaoId":"SBUL","flightCategory":"VFR","rawOb":"METAR SBUL 182100Z COR 06012KT CAVOK 20/09 Q1020","temp":20,"dewp":9,"wdir":60,"wspd":12,"visib":"6+","altim":1020,"clouds":[],"obsTime":1784408400},"SBMO":{"icaoId":"SBMO","flightCategory":"VFR","rawOb":"METAR SBMO 182100Z 14008KT 9999 SCT018 25/20 Q1016","temp":25,"dewp":20,"wdir":140,"wspd":8,"visib":"6+","altim":1016,"clouds":[{"cover":"SCT","base":1800}],"obsTime":1784408400},"SBMQ":{"icaoId":"SBMQ","flightCategory":"VFR","rawOb":"METAR SBMQ 182100Z 04005KT 9999 SCT020 29/25 Q1010","temp":29,"dewp":25,"wdir":40,"wspd":5,"visib":"6+","altim":1010,"clouds":[{"cover":"SCT","base":2000}],"obsTime":1784408400},"SBUR":{"icaoId":"SBUR","flightCategory":"VFR","rawOb":"METAR SBUR 182100Z 03004KT CAVOK 23/10 Q1019","temp":23,"dewp":10,"wdir":30,"wspd":4,"visib":"6+","altim":1019,"clouds":[],"obsTime":1784408400},"SBFZ":{"icaoId":"SBFZ","flightCategory":"MVFR","rawOb":"SPECI SBFZ 182040Z 12015G25KT 6000 -SHRA SCT020 FEW030TCU BKN050 27/23 Q1012","temp":27,"dewp":23,"wdir":120,"wspd":15,"visib":3.73,"altim":1012,"clouds":[{"cover":"SCT","base":2000},{"cover":"FEW","base":3000},{"cover":"BKN","base":5000}],"obsTime":1784407200},"SBBR":{"icaoId":"SBBR","flightCategory":"VFR","rawOb":"METAR SBBR 182100Z 10009KT CAVOK 22/10 Q1020","temp":22,"dewp":10,"wdir":100,"wspd":9,"visib":"6+","altim":1020,"clouds":[],"obsTime":1784408400},"SBBE":{"icaoId":"SBBE","flightCategory":"VFR","rawOb":"METAR SBBE 182100Z 11003KT 9999 SCT042 BKN074 31/23 Q1010","temp":31,"dewp":23,"wdir":110,"wspd":3,"visib":"6+","altim":1010,"clouds":[{"cover":"SCT","base":4200},{"cover":"BKN","base":7400}],"obsTime":1784408400},"SBRB":{"icaoId":"SBRB","flightCategory":"VFR","rawOb":"METAR SBRB 182100Z 34007KT 9999 FEW035 32/23 Q1009","temp":32,"dewp":23,"wdir":340,"wspd":7,"visib":"6+","altim":1009,"clouds":[{"cover":"FEW","base":3500}],"obsTime":1784408400},"SBLO":{"icaoId":"SBLO","flightCategory":"VFR","rawOb":"METAR SBLO 182100Z 05007KT CAVOK 24/11 Q1015","temp":24,"dewp":11,"wdir":50,"wspd":7,"visib":"6+","altim":1015,"clouds":[],"obsTime":1784408400},"SBCT":{"icaoId":"SBCT","flightCategory":"VFR","rawOb":"METAR SBCT 182100Z 01007KT CAVOK 20/11 Q1017","temp":20,"dewp":11,"wdir":10,"wspd":7,"visib":"6+","altim":1017,"clouds":[],"obsTime":1784408400},"SBCG":{"icaoId":"SBCG","flightCategory":"VFR","rawOb":"METAR SBCG 182100Z 34008KT CAVOK 28/15 Q1012","temp":28,"dewp":15,"wdir":340,"wspd":8,"visib":"6+","altim":1012,"clouds":[],"obsTime":1784408400},"SBEG":{"icaoId":"SBEG","flightCategory":"VFR","rawOb":"METAR SBEG 182100Z 08009KT 9999 FEW030 31/22 Q1009","temp":31,"dewp":22,"wdir":80,"wspd":9,"visib":"6+","altim":1009,"clouds":[{"cover":"FEW","base":3000}],"obsTime":1784408400},"SBSP":{"icaoId":"SBSP","flightCategory":"VFR","rawOb":"METAR SBSP 182100Z 35007KT 320V030 CAVOK 21/09 Q1020","temp":21,"dewp":9,"wdir":350,"wspd":7,"visib":"6+","altim":1020,"clouds":[],"obsTime":1784408400},"SBCB":{"icaoId":"SBCB","flightCategory":"VFR","rawOb":"METAR SBCB 182100Z 09016KT CAVOK 23/19 Q1017","temp":23,"dewp":19,"wdir":90,"wspd":16,"visib":"6+","altim":1017,"clouds":[],"obsTime":1784408400},"SBAT":{"icaoId":"SBAT","flightCategory":"VFR","rawOb":"METAR SBAT 182100Z 02004KT 9999 FEW035 32/19 Q1011","temp":32,"dewp":19,"wdir":20,"wspd":4,"visib":"6+","altim":1011,"clouds":[{"cover":"FEW","base":3500}],"obsTime":1784408400},"SBHT":{"icaoId":"SBHT","flightCategory":"VFR","rawOb":"METAR SBHT 182100Z 13003KT CAVOK 31/22 Q1010","temp":31,"dewp":22,"wdir":130,"wspd":3,"visib":"6+","altim":1010,"clouds":[],"obsTime":1784408400},"SBCR":{"icaoId":"SBCR","flightCategory":"VFR","rawOb":"METAR SBCR 182100Z 03009KT CAVOK 31/21 Q1006","temp":31,"dewp":21,"wdir":30,"wspd":9,"visib":"6+","altim":1006,"clouds":[],"obsTime":1784408400},"SBTU":{"icaoId":"SBTU","flightCategory":"VFR","rawOb":"METAR SBTU 182100Z AUTO 33003KT 9999 // NCD 30/21 Q1012","temp":30,"dewp":21,"wdir":330,"wspd":3,"visib":"6+","altim":1012,"clouds":[],"obsTime":1784408400},"SBUY":{"icaoId":"SBUY","flightCategory":"VFR","rawOb":"METAR SBUY 182100Z 19002KT 9999 SCT025 31/25 Q1007","temp":31,"dewp":25,"wdir":190,"wspd":2,"visib":"6+","altim":1007,"clouds":[{"cover":"SCT","base":2500}],"obsTime":1784408400},"SBAR":{"icaoId":"SBAR","flightCategory":"VFR","rawOb":"METAR SBAR 182100Z 13009KT 9999 SCT026 26/20 Q1016","temp":26,"dewp":20,"wdir":130,"wspd":9,"visib":"6+","altim":1016,"clouds":[{"cover":"SCT","base":2600}],"obsTime":1784408400},"SBSJ":{"icaoId":"SBSJ","flightCategory":"VFR","rawOb":"METAR SBSJ 182100Z 01003KT 310V050 CAVOK 21/10 Q1018","temp":21,"dewp":10,"wdir":10,"wspd":3,"visib":"6+","altim":1018,"clouds":[],"obsTime":1784408400},"SBPS":{"icaoId":"SBPS","flightCategory":"VFR","rawOb":"METAR SBPS 182100Z 18002KT 9999 FEW030 BKN070 23/20 Q1020","temp":23,"dewp":20,"wdir":180,"wspd":2,"visib":"6+","altim":1020,"clouds":[{"cover":"FEW","base":3000},{"cover":"BKN","base":7000}],"obsTime":1784408400},"SBCA":{"icaoId":"SBCA","flightCategory":"VFR","rawOb":"METAR SBCA 182100Z 03016G26KT CAVOK 24/13 Q1011","temp":24,"dewp":13,"wdir":30,"wspd":16,"visib":"6+","altim":1011,"clouds":[],"obsTime":1784408400},"SBKG":{"icaoId":"SBKG","flightCategory":"MVFR","rawOb":"METAR SBKG 182100Z 11008KT 9999 BKN015 21/20 Q1017","temp":21,"dewp":20,"wdir":110,"wspd":8,"visib":"6+","altim":1017,"clouds":[{"cover":"BKN","base":1500}],"obsTime":1784408400},"SBCO":{"icaoId":"SBCO","flightCategory":"VFR","rawOb":"METAR SBCO 182100Z 35007KT CAVOK 31/18 Q1003","temp":31,"dewp":18,"wdir":350,"wspd":7,"visib":"6+","altim":1003,"clouds":[],"obsTime":1784408400},"SBSM":{"icaoId":"SBSM","flightCategory":"VFR","rawOb":"METAR SBSM 182100Z 04006KT 9999 FEW045 SCT080 29/20 Q1002","temp":29,"dewp":20,"wdir":40,"wspd":6,"visib":"6+","altim":1002,"clouds":[{"cover":"FEW","base":4500},{"cover":"SCT","base":8000}],"obsTime":1784408400},"SBVH":{"icaoId":"SBVH","flightCategory":"VFR","rawOb":"METAR SBVH 182100Z 01009KT 9999 BKN035 FEW040TCU 29/20 Q1012","temp":29,"dewp":20,"wdir":10,"wspd":9,"visib":"6+","altim":1012,"clouds":[{"cover":"BKN","base":3500},{"cover":"FEW","base":4000}],"obsTime":1784408400},"SBAX":{"icaoId":"SBAX","flightCategory":"VFR","rawOb":"METAR SBAX 182100Z AUTO 04003KT 010V070 CAVOK 20/09 Q1020","temp":20,"dewp":9,"wdir":40,"wspd":3,"visib":"6+","altim":1020,"clouds":[],"obsTime":1784408400},"SBBH":{"icaoId":"SBBH","flightCategory":"VFR","rawOb":"METAR SBBH 182100Z 09005KT CAVOK 21/11 Q1021","temp":21,"dewp":11,"wdir":90,"wspd":5,"visib":"6+","altim":1021,"clouds":[],"obsTime":1784408400},"SBBU":{"icaoId":"SBBU","flightCategory":"VFR","rawOb":"METAR SBBU 182100Z 04003KT CAVOK 25/10 Q1017","temp":25,"dewp":10,"wdir":40,"wspd":3,"visib":"6+","altim":1017,"clouds":[],"obsTime":1784408400},"SBDN":{"icaoId":"SBDN","flightCategory":"VFR","rawOb":"METAR SBDN 182100Z 03005KT CAVOK 26/11 Q1014","temp":26,"dewp":11,"wdir":30,"wspd":5,"visib":"6+","altim":1014,"clouds":[],"obsTime":1784408400},"SBIP":{"icaoId":"SBIP","flightCategory":"VFR","rawOb":"METAR SBIP 182100Z AUTO VRB01KT CAVOK 19/15 Q1019","temp":19,"dewp":15,"wdir":"VRB","wspd":1,"visib":"6+","altim":1019,"clouds":[],"obsTime":1784408400},"SBSC":{"icaoId":"SBSC","flightCategory":"VFR","rawOb":"METAR SBSC 182100Z 04004KT CAVOK 24/14 Q1015","temp":24,"dewp":14,"wdir":40,"wspd":4,"visib":"6+","altim":1015,"clouds":[],"obsTime":1784408400},"SBSR":{"icaoId":"SBSR","flightCategory":"VFR","rawOb":"METAR SBSR 182100Z 03004KT CAVOK 26/07 Q1016","temp":26,"dewp":7,"wdir":30,"wspd":4,"visib":"6+","altim":1016,"clouds":[],"obsTime":1784408400},"SBOI":{"icaoId":"SBOI","flightCategory":"VFR","rawOb":"METAR SBOI 182100Z AUTO 12005KT 080V160 CAVOK 31/21 Q1010","temp":31,"dewp":21,"wdir":120,"wspd":5,"visib":"6+","altim":1010,"clouds":[],"obsTime":1784408400},"SBPL":{"icaoId":"SBPL","flightCategory":"VFR","rawOb":"METAR SBPL 182100Z 12011KT 9999 SCT033 SCT070 28/15 Q1016","temp":28,"dewp":15,"wdir":120,"wspd":11,"visib":"6+","altim":1016,"clouds":[{"cover":"SCT","base":3300},{"cover":"SCT","base":7000}],"obsTime":1784408400},"SBTF":{"icaoId":"SBTF","flightCategory":"VFR","rawOb":"SPECI SBTF 182040Z 31007KT 9999 3000W -RA FEW009 SCT020 BKN080 26/25 Q1009 RERA","temp":26,"dewp":25,"wdir":310,"wspd":7,"visib":"6+","altim":1009,"clouds":[{"cover":"FEW","base":900},{"cover":"SCT","base":2000},{"cover":"BKN","base":8000}],"obsTime":1784407200},"SBTT":{"icaoId":"SBTT","flightCategory":"VFR","rawOb":"METAR SBTT 182100Z 17004KT 120V230 9999 FEW030 FEW035TCU 32/24 Q1008","temp":32,"dewp":24,"wdir":170,"wspd":4,"visib":"6+","altim":1008,"clouds":[{"cover":"FEW","base":3000},{"cover":"FEW","base":3500}],"obsTime":1784408400},"SBPB":{"icaoId":"SBPB","flightCategory":"VFR","rawOb":"METAR SBPB 182100Z 06007KT 9999 FEW016 BKN090 28/25 Q1010","temp":28,"dewp":25,"wdir":60,"wspd":7,"visib":"6+","altim":1010,"clouds":[{"cover":"FEW","base":1600},{"cover":"BKN","base":9000}],"obsTime":1784408400},"SBCJ":{"icaoId":"SBCJ","flightCategory":"VFR","rawOb":"METAR SBCJ 182100Z 15003KT 100V160 9999 FEW030 28/16 Q1014","temp":28,"dewp":16,"wdir":150,"wspd":3,"visib":"6+","altim":1014,"clouds":[{"cover":"FEW","base":3000}],"obsTime":1784408400},"SBCC":{"icaoId":"SBCC","flightCategory":"VFR","rawOb":"METAR SBCC 182100Z 03007KT 360V060 CAVOK 30/16 Q1013","temp":30,"dewp":16,"wdir":30,"wspd":7,"visib":"6+","altim":1013,"clouds":[],"obsTime":1784408400},"SBES":{"icaoId":"SBES","flightCategory":"VFR","rawOb":"METAR SBES 182100Z 06017KT CAVOK 22/// Q1017","temp":null,"dewp":null,"wdir":60,"wspd":17,"visib":"6+","altim":1017,"clouds":[],"obsTime":1784408400},"SBPP":{"icaoId":"SBPP","flightCategory":"VFR","rawOb":"METAR SBPP 182100Z 03016KT CAVOK 26/17 Q1009","temp":26,"dewp":17,"wdir":30,"wspd":16,"visib":"6+","altim":1009,"clouds":[],"obsTime":1784408400},"SBAF":{"icaoId":"SBAF","flightCategory":"VFR","rawOb":"METAR SBAF 182100Z 03003KT CAVOK 25/12 Q1016","temp":25,"dewp":12,"wdir":30,"wspd":3,"visib":"6+","altim":1016,"clouds":[],"obsTime":1784408400},"SBGW":{"icaoId":"SBGW","flightCategory":"VFR","rawOb":"METAR SBGW 182100Z 06006KT CAVOK 22/09 Q1018","temp":22,"dewp":9,"wdir":60,"wspd":6,"visib":"6+","altim":1018,"clouds":[],"obsTime":1784408400},"SBJR":{"icaoId":"SBJR","flightCategory":"VFR","rawOb":"METAR SBJR 182100Z 30001KT CAVOK 21/17 Q1016","temp":21,"dewp":17,"wdir":300,"wspd":1,"visib":"6+","altim":1016,"clouds":[],"obsTime":1784408400},"SBLS":{"icaoId":"SBLS","flightCategory":"VFR","rawOb":"METAR SBLS 182100Z 05004KT 350V070 CAVOK 20/11 Q1021","temp":20,"dewp":11,"wdir":50,"wspd":4,"visib":"6+","altim":1021,"clouds":[],"obsTime":1784408400},"SBMT":{"icaoId":"SBMT","flightCategory":"VFR","rawOb":"METAR SBMT 182100Z 00000KT CAVOK 21/07 Q1018","temp":21,"dewp":7,"wdir":0,"wspd":0,"visib":"6+","altim":1018,"clouds":[],"obsTime":1784408400},"SBAN":{"icaoId":"SBAN","flightCategory":"VFR","rawOb":"METAR SBAN 182100Z 06003KT CAVOK 22/07 Q1020","temp":22,"dewp":7,"wdir":60,"wspd":3,"visib":"6+","altim":1020,"clouds":[],"obsTime":1784408400},"SBLE":{"icaoId":"SBLE","flightCategory":"VFR","rawOb":"METAR SBLE 182100Z AUTO VRB02KT CAVOK ///// Q1019","temp":null,"dewp":null,"wdir":"VRB","wspd":2,"visib":"6+","altim":1019,"clouds":[],"obsTime":1784408400},"SBJV":{"icaoId":"SBJV","flightCategory":"VFR","rawOb":"METAR SBJV 182100Z 21003KT CAVOK 22/18 Q1011","temp":22,"dewp":18,"wdir":210,"wspd":3,"visib":"6+","altim":1011,"clouds":[],"obsTime":1784408400},"SBJP":{"icaoId":"SBJP","flightCategory":"VFR","rawOb":"METAR SBJP 182100Z 15010KT 9999 SCT025 24/21 Q1014","temp":24,"dewp":21,"wdir":150,"wspd":10,"visib":"6+","altim":1014,"clouds":[{"cover":"SCT","base":2500}],"obsTime":1784408400},"SBST":{"icaoId":"SBST","flightCategory":"VFR","rawOb":"METAR SBST 182100Z 14005KT CAVOK 22/14 Q1014","temp":22,"dewp":14,"wdir":140,"wspd":5,"visib":"6+","altim":1014,"clouds":[],"obsTime":1784408400},"SBTA":{"icaoId":"SBTA","flightCategory":"VFR","rawOb":"METAR SBTA 182100Z VRB02KT CAVOK 21/11 Q1017","temp":21,"dewp":11,"wdir":"VRB","wspd":2,"visib":"6+","altim":1017,"clouds":[],"obsTime":1784408400},"SBIH":{"icaoId":"SBIH","flightCategory":"VFR","rawOb":"METAR SBIH 182100Z 03003KT 9999 FEW017 32/23 Q1009","temp":32,"dewp":23,"wdir":30,"wspd":3,"visib":"6+","altim":1009,"clouds":[{"cover":"FEW","base":1700}],"obsTime":1784408400}}}