{"updated":1776769106,"count":69,"data":{"SBEG":{"icaoId":"SBEG","flightCategory":"VFR","rawOb":"METAR SBEG 210900Z 34002KT 9999 SCT006 SCT100 24/24 Q1010","temp":24,"dewp":24,"wdir":340,"wspd":2,"visib":"6+","altim":1010,"clouds":[{"cover":"SCT","base":600},{"cover":"SCT","base":10000}],"obsTime":1776762000},"SBBR":{"icaoId":"SBBR","flightCategory":"VFR","rawOb":"METAR SBBR 210900Z VRB01KT CAVOK 18/16 Q1018","temp":18,"dewp":16,"wdir":"VRB","wspd":1,"visib":"6+","altim":1018,"clouds":[],"obsTime":1776762000},"SBBE":{"icaoId":"SBBE","flightCategory":"VFR","rawOb":"METAR SBBE 210900Z 13003KT 9999 FEW030 BKN100 24/24 Q1010","temp":24,"dewp":24,"wdir":130,"wspd":3,"visib":"6+","altim":1010,"clouds":[{"cover":"FEW","base":3000},{"cover":"BKN","base":10000}],"obsTime":1776762000},"SBBV":{"icaoId":"SBBV","flightCategory":"VFR","rawOb":"METAR SBBV 210900Z 29001KT 9999 FEW040 SCT100 26/23 Q1011","temp":26,"dewp":23,"wdir":290,"wspd":1,"visib":"6+","altim":1011,"clouds":[{"cover":"FEW","base":4000},{"cover":"SCT","base":10000}],"obsTime":1776762000},"SBCB":{"icaoId":"SBCB","flightCategory":"VFR","rawOb":"METAR SBCB 210900Z 03004KT 9999 FEW010 BKN040 21/20 Q1016","temp":21,"dewp":20,"wdir":30,"wspd":4,"visib":"6+","altim":1016,"clouds":[{"cover":"FEW","base":1000},{"cover":"BKN","base":4000}],"obsTime":1776762000},"SBCF":{"icaoId":"SBCF","flightCategory":"MVFR","rawOb":"METAR SBCF 210900Z 14004KT 120V180 8000 FEW030 SCT090 20/18 Q1018","temp":20,"dewp":18,"wdir":140,"wspd":4,"visib":4.97,"altim":1018,"clouds":[{"cover":"FEW","base":3000},{"cover":"SCT","base":9000}],"obsTime":1776762000},"SBCG":{"icaoId":"SBCG","flightCategory":"VFR","rawOb":"METAR SBCG 210900Z 07007KT CAVOK 24/19 Q1014","temp":24,"dewp":19,"wdir":70,"wspd":7,"visib":"6+","altim":1014,"clouds":[],"obsTime":1776762000},"SBCP":{"icaoId":"SBCP","flightCategory":"VFR","rawOb":"METAR SBCP 211000Z 33002KT 9999 FEW020 20/19 Q1016","temp":20,"dewp":19,"wdir":330,"wspd":2,"visib":"6+","altim":1016,"clouds":[{"cover":"FEW","base":2000}],"obsTime":1776765600},"SBCT":{"icaoId":"SBCT","flightCategory":"VFR","rawOb":"METAR SBCT 210900Z 12004KT 9000 NSC 14/13 Q1020","temp":14,"dewp":13,"wdir":120,"wspd":4,"visib":5.59,"altim":1020,"clouds":[],"obsTime":1776762000},"SBFI":{"icaoId":"SBFI","flightCategory":"VFR","rawOb":"METAR SBFI 210900Z 11006KT 9999 SCT003 21/21 Q1013","temp":21,"dewp":21,"wdir":110,"wspd":6,"visib":"6+","altim":1013,"clouds":[{"cover":"SCT","base":300}],"obsTime":1776762000},"SBFL":{"icaoId":"SBFL","flightCategory":"VFR","rawOb":"METAR SBFL 210900Z 29004KT CAVOK 20/18 Q1017","temp":20,"dewp":18,"wdir":290,"wspd":4,"visib":"6+","altim":1017,"clouds":[],"obsTime":1776762000},"SBFZ":{"icaoId":"SBFZ","flightCategory":"MVFR","rawOb":"METAR SBFZ 210900Z 11004KT 6000 -RA FEW006 BKN020 FEW025TCU OVC080 24/23 Q1011","temp":24,"dewp":23,"wdir":110,"wspd":4,"visib":3.73,"altim":1011,"clouds":[{"cover":"FEW","base":600},{"cover":"BKN","base":2000},{"cover":"FEW","base":2500},{"cover":"OVC","base":8000}],"obsTime":1776762000},"SBGL":{"icaoId":"SBGL","flightCategory":"VFR","rawOb":"METAR SBGL 210900Z 32003KT 9999 FEW020 BKN050 22/19 Q1016","temp":22,"dewp":19,"wdir":320,"wspd":3,"visib":"6+","altim":1016,"clouds":[{"cover":"FEW","base":2000},{"cover":"BKN","base":5000}],"obsTime":1776762000},"SBGO":{"icaoId":"SBGO","flightCategory":"VFR","rawOb":"METAR SBGO 210900Z VRB01KT CAVOK 21/20 Q1016","temp":21,"dewp":20,"wdir":"VRB","wspd":1,"visib":"6+","altim":1016,"clouds":[],"obsTime":1776762000},"SBGR":{"icaoId":"SBGR","flightCategory":"MVFR","rawOb":"METAR SBGR 210900Z 10001KT 7000 NSC 13/13 Q1019","temp":13,"dewp":13,"wdir":100,"wspd":1,"visib":4.35,"altim":1019,"clouds":[],"obsTime":1776762000},"SBHT":{"icaoId":"SBHT","flightCategory":"MVFR","rawOb":"METAR SBHT 211000Z 00000KT 5000 1000W BCFG SCT010 BKN080 24/23 Q1011","temp":24,"dewp":23,"wdir":0,"wspd":0,"visib":3.11,"altim":1011,"clouds":[{"cover":"SCT","base":1000},{"cover":"BKN","base":8000}],"obsTime":1776765600},"SBIL":{"icaoId":"SBIL","flightCategory":"VFR","rawOb":"METAR SBIL 211000Z 25006KT 9999 SCT020 25/23 Q1014","temp":25,"dewp":23,"wdir":250,"wspd":6,"visib":"6+","altim":1014,"clouds":[{"cover":"SCT","base":2000}],"obsTime":1776765600},"SBJU":{"icaoId":"SBJU","flightCategory":"VFR","rawOb":"METAR SBJU 210900Z 00000KT 9999 SCT020 22/21 Q1014","temp":22,"dewp":21,"wdir":0,"wspd":0,"visib":"6+","altim":1014,"clouds":[{"cover":"SCT","base":2000}],"obsTime":1776762000},"SBKP":{"icaoId":"SBKP","flightCategory":"VFR","rawOb":"METAR SBKP 210900Z 14007KT CAVOK 15/13 Q1018","temp":15,"dewp":13,"wdir":140,"wspd":7,"visib":"6+","altim":1018,"clouds":[],"obsTime":1776762000},"SBLO":{"icaoId":"SBLO","flightCategory":"VFR","rawOb":"METAR SBLO 210900Z 11003KT CAVOK 18/15 Q1018","temp":18,"dewp":15,"wdir":110,"wspd":3,"visib":"6+","altim":1018,"clouds":[],"obsTime":1776762000},"SBMA":{"icaoId":"SBMA","flightCategory":"MVFR","rawOb":"METAR SBMA 210900Z 00000KT 9999 BKN020 25/24 Q1011","temp":25,"dewp":24,"wdir":0,"wspd":0,"visib":"6+","altim":1011,"clouds":[{"cover":"BKN","base":2000}],"obsTime":1776762000},"SBME":{"icaoId":"SBME","flightCategory":"VFR","rawOb":"METAR SBME 210900Z 34003KT CAVOK 18/16 Q1015","temp":18,"dewp":16,"wdir":340,"wspd":3,"visib":"6+","altim":1015,"clouds":[],"obsTime":1776762000},"SBMG":{"icaoId":"SBMG","flightCategory":"VFR","rawOb":"METAR SBMG 210900Z AUTO 06007KT CAVOK 20/15 Q1016","temp":20,"dewp":15,"wdir":60,"wspd":7,"visib":"6+","altim":1016,"clouds":[],"obsTime":1776762000},"SBMK":{"icaoId":"SBMK","flightCategory":"VFR","rawOb":"METAR SBMK 210900Z 08003KT CAVOK 20/18 Q1017","temp":20,"dewp":18,"wdir":80,"wspd":3,"visib":"6+","altim":1017,"clouds":[],"obsTime":1776762000},"SBMO":{"icaoId":"SBMO","flightCategory":"VFR","rawOb":"METAR SBMO 210900Z 31005KT 9999 SCT017 23/23 Q1011","temp":23,"dewp":23,"wdir":310,"wspd":5,"visib":"6+","altim":1011,"clouds":[{"cover":"SCT","base":1700}],"obsTime":1776762000},"SBMQ":{"icaoId":"SBMQ","flightCategory":"VFR","rawOb":"METAR SBMQ 210900Z 36002KT 9999 SCT020 25/25 Q1010","temp":25,"dewp":25,"wdir":360,"wspd":2,"visib":"6+","altim":1010,"clouds":[{"cover":"SCT","base":2000}],"obsTime":1776762000},"SBNT":{"icaoId":"SBNT","flightCategory":"VFR","rawOb":"METAR SBNT 210900Z 19005KT 9999 VCSH FEW013 SCT020 FEW023TCU 24/24 Q1010","temp":24,"dewp":24,"wdir":190,"wspd":5,"visib":"6+","altim":1010,"clouds":[{"cover":"FEW","base":1300},{"cover":"SCT","base":2000},{"cover":"FEW","base":2300}],"obsTime":1776762000},"SBPA":{"icaoId":"SBPA","flightCategory":"LIFR","rawOb":"METAR SBPA 210900Z VRB04KT 5000 BR BKN004 19/19 Q1015","temp":19,"dewp":19,"wdir":"VRB","wspd":4,"visib":3.11,"altim":1015,"clouds":[{"cover":"BKN","base":400}],"obsTime":1776762000},"SBPJ":{"icaoId":"SBPJ","flightCategory":"VFR","rawOb":"METAR SBPJ 210900Z 11003KT 9999 SCT016 BKN100 24/24 Q1012","temp":24,"dewp":24,"wdir":110,"wspd":3,"visib":"6+","altim":1012,"clouds":[{"cover":"SCT","base":1600},{"cover":"BKN","base":10000}],"obsTime":1776762000},"SBPV":{"icaoId":"SBPV","flightCategory":"VFR","rawOb":"METAR SBPV 210900Z 00000KT CAVOK 25/23 Q1010","temp":25,"dewp":23,"wdir":0,"wspd":0,"visib":"6+","altim":1010,"clouds":[],"obsTime":1776762000},"SBRB":{"icaoId":"SBRB","flightCategory":"MVFR","rawOb":"METAR SBRB 210900Z 33003KT 6000 -RA FEW027 SCT100 23/23 Q1011","temp":23,"dewp":23,"wdir":330,"wspd":3,"visib":3.73,"altim":1011,"clouds":[{"cover":"FEW","base":2700},{"cover":"SCT","base":10000}],"obsTime":1776762000},"SBRF":{"icaoId":"SBRF","flightCategory":"MVFR","rawOb":"METAR SBRF 210900Z 24004KT 9999 VCSH SCT015 BKN020 FEW025TCU 25/24 Q1010","temp":25,"dewp":24,"wdir":240,"wspd":4,"visib":"6+","altim":1010,"clouds":[{"cover":"SCT","base":1500},{"cover":"BKN","base":2000},{"cover":"FEW","base":2500}],"obsTime":1776762000},"SBSG":{"icaoId":"SBSG","flightCategory":"MVFR","rawOb":"METAR SBSG 210900Z 19004KT 9999 FEW010 BKN020 24/24 Q1011","temp":24,"dewp":24,"wdir":190,"wspd":4,"visib":"6+","altim":1011,"clouds":[{"cover":"FEW","base":1000},{"cover":"BKN","base":2000}],"obsTime":1776762000},"SBSL":{"icaoId":"SBSL","flightCategory":"VFR","rawOb":"METAR SBSL 210900Z VRB02KT 9999 SCT016 BKN080 25/24 Q1010","temp":25,"dewp":24,"wdir":"VRB","wspd":2,"visib":"6+","altim":1010,"clouds":[{"cover":"SCT","base":1600},{"cover":"BKN","base":8000}],"obsTime":1776762000},"SBSN":{"icaoId":"SBSN","flightCategory":"VFR","rawOb":"METAR SBSN 210900Z 32005KT 9999 TS VCSH SCT013 FEW025CB BKN070 25/24 Q1010 RERA","temp":25,"dewp":24,"wdir":320,"wspd":5,"visib":"6+","altim":1010,"clouds":[{"cover":"SCT","base":1300},{"cover":"FEW","base":2500},{"cover":"BKN","base":7000}],"obsTime":1776762000},"SBSP":{"icaoId":"SBSP","flightCategory":"VFR","rawOb":"METAR SBSP 210900Z 16003KT CAVOK 15/14 Q1020","temp":15,"dewp":14,"wdir":160,"wspd":3,"visib":"6+","altim":1020,"clouds":[],"obsTime":1776762000},"SBSV":{"icaoId":"SBSV","flightCategory":"VFR","rawOb":"METAR SBSV 210900Z 15008KT 9999 SCT023 28/23 Q1012","temp":28,"dewp":23,"wdir":150,"wspd":8,"visib":"6+","altim":1012,"clouds":[{"cover":"SCT","base":2300}],"obsTime":1776762000},"SBTE":{"icaoId":"SBTE","flightCategory":"IFR","rawOb":"METAR SBTE 210900Z 00000KT 9999 SCT006 BKN008 24/23 Q1011","temp":24,"dewp":23,"wdir":0,"wspd":0,"visib":"6+","altim":1011,"clouds":[{"cover":"SCT","base":600},{"cover":"BKN","base":800}],"obsTime":1776762000},"SBUL":{"icaoId":"SBUL","flightCategory":"VFR","rawOb":"METAR SBUL 210900Z 13008KT CAVOK 20/16 Q1018","temp":20,"dewp":16,"wdir":130,"wspd":8,"visib":"6+","altim":1018,"clouds":[],"obsTime":1776762000},"SBUR":{"icaoId":"SBUR","flightCategory":"VFR","rawOb":"METAR SBUR 210900Z 02005KT CAVOK 21/15 Q1016","temp":21,"dewp":15,"wdir":20,"wspd":5,"visib":"6+","altim":1016,"clouds":[],"obsTime":1776762000},"SBVT":{"icaoId":"SBVT","flightCategory":"VFR","rawOb":"METAR SBVT 210900Z 01002KT CAVOK 19/18 Q1016","temp":19,"dewp":18,"wdir":10,"wspd":2,"visib":"6+","altim":1016,"clouds":[],"obsTime":1776762000},"SBPB":{"icaoId":"SBPB","flightCategory":"VFR","rawOb":"SPECI SBPB 211015Z 20003KT 9999 SCT016 BKN080 25/24 Q1011","temp":25,"dewp":24,"wdir":200,"wspd":3,"visib":"6+","altim":1011,"clouds":[{"cover":"SCT","base":1600},{"cover":"BKN","base":8000}],"obsTime":1776766500},"SBCJ":{"icaoId":"SBCJ","flightCategory":"VFR","rawOb":"SPECI SBCJ 211015Z 00000KT 9999 SCT020 22/21 Q1016","temp":22,"dewp":21,"wdir":0,"wspd":0,"visib":"6+","altim":1016,"clouds":[{"cover":"SCT","base":2000}],"obsTime":1776766500},"SBOI":{"icaoId":"SBOI","flightCategory":"LIFR","rawOb":"METAR SBOI 210900Z AUTO 00000KT 9999 // BKN001/// OVC004/// 24/24 Q1010","temp":24,"dewp":24,"wdir":0,"wspd":0,"visib":"6+","altim":1010,"clouds":[{"cover":"BKN","base":100},{"cover":"OVC","base":400}],"obsTime":1776762000},"SBBU":{"icaoId":"SBBU","flightCategory":"VFR","rawOb":"METAR SBBU 210900Z 12008KT CAVOK 17/15 Q1017","temp":17,"dewp":15,"wdir":120,"wspd":8,"visib":"6+","altim":1017,"clouds":[],"obsTime":1776762000},"SBSR":{"icaoId":"SBSR","flightCategory":"VFR","rawOb":"METAR SBSR 210900Z 18002KT CAVOK 18/13 Q1016","temp":18,"dewp":13,"wdir":180,"wspd":2,"visib":"6+","altim":1016,"clouds":[],"obsTime":1776762000},"SBAR":{"icaoId":"SBAR","flightCategory":"LIFR","rawOb":"METAR SBAR 210900Z 17010KT 1000 +RA BR SCT005 BKN017 BKN023 24/24 Q1012 RERA","temp":24,"dewp":24,"wdir":170,"wspd":10,"visib":0.62,"altim":1012,"clouds":[{"cover":"SCT","base":500},{"cover":"BKN","base":1700},{"cover":"BKN","base":2300}],"obsTime":1776762000},"SBBH":{"icaoId":"SBBH","flightCategory":"VFR","rawOb":"METAR SBBH 210900Z 08004KT CAVOK 20/18 Q1018","temp":20,"dewp":18,"wdir":80,"wspd":4,"visib":"6+","altim":1018,"clouds":[],"obsTime":1776762000},"SBCO":{"icaoId":"SBCO","flightCategory":"IFR","rawOb":"METAR SBCO 210900Z 32005KT 8000 BKN005 19/19 Q1016","temp":19,"dewp":19,"wdir":320,"wspd":5,"visib":4.97,"altim":1016,"clouds":[{"cover":"BKN","base":500}],"obsTime":1776762000},"SBDN":{"icaoId":"SBDN","flightCategory":"VFR","rawOb":"METAR SBDN 210900Z 11009KT CAVOK 18/14 Q1016","temp":18,"dewp":14,"wdir":110,"wspd":9,"visib":"6+","altim":1016,"clouds":[],"obsTime":1776762000},"SBES":{"icaoId":"SBES","flightCategory":"VFR","rawOb":"METAR SBES 210900Z VRB03KT 9999 VCSH FEW019 SCT080 19/// Q1016","temp":null,"dewp":null,"wdir":"VRB","wspd":3,"visib":"6+","altim":1016,"clouds":[{"cover":"FEW","base":1900},{"cover":"SCT","base":8000}],"obsTime":1776762000},"SBIP":{"icaoId":"SBIP","flightCategory":"VFR","rawOb":"METAR SBIP 210900Z AUTO VRB02KT 9999 BKN046 22/19 Q1017","temp":22,"dewp":19,"wdir":"VRB","wspd":2,"visib":"6+","altim":1017,"clouds":[{"cover":"BKN","base":4600}],"obsTime":1776762000},"SBKG":{"icaoId":"SBKG","flightCategory":"MVFR","rawOb":"METAR SBKG 210900Z 15002KT 9999 BKN010 22/22 Q1014","temp":22,"dewp":22,"wdir":150,"wspd":2,"visib":"6+","altim":1014,"clouds":[{"cover":"BKN","base":1000}],"obsTime":1776762000},"SBPL":{"icaoId":"SBPL","flightCategory":"VFR","rawOb":"METAR SBPL 210900Z 13008KT 9999 FEW025 BKN070 24/21 Q1014","temp":24,"dewp":21,"wdir":130,"wspd":8,"visib":"6+","altim":1014,"clouds":[{"cover":"FEW","base":2500},{"cover":"BKN","base":7000}],"obsTime":1776762000},"SBPS":{"icaoId":"SBPS","flightCategory":"VFR","rawOb":"METAR SBPS 210900Z 27004KT 9999 SCT020 23/22 Q1015","temp":23,"dewp":22,"wdir":270,"wspd":4,"visib":"6+","altim":1015,"clouds":[{"cover":"SCT","base":2000}],"obsTime":1776762000},"SBSC":{"icaoId":"SBSC","flightCategory":"VFR","rawOb":"METAR SBSC 210900Z 26004KT 9999 FEW015 22/20 Q1016","temp":22,"dewp":20,"wdir":260,"wspd":4,"visib":"6+","altim":1016,"clouds":[{"cover":"FEW","base":1500}],"obsTime":1776762000},"SBSJ":{"icaoId":"SBSJ","flightCategory":"VFR","rawOb":"METAR SBSJ 210900Z 13004KT CAVOK 13/12 Q1019","temp":13,"dewp":12,"wdir":130,"wspd":4,"visib":"6+","altim":1019,"clouds":[],"obsTime":1776762000},"SBSM":{"icaoId":"SBSM","flightCategory":"VFR","rawOb":"METAR SBSM 210900Z 05003KT 9999 -RA FEW035 OVC070 20/19 Q1016","temp":20,"dewp":19,"wdir":50,"wspd":3,"visib":"6+","altim":1016,"clouds":[{"cover":"FEW","base":3500},{"cover":"OVC","base":7000}],"obsTime":1776762000},"SBJP":{"icaoId":"SBJP","flightCategory":"VFR","rawOb":"METAR SBJP 210900Z 20005KT 9999 FEW020 24/24 Q1011","temp":24,"dewp":24,"wdir":200,"wspd":5,"visib":"6+","altim":1011,"clouds":[{"cover":"FEW","base":2000}],"obsTime":1776762000},"SBPF":{"icaoId":"SBPF","flightCategory":"VFR","rawOb":"METAR SBPF 210900Z 28005KT 9999 SCT020 19/15 Q1018","temp":19,"dewp":15,"wdir":280,"wspd":5,"visib":"6+","altim":1018,"clouds":[{"cover":"SCT","base":2000}],"obsTime":1776762000},"SBAF":{"icaoId":"SBAF","flightCategory":"VFR","rawOb":"METAR SBAF 211000Z 18001KT 9999 SCT046 21/21 Q1017","temp":21,"dewp":21,"wdir":180,"wspd":1,"visib":"6+","altim":1017,"clouds":[{"cover":"SCT","base":4600}],"obsTime":1776765600},"SBGW":{"icaoId":"SBGW","flightCategory":"VFR","rawOb":"METAR SBGW 210900Z VRB02KT 9999 SCT015 18/13 Q1018","temp":18,"dewp":13,"wdir":"VRB","wspd":2,"visib":"6+","altim":1018,"clouds":[{"cover":"SCT","base":1500}],"obsTime":1776762000},"SBJR":{"icaoId":"SBJR","flightCategory":"VFR","rawOb":"METAR SBJR 211000Z 00000KT 9999 SCT020 BKN050 23/21 Q1016","temp":23,"dewp":21,"wdir":0,"wspd":0,"visib":"6+","altim":1016,"clouds":[{"cover":"SCT","base":2000},{"cover":"BKN","base":5000}],"obsTime":1776765600},"SBLS":{"icaoId":"SBLS","flightCategory":"VFR","rawOb":"METAR SBLS 210900Z 15007KT 9999 FEW020 SCT070 20/18 Q1018","temp":20,"dewp":18,"wdir":150,"wspd":7,"visib":"6+","altim":1018,"clouds":[{"cover":"FEW","base":2000},{"cover":"SCT","base":7000}],"obsTime":1776762000},"SBMT":{"icaoId":"SBMT","flightCategory":"VFR","rawOb":"METAR SBMT 210900Z 08003KT CAVOK 15/13 Q1019","temp":15,"dewp":13,"wdir":80,"wspd":3,"visib":"6+","altim":1019,"clouds":[],"obsTime":1776762000},"SBTA":{"icaoId":"SBTA","flightCategory":"VFR","rawOb":"METAR SBTA 210900Z VRB01KT CAVOK 14/14 Q1018","temp":14,"dewp":14,"wdir":"VRB","wspd":1,"visib":"6+","altim":1018,"clouds":[],"obsTime":1776762000},"SBLE":{"icaoId":"SBLE","flightCategory":"VFR","rawOb":"METAR SBLE 210900Z AUTO VRB01KT CAVOK ///// Q////","temp":null,"dewp":null,"wdir":"VRB","wspd":1,"visib":"6+","altim":null,"clouds":[],"obsTime":1776762000},"SBAN":{"icaoId":"SBAN","flightCategory":"VFR","rawOb":"METAR SBAN 210900Z 14005KT CAVOK 20/17 Q1019","temp":20,"dewp":17,"wdir":140,"wspd":5,"visib":"6+","altim":1019,"clouds":[],"obsTime":1776762000},"SBJV":{"icaoId":"SBJV","flightCategory":"MVFR","rawOb":"METAR SBJV 210900Z 15002KT 8000 SCT010 BKN030 19/19 Q1017","temp":19,"dewp":19,"wdir":150,"wspd":2,"visib":4.97,"altim":1017,"clouds":[{"cover":"SCT","base":1000},{"cover":"BKN","base":3000}],"obsTime":1776762000}}}