{"updated":1777585421,"count":84,"data":{"SBCT":{"icaoId":"SBCT","flightCategory":"VFR","rawOb":"METAR SBCT 302000Z 11007KT 9999 SCT040 19/16 Q1020","temp":19,"dewp":16,"wdir":110,"wspd":7,"visib":"6+","altim":1020,"clouds":[{"cover":"SCT","base":4000}],"obsTime":1777579200},"SBRF":{"icaoId":"SBRF","flightCategory":"VFR","rawOb":"METAR SBRF 302000Z 14008KT 100V170 9999 SCT020 FEW025TCU BKN060 28/25 Q1010","temp":28,"dewp":25,"wdir":140,"wspd":8,"visib":"6+","altim":1010,"clouds":[{"cover":"SCT","base":2000},{"cover":"FEW","base":2500},{"cover":"BKN","base":6000}],"obsTime":1777579200},"SBAT":{"icaoId":"SBAT","flightCategory":"VFR","rawOb":"METAR SBAT 302000Z 15005KT 9999 VCSH FEW040 FEW045TCU 31/24 Q1008","temp":31,"dewp":24,"wdir":150,"wspd":5,"visib":"6+","altim":1008,"clouds":[{"cover":"FEW","base":4000},{"cover":"FEW","base":4500}],"obsTime":1777579200},"SBBE":{"icaoId":"SBBE","flightCategory":"MVFR","rawOb":"METAR SBBE 302000Z 12005KT 6000 -RA FEW049 BKN070 24/24 Q1008","temp":24,"dewp":24,"wdir":120,"wspd":5,"visib":3.73,"altim":1008,"clouds":[{"cover":"FEW","base":4900},{"cover":"BKN","base":7000}],"obsTime":1777579200},"SBBR":{"icaoId":"SBBR","flightCategory":"VFR","rawOb":"METAR SBBR 302000Z 10010KT CAVOK 26/14 Q1017","temp":26,"dewp":14,"wdir":100,"wspd":10,"visib":"6+","altim":1017,"clouds":[],"obsTime":1777579200},"SBBV":{"icaoId":"SBBV","flightCategory":"VFR","rawOb":"METAR SBBV 302000Z 04007KT 9999 FEW005 SCT025 FEW040TCU 27/22 Q1008","temp":27,"dewp":22,"wdir":40,"wspd":7,"visib":"6+","altim":1008,"clouds":[{"cover":"FEW","base":500},{"cover":"SCT","base":2500},{"cover":"FEW","base":4000}],"obsTime":1777579200},"SBCB":{"icaoId":"SBCB","flightCategory":"VFR","rawOb":"METAR SBCB 302000Z 15005KT 9999 SCT020 26/23 Q1015","temp":26,"dewp":23,"wdir":150,"wspd":5,"visib":"6+","altim":1015,"clouds":[{"cover":"SCT","base":2000}],"obsTime":1777579200},"SBCF":{"icaoId":"SBCF","flightCategory":"VFR","rawOb":"METAR SBCF 302000Z 03004KT 9999 SCT045 27/15 Q1018","temp":27,"dewp":15,"wdir":30,"wspd":4,"visib":"6+","altim":1018,"clouds":[{"cover":"SCT","base":4500}],"obsTime":1777579200},"SBCG":{"icaoId":"SBCG","flightCategory":"VFR","rawOb":"METAR SBCG 302000Z 08006KT 9999 SCT045 FEW050TCU 29/21 Q1013","temp":29,"dewp":21,"wdir":80,"wspd":6,"visib":"6+","altim":1013,"clouds":[{"cover":"SCT","base":4500},{"cover":"FEW","base":5000}],"obsTime":1777579200},"SBCP":{"icaoId":"SBCP","flightCategory":"VFR","rawOb":"METAR SBCP 302000Z 13010KT 9999 FEW020 28/22 Q1014","temp":28,"dewp":22,"wdir":130,"wspd":10,"visib":"6+","altim":1014,"clouds":[{"cover":"FEW","base":2000}],"obsTime":1777579200},"SBCR":{"icaoId":"SBCR","flightCategory":"VFR","rawOb":"METAR SBCR 302000Z 05007KT 9999 SCT035 32/23 Q1009","temp":32,"dewp":23,"wdir":50,"wspd":7,"visib":"6+","altim":1009,"clouds":[{"cover":"SCT","base":3500}],"obsTime":1777579200},"SBCZ":{"icaoId":"SBCZ","flightCategory":"VFR","rawOb":"METAR SBCZ 302000Z 18002KT 9999 SCT025 FEW025TCU BKN090 27/24 Q1007 RETS","temp":27,"dewp":24,"wdir":180,"wspd":2,"visib":"6+","altim":1007,"clouds":[{"cover":"SCT","base":2500},{"cover":"FEW","base":2500},{"cover":"BKN","base":9000}],"obsTime":1777579200},"SBEG":{"icaoId":"SBEG","flightCategory":"VFR","rawOb":"METAR SBEG 302000Z 04003KT 9999 SCT025 FEW030TCU 28/24 Q1007","temp":28,"dewp":24,"wdir":40,"wspd":3,"visib":"6+","altim":1007,"clouds":[{"cover":"SCT","base":2500},{"cover":"FEW","base":3000}],"obsTime":1777579200},"SBFI":{"icaoId":"SBFI","flightCategory":"VFR","rawOb":"METAR SBFI 302000Z 13006KT 9999 FEW020 SCT100 26/22 Q1012","temp":26,"dewp":22,"wdir":130,"wspd":6,"visib":"6+","altim":1012,"clouds":[{"cover":"FEW","base":2000},{"cover":"SCT","base":10000}],"obsTime":1777579200},"SBFL":{"icaoId":"SBFL","flightCategory":"VFR","rawOb":"METAR SBFL 302000Z 14009KT 9999 FEW038 23/17 Q1017","temp":23,"dewp":17,"wdir":140,"wspd":9,"visib":"6+","altim":1017,"clouds":[{"cover":"FEW","base":3800}],"obsTime":1777579200},"SBFZ":{"icaoId":"SBFZ","flightCategory":"VFR","rawOb":"METAR SBFZ 302000Z 11009KT 9999 SCT023 29/22 Q1008","temp":29,"dewp":22,"wdir":110,"wspd":9,"visib":"6+","altim":1008,"clouds":[{"cover":"SCT","base":2300}],"obsTime":1777579200},"SBGL":{"icaoId":"SBGL","flightCategory":"VFR","rawOb":"METAR SBGL 302000Z 14009KT 9999 SCT020 26/21 Q1014","temp":26,"dewp":21,"wdir":140,"wspd":9,"visib":"6+","altim":1014,"clouds":[{"cover":"SCT","base":2000}],"obsTime":1777579200},"SBGO":{"icaoId":"SBGO","flightCategory":"VFR","rawOb":"METAR SBGO 302000Z 09011KT CAVOK 30/14 Q1015","temp":30,"dewp":14,"wdir":90,"wspd":11,"visib":"6+","altim":1015,"clouds":[],"obsTime":1777579200},"SBGR":{"icaoId":"SBGR","flightCategory":"MVFR","rawOb":"METAR SBGR 302000Z 16009KT 7000 BKN010 OVC015 20/18 Q1019","temp":20,"dewp":18,"wdir":160,"wspd":9,"visib":4.35,"altim":1019,"clouds":[{"cover":"BKN","base":1000},{"cover":"OVC","base":1500}],"obsTime":1777579200},"SBHT":{"icaoId":"SBHT","flightCategory":"VFR","rawOb":"METAR SBHT 302000Z 16002KT 9999 SCT025 31/24 Q1007","temp":31,"dewp":24,"wdir":160,"wspd":2,"visib":"6+","altim":1007,"clouds":[{"cover":"SCT","base":2500}],"obsTime":1777579200},"SBIL":{"icaoId":"SBIL","flightCategory":"VFR","rawOb":"METAR SBIL 302000Z 20004KT 170V230 9999 SCT023 FEW025TCU BKN060 28/25 Q1013","temp":28,"dewp":25,"wdir":200,"wspd":4,"visib":"6+","altim":1013,"clouds":[{"cover":"SCT","base":2300},{"cover":"FEW","base":2500},{"cover":"BKN","base":6000}],"obsTime":1777579200},"SBJU":{"icaoId":"SBJU","flightCategory":"VFR","rawOb":"METAR SBJU 302000Z 11007KT 9999 FEW022 29/20 Q1011","temp":29,"dewp":20,"wdir":110,"wspd":7,"visib":"6+","altim":1011,"clouds":[{"cover":"FEW","base":2200}],"obsTime":1777579200},"SBKP":{"icaoId":"SBKP","flightCategory":"VFR","rawOb":"METAR SBKP 302000Z 20007KT 160V230 9999 FEW045 28/19 Q1016","temp":28,"dewp":19,"wdir":200,"wspd":7,"visib":"6+","altim":1016,"clouds":[{"cover":"FEW","base":4500}],"obsTime":1777579200},"SBLO":{"icaoId":"SBLO","flightCategory":"VFR","rawOb":"METAR SBLO 302000Z 14005KT 9999 FEW030 26/21 Q1015","temp":26,"dewp":21,"wdir":140,"wspd":5,"visib":"6+","altim":1015,"clouds":[{"cover":"FEW","base":3000}],"obsTime":1777579200},"SBMA":{"icaoId":"SBMA","flightCategory":"VFR","rawOb":"METAR SBMA 302000Z 19002KT 9999 SCT020 FEW023TCU BKN080 28/25 Q1007","temp":28,"dewp":25,"wdir":190,"wspd":2,"visib":"6+","altim":1007,"clouds":[{"cover":"SCT","base":2000},{"cover":"FEW","base":2300},{"cover":"BKN","base":8000}],"obsTime":1777579200},"SBME":{"icaoId":"SBME","flightCategory":"MVFR","rawOb":"METAR SBME 302000Z 19006KT 8000 BKN010 26/22 Q1014","temp":26,"dewp":22,"wdir":190,"wspd":6,"visib":4.97,"altim":1014,"clouds":[{"cover":"BKN","base":1000}],"obsTime":1777579200},"SBMG":{"icaoId":"SBMG","flightCategory":"VFR","rawOb":"METAR SBMG 302000Z 16006KT 9999 FEW020 25/22 Q1014","temp":25,"dewp":22,"wdir":160,"wspd":6,"visib":"6+","altim":1014,"clouds":[{"cover":"FEW","base":2000}],"obsTime":1777579200},"SBMK":{"icaoId":"SBMK","flightCategory":"VFR","rawOb":"METAR SBMK 302000Z 07006KT CAVOK 28/15 Q1016","temp":28,"dewp":15,"wdir":70,"wspd":6,"visib":"6+","altim":1016,"clouds":[],"obsTime":1777579200},"SBMO":{"icaoId":"SBMO","flightCategory":"VFR","rawOb":"METAR SBMO 302000Z 09007KT 9999 FEW025 27/23 Q1011","temp":27,"dewp":23,"wdir":90,"wspd":7,"visib":"6+","altim":1011,"clouds":[{"cover":"FEW","base":2500}],"obsTime":1777579200},"SBMQ":{"icaoId":"SBMQ","flightCategory":"VFR","rawOb":"METAR SBMQ 302000Z 07010KT 9999 BKN036 FEW042TCU 29/25 Q1008","temp":29,"dewp":25,"wdir":70,"wspd":10,"visib":"6+","altim":1008,"clouds":[{"cover":"BKN","base":3600},{"cover":"FEW","base":4200}],"obsTime":1777579200},"SBNT":{"icaoId":"SBNT","flightCategory":"IFR","rawOb":"METAR SBNT 302000Z 16005KT 3000 -RA BR BKN020 FEW025TCU BKN040 25/24 Q1009","temp":25,"dewp":24,"wdir":160,"wspd":5,"visib":1.86,"altim":1009,"clouds":[{"cover":"BKN","base":2000},{"cover":"FEW","base":2500},{"cover":"BKN","base":4000}],"obsTime":1777579200},"SBPA":{"icaoId":"SBPA","flightCategory":"VFR","rawOb":"METAR SBPA 302000Z 13006KT CAVOK 25/09 Q1015","temp":25,"dewp":9,"wdir":130,"wspd":6,"visib":"6+","altim":1015,"clouds":[],"obsTime":1777579200},"SBPJ":{"icaoId":"SBPJ","flightCategory":"VFR","rawOb":"METAR SBPJ 302000Z 13004KT 100V160 9999 FEW045 33/22 Q1009","temp":33,"dewp":22,"wdir":130,"wspd":4,"visib":"6+","altim":1009,"clouds":[{"cover":"FEW","base":4500}],"obsTime":1777579200},"SBPV":{"icaoId":"SBPV","flightCategory":"MVFR","rawOb":"METAR SBPV 302000Z 21004KT 6000 -TSRA BKN015 BKN025 FEW030CB 26/22 Q1007","temp":26,"dewp":22,"wdir":210,"wspd":4,"visib":3.73,"altim":1007,"clouds":[{"cover":"BKN","base":1500},{"cover":"BKN","base":2500},{"cover":"FEW","base":3000}],"obsTime":1777579200},"SBRB":{"icaoId":"SBRB","flightCategory":"VFR","rawOb":"METAR SBRB 302000Z 19001KT 9999 VCSH SCT025 FEW040TCU 30/25 Q1007","temp":30,"dewp":25,"wdir":190,"wspd":1,"visib":"6+","altim":1007,"clouds":[{"cover":"SCT","base":2500},{"cover":"FEW","base":4000}],"obsTime":1777579200},"SBSG":{"icaoId":"SBSG","flightCategory":"MVFR","rawOb":"METAR SBSG 302000Z 20003KT 150V270 9000 VCSH SCT007 BKN030 FEW040TCU 25/24 Q1010 RERA","temp":25,"dewp":24,"wdir":200,"wspd":3,"visib":5.59,"altim":1010,"clouds":[{"cover":"SCT","base":700},{"cover":"BKN","base":3000},{"cover":"FEW","base":4000}],"obsTime":1777579200},"SBSL":{"icaoId":"SBSL","flightCategory":"VFR","rawOb":"METAR SBSL 302000Z 10006KT 9999 SCT020 FEW025TCU BKN100 25/24 Q1009","temp":25,"dewp":24,"wdir":100,"wspd":6,"visib":"6+","altim":1009,"clouds":[{"cover":"SCT","base":2000},{"cover":"FEW","base":2500},{"cover":"BKN","base":10000}],"obsTime":1777579200},"SBSN":{"icaoId":"SBSN","flightCategory":"VFR","rawOb":"METAR SBSN 302000Z 15005KT 9999 FEW020 31/24 Q1006","temp":31,"dewp":24,"wdir":150,"wspd":5,"visib":"6+","altim":1006,"clouds":[{"cover":"FEW","base":2000}],"obsTime":1777579200},"SBSP":{"icaoId":"SBSP","flightCategory":"MVFR","rawOb":"METAR SBSP 302000Z 15013KT 9999 OVC011 20/17 Q1020","temp":20,"dewp":17,"wdir":150,"wspd":13,"visib":"6+","altim":1020,"clouds":[{"cover":"OVC","base":1100}],"obsTime":1777579200},"SBSV":{"icaoId":"SBSV","flightCategory":"VFR","rawOb":"METAR SBSV 302000Z 13007KT 100V160 9999 SCT023 29/23 Q1012","temp":29,"dewp":23,"wdir":130,"wspd":7,"visib":"6+","altim":1012,"clouds":[{"cover":"SCT","base":2300}],"obsTime":1777579200},"SBTE":{"icaoId":"SBTE","flightCategory":"VFR","rawOb":"METAR SBTE 302000Z 14007KT 9999 FEW020 32/18 Q1008","temp":32,"dewp":18,"wdir":140,"wspd":7,"visib":"6+","altim":1008,"clouds":[{"cover":"FEW","base":2000}],"obsTime":1777579200},"SBUL":{"icaoId":"SBUL","flightCategory":"VFR","rawOb":"METAR SBUL 302000Z 12005KT 030V180 CAVOK 28/16 Q1017","temp":28,"dewp":16,"wdir":120,"wspd":5,"visib":"6+","altim":1017,"clouds":[],"obsTime":1777579200},"SBUR":{"icaoId":"SBUR","flightCategory":"VFR","rawOb":"METAR SBUR 302000Z 11003KT CAVOK 29/16 Q1016","temp":29,"dewp":16,"wdir":110,"wspd":3,"visib":"6+","altim":1016,"clouds":[],"obsTime":1777579200},"SBVT":{"icaoId":"SBVT","flightCategory":"VFR","rawOb":"METAR SBVT 302000Z 05009KT 9999 FEW040 27/23 Q1013","temp":27,"dewp":23,"wdir":50,"wspd":9,"visib":"6+","altim":1013,"clouds":[{"cover":"FEW","base":4000}],"obsTime":1777579200},"SBCJ":{"icaoId":"SBCJ","flightCategory":"VFR","rawOb":"METAR SBCJ 302000Z 12007KT 9999 SCT015 SCT070 26/21 Q1012","temp":26,"dewp":21,"wdir":120,"wspd":7,"visib":"6+","altim":1012,"clouds":[{"cover":"SCT","base":1500},{"cover":"SCT","base":7000}],"obsTime":1777579200},"SBPB":{"icaoId":"SBPB","flightCategory":"VFR","rawOb":"METAR SBPB 302000Z 28002KT 9999 FEW016 BKN090 27/24 Q1009","temp":27,"dewp":24,"wdir":280,"wspd":2,"visib":"6+","altim":1009,"clouds":[{"cover":"FEW","base":1600},{"cover":"BKN","base":9000}],"obsTime":1777579200},"SBBU":{"icaoId":"SBBU","flightCategory":"VFR","rawOb":"METAR SBBU 302000Z 22003KT CAVOK 29/20 Q1016","temp":29,"dewp":20,"wdir":220,"wspd":3,"visib":"6+","altim":1016,"clouds":[],"obsTime":1777579200},"SBBH":{"icaoId":"SBBH","flightCategory":"VFR","rawOb":"METAR SBBH 302000Z 08006KT CAVOK 26/16 Q1017","temp":26,"dewp":16,"wdir":80,"wspd":6,"visib":"6+","altim":1017,"clouds":[],"obsTime":1777579200},"SBPL":{"icaoId":"SBPL","flightCategory":"MVFR","rawOb":"METAR SBPL 302000Z 12010KT 9999 -RA SCT020 BKN030 26/22 Q1012","temp":26,"dewp":22,"wdir":120,"wspd":10,"visib":"6+","altim":1012,"clouds":[{"cover":"SCT","base":2000},{"cover":"BKN","base":3000}],"obsTime":1777579200},"SBCO":{"icaoId":"SBCO","flightCategory":"VFR","rawOb":"METAR SBCO 302000Z 11007KT CAVOK 25/11 Q1016","temp":25,"dewp":11,"wdir":110,"wspd":7,"visib":"6+","altim":1016,"clouds":[],"obsTime":1777579200},"SBPP":{"icaoId":"SBPP","flightCategory":"VFR","rawOb":"METAR SBPP 302000Z 08008KT 9999 FEW025 25/21 Q1014","temp":25,"dewp":21,"wdir":80,"wspd":8,"visib":"6+","altim":1014,"clouds":[{"cover":"FEW","base":2500}],"obsTime":1777579200},"SBDN":{"icaoId":"SBDN","flightCategory":"VFR","rawOb":"METAR SBDN 302000Z 08005KT 9999 SCT043 30/21 Q1014","temp":30,"dewp":21,"wdir":80,"wspd":5,"visib":"6+","altim":1014,"clouds":[{"cover":"SCT","base":4300}],"obsTime":1777579200},"SBPS":{"icaoId":"SBPS","flightCategory":"VFR","rawOb":"METAR SBPS 302000Z 12004KT 9999 SCT020 FEW025TCU SCT080 27/23 Q1014","temp":27,"dewp":23,"wdir":120,"wspd":4,"visib":"6+","altim":1014,"clouds":[{"cover":"SCT","base":2000},{"cover":"FEW","base":2500},{"cover":"SCT","base":8000}],"obsTime":1777579200},"SBSC":{"icaoId":"SBSC","flightCategory":"MVFR","rawOb":"METAR SBSC 302000Z 20008KT 8000 SCT015 BKN025 OVC050 25/22 Q1016","temp":25,"dewp":22,"wdir":200,"wspd":8,"visib":4.97,"altim":1016,"clouds":[{"cover":"SCT","base":1500},{"cover":"BKN","base":2500},{"cover":"OVC","base":5000}],"obsTime":1777579200},"SBCA":{"icaoId":"SBCA","flightCategory":"VFR","rawOb":"METAR SBCA 302000Z 35007KT 9999 SCT020 25/18 Q1016","temp":25,"dewp":18,"wdir":350,"wspd":7,"visib":"6+","altim":1016,"clouds":[{"cover":"SCT","base":2000}],"obsTime":1777579200},"SBAX":{"icaoId":"SBAX","flightCategory":"VFR","rawOb":"METAR SBAX 302000Z 10006KT 9999 FEW035 27/14 Q1018","temp":27,"dewp":14,"wdir":100,"wspd":6,"visib":"6+","altim":1018,"clouds":[{"cover":"FEW","base":3500}],"obsTime":1777579200},"SBSJ":{"icaoId":"SBSJ","flightCategory":"VFR","rawOb":"METAR SBSJ 302000Z 17010KT 9999 SCT045 23/19 Q1018","temp":23,"dewp":19,"wdir":170,"wspd":10,"visib":"6+","altim":1018,"clouds":[{"cover":"SCT","base":4500}],"obsTime":1777579200},"SBES":{"icaoId":"SBES","flightCategory":"VFR","rawOb":"METAR SBES 302000Z 15005KT 090V190 9999 FEW020 25/// Q1015","temp":null,"dewp":null,"wdir":150,"wspd":5,"visib":"6+","altim":1015,"clouds":[{"cover":"FEW","base":2000}],"obsTime":1777579200},"SBSM":{"icaoId":"SBSM","flightCategory":"VFR","rawOb":"METAR SBSM 302000Z 12004KT CAVOK 24/14 Q1015","temp":24,"dewp":14,"wdir":120,"wspd":4,"visib":"6+","altim":1015,"clouds":[],"obsTime":1777579200},"SBSR":{"icaoId":"SBSR","flightCategory":"VFR","rawOb":"METAR SBSR 302000Z 12006KT 9999 FEW030 30/16 Q1014","temp":30,"dewp":16,"wdir":120,"wspd":6,"visib":"6+","altim":1014,"clouds":[{"cover":"FEW","base":3000}],"obsTime":1777579200},"SBIP":{"icaoId":"SBIP","flightCategory":"VFR","rawOb":"METAR SBIP 302000Z AUTO 35002KT CAVOK 28/19 Q1014","temp":28,"dewp":19,"wdir":350,"wspd":2,"visib":"6+","altim":1014,"clouds":[],"obsTime":1777579200},"SBTF":{"icaoId":"SBTF","flightCategory":"VFR","rawOb":"METAR SBTF 302000Z 20004KT 9999 FEW021 FEW030TCU SCT080 31/25 Q1005","temp":31,"dewp":25,"wdir":200,"wspd":4,"visib":"6+","altim":1005,"clouds":[{"cover":"FEW","base":2100},{"cover":"FEW","base":3000},{"cover":"SCT","base":8000}],"obsTime":1777579200},"SBAR":{"icaoId":"SBAR","flightCategory":"VFR","rawOb":"METAR SBAR 302000Z 12010KT 9999 FEW015 SCT025 BKN070 28/24 Q1011","temp":28,"dewp":24,"wdir":120,"wspd":10,"visib":"6+","altim":1011,"clouds":[{"cover":"FEW","base":1500},{"cover":"SCT","base":2500},{"cover":"BKN","base":7000}],"obsTime":1777579200},"SBTT":{"icaoId":"SBTT","flightCategory":"VFR","rawOb":"METAR SBTT 302000Z 28004KT 9999 SCT025 BKN080 28/25 Q1007 RERA","temp":28,"dewp":25,"wdir":280,"wspd":4,"visib":"6+","altim":1007,"clouds":[{"cover":"SCT","base":2500},{"cover":"BKN","base":8000}],"obsTime":1777579200},"SBKG":{"icaoId":"SBKG","flightCategory":"VFR","rawOb":"METAR SBKG 302000Z 09009KT 9999 SCT016 BKN080 24/22 Q1013","temp":24,"dewp":22,"wdir":90,"wspd":9,"visib":"6+","altim":1013,"clouds":[{"cover":"SCT","base":1600},{"cover":"BKN","base":8000}],"obsTime":1777579200},"SBUY":{"icaoId":"SBUY","flightCategory":"VFR","rawOb":"METAR SBUY 302000Z 21001KT 9999 VCSH SCT025 FEW035TCU SCT100 32/24 Q1004","temp":32,"dewp":24,"wdir":210,"wspd":1,"visib":"6+","altim":1004,"clouds":[{"cover":"SCT","base":2500},{"cover":"FEW","base":3500},{"cover":"SCT","base":10000}],"obsTime":1777579200},"SBOI":{"icaoId":"SBOI","flightCategory":"VFR","rawOb":"METAR SBOI 302000Z AUTO 03004KT 350V060 9999 -RA OVC037 25/24 Q1008 RERA","temp":25,"dewp":24,"wdir":30,"wspd":4,"visib":"6+","altim":1008,"clouds":[{"cover":"OVC","base":3700}],"obsTime":1777579200},"SBVH":{"icaoId":"SBVH","flightCategory":"VFR","rawOb":"METAR SBVH 302000Z 10005KT 9999 SCT030 30/23 Q1010","temp":30,"dewp":23,"wdir":100,"wspd":5,"visib":"6+","altim":1010,"clouds":[{"cover":"SCT","base":3000}],"obsTime":1777579200},"SBBQ":{"icaoId":"SBBQ","flightCategory":"VFR","rawOb":"METAR SBBQ 302000Z 09005KT CAVOK 23/15 Q1021","temp":23,"dewp":15,"wdir":90,"wspd":5,"visib":"6+","altim":1021,"clouds":[],"obsTime":1777579200},"SBCC":{"icaoId":"SBCC","flightCategory":"VFR","rawOb":"METAR SBCC 302000Z 06010KT 9999 SCT025 31/20 Q1009","temp":31,"dewp":20,"wdir":60,"wspd":10,"visib":"6+","altim":1009,"clouds":[{"cover":"SCT","base":2500}],"obsTime":1777579200},"SBJP":{"icaoId":"SBJP","flightCategory":"VFR","rawOb":"METAR SBJP 302000Z 15006KT 9999 FEW010 OVC070 25/25 Q1011 RERA","temp":25,"dewp":25,"wdir":150,"wspd":6,"visib":"6+","altim":1011,"clouds":[{"cover":"FEW","base":1000},{"cover":"OVC","base":7000}],"obsTime":1777579200},"SBAN":{"icaoId":"SBAN","flightCategory":"VFR","rawOb":"METAR SBAN 302000Z 17008KT 130V200 CAVOK 26/14 Q1018","temp":26,"dewp":14,"wdir":170,"wspd":8,"visib":"6+","altim":1018,"clouds":[],"obsTime":1777579200},"SBJV":{"icaoId":"SBJV","flightCategory":"VFR","rawOb":"METAR SBJV 302000Z 12004KT 9999 FEW015 BKN040 24/19 Q1017","temp":24,"dewp":19,"wdir":120,"wspd":4,"visib":"6+","altim":1017,"clouds":[{"cover":"FEW","base":1500},{"cover":"BKN","base":4000}],"obsTime":1777579200},"SBPF":{"icaoId":"SBPF","flightCategory":"VFR","rawOb":"METAR SBPF 302000Z 06005KT CAVOK 23/10 Q1018","temp":23,"dewp":10,"wdir":60,"wspd":5,"visib":"6+","altim":1018,"clouds":[],"obsTime":1777579200},"SBIH":{"icaoId":"SBIH","flightCategory":"VFR","rawOb":"METAR SBIH 302000Z 05010KT 9999 SCT020 BKN100 30/24 Q1006","temp":30,"dewp":24,"wdir":50,"wspd":10,"visib":"6+","altim":1006,"clouds":[{"cover":"SCT","base":2000},{"cover":"BKN","base":10000}],"obsTime":1777579200},"SBLE":{"icaoId":"SBLE","flightCategory":"VFR","rawOb":"METAR SBLE 302000Z AUTO 16004KT 130V190 CAVOK 26/18 Q1015","temp":26,"dewp":18,"wdir":160,"wspd":4,"visib":"6+","altim":1015,"clouds":[],"obsTime":1777579200},"SBAF":{"icaoId":"SBAF","flightCategory":"VFR","rawOb":"METAR SBAF 302000Z 19014KT 9999 SCT025 BKN060 25/24 Q1015","temp":25,"dewp":24,"wdir":190,"wspd":14,"visib":"6+","altim":1015,"clouds":[{"cover":"SCT","base":2500},{"cover":"BKN","base":6000}],"obsTime":1777579200},"SBGW":{"icaoId":"SBGW","flightCategory":"VFR","rawOb":"METAR SBGW 302000Z 29003KT 9999 SCT030 29/17 Q1016","temp":29,"dewp":17,"wdir":290,"wspd":3,"visib":"6+","altim":1016,"clouds":[{"cover":"SCT","base":3000}],"obsTime":1777579200},"SBJR":{"icaoId":"SBJR","flightCategory":"VFR","rawOb":"METAR SBJR 302000Z 21004KT 9999 SCT020 25/22 Q1015","temp":25,"dewp":22,"wdir":210,"wspd":4,"visib":"6+","altim":1015,"clouds":[{"cover":"SCT","base":2000}],"obsTime":1777579200},"SBLS":{"icaoId":"SBLS","flightCategory":"VFR","rawOb":"METAR SBLS 302000Z 13007KT 9999 BKN048 26/16 Q1017","temp":26,"dewp":16,"wdir":130,"wspd":7,"visib":"6+","altim":1017,"clouds":[{"cover":"BKN","base":4800}],"obsTime":1777579200},"SBMT":{"icaoId":"SBMT","flightCategory":"MVFR","rawOb":"METAR SBMT 302000Z 14008KT 110V180 9999 FEW017 BKN019 20/17 Q1019","temp":20,"dewp":17,"wdir":140,"wspd":8,"visib":"6+","altim":1019,"clouds":[{"cover":"FEW","base":1700},{"cover":"BKN","base":1900}],"obsTime":1777579200},"SBTA":{"icaoId":"SBTA","flightCategory":"VFR","rawOb":"METAR SBTA 302000Z 17010KT 140V210 9999 SCT040 25/19 Q1016","temp":25,"dewp":19,"wdir":170,"wspd":10,"visib":"6+","altim":1016,"clouds":[{"cover":"SCT","base":4000}],"obsTime":1777579200},"SBST":{"icaoId":"SBST","flightCategory":"VFR","rawOb":"METAR SBST 302000Z /////KT 9999 FEW020 SCT025 OVC040 ///// Q1016","temp":null,"dewp":null,"wdir":null,"wspd":null,"visib":"6+","altim":1016,"clouds":[{"cover":"FEW","base":2000},{"cover":"SCT","base":2500},{"cover":"OVC","base":4000}],"obsTime":1777579200},"SBNM":{"icaoId":"SBNM","flightCategory":"VFR","rawOb":"SPECI SBNM 302005Z 10002KT CAVOK 26/11 Q1014","temp":26,"dewp":11,"wdir":100,"wspd":2,"visib":"6+","altim":1014,"clouds":[],"obsTime":1777579500}}}