{"updated":1774290968,"count":85,"data":{"SBCR":{"icaoId":"SBCR","flightCategory":"VFR","rawOb":"METAR SBCR 231700Z 02007KT 330V050 9999 SCT042 SCT080 35/25 Q1008","temp":35,"dewp":25,"wdir":20,"wspd":7,"visib":"6+","altim":1008,"clouds":[{"cover":"SCT","base":4200},{"cover":"SCT","base":8000}],"obsTime":1774285200},"SBCZ":{"icaoId":"SBCZ","flightCategory":"VFR","rawOb":"METAR SBCZ 231700Z 12005KT 9999 FEW017 29/24 Q1010","temp":29,"dewp":24,"wdir":120,"wspd":5,"visib":"6+","altim":1010,"clouds":[{"cover":"FEW","base":1700}],"obsTime":1774285200},"SBMA":{"icaoId":"SBMA","flightCategory":"VFR","rawOb":"METAR SBMA 231700Z 17007KT 9999 SCT020 FEW025TCU 32/25 Q1008","temp":32,"dewp":25,"wdir":170,"wspd":7,"visib":"6+","altim":1008,"clouds":[{"cover":"SCT","base":2000},{"cover":"FEW","base":2500}],"obsTime":1774285200},"SBCF":{"icaoId":"SBCF","flightCategory":"VFR","rawOb":"METAR SBCF 231700Z 05005KT 9999 BKN040 28/18 Q1013","temp":28,"dewp":18,"wdir":50,"wspd":5,"visib":"6+","altim":1013,"clouds":[{"cover":"BKN","base":4000}],"obsTime":1774285200},"SBME":{"icaoId":"SBME","flightCategory":"IFR","rawOb":"METAR SBME 231700Z 10005KT 3000 RA BKN020 OVC080 24/22 Q1012","temp":24,"dewp":22,"wdir":100,"wspd":5,"visib":1.86,"altim":1012,"clouds":[{"cover":"BKN","base":2000},{"cover":"OVC","base":8000}],"obsTime":1774285200},"SBEG":{"icaoId":"SBEG","flightCategory":"MVFR","rawOb":"SPECI SBEG 231643Z 35010KT 5000 1500W TSRA SCT020 FEW025CB 26/23 Q1010 RESHRA","temp":26,"dewp":23,"wdir":350,"wspd":10,"visib":3.11,"altim":1010,"clouds":[{"cover":"SCT","base":2000},{"cover":"FEW","base":2500}],"obsTime":1774284180},"SBMG":{"icaoId":"SBMG","flightCategory":"VFR","rawOb":"METAR SBMG 231700Z 06009KT 040V100 9999 VCSH FEW045 FEW045TCU BKN100 30/21 Q1011","temp":30,"dewp":21,"wdir":60,"wspd":9,"visib":"6+","altim":1011,"clouds":[{"cover":"FEW","base":4500},{"cover":"FEW","base":4500},{"cover":"BKN","base":10000}],"obsTime":1774285200},"SBAT":{"icaoId":"SBAT","flightCategory":"VFR","rawOb":"METAR SBAT 231700Z 07005KT 9999 SCT030 FEW035TCU 30/25 Q1009","temp":30,"dewp":25,"wdir":70,"wspd":5,"visib":"6+","altim":1009,"clouds":[{"cover":"SCT","base":3000},{"cover":"FEW","base":3500}],"obsTime":1774285200},"SBMK":{"icaoId":"SBMK","flightCategory":"VFR","rawOb":"METAR SBMK 231700Z 04005KT 9999 SCT045 30/19 Q1011","temp":30,"dewp":19,"wdir":40,"wspd":5,"visib":"6+","altim":1011,"clouds":[{"cover":"SCT","base":4500}],"obsTime":1774285200},"SBMO":{"icaoId":"SBMO","flightCategory":"VFR","rawOb":"METAR SBMO 231700Z 08012KT 9999 SCT033 32/23 Q1010","temp":32,"dewp":23,"wdir":80,"wspd":12,"visib":"6+","altim":1010,"clouds":[{"cover":"SCT","base":3300}],"obsTime":1774285200},"SBBE":{"icaoId":"SBBE","flightCategory":"IFR","rawOb":"METAR SBBE 231700Z 03010KT 4000 -RA FEW020 BKN035 FEW040TCU 25/25 Q1009 RERA","temp":25,"dewp":25,"wdir":30,"wspd":10,"visib":2.49,"altim":1009,"clouds":[{"cover":"FEW","base":2000},{"cover":"BKN","base":3500},{"cover":"FEW","base":4000}],"obsTime":1774285200},"SBMQ":{"icaoId":"SBMQ","flightCategory":"VFR","rawOb":"METAR SBMQ 231700Z 06013KT 9999 SCT025 FEW030TCU 32/24 Q1009","temp":32,"dewp":24,"wdir":60,"wspd":13,"visib":"6+","altim":1009,"clouds":[{"cover":"SCT","base":2500},{"cover":"FEW","base":3000}],"obsTime":1774285200},"SBNT":{"icaoId":"SBNT","flightCategory":"VFR","rawOb":"METAR SBNT 231700Z 09011KT 060V120 9999 VCSH SCT025 30/24 Q1009","temp":30,"dewp":24,"wdir":90,"wspd":11,"visib":"6+","altim":1009,"clouds":[{"cover":"SCT","base":2500}],"obsTime":1774285200},"SBCG":{"icaoId":"SBCG","flightCategory":"VFR","rawOb":"METAR SBCG 231700Z 32008KT 280V010 9999 BKN045 33/21 Q1012","temp":33,"dewp":21,"wdir":320,"wspd":8,"visib":"6+","altim":1012,"clouds":[{"cover":"BKN","base":4500}],"obsTime":1774285200},"SBPA":{"icaoId":"SBPA","flightCategory":"VFR","rawOb":"METAR SBPA 231700Z 27004KT 220V300 9999 FEW030 BKN100 32/24 Q1006","temp":32,"dewp":24,"wdir":270,"wspd":4,"visib":"6+","altim":1006,"clouds":[{"cover":"FEW","base":3000},{"cover":"BKN","base":10000}],"obsTime":1774285200},"SBFI":{"icaoId":"SBFI","flightCategory":"VFR","rawOb":"METAR SBFI 231700Z 24007KT 9999 VCSH SCT030 FEW035TCU SCT070 34/25 Q1009","temp":34,"dewp":25,"wdir":240,"wspd":7,"visib":"6+","altim":1009,"clouds":[{"cover":"SCT","base":3000},{"cover":"FEW","base":3500},{"cover":"SCT","base":7000}],"obsTime":1774285200},"SBPJ":{"icaoId":"SBPJ","flightCategory":"VFR","rawOb":"METAR SBPJ 231700Z 23003KT 9999 SCT025 SCT090 32/23 Q1009","temp":32,"dewp":23,"wdir":230,"wspd":3,"visib":"6+","altim":1009,"clouds":[{"cover":"SCT","base":2500},{"cover":"SCT","base":9000}],"obsTime":1774285200},"SBKP":{"icaoId":"SBKP","flightCategory":"VFR","rawOb":"METAR SBKP 231700Z VRB03KT 9999 FEW040 30/12 Q1013","temp":30,"dewp":12,"wdir":"VRB","wspd":3,"visib":"6+","altim":1013,"clouds":[{"cover":"FEW","base":4000}],"obsTime":1774285200},"SBLO":{"icaoId":"SBLO","flightCategory":"VFR","rawOb":"METAR SBLO 231700Z 02003KT 280V080 9999 BKN040 SCT100 31/21 Q1012","temp":31,"dewp":21,"wdir":20,"wspd":3,"visib":"6+","altim":1012,"clouds":[{"cover":"BKN","base":4000},{"cover":"SCT","base":10000}],"obsTime":1774285200},"SBJU":{"icaoId":"SBJU","flightCategory":"MVFR","rawOb":"METAR SBJU 231700Z 00000KT 9999 BKN021 29/23 Q1011","temp":29,"dewp":23,"wdir":0,"wspd":0,"visib":"6+","altim":1011,"clouds":[{"cover":"BKN","base":2100}],"obsTime":1774285200},"SBCT":{"icaoId":"SBCT","flightCategory":"VFR","rawOb":"METAR SBCT 231700Z 03006KT 9999 BKN035 27/19 Q1015","temp":27,"dewp":19,"wdir":30,"wspd":6,"visib":"6+","altim":1015,"clouds":[{"cover":"BKN","base":3500}],"obsTime":1774285200},"SBBR":{"icaoId":"SBBR","flightCategory":"VFR","rawOb":"METAR SBBR 231700Z VRB03KT 9999 SCT040 29/16 Q1014","temp":29,"dewp":16,"wdir":"VRB","wspd":3,"visib":"6+","altim":1014,"clouds":[{"cover":"SCT","base":4000}],"obsTime":1774285200},"SBPV":{"icaoId":"SBPV","flightCategory":"VFR","rawOb":"METAR SBPV 231700Z 22003KT CAVOK 32/23 Q1008","temp":32,"dewp":23,"wdir":220,"wspd":3,"visib":"6+","altim":1008,"clouds":[],"obsTime":1774285200},"SBFL":{"icaoId":"SBFL","flightCategory":"VFR","rawOb":"METAR SBFL 231700Z 01012KT 9999 FEW030 31/23 Q1009","temp":31,"dewp":23,"wdir":10,"wspd":12,"visib":"6+","altim":1009,"clouds":[{"cover":"FEW","base":3000}],"obsTime":1774285200},"SBRB":{"icaoId":"SBRB","flightCategory":"VFR","rawOb":"METAR SBRB 231700Z 33004KT 9999 SCT023 34/25 Q1010","temp":34,"dewp":25,"wdir":330,"wspd":4,"visib":"6+","altim":1010,"clouds":[{"cover":"SCT","base":2300}],"obsTime":1774285200},"SBFZ":{"icaoId":"SBFZ","flightCategory":"VFR","rawOb":"METAR SBFZ 231700Z 09012KT 9999 SCT025 31/23 Q1008","temp":31,"dewp":23,"wdir":90,"wspd":12,"visib":"6+","altim":1008,"clouds":[{"cover":"SCT","base":2500}],"obsTime":1774285200},"SBBV":{"icaoId":"SBBV","flightCategory":"VFR","rawOb":"METAR SBBV 231700Z 04004KT 9999 BKN040 FEW045TCU 35/19 Q1008","temp":35,"dewp":19,"wdir":40,"wspd":4,"visib":"6+","altim":1008,"clouds":[{"cover":"BKN","base":4000},{"cover":"FEW","base":4500}],"obsTime":1774285200},"SBRF":{"icaoId":"SBRF","flightCategory":"VFR","rawOb":"METAR SBRF 231700Z 09011KT 9999 SCT023 30/23 Q1010","temp":30,"dewp":23,"wdir":90,"wspd":11,"visib":"6+","altim":1010,"clouds":[{"cover":"SCT","base":2300}],"obsTime":1774285200},"SBSG":{"icaoId":"SBSG","flightCategory":"MVFR","rawOb":"METAR SBSG 231700Z 08013KT 9999 BKN025 30/24 Q1009","temp":30,"dewp":24,"wdir":80,"wspd":13,"visib":"6+","altim":1009,"clouds":[{"cover":"BKN","base":2500}],"obsTime":1774285200},"SBGL":{"icaoId":"SBGL","flightCategory":"VFR","rawOb":"METAR SBGL 231700Z 14009KT 9999 SCT035 29/21 Q1010","temp":29,"dewp":21,"wdir":140,"wspd":9,"visib":"6+","altim":1010,"clouds":[{"cover":"SCT","base":3500}],"obsTime":1774285200},"SBSL":{"icaoId":"SBSL","flightCategory":"MVFR","rawOb":"METAR SBSL 231700Z 03010KT 350V070 9999 SCT022 BKN030 30/25 Q1008","temp":30,"dewp":25,"wdir":30,"wspd":10,"visib":"6+","altim":1008,"clouds":[{"cover":"SCT","base":2200},{"cover":"BKN","base":3000}],"obsTime":1774285200},"SBCP":{"icaoId":"SBCP","flightCategory":"VFR","rawOb":"METAR SBCP 231700Z 16007KT 9999 FEW015 SCT020 BKN080 25/24 Q1011 RETS","temp":25,"dewp":24,"wdir":160,"wspd":7,"visib":"6+","altim":1011,"clouds":[{"cover":"FEW","base":1500},{"cover":"SCT","base":2000},{"cover":"BKN","base":8000}],"obsTime":1774285200},"SBSN":{"icaoId":"SBSN","flightCategory":"VFR","rawOb":"METAR SBSN 231700Z 09015KT CAVOK 31/25 Q1009","temp":31,"dewp":25,"wdir":90,"wspd":15,"visib":"6+","altim":1009,"clouds":[],"obsTime":1774285200},"SBSP":{"icaoId":"SBSP","flightCategory":"VFR","rawOb":"METAR SBSP 231700Z VRB05KT 9999 FEW040 28/10 Q1015","temp":28,"dewp":10,"wdir":"VRB","wspd":5,"visib":"6+","altim":1015,"clouds":[{"cover":"FEW","base":4000}],"obsTime":1774285200},"SBGO":{"icaoId":"SBGO","flightCategory":"VFR","rawOb":"METAR SBGO 231700Z 29004KT 9999 SCT049 32/18 Q1012","temp":32,"dewp":18,"wdir":290,"wspd":4,"visib":"6+","altim":1012,"clouds":[{"cover":"SCT","base":4900}],"obsTime":1774285200},"SBSV":{"icaoId":"SBSV","flightCategory":"VFR","rawOb":"METAR SBSV 231700Z 11010KT 080V150 9999 SCT023 31/23 Q1010","temp":31,"dewp":23,"wdir":110,"wspd":10,"visib":"6+","altim":1010,"clouds":[{"cover":"SCT","base":2300}],"obsTime":1774285200},"SBGR":{"icaoId":"SBGR","flightCategory":"VFR","rawOb":"METAR SBGR 231700Z 15007KT CAVOK 29/11 Q1014","temp":29,"dewp":11,"wdir":150,"wspd":7,"visib":"6+","altim":1014,"clouds":[],"obsTime":1774285200},"SBTE":{"icaoId":"SBTE","flightCategory":"VFR","rawOb":"METAR SBTE 231700Z 05003KT 9999 SCT030 34/23 Q1007","temp":34,"dewp":23,"wdir":50,"wspd":3,"visib":"6+","altim":1007,"clouds":[{"cover":"SCT","base":3000}],"obsTime":1774285200},"SBHT":{"icaoId":"SBHT","flightCategory":"MVFR","rawOb":"METAR SBHT 231700Z 10005KT 9999 BKN030 31/24 Q1009","temp":31,"dewp":24,"wdir":100,"wspd":5,"visib":"6+","altim":1009,"clouds":[{"cover":"BKN","base":3000}],"obsTime":1774285200},"SBUL":{"icaoId":"SBUL","flightCategory":"VFR","rawOb":"METAR SBUL 231700Z 07004KT 9999 FEW030 29/13 Q1013","temp":29,"dewp":13,"wdir":70,"wspd":4,"visib":"6+","altim":1013,"clouds":[{"cover":"FEW","base":3000}],"obsTime":1774285200},"SBUR":{"icaoId":"SBUR","flightCategory":"VFR","rawOb":"METAR SBUR 231700Z 19006KT CAVOK 31/13 Q1013","temp":31,"dewp":13,"wdir":190,"wspd":6,"visib":"6+","altim":1013,"clouds":[],"obsTime":1774285200},"SBCB":{"icaoId":"SBCB","flightCategory":"VFR","rawOb":"METAR SBCB 231700Z 05011KT 9999 FEW030TCU SCT030 25/23 Q1012","temp":25,"dewp":23,"wdir":50,"wspd":11,"visib":"6+","altim":1012,"clouds":[{"cover":"FEW","base":3000},{"cover":"SCT","base":3000}],"obsTime":1774285200},"SBVT":{"icaoId":"SBVT","flightCategory":"VFR","rawOb":"METAR SBVT 231700Z 04016KT 9999 VCSH SCT020 FEW030TCU BKN050 24/22 Q1012","temp":24,"dewp":22,"wdir":40,"wspd":16,"visib":"6+","altim":1012,"clouds":[{"cover":"SCT","base":2000},{"cover":"FEW","base":3000},{"cover":"BKN","base":5000}],"obsTime":1774285200},"SBIL":{"icaoId":"SBIL","flightCategory":"VFR","rawOb":"METAR SBIL 231700Z 13005KT 9999 FEW020 BKN090 29/23 Q1011","temp":29,"dewp":23,"wdir":130,"wspd":5,"visib":"6+","altim":1011,"clouds":[{"cover":"FEW","base":2000},{"cover":"BKN","base":9000}],"obsTime":1774285200},"SBPP":{"icaoId":"SBPP","flightCategory":"MVFR","rawOb":"METAR SBPP 231700Z 32009KT 9999 BKN025 33/21 Q1012","temp":33,"dewp":21,"wdir":320,"wspd":9,"visib":"6+","altim":1012,"clouds":[{"cover":"BKN","base":2500}],"obsTime":1774285200},"SBCJ":{"icaoId":"SBCJ","flightCategory":"VFR","rawOb":"METAR SBCJ 231700Z 04004KT 9999 FEW013 SCT015 27/22 Q1013","temp":27,"dewp":22,"wdir":40,"wspd":4,"visib":"6+","altim":1013,"clouds":[{"cover":"FEW","base":1300},{"cover":"SCT","base":1500}],"obsTime":1774285200},"SBOI":{"icaoId":"SBOI","flightCategory":"VFR","rawOb":"METAR SBOI 231700Z AUTO 04004KT 010V080 9999 FEW021 30/26 Q1010","temp":30,"dewp":26,"wdir":40,"wspd":4,"visib":"6+","altim":1010,"clouds":[{"cover":"FEW","base":2100}],"obsTime":1774285200},"SBAR":{"icaoId":"SBAR","flightCategory":"VFR","rawOb":"METAR SBAR 231700Z 10013KT 9999 FEW024 31/23 Q1010","temp":31,"dewp":23,"wdir":100,"wspd":13,"visib":"6+","altim":1010,"clouds":[{"cover":"FEW","base":2400}],"obsTime":1774285200},"SBPB":{"icaoId":"SBPB","flightCategory":"VFR","rawOb":"METAR SBPB 231700Z 04011KT 9999 SCT020 31/25 Q1008","temp":31,"dewp":25,"wdir":40,"wspd":11,"visib":"6+","altim":1008,"clouds":[{"cover":"SCT","base":2000}],"obsTime":1774285200},"SBPL":{"icaoId":"SBPL","flightCategory":"MVFR","rawOb":"METAR SBPL 231700Z 02009KT 9999 BKN030 33/22 Q1010","temp":33,"dewp":22,"wdir":20,"wspd":9,"visib":"6+","altim":1010,"clouds":[{"cover":"BKN","base":3000}],"obsTime":1774285200},"SBCO":{"icaoId":"SBCO","flightCategory":"VFR","rawOb":"METAR SBCO 231700Z 29008KT 9999 FEW035 SCT100 33/25 Q1007","temp":33,"dewp":25,"wdir":290,"wspd":8,"visib":"6+","altim":1007,"clouds":[{"cover":"FEW","base":3500},{"cover":"SCT","base":10000}],"obsTime":1774285200},"SBBU":{"icaoId":"SBBU","flightCategory":"VFR","rawOb":"METAR SBBU 231700Z 15006KT 9999 SCT040 BKN100 32/20 Q1012","temp":32,"dewp":20,"wdir":150,"wspd":6,"visib":"6+","altim":1012,"clouds":[{"cover":"SCT","base":4000},{"cover":"BKN","base":10000}],"obsTime":1774285200},"SBDN":{"icaoId":"SBDN","flightCategory":"VFR","rawOb":"METAR SBDN 231700Z 06006KT CAVOK 33/21 Q1011","temp":33,"dewp":21,"wdir":60,"wspd":6,"visib":"6+","altim":1011,"clouds":[],"obsTime":1774285200},"SBPS":{"icaoId":"SBPS","flightCategory":"VFR","rawOb":"METAR SBPS 231700Z 09010KT 9999 SCT020 BKN100 27/23 Q1012","temp":27,"dewp":23,"wdir":90,"wspd":10,"visib":"6+","altim":1012,"clouds":[{"cover":"SCT","base":2000},{"cover":"BKN","base":10000}],"obsTime":1774285200},"SBSC":{"icaoId":"SBSC","flightCategory":"VFR","rawOb":"METAR SBSC 231700Z 14009KT 9999 FEW030 30/22 Q1010","temp":30,"dewp":22,"wdir":140,"wspd":9,"visib":"6+","altim":1010,"clouds":[{"cover":"FEW","base":3000}],"obsTime":1774285200},"SBBH":{"icaoId":"SBBH","flightCategory":"VFR","rawOb":"METAR SBBH 231700Z 08005KT 9999 SCT040 28/17 Q1013","temp":28,"dewp":17,"wdir":80,"wspd":5,"visib":"6+","altim":1013,"clouds":[{"cover":"SCT","base":4000}],"obsTime":1774285200},"SBSJ":{"icaoId":"SBSJ","flightCategory":"VFR","rawOb":"METAR SBSJ 231700Z 15007KT 9999 FEW030 29/// Q1013","temp":null,"dewp":null,"wdir":150,"wspd":7,"visib":"6+","altim":1013,"clouds":[{"cover":"FEW","base":3000}],"obsTime":1774285200},"SBES":{"icaoId":"SBES","flightCategory":"VFR","rawOb":"METAR SBES 231700Z 05010KT 9999 -RA FEW013 SCT030 BKN060 23/// Q1012","temp":null,"dewp":null,"wdir":50,"wspd":10,"visib":"6+","altim":1012,"clouds":[{"cover":"FEW","base":1300},{"cover":"SCT","base":3000},{"cover":"BKN","base":6000}],"obsTime":1774285200},"SBSM":{"icaoId":"SBSM","flightCategory":"MVFR","rawOb":"METAR SBSM 231700Z 26002KT 6000 TSRA SCT007 BKN040 FEW045CB OVC070 22/22 Q1009 RERA","temp":22,"dewp":22,"wdir":260,"wspd":2,"visib":3.73,"altim":1009,"clouds":[{"cover":"SCT","base":700},{"cover":"BKN","base":4000},{"cover":"FEW","base":4500},{"cover":"OVC","base":7000}],"obsTime":1774285200},"SBCA":{"icaoId":"SBCA","flightCategory":"MVFR","rawOb":"METAR SBCA 231700Z 35011G21KT 310V030 9999 BKN025 30/22 Q1014","temp":30,"dewp":22,"wdir":350,"wspd":11,"visib":"6+","altim":1014,"clouds":[{"cover":"BKN","base":2500}],"obsTime":1774285200},"SBSR":{"icaoId":"SBSR","flightCategory":"VFR","rawOb":"METAR SBSR 231700Z 33001KT 9999 FEW040 BKN090 31/16 Q1011","temp":31,"dewp":16,"wdir":330,"wspd":1,"visib":"6+","altim":1011,"clouds":[{"cover":"FEW","base":4000},{"cover":"BKN","base":9000}],"obsTime":1774285200},"SBGM":{"icaoId":"SBGM","flightCategory":"VFR","rawOb":"METAR SBGM 231700Z 08004KT 9999 FEW040 32/23 Q1009","temp":32,"dewp":23,"wdir":80,"wspd":4,"visib":"6+","altim":1009,"clouds":[{"cover":"FEW","base":4000}],"obsTime":1774285200},"SBAX":{"icaoId":"SBAX","flightCategory":"VFR","rawOb":"METAR SBAX 231700Z AUTO 11003KT 030V170 CAVOK 29/12 Q1014","temp":29,"dewp":12,"wdir":110,"wspd":3,"visib":"6+","altim":1014,"clouds":[],"obsTime":1774285200},"SBTF":{"icaoId":"SBTF","flightCategory":"VFR","rawOb":"METAR SBTF 231700Z 13009KT 9999 FEW020 35/26 Q1007","temp":35,"dewp":26,"wdir":130,"wspd":9,"visib":"6+","altim":1007,"clouds":[{"cover":"FEW","base":2000}],"obsTime":1774285200},"SBTT":{"icaoId":"SBTT","flightCategory":"MVFR","rawOb":"METAR SBTT 231700Z 03010KT 360V070 8000 -RA FEW015 BKN025 23/19 Q1012","temp":23,"dewp":19,"wdir":30,"wspd":10,"visib":4.97,"altim":1012,"clouds":[{"cover":"FEW","base":1500},{"cover":"BKN","base":2500}],"obsTime":1774285200},"SBIP":{"icaoId":"SBIP","flightCategory":"VFR","rawOb":"METAR SBIP 231700Z AUTO 07005KT 030V110 9999 FEW024 29/22 Q1010","temp":29,"dewp":22,"wdir":70,"wspd":5,"visib":"6+","altim":1010,"clouds":[{"cover":"FEW","base":2400}],"obsTime":1774285200},"SBUY":{"icaoId":"SBUY","flightCategory":"VFR","rawOb":"METAR SBUY 231700Z 00000KT 9999 SCT025 32/26 Q1007","temp":32,"dewp":26,"wdir":0,"wspd":0,"visib":"6+","altim":1007,"clouds":[{"cover":"SCT","base":2500}],"obsTime":1774285200},"SBCC":{"icaoId":"SBCC","flightCategory":"VFR","rawOb":"METAR SBCC 231700Z VRB02KT 9999 TS SCT020 FEW025CB BKN100 28/22 Q1010","temp":28,"dewp":22,"wdir":"VRB","wspd":2,"visib":"6+","altim":1010,"clouds":[{"cover":"SCT","base":2000},{"cover":"FEW","base":2500},{"cover":"BKN","base":10000}],"obsTime":1774285200},"SBVH":{"icaoId":"SBVH","flightCategory":"VFR","rawOb":"METAR SBVH 231700Z 02006KT 9999 SCT025 FEW030TCU BKN090 28/23 Q1012","temp":28,"dewp":23,"wdir":20,"wspd":6,"visib":"6+","altim":1012,"clouds":[{"cover":"SCT","base":2500},{"cover":"FEW","base":3000},{"cover":"BKN","base":9000}],"obsTime":1774285200},"SBBQ":{"icaoId":"SBBQ","flightCategory":"VFR","rawOb":"METAR SBBQ 231700Z 07007KT 040V120 9999 SCT040 24/17 Q1017","temp":24,"dewp":17,"wdir":70,"wspd":7,"visib":"6+","altim":1017,"clouds":[{"cover":"SCT","base":4000}],"obsTime":1774285200},"SBKG":{"icaoId":"SBKG","flightCategory":"VFR","rawOb":"METAR SBKG 231700Z 08010KT 9999 SCT025 FEW030TCU 30/20 Q1011","temp":30,"dewp":20,"wdir":80,"wspd":10,"visib":"6+","altim":1011,"clouds":[{"cover":"SCT","base":2500},{"cover":"FEW","base":3000}],"obsTime":1774285200},"SBAU":{"icaoId":"SBAU","flightCategory":"VFR","rawOb":"METAR SBAU 231700Z 36008KT CAVOK 35/19 Q1010","temp":35,"dewp":19,"wdir":360,"wspd":8,"visib":"6+","altim":1010,"clouds":[],"obsTime":1774285200},"SBJP":{"icaoId":"SBJP","flightCategory":"VFR","rawOb":"METAR SBJP 231700Z 07010KT 030V110 9999 SCT030 30/23 Q1010","temp":30,"dewp":23,"wdir":70,"wspd":10,"visib":"6+","altim":1010,"clouds":[{"cover":"SCT","base":3000}],"obsTime":1774285200},"SBIH":{"icaoId":"SBIH","flightCategory":"VFR","rawOb":"METAR SBIH 231700Z 01007KT 9999 SCT020 32/25 Q1008","temp":32,"dewp":25,"wdir":10,"wspd":7,"visib":"6+","altim":1008,"clouds":[{"cover":"SCT","base":2000}],"obsTime":1774285200},"SBAN":{"icaoId":"SBAN","flightCategory":"VFR","rawOb":"METAR SBAN 231700Z 19004KT 9999 SCT030 FEW040TCU 28/18 Q1015","temp":28,"dewp":18,"wdir":190,"wspd":4,"visib":"6+","altim":1015,"clouds":[{"cover":"SCT","base":3000},{"cover":"FEW","base":4000}],"obsTime":1774285200},"SBJV":{"icaoId":"SBJV","flightCategory":"VFR","rawOb":"METAR SBJV 231700Z 03007KT 9999 FEW030 32/23 Q1010","temp":32,"dewp":23,"wdir":30,"wspd":7,"visib":"6+","altim":1010,"clouds":[{"cover":"FEW","base":3000}],"obsTime":1774285200},"SBPF":{"icaoId":"SBPF","flightCategory":"VFR","rawOb":"METAR SBPF 231800Z 34007KT 9999 SCT010 FEW040TCU BKN050 29/21 Q1011","temp":29,"dewp":21,"wdir":340,"wspd":7,"visib":"6+","altim":1011,"clouds":[{"cover":"SCT","base":1000},{"cover":"FEW","base":4000},{"cover":"BKN","base":5000}],"obsTime":1774288800},"SBLE":{"icaoId":"SBLE","flightCategory":"VFR","rawOb":"METAR SBLE 231700Z AUTO 18003KT 110V220 CAVOK 25/21 Q1013","temp":25,"dewp":21,"wdir":180,"wspd":3,"visib":"6+","altim":1013,"clouds":[],"obsTime":1774285200},"SBAF":{"icaoId":"SBAF","flightCategory":"VFR","rawOb":"METAR SBAF 231700Z 08007KT 010V120 9999 SCT040 31/21 Q1010","temp":31,"dewp":21,"wdir":80,"wspd":7,"visib":"6+","altim":1010,"clouds":[{"cover":"SCT","base":4000}],"obsTime":1774285200},"SBGW":{"icaoId":"SBGW","flightCategory":"VFR","rawOb":"METAR SBGW 231700Z 36005KT 290V060 9999 FEW030 30/15 Q1012","temp":30,"dewp":15,"wdir":360,"wspd":5,"visib":"6+","altim":1012,"clouds":[{"cover":"FEW","base":3000}],"obsTime":1774285200},"SBJR":{"icaoId":"SBJR","flightCategory":"VFR","rawOb":"METAR SBJR 231700Z 12007KT 9999 FEW025 32/21 Q1010","temp":32,"dewp":21,"wdir":120,"wspd":7,"visib":"6+","altim":1010,"clouds":[{"cover":"FEW","base":2500}],"obsTime":1774285200},"SBLS":{"icaoId":"SBLS","flightCategory":"VFR","rawOb":"METAR SBLS 231700Z 12005KT 050V150 9999 BKN040 27/19 Q1013","temp":27,"dewp":19,"wdir":120,"wspd":5,"visib":"6+","altim":1013,"clouds":[{"cover":"BKN","base":4000}],"obsTime":1774285200},"SBMT":{"icaoId":"SBMT","flightCategory":"VFR","rawOb":"METAR SBMT 231700Z 02004KT 9999 FEW030 28/12 Q1014","temp":28,"dewp":12,"wdir":20,"wspd":4,"visib":"6+","altim":1014,"clouds":[{"cover":"FEW","base":3000}],"obsTime":1774285200},"SBST":{"icaoId":"SBST","flightCategory":"VFR","rawOb":"METAR SBST 231700Z 21007KT 9999 FEW032 SCT046 26/21 Q1011","temp":26,"dewp":21,"wdir":210,"wspd":7,"visib":"6+","altim":1011,"clouds":[{"cover":"FEW","base":3200},{"cover":"SCT","base":4600}],"obsTime":1774285200},"SBTA":{"icaoId":"SBTA","flightCategory":"VFR","rawOb":"METAR SBTA 231700Z 04007KT 350V080 9999 FEW035 28/18 Q1012","temp":28,"dewp":18,"wdir":40,"wspd":7,"visib":"6+","altim":1012,"clouds":[{"cover":"FEW","base":3500}],"obsTime":1774285200}}}