{"updated":1784059446,"count":85,"data":{"SBCR":{"icaoId":"SBCR","flightCategory":"VFR","rawOb":"METAR SBCR 141900Z 04009KT CAVOK 29/13 Q1013","temp":29,"dewp":13,"wdir":40,"wspd":9,"visib":"6+","altim":1013,"clouds":[],"obsTime":1784055600},"SBCP":{"icaoId":"SBCP","flightCategory":"VFR","rawOb":"METAR SBCP 141900Z 19010KT 9999 FEW025 23/13 Q1022","temp":23,"dewp":13,"wdir":190,"wspd":10,"visib":"6+","altim":1022,"clouds":[{"cover":"FEW","base":2500}],"obsTime":1784055600},"SBKP":{"icaoId":"SBKP","flightCategory":"VFR","rawOb":"METAR SBKP 141900Z 13012KT CAVOK 20/10 Q1021","temp":20,"dewp":10,"wdir":130,"wspd":12,"visib":"6+","altim":1021,"clouds":[],"obsTime":1784055600},"SBBE":{"icaoId":"SBBE","flightCategory":"MVFR","rawOb":"METAR SBBE 141900Z 01006KT 9999 VCSH BKN025 FEW030TCU 29/25 Q1012 RERA","temp":29,"dewp":25,"wdir":10,"wspd":6,"visib":"6+","altim":1012,"clouds":[{"cover":"BKN","base":2500},{"cover":"FEW","base":3000}],"obsTime":1784055600},"SBBV":{"icaoId":"SBBV","flightCategory":"MVFR","rawOb":"METAR SBBV 141900Z 08013KT 9999 BKN030 FEW040TCU 32/22 Q1011","temp":32,"dewp":22,"wdir":80,"wspd":13,"visib":"6+","altim":1011,"clouds":[{"cover":"BKN","base":3000},{"cover":"FEW","base":4000}],"obsTime":1784055600},"SBMO":{"icaoId":"SBMO","flightCategory":"VFR","rawOb":"METAR SBMO 141900Z 09010KT 9999 FEW030 28/23 Q1014","temp":28,"dewp":23,"wdir":90,"wspd":10,"visib":"6+","altim":1014,"clouds":[{"cover":"FEW","base":3000}],"obsTime":1784055600},"SBBR":{"icaoId":"SBBR","flightCategory":"VFR","rawOb":"METAR SBBR 141900Z 12003KT 060V210 CAVOK 27/10 Q1020","temp":27,"dewp":10,"wdir":120,"wspd":3,"visib":"6+","altim":1020,"clouds":[],"obsTime":1784055600},"SBEG":{"icaoId":"SBEG","flightCategory":"VFR","rawOb":"METAR SBEG 141900Z 04005KT 9999 SCT030 FEW035TCU 32/23 Q1010","temp":32,"dewp":23,"wdir":40,"wspd":5,"visib":"6+","altim":1010,"clouds":[{"cover":"SCT","base":3000},{"cover":"FEW","base":3500}],"obsTime":1784055600},"SBSL":{"icaoId":"SBSL","flightCategory":"MVFR","rawOb":"METAR SBSL 141900Z /////KT 9999 BKN020 FEW025TCU 29/24 Q////","temp":29,"dewp":24,"wdir":null,"wspd":null,"visib":"6+","altim":null,"clouds":[{"cover":"BKN","base":2000},{"cover":"FEW","base":2500}],"obsTime":1784055600},"SBCF":{"icaoId":"SBCF","flightCategory":"VFR","rawOb":"METAR SBCF 141900Z 12007KT 9999 FEW030 22/10 Q1021","temp":22,"dewp":10,"wdir":120,"wspd":7,"visib":"6+","altim":1021,"clouds":[{"cover":"FEW","base":3000}],"obsTime":1784055600},"SBSG":{"icaoId":"SBSG","flightCategory":"VFR","rawOb":"METAR SBSG 141900Z 08010KT 9999 SCT030 28/23 Q1014","temp":28,"dewp":23,"wdir":80,"wspd":10,"visib":"6+","altim":1014,"clouds":[{"cover":"SCT","base":3000}],"obsTime":1784055600},"SBRB":{"icaoId":"SBRB","flightCategory":"VFR","rawOb":"METAR SBRB 141900Z 07003KT 9999 BKN031 29/22 Q1014","temp":29,"dewp":22,"wdir":70,"wspd":3,"visib":"6+","altim":1014,"clouds":[{"cover":"BKN","base":3100}],"obsTime":1784055600},"SBPJ":{"icaoId":"SBPJ","flightCategory":"VFR","rawOb":"METAR SBPJ 141900Z 31005KT 280V010 9999 SCT040 36/17 Q1011","temp":36,"dewp":17,"wdir":310,"wspd":5,"visib":"6+","altim":1011,"clouds":[{"cover":"SCT","base":4000}],"obsTime":1784055600},"SBFZ":{"icaoId":"SBFZ","flightCategory":"MVFR","rawOb":"METAR SBFZ 141900Z 07009KT 9999 BKN023 28/23 Q1013","temp":28,"dewp":23,"wdir":70,"wspd":9,"visib":"6+","altim":1013,"clouds":[{"cover":"BKN","base":2300}],"obsTime":1784055600},"SBSN":{"icaoId":"SBSN","flightCategory":"VFR","rawOb":"METAR SBSN 141900Z 09014KT 9999 FEW030TCU 32/24 Q1011","temp":32,"dewp":24,"wdir":90,"wspd":14,"visib":"6+","altim":1011,"clouds":[{"cover":"FEW","base":3000}],"obsTime":1784055600},"SBCT":{"icaoId":"SBCT","flightCategory":"VFR","rawOb":"METAR SBCT 141900Z 08011KT 9999 SCT023 13/08 Q1024","temp":13,"dewp":8,"wdir":80,"wspd":11,"visib":"6+","altim":1024,"clouds":[{"cover":"SCT","base":2300}],"obsTime":1784055600},"SBPV":{"icaoId":"SBPV","flightCategory":"MVFR","rawOb":"METAR SBPV 141900Z 10003KT 9999 BKN030 FEW035TCU 32/21 Q1011","temp":32,"dewp":21,"wdir":100,"wspd":3,"visib":"6+","altim":1011,"clouds":[{"cover":"BKN","base":3000},{"cover":"FEW","base":3500}],"obsTime":1784055600},"SBRF":{"icaoId":"SBRF","flightCategory":"VFR","rawOb":"METAR SBRF 141900Z 04008KT 360V070 CAVOK 28/23 Q1014","temp":28,"dewp":23,"wdir":40,"wspd":8,"visib":"6+","altim":1014,"clouds":[],"obsTime":1784055600},"SBTE":{"icaoId":"SBTE","flightCategory":"VFR","rawOb":"METAR SBTE 141900Z 33008KT 290V350 9999 FEW035 32/23 Q1011","temp":32,"dewp":23,"wdir":330,"wspd":8,"visib":"6+","altim":1011,"clouds":[{"cover":"FEW","base":3500}],"obsTime":1784055600},"SBSV":{"icaoId":"SBSV","flightCategory":"MVFR","rawOb":"METAR SBSV 141900Z 18009KT 140V200 6000 -RA BKN015 FEW023TCU BKN040 BKN070 24/22 Q1016","temp":24,"dewp":22,"wdir":180,"wspd":9,"visib":3.73,"altim":1016,"clouds":[{"cover":"BKN","base":1500},{"cover":"FEW","base":2300},{"cover":"BKN","base":4000},{"cover":"BKN","base":7000}],"obsTime":1784055600},"SBPA":{"icaoId":"SBPA","flightCategory":"VFR","rawOb":"METAR SBPA 141900Z 07003KT 010V110 CAVOK 20/12 Q1019","temp":20,"dewp":12,"wdir":70,"wspd":3,"visib":"6+","altim":1019,"clouds":[],"obsTime":1784055600},"SBCB":{"icaoId":"SBCB","flightCategory":"VFR","rawOb":"METAR SBCB 141900Z 27006KT 9999 SCT020 BKN060 21/15 Q1022","temp":21,"dewp":15,"wdir":270,"wspd":6,"visib":"6+","altim":1022,"clouds":[{"cover":"SCT","base":2000},{"cover":"BKN","base":6000}],"obsTime":1784055600},"SBMQ":{"icaoId":"SBMQ","flightCategory":"VFR","rawOb":"METAR SBMQ 141900Z 06013KT 9999 FEW030 32/23 Q1011","temp":32,"dewp":23,"wdir":60,"wspd":13,"visib":"6+","altim":1011,"clouds":[{"cover":"FEW","base":3000}],"obsTime":1784055600},"SBGO":{"icaoId":"SBGO","flightCategory":"VFR","rawOb":"METAR SBGO 141900Z 17006KT 9999 FEW045 29/09 Q1018","temp":29,"dewp":9,"wdir":170,"wspd":6,"visib":"6+","altim":1018,"clouds":[{"cover":"FEW","base":4500}],"obsTime":1784055600},"SBLO":{"icaoId":"SBLO","flightCategory":"VFR","rawOb":"METAR SBLO 141900Z 09009KT CAVOK 19/09 Q1021","temp":19,"dewp":9,"wdir":90,"wspd":9,"visib":"6+","altim":1021,"clouds":[],"obsTime":1784055600},"SBSP":{"icaoId":"SBSP","flightCategory":"MVFR","rawOb":"METAR SBSP 141900Z 16012KT 120V180 9999 BKN020 15/12 Q1024","temp":15,"dewp":12,"wdir":160,"wspd":12,"visib":"6+","altim":1024,"clouds":[{"cover":"BKN","base":2000}],"obsTime":1784055600},"SBVT":{"icaoId":"SBVT","flightCategory":"VFR","rawOb":"METAR SBVT 141900Z 18014KT 9999 FEW040 22/15 Q1021","temp":22,"dewp":15,"wdir":180,"wspd":14,"visib":"6+","altim":1021,"clouds":[{"cover":"FEW","base":4000}],"obsTime":1784055600},"SBGL":{"icaoId":"SBGL","flightCategory":"VFR","rawOb":"METAR SBGL 141900Z 13007KT 9999 SCT030 SCT080 21/14 Q1022","temp":21,"dewp":14,"wdir":130,"wspd":7,"visib":"6+","altim":1022,"clouds":[{"cover":"SCT","base":3000},{"cover":"SCT","base":8000}],"obsTime":1784055600},"SBCG":{"icaoId":"SBCG","flightCategory":"VFR","rawOb":"METAR SBCG 141900Z 10008KT 070V130 CAVOK 24/10 Q1017","temp":24,"dewp":10,"wdir":100,"wspd":8,"visib":"6+","altim":1017,"clouds":[],"obsTime":1784055600},"SBGR":{"icaoId":"SBGR","flightCategory":"VFR","rawOb":"METAR SBGR 141900Z 08011KT 9999 BKN040 19/09 Q1023","temp":19,"dewp":9,"wdir":80,"wspd":11,"visib":"6+","altim":1023,"clouds":[{"cover":"BKN","base":4000}],"obsTime":1784055600},"SBMA":{"icaoId":"SBMA","flightCategory":"VFR","rawOb":"METAR SBMA 141900Z 33003KT 9999 SCT020 FEW025TCU 31/24 Q1011","temp":31,"dewp":24,"wdir":330,"wspd":3,"visib":"6+","altim":1011,"clouds":[{"cover":"SCT","base":2000},{"cover":"FEW","base":2500}],"obsTime":1784055600},"SBFI":{"icaoId":"SBFI","flightCategory":"VFR","rawOb":"METAR SBFI 141900Z 09003KT CAVOK 22/11 Q1018","temp":22,"dewp":11,"wdir":90,"wspd":3,"visib":"6+","altim":1018,"clouds":[],"obsTime":1784055600},"SBFL":{"icaoId":"SBFL","flightCategory":"VFR","rawOb":"METAR SBFL 141900Z 34009KT 9999 SCT033 SCT070 19/14 Q1023","temp":19,"dewp":14,"wdir":340,"wspd":9,"visib":"6+","altim":1023,"clouds":[{"cover":"SCT","base":3300},{"cover":"SCT","base":7000}],"obsTime":1784055600},"SBMG":{"icaoId":"SBMG","flightCategory":"VFR","rawOb":"METAR SBMG 141900Z 08008KT 030V120 CAVOK 21/08 Q1019","temp":21,"dewp":8,"wdir":80,"wspd":8,"visib":"6+","altim":1019,"clouds":[],"obsTime":1784055600},"SBME":{"icaoId":"SBME","flightCategory":"VFR","rawOb":"METAR SBME 141900Z 22003KT 9999 FEW020 BKN040 21/14 Q1022","temp":21,"dewp":14,"wdir":220,"wspd":3,"visib":"6+","altim":1022,"clouds":[{"cover":"FEW","base":2000},{"cover":"BKN","base":4000}],"obsTime":1784055600},"SBMK":{"icaoId":"SBMK","flightCategory":"VFR","rawOb":"METAR SBMK 141900Z 09010KT 9999 BKN040 27/16 Q1018","temp":27,"dewp":16,"wdir":90,"wspd":10,"visib":"6+","altim":1018,"clouds":[{"cover":"BKN","base":4000}],"obsTime":1784055600},"SBUL":{"icaoId":"SBUL","flightCategory":"VFR","rawOb":"METAR SBUL 141900Z VRB02KT CAVOK 25/03 Q1020","temp":25,"dewp":3,"wdir":"VRB","wspd":2,"visib":"6+","altim":1020,"clouds":[],"obsTime":1784055600},"SBUR":{"icaoId":"SBUR","flightCategory":"VFR","rawOb":"METAR SBUR 141900Z 17007KT CAVOK 24/07 Q1019","temp":24,"dewp":7,"wdir":170,"wspd":7,"visib":"6+","altim":1019,"clouds":[],"obsTime":1784055600},"SBIL":{"icaoId":"SBIL","flightCategory":"VFR","rawOb":"METAR SBIL 141900Z 22012G25KT 9999 SCT020 BKN070 25/21 Q1018","temp":25,"dewp":21,"wdir":220,"wspd":12,"visib":"6+","altim":1018,"clouds":[{"cover":"SCT","base":2000},{"cover":"BKN","base":7000}],"obsTime":1784055600},"SBJU":{"icaoId":"SBJU","flightCategory":"VFR","rawOb":"METAR SBJU 141900Z 08004KT 9999 SCT022 31/19 Q1014","temp":31,"dewp":19,"wdir":80,"wspd":4,"visib":"6+","altim":1014,"clouds":[{"cover":"SCT","base":2200}],"obsTime":1784055600},"SBAT":{"icaoId":"SBAT","flightCategory":"VFR","rawOb":"METAR SBAT 141900Z 18004KT 9999 SCT040 35/21 Q1012","temp":35,"dewp":21,"wdir":180,"wspd":4,"visib":"6+","altim":1012,"clouds":[{"cover":"SCT","base":4000}],"obsTime":1784055600},"SBHT":{"icaoId":"SBHT","flightCategory":"VFR","rawOb":"METAR SBHT 141900Z 10005KT 9999 SCT030 32/25 Q1011","temp":32,"dewp":25,"wdir":100,"wspd":5,"visib":"6+","altim":1011,"clouds":[{"cover":"SCT","base":3000}],"obsTime":1784055600},"SBCZ":{"icaoId":"SBCZ","flightCategory":"MVFR","rawOb":"METAR SBCZ 141900Z 17004KT 080V240 9999 OVC018 27/23 Q1014","temp":27,"dewp":23,"wdir":170,"wspd":4,"visib":"6+","altim":1014,"clouds":[{"cover":"OVC","base":1800}],"obsTime":1784055600},"SBNT":{"icaoId":"SBNT","flightCategory":"VFR","rawOb":"METAR SBNT 141900Z 08008KT 050V120 9999 SCT023 28/22 Q1014","temp":28,"dewp":22,"wdir":80,"wspd":8,"visib":"6+","altim":1014,"clouds":[{"cover":"SCT","base":2300}],"obsTime":1784055600},"SBPL":{"icaoId":"SBPL","flightCategory":"VFR","rawOb":"METAR SBPL 141900Z 12003KT 9999 FEW030 34/16 Q1013","temp":34,"dewp":16,"wdir":120,"wspd":3,"visib":"6+","altim":1013,"clouds":[{"cover":"FEW","base":3000}],"obsTime":1784055600},"SBAR":{"icaoId":"SBAR","flightCategory":"VFR","rawOb":"METAR SBAR 141900Z 14009KT 9999 FEW027 28/23 Q1015","temp":28,"dewp":23,"wdir":140,"wspd":9,"visib":"6+","altim":1015,"clouds":[{"cover":"FEW","base":2700}],"obsTime":1784055600},"SBSJ":{"icaoId":"SBSJ","flightCategory":"VFR","rawOb":"METAR SBSJ 141900Z 10008KT 9999 FEW040 SCT100 19/09 Q1022","temp":19,"dewp":9,"wdir":100,"wspd":8,"visib":"6+","altim":1022,"clouds":[{"cover":"FEW","base":4000},{"cover":"SCT","base":10000}],"obsTime":1784055600},"SBUY":{"icaoId":"SBUY","flightCategory":"VFR","rawOb":"METAR SBUY 141900Z 14004KT 9999 SCT030 32/23 Q1010","temp":32,"dewp":23,"wdir":140,"wspd":4,"visib":"6+","altim":1010,"clouds":[{"cover":"SCT","base":3000}],"obsTime":1784055600},"SBPB":{"icaoId":"SBPB","flightCategory":"VFR","rawOb":"METAR SBPB 141900Z 06014KT 9999 SCT023 29/24 Q1012","temp":29,"dewp":24,"wdir":60,"wspd":14,"visib":"6+","altim":1012,"clouds":[{"cover":"SCT","base":2300}],"obsTime":1784055600},"SBOI":{"icaoId":"SBOI","flightCategory":"VFR","rawOb":"METAR SBOI 141900Z AUTO 08005KT 040V170 9999 SCT039 31/23 Q1012","temp":31,"dewp":23,"wdir":80,"wspd":5,"visib":"6+","altim":1012,"clouds":[{"cover":"SCT","base":3900}],"obsTime":1784055600},"SBTT":{"icaoId":"SBTT","flightCategory":"VFR","rawOb":"METAR SBTT 141900Z 20003KT 9999 SCT030 BKN050 29/25 Q1013","temp":29,"dewp":25,"wdir":200,"wspd":3,"visib":"6+","altim":1013,"clouds":[{"cover":"SCT","base":3000},{"cover":"BKN","base":5000}],"obsTime":1784055600},"SBCJ":{"icaoId":"SBCJ","flightCategory":"VFR","rawOb":"METAR SBCJ 141900Z 03005KT CAVOK 26/19 Q1015","temp":26,"dewp":19,"wdir":30,"wspd":5,"visib":"6+","altim":1015,"clouds":[],"obsTime":1784055600},"SBPP":{"icaoId":"SBPP","flightCategory":"VFR","rawOb":"METAR SBPP 141900Z 07013KT CAVOK 21/10 Q1018","temp":21,"dewp":10,"wdir":70,"wspd":13,"visib":"6+","altim":1018,"clouds":[],"obsTime":1784055600},"SBPS":{"icaoId":"SBPS","flightCategory":"MVFR","rawOb":"METAR SBPS 141900Z 22004G16KT 5000 -RA BR SCT009 BKN015 21/19 Q1019","temp":21,"dewp":19,"wdir":220,"wspd":4,"visib":3.11,"altim":1019,"clouds":[{"cover":"SCT","base":900},{"cover":"BKN","base":1500}],"obsTime":1784055600},"SBTF":{"icaoId":"SBTF","flightCategory":"VFR","rawOb":"METAR SBTF 141900Z 29006KT 9999 FEW020 31/26 Q1010","temp":31,"dewp":26,"wdir":290,"wspd":6,"visib":"6+","altim":1010,"clouds":[{"cover":"FEW","base":2000}],"obsTime":1784055600},"SBKG":{"icaoId":"SBKG","flightCategory":"VFR","rawOb":"METAR SBKG 141900Z 10010KT 9999 FEW025 28/19 Q1016","temp":28,"dewp":19,"wdir":100,"wspd":10,"visib":"6+","altim":1016,"clouds":[{"cover":"FEW","base":2500}],"obsTime":1784055600},"SBCC":{"icaoId":"SBCC","flightCategory":"VFR","rawOb":"METAR SBCC 141900Z 24006KT 9999 -RA SCT020 BKN040 FEW045TCU 25/21 Q1013","temp":25,"dewp":21,"wdir":240,"wspd":6,"visib":"6+","altim":1013,"clouds":[{"cover":"SCT","base":2000},{"cover":"BKN","base":4000},{"cover":"FEW","base":4500}],"obsTime":1784055600},"SBGM":{"icaoId":"SBGM","flightCategory":"VFR","rawOb":"METAR SBGM 141900Z 14005KT 9999 SCT020 SCT040 30/17 Q1013","temp":30,"dewp":17,"wdir":140,"wspd":5,"visib":"6+","altim":1013,"clouds":[{"cover":"SCT","base":2000},{"cover":"SCT","base":4000}],"obsTime":1784055600},"SBVH":{"icaoId":"SBVH","flightCategory":"VFR","rawOb":"METAR SBVH 141900Z 06003KT 9999 SCT035 29/19 Q1015","temp":29,"dewp":19,"wdir":60,"wspd":3,"visib":"6+","altim":1015,"clouds":[{"cover":"SCT","base":3500}],"obsTime":1784055600},"SBES":{"icaoId":"SBES","flightCategory":"VFR","rawOb":"METAR SBES 141900Z 24003KT 200V280 9999 SCT020 SCT040 19/// Q1023","temp":null,"dewp":null,"wdir":240,"wspd":3,"visib":"6+","altim":1023,"clouds":[{"cover":"SCT","base":2000},{"cover":"SCT","base":4000}],"obsTime":1784055600},"SBTU":{"icaoId":"SBTU","flightCategory":"VFR","rawOb":"METAR SBTU 141900Z AUTO 22003KT 140V290 9999 // BKN031/// 30/23 Q1013","temp":30,"dewp":23,"wdir":220,"wspd":3,"visib":"6+","altim":1013,"clouds":[{"cover":"BKN","base":3100}],"obsTime":1784055600},"SBCA":{"icaoId":"SBCA","flightCategory":"VFR","rawOb":"METAR SBCA 141900Z 06010KT CAVOK 18/05 Q1021","temp":18,"dewp":5,"wdir":60,"wspd":10,"visib":"6+","altim":1021,"clouds":[],"obsTime":1784055600},"SBCO":{"icaoId":"SBCO","flightCategory":"VFR","rawOb":"METAR SBCO 141900Z 11004KT CAVOK 20/12 Q1020","temp":20,"dewp":12,"wdir":110,"wspd":4,"visib":"6+","altim":1020,"clouds":[],"obsTime":1784055600},"SBSM":{"icaoId":"SBSM","flightCategory":"VFR","rawOb":"METAR SBSM 141900Z 06007KT CAVOK 20/09 Q1019","temp":20,"dewp":9,"wdir":60,"wspd":7,"visib":"6+","altim":1019,"clouds":[],"obsTime":1784055600},"SBAX":{"icaoId":"SBAX","flightCategory":"VFR","rawOb":"METAR SBAX 141900Z 06004KT CAVOK 22/05 Q1021","temp":22,"dewp":5,"wdir":60,"wspd":4,"visib":"6+","altim":1021,"clouds":[],"obsTime":1784055600},"SBBH":{"icaoId":"SBBH","flightCategory":"VFR","rawOb":"METAR SBBH 141900Z 10007KT CAVOK 23/09 Q1021","temp":23,"dewp":9,"wdir":100,"wspd":7,"visib":"6+","altim":1021,"clouds":[],"obsTime":1784055600},"SBBQ":{"icaoId":"SBBQ","flightCategory":"VFR","rawOb":"METAR SBBQ 141900Z 07007KT 040V110 9999 SCT040 17/08 Q1025","temp":17,"dewp":8,"wdir":70,"wspd":7,"visib":"6+","altim":1025,"clouds":[{"cover":"SCT","base":4000}],"obsTime":1784055600},"SBBU":{"icaoId":"SBBU","flightCategory":"VFR","rawOb":"METAR SBBU 141900Z 12008KT CAVOK 21/10 Q1021","temp":21,"dewp":10,"wdir":120,"wspd":8,"visib":"6+","altim":1021,"clouds":[],"obsTime":1784055600},"SBDN":{"icaoId":"SBDN","flightCategory":"VFR","rawOb":"METAR SBDN 141900Z 07007KT CAVOK 23/07 Q1019","temp":23,"dewp":7,"wdir":70,"wspd":7,"visib":"6+","altim":1019,"clouds":[],"obsTime":1784055600},"SBIP":{"icaoId":"SBIP","flightCategory":"VFR","rawOb":"METAR SBIP 141900Z AUTO VRB01KT CAVOK 25/13 Q1020","temp":25,"dewp":13,"wdir":"VRB","wspd":1,"visib":"6+","altim":1020,"clouds":[],"obsTime":1784055600},"SBSC":{"icaoId":"SBSC","flightCategory":"VFR","rawOb":"METAR SBSC 141900Z 20004KT 9999 FEW025 SCT040 20/14 Q1022","temp":20,"dewp":14,"wdir":200,"wspd":4,"visib":"6+","altim":1022,"clouds":[{"cover":"FEW","base":2500},{"cover":"SCT","base":4000}],"obsTime":1784055600},"SBSR":{"icaoId":"SBSR","flightCategory":"VFR","rawOb":"METAR SBSR 141900Z 11006KT CAVOK 23/03 Q1019","temp":23,"dewp":3,"wdir":110,"wspd":6,"visib":"6+","altim":1019,"clouds":[],"obsTime":1784055600},"SBJP":{"icaoId":"SBJP","flightCategory":"VFR","rawOb":"METAR SBJP 141900Z 04007KT 360V070 9999 FEW026 28/23 Q1014","temp":28,"dewp":23,"wdir":40,"wspd":7,"visib":"6+","altim":1014,"clouds":[{"cover":"FEW","base":2600}],"obsTime":1784055600},"SBJV":{"icaoId":"SBJV","flightCategory":"VFR","rawOb":"METAR SBJV 141900Z 14002KT 9999 FEW025 BKN045 18/13 Q1024","temp":18,"dewp":13,"wdir":140,"wspd":2,"visib":"6+","altim":1024,"clouds":[{"cover":"FEW","base":2500},{"cover":"BKN","base":4500}],"obsTime":1784055600},"SBNM":{"icaoId":"SBNM","flightCategory":"VFR","rawOb":"METAR SBNM 141900Z AUTO 01008KT 340V050 CAVOK 19/08 Q1018","temp":19,"dewp":8,"wdir":10,"wspd":8,"visib":"6+","altim":1018,"clouds":[],"obsTime":1784055600},"SBAF":{"icaoId":"SBAF","flightCategory":"VFR","rawOb":"METAR SBAF 141900Z 13005KT 9999 SCT030 SCT060 21/15 Q1022","temp":21,"dewp":15,"wdir":130,"wspd":5,"visib":"6+","altim":1022,"clouds":[{"cover":"SCT","base":3000},{"cover":"SCT","base":6000}],"obsTime":1784055600},"SBGW":{"icaoId":"SBGW","flightCategory":"VFR","rawOb":"METAR SBGW 141900Z 03006KT 330V080 9999 FEW030 21/07 Q1022","temp":21,"dewp":7,"wdir":30,"wspd":6,"visib":"6+","altim":1022,"clouds":[{"cover":"FEW","base":3000}],"obsTime":1784055600},"SBJR":{"icaoId":"SBJR","flightCategory":"VFR","rawOb":"METAR SBJR 141900Z 20005KT 9999 FEW025 SCT050 21/15 Q1022","temp":21,"dewp":15,"wdir":200,"wspd":5,"visib":"6+","altim":1022,"clouds":[{"cover":"FEW","base":2500},{"cover":"SCT","base":5000}],"obsTime":1784055600},"SBLS":{"icaoId":"SBLS","flightCategory":"VFR","rawOb":"METAR SBLS 141900Z 13006KT 9999 FEW045 22/10 Q1021","temp":22,"dewp":10,"wdir":130,"wspd":6,"visib":"6+","altim":1021,"clouds":[{"cover":"FEW","base":4500}],"obsTime":1784055600},"SBAN":{"icaoId":"SBAN","flightCategory":"VFR","rawOb":"METAR SBAN 141900Z 16005KT 9999 FEW048 27/10 Q1020","temp":27,"dewp":10,"wdir":160,"wspd":5,"visib":"6+","altim":1020,"clouds":[{"cover":"FEW","base":4800}],"obsTime":1784055600},"SBST":{"icaoId":"SBST","flightCategory":"MVFR","rawOb":"METAR SBST 141900Z 18007KT 9000 BKN029 18/14 Q1023","temp":18,"dewp":14,"wdir":180,"wspd":7,"visib":5.59,"altim":1023,"clouds":[{"cover":"BKN","base":2900}],"obsTime":1784055600},"SBTA":{"icaoId":"SBTA","flightCategory":"VFR","rawOb":"METAR SBTA 141900Z 03006KT 360V070 9999 SCT045 21/10 Q1021","temp":21,"dewp":10,"wdir":30,"wspd":6,"visib":"6+","altim":1021,"clouds":[{"cover":"SCT","base":4500}],"obsTime":1784055600},"SBLE":{"icaoId":"SBLE","flightCategory":"VFR","rawOb":"METAR SBLE 141900Z AUTO 08006KT 9999 SCT049 26/19 Q1017","temp":26,"dewp":19,"wdir":80,"wspd":6,"visib":"6+","altim":1017,"clouds":[{"cover":"SCT","base":4900}],"obsTime":1784055600},"SBIH":{"icaoId":"SBIH","flightCategory":"VFR","rawOb":"METAR SBIH 141900Z 04007KT 9999 -RA SCT018 FEW025TCU OVC080 24/23 Q1012","temp":24,"dewp":23,"wdir":40,"wspd":7,"visib":"6+","altim":1012,"clouds":[{"cover":"SCT","base":1800},{"cover":"FEW","base":2500},{"cover":"OVC","base":8000}],"obsTime":1784055600},"SBMT":{"icaoId":"SBMT","flightCategory":"VFR","rawOb":"METAR SBMT 141900Z 10009KT 9999 SCT040 18/09 Q1022","temp":18,"dewp":9,"wdir":100,"wspd":9,"visib":"6+","altim":1022,"clouds":[{"cover":"SCT","base":4000}],"obsTime":1784055600}}}