{"updated":1777541486,"count":63,"data":{"SBMG":{"icaoId":"SBMG","flightCategory":"MVFR","rawOb":"METAR SBMG 300800Z AUTO VRB01KT 7000 FEW002 19/19 Q1015","temp":19,"dewp":19,"wdir":"VRB","wspd":1,"visib":4.35,"altim":1015,"clouds":[{"cover":"FEW","base":200}],"obsTime":1777536000},"SBCF":{"icaoId":"SBCF","flightCategory":"VFR","rawOb":"METAR SBCF 300800Z 20002KT CAVOK 17/15 Q1019","temp":17,"dewp":15,"wdir":200,"wspd":2,"visib":"6+","altim":1019,"clouds":[],"obsTime":1777536000},"SBMK":{"icaoId":"SBMK","flightCategory":"VFR","rawOb":"METAR SBMK 300800Z 20002KT 9999 SCT015 21/17 Q1017","temp":21,"dewp":17,"wdir":200,"wspd":2,"visib":"6+","altim":1017,"clouds":[{"cover":"SCT","base":1500}],"obsTime":1777536000},"SBFL":{"icaoId":"SBFL","flightCategory":"MVFR","rawOb":"METAR SBFL 300800Z VRB02KT 9999 BKN028 19/18 Q1014","temp":19,"dewp":18,"wdir":"VRB","wspd":2,"visib":"6+","altim":1014,"clouds":[{"cover":"BKN","base":2800}],"obsTime":1777536000},"SBBE":{"icaoId":"SBBE","flightCategory":"VFR","rawOb":"METAR SBBE 300800Z 16002KT CAVOK 26/24 Q1008","temp":26,"dewp":24,"wdir":160,"wspd":2,"visib":"6+","altim":1008,"clouds":[],"obsTime":1777536000},"SBMO":{"icaoId":"SBMO","flightCategory":"VFR","rawOb":"METAR SBMO 300800Z 31003KT 9999 FEW010 SCT019 23/23 Q1011","temp":23,"dewp":23,"wdir":310,"wspd":3,"visib":"6+","altim":1011,"clouds":[{"cover":"FEW","base":1000},{"cover":"SCT","base":1900}],"obsTime":1777536000},"SBMQ":{"icaoId":"SBMQ","flightCategory":"IFR","rawOb":"METAR SBMQ 300800Z 31002KT 9999 BKN005 25/25 Q1009","temp":25,"dewp":25,"wdir":310,"wspd":2,"visib":"6+","altim":1009,"clouds":[{"cover":"BKN","base":500}],"obsTime":1777536000},"SBFZ":{"icaoId":"SBFZ","flightCategory":"VFR","rawOb":"METAR SBFZ 300800Z 15007KT 9999 FEW020 25/23 Q1009","temp":25,"dewp":23,"wdir":150,"wspd":7,"visib":"6+","altim":1009,"clouds":[{"cover":"FEW","base":2000}],"obsTime":1777536000},"SBGL":{"icaoId":"SBGL","flightCategory":"VFR","rawOb":"METAR SBGL 300800Z 27009KT 9999 FEW014 OVC045 24/21 Q1015","temp":24,"dewp":21,"wdir":270,"wspd":9,"visib":"6+","altim":1015,"clouds":[{"cover":"FEW","base":1400},{"cover":"OVC","base":4500}],"obsTime":1777536000},"SBNT":{"icaoId":"SBNT","flightCategory":"VFR","rawOb":"METAR SBNT 300800Z 19006KT 9999 FEW018 23/22 Q1009","temp":23,"dewp":22,"wdir":190,"wspd":6,"visib":"6+","altim":1009,"clouds":[{"cover":"FEW","base":1800}],"obsTime":1777536000},"SBPA":{"icaoId":"SBPA","flightCategory":"MVFR","rawOb":"METAR SBPA 300800Z 28002KT 8000 FEW010 11/10 Q1016","temp":11,"dewp":10,"wdir":280,"wspd":2,"visib":4.97,"altim":1016,"clouds":[{"cover":"FEW","base":1000}],"obsTime":1777536000},"SBCG":{"icaoId":"SBCG","flightCategory":"LIFR","rawOb":"METAR SBCG 300800Z 11013KT 9999 BKN004 22/21 Q1015","temp":22,"dewp":21,"wdir":110,"wspd":13,"visib":"6+","altim":1015,"clouds":[{"cover":"BKN","base":400}],"obsTime":1777536000},"SBGO":{"icaoId":"SBGO","flightCategory":"VFR","rawOb":"METAR SBGO 300800Z 12003KT CAVOK 19/15 Q1017","temp":19,"dewp":15,"wdir":120,"wspd":3,"visib":"6+","altim":1017,"clouds":[],"obsTime":1777536000},"SBPJ":{"icaoId":"SBPJ","flightCategory":"VFR","rawOb":"METAR SBPJ 300800Z 12003KT 9999 FEW035 24/23 Q1011","temp":24,"dewp":23,"wdir":120,"wspd":3,"visib":"6+","altim":1011,"clouds":[{"cover":"FEW","base":3500}],"obsTime":1777536000},"SBCT":{"icaoId":"SBCT","flightCategory":"LIFR","rawOb":"METAR SBCT 300800Z 29003KT 0600 R33/1500 R15/1600 FG OVC001 16/16 Q1018","temp":16,"dewp":16,"wdir":290,"wspd":3,"visib":0.37,"altim":1018,"clouds":[{"cover":"OVC","base":100}],"obsTime":1777536000},"SBPV":{"icaoId":"SBPV","flightCategory":"VFR","rawOb":"METAR SBPV 300800Z 00000KT 9999 FEW004 SCT030 26/23 Q1009","temp":26,"dewp":23,"wdir":0,"wspd":0,"visib":"6+","altim":1009,"clouds":[{"cover":"FEW","base":400},{"cover":"SCT","base":3000}],"obsTime":1777536000},"SBVT":{"icaoId":"SBVT","flightCategory":"VFR","rawOb":"METAR SBVT 300800Z 31002KT 9999 FEW030 SCT080 21/21 Q1015","temp":21,"dewp":21,"wdir":310,"wspd":2,"visib":"6+","altim":1015,"clouds":[{"cover":"FEW","base":3000},{"cover":"SCT","base":8000}],"obsTime":1777536000},"SBRB":{"icaoId":"SBRB","flightCategory":"MVFR","rawOb":"METAR SBRB 300800Z 00000KT 8000 FEW030 23/23 Q1009","temp":23,"dewp":23,"wdir":0,"wspd":0,"visib":4.97,"altim":1009,"clouds":[{"cover":"FEW","base":3000}],"obsTime":1777536000},"SBBV":{"icaoId":"SBBV","flightCategory":"VFR","rawOb":"METAR SBBV 300800Z 21003KT 9999 FEW020 SCT040 FEW045TCU BKN100 24/23 Q1010 RERA","temp":24,"dewp":23,"wdir":210,"wspd":3,"visib":"6+","altim":1010,"clouds":[{"cover":"FEW","base":2000},{"cover":"SCT","base":4000},{"cover":"FEW","base":4500},{"cover":"BKN","base":10000}],"obsTime":1777536000},"SBRF":{"icaoId":"SBRF","flightCategory":"MVFR","rawOb":"METAR SBRF 300800Z 21002KT 9999 BKN023 24/23 Q1010","temp":24,"dewp":23,"wdir":210,"wspd":2,"visib":"6+","altim":1010,"clouds":[{"cover":"BKN","base":2300}],"obsTime":1777536000},"SBGR":{"icaoId":"SBGR","flightCategory":"VFR","rawOb":"SPECI SBGR 300740Z 04011KT 9999 -RA SCT040 OVC080 18/17 Q1018","temp":18,"dewp":17,"wdir":40,"wspd":11,"visib":"6+","altim":1018,"clouds":[{"cover":"SCT","base":4000},{"cover":"OVC","base":8000}],"obsTime":1777534800},"SBSG":{"icaoId":"SBSG","flightCategory":"VFR","rawOb":"METAR SBSG 300800Z 19004KT 150V240 9999 FEW023 22/22 Q1009","temp":22,"dewp":22,"wdir":190,"wspd":4,"visib":"6+","altim":1009,"clouds":[{"cover":"FEW","base":2300}],"obsTime":1777536000},"SBJU":{"icaoId":"SBJU","flightCategory":"VFR","rawOb":"METAR SBJU 300800Z 18005KT 9999 FEW020 20/18 Q1012","temp":20,"dewp":18,"wdir":180,"wspd":5,"visib":"6+","altim":1012,"clouds":[{"cover":"FEW","base":2000}],"obsTime":1777536000},"SBSL":{"icaoId":"SBSL","flightCategory":"IFR","rawOb":"METAR SBSL 300800Z 12004KT 4000 -RA BR SCT007 BKN020 BKN100 24/23 Q1009 RERA","temp":24,"dewp":23,"wdir":120,"wspd":4,"visib":2.49,"altim":1009,"clouds":[{"cover":"SCT","base":700},{"cover":"BKN","base":2000},{"cover":"BKN","base":10000}],"obsTime":1777536000},"SBEG":{"icaoId":"SBEG","flightCategory":"VFR","rawOb":"METAR SBEG 300800Z 34001KT 9999 1000W BCFG FEW010 SCT100 24/24 Q1009","temp":24,"dewp":24,"wdir":340,"wspd":1,"visib":"6+","altim":1009,"clouds":[{"cover":"FEW","base":1000},{"cover":"SCT","base":10000}],"obsTime":1777536000},"SBSN":{"icaoId":"SBSN","flightCategory":"VFR","rawOb":"METAR SBSN 300800Z 18003KT 9999 FEW017 SCT100 23/23 Q1008","temp":23,"dewp":23,"wdir":180,"wspd":3,"visib":"6+","altim":1008,"clouds":[{"cover":"FEW","base":1700},{"cover":"SCT","base":10000}],"obsTime":1777536000},"SBSP":{"icaoId":"SBSP","flightCategory":"VFR","rawOb":"METAR SBSP 300900Z 07004KT 040V120 CAVOK 18/17 Q1018","temp":18,"dewp":17,"wdir":70,"wspd":4,"visib":"6+","altim":1018,"clouds":[],"obsTime":1777539600},"SBCB":{"icaoId":"SBCB","flightCategory":"MVFR","rawOb":"METAR SBCB 300900Z 27012KT 8000 SCT008 BKN020 BKN050 24/23 Q1015","temp":24,"dewp":23,"wdir":270,"wspd":12,"visib":4.97,"altim":1015,"clouds":[{"cover":"SCT","base":800},{"cover":"BKN","base":2000},{"cover":"BKN","base":5000}],"obsTime":1777539600},"SBSV":{"icaoId":"SBSV","flightCategory":"MVFR","rawOb":"METAR SBSV 300800Z 07012KT 9000 -RA BKN026 SCT032 25/22 Q1012","temp":25,"dewp":22,"wdir":70,"wspd":12,"visib":5.59,"altim":1012,"clouds":[{"cover":"BKN","base":2600},{"cover":"SCT","base":3200}],"obsTime":1777536000},"SBKP":{"icaoId":"SBKP","flightCategory":"VFR","rawOb":"METAR SBKP 300800Z 07009KT 9999 SCT040 BKN100 18/17 Q1017","temp":18,"dewp":17,"wdir":70,"wspd":9,"visib":"6+","altim":1017,"clouds":[{"cover":"SCT","base":4000},{"cover":"BKN","base":10000}],"obsTime":1777536000},"SBTE":{"icaoId":"SBTE","flightCategory":"IFR","rawOb":"METAR SBTE 300800Z 00000KT 9999 BKN008 SCT100 25/24 Q1009","temp":25,"dewp":24,"wdir":0,"wspd":0,"visib":"6+","altim":1009,"clouds":[{"cover":"BKN","base":800},{"cover":"SCT","base":10000}],"obsTime":1777536000},"SBUL":{"icaoId":"SBUL","flightCategory":"VFR","rawOb":"METAR SBUL 300800Z 12007KT CAVOK 19/14 Q1018","temp":19,"dewp":14,"wdir":120,"wspd":7,"visib":"6+","altim":1018,"clouds":[],"obsTime":1777536000},"SBBR":{"icaoId":"SBBR","flightCategory":"VFR","rawOb":"METAR SBBR 300800Z 25001KT CAVOK 15/13 Q1018","temp":15,"dewp":13,"wdir":250,"wspd":1,"visib":"6+","altim":1018,"clouds":[],"obsTime":1777536000},"SBUR":{"icaoId":"SBUR","flightCategory":"VFR","rawOb":"METAR SBUR 300800Z 03006KT CAVOK 21/14 Q1017","temp":21,"dewp":14,"wdir":30,"wspd":6,"visib":"6+","altim":1017,"clouds":[],"obsTime":1777536000},"SBLO":{"icaoId":"SBLO","flightCategory":"IFR","rawOb":"METAR SBLO 300800Z 08005KT 8000 OVC005 18/18 Q1016","temp":18,"dewp":18,"wdir":80,"wspd":5,"visib":4.97,"altim":1016,"clouds":[{"cover":"OVC","base":500}],"obsTime":1777536000},"SBMA":{"icaoId":"SBMA","flightCategory":"VFR","rawOb":"METAR SBMA 300800Z 00000KT 9999 FEW015 BKN080 26/25 Q1008","temp":26,"dewp":25,"wdir":0,"wspd":0,"visib":"6+","altim":1008,"clouds":[{"cover":"FEW","base":1500},{"cover":"BKN","base":8000}],"obsTime":1777536000},"SBME":{"icaoId":"SBME","flightCategory":"VFR","rawOb":"METAR SBME 300800Z 33003KT 9999 SCT020 23/21 Q1014","temp":23,"dewp":21,"wdir":330,"wspd":3,"visib":"6+","altim":1014,"clouds":[{"cover":"SCT","base":2000}],"obsTime":1777536000},"SBFI":{"icaoId":"SBFI","flightCategory":"IFR","rawOb":"METAR SBFI 300800Z 12004KT 5000 2000SE BR BCFG OVC005 18/18 Q1014","temp":18,"dewp":18,"wdir":120,"wspd":4,"visib":3.11,"altim":1014,"clouds":[{"cover":"OVC","base":500}],"obsTime":1777536000},"SBBU":{"icaoId":"SBBU","flightCategory":"VFR","rawOb":"METAR SBBU 300900Z 06006KT 9999 FEW005 19/18 Q1016","temp":19,"dewp":18,"wdir":60,"wspd":6,"visib":"6+","altim":1016,"clouds":[{"cover":"FEW","base":500}],"obsTime":1777539600},"SBPL":{"icaoId":"SBPL","flightCategory":"VFR","rawOb":"METAR SBPL 300800Z 15003KT CAVOK 21/19 Q1013","temp":21,"dewp":19,"wdir":150,"wspd":3,"visib":"6+","altim":1013,"clouds":[],"obsTime":1777536000},"SBDN":{"icaoId":"SBDN","flightCategory":"IFR","rawOb":"METAR SBDN 300800Z 05008KT 9999 BKN006 20/19 Q1015","temp":20,"dewp":19,"wdir":50,"wspd":8,"visib":"6+","altim":1015,"clouds":[{"cover":"BKN","base":600}],"obsTime":1777536000},"SBPS":{"icaoId":"SBPS","flightCategory":"MVFR","rawOb":"METAR SBPS 300800Z 25004KT 7000 SCT017 SCT060 22/22 Q1014","temp":22,"dewp":22,"wdir":250,"wspd":4,"visib":4.35,"altim":1014,"clouds":[{"cover":"SCT","base":1700},{"cover":"SCT","base":6000}],"obsTime":1777536000},"SBSC":{"icaoId":"SBSC","flightCategory":"MVFR","rawOb":"METAR SBSC 300800Z 26002KT 8000 SCT022 BKN046 23/21 Q1015","temp":23,"dewp":21,"wdir":260,"wspd":2,"visib":4.97,"altim":1015,"clouds":[{"cover":"SCT","base":2200},{"cover":"BKN","base":4600}],"obsTime":1777536000},"SBAX":{"icaoId":"SBAX","flightCategory":"VFR","rawOb":"METAR SBAX 300800Z AUTO 12003KT CAVOK 18/14 Q1019","temp":18,"dewp":14,"wdir":120,"wspd":3,"visib":"6+","altim":1019,"clouds":[],"obsTime":1777536000},"SBES":{"icaoId":"SBES","flightCategory":"VFR","rawOb":"METAR SBES 300900Z VRB02KT 9999 FEW010 22/// Q1015","temp":null,"dewp":null,"wdir":"VRB","wspd":2,"visib":"6+","altim":1015,"clouds":[{"cover":"FEW","base":1000}],"obsTime":1777539600},"SBSJ":{"icaoId":"SBSJ","flightCategory":"VFR","rawOb":"METAR SBSJ 300800Z 25008KT 9000 FEW008 BKN040 18/16 Q1020","temp":18,"dewp":16,"wdir":250,"wspd":8,"visib":5.59,"altim":1020,"clouds":[{"cover":"FEW","base":800},{"cover":"BKN","base":4000}],"obsTime":1777536000},"SBSM":{"icaoId":"SBSM","flightCategory":"VFR","rawOb":"METAR SBSM 300900Z 00000KT CAVOK 07/07 Q1016","temp":7,"dewp":7,"wdir":0,"wspd":0,"visib":"6+","altim":1016,"clouds":[],"obsTime":1777539600},"SBSR":{"icaoId":"SBSR","flightCategory":"VFR","rawOb":"METAR SBSR 300800Z 15012KT 9999 SCT035 BKN070 21/16 Q1016","temp":21,"dewp":16,"wdir":150,"wspd":12,"visib":"6+","altim":1016,"clouds":[{"cover":"SCT","base":3500},{"cover":"BKN","base":7000}],"obsTime":1777536000},"SBIP":{"icaoId":"SBIP","flightCategory":"VFR","rawOb":"METAR SBIP 300800Z AUTO 00000KT CAVOK 22/22 Q1016","temp":22,"dewp":22,"wdir":0,"wspd":0,"visib":"6+","altim":1016,"clouds":[],"obsTime":1777536000},"SBAR":{"icaoId":"SBAR","flightCategory":"VFR","rawOb":"METAR SBAR 300800Z 11010KT 9999 SCT023 SCT050 27/23 Q1011","temp":27,"dewp":23,"wdir":110,"wspd":10,"visib":"6+","altim":1011,"clouds":[{"cover":"SCT","base":2300},{"cover":"SCT","base":5000}],"obsTime":1777536000},"SBKG":{"icaoId":"SBKG","flightCategory":"VFR","rawOb":"METAR SBKG 300800Z 16003KT 9999 -RA SCT015 20/20 Q1012","temp":20,"dewp":20,"wdir":160,"wspd":3,"visib":"6+","altim":1012,"clouds":[{"cover":"SCT","base":1500}],"obsTime":1777536000},"SBBH":{"icaoId":"SBBH","flightCategory":"VFR","rawOb":"METAR SBBH 300900Z 10004KT CAVOK 17/15 Q1019","temp":17,"dewp":15,"wdir":100,"wspd":4,"visib":"6+","altim":1019,"clouds":[],"obsTime":1777539600},"SBCO":{"icaoId":"SBCO","flightCategory":"VFR","rawOb":"METAR SBCO 300900Z 30002KT 9000 NSC 09/08 Q1017","temp":9,"dewp":8,"wdir":300,"wspd":2,"visib":5.59,"altim":1017,"clouds":[],"obsTime":1777539600},"SBOI":{"icaoId":"SBOI","flightCategory":"IFR","rawOb":"METAR SBOI 300800Z AUTO 00000KT 2400 // VV003 24/24 Q1009","temp":24,"dewp":24,"wdir":0,"wspd":0,"visib":1.49,"altim":1009,"clouds":[{"cover":"OVX","base":300}],"obsTime":1777536000},"SBTA":{"icaoId":"SBTA","flightCategory":"MVFR","rawOb":"METAR SBTA 300900Z 26006KT 8000 FEW008 BKN040 OVC080 18/18 Q1019","temp":18,"dewp":18,"wdir":260,"wspd":6,"visib":4.97,"altim":1019,"clouds":[{"cover":"FEW","base":800},{"cover":"BKN","base":4000},{"cover":"OVC","base":8000}],"obsTime":1777539600},"SBJP":{"icaoId":"SBJP","flightCategory":"VFR","rawOb":"METAR SBJP 300800Z 18006KT 9999 FEW020 23/22 Q1010","temp":23,"dewp":22,"wdir":180,"wspd":6,"visib":"6+","altim":1010,"clouds":[{"cover":"FEW","base":2000}],"obsTime":1777536000},"SBJV":{"icaoId":"SBJV","flightCategory":"LIFR","rawOb":"METAR SBJV 300900Z 32003KT 0300 R33/0300 FG BKN001 17/17 Q1015","temp":17,"dewp":17,"wdir":320,"wspd":3,"visib":0.19,"altim":1015,"clouds":[{"cover":"BKN","base":100}],"obsTime":1777539600},"SBPF":{"icaoId":"SBPF","flightCategory":"VFR","rawOb":"METAR SBPF 300900Z 09007KT CAVOK 13/09 Q1017","temp":13,"dewp":9,"wdir":90,"wspd":7,"visib":"6+","altim":1017,"clouds":[],"obsTime":1777539600},"SBAN":{"icaoId":"SBAN","flightCategory":"VFR","rawOb":"METAR SBAN 300800Z 19006KT CAVOK 18/12 Q1019","temp":18,"dewp":12,"wdir":190,"wspd":6,"visib":"6+","altim":1019,"clouds":[],"obsTime":1777536000},"SBLE":{"icaoId":"SBLE","flightCategory":"VFR","rawOb":"METAR SBLE 300800Z AUTO 16002KT 9999 SCT025 BKN034 OVC043 ///// Q////","temp":null,"dewp":null,"wdir":160,"wspd":2,"visib":"6+","altim":null,"clouds":[{"cover":"SCT","base":2500},{"cover":"BKN","base":3400},{"cover":"OVC","base":4300}],"obsTime":1777536000},"SBGW":{"icaoId":"SBGW","flightCategory":"MVFR","rawOb":"METAR SBGW 300900Z 22005KT 190V250 6000 BKN025 OVC030 19/15 Q1019","temp":19,"dewp":15,"wdir":220,"wspd":5,"visib":3.73,"altim":1019,"clouds":[{"cover":"BKN","base":2500},{"cover":"OVC","base":3000}],"obsTime":1777539600},"SBLS":{"icaoId":"SBLS","flightCategory":"VFR","rawOb":"METAR SBLS 300900Z 17005KT CAVOK 18/16 Q1019","temp":18,"dewp":16,"wdir":170,"wspd":5,"visib":"6+","altim":1019,"clouds":[],"obsTime":1777539600},"SBMT":{"icaoId":"SBMT","flightCategory":"MVFR","rawOb":"METAR SBMT 300900Z 12004KT 9999 BKN030 18/16 Q1017","temp":18,"dewp":16,"wdir":120,"wspd":4,"visib":"6+","altim":1017,"clouds":[{"cover":"BKN","base":3000}],"obsTime":1777539600}}}