{"updated":1777461726,"count":83,"data":{"SBPA":{"icaoId":"SBPA","flightCategory":"MVFR","rawOb":"METAR SBPA 291000Z VRB01KT 8000 NSC 08/07 Q1015","temp":8,"dewp":7,"wdir":"VRB","wspd":1,"visib":4.97,"altim":1015,"clouds":[],"obsTime":1777456800},"SBRB":{"icaoId":"SBRB","flightCategory":"MVFR","rawOb":"METAR SBRB 291000Z 00000KT 8000 FEW003 BKN100 23/23 Q1011","temp":23,"dewp":23,"wdir":0,"wspd":0,"visib":4.97,"altim":1011,"clouds":[{"cover":"FEW","base":300},{"cover":"BKN","base":10000}],"obsTime":1777456800},"SBBE":{"icaoId":"SBBE","flightCategory":"VFR","rawOb":"METAR SBBE 291000Z 11002KT 9999 FEW003 25/24 Q1010","temp":25,"dewp":24,"wdir":110,"wspd":2,"visib":"6+","altim":1010,"clouds":[{"cover":"FEW","base":300}],"obsTime":1777456800},"SBUR":{"icaoId":"SBUR","flightCategory":"VFR","rawOb":"METAR SBUR 291000Z 02007KT CAVOK 22/16 Q1017","temp":22,"dewp":16,"wdir":20,"wspd":7,"visib":"6+","altim":1017,"clouds":[],"obsTime":1777456800},"SBBR":{"icaoId":"SBBR","flightCategory":"VFR","rawOb":"METAR SBBR 291000Z 29003KT CAVOK 16/14 Q1019","temp":16,"dewp":14,"wdir":290,"wspd":3,"visib":"6+","altim":1019,"clouds":[],"obsTime":1777456800},"SBUL":{"icaoId":"SBUL","flightCategory":"VFR","rawOb":"METAR SBUL 291000Z 11007KT CAVOK 21/16 Q1019","temp":21,"dewp":16,"wdir":110,"wspd":7,"visib":"6+","altim":1019,"clouds":[],"obsTime":1777456800},"SBBV":{"icaoId":"SBBV","flightCategory":"VFR","rawOb":"METAR SBBV 291000Z 09006KT CAVOK 25/23 Q1010","temp":25,"dewp":23,"wdir":90,"wspd":6,"visib":"6+","altim":1010,"clouds":[],"obsTime":1777456800},"SBTE":{"icaoId":"SBTE","flightCategory":"VFR","rawOb":"METAR SBTE 291000Z 00000KT 9999 SCT010 26/24 Q1011","temp":26,"dewp":24,"wdir":0,"wspd":0,"visib":"6+","altim":1011,"clouds":[{"cover":"SCT","base":1000}],"obsTime":1777456800},"SBCB":{"icaoId":"SBCB","flightCategory":"MVFR","rawOb":"METAR SBCB 291000Z 04006KT 9999 SCT010 BKN030 24/23 Q1014","temp":24,"dewp":23,"wdir":40,"wspd":6,"visib":"6+","altim":1014,"clouds":[{"cover":"SCT","base":1000},{"cover":"BKN","base":3000}],"obsTime":1777456800},"SBCF":{"icaoId":"SBCF","flightCategory":"VFR","rawOb":"METAR SBCF 291000Z 12005KT 9999 FEW020 20/16 Q1020","temp":20,"dewp":16,"wdir":120,"wspd":5,"visib":"6+","altim":1020,"clouds":[{"cover":"FEW","base":2000}],"obsTime":1777456800},"SBSV":{"icaoId":"SBSV","flightCategory":"VFR","rawOb":"METAR SBSV 291000Z 08010KT 9999 VCSH SCT021 FEW023TCU BKN060 27/23 Q1014","temp":27,"dewp":23,"wdir":80,"wspd":10,"visib":"6+","altim":1014,"clouds":[{"cover":"SCT","base":2100},{"cover":"FEW","base":2300},{"cover":"BKN","base":6000}],"obsTime":1777456800},"SBSP":{"icaoId":"SBSP","flightCategory":"IFR","rawOb":"METAR SBSP 291000Z VRB01KT 7000 OVC009 21/19 Q1019","temp":21,"dewp":19,"wdir":"VRB","wspd":1,"visib":4.35,"altim":1019,"clouds":[{"cover":"OVC","base":900}],"obsTime":1777456800},"SBCG":{"icaoId":"SBCG","flightCategory":"VFR","rawOb":"METAR SBCG 291000Z 05006KT CAVOK 21/19 Q1014","temp":21,"dewp":19,"wdir":50,"wspd":6,"visib":"6+","altim":1014,"clouds":[],"obsTime":1777456800},"SBSN":{"icaoId":"SBSN","flightCategory":"VFR","rawOb":"METAR SBSN 291000Z 18002KT 9999 SCT013 24/24 Q1010","temp":24,"dewp":24,"wdir":180,"wspd":2,"visib":"6+","altim":1010,"clouds":[{"cover":"SCT","base":1300}],"obsTime":1777456800},"SBCP":{"icaoId":"SBCP","flightCategory":"VFR","rawOb":"METAR SBCP 291000Z 03005KT CAVOK 22/22 Q1015","temp":22,"dewp":22,"wdir":30,"wspd":5,"visib":"6+","altim":1015,"clouds":[],"obsTime":1777456800},"SBCR":{"icaoId":"SBCR","flightCategory":"VFR","rawOb":"METAR SBCR 291100Z 19002KT CAVOK 23/21 Q1012","temp":23,"dewp":21,"wdir":190,"wspd":2,"visib":"6+","altim":1012,"clouds":[],"obsTime":1777460400},"SBSL":{"icaoId":"SBSL","flightCategory":"VFR","rawOb":"METAR SBSL 291000Z 14004KT 9999 FEW020 SCT100 25/24 Q1010","temp":25,"dewp":24,"wdir":140,"wspd":4,"visib":"6+","altim":1010,"clouds":[{"cover":"FEW","base":2000},{"cover":"SCT","base":10000}],"obsTime":1777456800},"SBCT":{"icaoId":"SBCT","flightCategory":"LIFR","rawOb":"METAR SBCT 291000Z 02004KT 330V060 7000 BKN003 OVC010 16/16 Q1018","temp":16,"dewp":16,"wdir":20,"wspd":4,"visib":4.35,"altim":1018,"clouds":[{"cover":"BKN","base":300},{"cover":"OVC","base":1000}],"obsTime":1777456800},"SBSG":{"icaoId":"SBSG","flightCategory":"IFR","rawOb":"METAR SBSG 291000Z 18005KT 150V240 9999 BKN005 SCT020 25/24 Q1011","temp":25,"dewp":24,"wdir":180,"wspd":5,"visib":"6+","altim":1011,"clouds":[{"cover":"BKN","base":500},{"cover":"SCT","base":2000}],"obsTime":1777456800},"SBEG":{"icaoId":"SBEG","flightCategory":"VFR","rawOb":"METAR SBEG 291000Z 09003KT 9999 FEW010 SCT100 26/25 Q1010","temp":26,"dewp":25,"wdir":90,"wspd":3,"visib":"6+","altim":1010,"clouds":[{"cover":"FEW","base":1000},{"cover":"SCT","base":10000}],"obsTime":1777456800},"SBAT":{"icaoId":"SBAT","flightCategory":"VFR","rawOb":"METAR SBAT 291100Z 11001KT CAVOK 25/24 Q1013","temp":25,"dewp":24,"wdir":110,"wspd":1,"visib":"6+","altim":1013,"clouds":[],"obsTime":1777460400},"SBFI":{"icaoId":"SBFI","flightCategory":"IFR","rawOb":"METAR SBFI 291000Z 13004KT 9999 BKN005 BKN012 BKN070 16/16 Q1012","temp":16,"dewp":16,"wdir":130,"wspd":4,"visib":"6+","altim":1012,"clouds":[{"cover":"BKN","base":500},{"cover":"BKN","base":1200},{"cover":"BKN","base":7000}],"obsTime":1777456800},"SBRF":{"icaoId":"SBRF","flightCategory":"IFR","rawOb":"SPECI SBRF 290935Z 14009KT 4000 RA BR BKN010 BKN020 OVC060 24/23 Q1012","temp":24,"dewp":23,"wdir":140,"wspd":9,"visib":2.49,"altim":1012,"clouds":[{"cover":"BKN","base":1000},{"cover":"BKN","base":2000},{"cover":"OVC","base":6000}],"obsTime":1777455300},"SBVT":{"icaoId":"SBVT","flightCategory":"VFR","rawOb":"METAR SBVT 291000Z 00000KT 9999 FEW030 21/19 Q1016","temp":21,"dewp":19,"wdir":0,"wspd":0,"visib":"6+","altim":1016,"clouds":[{"cover":"FEW","base":3000}],"obsTime":1777456800},"SBFL":{"icaoId":"SBFL","flightCategory":"MVFR","rawOb":"METAR SBFL 291000Z 36004KT 330V030 9999 -RA FEW007 BKN025 OVC080 19/18 Q1013 RERA","temp":19,"dewp":18,"wdir":360,"wspd":4,"visib":"6+","altim":1013,"clouds":[{"cover":"FEW","base":700},{"cover":"BKN","base":2500},{"cover":"OVC","base":8000}],"obsTime":1777456800},"SBMK":{"icaoId":"SBMK","flightCategory":"VFR","rawOb":"METAR SBMK 291000Z 26002KT CAVOK 18/16 Q1018","temp":18,"dewp":16,"wdir":260,"wspd":2,"visib":"6+","altim":1018,"clouds":[],"obsTime":1777456800},"SBMG":{"icaoId":"SBMG","flightCategory":"LIFR","rawOb":"METAR SBMG 291000Z 13004KT 0500 R10/0800U FG SCT002 BKN030 18/18 Q1014","temp":18,"dewp":18,"wdir":130,"wspd":4,"visib":0.31,"altim":1014,"clouds":[{"cover":"SCT","base":200},{"cover":"BKN","base":3000}],"obsTime":1777456800},"SBLO":{"icaoId":"SBLO","flightCategory":"LIFR","rawOb":"METAR SBLO 291000Z 19002KT 0350 FG BKN002 SCT080 20/20 Q1015","temp":20,"dewp":20,"wdir":190,"wspd":2,"visib":0.22,"altim":1015,"clouds":[{"cover":"BKN","base":200},{"cover":"SCT","base":8000}],"obsTime":1777456800},"SBMO":{"icaoId":"SBMO","flightCategory":"VFR","rawOb":"METAR SBMO 291000Z VRB01KT 9999 FEW022 26/23 Q1013","temp":26,"dewp":23,"wdir":"VRB","wspd":1,"visib":"6+","altim":1013,"clouds":[{"cover":"FEW","base":2200}],"obsTime":1777456800},"SBMA":{"icaoId":"SBMA","flightCategory":"VFR","rawOb":"METAR SBMA 291000Z 00000KT 9999 FEW018 24/23 Q1011","temp":24,"dewp":23,"wdir":0,"wspd":0,"visib":"6+","altim":1011,"clouds":[{"cover":"FEW","base":1800}],"obsTime":1777456800},"SBME":{"icaoId":"SBME","flightCategory":"LIFR","rawOb":"METAR SBME 291000Z 03008KT 6000 BKN003 24/22 Q1014","temp":24,"dewp":22,"wdir":30,"wspd":8,"visib":3.73,"altim":1014,"clouds":[{"cover":"BKN","base":300}],"obsTime":1777456800},"SBFZ":{"icaoId":"SBFZ","flightCategory":"MVFR","rawOb":"METAR SBFZ 291000Z 16007KT 9999 SCT015 BKN030 26/24 Q1011","temp":26,"dewp":24,"wdir":160,"wspd":7,"visib":"6+","altim":1011,"clouds":[{"cover":"SCT","base":1500},{"cover":"BKN","base":3000}],"obsTime":1777456800},"SBGL":{"icaoId":"SBGL","flightCategory":"IFR","rawOb":"METAR SBGL 291000Z 06003KT 4000 BR FEW004 24/23 Q1014","temp":24,"dewp":23,"wdir":60,"wspd":3,"visib":2.49,"altim":1014,"clouds":[{"cover":"FEW","base":400}],"obsTime":1777456800},"SBGO":{"icaoId":"SBGO","flightCategory":"VFR","rawOb":"METAR SBGO 291000Z 34002KT CAVOK 19/18 Q1017","temp":19,"dewp":18,"wdir":340,"wspd":2,"visib":"6+","altim":1017,"clouds":[],"obsTime":1777456800},"SBPV":{"icaoId":"SBPV","flightCategory":"IFR","rawOb":"METAR SBPV 291000Z 32001KT 9999 BKN006 25/22 Q1011","temp":25,"dewp":22,"wdir":320,"wspd":1,"visib":"6+","altim":1011,"clouds":[{"cover":"BKN","base":600}],"obsTime":1777456800},"SBGR":{"icaoId":"SBGR","flightCategory":"IFR","rawOb":"METAR SBGR 291000Z 06004KT 4000 BR SCT002 OVC006 20/20 Q1018","temp":20,"dewp":20,"wdir":60,"wspd":4,"visib":2.49,"altim":1018,"clouds":[{"cover":"SCT","base":200},{"cover":"OVC","base":600}],"obsTime":1777456800},"SBPJ":{"icaoId":"SBPJ","flightCategory":"VFR","rawOb":"METAR SBPJ 291000Z 22002KT 9999 FEW025 FEW035TCU 25/23 Q1012","temp":25,"dewp":23,"wdir":220,"wspd":2,"visib":"6+","altim":1012,"clouds":[{"cover":"FEW","base":2500},{"cover":"FEW","base":3500}],"obsTime":1777456800},"SBHT":{"icaoId":"SBHT","flightCategory":"VFR","rawOb":"METAR SBHT 291000Z 00000KT 9999 SCT010 SCT080 25/24 Q1011","temp":25,"dewp":24,"wdir":0,"wspd":0,"visib":"6+","altim":1011,"clouds":[{"cover":"SCT","base":1000},{"cover":"SCT","base":8000}],"obsTime":1777456800},"SBIL":{"icaoId":"SBIL","flightCategory":"VFR","rawOb":"METAR SBIL 291000Z 30005KT 9999 SCT020 24/23 Q1015","temp":24,"dewp":23,"wdir":300,"wspd":5,"visib":"6+","altim":1015,"clouds":[{"cover":"SCT","base":2000}],"obsTime":1777456800},"SBJU":{"icaoId":"SBJU","flightCategory":"MVFR","rawOb":"METAR SBJU 291000Z 00000KT 9000 SCT007 BKN018 FEW020TCU 23/23 Q1014","temp":23,"dewp":23,"wdir":0,"wspd":0,"visib":5.59,"altim":1014,"clouds":[{"cover":"SCT","base":700},{"cover":"BKN","base":1800},{"cover":"FEW","base":2000}],"obsTime":1777456800},"SBNT":{"icaoId":"SBNT","flightCategory":"VFR","rawOb":"METAR SBNT 291000Z 18006KT 150V210 9999 VCSH FEW016 FEW030TCU 25/24 Q1011","temp":25,"dewp":24,"wdir":180,"wspd":6,"visib":"6+","altim":1011,"clouds":[{"cover":"FEW","base":1600},{"cover":"FEW","base":3000}],"obsTime":1777456800},"SBKP":{"icaoId":"SBKP","flightCategory":"IFR","rawOb":"METAR SBKP 291000Z 11005KT 4000 BR NSC 20/20 Q1017","temp":20,"dewp":20,"wdir":110,"wspd":5,"visib":2.49,"altim":1017,"clouds":[],"obsTime":1777456800},"SBMQ":{"icaoId":"SBMQ","flightCategory":"IFR","rawOb":"METAR SBMQ 291000Z 36004KT 9999 BKN005 26/25 Q1010","temp":26,"dewp":25,"wdir":360,"wspd":4,"visib":"6+","altim":1010,"clouds":[{"cover":"BKN","base":500}],"obsTime":1777456800},"SBPP":{"icaoId":"SBPP","flightCategory":"LIFR","rawOb":"SPECI SBPP 291115Z 01009KT 0000 FG VV000 20/20 Q1014","temp":20,"dewp":20,"wdir":10,"wspd":9,"visib":0,"altim":1014,"clouds":[{"cover":"OVX","base":0}],"obsTime":1777461300},"SBTF":{"icaoId":"SBTF","flightCategory":"VFR","rawOb":"SPECI SBTF 291115Z 21003KT 9999 FEW006 SCT040 25/25 Q1011","temp":25,"dewp":25,"wdir":210,"wspd":3,"visib":"6+","altim":1011,"clouds":[{"cover":"FEW","base":600},{"cover":"SCT","base":4000}],"obsTime":1777461300},"SBSC":{"icaoId":"SBSC","flightCategory":"IFR","rawOb":"METAR SBSC 291000Z 00000KT 4000 BR FEW006 SCT050 23/23 Q1014","temp":23,"dewp":23,"wdir":0,"wspd":0,"visib":2.49,"altim":1014,"clouds":[{"cover":"FEW","base":600},{"cover":"SCT","base":5000}],"obsTime":1777456800},"SBAX":{"icaoId":"SBAX","flightCategory":"VFR","rawOb":"METAR SBAX 291000Z AUTO 12008KT CAVOK 19/16 Q1020","temp":19,"dewp":16,"wdir":120,"wspd":8,"visib":"6+","altim":1020,"clouds":[],"obsTime":1777456800},"SBBH":{"icaoId":"SBBH","flightCategory":"VFR","rawOb":"METAR SBBH 291000Z 10003KT CAVOK 19/16 Q1020","temp":19,"dewp":16,"wdir":100,"wspd":3,"visib":"6+","altim":1020,"clouds":[],"obsTime":1777456800},"SBBU":{"icaoId":"SBBU","flightCategory":"IFR","rawOb":"METAR SBBU 291000Z 14007KT 4000 BR FEW007 SCT090 20/20 Q1016","temp":20,"dewp":20,"wdir":140,"wspd":7,"visib":2.49,"altim":1016,"clouds":[{"cover":"FEW","base":700},{"cover":"SCT","base":9000}],"obsTime":1777456800},"SBCA":{"icaoId":"SBCA","flightCategory":"LIFR","rawOb":"METAR SBCA 291000Z 05016KT 1100 +TSRA BR BKN002 BKN020 FEW030CB OVC070 18/18 Q1014 RERA","temp":18,"dewp":18,"wdir":50,"wspd":16,"visib":0.68,"altim":1014,"clouds":[{"cover":"BKN","base":200},{"cover":"BKN","base":2000},{"cover":"FEW","base":3000},{"cover":"OVC","base":7000}],"obsTime":1777456800},"SBCC":{"icaoId":"SBCC","flightCategory":"VFR","rawOb":"METAR SBCC 291100Z 07005KT 9999 FEW030 SCT100 23/22 Q1014","temp":23,"dewp":22,"wdir":70,"wspd":5,"visib":"6+","altim":1014,"clouds":[{"cover":"FEW","base":3000},{"cover":"SCT","base":10000}],"obsTime":1777460400},"SBCJ":{"icaoId":"SBCJ","flightCategory":"VFR","rawOb":"SPECI SBCJ 291015Z 00000KT CAVOK 23/22 Q1016","temp":23,"dewp":22,"wdir":0,"wspd":0,"visib":"6+","altim":1016,"clouds":[],"obsTime":1777457700},"SBCO":{"icaoId":"SBCO","flightCategory":"MVFR","rawOb":"METAR SBCO 291000Z 00000KT 6000 NSC 06/06 Q1015","temp":6,"dewp":6,"wdir":0,"wspd":0,"visib":3.73,"altim":1015,"clouds":[],"obsTime":1777456800},"SBDN":{"icaoId":"SBDN","flightCategory":"VFR","rawOb":"METAR SBDN 291000Z 08003KT 9000 NSC 21/20 Q1014","temp":21,"dewp":20,"wdir":80,"wspd":3,"visib":5.59,"altim":1014,"clouds":[],"obsTime":1777456800},"SBES":{"icaoId":"SBES","flightCategory":"IFR","rawOb":"METAR SBES 291000Z VRB02KT 5000 BR BKN005 22/// Q1014","temp":null,"dewp":null,"wdir":"VRB","wspd":2,"visib":3.11,"altim":1014,"clouds":[{"cover":"BKN","base":500}],"obsTime":1777456800},"SBIP":{"icaoId":"SBIP","flightCategory":"VFR","rawOb":"METAR SBIP 291000Z AUTO VRB01KT CAVOK 21/20 Q1018","temp":21,"dewp":20,"wdir":"VRB","wspd":1,"visib":"6+","altim":1018,"clouds":[],"obsTime":1777456800},"SBKG":{"icaoId":"SBKG","flightCategory":"MVFR","rawOb":"METAR SBKG 291000Z 15004KT 9999 -RA SCT005 BKN010 23/22 Q1015","temp":23,"dewp":22,"wdir":150,"wspd":4,"visib":"6+","altim":1015,"clouds":[{"cover":"SCT","base":500},{"cover":"BKN","base":1000}],"obsTime":1777456800},"SBOI":{"icaoId":"SBOI","flightCategory":"LIFR","rawOb":"METAR SBOI 291000Z AUTO VRB01KT 0750 // VV001 24/24 Q1011","temp":24,"dewp":24,"wdir":"VRB","wspd":1,"visib":0.47,"altim":1011,"clouds":[{"cover":"OVX","base":100}],"obsTime":1777456800},"SBPB":{"icaoId":"SBPB","flightCategory":"VFR","rawOb":"SPECI SBPB 291015Z 13004KT 9999 SCT020 26/24 Q1011","temp":26,"dewp":24,"wdir":130,"wspd":4,"visib":"6+","altim":1011,"clouds":[{"cover":"SCT","base":2000}],"obsTime":1777457700},"SBPL":{"icaoId":"SBPL","flightCategory":"VFR","rawOb":"METAR SBPL 291000Z 14010KT 9999 SCT020 25/21 Q1015","temp":25,"dewp":21,"wdir":140,"wspd":10,"visib":"6+","altim":1015,"clouds":[{"cover":"SCT","base":2000}],"obsTime":1777456800},"SBPS":{"icaoId":"SBPS","flightCategory":"VFR","rawOb":"METAR SBPS 291000Z VRB02KT 9999 SCT020 OVC070 23/23 Q1016","temp":23,"dewp":23,"wdir":"VRB","wspd":2,"visib":"6+","altim":1016,"clouds":[{"cover":"SCT","base":2000},{"cover":"OVC","base":7000}],"obsTime":1777456800},"SBAR":{"icaoId":"SBAR","flightCategory":"VFR","rawOb":"METAR SBAR 291000Z 09010KT 9999 FEW025 28/23 Q1013","temp":28,"dewp":23,"wdir":90,"wspd":10,"visib":"6+","altim":1013,"clouds":[{"cover":"FEW","base":2500}],"obsTime":1777456800},"SBSJ":{"icaoId":"SBSJ","flightCategory":"IFR","rawOb":"SPECI SBSJ 290935Z 05001KT 3000 BR OVC006 21/20 Q1017","temp":21,"dewp":20,"wdir":50,"wspd":1,"visib":1.86,"altim":1017,"clouds":[{"cover":"OVC","base":600}],"obsTime":1777455300},"SBSM":{"icaoId":"SBSM","flightCategory":"VFR","rawOb":"METAR SBSM 291000Z 28001KT CAVOK 06/06 Q1016","temp":6,"dewp":6,"wdir":280,"wspd":1,"visib":"6+","altim":1016,"clouds":[],"obsTime":1777456800},"SBSR":{"icaoId":"SBSR","flightCategory":"VFR","rawOb":"METAR SBSR 291000Z 00000KT CAVOK 23/19 Q1015","temp":23,"dewp":19,"wdir":0,"wspd":0,"visib":"6+","altim":1015,"clouds":[],"obsTime":1777456800},"SBTD":{"icaoId":"SBTD","flightCategory":"LIFR","rawOb":"METAR SBTD 291100Z /////KT 2000 BR BCFG OVC001 18/18 Q1014","temp":18,"dewp":18,"wdir":null,"wspd":null,"visib":1.24,"altim":1014,"clouds":[{"cover":"OVC","base":100}],"obsTime":1777460400},"SBTT":{"icaoId":"SBTT","flightCategory":"VFR","rawOb":"METAR SBTT 291100Z 14002KT 9999 FEW007 24/22 Q1011","temp":24,"dewp":22,"wdir":140,"wspd":2,"visib":"6+","altim":1011,"clouds":[{"cover":"FEW","base":700}],"obsTime":1777460400},"SBUY":{"icaoId":"SBUY","flightCategory":"IFR","rawOb":"METAR SBUY 291100Z 20002KT 9999 BKN006 OVC090 24/23 Q1010","temp":24,"dewp":23,"wdir":200,"wspd":2,"visib":"6+","altim":1010,"clouds":[{"cover":"BKN","base":600},{"cover":"OVC","base":9000}],"obsTime":1777460400},"SBVH":{"icaoId":"SBVH","flightCategory":"VFR","rawOb":"METAR SBVH 291100Z 09006KT 9999 FEW030 23/22 Q1015","temp":23,"dewp":22,"wdir":90,"wspd":6,"visib":"6+","altim":1015,"clouds":[{"cover":"FEW","base":3000}],"obsTime":1777460400},"SBJP":{"icaoId":"SBJP","flightCategory":"VFR","rawOb":"METAR SBJP 291000Z 19006KT CAVOK 25/24 Q1012","temp":25,"dewp":24,"wdir":190,"wspd":6,"visib":"6+","altim":1012,"clouds":[],"obsTime":1777456800},"SBTC":{"icaoId":"SBTC","flightCategory":"VFR","rawOb":"METAR SBTC 291000Z 28005KT 9999 SCT015 SCT050 23/22 Q1015","temp":23,"dewp":22,"wdir":280,"wspd":5,"visib":"6+","altim":1015,"clouds":[{"cover":"SCT","base":1500},{"cover":"SCT","base":5000}],"obsTime":1777456800},"SBAN":{"icaoId":"SBAN","flightCategory":"VFR","rawOb":"METAR SBAN 291000Z 13006KT CAVOK 19/14 Q1020","temp":19,"dewp":14,"wdir":130,"wspd":6,"visib":"6+","altim":1020,"clouds":[],"obsTime":1777456800},"SBIH":{"icaoId":"SBIH","flightCategory":"VFR","rawOb":"METAR SBIH 291100Z 23004KT 9999 FEW015 SCT080 26/25 Q1011","temp":26,"dewp":25,"wdir":230,"wspd":4,"visib":"6+","altim":1011,"clouds":[{"cover":"FEW","base":1500},{"cover":"SCT","base":8000}],"obsTime":1777460400},"SBAF":{"icaoId":"SBAF","flightCategory":"MVFR","rawOb":"METAR SBAF 291000Z 30001KT 5000 BR FEW005 22/22 Q1014","temp":22,"dewp":22,"wdir":300,"wspd":1,"visib":3.11,"altim":1014,"clouds":[{"cover":"FEW","base":500}],"obsTime":1777456800},"SBGW":{"icaoId":"SBGW","flightCategory":"MVFR","rawOb":"METAR SBGW 291000Z VRB02KT 5000 2000N BR FEW005 SCT100 21/17 Q1017","temp":21,"dewp":17,"wdir":"VRB","wspd":2,"visib":3.11,"altim":1017,"clouds":[{"cover":"FEW","base":500},{"cover":"SCT","base":10000}],"obsTime":1777456800},"SBJR":{"icaoId":"SBJR","flightCategory":"VFR","rawOb":"METAR SBJR 291000Z 02001KT CAVOK 24/24 Q1014","temp":24,"dewp":24,"wdir":20,"wspd":1,"visib":"6+","altim":1014,"clouds":[],"obsTime":1777456800},"SBLS":{"icaoId":"SBLS","flightCategory":"VFR","rawOb":"METAR SBLS 291000Z 15006KT 9999 FEW025 19/16 Q1020","temp":19,"dewp":16,"wdir":150,"wspd":6,"visib":"6+","altim":1020,"clouds":[{"cover":"FEW","base":2500}],"obsTime":1777456800},"SBMT":{"icaoId":"SBMT","flightCategory":"MVFR","rawOb":"METAR SBMT 291000Z 10004KT 6000 BKN011 21/19 Q1018","temp":21,"dewp":19,"wdir":100,"wspd":4,"visib":3.73,"altim":1018,"clouds":[{"cover":"BKN","base":1100}],"obsTime":1777456800},"SBTA":{"icaoId":"SBTA","flightCategory":"VFR","rawOb":"METAR SBTA 291000Z VRB02KT 9999 FEW008 SCT060 BKN080 21/20 Q1016","temp":21,"dewp":20,"wdir":"VRB","wspd":2,"visib":"6+","altim":1016,"clouds":[{"cover":"FEW","base":800},{"cover":"SCT","base":6000},{"cover":"BKN","base":8000}],"obsTime":1777456800},"SBJV":{"icaoId":"SBJV","flightCategory":"LIFR","rawOb":"METAR SBJV 291000Z 19002KT 2000 +RA BKN003 OVC008 17/17 Q1016 RERA","temp":17,"dewp":17,"wdir":190,"wspd":2,"visib":1.24,"altim":1016,"clouds":[{"cover":"BKN","base":300},{"cover":"OVC","base":800}],"obsTime":1777456800},"SBPF":{"icaoId":"SBPF","flightCategory":"VFR","rawOb":"METAR SBPF 291000Z 04008KT CAVOK 13/09 Q1015","temp":13,"dewp":9,"wdir":40,"wspd":8,"visib":"6+","altim":1015,"clouds":[],"obsTime":1777456800},"SBST":{"icaoId":"SBST","flightCategory":"MVFR","rawOb":"METAR SBST 291100Z /////KT 7000 SCT017 OVC032 ///// Q1014","temp":null,"dewp":null,"wdir":null,"wspd":null,"visib":4.35,"altim":1014,"clouds":[{"cover":"SCT","base":1700},{"cover":"OVC","base":3200}],"obsTime":1777460400},"SBLE":{"icaoId":"SBLE","flightCategory":"MVFR","rawOb":"METAR SBLE 291000Z AUTO VRB01KT 9999 BKN030 ///// Q////","temp":null,"dewp":null,"wdir":"VRB","wspd":1,"visib":"6+","altim":null,"clouds":[{"cover":"BKN","base":3000}],"obsTime":1777456800}}}