{"updated":1775241298,"count":84,"data":{"SBRB":{"icaoId":"SBRB","flightCategory":"MVFR","rawOb":"METAR SBRB 031700Z 01005KT 340V070 9999 VCSH FEW009 BKN020 FEW036TCU BKN100 28/24 Q1012","temp":28,"dewp":24,"wdir":10,"wspd":5,"visib":"6+","altim":1012,"clouds":[{"cover":"FEW","base":900},{"cover":"BKN","base":2000},{"cover":"FEW","base":3600},{"cover":"BKN","base":10000}],"obsTime":1775235600},"SBGO":{"icaoId":"SBGO","flightCategory":"VFR","rawOb":"METAR SBGO 031700Z 01005KT 290V080 9999 SCT043 FEW045TCU 30/20 Q1017","temp":30,"dewp":20,"wdir":10,"wspd":5,"visib":"6+","altim":1017,"clouds":[{"cover":"SCT","base":4300},{"cover":"FEW","base":4500}],"obsTime":1775235600},"SBCG":{"icaoId":"SBCG","flightCategory":"VFR","rawOb":"METAR SBCG 031700Z 30006KT 190V350 9999 SCT045 32/20 Q1015","temp":32,"dewp":20,"wdir":300,"wspd":6,"visib":"6+","altim":1015,"clouds":[{"cover":"SCT","base":4500}],"obsTime":1775235600},"SBME":{"icaoId":"SBME","flightCategory":"VFR","rawOb":"METAR SBME 031700Z 02011KT CAVOK 34/20 Q1013","temp":34,"dewp":20,"wdir":20,"wspd":11,"visib":"6+","altim":1013,"clouds":[],"obsTime":1775235600},"SBFI":{"icaoId":"SBFI","flightCategory":"VFR","rawOb":"METAR SBFI 031700Z 33006KT 9999 SCT040 FEW040TCU 32/23 Q1013","temp":32,"dewp":23,"wdir":330,"wspd":6,"visib":"6+","altim":1013,"clouds":[{"cover":"SCT","base":4000},{"cover":"FEW","base":4000}],"obsTime":1775235600},"SBMG":{"icaoId":"SBMG","flightCategory":"VFR","rawOb":"METAR SBMG 031700Z 33007KT 280V020 9999 BKN045 FEW045TCU 31/19 Q1014","temp":31,"dewp":19,"wdir":330,"wspd":7,"visib":"6+","altim":1014,"clouds":[{"cover":"BKN","base":4500},{"cover":"FEW","base":4500}],"obsTime":1775235600},"SBBE":{"icaoId":"SBBE","flightCategory":"VFR","rawOb":"METAR SBBE 031700Z 13007KT 9999 SCT040 32/23 Q1010","temp":32,"dewp":23,"wdir":130,"wspd":7,"visib":"6+","altim":1010,"clouds":[{"cover":"SCT","base":4000}],"obsTime":1775235600},"SBMK":{"icaoId":"SBMK","flightCategory":"VFR","rawOb":"METAR SBMK 031700Z 01006KT 9999 FEW030 27/19 Q1018","temp":27,"dewp":19,"wdir":10,"wspd":6,"visib":"6+","altim":1018,"clouds":[{"cover":"FEW","base":3000}],"obsTime":1775235600},"SBFL":{"icaoId":"SBFL","flightCategory":"VFR","rawOb":"METAR SBFL 031700Z 12011KT 090V150 9999 FEW025 29/20 Q1012","temp":29,"dewp":20,"wdir":120,"wspd":11,"visib":"6+","altim":1012,"clouds":[{"cover":"FEW","base":2500}],"obsTime":1775235600},"SBMO":{"icaoId":"SBMO","flightCategory":"MVFR","rawOb":"METAR SBMO 031700Z 10011KT 9999 BKN023 30/23 Q1012","temp":30,"dewp":23,"wdir":100,"wspd":11,"visib":"6+","altim":1012,"clouds":[{"cover":"BKN","base":2300}],"obsTime":1775235600},"SBBV":{"icaoId":"SBBV","flightCategory":"MVFR","rawOb":"METAR SBBV 031700Z 12006KT 9999 BKN030 FEW035TCU SCT090 31/22 Q1011","temp":31,"dewp":22,"wdir":120,"wspd":6,"visib":"6+","altim":1011,"clouds":[{"cover":"BKN","base":3000},{"cover":"FEW","base":3500},{"cover":"SCT","base":9000}],"obsTime":1775235600},"SBMQ":{"icaoId":"SBMQ","flightCategory":"VFR","rawOb":"METAR SBMQ 031700Z 06007KT 9999 SCT030 FEW035TCU 31/23 Q1011","temp":31,"dewp":23,"wdir":60,"wspd":7,"visib":"6+","altim":1011,"clouds":[{"cover":"SCT","base":3000},{"cover":"FEW","base":3500}],"obsTime":1775235600},"SBNT":{"icaoId":"SBNT","flightCategory":"VFR","rawOb":"METAR SBNT 031700Z 10015KT 070V130 9999 SCT030 SCT090 31/24 Q1011","temp":31,"dewp":24,"wdir":100,"wspd":15,"visib":"6+","altim":1011,"clouds":[{"cover":"SCT","base":3000},{"cover":"SCT","base":9000}],"obsTime":1775235600},"SBFZ":{"icaoId":"SBFZ","flightCategory":"VFR","rawOb":"METAR SBFZ 031700Z 10014KT 9999 VCSH SCT025 FEW030TCU 30/25 Q1010","temp":30,"dewp":25,"wdir":100,"wspd":14,"visib":"6+","altim":1010,"clouds":[{"cover":"SCT","base":2500},{"cover":"FEW","base":3000}],"obsTime":1775235600},"SBCP":{"icaoId":"SBCP","flightCategory":"MVFR","rawOb":"METAR SBCP 031700Z 09010KT 9999 BKN020 BKN100 30/23 Q1014","temp":30,"dewp":23,"wdir":90,"wspd":10,"visib":"6+","altim":1014,"clouds":[{"cover":"BKN","base":2000},{"cover":"BKN","base":10000}],"obsTime":1775235600},"SBPA":{"icaoId":"SBPA","flightCategory":"VFR","rawOb":"METAR SBPA 031700Z 24005KT 200V310 9999 SCT025 29/22 Q1012","temp":29,"dewp":22,"wdir":240,"wspd":5,"visib":"6+","altim":1012,"clouds":[{"cover":"SCT","base":2500}],"obsTime":1775235600},"SBPJ":{"icaoId":"SBPJ","flightCategory":"VFR","rawOb":"METAR SBPJ 031700Z 10007KT 9999 SCT030 32/23 Q1012","temp":32,"dewp":23,"wdir":100,"wspd":7,"visib":"6+","altim":1012,"clouds":[{"cover":"SCT","base":3000}],"obsTime":1775235600},"SBGL":{"icaoId":"SBGL","flightCategory":"VFR","rawOb":"METAR SBGL 031700Z 05005KT CAVOK 34/22 Q1012","temp":34,"dewp":22,"wdir":50,"wspd":5,"visib":"6+","altim":1012,"clouds":[],"obsTime":1775235600},"SBPV":{"icaoId":"SBPV","flightCategory":"MVFR","rawOb":"METAR SBPV 031700Z 01004KT 9999 BKN030 31/23 Q1011","temp":31,"dewp":23,"wdir":10,"wspd":4,"visib":"6+","altim":1011,"clouds":[{"cover":"BKN","base":3000}],"obsTime":1775235600},"SBCB":{"icaoId":"SBCB","flightCategory":"VFR","rawOb":"METAR SBCB 031700Z 08007KT 9999 SCT020 BKN060 31/24 Q1013","temp":31,"dewp":24,"wdir":80,"wspd":7,"visib":"6+","altim":1013,"clouds":[{"cover":"SCT","base":2000},{"cover":"BKN","base":6000}],"obsTime":1775235600},"SBRF":{"icaoId":"SBRF","flightCategory":"VFR","rawOb":"METAR SBRF 031700Z 14010KT 090V170 9999 SCT025 SCT080 30/24 Q1012","temp":30,"dewp":24,"wdir":140,"wspd":10,"visib":"6+","altim":1012,"clouds":[{"cover":"SCT","base":2500},{"cover":"SCT","base":8000}],"obsTime":1775235600},"SBCR":{"icaoId":"SBCR","flightCategory":"VFR","rawOb":"METAR SBCR 031700Z 01007KT 310V040 9999 FEW045 34/23 Q1012","temp":34,"dewp":23,"wdir":10,"wspd":7,"visib":"6+","altim":1012,"clouds":[{"cover":"FEW","base":4500}],"obsTime":1775235600},"SBSG":{"icaoId":"SBSG","flightCategory":"VFR","rawOb":"METAR SBSG 031700Z 11014KT 9999 VCSH SCT030 FEW035TCU 30/24 Q1011","temp":30,"dewp":24,"wdir":110,"wspd":14,"visib":"6+","altim":1011,"clouds":[{"cover":"SCT","base":3000},{"cover":"FEW","base":3500}],"obsTime":1775235600},"SBEG":{"icaoId":"SBEG","flightCategory":"VFR","rawOb":"METAR SBEG 031700Z 12008KT 9999 SCT030 32/23 Q1010","temp":32,"dewp":23,"wdir":120,"wspd":8,"visib":"6+","altim":1010,"clouds":[{"cover":"SCT","base":3000}],"obsTime":1775235600},"SBMA":{"icaoId":"SBMA","flightCategory":"VFR","rawOb":"METAR SBMA 031700Z 15001KT 9999 SCT023 SCT100 31/23 Q1011","temp":31,"dewp":23,"wdir":150,"wspd":1,"visib":"6+","altim":1011,"clouds":[{"cover":"SCT","base":2300},{"cover":"SCT","base":10000}],"obsTime":1775235600},"SBVT":{"icaoId":"SBVT","flightCategory":"VFR","rawOb":"METAR SBVT 031700Z 07013KT 9999 FEW040 30/24 Q1015","temp":30,"dewp":24,"wdir":70,"wspd":13,"visib":"6+","altim":1015,"clouds":[{"cover":"FEW","base":4000}],"obsTime":1775235600},"SBLO":{"icaoId":"SBLO","flightCategory":"MVFR","rawOb":"SPECI SBLO 031649Z 20008KT 6000 2000S RA BKN040 FEW050TCU 23/21 Q1016","temp":23,"dewp":21,"wdir":200,"wspd":8,"visib":3.73,"altim":1016,"clouds":[{"cover":"BKN","base":4000},{"cover":"FEW","base":5000}],"obsTime":1775234940},"SBAT":{"icaoId":"SBAT","flightCategory":"MVFR","rawOb":"METAR SBAT 031700Z 10003KT 9999 BKN030 32/23 Q1013","temp":32,"dewp":23,"wdir":100,"wspd":3,"visib":"6+","altim":1013,"clouds":[{"cover":"BKN","base":3000}],"obsTime":1775235600},"SBSL":{"icaoId":"SBSL","flightCategory":"MVFR","rawOb":"METAR SBSL 031700Z 02013KT 9000 -RA SCT010 BKN017 FEW020TCU 28/25 Q1010","temp":28,"dewp":25,"wdir":20,"wspd":13,"visib":5.59,"altim":1010,"clouds":[{"cover":"SCT","base":1000},{"cover":"BKN","base":1700},{"cover":"FEW","base":2000}],"obsTime":1775235600},"SBGR":{"icaoId":"SBGR","flightCategory":"VFR","rawOb":"METAR SBGR 031700Z 30010KT 9999 SCT040 29/19 Q1017","temp":29,"dewp":19,"wdir":300,"wspd":10,"visib":"6+","altim":1017,"clouds":[{"cover":"SCT","base":4000}],"obsTime":1775235600},"SBBR":{"icaoId":"SBBR","flightCategory":"MVFR","rawOb":"METAR SBBR 031700Z 11006KT 070V140 9999 BKN020 FEW030TCU BKN100 24/18 Q1020","temp":24,"dewp":18,"wdir":110,"wspd":6,"visib":"6+","altim":1020,"clouds":[{"cover":"BKN","base":2000},{"cover":"FEW","base":3000},{"cover":"BKN","base":10000}],"obsTime":1775235600},"SBSN":{"icaoId":"SBSN","flightCategory":"VFR","rawOb":"METAR SBSN 031700Z 08010KT 9999 SCT020 30/25 Q1011","temp":30,"dewp":25,"wdir":80,"wspd":10,"visib":"6+","altim":1011,"clouds":[{"cover":"SCT","base":2000}],"obsTime":1775235600},"SBHT":{"icaoId":"SBHT","flightCategory":"VFR","rawOb":"METAR SBHT 031700Z 12006KT 9999 SCT030 31/23 Q1011","temp":31,"dewp":23,"wdir":120,"wspd":6,"visib":"6+","altim":1011,"clouds":[{"cover":"SCT","base":3000}],"obsTime":1775235600},"SBSP":{"icaoId":"SBSP","flightCategory":"VFR","rawOb":"METAR SBSP 031700Z 29009KT 250V340 9999 BKN045 28/17 Q1018","temp":28,"dewp":17,"wdir":290,"wspd":9,"visib":"6+","altim":1018,"clouds":[{"cover":"BKN","base":4500}],"obsTime":1775235600},"SBCT":{"icaoId":"SBCT","flightCategory":"VFR","rawOb":"METAR SBCT 031700Z 28011KT 250V320 9999 SCT035 FEW040TCU 29/17 Q1017","temp":29,"dewp":17,"wdir":280,"wspd":11,"visib":"6+","altim":1017,"clouds":[{"cover":"SCT","base":3500},{"cover":"FEW","base":4000}],"obsTime":1775235600},"SBSV":{"icaoId":"SBSV","flightCategory":"VFR","rawOb":"METAR SBSV 031700Z 12009KT 090V180 9999 VCSH FEW015 FEW025TCU BKN100 29/23 Q1014","temp":29,"dewp":23,"wdir":120,"wspd":9,"visib":"6+","altim":1014,"clouds":[{"cover":"FEW","base":1500},{"cover":"FEW","base":2500},{"cover":"BKN","base":10000}],"obsTime":1775235600},"SBTE":{"icaoId":"SBTE","flightCategory":"VFR","rawOb":"METAR SBTE 031700Z VRB03KT 9999 SCT020 31/23 Q1010","temp":31,"dewp":23,"wdir":"VRB","wspd":3,"visib":"6+","altim":1010,"clouds":[{"cover":"SCT","base":2000}],"obsTime":1775235600},"SBIL":{"icaoId":"SBIL","flightCategory":"VFR","rawOb":"METAR SBIL 031700Z 17004KT 130V210 9999 SCT020 SCT070 28/25 Q1014","temp":28,"dewp":25,"wdir":170,"wspd":4,"visib":"6+","altim":1014,"clouds":[{"cover":"SCT","base":2000},{"cover":"SCT","base":7000}],"obsTime":1775235600},"SBCF":{"icaoId":"SBCF","flightCategory":"VFR","rawOb":"METAR SBCF 031700Z 03004KT 9999 BKN040 28/18 Q1019","temp":28,"dewp":18,"wdir":30,"wspd":4,"visib":"6+","altim":1019,"clouds":[{"cover":"BKN","base":4000}],"obsTime":1775235600},"SBUL":{"icaoId":"SBUL","flightCategory":"VFR","rawOb":"METAR SBUL 031700Z 07007KT 360V120 9999 SCT030 BKN100 26/19 Q1020","temp":26,"dewp":19,"wdir":70,"wspd":7,"visib":"6+","altim":1020,"clouds":[{"cover":"SCT","base":3000},{"cover":"BKN","base":10000}],"obsTime":1775235600},"SBJU":{"icaoId":"SBJU","flightCategory":"MVFR","rawOb":"METAR SBJU 031700Z 09006KT 9999 BKN022 31/23 Q1013","temp":31,"dewp":23,"wdir":90,"wspd":6,"visib":"6+","altim":1013,"clouds":[{"cover":"BKN","base":2200}],"obsTime":1775235600},"SBUR":{"icaoId":"SBUR","flightCategory":"VFR","rawOb":"METAR SBUR 031700Z 32007KT 9999 SCT032 29/19 Q1018","temp":29,"dewp":19,"wdir":320,"wspd":7,"visib":"6+","altim":1018,"clouds":[{"cover":"SCT","base":3200}],"obsTime":1775235600},"SBCZ":{"icaoId":"SBCZ","flightCategory":"MVFR","rawOb":"METAR SBCZ 031700Z 12005KT 9999 BKN025 29/24 Q1013","temp":29,"dewp":24,"wdir":120,"wspd":5,"visib":"6+","altim":1013,"clouds":[{"cover":"BKN","base":2500}],"obsTime":1775235600},"SBKP":{"icaoId":"SBKP","flightCategory":"VFR","rawOb":"METAR SBKP 031700Z 30007KT 250V360 9999 SCT035 29/20 Q1017","temp":29,"dewp":20,"wdir":300,"wspd":7,"visib":"6+","altim":1017,"clouds":[{"cover":"SCT","base":3500}],"obsTime":1775235600},"SBCA":{"icaoId":"SBCA","flightCategory":"VFR","rawOb":"METAR SBCA 031700Z 32007KT 9999 BKN035 29/17 Q1018","temp":29,"dewp":17,"wdir":320,"wspd":7,"visib":"6+","altim":1018,"clouds":[{"cover":"BKN","base":3500}],"obsTime":1775235600},"SBAR":{"icaoId":"SBAR","flightCategory":"MVFR","rawOb":"METAR SBAR 031700Z 12010KT 090V150 9999 BKN023 30/25 Q1012","temp":30,"dewp":25,"wdir":120,"wspd":10,"visib":"6+","altim":1012,"clouds":[{"cover":"BKN","base":2300}],"obsTime":1775235600},"SBAU":{"icaoId":"SBAU","flightCategory":"VFR","rawOb":"METAR SBAU 031800Z COR 03006KT 9999 FEW040 33/19 Q1014","temp":33,"dewp":19,"wdir":30,"wspd":6,"visib":"6+","altim":1014,"clouds":[{"cover":"FEW","base":4000}],"obsTime":1775239200},"SBAX":{"icaoId":"SBAX","flightCategory":"VFR","rawOb":"METAR SBAX 031700Z AUTO 10003KT 050V140 9999 FEW031 27/19 Q1020","temp":27,"dewp":19,"wdir":100,"wspd":3,"visib":"6+","altim":1020,"clouds":[{"cover":"FEW","base":3100}],"obsTime":1775235600},"SBBH":{"icaoId":"SBBH","flightCategory":"VFR","rawOb":"METAR SBBH 031700Z 06003KT 9999 SCT040 28/18 Q1018","temp":28,"dewp":18,"wdir":60,"wspd":3,"visib":"6+","altim":1018,"clouds":[{"cover":"SCT","base":4000}],"obsTime":1775235600},"SBBQ":{"icaoId":"SBBQ","flightCategory":"MVFR","rawOb":"METAR SBBQ 031700Z 03002KT 9999 BKN030 FEW040TCU 26/18 Q1022","temp":26,"dewp":18,"wdir":30,"wspd":2,"visib":"6+","altim":1022,"clouds":[{"cover":"BKN","base":3000},{"cover":"FEW","base":4000}],"obsTime":1775235600},"SBBU":{"icaoId":"SBBU","flightCategory":"VFR","rawOb":"METAR SBBU 031700Z 28010KT 9999 SCT040 32/21 Q1016","temp":32,"dewp":21,"wdir":280,"wspd":10,"visib":"6+","altim":1016,"clouds":[{"cover":"SCT","base":4000}],"obsTime":1775235600},"SBCC":{"icaoId":"SBCC","flightCategory":"MVFR","rawOb":"METAR SBCC 031700Z 06007KT 9999 BKN020 FEW025TCU SCT100 29/21 Q1014","temp":29,"dewp":21,"wdir":60,"wspd":7,"visib":"6+","altim":1014,"clouds":[{"cover":"BKN","base":2000},{"cover":"FEW","base":2500},{"cover":"SCT","base":10000}],"obsTime":1775235600},"SBCJ":{"icaoId":"SBCJ","flightCategory":"MVFR","rawOb":"METAR SBCJ 031700Z 13008KT 9999 BKN020 27/21 Q1016","temp":27,"dewp":21,"wdir":130,"wspd":8,"visib":"6+","altim":1016,"clouds":[{"cover":"BKN","base":2000}],"obsTime":1775235600},"SBCO":{"icaoId":"SBCO","flightCategory":"VFR","rawOb":"METAR SBCO 031700Z 16005KT 130V190 9999 SCT033 29/21 Q1012","temp":29,"dewp":21,"wdir":160,"wspd":5,"visib":"6+","altim":1012,"clouds":[{"cover":"SCT","base":3300}],"obsTime":1775235600},"SBDN":{"icaoId":"SBDN","flightCategory":"VFR","rawOb":"METAR SBDN 031700Z 34006KT 9999 SCT040 31/20 Q1015","temp":31,"dewp":20,"wdir":340,"wspd":6,"visib":"6+","altim":1015,"clouds":[{"cover":"SCT","base":4000}],"obsTime":1775235600},"SBES":{"icaoId":"SBES","flightCategory":"VFR","rawOb":"METAR SBES 031700Z 06009KT CAVOK 30/// Q1013","temp":null,"dewp":null,"wdir":60,"wspd":9,"visib":"6+","altim":1013,"clouds":[],"obsTime":1775235600},"SBGM":{"icaoId":"SBGM","flightCategory":"VFR","rawOb":"METAR SBGM 031700Z VRB04KT 9999 BKN043 32/18 Q1011","temp":32,"dewp":18,"wdir":"VRB","wspd":4,"visib":"6+","altim":1011,"clouds":[{"cover":"BKN","base":4300}],"obsTime":1775235600},"SBIP":{"icaoId":"SBIP","flightCategory":"VFR","rawOb":"METAR SBIP 031700Z AUTO 03006KT 310V070 CAVOK 32/19 Q1016","temp":32,"dewp":19,"wdir":30,"wspd":6,"visib":"6+","altim":1016,"clouds":[],"obsTime":1775235600},"SBKG":{"icaoId":"SBKG","flightCategory":"VFR","rawOb":"METAR SBKG 031700Z 13006KT 9999 SCT030 30/21 Q1014","temp":30,"dewp":21,"wdir":130,"wspd":6,"visib":"6+","altim":1014,"clouds":[{"cover":"SCT","base":3000}],"obsTime":1775235600},"SBOI":{"icaoId":"SBOI","flightCategory":"VFR","rawOb":"METAR SBOI 031700Z AUTO 09005KT 020V160 9999 BKN047 32/23 Q1010","temp":32,"dewp":23,"wdir":90,"wspd":5,"visib":"6+","altim":1010,"clouds":[{"cover":"BKN","base":4700}],"obsTime":1775235600},"SBPB":{"icaoId":"SBPB","flightCategory":"VFR","rawOb":"METAR SBPB 031700Z 02006KT 9999 FEW016 FEW025TCU BKN080 30/25 Q1010","temp":30,"dewp":25,"wdir":20,"wspd":6,"visib":"6+","altim":1010,"clouds":[{"cover":"FEW","base":1600},{"cover":"FEW","base":2500},{"cover":"BKN","base":8000}],"obsTime":1775235600},"SBPL":{"icaoId":"SBPL","flightCategory":"VFR","rawOb":"METAR SBPL 031700Z 15004KT 9999 SCT025 31/22 Q1014","temp":31,"dewp":22,"wdir":150,"wspd":4,"visib":"6+","altim":1014,"clouds":[{"cover":"SCT","base":2500}],"obsTime":1775235600},"SBPP":{"icaoId":"SBPP","flightCategory":"MVFR","rawOb":"METAR SBPP 031700Z 32008KT 9999 BKN020 29/19 Q1016","temp":29,"dewp":19,"wdir":320,"wspd":8,"visib":"6+","altim":1016,"clouds":[{"cover":"BKN","base":2000}],"obsTime":1775235600},"SBPS":{"icaoId":"SBPS","flightCategory":"VFR","rawOb":"METAR SBPS 031700Z VRB07KT 9999 SCT030 BKN100 28/24 Q1015","temp":28,"dewp":24,"wdir":"VRB","wspd":7,"visib":"6+","altim":1015,"clouds":[{"cover":"SCT","base":3000},{"cover":"BKN","base":10000}],"obsTime":1775235600},"SBSC":{"icaoId":"SBSC","flightCategory":"VFR","rawOb":"METAR SBSC 031700Z 21007KT CAVOK 30/24 Q1013","temp":30,"dewp":24,"wdir":210,"wspd":7,"visib":"6+","altim":1013,"clouds":[],"obsTime":1775235600},"SBSJ":{"icaoId":"SBSJ","flightCategory":"VFR","rawOb":"METAR SBSJ 031700Z 21003KT 9999 VCSH SCT040 FEW045TCU 30/20 Q1016","temp":30,"dewp":20,"wdir":210,"wspd":3,"visib":"6+","altim":1016,"clouds":[{"cover":"SCT","base":4000},{"cover":"FEW","base":4500}],"obsTime":1775235600},"SBSM":{"icaoId":"SBSM","flightCategory":"VFR","rawOb":"METAR SBSM 031700Z 26004KT 170V320 9999 SCT040 31/20 Q1012","temp":31,"dewp":20,"wdir":260,"wspd":4,"visib":"6+","altim":1012,"clouds":[{"cover":"SCT","base":4000}],"obsTime":1775235600},"SBSR":{"icaoId":"SBSR","flightCategory":"VFR","rawOb":"METAR SBSR 031700Z 02002KT 9999 SCT030 31/19 Q1016","temp":31,"dewp":19,"wdir":20,"wspd":2,"visib":"6+","altim":1016,"clouds":[{"cover":"SCT","base":3000}],"obsTime":1775235600},"SBTF":{"icaoId":"SBTF","flightCategory":"VFR","rawOb":"METAR SBTF 031700Z 12004KT 9999 SCT018 33/26 Q1010","temp":33,"dewp":26,"wdir":120,"wspd":4,"visib":"6+","altim":1010,"clouds":[{"cover":"SCT","base":1800}],"obsTime":1775235600},"SBTT":{"icaoId":"SBTT","flightCategory":"MVFR","rawOb":"METAR SBTT 031700Z 11002KT 9999 -RA BKN013 BKN080 24/22 Q1014","temp":24,"dewp":22,"wdir":110,"wspd":2,"visib":"6+","altim":1014,"clouds":[{"cover":"BKN","base":1300},{"cover":"BKN","base":8000}],"obsTime":1775235600},"SBUY":{"icaoId":"SBUY","flightCategory":"VFR","rawOb":"METAR SBUY 031700Z 31002KT 9999 SCT020 FEW030TCU SCT100 29/25 Q1010","temp":29,"dewp":25,"wdir":310,"wspd":2,"visib":"6+","altim":1010,"clouds":[{"cover":"SCT","base":2000},{"cover":"FEW","base":3000},{"cover":"SCT","base":10000}],"obsTime":1775235600},"SBVH":{"icaoId":"SBVH","flightCategory":"VFR","rawOb":"METAR SBVH 031700Z 08009KT 9999 FEW020 28/22 Q1015","temp":28,"dewp":22,"wdir":80,"wspd":9,"visib":"6+","altim":1015,"clouds":[{"cover":"FEW","base":2000}],"obsTime":1775235600},"SBJP":{"icaoId":"SBJP","flightCategory":"VFR","rawOb":"METAR SBJP 031700Z 11013KT 9999 SCT030 32/24 Q1012","temp":32,"dewp":24,"wdir":110,"wspd":13,"visib":"6+","altim":1012,"clouds":[{"cover":"SCT","base":3000}],"obsTime":1775235600},"SBAN":{"icaoId":"SBAN","flightCategory":"MVFR","rawOb":"METAR SBAN 031700Z 08006KT 9999 BKN030 SCT100 26/19 Q1020","temp":26,"dewp":19,"wdir":80,"wspd":6,"visib":"6+","altim":1020,"clouds":[{"cover":"BKN","base":3000},{"cover":"SCT","base":10000}],"obsTime":1775235600},"SBJV":{"icaoId":"SBJV","flightCategory":"VFR","rawOb":"METAR SBJV 031700Z 10008KT 9999 FEW035 31/24 Q1011","temp":31,"dewp":24,"wdir":100,"wspd":8,"visib":"6+","altim":1011,"clouds":[{"cover":"FEW","base":3500}],"obsTime":1775235600},"SBIH":{"icaoId":"SBIH","flightCategory":"VFR","rawOb":"METAR SBIH 031700Z 07009KT 9999 SCT020 FEW025TCU 32/23 Q1010","temp":32,"dewp":23,"wdir":70,"wspd":9,"visib":"6+","altim":1010,"clouds":[{"cover":"SCT","base":2000},{"cover":"FEW","base":2500}],"obsTime":1775235600},"SBAF":{"icaoId":"SBAF","flightCategory":"VFR","rawOb":"METAR SBAF 031700Z 29006KT 9999 FEW030 35/22 Q1012","temp":35,"dewp":22,"wdir":290,"wspd":6,"visib":"6+","altim":1012,"clouds":[{"cover":"FEW","base":3000}],"obsTime":1775235600},"SBGW":{"icaoId":"SBGW","flightCategory":"VFR","rawOb":"METAR SBGW 031700Z VRB01KT 9999 SCT030 BKN100 31/17 Q1016","temp":31,"dewp":17,"wdir":"VRB","wspd":1,"visib":"6+","altim":1016,"clouds":[{"cover":"SCT","base":3000},{"cover":"BKN","base":10000}],"obsTime":1775235600},"SBJR":{"icaoId":"SBJR","flightCategory":"VFR","rawOb":"METAR SBJR 031700Z 17004KT 9999 FEW030 33/24 Q1012","temp":33,"dewp":24,"wdir":170,"wspd":4,"visib":"6+","altim":1012,"clouds":[{"cover":"FEW","base":3000}],"obsTime":1775235600},"SBLS":{"icaoId":"SBLS","flightCategory":"VFR","rawOb":"METAR SBLS 031700Z VRB02KT 9999 BKN040 28/19 Q1019","temp":28,"dewp":19,"wdir":"VRB","wspd":2,"visib":"6+","altim":1019,"clouds":[{"cover":"BKN","base":4000}],"obsTime":1775235600},"SBMT":{"icaoId":"SBMT","flightCategory":"VFR","rawOb":"METAR SBMT 031700Z 28009KT 240V340 9999 BKN040 29/19 Q1017","temp":29,"dewp":19,"wdir":280,"wspd":9,"visib":"6+","altim":1017,"clouds":[{"cover":"BKN","base":4000}],"obsTime":1775235600},"SBST":{"icaoId":"SBST","flightCategory":"VFR","rawOb":"METAR SBST 031700Z 14005KT CAVOK 30/24 Q1012","temp":30,"dewp":24,"wdir":140,"wspd":5,"visib":"6+","altim":1012,"clouds":[],"obsTime":1775235600},"SBTA":{"icaoId":"SBTA","flightCategory":"VFR","rawOb":"METAR SBTA 031700Z 08007KT 040V160 9999 SCT035 SCT100 30/19 Q1015","temp":30,"dewp":19,"wdir":80,"wspd":7,"visib":"6+","altim":1015,"clouds":[{"cover":"SCT","base":3500},{"cover":"SCT","base":10000}],"obsTime":1775235600},"SBLE":{"icaoId":"SBLE","flightCategory":"VFR","rawOb":"METAR SBLE 031700Z AUTO VRB03KT CAVOK 28/20 Q1016","temp":28,"dewp":20,"wdir":"VRB","wspd":3,"visib":"6+","altim":1016,"clouds":[],"obsTime":1775235600}}}