{"updated":1778441857,"count":87,"data":{"SBGR":{"icaoId":"SBGR","flightCategory":"IFR","rawOb":"METAR SBGR 101800Z 14005KT 9999 -RA OVC008 15/14 Q1018","temp":15,"dewp":14,"wdir":140,"wspd":5,"visib":"6+","altim":1018,"clouds":[{"cover":"OVC","base":800}],"obsTime":1778436000},"SBBE":{"icaoId":"SBBE","flightCategory":"MVFR","rawOb":"METAR SBBE 101800Z 01009KT 5000 RA BKN027 FEW030TCU BKN034 28/25 Q1009","temp":28,"dewp":25,"wdir":10,"wspd":9,"visib":3.11,"altim":1009,"clouds":[{"cover":"BKN","base":2700},{"cover":"FEW","base":3000},{"cover":"BKN","base":3400}],"obsTime":1778436000},"SBMA":{"icaoId":"SBMA","flightCategory":"MVFR","rawOb":"METAR SBMA 101800Z 07006KT 9999 BKN020 FEW023TCU 31/24 Q1010","temp":31,"dewp":24,"wdir":70,"wspd":6,"visib":"6+","altim":1010,"clouds":[{"cover":"BKN","base":2000},{"cover":"FEW","base":2300}],"obsTime":1778436000},"SBCZ":{"icaoId":"SBCZ","flightCategory":"VFR","rawOb":"METAR SBCZ 101800Z 15005KT 9000 -TSRA SCT010 FEW030CB BKN100 26/25 Q1012","temp":26,"dewp":25,"wdir":150,"wspd":5,"visib":5.59,"altim":1012,"clouds":[{"cover":"SCT","base":1000},{"cover":"FEW","base":3000},{"cover":"BKN","base":10000}],"obsTime":1778436000},"SBME":{"icaoId":"SBME","flightCategory":"MVFR","rawOb":"METAR SBME 101800Z 18008KT 8000 NSC 27/21 Q1013","temp":27,"dewp":21,"wdir":180,"wspd":8,"visib":4.97,"altim":1013,"clouds":[],"obsTime":1778436000},"SBCB":{"icaoId":"SBCB","flightCategory":"MVFR","rawOb":"METAR SBCB 101800Z 24011KT 9999 BKN010 BKN025 24/22 Q1014","temp":24,"dewp":22,"wdir":240,"wspd":11,"visib":"6+","altim":1014,"clouds":[{"cover":"BKN","base":1000},{"cover":"BKN","base":2500}],"obsTime":1778436000},"SBEG":{"icaoId":"SBEG","flightCategory":"VFR","rawOb":"METAR SBEG 101800Z 09010KT 9999 SCT020 33/24 Q1010","temp":33,"dewp":24,"wdir":90,"wspd":10,"visib":"6+","altim":1010,"clouds":[{"cover":"SCT","base":2000}],"obsTime":1778436000},"SBMG":{"icaoId":"SBMG","flightCategory":"VFR","rawOb":"METAR SBMG 101800Z 26007KT 220V290 9999 FEW020 15/07 Q1021","temp":15,"dewp":7,"wdir":260,"wspd":7,"visib":"6+","altim":1021,"clouds":[{"cover":"FEW","base":2000}],"obsTime":1778436000},"SBMK":{"icaoId":"SBMK","flightCategory":"VFR","rawOb":"METAR SBMK 101800Z 35004KT 9999 FEW040 30/14 Q1017","temp":30,"dewp":14,"wdir":350,"wspd":4,"visib":"6+","altim":1017,"clouds":[{"cover":"FEW","base":4000}],"obsTime":1778436000},"SBFI":{"icaoId":"SBFI","flightCategory":"VFR","rawOb":"METAR SBFI 101800Z 21007KT 9999 BKN040 13/07 Q1023","temp":13,"dewp":7,"wdir":210,"wspd":7,"visib":"6+","altim":1023,"clouds":[{"cover":"BKN","base":4000}],"obsTime":1778436000},"SBCF":{"icaoId":"SBCF","flightCategory":"VFR","rawOb":"METAR SBCF 101800Z 36005KT 9999 SCT040 29/14 Q1018","temp":29,"dewp":14,"wdir":360,"wspd":5,"visib":"6+","altim":1018,"clouds":[{"cover":"SCT","base":4000}],"obsTime":1778436000},"SBMO":{"icaoId":"SBMO","flightCategory":"VFR","rawOb":"METAR SBMO 101800Z 11010KT 9999 SCT030 SCT070 28/21 Q1013","temp":28,"dewp":21,"wdir":110,"wspd":10,"visib":"6+","altim":1013,"clouds":[{"cover":"SCT","base":3000},{"cover":"SCT","base":7000}],"obsTime":1778436000},"SBMQ":{"icaoId":"SBMQ","flightCategory":"MVFR","rawOb":"METAR SBMQ 101800Z 07011KT 9999 VCSH BKN019 FEW030TCU 31/26 Q1010","temp":31,"dewp":26,"wdir":70,"wspd":11,"visib":"6+","altim":1010,"clouds":[{"cover":"BKN","base":1900},{"cover":"FEW","base":3000}],"obsTime":1778436000},"SBFL":{"icaoId":"SBFL","flightCategory":"VFR","rawOb":"METAR SBFL 101800Z 08006KT 030V130 9999 FEW040 19/10 Q1017","temp":19,"dewp":10,"wdir":80,"wspd":6,"visib":"6+","altim":1017,"clouds":[{"cover":"FEW","base":4000}],"obsTime":1778436000},"SBNT":{"icaoId":"SBNT","flightCategory":"MVFR","rawOb":"METAR SBNT 101800Z 14010KT 7000 -RA SCT008 BKN013 BKN066 26/25 Q1012","temp":26,"dewp":25,"wdir":140,"wspd":10,"visib":4.35,"altim":1012,"clouds":[{"cover":"SCT","base":800},{"cover":"BKN","base":1300},{"cover":"BKN","base":6600}],"obsTime":1778436000},"SBPA":{"icaoId":"SBPA","flightCategory":"VFR","rawOb":"METAR SBPA 101800Z 27013KT 9999 BKN040 14/06 Q1019","temp":14,"dewp":6,"wdir":270,"wspd":13,"visib":"6+","altim":1019,"clouds":[{"cover":"BKN","base":4000}],"obsTime":1778436000},"SBPJ":{"icaoId":"SBPJ","flightCategory":"VFR","rawOb":"METAR SBPJ 101800Z 15005KT 110V180 9999 SCT040 34/21 Q1012","temp":34,"dewp":21,"wdir":150,"wspd":5,"visib":"6+","altim":1012,"clouds":[{"cover":"SCT","base":4000}],"obsTime":1778436000},"SBFZ":{"icaoId":"SBFZ","flightCategory":"MVFR","rawOb":"METAR SBFZ 101800Z 08008KT 9999 BKN016 FEW030TCU 28/24 Q1011","temp":28,"dewp":24,"wdir":80,"wspd":8,"visib":"6+","altim":1011,"clouds":[{"cover":"BKN","base":1600},{"cover":"FEW","base":3000}],"obsTime":1778436000},"SBGL":{"icaoId":"SBGL","flightCategory":"MVFR","rawOb":"METAR SBGL 101800Z 22012KT 9999 OVC030 24/19 Q1014","temp":24,"dewp":19,"wdir":220,"wspd":12,"visib":"6+","altim":1014,"clouds":[{"cover":"OVC","base":3000}],"obsTime":1778436000},"SBPV":{"icaoId":"SBPV","flightCategory":"VFR","rawOb":"METAR SBPV 101800Z 17011KT 9999 SCT009 BKN100 23/21 Q1013","temp":23,"dewp":21,"wdir":170,"wspd":11,"visib":"6+","altim":1013,"clouds":[{"cover":"SCT","base":900},{"cover":"BKN","base":10000}],"obsTime":1778436000},"SBCG":{"icaoId":"SBCG","flightCategory":"VFR","rawOb":"METAR SBCG 101800Z 15007KT 100V210 CAVOK 16/07 Q1022","temp":16,"dewp":7,"wdir":150,"wspd":7,"visib":"6+","altim":1022,"clouds":[],"obsTime":1778436000},"SBRB":{"icaoId":"SBRB","flightCategory":"IFR","rawOb":"METAR SBRB 101800Z 16007G20KT 2000 -RA BR BKN005 BKN013 FEW030TCU 17/17 Q1018","temp":17,"dewp":17,"wdir":160,"wspd":7,"visib":1.24,"altim":1018,"clouds":[{"cover":"BKN","base":500},{"cover":"BKN","base":1300},{"cover":"FEW","base":3000}],"obsTime":1778436000},"SBBR":{"icaoId":"SBBR","flightCategory":"VFR","rawOb":"METAR SBBR 101800Z VRB02KT 9999 SCT045 30/10 Q1019","temp":30,"dewp":10,"wdir":"VRB","wspd":2,"visib":"6+","altim":1019,"clouds":[{"cover":"SCT","base":4500}],"obsTime":1778436000},"SBRF":{"icaoId":"SBRF","flightCategory":"VFR","rawOb":"METAR SBRF 101800Z 12010KT 9999 VCSH SCT019 FEW025TCU BKN090 29/24 Q1012","temp":29,"dewp":24,"wdir":120,"wspd":10,"visib":"6+","altim":1012,"clouds":[{"cover":"SCT","base":1900},{"cover":"FEW","base":2500},{"cover":"BKN","base":9000}],"obsTime":1778436000},"SBGO":{"icaoId":"SBGO","flightCategory":"VFR","rawOb":"METAR SBGO 101800Z 24009KT 200V270 9999 FEW048 30/19 Q1017","temp":30,"dewp":19,"wdir":240,"wspd":9,"visib":"6+","altim":1017,"clouds":[{"cover":"FEW","base":4800}],"obsTime":1778436000},"SBSG":{"icaoId":"SBSG","flightCategory":"MVFR","rawOb":"METAR SBSG 101800Z 12005KT 090V180 9999 VCSH BKN015 FEW025TCU 27/25 Q1012","temp":27,"dewp":25,"wdir":120,"wspd":5,"visib":"6+","altim":1012,"clouds":[{"cover":"BKN","base":1500},{"cover":"FEW","base":2500}],"obsTime":1778436000},"SBKP":{"icaoId":"SBKP","flightCategory":"IFR","rawOb":"METAR SBKP 101800Z 24016KT 2000 -RA BR FEW003 BKN005 OVC100 17/16 Q1018","temp":17,"dewp":16,"wdir":240,"wspd":16,"visib":1.24,"altim":1018,"clouds":[{"cover":"FEW","base":300},{"cover":"BKN","base":500},{"cover":"OVC","base":10000}],"obsTime":1778436000},"SBLO":{"icaoId":"SBLO","flightCategory":"VFR","rawOb":"METAR SBLO 101800Z 30003KT 9999 SCT016 BKN100 15/09 Q1021","temp":15,"dewp":9,"wdir":300,"wspd":3,"visib":"6+","altim":1021,"clouds":[{"cover":"SCT","base":1600},{"cover":"BKN","base":10000}],"obsTime":1778436000},"SBCT":{"icaoId":"SBCT","flightCategory":"VFR","rawOb":"METAR SBCT 101800Z 27008KT 9999 FEW030 SCT100 12/06 Q1020","temp":12,"dewp":6,"wdir":270,"wspd":8,"visib":"6+","altim":1020,"clouds":[{"cover":"FEW","base":3000},{"cover":"SCT","base":10000}],"obsTime":1778436000},"SBSL":{"icaoId":"SBSL","flightCategory":"MVFR","rawOb":"METAR SBSL 101800Z 07005KT 9999 VCSH BKN020 FEW025TCU BKN100 27/25 Q1010","temp":27,"dewp":25,"wdir":70,"wspd":5,"visib":"6+","altim":1010,"clouds":[{"cover":"BKN","base":2000},{"cover":"FEW","base":2500},{"cover":"BKN","base":10000}],"obsTime":1778436000},"SBCP":{"icaoId":"SBCP","flightCategory":"VFR","rawOb":"METAR SBCP 101800Z 08003KT 9999 FEW020 33/20 Q1012","temp":33,"dewp":20,"wdir":80,"wspd":3,"visib":"6+","altim":1012,"clouds":[{"cover":"FEW","base":2000}],"obsTime":1778436000},"SBSN":{"icaoId":"SBSN","flightCategory":"VFR","rawOb":"METAR SBSN 101800Z 08009KT 9999 SCT030 31/25 Q1009","temp":31,"dewp":25,"wdir":80,"wspd":9,"visib":"6+","altim":1009,"clouds":[{"cover":"SCT","base":3000}],"obsTime":1778436000},"SBSP":{"icaoId":"SBSP","flightCategory":"LIFR","rawOb":"SPECI SBSP 101738Z 18007KT 6000 2500SW -DZ BKN004 OVC009 14/14 Q1019","temp":14,"dewp":14,"wdir":180,"wspd":7,"visib":3.73,"altim":1019,"clouds":[{"cover":"BKN","base":400},{"cover":"OVC","base":900}],"obsTime":1778434680},"SBAT":{"icaoId":"SBAT","flightCategory":"VFR","rawOb":"METAR SBAT 101800Z 15008KT 9999 SCT035 FEW040TCU 35/23 Q1012","temp":35,"dewp":23,"wdir":150,"wspd":8,"visib":"6+","altim":1012,"clouds":[{"cover":"SCT","base":3500},{"cover":"FEW","base":4000}],"obsTime":1778436000},"SBHT":{"icaoId":"SBHT","flightCategory":"MVFR","rawOb":"METAR SBHT 101800Z 15005KT 9999 BKN030 31/24 Q1010","temp":31,"dewp":24,"wdir":150,"wspd":5,"visib":"6+","altim":1010,"clouds":[{"cover":"BKN","base":3000}],"obsTime":1778436000},"SBSV":{"icaoId":"SBSV","flightCategory":"VFR","rawOb":"METAR SBSV 101800Z 16007KT 120V200 9999 SCT028 BKN070 29/22 Q1014","temp":29,"dewp":22,"wdir":160,"wspd":7,"visib":"6+","altim":1014,"clouds":[{"cover":"SCT","base":2800},{"cover":"BKN","base":7000}],"obsTime":1778436000},"SBTE":{"icaoId":"SBTE","flightCategory":"VFR","rawOb":"METAR SBTE 101800Z 28003KT 9999 SCT015 FEW020TCU BKN100 28/25 Q1010","temp":28,"dewp":25,"wdir":280,"wspd":3,"visib":"6+","altim":1010,"clouds":[{"cover":"SCT","base":1500},{"cover":"FEW","base":2000},{"cover":"BKN","base":10000}],"obsTime":1778436000},"SBUL":{"icaoId":"SBUL","flightCategory":"VFR","rawOb":"METAR SBUL 101800Z 36008KT 280V030 9999 SCT036 27/17 Q1019","temp":27,"dewp":17,"wdir":360,"wspd":8,"visib":"6+","altim":1019,"clouds":[{"cover":"SCT","base":3600}],"obsTime":1778436000},"SBIL":{"icaoId":"SBIL","flightCategory":"VFR","rawOb":"METAR SBIL 101800Z 16006KT 110V200 9999 FEW023 29/22 Q1015","temp":29,"dewp":22,"wdir":160,"wspd":6,"visib":"6+","altim":1015,"clouds":[{"cover":"FEW","base":2300}],"obsTime":1778436000},"SBUR":{"icaoId":"SBUR","flightCategory":"VFR","rawOb":"METAR SBUR 101800Z 22010KT 9999 BKN040 25/19 Q1018","temp":25,"dewp":19,"wdir":220,"wspd":10,"visib":"6+","altim":1018,"clouds":[{"cover":"BKN","base":4000}],"obsTime":1778436000},"SBCR":{"icaoId":"SBCR","flightCategory":"VFR","rawOb":"METAR SBCR 101800Z 23009KT CAVOK 20/09 Q1022","temp":20,"dewp":9,"wdir":230,"wspd":9,"visib":"6+","altim":1022,"clouds":[],"obsTime":1778436000},"SBVT":{"icaoId":"SBVT","flightCategory":"VFR","rawOb":"METAR SBVT 101800Z 06013KT CAVOK 29/22 Q1013","temp":29,"dewp":22,"wdir":60,"wspd":13,"visib":"6+","altim":1013,"clouds":[],"obsTime":1778436000},"SBJU":{"icaoId":"SBJU","flightCategory":"MVFR","rawOb":"METAR SBJU 101800Z 06009KT 9999 BKN022 30/23 Q1013","temp":30,"dewp":23,"wdir":60,"wspd":9,"visib":"6+","altim":1013,"clouds":[{"cover":"BKN","base":2200}],"obsTime":1778436000},"SBBV":{"icaoId":"SBBV","flightCategory":"VFR","rawOb":"METAR SBBV 101800Z 13009KT 9999 BKN040 FEW045TCU 33/22 Q1010","temp":33,"dewp":22,"wdir":130,"wspd":9,"visib":"6+","altim":1010,"clouds":[{"cover":"BKN","base":4000},{"cover":"FEW","base":4500}],"obsTime":1778436000},"SBAR":{"icaoId":"SBAR","flightCategory":"VFR","rawOb":"METAR SBAR 101800Z 15008KT 110V170 9999 SCT023 29/23 Q1013","temp":29,"dewp":23,"wdir":150,"wspd":8,"visib":"6+","altim":1013,"clouds":[{"cover":"SCT","base":2300}],"obsTime":1778436000},"SBBH":{"icaoId":"SBBH","flightCategory":"VFR","rawOb":"METAR SBBH 101800Z 27006KT 9999 SCT045 28/16 Q1018","temp":28,"dewp":16,"wdir":270,"wspd":6,"visib":"6+","altim":1018,"clouds":[{"cover":"SCT","base":4500}],"obsTime":1778436000},"SBBQ":{"icaoId":"SBBQ","flightCategory":"VFR","rawOb":"METAR SBBQ 101800Z 30007KT 260V010 9999 SCT040 27/12 Q1020","temp":27,"dewp":12,"wdir":300,"wspd":7,"visib":"6+","altim":1020,"clouds":[{"cover":"SCT","base":4000}],"obsTime":1778436000},"SBBU":{"icaoId":"SBBU","flightCategory":"LIFR","rawOb":"METAR SBBU 101800Z 21008KT 5000 -RA BR BKN002 SCT025 14/14 Q1020","temp":14,"dewp":14,"wdir":210,"wspd":8,"visib":3.11,"altim":1020,"clouds":[{"cover":"BKN","base":200},{"cover":"SCT","base":2500}],"obsTime":1778436000},"SBCA":{"icaoId":"SBCA","flightCategory":"VFR","rawOb":"METAR SBCA 101800Z 20008KT 9999 SCT035 12/04 Q1022","temp":12,"dewp":4,"wdir":200,"wspd":8,"visib":"6+","altim":1022,"clouds":[{"cover":"SCT","base":3500}],"obsTime":1778436000},"SBCC":{"icaoId":"SBCC","flightCategory":"VFR","rawOb":"METAR SBCC 101800Z 10011KT 9999 SCT025 31/18 Q1013","temp":31,"dewp":18,"wdir":100,"wspd":11,"visib":"6+","altim":1013,"clouds":[{"cover":"SCT","base":2500}],"obsTime":1778436000},"SBCJ":{"icaoId":"SBCJ","flightCategory":"VFR","rawOb":"METAR SBCJ 101800Z 07005KT 9999 SCT023 FEW030TCU 28/22 Q1014","temp":28,"dewp":22,"wdir":70,"wspd":5,"visib":"6+","altim":1014,"clouds":[{"cover":"SCT","base":2300},{"cover":"FEW","base":3000}],"obsTime":1778436000},"SBCO":{"icaoId":"SBCO","flightCategory":"VFR","rawOb":"METAR SBCO 101800Z 27016KT 9999 BKN040 14/05 Q1020","temp":14,"dewp":5,"wdir":270,"wspd":16,"visib":"6+","altim":1020,"clouds":[{"cover":"BKN","base":4000}],"obsTime":1778436000},"SBDN":{"icaoId":"SBDN","flightCategory":"VFR","rawOb":"METAR SBDN 101800Z 24004KT 9999 SCT015 BKN070 13/09 Q1021","temp":13,"dewp":9,"wdir":240,"wspd":4,"visib":"6+","altim":1021,"clouds":[{"cover":"SCT","base":1500},{"cover":"BKN","base":7000}],"obsTime":1778436000},"SBES":{"icaoId":"SBES","flightCategory":"MVFR","rawOb":"METAR SBES 101800Z 23011KT 150V290 9999 BKN020 24/// Q1014","temp":null,"dewp":null,"wdir":230,"wspd":11,"visib":"6+","altim":1014,"clouds":[{"cover":"BKN","base":2000}],"obsTime":1778436000},"SBGM":{"icaoId":"SBGM","flightCategory":"MVFR","rawOb":"METAR SBGM 101800Z 12013KT 9999 BKN010 OVC100 17/15 Q1017","temp":17,"dewp":15,"wdir":120,"wspd":13,"visib":"6+","altim":1017,"clouds":[{"cover":"BKN","base":1000},{"cover":"OVC","base":10000}],"obsTime":1778436000},"SBIP":{"icaoId":"SBIP","flightCategory":"VFR","rawOb":"METAR SBIP 101800Z AUTO 05005KT 360V120 CAVOK 30/18 Q1015","temp":30,"dewp":18,"wdir":50,"wspd":5,"visib":"6+","altim":1015,"clouds":[],"obsTime":1778436000},"SBKG":{"icaoId":"SBKG","flightCategory":"VFR","rawOb":"METAR SBKG 101800Z 14008KT 9999 SCT025 SCT100 27/22 Q1014","temp":27,"dewp":22,"wdir":140,"wspd":8,"visib":"6+","altim":1014,"clouds":[{"cover":"SCT","base":2500},{"cover":"SCT","base":10000}],"obsTime":1778436000},"SBOI":{"icaoId":"SBOI","flightCategory":"VFR","rawOb":"METAR SBOI 101800Z AUTO 04005KT 350V100 9999 FEW040 30/25 Q1011","temp":30,"dewp":25,"wdir":40,"wspd":5,"visib":"6+","altim":1011,"clouds":[{"cover":"FEW","base":4000}],"obsTime":1778436000},"SBPB":{"icaoId":"SBPB","flightCategory":"VFR","rawOb":"METAR SBPB 101800Z 03009KT 9999 SCT020 BKN100 28/26 Q1010","temp":28,"dewp":26,"wdir":30,"wspd":9,"visib":"6+","altim":1010,"clouds":[{"cover":"SCT","base":2000},{"cover":"BKN","base":10000}],"obsTime":1778436000},"SBPL":{"icaoId":"SBPL","flightCategory":"MVFR","rawOb":"METAR SBPL 101800Z 09010KT 9999 BKN030 31/16 Q1013","temp":31,"dewp":16,"wdir":90,"wspd":10,"visib":"6+","altim":1013,"clouds":[{"cover":"BKN","base":3000}],"obsTime":1778436000},"SBPP":{"icaoId":"SBPP","flightCategory":"VFR","rawOb":"METAR SBPP 101800Z 22007KT CAVOK 14/05 Q1023","temp":14,"dewp":5,"wdir":220,"wspd":7,"visib":"6+","altim":1023,"clouds":[],"obsTime":1778436000},"SBPS":{"icaoId":"SBPS","flightCategory":"VFR","rawOb":"METAR SBPS 101800Z 10006KT 9999 FEW020 28/22 Q1015","temp":28,"dewp":22,"wdir":100,"wspd":6,"visib":"6+","altim":1015,"clouds":[{"cover":"FEW","base":2000}],"obsTime":1778436000},"SBSC":{"icaoId":"SBSC","flightCategory":"MVFR","rawOb":"METAR SBSC 101800Z COR 18012KT 9999 SCT015 OVC020 22/19 Q1016","temp":22,"dewp":19,"wdir":180,"wspd":12,"visib":"6+","altim":1016,"clouds":[{"cover":"SCT","base":1500},{"cover":"OVC","base":2000}],"obsTime":1778436000},"SBSJ":{"icaoId":"SBSJ","flightCategory":"IFR","rawOb":"METAR SBSJ 101800Z 21006KT 4000 BR BKN009 OVC020 17/15 Q1018","temp":17,"dewp":15,"wdir":210,"wspd":6,"visib":2.49,"altim":1018,"clouds":[{"cover":"BKN","base":900},{"cover":"OVC","base":2000}],"obsTime":1778436000},"SBSM":{"icaoId":"SBSM","flightCategory":"VFR","rawOb":"METAR SBSM 101800Z 29011KT 9999 BKN040 14/04 Q1022","temp":14,"dewp":4,"wdir":290,"wspd":11,"visib":"6+","altim":1022,"clouds":[{"cover":"BKN","base":4000}],"obsTime":1778436000},"SBSR":{"icaoId":"SBSR","flightCategory":"IFR","rawOb":"METAR SBSR 101800Z 24011KT 9999 BKN007 16/13 Q1020","temp":16,"dewp":13,"wdir":240,"wspd":11,"visib":"6+","altim":1020,"clouds":[{"cover":"BKN","base":700}],"obsTime":1778436000},"SBTF":{"icaoId":"SBTF","flightCategory":"VFR","rawOb":"METAR SBTF 101800Z 11009KT 9999 SCT020 32/25 Q1009","temp":32,"dewp":25,"wdir":110,"wspd":9,"visib":"6+","altim":1009,"clouds":[{"cover":"SCT","base":2000}],"obsTime":1778436000},"SBTT":{"icaoId":"SBTT","flightCategory":"MVFR","rawOb":"METAR SBTT 101800Z 15009KT 9999 FEW008 BKN030 32/23 Q1009","temp":32,"dewp":23,"wdir":150,"wspd":9,"visib":"6+","altim":1009,"clouds":[{"cover":"FEW","base":800},{"cover":"BKN","base":3000}],"obsTime":1778436000},"SBTU":{"icaoId":"SBTU","flightCategory":"VFR","rawOb":"METAR SBTU 101800Z AUTO VRB01KT 9999 // ///////// ///// Q1011","temp":null,"dewp":null,"wdir":"VRB","wspd":1,"visib":"6+","altim":1011,"clouds":[],"obsTime":1778436000},"SBUY":{"icaoId":"SBUY","flightCategory":"VFR","rawOb":"METAR SBUY 101800Z 14011KT 9999 SCT025 FEW035TCU 32/23 Q1008","temp":32,"dewp":23,"wdir":140,"wspd":11,"visib":"6+","altim":1008,"clouds":[{"cover":"SCT","base":2500},{"cover":"FEW","base":3500}],"obsTime":1778436000},"SBVH":{"icaoId":"SBVH","flightCategory":"VFR","rawOb":"METAR SBVH 101800Z 12010KT CAVOK 21/16 Q1018","temp":21,"dewp":16,"wdir":120,"wspd":10,"visib":"6+","altim":1018,"clouds":[],"obsTime":1778436000},"SBAU":{"icaoId":"SBAU","flightCategory":"MVFR","rawOb":"METAR SBAU 101800Z 24010KT 9999 -RA BKN010 BKN080 15/13 Q1021","temp":15,"dewp":13,"wdir":240,"wspd":10,"visib":"6+","altim":1021,"clouds":[{"cover":"BKN","base":1000},{"cover":"BKN","base":8000}],"obsTime":1778436000},"SBJP":{"icaoId":"SBJP","flightCategory":"IFR","rawOb":"METAR SBJP 101800Z 09018KT 4000 -RA BKN012 BKN070 26/24 Q1013","temp":26,"dewp":24,"wdir":90,"wspd":18,"visib":2.49,"altim":1013,"clouds":[{"cover":"BKN","base":1200},{"cover":"BKN","base":7000}],"obsTime":1778436000},"SBAN":{"icaoId":"SBAN","flightCategory":"VFR","rawOb":"METAR SBAN 101800Z 32005KT 9999 SCT040 FEW045TCU SCT080 26/15 Q1020","temp":26,"dewp":15,"wdir":320,"wspd":5,"visib":"6+","altim":1020,"clouds":[{"cover":"SCT","base":4000},{"cover":"FEW","base":4500},{"cover":"SCT","base":8000}],"obsTime":1778436000},"SBIH":{"icaoId":"SBIH","flightCategory":"VFR","rawOb":"METAR SBIH 101800Z 04011KT 9999 VCSH SCT020 FEW023TCU 33/25 Q1009","temp":33,"dewp":25,"wdir":40,"wspd":11,"visib":"6+","altim":1009,"clouds":[{"cover":"SCT","base":2000},{"cover":"FEW","base":2300}],"obsTime":1778436000},"SBLE":{"icaoId":"SBLE","flightCategory":"VFR","rawOb":"METAR SBLE 101800Z AUTO 16006KT 110V200 9999 SCT049 28/18 Q1016","temp":28,"dewp":18,"wdir":160,"wspd":6,"visib":"6+","altim":1016,"clouds":[{"cover":"SCT","base":4900}],"obsTime":1778436000},"SBTC":{"icaoId":"SBTC","flightCategory":"VFR","rawOb":"METAR SBTC 101800Z 14005KT 9999 FEW025 29/22 Q1015","temp":29,"dewp":22,"wdir":140,"wspd":5,"visib":"6+","altim":1015,"clouds":[{"cover":"FEW","base":2500}],"obsTime":1778436000},"SBJV":{"icaoId":"SBJV","flightCategory":"VFR","rawOb":"METAR SBJV 101800Z 13004KT 9999 FEW020 SCT100 18/09 Q1018","temp":18,"dewp":9,"wdir":130,"wspd":4,"visib":"6+","altim":1018,"clouds":[{"cover":"FEW","base":2000},{"cover":"SCT","base":10000}],"obsTime":1778436000},"SBNM":{"icaoId":"SBNM","flightCategory":"MVFR","rawOb":"METAR SBNM 101800Z AUTO 28008KT 250V320 9999 BKN028 OVC042 12/05 Q1023","temp":12,"dewp":5,"wdir":280,"wspd":8,"visib":"6+","altim":1023,"clouds":[{"cover":"BKN","base":2800},{"cover":"OVC","base":4200}],"obsTime":1778436000},"SBPF":{"icaoId":"SBPF","flightCategory":"MVFR","rawOb":"METAR SBPF 101900Z 27009KT 9999 BKN020 08/03 Q1022","temp":8,"dewp":3,"wdir":270,"wspd":9,"visib":"6+","altim":1022,"clouds":[{"cover":"BKN","base":2000}],"obsTime":1778439600},"SBGW":{"icaoId":"SBGW","flightCategory":"VFR","rawOb":"METAR SBGW 101800Z 24009KT 210V280 9999 SCT020 BKN085 23/14 Q1016","temp":23,"dewp":14,"wdir":240,"wspd":9,"visib":"6+","altim":1016,"clouds":[{"cover":"SCT","base":2000},{"cover":"BKN","base":8500}],"obsTime":1778436000},"SBJR":{"icaoId":"SBJR","flightCategory":"IFR","rawOb":"METAR SBJR 101800Z 24006KT 3000 -RA BR BKN007 OVC020 22/21 Q1015","temp":22,"dewp":21,"wdir":240,"wspd":6,"visib":1.86,"altim":1015,"clouds":[{"cover":"BKN","base":700},{"cover":"OVC","base":2000}],"obsTime":1778436000},"SBLS":{"icaoId":"SBLS","flightCategory":"VFR","rawOb":"METAR SBLS 101800Z 26004KT 180V310 9999 BKN031 29/15 Q1018","temp":29,"dewp":15,"wdir":260,"wspd":4,"visib":"6+","altim":1018,"clouds":[{"cover":"BKN","base":3100}],"obsTime":1778436000},"SBMT":{"icaoId":"SBMT","flightCategory":"IFR","rawOb":"METAR SBMT 101800Z 12005KT 5000 BR BKN008 OVC013 15/14 Q1018","temp":15,"dewp":14,"wdir":120,"wspd":5,"visib":3.11,"altim":1018,"clouds":[{"cover":"BKN","base":800},{"cover":"OVC","base":1300}],"obsTime":1778436000},"SBAF":{"icaoId":"SBAF","flightCategory":"MVFR","rawOb":"METAR SBAF 101800Z 19012KT 9999 SCT010 OVC028 23/22 Q1015","temp":23,"dewp":22,"wdir":190,"wspd":12,"visib":"6+","altim":1015,"clouds":[{"cover":"SCT","base":1000},{"cover":"OVC","base":2800}],"obsTime":1778436000},"SBTA":{"icaoId":"SBTA","flightCategory":"MVFR","rawOb":"METAR SBTA 101800Z 26009KT 6000 SCT020 BKN100 21/16 Q1016","temp":21,"dewp":16,"wdir":260,"wspd":9,"visib":3.73,"altim":1016,"clouds":[{"cover":"SCT","base":2000},{"cover":"BKN","base":10000}],"obsTime":1778436000},"SBST":{"icaoId":"SBST","flightCategory":"LIFR","rawOb":"METAR SBST 101800Z 27003KT 1500 -DZ BR OVC007 16/16 Q1018","temp":16,"dewp":16,"wdir":270,"wspd":3,"visib":0.93,"altim":1018,"clouds":[{"cover":"OVC","base":700}],"obsTime":1778436000}}}