{"updated":1776845537,"count":50,"data":{"SBPV":{"icaoId":"SBPV","flightCategory":"VFR","rawOb":"METAR SBPV 220700Z 07005KT 9999 FEW030 23/21 Q1011","temp":23,"dewp":21,"wdir":70,"wspd":5,"visib":"6+","altim":1011,"clouds":[{"cover":"FEW","base":3000}],"obsTime":1776841200},"SBFZ":{"icaoId":"SBFZ","flightCategory":"VFR","rawOb":"METAR SBFZ 220700Z 15006KT 9999 SCT020 25/22 Q1011","temp":25,"dewp":22,"wdir":150,"wspd":6,"visib":"6+","altim":1011,"clouds":[{"cover":"SCT","base":2000}],"obsTime":1776841200},"SBMO":{"icaoId":"SBMO","flightCategory":"VFR","rawOb":"METAR SBMO 220700Z 28005KT 9999 FEW020 22/22 Q1011","temp":22,"dewp":22,"wdir":280,"wspd":5,"visib":"6+","altim":1011,"clouds":[{"cover":"FEW","base":2000}],"obsTime":1776841200},"SBGL":{"icaoId":"SBGL","flightCategory":"VFR","rawOb":"METAR SBGL 220700Z 32003KT 9999 FEW008 22/19 Q1016","temp":22,"dewp":19,"wdir":320,"wspd":3,"visib":"6+","altim":1016,"clouds":[{"cover":"FEW","base":800}],"obsTime":1776841200},"SBMQ":{"icaoId":"SBMQ","flightCategory":"MVFR","rawOb":"METAR SBMQ 220700Z 00000KT 8000 -RA FEW004 SCT012 OVC088 25/25 Q1010 RETS","temp":25,"dewp":25,"wdir":0,"wspd":0,"visib":4.97,"altim":1010,"clouds":[{"cover":"FEW","base":400},{"cover":"SCT","base":1200},{"cover":"OVC","base":8800}],"obsTime":1776841200},"SBBV":{"icaoId":"SBBV","flightCategory":"VFR","rawOb":"METAR SBBV 220700Z 09006KT 9999 SCT015 FEW045TCU BKN070 27/23 Q1009","temp":27,"dewp":23,"wdir":90,"wspd":6,"visib":"6+","altim":1009,"clouds":[{"cover":"SCT","base":1500},{"cover":"FEW","base":4500},{"cover":"BKN","base":7000}],"obsTime":1776841200},"SBNT":{"icaoId":"SBNT","flightCategory":"VFR","rawOb":"METAR SBNT 220700Z 21004KT CAVOK 24/23 Q1011","temp":24,"dewp":23,"wdir":210,"wspd":4,"visib":"6+","altim":1011,"clouds":[],"obsTime":1776841200},"SBCT":{"icaoId":"SBCT","flightCategory":"MVFR","rawOb":"METAR SBCT 220700Z 12003KT 9999 BKN011 15/15 Q1020","temp":15,"dewp":15,"wdir":120,"wspd":3,"visib":"6+","altim":1020,"clouds":[{"cover":"BKN","base":1100}],"obsTime":1776841200},"SBPA":{"icaoId":"SBPA","flightCategory":"MVFR","rawOb":"METAR SBPA 220700Z VRB01KT 6000 FEW020 BKN100 20/19 Q1013","temp":20,"dewp":19,"wdir":"VRB","wspd":1,"visib":3.73,"altim":1013,"clouds":[{"cover":"FEW","base":2000},{"cover":"BKN","base":10000}],"obsTime":1776841200},"SBGO":{"icaoId":"SBGO","flightCategory":"VFR","rawOb":"METAR SBGO 220700Z 26002KT 9999 FEW045 SCT080 21/19 Q1017","temp":21,"dewp":19,"wdir":260,"wspd":2,"visib":"6+","altim":1017,"clouds":[{"cover":"FEW","base":4500},{"cover":"SCT","base":8000}],"obsTime":1776841200},"SBPJ":{"icaoId":"SBPJ","flightCategory":"VFR","rawOb":"METAR SBPJ 220700Z 12002KT 9999 FEW009 SCT100 23/23 Q1012","temp":23,"dewp":23,"wdir":120,"wspd":2,"visib":"6+","altim":1012,"clouds":[{"cover":"FEW","base":900},{"cover":"SCT","base":10000}],"obsTime":1776841200},"SBGR":{"icaoId":"SBGR","flightCategory":"MVFR","rawOb":"METAR SBGR 220700Z 10003KT 9999 FEW013 BKN015 17/14 Q1019","temp":17,"dewp":14,"wdir":100,"wspd":3,"visib":"6+","altim":1019,"clouds":[{"cover":"FEW","base":1300},{"cover":"BKN","base":1500}],"obsTime":1776841200},"SBRB":{"icaoId":"SBRB","flightCategory":"VFR","rawOb":"METAR SBRB 220700Z 07001KT 9999 FEW016 23/22 Q1011","temp":23,"dewp":22,"wdir":70,"wspd":1,"visib":"6+","altim":1011,"clouds":[{"cover":"FEW","base":1600}],"obsTime":1776841200},"SBEG":{"icaoId":"SBEG","flightCategory":"VFR","rawOb":"METAR SBEG 220700Z 00000KT 9999 FEW010 BKN090 25/24 Q1010","temp":25,"dewp":24,"wdir":0,"wspd":0,"visib":"6+","altim":1010,"clouds":[{"cover":"FEW","base":1000},{"cover":"BKN","base":9000}],"obsTime":1776841200},"SBVT":{"icaoId":"SBVT","flightCategory":"VFR","rawOb":"METAR SBVT 220700Z 30004KT 9999 FEW025 SCT100 20/20 Q1016","temp":20,"dewp":20,"wdir":300,"wspd":4,"visib":"6+","altim":1016,"clouds":[{"cover":"FEW","base":2500},{"cover":"SCT","base":10000}],"obsTime":1776841200},"SBRF":{"icaoId":"SBRF","flightCategory":"IFR","rawOb":"SPECI SBRF 220638Z 12006KT 2000 -RA BR BKN010 BKN022 25/23 Q1011","temp":25,"dewp":23,"wdir":120,"wspd":6,"visib":1.24,"altim":1011,"clouds":[{"cover":"BKN","base":1000},{"cover":"BKN","base":2200}],"obsTime":1776839880},"SBCF":{"icaoId":"SBCF","flightCategory":"VFR","rawOb":"METAR SBCF 220700Z 17002KT CAVOK 19/17 Q1019","temp":19,"dewp":17,"wdir":170,"wspd":2,"visib":"6+","altim":1019,"clouds":[],"obsTime":1776841200},"SBSG":{"icaoId":"SBSG","flightCategory":"VFR","rawOb":"METAR SBSG 220700Z 20003KT 170V230 9999 FEW019 23/23 Q1011","temp":23,"dewp":23,"wdir":200,"wspd":3,"visib":"6+","altim":1011,"clouds":[{"cover":"FEW","base":1900}],"obsTime":1776841200},"SBJU":{"icaoId":"SBJU","flightCategory":"VFR","rawOb":"METAR SBJU 220700Z 00000KT 9999 SCT020 23/23 Q1013","temp":23,"dewp":23,"wdir":0,"wspd":0,"visib":"6+","altim":1013,"clouds":[{"cover":"SCT","base":2000}],"obsTime":1776841200},"SBSL":{"icaoId":"SBSL","flightCategory":"VFR","rawOb":"METAR SBSL 220700Z 29002KT 9999 FEW017 24/24 Q1010","temp":24,"dewp":24,"wdir":290,"wspd":2,"visib":"6+","altim":1010,"clouds":[{"cover":"FEW","base":1700}],"obsTime":1776841200},"SBBR":{"icaoId":"SBBR","flightCategory":"VFR","rawOb":"METAR SBBR 220700Z 27002KT CAVOK 19/17 Q1018","temp":19,"dewp":17,"wdir":270,"wspd":2,"visib":"6+","altim":1018,"clouds":[],"obsTime":1776841200},"SBKP":{"icaoId":"SBKP","flightCategory":"VFR","rawOb":"METAR SBKP 220700Z 12011KT CAVOK 17/15 Q1018","temp":17,"dewp":15,"wdir":120,"wspd":11,"visib":"6+","altim":1018,"clouds":[],"obsTime":1776841200},"SBSN":{"icaoId":"SBSN","flightCategory":"VFR","rawOb":"METAR SBSN 220700Z 00000KT 9999 SCT018 24/23 Q1010","temp":24,"dewp":23,"wdir":0,"wspd":0,"visib":"6+","altim":1010,"clouds":[{"cover":"SCT","base":1800}],"obsTime":1776841200},"SBFI":{"icaoId":"SBFI","flightCategory":"VFR","rawOb":"METAR SBFI 220700Z 10001KT 9999 BCFG FEW015 SCT070 21/21 Q1015","temp":21,"dewp":21,"wdir":100,"wspd":1,"visib":"6+","altim":1015,"clouds":[{"cover":"FEW","base":1500},{"cover":"SCT","base":7000}],"obsTime":1776841200},"SBSP":{"icaoId":"SBSP","flightCategory":"VFR","rawOb":"METAR SBSP 220700Z AUTO 14003KT CAVOK 15/15 Q1020","temp":15,"dewp":15,"wdir":140,"wspd":3,"visib":"6+","altim":1020,"clouds":[],"obsTime":1776841200},"SBSV":{"icaoId":"SBSV","flightCategory":"VFR","rawOb":"METAR SBSV 220700Z 12007KT 9999 SCT021 BKN070 27/23 Q1013","temp":27,"dewp":23,"wdir":120,"wspd":7,"visib":"6+","altim":1013,"clouds":[{"cover":"SCT","base":2100},{"cover":"BKN","base":7000}],"obsTime":1776841200},"SBLO":{"icaoId":"SBLO","flightCategory":"VFR","rawOb":"METAR SBLO 220700Z 21002KT CAVOK 18/14 Q1017","temp":18,"dewp":14,"wdir":210,"wspd":2,"visib":"6+","altim":1017,"clouds":[],"obsTime":1776841200},"SBTE":{"icaoId":"SBTE","flightCategory":"IFR","rawOb":"METAR SBTE 220700Z 21003KT 9999 OVC008 23/23 Q1010","temp":23,"dewp":23,"wdir":210,"wspd":3,"visib":"6+","altim":1010,"clouds":[{"cover":"OVC","base":800}],"obsTime":1776841200},"SBFL":{"icaoId":"SBFL","flightCategory":"VFR","rawOb":"METAR SBFL 220700Z 34005KT 9999 FEW010 21/20 Q1016","temp":21,"dewp":20,"wdir":340,"wspd":5,"visib":"6+","altim":1016,"clouds":[{"cover":"FEW","base":1000}],"obsTime":1776841200},"SBMA":{"icaoId":"SBMA","flightCategory":"VFR","rawOb":"METAR SBMA 220700Z 00000KT 9999 SCT020 BKN100 24/24 Q1011","temp":24,"dewp":24,"wdir":0,"wspd":0,"visib":"6+","altim":1011,"clouds":[{"cover":"SCT","base":2000},{"cover":"BKN","base":10000}],"obsTime":1776841200},"SBUL":{"icaoId":"SBUL","flightCategory":"VFR","rawOb":"METAR SBUL 220700Z 10003KT 060V130 9999 FEW045 SCT080 21/18 Q1018","temp":21,"dewp":18,"wdir":100,"wspd":3,"visib":"6+","altim":1018,"clouds":[{"cover":"FEW","base":4500},{"cover":"SCT","base":8000}],"obsTime":1776841200},"SBBE":{"icaoId":"SBBE","flightCategory":"VFR","rawOb":"METAR SBBE 220700Z 10007KT 9999 SCT006 24/23 Q1010","temp":24,"dewp":23,"wdir":100,"wspd":7,"visib":"6+","altim":1010,"clouds":[{"cover":"SCT","base":600}],"obsTime":1776841200},"SBUR":{"icaoId":"SBUR","flightCategory":"VFR","rawOb":"METAR SBUR 220700Z 02003KT CAVOK 22/18 Q1017","temp":22,"dewp":18,"wdir":20,"wspd":3,"visib":"6+","altim":1017,"clouds":[],"obsTime":1776841200},"SBME":{"icaoId":"SBME","flightCategory":"VFR","rawOb":"METAR SBME 220700Z 32005KT 9999 FEW040 20/19 Q1016","temp":20,"dewp":19,"wdir":320,"wspd":5,"visib":"6+","altim":1016,"clouds":[{"cover":"FEW","base":4000}],"obsTime":1776841200},"SBCG":{"icaoId":"SBCG","flightCategory":"VFR","rawOb":"METAR SBCG 220700Z 12005KT CAVOK 22/16 Q1015","temp":22,"dewp":16,"wdir":120,"wspd":5,"visib":"6+","altim":1015,"clouds":[],"obsTime":1776841200},"SBMK":{"icaoId":"SBMK","flightCategory":"VFR","rawOb":"METAR SBMK 220800Z 24002KT CAVOK 18/16 Q1018","temp":18,"dewp":16,"wdir":240,"wspd":2,"visib":"6+","altim":1018,"clouds":[],"obsTime":1776844800},"SBMG":{"icaoId":"SBMG","flightCategory":"VFR","rawOb":"METAR SBMG 220700Z AUTO 06005KT CAVOK 20/14 Q1016","temp":20,"dewp":14,"wdir":60,"wspd":5,"visib":"6+","altim":1016,"clouds":[],"obsTime":1776841200},"SBOI":{"icaoId":"SBOI","flightCategory":"VFR","rawOb":"METAR SBOI 220700Z AUTO VRB02KT 9999 // FEW004/// SCT017/// BKN075/// 25/24 Q1011","temp":25,"dewp":24,"wdir":"VRB","wspd":2,"visib":"6+","altim":1011,"clouds":[{"cover":"FEW","base":400},{"cover":"SCT","base":1700},{"cover":"BKN","base":7500}],"obsTime":1776841200},"SBAR":{"icaoId":"SBAR","flightCategory":"VFR","rawOb":"METAR SBAR 220700Z 31003KT 9999 FEW015 23/23 Q1012","temp":23,"dewp":23,"wdir":310,"wspd":3,"visib":"6+","altim":1012,"clouds":[{"cover":"FEW","base":1500}],"obsTime":1776841200},"SBPL":{"icaoId":"SBPL","flightCategory":"VFR","rawOb":"METAR SBPL 220700Z 13005KT 9999 FEW020 BKN070 26/20 Q1014","temp":26,"dewp":20,"wdir":130,"wspd":5,"visib":"6+","altim":1014,"clouds":[{"cover":"FEW","base":2000},{"cover":"BKN","base":7000}],"obsTime":1776841200},"SBIP":{"icaoId":"SBIP","flightCategory":"MVFR","rawOb":"METAR SBIP 220700Z AUTO VRB02KT 9999 BKN028 BKN037 21/21 Q1017","temp":21,"dewp":21,"wdir":"VRB","wspd":2,"visib":"6+","altim":1017,"clouds":[{"cover":"BKN","base":2800},{"cover":"BKN","base":3700}],"obsTime":1776841200},"SBPS":{"icaoId":"SBPS","flightCategory":"VFR","rawOb":"METAR SBPS 220700Z 27002KT 9999 SCT020 BKN100 23/21 Q1015","temp":23,"dewp":21,"wdir":270,"wspd":2,"visib":"6+","altim":1015,"clouds":[{"cover":"SCT","base":2000},{"cover":"BKN","base":10000}],"obsTime":1776841200},"SBDN":{"icaoId":"SBDN","flightCategory":"VFR","rawOb":"METAR SBDN 220700Z 11007KT CAVOK 20/14 Q1016","temp":20,"dewp":14,"wdir":110,"wspd":7,"visib":"6+","altim":1016,"clouds":[],"obsTime":1776841200},"SBSC":{"icaoId":"SBSC","flightCategory":"VFR","rawOb":"METAR SBSC 220700Z 23003KT 9999 FEW015 BKN070 21/19 Q1017","temp":21,"dewp":19,"wdir":230,"wspd":3,"visib":"6+","altim":1017,"clouds":[{"cover":"FEW","base":1500},{"cover":"BKN","base":7000}],"obsTime":1776841200},"SBKG":{"icaoId":"SBKG","flightCategory":"VFR","rawOb":"METAR SBKG 220700Z 12002KT 9999 FEW016 21/20 Q1014","temp":21,"dewp":20,"wdir":120,"wspd":2,"visib":"6+","altim":1014,"clouds":[{"cover":"FEW","base":1600}],"obsTime":1776841200},"SBSR":{"icaoId":"SBSR","flightCategory":"VFR","rawOb":"METAR SBSR 220700Z 19004KT CAVOK 19/15 Q1016","temp":19,"dewp":15,"wdir":190,"wspd":4,"visib":"6+","altim":1016,"clouds":[],"obsTime":1776841200},"SBES":{"icaoId":"SBES","flightCategory":"VFR","rawOb":"METAR SBES 220800Z 00000KT CAVOK 16/// Q1016","temp":null,"dewp":null,"wdir":0,"wspd":0,"visib":"6+","altim":1016,"clouds":[],"obsTime":1776844800},"SBJP":{"icaoId":"SBJP","flightCategory":"VFR","rawOb":"METAR SBJP 220700Z 23002KT 9999 FEW020 23/22 Q1011","temp":23,"dewp":22,"wdir":230,"wspd":2,"visib":"6+","altim":1011,"clouds":[{"cover":"FEW","base":2000}],"obsTime":1776841200},"SBAN":{"icaoId":"SBAN","flightCategory":"VFR","rawOb":"METAR SBAN 220700Z 12005KT 9999 FEW045 SCT070 19/17 Q1019","temp":19,"dewp":17,"wdir":120,"wspd":5,"visib":"6+","altim":1019,"clouds":[{"cover":"FEW","base":4500},{"cover":"SCT","base":7000}],"obsTime":1776841200},"SBLE":{"icaoId":"SBLE","flightCategory":"VFR","rawOb":"METAR SBLE 220700Z AUTO 00000KT CAVOK ///// Q////","temp":null,"dewp":null,"wdir":0,"wspd":0,"visib":"6+","altim":null,"clouds":[],"obsTime":1776841200}}}