{"updated":1784184108,"count":51,"data":{"SBRF":{"icaoId":"SBRF","flightCategory":"VFR","rawOb":"METAR SBRF 160500Z 17015KT 9999 SCT017 25/22 Q1017","temp":25,"dewp":22,"wdir":170,"wspd":15,"visib":"6+","altim":1017,"clouds":[{"cover":"SCT","base":1700}],"obsTime":1784178000},"SBSG":{"icaoId":"SBSG","flightCategory":"MVFR","rawOb":"METAR SBSG 160500Z 19004KT 6000 SCT020 23/22 Q1017","temp":23,"dewp":22,"wdir":190,"wspd":4,"visib":3.73,"altim":1017,"clouds":[{"cover":"SCT","base":2000}],"obsTime":1784178000},"SBCG":{"icaoId":"SBCG","flightCategory":"VFR","rawOb":"METAR SBCG 160500Z 06015KT CAVOK 21/12 Q1016","temp":21,"dewp":12,"wdir":60,"wspd":15,"visib":"6+","altim":1016,"clouds":[],"obsTime":1784178000},"SBGR":{"icaoId":"SBGR","flightCategory":"MVFR","rawOb":"METAR SBGR 160500Z 09005KT 8000 NSC 11/09 Q1025","temp":11,"dewp":9,"wdir":90,"wspd":5,"visib":4.97,"altim":1025,"clouds":[],"obsTime":1784178000},"SBSV":{"icaoId":"SBSV","flightCategory":"VFR","rawOb":"METAR SBSV 160500Z 17009KT 9999 FEW027 SCT050 BKN060 24/13 Q1021","temp":24,"dewp":13,"wdir":170,"wspd":9,"visib":"6+","altim":1021,"clouds":[{"cover":"FEW","base":2700},{"cover":"SCT","base":5000},{"cover":"BKN","base":6000}],"obsTime":1784178000},"SBUL":{"icaoId":"SBUL","flightCategory":"VFR","rawOb":"METAR SBUL 160500Z 11010KT CAVOK 17/10 Q1024","temp":17,"dewp":10,"wdir":110,"wspd":10,"visib":"6+","altim":1024,"clouds":[],"obsTime":1784178000},"SBFI":{"icaoId":"SBFI","flightCategory":"VFR","rawOb":"METAR SBFI 160500Z 07006KT CAVOK 16/12 Q1015","temp":16,"dewp":12,"wdir":70,"wspd":6,"visib":"6+","altim":1015,"clouds":[],"obsTime":1784178000},"SBFL":{"icaoId":"SBFL","flightCategory":"MVFR","rawOb":"METAR SBFL 160500Z 33008KT 9999 BKN023 17/15 Q1021","temp":17,"dewp":15,"wdir":330,"wspd":8,"visib":"6+","altim":1021,"clouds":[{"cover":"BKN","base":2300}],"obsTime":1784178000},"SBUR":{"icaoId":"SBUR","flightCategory":"VFR","rawOb":"METAR SBUR 160500Z 04008KT CAVOK 18/09 Q1022","temp":18,"dewp":9,"wdir":40,"wspd":8,"visib":"6+","altim":1022,"clouds":[],"obsTime":1784178000},"SBSP":{"icaoId":"SBSP","flightCategory":"VFR","rawOb":"METAR SBSP 160500Z AUTO 07004KT 020V100 CAVOK 14/11 Q1025","temp":14,"dewp":11,"wdir":70,"wspd":4,"visib":"6+","altim":1025,"clouds":[],"obsTime":1784178000},"SBJU":{"icaoId":"SBJU","flightCategory":"VFR","rawOb":"METAR SBJU 160500Z 15010KT 9999 SCT020 22/18 Q1020","temp":22,"dewp":18,"wdir":150,"wspd":10,"visib":"6+","altim":1020,"clouds":[{"cover":"SCT","base":2000}],"obsTime":1784178000},"SBGL":{"icaoId":"SBGL","flightCategory":"VFR","rawOb":"METAR SBGL 160500Z 24003KT CAVOK 15/13 Q1023","temp":15,"dewp":13,"wdir":240,"wspd":3,"visib":"6+","altim":1023,"clouds":[],"obsTime":1784178000},"SBBR":{"icaoId":"SBBR","flightCategory":"VFR","rawOb":"METAR SBBR 160500Z 11007KT CAVOK 17/13 Q1024","temp":17,"dewp":13,"wdir":110,"wspd":7,"visib":"6+","altim":1024,"clouds":[],"obsTime":1784178000},"SBRB":{"icaoId":"SBRB","flightCategory":"VFR","rawOb":"METAR SBRB 160500Z 32001KT 9999 VV001 23/22 Q1013","temp":23,"dewp":22,"wdir":320,"wspd":1,"visib":"6+","altim":1013,"clouds":[{"cover":"OVX","base":100}],"obsTime":1784178000},"SBFZ":{"icaoId":"SBFZ","flightCategory":"VFR","rawOb":"METAR SBFZ 160500Z 12016KT 9999 FEW020 SCT070 27/22 Q1015","temp":27,"dewp":22,"wdir":120,"wspd":16,"visib":"6+","altim":1015,"clouds":[{"cover":"FEW","base":2000},{"cover":"SCT","base":7000}],"obsTime":1784178000},"SBPJ":{"icaoId":"SBPJ","flightCategory":"VFR","rawOb":"METAR SBPJ 160500Z 33004KT 9999 SCT013 BKN100 25/23 Q1016","temp":25,"dewp":23,"wdir":330,"wspd":4,"visib":"6+","altim":1016,"clouds":[{"cover":"SCT","base":1300},{"cover":"BKN","base":10000}],"obsTime":1784178000},"SBSL":{"icaoId":"SBSL","flightCategory":"VFR","rawOb":"METAR SBSL 160500Z 09004KT 060V130 9999 SCT020 26/24 Q1014","temp":26,"dewp":24,"wdir":90,"wspd":4,"visib":"6+","altim":1014,"clouds":[{"cover":"SCT","base":2000}],"obsTime":1784178000},"SBBV":{"icaoId":"SBBV","flightCategory":"VFR","rawOb":"METAR SBBV 160500Z 14003KT CAVOK 27/23 Q1013","temp":27,"dewp":23,"wdir":140,"wspd":3,"visib":"6+","altim":1013,"clouds":[],"obsTime":1784178000},"SBNT":{"icaoId":"SBNT","flightCategory":"VFR","rawOb":"METAR SBNT 160500Z 19006KT 9000 VCSH FEW015 SCT017 23/22 Q1017","temp":23,"dewp":22,"wdir":190,"wspd":6,"visib":5.59,"altim":1017,"clouds":[{"cover":"FEW","base":1500},{"cover":"SCT","base":1700}],"obsTime":1784178000},"SBPV":{"icaoId":"SBPV","flightCategory":"VFR","rawOb":"METAR SBPV 160500Z 07001KT 9999 SCT030 BKN080 25/23 Q1013","temp":25,"dewp":23,"wdir":70,"wspd":1,"visib":"6+","altim":1013,"clouds":[{"cover":"SCT","base":3000},{"cover":"BKN","base":8000}],"obsTime":1784178000},"SBMG":{"icaoId":"SBMG","flightCategory":"VFR","rawOb":"METAR SBMG 160500Z AUTO 07015KT CAVOK 17/11 Q1018","temp":17,"dewp":11,"wdir":70,"wspd":15,"visib":"6+","altim":1018,"clouds":[],"obsTime":1784178000},"SBCF":{"icaoId":"SBCF","flightCategory":"VFR","rawOb":"METAR SBCF 160500Z 13008KT CAVOK 12/09 Q1026","temp":12,"dewp":9,"wdir":130,"wspd":8,"visib":"6+","altim":1026,"clouds":[],"obsTime":1784178000},"SBCT":{"icaoId":"SBCT","flightCategory":"LIFR","rawOb":"METAR SBCT 160500Z 04003KT 9999 OVC003 12/12 Q1024","temp":12,"dewp":12,"wdir":40,"wspd":3,"visib":"6+","altim":1024,"clouds":[{"cover":"OVC","base":300}],"obsTime":1784178000},"SBEG":{"icaoId":"SBEG","flightCategory":"VFR","rawOb":"METAR SBEG 160500Z 31002KT CAVOK 25/23 Q1013","temp":25,"dewp":23,"wdir":310,"wspd":2,"visib":"6+","altim":1013,"clouds":[],"obsTime":1784178000},"SBBE":{"icaoId":"SBBE","flightCategory":"VFR","rawOb":"METAR SBBE 160500Z 07006KT CAVOK 25/23 Q1015","temp":25,"dewp":23,"wdir":70,"wspd":6,"visib":"6+","altim":1015,"clouds":[],"obsTime":1784178000},"SBPA":{"icaoId":"SBPA","flightCategory":"VFR","rawOb":"METAR SBPA 160500Z 08002KT CAVOK 10/10 Q1015","temp":10,"dewp":10,"wdir":80,"wspd":2,"visib":"6+","altim":1015,"clouds":[],"obsTime":1784178000},"SBMA":{"icaoId":"SBMA","flightCategory":"VFR","rawOb":"METAR SBMA 160500Z 06006KT 9999 FEW010 24/22 Q1015","temp":24,"dewp":22,"wdir":60,"wspd":6,"visib":"6+","altim":1015,"clouds":[{"cover":"FEW","base":1000}],"obsTime":1784178000},"SBMQ":{"icaoId":"SBMQ","flightCategory":"MVFR","rawOb":"METAR SBMQ 160500Z 06008KT 9999 BKN017 28/25 Q1014","temp":28,"dewp":25,"wdir":60,"wspd":8,"visib":"6+","altim":1014,"clouds":[{"cover":"BKN","base":1700}],"obsTime":1784178000},"SBMO":{"icaoId":"SBMO","flightCategory":"MVFR","rawOb":"METAR SBMO 160500Z 19003KT 5000 -RA SCT005 BKN010 BKN030 22/22 Q1019","temp":22,"dewp":22,"wdir":190,"wspd":3,"visib":3.11,"altim":1019,"clouds":[{"cover":"SCT","base":500},{"cover":"BKN","base":1000},{"cover":"BKN","base":3000}],"obsTime":1784178000},"SBGO":{"icaoId":"SBGO","flightCategory":"VFR","rawOb":"METAR SBGO 160500Z 10006KT 050V140 CAVOK 22/14 Q1021","temp":22,"dewp":14,"wdir":100,"wspd":6,"visib":"6+","altim":1021,"clouds":[],"obsTime":1784178000},"SBTE":{"icaoId":"SBTE","flightCategory":"VFR","rawOb":"METAR SBTE 160500Z 04002KT CAVOK 25/23 Q1015","temp":25,"dewp":23,"wdir":40,"wspd":2,"visib":"6+","altim":1015,"clouds":[],"obsTime":1784178000},"SBSN":{"icaoId":"SBSN","flightCategory":"VFR","rawOb":"METAR SBSN 160500Z 15004KT 9999 FEW040 25/24 Q1013","temp":25,"dewp":24,"wdir":150,"wspd":4,"visib":"6+","altim":1013,"clouds":[{"cover":"FEW","base":4000}],"obsTime":1784178000},"SBVT":{"icaoId":"SBVT","flightCategory":"VFR","rawOb":"METAR SBVT 160500Z 30002KT 9999 BKN035 BKN044 16/15 Q1025","temp":16,"dewp":15,"wdir":300,"wspd":2,"visib":"6+","altim":1025,"clouds":[{"cover":"BKN","base":3500},{"cover":"BKN","base":4400}],"obsTime":1784178000},"SBLO":{"icaoId":"SBLO","flightCategory":"VFR","rawOb":"METAR SBLO 160500Z 15002KT CAVOK 13/11 Q1021","temp":13,"dewp":11,"wdir":150,"wspd":2,"visib":"6+","altim":1021,"clouds":[],"obsTime":1784178000},"SBKP":{"icaoId":"SBKP","flightCategory":"VFR","rawOb":"METAR SBKP 160500Z 12007KT CAVOK 13/08 Q1023","temp":13,"dewp":8,"wdir":120,"wspd":7,"visib":"6+","altim":1023,"clouds":[],"obsTime":1784178000},"SBME":{"icaoId":"SBME","flightCategory":"VFR","rawOb":"METAR SBME 160500Z 01005KT CAVOK 15/12 Q1025","temp":15,"dewp":12,"wdir":10,"wspd":5,"visib":"6+","altim":1025,"clouds":[],"obsTime":1784178000},"SBIP":{"icaoId":"SBIP","flightCategory":"LIFR","rawOb":"METAR SBIP 160500Z AUTO 00000KT 1300 BR NSC 11/11 Q1026","temp":11,"dewp":11,"wdir":0,"wspd":0,"visib":0.81,"altim":1026,"clouds":[],"obsTime":1784178000},"SBPS":{"icaoId":"SBPS","flightCategory":"VFR","rawOb":"METAR SBPS 160500Z 25007KT 9999 BKN040 18/16 Q1024","temp":18,"dewp":16,"wdir":250,"wspd":7,"visib":"6+","altim":1024,"clouds":[{"cover":"BKN","base":4000}],"obsTime":1784178000},"SBAX":{"icaoId":"SBAX","flightCategory":"VFR","rawOb":"METAR SBAX 160500Z AUTO 12007KT CAVOK 13/09 Q1025","temp":13,"dewp":9,"wdir":120,"wspd":7,"visib":"6+","altim":1025,"clouds":[],"obsTime":1784178000},"SBOI":{"icaoId":"SBOI","flightCategory":"VFR","rawOb":"METAR SBOI 160500Z AUTO 00000KT CAVOK 24/23 Q1014","temp":24,"dewp":23,"wdir":0,"wspd":0,"visib":"6+","altim":1014,"clouds":[],"obsTime":1784178000},"SBDN":{"icaoId":"SBDN","flightCategory":"VFR","rawOb":"METAR SBDN 160500Z 08008KT CAVOK 18/09 Q1019","temp":18,"dewp":9,"wdir":80,"wspd":8,"visib":"6+","altim":1019,"clouds":[],"obsTime":1784178000},"SBSC":{"icaoId":"SBSC","flightCategory":"VFR","rawOb":"METAR SBSC 160500Z 33004KT CAVOK 16/14 Q1022","temp":16,"dewp":14,"wdir":330,"wspd":4,"visib":"6+","altim":1022,"clouds":[],"obsTime":1784178000},"SBSR":{"icaoId":"SBSR","flightCategory":"VFR","rawOb":"METAR SBSR 160500Z 10007KT CAVOK 18/08 Q1021","temp":18,"dewp":8,"wdir":100,"wspd":7,"visib":"6+","altim":1021,"clouds":[],"obsTime":1784178000},"SBKG":{"icaoId":"SBKG","flightCategory":"VFR","rawOb":"METAR SBKG 160500Z 17004KT 9999 SCT015 21/19 Q1020","temp":21,"dewp":19,"wdir":170,"wspd":4,"visib":"6+","altim":1020,"clouds":[{"cover":"SCT","base":1500}],"obsTime":1784178000},"SBAR":{"icaoId":"SBAR","flightCategory":"VFR","rawOb":"METAR SBAR 160500Z 15012KT 9999 FEW040 25/17 Q1020","temp":25,"dewp":17,"wdir":150,"wspd":12,"visib":"6+","altim":1020,"clouds":[{"cover":"FEW","base":4000}],"obsTime":1784178000},"SBPL":{"icaoId":"SBPL","flightCategory":"VFR","rawOb":"METAR SBPL 160500Z 12012KT 9999 SCT022 21/17 Q1020","temp":21,"dewp":17,"wdir":120,"wspd":12,"visib":"6+","altim":1020,"clouds":[{"cover":"SCT","base":2200}],"obsTime":1784178000},"SBTU":{"icaoId":"SBTU","flightCategory":"VFR","rawOb":"METAR SBTU 160500Z AUTO 28006KT 240V300 9999 // SCT034/// SCT046/// OVC057/// 26/22 Q1016","temp":26,"dewp":22,"wdir":280,"wspd":6,"visib":"6+","altim":1016,"clouds":[{"cover":"SCT","base":3400},{"cover":"SCT","base":4600},{"cover":"OVC","base":5700}],"obsTime":1784178000},"SBJP":{"icaoId":"SBJP","flightCategory":"MVFR","rawOb":"METAR SBJP 160500Z 17006KT 9999 BKN030 SCT070 23/22 Q1017","temp":23,"dewp":22,"wdir":170,"wspd":6,"visib":"6+","altim":1017,"clouds":[{"cover":"BKN","base":3000},{"cover":"SCT","base":7000}],"obsTime":1784178000},"SBAN":{"icaoId":"SBAN","flightCategory":"VFR","rawOb":"METAR SBAN 160500Z 09005KT CAVOK 17/13 Q1024","temp":17,"dewp":13,"wdir":90,"wspd":5,"visib":"6+","altim":1024,"clouds":[],"obsTime":1784178000},"SBNM":{"icaoId":"SBNM","flightCategory":"VFR","rawOb":"METAR SBNM 160500Z AUTO 05006KT CAVOK 16/09 Q1014","temp":16,"dewp":9,"wdir":50,"wspd":6,"visib":"6+","altim":1014,"clouds":[],"obsTime":1784178000},"SBLE":{"icaoId":"SBLE","flightCategory":"MVFR","rawOb":"METAR SBLE 160500Z AUTO 14004KT 9999 OVC025 ///// Q1024","temp":null,"dewp":null,"wdir":140,"wspd":4,"visib":"6+","altim":1024,"clouds":[{"cover":"OVC","base":2500}],"obsTime":1784178000}}}