{"updated":1776727894,"count":71,"data":{"SBSL":{"icaoId":"SBSL","flightCategory":"MVFR","rawOb":"METAR SBSL 202200Z 07003KT 9999 -RA SCT018 BKN027 24/24 Q1010","temp":24,"dewp":24,"wdir":70,"wspd":3,"visib":"6+","altim":1010,"clouds":[{"cover":"SCT","base":1800},{"cover":"BKN","base":2700}],"obsTime":1776722400},"SBBE":{"icaoId":"SBBE","flightCategory":"VFR","rawOb":"METAR SBBE 202200Z 04005KT 9999 BKN043 28/25 Q1009","temp":28,"dewp":25,"wdir":40,"wspd":5,"visib":"6+","altim":1009,"clouds":[{"cover":"BKN","base":4300}],"obsTime":1776722400},"SBBR":{"icaoId":"SBBR","flightCategory":"VFR","rawOb":"METAR SBBR 202200Z VRB01KT 9999 VCSH FEW045 FEW050TCU SCT070 26/15 Q1017","temp":26,"dewp":15,"wdir":"VRB","wspd":1,"visib":"6+","altim":1017,"clouds":[{"cover":"FEW","base":4500},{"cover":"FEW","base":5000},{"cover":"SCT","base":7000}],"obsTime":1776722400},"SBRF":{"icaoId":"SBRF","flightCategory":"VFR","rawOb":"METAR SBRF 202200Z 20001KT 9999 FEW020 27/24 Q1011","temp":27,"dewp":24,"wdir":200,"wspd":1,"visib":"6+","altim":1011,"clouds":[{"cover":"FEW","base":2000}],"obsTime":1776722400},"SBBV":{"icaoId":"SBBV","flightCategory":"VFR","rawOb":"METAR SBBV 202200Z 15006KT 9999 SCT035 FEW040TCU 31/22 Q1008","temp":31,"dewp":22,"wdir":150,"wspd":6,"visib":"6+","altim":1008,"clouds":[{"cover":"SCT","base":3500},{"cover":"FEW","base":4000}],"obsTime":1776722400},"SBCF":{"icaoId":"SBCF","flightCategory":"VFR","rawOb":"METAR SBCF 202200Z 08004KT 9999 VCTS SCT040 FEW045CB 25/18 Q1017","temp":25,"dewp":18,"wdir":80,"wspd":4,"visib":"6+","altim":1017,"clouds":[{"cover":"SCT","base":4000},{"cover":"FEW","base":4500}],"obsTime":1776722400},"SBCG":{"icaoId":"SBCG","flightCategory":"VFR","rawOb":"METAR SBCG 202200Z 04003KT 330V070 9999 VCTS SCT040 FEW045CB SCT080 22/20 Q1012 RETS","temp":22,"dewp":20,"wdir":40,"wspd":3,"visib":"6+","altim":1012,"clouds":[{"cover":"SCT","base":4000},{"cover":"FEW","base":4500},{"cover":"SCT","base":8000}],"obsTime":1776722400},"SBCT":{"icaoId":"SBCT","flightCategory":"VFR","rawOb":"METAR SBCT 202200Z 10005KT CAVOK 17/16 Q1019","temp":17,"dewp":16,"wdir":100,"wspd":5,"visib":"6+","altim":1019,"clouds":[],"obsTime":1776722400},"SBCZ":{"icaoId":"SBCZ","flightCategory":"VFR","rawOb":"METAR SBCZ 202200Z 30006KT 9999 -TSRA SCT015 SCT025 FEW025CB 24/23 Q1008 RERA","temp":24,"dewp":23,"wdir":300,"wspd":6,"visib":"6+","altim":1008,"clouds":[{"cover":"SCT","base":1500},{"cover":"SCT","base":2500},{"cover":"FEW","base":2500}],"obsTime":1776722400},"SBEG":{"icaoId":"SBEG","flightCategory":"VFR","rawOb":"METAR SBEG 202200Z 07005KT 9999 FEW010 FEW025TCU SCT100 25/24 Q1010","temp":25,"dewp":24,"wdir":70,"wspd":5,"visib":"6+","altim":1010,"clouds":[{"cover":"FEW","base":1000},{"cover":"FEW","base":2500},{"cover":"SCT","base":10000}],"obsTime":1776722400},"SBFI":{"icaoId":"SBFI","flightCategory":"VFR","rawOb":"METAR SBFI 202200Z 10003KT 9999 FEW030 26/25 Q1011","temp":26,"dewp":25,"wdir":100,"wspd":3,"visib":"6+","altim":1011,"clouds":[{"cover":"FEW","base":3000}],"obsTime":1776722400},"SBFL":{"icaoId":"SBFL","flightCategory":"VFR","rawOb":"METAR SBFL 202200Z 12006KT CAVOK 22/19 Q1016","temp":22,"dewp":19,"wdir":120,"wspd":6,"visib":"6+","altim":1016,"clouds":[],"obsTime":1776722400},"SBFZ":{"icaoId":"SBFZ","flightCategory":"VFR","rawOb":"METAR SBFZ 202200Z 16002KT CAVOK 26/24 Q1010","temp":26,"dewp":24,"wdir":160,"wspd":2,"visib":"6+","altim":1010,"clouds":[],"obsTime":1776722400},"SBGL":{"icaoId":"SBGL","flightCategory":"VFR","rawOb":"METAR SBGL 202200Z 19005KT 9999 SCT035 24/19 Q1015","temp":24,"dewp":19,"wdir":190,"wspd":5,"visib":"6+","altim":1015,"clouds":[{"cover":"SCT","base":3500}],"obsTime":1776722400},"SBGO":{"icaoId":"SBGO","flightCategory":"VFR","rawOb":"METAR SBGO 202200Z 35005KT 300V030 9999 FEW045 FEW048TCU SCT070 26/19 Q1014","temp":26,"dewp":19,"wdir":350,"wspd":5,"visib":"6+","altim":1014,"clouds":[{"cover":"FEW","base":4500},{"cover":"FEW","base":4800},{"cover":"SCT","base":7000}],"obsTime":1776722400},"SBGR":{"icaoId":"SBGR","flightCategory":"VFR","rawOb":"METAR SBGR 202200Z 16006KT CAVOK 19/13 Q1019","temp":19,"dewp":13,"wdir":160,"wspd":6,"visib":"6+","altim":1019,"clouds":[],"obsTime":1776722400},"SBIL":{"icaoId":"SBIL","flightCategory":"VFR","rawOb":"METAR SBIL 202200Z 17007KT 9999 SCT023 29/23 Q1013","temp":29,"dewp":23,"wdir":170,"wspd":7,"visib":"6+","altim":1013,"clouds":[{"cover":"SCT","base":2300}],"obsTime":1776722400},"SBJU":{"icaoId":"SBJU","flightCategory":"VFR","rawOb":"METAR SBJU 202200Z 00000KT 9999 SCT020 26/22 Q1012","temp":26,"dewp":22,"wdir":0,"wspd":0,"visib":"6+","altim":1012,"clouds":[{"cover":"SCT","base":2000}],"obsTime":1776722400},"SBKP":{"icaoId":"SBKP","flightCategory":"VFR","rawOb":"METAR SBKP 202200Z 13008KT CAVOK 23/14 Q1017","temp":23,"dewp":14,"wdir":130,"wspd":8,"visib":"6+","altim":1017,"clouds":[],"obsTime":1776722400},"SBLO":{"icaoId":"SBLO","flightCategory":"VFR","rawOb":"METAR SBLO 202200Z 08003KT CAVOK 26/17 Q1015","temp":26,"dewp":17,"wdir":80,"wspd":3,"visib":"6+","altim":1015,"clouds":[],"obsTime":1776722400},"SBMA":{"icaoId":"SBMA","flightCategory":"VFR","rawOb":"METAR SBMA 202200Z 20004KT 9999 FEW020 FEW025TCU BKN100 26/24 Q1009","temp":26,"dewp":24,"wdir":200,"wspd":4,"visib":"6+","altim":1009,"clouds":[{"cover":"FEW","base":2000},{"cover":"FEW","base":2500},{"cover":"BKN","base":10000}],"obsTime":1776722400},"SBME":{"icaoId":"SBME","flightCategory":"VFR","rawOb":"METAR SBME 202200Z 23007KT 9999 SCT040 25/19 Q1015","temp":25,"dewp":19,"wdir":230,"wspd":7,"visib":"6+","altim":1015,"clouds":[{"cover":"SCT","base":4000}],"obsTime":1776722400},"SBMG":{"icaoId":"SBMG","flightCategory":"VFR","rawOb":"METAR SBMG 202200Z 03006KT CAVOK 25/18 Q1014","temp":25,"dewp":18,"wdir":30,"wspd":6,"visib":"6+","altim":1014,"clouds":[],"obsTime":1776722400},"SBMK":{"icaoId":"SBMK","flightCategory":"VFR","rawOb":"METAR SBMK 202200Z 10004KT CAVOK 25/19 Q1015","temp":25,"dewp":19,"wdir":100,"wspd":4,"visib":"6+","altim":1015,"clouds":[],"obsTime":1776722400},"SBMO":{"icaoId":"SBMO","flightCategory":"VFR","rawOb":"METAR SBMO 202200Z 32001KT 9999 SCT025 25/24 Q1011","temp":25,"dewp":24,"wdir":320,"wspd":1,"visib":"6+","altim":1011,"clouds":[{"cover":"SCT","base":2500}],"obsTime":1776722400},"SBMQ":{"icaoId":"SBMQ","flightCategory":"VFR","rawOb":"METAR SBMQ 202200Z 08003KT 9999 FEW025 28/24 Q1009","temp":28,"dewp":24,"wdir":80,"wspd":3,"visib":"6+","altim":1009,"clouds":[{"cover":"FEW","base":2500}],"obsTime":1776722400},"SBNT":{"icaoId":"SBNT","flightCategory":"VFR","rawOb":"METAR SBNT 202200Z 15003KT 9999 FEW022 SCT080 26/25 Q1010","temp":26,"dewp":25,"wdir":150,"wspd":3,"visib":"6+","altim":1010,"clouds":[{"cover":"FEW","base":2200},{"cover":"SCT","base":8000}],"obsTime":1776722400},"SBPA":{"icaoId":"SBPA","flightCategory":"VFR","rawOb":"METAR SBPA 202200Z 11012KT CAVOK 22/18 Q1014","temp":22,"dewp":18,"wdir":110,"wspd":12,"visib":"6+","altim":1014,"clouds":[],"obsTime":1776722400},"SBPJ":{"icaoId":"SBPJ","flightCategory":"VFR","rawOb":"METAR SBPJ 202200Z 18006KT 9999 FEW030 FEW035TCU 26/23 Q1011","temp":26,"dewp":23,"wdir":180,"wspd":6,"visib":"6+","altim":1011,"clouds":[{"cover":"FEW","base":3000},{"cover":"FEW","base":3500}],"obsTime":1776722400},"SBPV":{"icaoId":"SBPV","flightCategory":"VFR","rawOb":"METAR SBPV 202200Z 33002KT 9999 FEW030 27/23 Q1007","temp":27,"dewp":23,"wdir":330,"wspd":2,"visib":"6+","altim":1007,"clouds":[{"cover":"FEW","base":3000}],"obsTime":1776722400},"SBRB":{"icaoId":"SBRB","flightCategory":"VFR","rawOb":"METAR SBRB 202200Z COR 31001KT 9999 VCSH SCT006 SCT040 FEW042TCU 28/24 Q1009","temp":28,"dewp":24,"wdir":310,"wspd":1,"visib":"6+","altim":1009,"clouds":[{"cover":"SCT","base":600},{"cover":"SCT","base":4000},{"cover":"FEW","base":4200}],"obsTime":1776722400},"SBSG":{"icaoId":"SBSG","flightCategory":"VFR","rawOb":"METAR SBSG 202200Z VRB02KT 9999 SCT040 26/25 Q1011","temp":26,"dewp":25,"wdir":"VRB","wspd":2,"visib":"6+","altim":1011,"clouds":[{"cover":"SCT","base":4000}],"obsTime":1776722400},"SBSN":{"icaoId":"SBSN","flightCategory":"VFR","rawOb":"METAR SBSN 202200Z 24002KT 9999 FEW020 27/25 Q1008","temp":27,"dewp":25,"wdir":240,"wspd":2,"visib":"6+","altim":1008,"clouds":[{"cover":"FEW","base":2000}],"obsTime":1776722400},"SBSP":{"icaoId":"SBSP","flightCategory":"VFR","rawOb":"METAR SBSP 202200Z 15009KT CAVOK 18/14 Q1020","temp":18,"dewp":14,"wdir":150,"wspd":9,"visib":"6+","altim":1020,"clouds":[],"obsTime":1776722400},"SBSV":{"icaoId":"SBSV","flightCategory":"VFR","rawOb":"METAR SBSV 202200Z 14007KT 120V180 9999 SCT023 28/23 Q1012","temp":28,"dewp":23,"wdir":140,"wspd":7,"visib":"6+","altim":1012,"clouds":[{"cover":"SCT","base":2300}],"obsTime":1776722400},"SBTE":{"icaoId":"SBTE","flightCategory":"VFR","rawOb":"METAR SBTE 202200Z 17006KT 9999 VCTS FEW025CB BKN100 27/24 Q1009","temp":27,"dewp":24,"wdir":170,"wspd":6,"visib":"6+","altim":1009,"clouds":[{"cover":"FEW","base":2500},{"cover":"BKN","base":10000}],"obsTime":1776722400},"SBUL":{"icaoId":"SBUL","flightCategory":"VFR","rawOb":"METAR SBUL 202200Z 23005KT CAVOK 25/16 Q1016","temp":25,"dewp":16,"wdir":230,"wspd":5,"visib":"6+","altim":1016,"clouds":[],"obsTime":1776722400},"SBUR":{"icaoId":"SBUR","flightCategory":"VFR","rawOb":"METAR SBUR 202200Z 18004KT CAVOK 26/16 Q1015","temp":26,"dewp":16,"wdir":180,"wspd":4,"visib":"6+","altim":1015,"clouds":[],"obsTime":1776722400},"SBVT":{"icaoId":"SBVT","flightCategory":"VFR","rawOb":"METAR SBVT 202200Z 19006KT 9999 SCT049 25/20 Q1014","temp":25,"dewp":20,"wdir":190,"wspd":6,"visib":"6+","altim":1014,"clouds":[{"cover":"SCT","base":4900}],"obsTime":1776722400},"SBCP":{"icaoId":"SBCP","flightCategory":"VFR","rawOb":"METAR SBCP 202200Z 19005KT CAVOK 23/19 Q1015","temp":23,"dewp":19,"wdir":190,"wspd":5,"visib":"6+","altim":1015,"clouds":[],"obsTime":1776722400},"SBAR":{"icaoId":"SBAR","flightCategory":"VFR","rawOb":"METAR SBAR 202200Z 11004KT 9999 FEW020 27/23 Q1011","temp":27,"dewp":23,"wdir":110,"wspd":4,"visib":"6+","altim":1011,"clouds":[{"cover":"FEW","base":2000}],"obsTime":1776722400},"SBAX":{"icaoId":"SBAX","flightCategory":"VFR","rawOb":"METAR SBAX 202200Z 17005KT 9999 FEW040 25/13 Q1017","temp":25,"dewp":13,"wdir":170,"wspd":5,"visib":"6+","altim":1017,"clouds":[{"cover":"FEW","base":4000}],"obsTime":1776722400},"SBBH":{"icaoId":"SBBH","flightCategory":"VFR","rawOb":"METAR SBBH 202200Z 02005KT 9999 VCTS FEW040CB SCT045 22/19 Q1016 RETS","temp":22,"dewp":19,"wdir":20,"wspd":5,"visib":"6+","altim":1016,"clouds":[{"cover":"FEW","base":4000},{"cover":"SCT","base":4500}],"obsTime":1776722400},"SBBU":{"icaoId":"SBBU","flightCategory":"VFR","rawOb":"METAR SBBU 202200Z 13006KT CAVOK 24/14 Q1016","temp":24,"dewp":14,"wdir":130,"wspd":6,"visib":"6+","altim":1016,"clouds":[],"obsTime":1776722400},"SBCO":{"icaoId":"SBCO","flightCategory":"VFR","rawOb":"METAR SBCO 202200Z 10010KT CAVOK 21/18 Q1014","temp":21,"dewp":18,"wdir":100,"wspd":10,"visib":"6+","altim":1014,"clouds":[],"obsTime":1776722400},"SBDN":{"icaoId":"SBDN","flightCategory":"VFR","rawOb":"METAR SBDN 202200Z 08004KT CAVOK 27/15 Q1014","temp":27,"dewp":15,"wdir":80,"wspd":4,"visib":"6+","altim":1014,"clouds":[],"obsTime":1776722400},"SBES":{"icaoId":"SBES","flightCategory":"VFR","rawOb":"METAR SBES 202200Z 24008KT 170V290 CAVOK 23/// Q1015","temp":null,"dewp":null,"wdir":240,"wspd":8,"visib":"6+","altim":1015,"clouds":[],"obsTime":1776722400},"SBIP":{"icaoId":"SBIP","flightCategory":"VFR","rawOb":"METAR SBIP 202200Z AUTO 00000KT CAVOK 22/21 Q1013","temp":22,"dewp":21,"wdir":0,"wspd":0,"visib":"6+","altim":1013,"clouds":[],"obsTime":1776722400},"SBKG":{"icaoId":"SBKG","flightCategory":"VFR","rawOb":"METAR SBKG 202200Z 09006KT 9999 FEW015 SCT070 23/22 Q1013","temp":23,"dewp":22,"wdir":90,"wspd":6,"visib":"6+","altim":1013,"clouds":[{"cover":"FEW","base":1500},{"cover":"SCT","base":7000}],"obsTime":1776722400},"SBOI":{"icaoId":"SBOI","flightCategory":"VFR","rawOb":"METAR SBOI 202200Z AUTO VRB02KT 9999 -RA FEW022 25/24 Q1010","temp":25,"dewp":24,"wdir":"VRB","wspd":2,"visib":"6+","altim":1010,"clouds":[{"cover":"FEW","base":2200}],"obsTime":1776722400},"SBPL":{"icaoId":"SBPL","flightCategory":"VFR","rawOb":"METAR SBPL 202200Z 12003KT 9999 FEW020 SCT070 26/23 Q1011","temp":26,"dewp":23,"wdir":120,"wspd":3,"visib":"6+","altim":1011,"clouds":[{"cover":"FEW","base":2000},{"cover":"SCT","base":7000}],"obsTime":1776722400},"SBPS":{"icaoId":"SBPS","flightCategory":"VFR","rawOb":"METAR SBPS 202200Z 14003KT 9999 SCT020 26/23 Q1014","temp":26,"dewp":23,"wdir":140,"wspd":3,"visib":"6+","altim":1014,"clouds":[{"cover":"SCT","base":2000}],"obsTime":1776722400},"SBSC":{"icaoId":"SBSC","flightCategory":"VFR","rawOb":"METAR SBSC 202200Z 21006KT 9999 SCT016 23/20 Q1016","temp":23,"dewp":20,"wdir":210,"wspd":6,"visib":"6+","altim":1016,"clouds":[{"cover":"SCT","base":1600}],"obsTime":1776722400},"SBSJ":{"icaoId":"SBSJ","flightCategory":"VFR","rawOb":"METAR SBSJ 202200Z 15006KT CAVOK 19/16 Q1018","temp":19,"dewp":16,"wdir":150,"wspd":6,"visib":"6+","altim":1018,"clouds":[],"obsTime":1776722400},"SBSM":{"icaoId":"SBSM","flightCategory":"VFR","rawOb":"METAR SBSM 202200Z VRB02KT 9999 SCT045 BKN100 22/19 Q1015","temp":22,"dewp":19,"wdir":"VRB","wspd":2,"visib":"6+","altim":1015,"clouds":[{"cover":"SCT","base":4500},{"cover":"BKN","base":10000}],"obsTime":1776722400},"SBSR":{"icaoId":"SBSR","flightCategory":"VFR","rawOb":"METAR SBSR 202200Z 19007KT CAVOK 27/15 Q1014","temp":27,"dewp":15,"wdir":190,"wspd":7,"visib":"6+","altim":1014,"clouds":[],"obsTime":1776722400},"SBTT":{"icaoId":"SBTT","flightCategory":"VFR","rawOb":"METAR SBTT 202200Z 25001KT 9999 FEW020 FEW022TCU 29/24 Q1007","temp":29,"dewp":24,"wdir":250,"wspd":1,"visib":"6+","altim":1007,"clouds":[{"cover":"FEW","base":2000},{"cover":"FEW","base":2200}],"obsTime":1776722400},"SBVH":{"icaoId":"SBVH","flightCategory":"LIFR","rawOb":"METAR SBVH 202200Z /////KT 0800 +TSRA BKN011 BKN030 FEW035CB OVC040 ///// Q//// RESHRA","temp":null,"dewp":null,"wdir":null,"wspd":null,"visib":0.5,"altim":null,"clouds":[{"cover":"BKN","base":1100},{"cover":"BKN","base":3000},{"cover":"FEW","base":3500},{"cover":"OVC","base":4000}],"obsTime":1776722400},"SBTF":{"icaoId":"SBTF","flightCategory":"VFR","rawOb":"METAR SBTF 202200Z 12005KT 9999 FEW016 30/26 Q1007","temp":30,"dewp":26,"wdir":120,"wspd":5,"visib":"6+","altim":1007,"clouds":[{"cover":"FEW","base":1600}],"obsTime":1776722400},"SBUY":{"icaoId":"SBUY","flightCategory":"VFR","rawOb":"METAR SBUY 202200Z 17002KT 9999 FEW040 27/25 Q1006","temp":27,"dewp":25,"wdir":170,"wspd":2,"visib":"6+","altim":1006,"clouds":[{"cover":"FEW","base":4000}],"obsTime":1776722400},"SBPB":{"icaoId":"SBPB","flightCategory":"MVFR","rawOb":"SPECI SBPB 202145Z 12006KT 9999 BKN020 27/25 Q1010","temp":27,"dewp":25,"wdir":120,"wspd":6,"visib":"6+","altim":1010,"clouds":[{"cover":"BKN","base":2000}],"obsTime":1776721500},"SBAF":{"icaoId":"SBAF","flightCategory":"VFR","rawOb":"METAR SBAF 202200Z 22008KT 9999 FEW040 23/23 Q1016","temp":23,"dewp":23,"wdir":220,"wspd":8,"visib":"6+","altim":1016,"clouds":[{"cover":"FEW","base":4000}],"obsTime":1776722400},"SBJR":{"icaoId":"SBJR","flightCategory":"VFR","rawOb":"METAR SBJR 202200Z 22003KT 9999 FEW020 23/20 Q1016","temp":23,"dewp":20,"wdir":220,"wspd":3,"visib":"6+","altim":1016,"clouds":[{"cover":"FEW","base":2000}],"obsTime":1776722400},"SBLS":{"icaoId":"SBLS","flightCategory":"MVFR","rawOb":"METAR SBLS 202200Z 17010KT 8000 -TSRA SCT045 FEW048CB SCT080 24/19 Q1016","temp":24,"dewp":19,"wdir":170,"wspd":10,"visib":4.97,"altim":1016,"clouds":[{"cover":"SCT","base":4500},{"cover":"FEW","base":4800},{"cover":"SCT","base":8000}],"obsTime":1776722400},"SBMT":{"icaoId":"SBMT","flightCategory":"VFR","rawOb":"METAR SBMT 202200Z 13009KT CAVOK 19/13 Q1019","temp":19,"dewp":13,"wdir":130,"wspd":9,"visib":"6+","altim":1019,"clouds":[],"obsTime":1776722400},"SBJV":{"icaoId":"SBJV","flightCategory":"VFR","rawOb":"METAR SBJV 202200Z 33002KT 9999 FEW030 22/20 Q1016","temp":22,"dewp":20,"wdir":330,"wspd":2,"visib":"6+","altim":1016,"clouds":[{"cover":"FEW","base":3000}],"obsTime":1776722400},"SBTA":{"icaoId":"SBTA","flightCategory":"VFR","rawOb":"METAR SBTA 202200Z 17009KT 150V210 CAVOK 21/14 Q1016","temp":21,"dewp":14,"wdir":170,"wspd":9,"visib":"6+","altim":1016,"clouds":[],"obsTime":1776722400},"SBAN":{"icaoId":"SBAN","flightCategory":"VFR","rawOb":"METAR SBAN 202200Z 00000KT 9999 SCT030 FEW035TCU 22/18 Q1017","temp":22,"dewp":18,"wdir":0,"wspd":0,"visib":"6+","altim":1017,"clouds":[{"cover":"SCT","base":3000},{"cover":"FEW","base":3500}],"obsTime":1776722400},"SBJP":{"icaoId":"SBJP","flightCategory":"VFR","rawOb":"METAR SBJP 202200Z 15006KT CAVOK 26/25 Q1011","temp":26,"dewp":25,"wdir":150,"wspd":6,"visib":"6+","altim":1011,"clouds":[],"obsTime":1776722400},"SBLE":{"icaoId":"SBLE","flightCategory":"VFR","rawOb":"METAR SBLE 202200Z AUTO 00000KT CAVOK 22/22 Q1014","temp":22,"dewp":22,"wdir":0,"wspd":0,"visib":"6+","altim":1014,"clouds":[],"obsTime":1776722400},"SBGW":{"icaoId":"SBGW","flightCategory":"VFR","rawOb":"METAR SBGW 202200Z VRB01KT CAVOK 20/14 Q1016","temp":20,"dewp":14,"wdir":"VRB","wspd":1,"visib":"6+","altim":1016,"clouds":[],"obsTime":1776722400}}}