{"updated":1778110692,"count":73,"data":{"SBSV":{"icaoId":"SBSV","flightCategory":"MVFR","rawOb":"METAR SBSV 062200Z VRB03KT 6000 -RA SCT022 FEW026TCU BKN030 26/24 Q1015","temp":26,"dewp":24,"wdir":"VRB","wspd":3,"visib":3.73,"altim":1015,"clouds":[{"cover":"SCT","base":2200},{"cover":"FEW","base":2600},{"cover":"BKN","base":3000}],"obsTime":1778104800},"SBFZ":{"icaoId":"SBFZ","flightCategory":"VFR","rawOb":"METAR SBFZ 062200Z 09007KT CAVOK 28/24 Q1011","temp":28,"dewp":24,"wdir":90,"wspd":7,"visib":"6+","altim":1011,"clouds":[],"obsTime":1778104800},"SBMK":{"icaoId":"SBMK","flightCategory":"VFR","rawOb":"METAR SBMK 062200Z 09006KT CAVOK 24/17 Q1019","temp":24,"dewp":17,"wdir":90,"wspd":6,"visib":"6+","altim":1019,"clouds":[],"obsTime":1778104800},"SBBR":{"icaoId":"SBBR","flightCategory":"VFR","rawOb":"METAR SBBR 062200Z 14007KT 9999 FEW045 23/14 Q1021","temp":23,"dewp":14,"wdir":140,"wspd":7,"visib":"6+","altim":1021,"clouds":[{"cover":"FEW","base":4500}],"obsTime":1778104800},"SBCT":{"icaoId":"SBCT","flightCategory":"VFR","rawOb":"METAR SBCT 062200Z 09004KT CAVOK 21/18 Q1021","temp":21,"dewp":18,"wdir":90,"wspd":4,"visib":"6+","altim":1021,"clouds":[],"obsTime":1778104800},"SBMO":{"icaoId":"SBMO","flightCategory":"VFR","rawOb":"METAR SBMO 062200Z 17004KT 130V190 9999 SCT025 BKN060 26/24 Q1013","temp":26,"dewp":24,"wdir":170,"wspd":4,"visib":"6+","altim":1013,"clouds":[{"cover":"SCT","base":2500},{"cover":"BKN","base":6000}],"obsTime":1778104800},"SBGL":{"icaoId":"SBGL","flightCategory":"VFR","rawOb":"METAR SBGL 062200Z 13006KT 9000 NSC 25/22 Q1017","temp":25,"dewp":22,"wdir":130,"wspd":6,"visib":5.59,"altim":1017,"clouds":[],"obsTime":1778104800},"SBMQ":{"icaoId":"SBMQ","flightCategory":"VFR","rawOb":"METAR SBMQ 062200Z 04005KT 9999 VCSH SCT017 FEW036TCU 27/25 Q1011","temp":27,"dewp":25,"wdir":40,"wspd":5,"visib":"6+","altim":1011,"clouds":[{"cover":"SCT","base":1700},{"cover":"FEW","base":3600}],"obsTime":1778104800},"SBGO":{"icaoId":"SBGO","flightCategory":"VFR","rawOb":"METAR SBGO 062200Z 08010KT CAVOK 26/15 Q1018","temp":26,"dewp":15,"wdir":80,"wspd":10,"visib":"6+","altim":1018,"clouds":[],"obsTime":1778104800},"SBNT":{"icaoId":"SBNT","flightCategory":"VFR","rawOb":"METAR SBNT 062200Z 16005KT 9999 FEW025 26/24 Q1012","temp":26,"dewp":24,"wdir":160,"wspd":5,"visib":"6+","altim":1012,"clouds":[{"cover":"FEW","base":2500}],"obsTime":1778104800},"SBCF":{"icaoId":"SBCF","flightCategory":"VFR","rawOb":"METAR SBCF 062200Z 11007KT 9999 FEW040 22/16 Q1022","temp":22,"dewp":16,"wdir":110,"wspd":7,"visib":"6+","altim":1022,"clouds":[{"cover":"FEW","base":4000}],"obsTime":1778104800},"SBPA":{"icaoId":"SBPA","flightCategory":"VFR","rawOb":"METAR SBPA 062200Z 10007KT CAVOK 26/22 Q1012","temp":26,"dewp":22,"wdir":100,"wspd":7,"visib":"6+","altim":1012,"clouds":[],"obsTime":1778104800},"SBPJ":{"icaoId":"SBPJ","flightCategory":"VFR","rawOb":"METAR SBPJ 062200Z 00000KT 9999 FEW020 SCT070 27/22 Q1013","temp":27,"dewp":22,"wdir":0,"wspd":0,"visib":"6+","altim":1013,"clouds":[{"cover":"FEW","base":2000},{"cover":"SCT","base":7000}],"obsTime":1778104800},"SBGR":{"icaoId":"SBGR","flightCategory":"VFR","rawOb":"METAR SBGR 062200Z 12006KT CAVOK 25/17 Q1021","temp":25,"dewp":17,"wdir":120,"wspd":6,"visib":"6+","altim":1021,"clouds":[],"obsTime":1778104800},"SBPV":{"icaoId":"SBPV","flightCategory":"VFR","rawOb":"METAR SBPV 062200Z 36003KT 9999 SCT020 27/23 Q1011","temp":27,"dewp":23,"wdir":360,"wspd":3,"visib":"6+","altim":1011,"clouds":[{"cover":"SCT","base":2000}],"obsTime":1778104800},"SBCZ":{"icaoId":"SBCZ","flightCategory":"VFR","rawOb":"METAR SBCZ 062200Z 31004KT 9999 VCSH SCT030 FEW030TCU 28/25 Q1011","temp":28,"dewp":25,"wdir":310,"wspd":4,"visib":"6+","altim":1011,"clouds":[{"cover":"SCT","base":3000},{"cover":"FEW","base":3000}],"obsTime":1778104800},"SBIL":{"icaoId":"SBIL","flightCategory":"VFR","rawOb":"METAR SBIL 062200Z 28005KT 9999 FEW018 FEW020TCU SCT070 24/23 Q1016","temp":24,"dewp":23,"wdir":280,"wspd":5,"visib":"6+","altim":1016,"clouds":[{"cover":"FEW","base":1800},{"cover":"FEW","base":2000},{"cover":"SCT","base":7000}],"obsTime":1778104800},"SBRB":{"icaoId":"SBRB","flightCategory":"VFR","rawOb":"METAR SBRB 062200Z 05003KT 9999 SCT030 29/24 Q1011","temp":29,"dewp":24,"wdir":50,"wspd":3,"visib":"6+","altim":1011,"clouds":[{"cover":"SCT","base":3000}],"obsTime":1778104800},"SBEG":{"icaoId":"SBEG","flightCategory":"VFR","rawOb":"METAR SBEG 062200Z 31002KT 9999 SCT025 SCT100 26/25 Q1011","temp":26,"dewp":25,"wdir":310,"wspd":2,"visib":"6+","altim":1011,"clouds":[{"cover":"SCT","base":2500},{"cover":"SCT","base":10000}],"obsTime":1778104800},"SBRF":{"icaoId":"SBRF","flightCategory":"VFR","rawOb":"METAR SBRF 062200Z 17003KT 9999 SCT020 BKN050 26/24 Q1013","temp":26,"dewp":24,"wdir":170,"wspd":3,"visib":"6+","altim":1013,"clouds":[{"cover":"SCT","base":2000},{"cover":"BKN","base":5000}],"obsTime":1778104800},"SBSG":{"icaoId":"SBSG","flightCategory":"VFR","rawOb":"METAR SBSG 062200Z 13003KT 9999 FEW023 25/24 Q1012","temp":25,"dewp":24,"wdir":130,"wspd":3,"visib":"6+","altim":1012,"clouds":[{"cover":"FEW","base":2300}],"obsTime":1778104800},"SBJU":{"icaoId":"SBJU","flightCategory":"VFR","rawOb":"METAR SBJU 062200Z 00000KT 9999 FEW020 26/21 Q1014","temp":26,"dewp":21,"wdir":0,"wspd":0,"visib":"6+","altim":1014,"clouds":[{"cover":"FEW","base":2000}],"obsTime":1778104800},"SBBE":{"icaoId":"SBBE","flightCategory":"VFR","rawOb":"METAR SBBE 062200Z 10006KT 9999 SCT042 BKN086 27/24 Q1012","temp":27,"dewp":24,"wdir":100,"wspd":6,"visib":"6+","altim":1012,"clouds":[{"cover":"SCT","base":4200},{"cover":"BKN","base":8600}],"obsTime":1778104800},"SBSL":{"icaoId":"SBSL","flightCategory":"MVFR","rawOb":"METAR SBSL 062200Z 04005KT 9999 FEW012 BKN020 25/25 Q1011","temp":25,"dewp":25,"wdir":40,"wspd":5,"visib":"6+","altim":1011,"clouds":[{"cover":"FEW","base":1200},{"cover":"BKN","base":2000}],"obsTime":1778104800},"SBCG":{"icaoId":"SBCG","flightCategory":"VFR","rawOb":"METAR SBCG 062200Z 35004KT CAVOK 27/17 Q1015","temp":27,"dewp":17,"wdir":350,"wspd":4,"visib":"6+","altim":1015,"clouds":[],"obsTime":1778104800},"SBSN":{"icaoId":"SBSN","flightCategory":"VFR","rawOb":"METAR SBSN 062200Z 13004KT 9999 FEW020TCU 26/23 Q1010","temp":26,"dewp":23,"wdir":130,"wspd":4,"visib":"6+","altim":1010,"clouds":[{"cover":"FEW","base":2000}],"obsTime":1778104800},"SBSP":{"icaoId":"SBSP","flightCategory":"VFR","rawOb":"METAR SBSP 062200Z 15006KT CAVOK 22/19 Q1022","temp":22,"dewp":19,"wdir":150,"wspd":6,"visib":"6+","altim":1022,"clouds":[],"obsTime":1778104800},"SBKP":{"icaoId":"SBKP","flightCategory":"VFR","rawOb":"METAR SBKP 062200Z 12006KT CAVOK 26/15 Q1019","temp":26,"dewp":15,"wdir":120,"wspd":6,"visib":"6+","altim":1019,"clouds":[],"obsTime":1778104800},"SBFL":{"icaoId":"SBFL","flightCategory":"VFR","rawOb":"METAR SBFL 062200Z 29005KT CAVOK 23/22 Q1016","temp":23,"dewp":22,"wdir":290,"wspd":5,"visib":"6+","altim":1016,"clouds":[],"obsTime":1778104800},"SBMG":{"icaoId":"SBMG","flightCategory":"VFR","rawOb":"METAR SBMG 062200Z 08007KT CAVOK 25/18 Q1016","temp":25,"dewp":18,"wdir":80,"wspd":7,"visib":"6+","altim":1016,"clouds":[],"obsTime":1778104800},"SBFI":{"icaoId":"SBFI","flightCategory":"VFR","rawOb":"METAR SBFI 062200Z 05006KT CAVOK 25/23 Q1012","temp":25,"dewp":23,"wdir":50,"wspd":6,"visib":"6+","altim":1012,"clouds":[],"obsTime":1778104800},"SBLO":{"icaoId":"SBLO","flightCategory":"VFR","rawOb":"METAR SBLO 062200Z 10003KT CAVOK 26/19 Q1018","temp":26,"dewp":19,"wdir":100,"wspd":3,"visib":"6+","altim":1018,"clouds":[],"obsTime":1778104800},"SBTE":{"icaoId":"SBTE","flightCategory":"VFR","rawOb":"METAR SBTE 062200Z 26002KT 9999 FEW025 30/24 Q1010","temp":30,"dewp":24,"wdir":260,"wspd":2,"visib":"6+","altim":1010,"clouds":[{"cover":"FEW","base":2500}],"obsTime":1778104800},"SBBV":{"icaoId":"SBBV","flightCategory":"VFR","rawOb":"METAR SBBV 062200Z 11006KT 9999 FEW040 31/21 Q1011","temp":31,"dewp":21,"wdir":110,"wspd":6,"visib":"6+","altim":1011,"clouds":[{"cover":"FEW","base":4000}],"obsTime":1778104800},"SBUL":{"icaoId":"SBUL","flightCategory":"VFR","rawOb":"METAR SBUL 062200Z 16005KT CAVOK 24/14 Q1020","temp":24,"dewp":14,"wdir":160,"wspd":5,"visib":"6+","altim":1020,"clouds":[],"obsTime":1778104800},"SBUR":{"icaoId":"SBUR","flightCategory":"VFR","rawOb":"METAR SBUR 062200Z 05003KT CAVOK 27/13 Q1019","temp":27,"dewp":13,"wdir":50,"wspd":3,"visib":"6+","altim":1019,"clouds":[],"obsTime":1778104800},"SBMA":{"icaoId":"SBMA","flightCategory":"VFR","rawOb":"METAR SBMA 062200Z 00000KT 9999 VCTS FEW023CB 28/25 Q1011","temp":28,"dewp":25,"wdir":0,"wspd":0,"visib":"6+","altim":1011,"clouds":[{"cover":"FEW","base":2300}],"obsTime":1778104800},"SBVT":{"icaoId":"SBVT","flightCategory":"VFR","rawOb":"METAR SBVT 062200Z 29002KT 9999 SCT030 24/23 Q1019","temp":24,"dewp":23,"wdir":290,"wspd":2,"visib":"6+","altim":1019,"clouds":[{"cover":"SCT","base":3000}],"obsTime":1778104800},"SBME":{"icaoId":"SBME","flightCategory":"VFR","rawOb":"METAR SBME 062200Z 07006KT CAVOK 25/23 Q1018","temp":25,"dewp":23,"wdir":70,"wspd":6,"visib":"6+","altim":1018,"clouds":[],"obsTime":1778104800},"SBCP":{"icaoId":"SBCP","flightCategory":"VFR","rawOb":"METAR SBCP 062200Z 04004KT 9999 FEW025 24/23 Q1019","temp":24,"dewp":23,"wdir":40,"wspd":4,"visib":"6+","altim":1019,"clouds":[{"cover":"FEW","base":2500}],"obsTime":1778104800},"SBTU":{"icaoId":"SBTU","flightCategory":"VFR","rawOb":"METAR SBTU 062200Z AUTO VRB02KT 9999 // ///////// ///// Q1013","temp":null,"dewp":null,"wdir":"VRB","wspd":2,"visib":"6+","altim":1013,"clouds":[],"obsTime":1778104800},"SBPL":{"icaoId":"SBPL","flightCategory":"VFR","rawOb":"METAR SBPL 062200Z 14004KT CAVOK 29/16 Q1014","temp":29,"dewp":16,"wdir":140,"wspd":4,"visib":"6+","altim":1014,"clouds":[],"obsTime":1778104800},"SBBU":{"icaoId":"SBBU","flightCategory":"VFR","rawOb":"METAR SBBU 062200Z 12003KT CAVOK 28/17 Q1018","temp":28,"dewp":17,"wdir":120,"wspd":3,"visib":"6+","altim":1018,"clouds":[],"obsTime":1778104800},"SBPS":{"icaoId":"SBPS","flightCategory":"VFR","rawOb":"METAR SBPS 062200Z 24002KT 9999 SCT018 25/24 Q1017","temp":25,"dewp":24,"wdir":240,"wspd":2,"visib":"6+","altim":1017,"clouds":[{"cover":"SCT","base":1800}],"obsTime":1778104800},"SBSC":{"icaoId":"SBSC","flightCategory":"VFR","rawOb":"METAR SBSC 062200Z 25005KT CAVOK 23/22 Q1018","temp":23,"dewp":22,"wdir":250,"wspd":5,"visib":"6+","altim":1018,"clouds":[],"obsTime":1778104800},"SBES":{"icaoId":"SBES","flightCategory":"VFR","rawOb":"METAR SBES 062200Z 06010KT 010V080 CAVOK 24/// Q1019","temp":null,"dewp":null,"wdir":60,"wspd":10,"visib":"6+","altim":1019,"clouds":[],"obsTime":1778104800},"SBAR":{"icaoId":"SBAR","flightCategory":"VFR","rawOb":"METAR SBAR 062200Z 09002KT 9999 FEW030 BKN050 26/23 Q1013","temp":26,"dewp":23,"wdir":90,"wspd":2,"visib":"6+","altim":1013,"clouds":[{"cover":"FEW","base":3000},{"cover":"BKN","base":5000}],"obsTime":1778104800},"SBSJ":{"icaoId":"SBSJ","flightCategory":"VFR","rawOb":"METAR SBSJ 062200Z 09004KT 050V140 CAVOK 24/17 Q1020","temp":24,"dewp":17,"wdir":90,"wspd":4,"visib":"6+","altim":1020,"clouds":[],"obsTime":1778104800},"SBSM":{"icaoId":"SBSM","flightCategory":"VFR","rawOb":"METAR SBSM 062200Z 05003KT CAVOK 25/21 Q1011","temp":25,"dewp":21,"wdir":50,"wspd":3,"visib":"6+","altim":1011,"clouds":[],"obsTime":1778104800},"SBIP":{"icaoId":"SBIP","flightCategory":"VFR","rawOb":"METAR SBIP 062200Z AUTO 20002KT CAVOK 21/19 Q1019","temp":21,"dewp":19,"wdir":200,"wspd":2,"visib":"6+","altim":1019,"clouds":[],"obsTime":1778104800},"SBSR":{"icaoId":"SBSR","flightCategory":"VFR","rawOb":"METAR SBSR 062200Z 10002KT CAVOK 28/12 Q1017","temp":28,"dewp":12,"wdir":100,"wspd":2,"visib":"6+","altim":1017,"clouds":[],"obsTime":1778104800},"SBBH":{"icaoId":"SBBH","flightCategory":"VFR","rawOb":"METAR SBBH 062200Z 10006KT CAVOK 23/16 Q1022","temp":23,"dewp":16,"wdir":100,"wspd":6,"visib":"6+","altim":1022,"clouds":[],"obsTime":1778104800},"SBKG":{"icaoId":"SBKG","flightCategory":"VFR","rawOb":"METAR SBKG 062200Z 09004KT CAVOK 23/21 Q1015","temp":23,"dewp":21,"wdir":90,"wspd":4,"visib":"6+","altim":1015,"clouds":[],"obsTime":1778104800},"SBVH":{"icaoId":"SBVH","flightCategory":"VFR","rawOb":"METAR SBVH 062200Z 07005KT CAVOK 25/21 Q1014","temp":25,"dewp":21,"wdir":70,"wspd":5,"visib":"6+","altim":1014,"clouds":[],"obsTime":1778104800},"SBOI":{"icaoId":"SBOI","flightCategory":"VFR","rawOb":"METAR SBOI 062200Z AUTO 03004KT CAVOK 27/23 Q1012","temp":27,"dewp":23,"wdir":30,"wspd":4,"visib":"6+","altim":1012,"clouds":[],"obsTime":1778104800},"SBDN":{"icaoId":"SBDN","flightCategory":"VFR","rawOb":"METAR SBDN 062200Z 07005KT CAVOK 27/15 Q1016","temp":27,"dewp":15,"wdir":70,"wspd":5,"visib":"6+","altim":1016,"clouds":[],"obsTime":1778104800},"SBTT":{"icaoId":"SBTT","flightCategory":"MVFR","rawOb":"METAR SBTT 062200Z 15005KT 9999 BKN030 BKN080 26/23 Q1011","temp":26,"dewp":23,"wdir":150,"wspd":5,"visib":"6+","altim":1011,"clouds":[{"cover":"BKN","base":3000},{"cover":"BKN","base":8000}],"obsTime":1778104800},"SBCO":{"icaoId":"SBCO","flightCategory":"VFR","rawOb":"METAR SBCO 062200Z 10007KT CAVOK 24/22 Q1012","temp":24,"dewp":22,"wdir":100,"wspd":7,"visib":"6+","altim":1012,"clouds":[],"obsTime":1778104800},"SBAX":{"icaoId":"SBAX","flightCategory":"VFR","rawOb":"METAR SBAX 062200Z 10006KT CAVOK 23/13 Q1021","temp":23,"dewp":13,"wdir":100,"wspd":6,"visib":"6+","altim":1021,"clouds":[],"obsTime":1778104800},"SBTF":{"icaoId":"SBTF","flightCategory":"VFR","rawOb":"METAR SBTF 062200Z 07002KT 9999 FEW006 SCT035 BKN100 25/23 Q1012","temp":25,"dewp":23,"wdir":70,"wspd":2,"visib":"6+","altim":1012,"clouds":[{"cover":"FEW","base":600},{"cover":"SCT","base":3500},{"cover":"BKN","base":10000}],"obsTime":1778104800},"SBCA":{"icaoId":"SBCA","flightCategory":"VFR","rawOb":"METAR SBCA 062200Z 05012KT CAVOK 25/18 Q1017","temp":25,"dewp":18,"wdir":50,"wspd":12,"visib":"6+","altim":1017,"clouds":[],"obsTime":1778104800},"SBUY":{"icaoId":"SBUY","flightCategory":"VFR","rawOb":"METAR SBUY 062200Z 09006KT 9999 SCT010 FEW030TCU BKN080 25/24 Q1011","temp":25,"dewp":24,"wdir":90,"wspd":6,"visib":"6+","altim":1011,"clouds":[{"cover":"SCT","base":1000},{"cover":"FEW","base":3000},{"cover":"BKN","base":8000}],"obsTime":1778104800},"SBPB":{"icaoId":"SBPB","flightCategory":"MVFR","rawOb":"SPECI SBPB 062145Z 03002KT 9999 BKN015 FEW025TCU BKN080 28/26 Q1011","temp":28,"dewp":26,"wdir":30,"wspd":2,"visib":"6+","altim":1011,"clouds":[{"cover":"BKN","base":1500},{"cover":"FEW","base":2500},{"cover":"BKN","base":8000}],"obsTime":1778103900},"SBJP":{"icaoId":"SBJP","flightCategory":"VFR","rawOb":"METAR SBJP 062200Z 14005KT CAVOK 25/23 Q1013","temp":25,"dewp":23,"wdir":140,"wspd":5,"visib":"6+","altim":1013,"clouds":[],"obsTime":1778104800},"SBAN":{"icaoId":"SBAN","flightCategory":"VFR","rawOb":"METAR SBAN 062200Z 20005KT CAVOK 21/14 Q1021","temp":21,"dewp":14,"wdir":200,"wspd":5,"visib":"6+","altim":1021,"clouds":[],"obsTime":1778104800},"SBJV":{"icaoId":"SBJV","flightCategory":"MVFR","rawOb":"METAR SBJV 062200Z 00000KT 9000 OVC015 24/23 Q1016","temp":24,"dewp":23,"wdir":0,"wspd":0,"visib":5.59,"altim":1016,"clouds":[{"cover":"OVC","base":1500}],"obsTime":1778104800},"SBAF":{"icaoId":"SBAF","flightCategory":"VFR","rawOb":"METAR SBAF 062200Z 25002KT CAVOK 25/24 Q1018","temp":25,"dewp":24,"wdir":250,"wspd":2,"visib":"6+","altim":1018,"clouds":[],"obsTime":1778104800},"SBJR":{"icaoId":"SBJR","flightCategory":"VFR","rawOb":"METAR SBJR 062200Z 00000KT CAVOK 23/22 Q1018","temp":23,"dewp":22,"wdir":0,"wspd":0,"visib":"6+","altim":1018,"clouds":[],"obsTime":1778104800},"SBLS":{"icaoId":"SBLS","flightCategory":"VFR","rawOb":"METAR SBLS 062200Z 12006KT 9999 FEW045 22/16 Q1022","temp":22,"dewp":16,"wdir":120,"wspd":6,"visib":"6+","altim":1022,"clouds":[{"cover":"FEW","base":4500}],"obsTime":1778104800},"SBMT":{"icaoId":"SBMT","flightCategory":"VFR","rawOb":"METAR SBMT 062200Z 12005KT CAVOK 24/18 Q1020","temp":24,"dewp":18,"wdir":120,"wspd":5,"visib":"6+","altim":1020,"clouds":[],"obsTime":1778104800},"SBTA":{"icaoId":"SBTA","flightCategory":"VFR","rawOb":"METAR SBTA 062200Z 00000KT CAVOK 21/18 Q1019","temp":21,"dewp":18,"wdir":0,"wspd":0,"visib":"6+","altim":1019,"clouds":[],"obsTime":1778104800},"SBLE":{"icaoId":"SBLE","flightCategory":"VFR","rawOb":"METAR SBLE 062200Z AUTO 23002KT 9999 BKN037 ///// Q////","temp":null,"dewp":null,"wdir":230,"wspd":2,"visib":"6+","altim":null,"clouds":[{"cover":"BKN","base":3700}],"obsTime":1778104800},"SBGW":{"icaoId":"SBGW","flightCategory":"VFR","rawOb":"METAR SBGW 062200Z 36002KT CAVOK 22/15 Q1020","temp":22,"dewp":15,"wdir":360,"wspd":2,"visib":"6+","altim":1020,"clouds":[],"obsTime":1778104800}}}