{"updated":1775155112,"count":86,"data":{"SBKP":{"icaoId":"SBKP","flightCategory":"VFR","rawOb":"METAR SBKP 021700Z 35010KT 9999 TS VCSH BKN040 FEW045CB BKN100 29/20 Q1015","temp":29,"dewp":20,"wdir":350,"wspd":10,"visib":"6+","altim":1015,"clouds":[{"cover":"BKN","base":4000},{"cover":"FEW","base":4500},{"cover":"BKN","base":10000}],"obsTime":1775149200},"SBVT":{"icaoId":"SBVT","flightCategory":"VFR","rawOb":"METAR SBVT 021700Z 07009KT 9999 FEW040 30/22 Q1014","temp":30,"dewp":22,"wdir":70,"wspd":9,"visib":"6+","altim":1014,"clouds":[{"cover":"FEW","base":4000}],"obsTime":1775149200},"SBBE":{"icaoId":"SBBE","flightCategory":"MVFR","rawOb":"METAR SBBE 021700Z 18005KT 9999 BKN020 FEW025TCU 25/24 Q1012","temp":25,"dewp":24,"wdir":180,"wspd":5,"visib":"6+","altim":1012,"clouds":[{"cover":"BKN","base":2000},{"cover":"FEW","base":2500}],"obsTime":1775149200},"SBBR":{"icaoId":"SBBR","flightCategory":"VFR","rawOb":"METAR SBBR 021700Z 10007KT 070V140 9999 VCTS SCT030 FEW035CB SCT100 26/18 Q1018","temp":26,"dewp":18,"wdir":100,"wspd":7,"visib":"6+","altim":1018,"clouds":[{"cover":"SCT","base":3000},{"cover":"FEW","base":3500},{"cover":"SCT","base":10000}],"obsTime":1775149200},"SBBV":{"icaoId":"SBBV","flightCategory":"VFR","rawOb":"METAR SBBV 021700Z 07007KT 9999 BKN040 SCT070 32/20 Q1011","temp":32,"dewp":20,"wdir":70,"wspd":7,"visib":"6+","altim":1011,"clouds":[{"cover":"BKN","base":4000},{"cover":"SCT","base":7000}],"obsTime":1775149200},"SBCB":{"icaoId":"SBCB","flightCategory":"VFR","rawOb":"METAR SBCB 021700Z 05015KT CAVOK 29/22 Q1013","temp":29,"dewp":22,"wdir":50,"wspd":15,"visib":"6+","altim":1013,"clouds":[],"obsTime":1775149200},"SBCF":{"icaoId":"SBCF","flightCategory":"VFR","rawOb":"METAR SBCF 021700Z VRB04KT 9999 VCSH BKN035 FEW040TCU 27/20 Q1018","temp":27,"dewp":20,"wdir":"VRB","wspd":4,"visib":"6+","altim":1018,"clouds":[{"cover":"BKN","base":3500},{"cover":"FEW","base":4000}],"obsTime":1775149200},"SBCG":{"icaoId":"SBCG","flightCategory":"VFR","rawOb":"METAR SBCG 021700Z 26006KT 220V320 9999 BKN048 31/19 Q1014","temp":31,"dewp":19,"wdir":260,"wspd":6,"visib":"6+","altim":1014,"clouds":[{"cover":"BKN","base":4800}],"obsTime":1775149200},"SBCP":{"icaoId":"SBCP","flightCategory":"VFR","rawOb":"METAR SBCP 021700Z 08013KT 9999 FEW025 31/22 Q1014","temp":31,"dewp":22,"wdir":80,"wspd":13,"visib":"6+","altim":1014,"clouds":[{"cover":"FEW","base":2500}],"obsTime":1775149200},"SBCR":{"icaoId":"SBCR","flightCategory":"VFR","rawOb":"METAR SBCR 021700Z 02008KT 310V070 9999 SCT040 34/22 Q1011","temp":34,"dewp":22,"wdir":20,"wspd":8,"visib":"6+","altim":1011,"clouds":[{"cover":"SCT","base":4000}],"obsTime":1775149200},"SBCT":{"icaoId":"SBCT","flightCategory":"VFR","rawOb":"METAR SBCT 021700Z 24010KT 9999 BKN035 FEW040TCU 25/17 Q1016","temp":25,"dewp":17,"wdir":240,"wspd":10,"visib":"6+","altim":1016,"clouds":[{"cover":"BKN","base":3500},{"cover":"FEW","base":4000}],"obsTime":1775149200},"SBCZ":{"icaoId":"SBCZ","flightCategory":"VFR","rawOb":"METAR SBCZ 021700Z 10011KT 9999 VCSH SCT025 FEW030TCU 30/24 Q1010","temp":30,"dewp":24,"wdir":100,"wspd":11,"visib":"6+","altim":1010,"clouds":[{"cover":"SCT","base":2500},{"cover":"FEW","base":3000}],"obsTime":1775149200},"SBEG":{"icaoId":"SBEG","flightCategory":"VFR","rawOb":"METAR SBEG 021700Z 09005KT 030V140 9999 SCT025 30/23 Q1011","temp":30,"dewp":23,"wdir":90,"wspd":5,"visib":"6+","altim":1011,"clouds":[{"cover":"SCT","base":2500}],"obsTime":1775149200},"SBFI":{"icaoId":"SBFI","flightCategory":"VFR","rawOb":"METAR SBFI 021700Z 01010KT 9999 FEW035 30/22 Q1011","temp":30,"dewp":22,"wdir":10,"wspd":10,"visib":"6+","altim":1011,"clouds":[{"cover":"FEW","base":3500}],"obsTime":1775149200},"SBFL":{"icaoId":"SBFL","flightCategory":"VFR","rawOb":"METAR SBFL 021700Z 34008KT 9999 FEW030 30/22 Q1010","temp":30,"dewp":22,"wdir":340,"wspd":8,"visib":"6+","altim":1010,"clouds":[{"cover":"FEW","base":3000}],"obsTime":1775149200},"SBFZ":{"icaoId":"SBFZ","flightCategory":"MVFR","rawOb":"METAR SBFZ 021700Z 16002KT 9999 SCT020 BKN030 27/24 Q1010","temp":27,"dewp":24,"wdir":160,"wspd":2,"visib":"6+","altim":1010,"clouds":[{"cover":"SCT","base":2000},{"cover":"BKN","base":3000}],"obsTime":1775149200},"SBGL":{"icaoId":"SBGL","flightCategory":"VFR","rawOb":"METAR SBGL 021700Z 05010KT 9999 SCT046 34/21 Q1011","temp":34,"dewp":21,"wdir":50,"wspd":10,"visib":"6+","altim":1011,"clouds":[{"cover":"SCT","base":4600}],"obsTime":1775149200},"SBGO":{"icaoId":"SBGO","flightCategory":"VFR","rawOb":"METAR SBGO 021700Z 32007KT 9999 FEW034 FEW042TCU 27/20 Q1016","temp":27,"dewp":20,"wdir":320,"wspd":7,"visib":"6+","altim":1016,"clouds":[{"cover":"FEW","base":3400},{"cover":"FEW","base":4200}],"obsTime":1775149200},"SBGR":{"icaoId":"SBGR","flightCategory":"VFR","rawOb":"METAR SBGR 021700Z 32007KT 260V010 9999 BKN043 29/18 Q1016","temp":29,"dewp":18,"wdir":320,"wspd":7,"visib":"6+","altim":1016,"clouds":[{"cover":"BKN","base":4300}],"obsTime":1775149200},"SBHT":{"icaoId":"SBHT","flightCategory":"MVFR","rawOb":"METAR SBHT 021700Z 10005KT 9999 BKN025 FEW030TCU BKN100 30/23 Q1011","temp":30,"dewp":23,"wdir":100,"wspd":5,"visib":"6+","altim":1011,"clouds":[{"cover":"BKN","base":2500},{"cover":"FEW","base":3000},{"cover":"BKN","base":10000}],"obsTime":1775149200},"SBIL":{"icaoId":"SBIL","flightCategory":"VFR","rawOb":"METAR SBIL 021700Z 15007KT 9999 SCT023 SCT100 31/24 Q1013","temp":31,"dewp":24,"wdir":150,"wspd":7,"visib":"6+","altim":1013,"clouds":[{"cover":"SCT","base":2300},{"cover":"SCT","base":10000}],"obsTime":1775149200},"SBJU":{"icaoId":"SBJU","flightCategory":"MVFR","rawOb":"METAR SBJU 021700Z 00000KT 9999 SCT008 BKN018 FEW020TCU 25/23 Q1013","temp":25,"dewp":23,"wdir":0,"wspd":0,"visib":"6+","altim":1013,"clouds":[{"cover":"SCT","base":800},{"cover":"BKN","base":1800},{"cover":"FEW","base":2000}],"obsTime":1775149200},"SBLO":{"icaoId":"SBLO","flightCategory":"MVFR","rawOb":"METAR SBLO 021700Z 31008KT 230V340 9999 BKN030 FEW040TCU 28/18 Q1014","temp":28,"dewp":18,"wdir":310,"wspd":8,"visib":"6+","altim":1014,"clouds":[{"cover":"BKN","base":3000},{"cover":"FEW","base":4000}],"obsTime":1775149200},"SBMA":{"icaoId":"SBMA","flightCategory":"VFR","rawOb":"METAR SBMA 021700Z 00000KT 9999 -RA FEW009 SCT015 OVC100 24/23 Q1013","temp":24,"dewp":23,"wdir":0,"wspd":0,"visib":"6+","altim":1013,"clouds":[{"cover":"FEW","base":900},{"cover":"SCT","base":1500},{"cover":"OVC","base":10000}],"obsTime":1775149200},"SBME":{"icaoId":"SBME","flightCategory":"VFR","rawOb":"METAR SBME 021700Z 14009KT 9999 FEW040 30/21 Q1013","temp":30,"dewp":21,"wdir":140,"wspd":9,"visib":"6+","altim":1013,"clouds":[{"cover":"FEW","base":4000}],"obsTime":1775149200},"SBMG":{"icaoId":"SBMG","flightCategory":"VFR","rawOb":"METAR SBMG 021700Z 30008KT 270V350 9999 SCT045 29/18 Q1014","temp":29,"dewp":18,"wdir":300,"wspd":8,"visib":"6+","altim":1014,"clouds":[{"cover":"SCT","base":4500}],"obsTime":1775149200},"SBMK":{"icaoId":"SBMK","flightCategory":"VFR","rawOb":"METAR SBMK 021700Z 10008KT 9999 BKN035 28/19 Q1017","temp":28,"dewp":19,"wdir":100,"wspd":8,"visib":"6+","altim":1017,"clouds":[{"cover":"BKN","base":3500}],"obsTime":1775149200},"SBMO":{"icaoId":"SBMO","flightCategory":"VFR","rawOb":"METAR SBMO 021700Z 09011KT 050V110 9999 SCT035 31/23 Q1011","temp":31,"dewp":23,"wdir":90,"wspd":11,"visib":"6+","altim":1011,"clouds":[{"cover":"SCT","base":3500}],"obsTime":1775149200},"SBMQ":{"icaoId":"SBMQ","flightCategory":"VFR","rawOb":"METAR SBMQ 021700Z 31003KT 9999 SCT009 SCT100 27/25 Q1011","temp":27,"dewp":25,"wdir":310,"wspd":3,"visib":"6+","altim":1011,"clouds":[{"cover":"SCT","base":900},{"cover":"SCT","base":10000}],"obsTime":1775149200},"SBNT":{"icaoId":"SBNT","flightCategory":"VFR","rawOb":"METAR SBNT 021700Z 11011KT 9999 SCT030 SCT070 31/23 Q1010","temp":31,"dewp":23,"wdir":110,"wspd":11,"visib":"6+","altim":1010,"clouds":[{"cover":"SCT","base":3000},{"cover":"SCT","base":7000}],"obsTime":1775149200},"SBPA":{"icaoId":"SBPA","flightCategory":"VFR","rawOb":"METAR SBPA 021700Z 25007KT 9999 FEW040 30/20 Q1009","temp":30,"dewp":20,"wdir":250,"wspd":7,"visib":"6+","altim":1009,"clouds":[{"cover":"FEW","base":4000}],"obsTime":1775149200},"SBPJ":{"icaoId":"SBPJ","flightCategory":"VFR","rawOb":"METAR SBPJ 021700Z 04004KT 9999 SCT012 SCT030 OVC100 26/23 Q1013","temp":26,"dewp":23,"wdir":40,"wspd":4,"visib":"6+","altim":1013,"clouds":[{"cover":"SCT","base":1200},{"cover":"SCT","base":3000},{"cover":"OVC","base":10000}],"obsTime":1775149200},"SBPV":{"icaoId":"SBPV","flightCategory":"MVFR","rawOb":"METAR SBPV 021700Z 01005KT 9999 BKN025 FEW030TCU 30/22 Q1010","temp":30,"dewp":22,"wdir":10,"wspd":5,"visib":"6+","altim":1010,"clouds":[{"cover":"BKN","base":2500},{"cover":"FEW","base":3000}],"obsTime":1775149200},"SBRB":{"icaoId":"SBRB","flightCategory":"MVFR","rawOb":"METAR SBRB 021700Z 06003KT 9999 BKN030 31/24 Q1011","temp":31,"dewp":24,"wdir":60,"wspd":3,"visib":"6+","altim":1011,"clouds":[{"cover":"BKN","base":3000}],"obsTime":1775149200},"SBRF":{"icaoId":"SBRF","flightCategory":"VFR","rawOb":"METAR SBRF 021700Z 10008KT 9999 SCT020 FEW025TCU 30/24 Q1010","temp":30,"dewp":24,"wdir":100,"wspd":8,"visib":"6+","altim":1010,"clouds":[{"cover":"SCT","base":2000},{"cover":"FEW","base":2500}],"obsTime":1775149200},"SBSG":{"icaoId":"SBSG","flightCategory":"VFR","rawOb":"METAR SBSG 021700Z 09011KT 9999 SCT023 30/23 Q1010","temp":30,"dewp":23,"wdir":90,"wspd":11,"visib":"6+","altim":1010,"clouds":[{"cover":"SCT","base":2300}],"obsTime":1775149200},"SBSL":{"icaoId":"SBSL","flightCategory":"VFR","rawOb":"METAR SBSL 021700Z VRB03KT 9999 FEW035 BKN090 28/23 Q1011","temp":28,"dewp":23,"wdir":"VRB","wspd":3,"visib":"6+","altim":1011,"clouds":[{"cover":"FEW","base":3500},{"cover":"BKN","base":9000}],"obsTime":1775149200},"SBSN":{"icaoId":"SBSN","flightCategory":"VFR","rawOb":"METAR SBSN 021700Z 02005KT 9999 FEW020 SCT100 30/23 Q1011","temp":30,"dewp":23,"wdir":20,"wspd":5,"visib":"6+","altim":1011,"clouds":[{"cover":"FEW","base":2000},{"cover":"SCT","base":10000}],"obsTime":1775149200},"SBSP":{"icaoId":"SBSP","flightCategory":"VFR","rawOb":"METAR SBSP 021700Z 31010KT 9999 SCT043 27/17 Q1017","temp":27,"dewp":17,"wdir":310,"wspd":10,"visib":"6+","altim":1017,"clouds":[{"cover":"SCT","base":4300}],"obsTime":1775149200},"SBSV":{"icaoId":"SBSV","flightCategory":"VFR","rawOb":"METAR SBSV 021700Z 14009KT 9999 SCT023 30/22 Q1012","temp":30,"dewp":22,"wdir":140,"wspd":9,"visib":"6+","altim":1012,"clouds":[{"cover":"SCT","base":2300}],"obsTime":1775149200},"SBTE":{"icaoId":"SBTE","flightCategory":"VFR","rawOb":"METAR SBTE 021700Z VRB03KT 9999 SCT016 SCT080 28/25 Q1010","temp":28,"dewp":25,"wdir":"VRB","wspd":3,"visib":"6+","altim":1010,"clouds":[{"cover":"SCT","base":1600},{"cover":"SCT","base":8000}],"obsTime":1775149200},"SBUL":{"icaoId":"SBUL","flightCategory":"MVFR","rawOb":"METAR SBUL 021700Z 02009KT 9999 BKN025 FEW030TCU SCT090 28/18 Q1017 RETS","temp":28,"dewp":18,"wdir":20,"wspd":9,"visib":"6+","altim":1017,"clouds":[{"cover":"BKN","base":2500},{"cover":"FEW","base":3000},{"cover":"SCT","base":9000}],"obsTime":1775149200},"SBUR":{"icaoId":"SBUR","flightCategory":"VFR","rawOb":"METAR SBUR 021700Z 35008KT 9999 VCSH BKN045 29/17 Q1016","temp":29,"dewp":17,"wdir":350,"wspd":8,"visib":"6+","altim":1016,"clouds":[{"cover":"BKN","base":4500}],"obsTime":1775149200},"SBAT":{"icaoId":"SBAT","flightCategory":"VFR","rawOb":"METAR SBAT 021700Z 09001KT 9999 SCT030 31/22 Q1012","temp":31,"dewp":22,"wdir":90,"wspd":1,"visib":"6+","altim":1012,"clouds":[{"cover":"SCT","base":3000}],"obsTime":1775149200},"SBSJ":{"icaoId":"SBSJ","flightCategory":"IFR","rawOb":"METAR SBSJ 021700Z 02009G45KT 340V060 3000 RA BKN040 FEW050TCU BKN083 28/20 Q1016","temp":28,"dewp":20,"wdir":20,"wspd":9,"visib":1.86,"altim":1016,"clouds":[{"cover":"BKN","base":4000},{"cover":"FEW","base":5000},{"cover":"BKN","base":8300}],"obsTime":1775149200},"SBCJ":{"icaoId":"SBCJ","flightCategory":"LIFR","rawOb":"METAR SBCJ 021700Z 11007KT 1200 -RA BR BKN003 OVC080 21/20 Q1017 RERA","temp":21,"dewp":20,"wdir":110,"wspd":7,"visib":0.75,"altim":1017,"clouds":[{"cover":"BKN","base":300},{"cover":"OVC","base":8000}],"obsTime":1775149200},"SBBQ":{"icaoId":"SBBQ","flightCategory":"MVFR","rawOb":"METAR SBBQ 021700Z 02003KT 9999 BKN030 FEW035TCU 26/18 Q1021","temp":26,"dewp":18,"wdir":20,"wspd":3,"visib":"6+","altim":1021,"clouds":[{"cover":"BKN","base":3000},{"cover":"FEW","base":3500}],"obsTime":1775149200},"SBPL":{"icaoId":"SBPL","flightCategory":"VFR","rawOb":"METAR SBPL 021700Z 11005KT 9999 SCT030 31/22 Q1012","temp":31,"dewp":22,"wdir":110,"wspd":5,"visib":"6+","altim":1012,"clouds":[{"cover":"SCT","base":3000}],"obsTime":1775149200},"SBPP":{"icaoId":"SBPP","flightCategory":"MVFR","rawOb":"METAR SBPP 021700Z 07007KT 9999 BKN025 OVC070 24/20 Q1015","temp":24,"dewp":20,"wdir":70,"wspd":7,"visib":"6+","altim":1015,"clouds":[{"cover":"BKN","base":2500},{"cover":"OVC","base":7000}],"obsTime":1775149200},"SBAX":{"icaoId":"SBAX","flightCategory":"VFR","rawOb":"METAR SBAX 021700Z AUTO 33006KT 280V030 9999 SCT039 28/19 Q1018","temp":28,"dewp":19,"wdir":330,"wspd":6,"visib":"6+","altim":1018,"clouds":[{"cover":"SCT","base":3900}],"obsTime":1775149200},"SBPS":{"icaoId":"SBPS","flightCategory":"VFR","rawOb":"METAR SBPS 021700Z 12007KT 080V180 9999 SCT015 BKN070 29/24 Q1014","temp":29,"dewp":24,"wdir":120,"wspd":7,"visib":"6+","altim":1014,"clouds":[{"cover":"SCT","base":1500},{"cover":"BKN","base":7000}],"obsTime":1775149200},"SBSC":{"icaoId":"SBSC","flightCategory":"VFR","rawOb":"METAR SBSC 021700Z 01006KT 9999 SCT032 FEW033TCU SCT100 34/23 Q1011","temp":34,"dewp":23,"wdir":10,"wspd":6,"visib":"6+","altim":1011,"clouds":[{"cover":"SCT","base":3200},{"cover":"FEW","base":3300},{"cover":"SCT","base":10000}],"obsTime":1775149200},"SBCO":{"icaoId":"SBCO","flightCategory":"VFR","rawOb":"METAR SBCO 021700Z VRB02KT CAVOK 31/21 Q1009","temp":31,"dewp":21,"wdir":"VRB","wspd":2,"visib":"6+","altim":1009,"clouds":[],"obsTime":1775149200},"SBCC":{"icaoId":"SBCC","flightCategory":"VFR","rawOb":"METAR SBCC 021700Z 17002KT 9999 FEW018 BKN100 24/20 Q1014","temp":24,"dewp":20,"wdir":170,"wspd":2,"visib":"6+","altim":1014,"clouds":[{"cover":"FEW","base":1800},{"cover":"BKN","base":10000}],"obsTime":1775149200},"SBPB":{"icaoId":"SBPB","flightCategory":"MVFR","rawOb":"METAR SBPB 021700Z 36008KT 9999 BKN016 BKN080 29/25 Q1010","temp":29,"dewp":25,"wdir":360,"wspd":8,"visib":"6+","altim":1010,"clouds":[{"cover":"BKN","base":1600},{"cover":"BKN","base":8000}],"obsTime":1775149200},"SBAR":{"icaoId":"SBAR","flightCategory":"VFR","rawOb":"METAR SBAR 021700Z 14006KT 9999 FEW023 30/24 Q1011","temp":30,"dewp":24,"wdir":140,"wspd":6,"visib":"6+","altim":1011,"clouds":[{"cover":"FEW","base":2300}],"obsTime":1775149200},"SBOI":{"icaoId":"SBOI","flightCategory":"VFR","rawOb":"METAR SBOI 021700Z AUTO 10007KT 040V140 9999 SCT030 31/24 Q1010","temp":31,"dewp":24,"wdir":100,"wspd":7,"visib":"6+","altim":1010,"clouds":[{"cover":"SCT","base":3000}],"obsTime":1775149200},"SBDN":{"icaoId":"SBDN","flightCategory":"VFR","rawOb":"METAR SBDN 021700Z 33006KT 9999 SCT040 32/20 Q1013","temp":32,"dewp":20,"wdir":330,"wspd":6,"visib":"6+","altim":1013,"clouds":[{"cover":"SCT","base":4000}],"obsTime":1775149200},"SBSM":{"icaoId":"SBSM","flightCategory":"VFR","rawOb":"METAR SBSM 021700Z VRB03KT 9999 FEW040 31/19 Q1009","temp":31,"dewp":19,"wdir":"VRB","wspd":3,"visib":"6+","altim":1009,"clouds":[{"cover":"FEW","base":4000}],"obsTime":1775149200},"SBBU":{"icaoId":"SBBU","flightCategory":"VFR","rawOb":"METAR SBBU 021700Z 33005KT 9999 VCSH SCT040 BKN100 30/21 Q1015","temp":30,"dewp":21,"wdir":330,"wspd":5,"visib":"6+","altim":1015,"clouds":[{"cover":"SCT","base":4000},{"cover":"BKN","base":10000}],"obsTime":1775149200},"SBES":{"icaoId":"SBES","flightCategory":"VFR","rawOb":"METAR SBES 021700Z 06016KT 020V080 9999 FEW025TCU 30/// Q1013","temp":null,"dewp":null,"wdir":60,"wspd":16,"visib":"6+","altim":1013,"clouds":[{"cover":"FEW","base":2500}],"obsTime":1775149200},"SBSR":{"icaoId":"SBSR","flightCategory":"VFR","rawOb":"METAR SBSR 021700Z VRB03KT 9999 SCT030 31/19 Q1014","temp":31,"dewp":19,"wdir":"VRB","wspd":3,"visib":"6+","altim":1014,"clouds":[{"cover":"SCT","base":3000}],"obsTime":1775149200},"SBAU":{"icaoId":"SBAU","flightCategory":"VFR","rawOb":"METAR SBAU 021700Z 36006KT 9999 SCT040 33/19 Q1013","temp":33,"dewp":19,"wdir":360,"wspd":6,"visib":"6+","altim":1013,"clouds":[{"cover":"SCT","base":4000}],"obsTime":1775149200},"SBTF":{"icaoId":"SBTF","flightCategory":"VFR","rawOb":"METAR SBTF 021700Z 10006KT 9999 SCT019 SCT100 32/25 Q1010","temp":32,"dewp":25,"wdir":100,"wspd":6,"visib":"6+","altim":1010,"clouds":[{"cover":"SCT","base":1900},{"cover":"SCT","base":10000}],"obsTime":1775149200},"SBGM":{"icaoId":"SBGM","flightCategory":"MVFR","rawOb":"METAR SBGM 021700Z 27005KT 210V360 9999 BKN023 31/16 Q1011","temp":31,"dewp":16,"wdir":270,"wspd":5,"visib":"6+","altim":1011,"clouds":[{"cover":"BKN","base":2300}],"obsTime":1775149200},"SBTT":{"icaoId":"SBTT","flightCategory":"MVFR","rawOb":"METAR SBTT 021700Z 27004KT 230V300 9000 VCSH SCT010 BKN030 BKN070 24/22 Q1011 RETS","temp":24,"dewp":22,"wdir":270,"wspd":4,"visib":5.59,"altim":1011,"clouds":[{"cover":"SCT","base":1000},{"cover":"BKN","base":3000},{"cover":"BKN","base":7000}],"obsTime":1775149200},"SBUY":{"icaoId":"SBUY","flightCategory":"VFR","rawOb":"METAR SBUY 021700Z 18004KT 9999 SCT025 SCT100 31/23 Q1009","temp":31,"dewp":23,"wdir":180,"wspd":4,"visib":"6+","altim":1009,"clouds":[{"cover":"SCT","base":2500},{"cover":"SCT","base":10000}],"obsTime":1775149200},"SBCA":{"icaoId":"SBCA","flightCategory":"VFR","rawOb":"METAR SBCA 021700Z 36007G17KT 9999 SCT020 26/19 Q1016","temp":26,"dewp":19,"wdir":360,"wspd":7,"visib":"6+","altim":1016,"clouds":[{"cover":"SCT","base":2000}],"obsTime":1775149200},"SBVH":{"icaoId":"SBVH","flightCategory":"MVFR","rawOb":"METAR SBVH 021700Z 05011KT 9999 VCSH BKN025 FEW030TCU BKN100 27/23 Q1014","temp":27,"dewp":23,"wdir":50,"wspd":11,"visib":"6+","altim":1014,"clouds":[{"cover":"BKN","base":2500},{"cover":"FEW","base":3000},{"cover":"BKN","base":10000}],"obsTime":1775149200},"SBIP":{"icaoId":"SBIP","flightCategory":"VFR","rawOb":"METAR SBIP 021700Z AUTO 04007KT 010V070 CAVOK 30/20 Q1015","temp":30,"dewp":20,"wdir":40,"wspd":7,"visib":"6+","altim":1015,"clouds":[],"obsTime":1775149200},"SBBH":{"icaoId":"SBBH","flightCategory":"VFR","rawOb":"METAR SBBH 021700Z 07007KT 9999 BKN038 FEW040TCU BKN070 28/20 Q1018","temp":28,"dewp":20,"wdir":70,"wspd":7,"visib":"6+","altim":1018,"clouds":[{"cover":"BKN","base":3800},{"cover":"FEW","base":4000},{"cover":"BKN","base":7000}],"obsTime":1775149200},"SBKG":{"icaoId":"SBKG","flightCategory":"VFR","rawOb":"METAR SBKG 021700Z 11009KT CAVOK 27/21 Q1013","temp":27,"dewp":21,"wdir":110,"wspd":9,"visib":"6+","altim":1013,"clouds":[],"obsTime":1775149200},"SBTC":{"icaoId":"SBTC","flightCategory":"VFR","rawOb":"METAR SBTC 021700Z 14007KT 9999 SCT030 30/24 Q1013","temp":30,"dewp":24,"wdir":140,"wspd":7,"visib":"6+","altim":1013,"clouds":[{"cover":"SCT","base":3000}],"obsTime":1775149200},"SBAN":{"icaoId":"SBAN","flightCategory":"MVFR","rawOb":"METAR SBAN 021700Z VRB02KT 9999 BKN025 FEW035TCU BKN100 25/18 Q1019","temp":25,"dewp":18,"wdir":"VRB","wspd":2,"visib":"6+","altim":1019,"clouds":[{"cover":"BKN","base":2500},{"cover":"FEW","base":3500},{"cover":"BKN","base":10000}],"obsTime":1775149200},"SBGW":{"icaoId":"SBGW","flightCategory":"VFR","rawOb":"METAR SBGW 021700Z 17003KT 9999 SCT030 FEW033TCU BKN100 29/18 Q1015","temp":29,"dewp":18,"wdir":170,"wspd":3,"visib":"6+","altim":1015,"clouds":[{"cover":"SCT","base":3000},{"cover":"FEW","base":3300},{"cover":"BKN","base":10000}],"obsTime":1775149200},"SBIH":{"icaoId":"SBIH","flightCategory":"VFR","rawOb":"METAR SBIH 021700Z 01006KT 9999 FEW020 30/23 Q1011","temp":30,"dewp":23,"wdir":10,"wspd":6,"visib":"6+","altim":1011,"clouds":[{"cover":"FEW","base":2000}],"obsTime":1775149200},"SBJP":{"icaoId":"SBJP","flightCategory":"VFR","rawOb":"METAR SBJP 021700Z 08007KT 030V130 9999 SCT029 BKN094 30/23 Q1011","temp":30,"dewp":23,"wdir":80,"wspd":7,"visib":"6+","altim":1011,"clouds":[{"cover":"SCT","base":2900},{"cover":"BKN","base":9400}],"obsTime":1775149200},"SBJR":{"icaoId":"SBJR","flightCategory":"VFR","rawOb":"METAR SBJR 021700Z 19005KT 9999 SCT030 34/23 Q1011","temp":34,"dewp":23,"wdir":190,"wspd":5,"visib":"6+","altim":1011,"clouds":[{"cover":"SCT","base":3000}],"obsTime":1775149200},"SBJV":{"icaoId":"SBJV","flightCategory":"VFR","rawOb":"METAR SBJV 021700Z 14006KT 9999 FEW035 31/24 Q1011","temp":31,"dewp":24,"wdir":140,"wspd":6,"visib":"6+","altim":1011,"clouds":[{"cover":"FEW","base":3500}],"obsTime":1775149200},"SBLE":{"icaoId":"SBLE","flightCategory":"VFR","rawOb":"METAR SBLE 021700Z AUTO 18005KT 140V240 9999 FEW032 28/20 Q1015","temp":28,"dewp":20,"wdir":180,"wspd":5,"visib":"6+","altim":1015,"clouds":[{"cover":"FEW","base":3200}],"obsTime":1775149200},"SBLS":{"icaoId":"SBLS","flightCategory":"MVFR","rawOb":"METAR SBLS 021700Z 16006KT 9999 VCSH BKN030 FEW035TCU 26/20 Q1018","temp":26,"dewp":20,"wdir":160,"wspd":6,"visib":"6+","altim":1018,"clouds":[{"cover":"BKN","base":3000},{"cover":"FEW","base":3500}],"obsTime":1775149200},"SBMT":{"icaoId":"SBMT","flightCategory":"VFR","rawOb":"METAR SBMT 021700Z 30008KT 9999 SCT040 27/18 Q1016","temp":27,"dewp":18,"wdir":300,"wspd":8,"visib":"6+","altim":1016,"clouds":[{"cover":"SCT","base":4000}],"obsTime":1775149200},"SBNM":{"icaoId":"SBNM","flightCategory":"VFR","rawOb":"METAR SBNM 021700Z 30004KT 9999 SCT035 33/20 Q1010","temp":33,"dewp":20,"wdir":300,"wspd":4,"visib":"6+","altim":1010,"clouds":[{"cover":"SCT","base":3500}],"obsTime":1775149200},"SBST":{"icaoId":"SBST","flightCategory":"MVFR","rawOb":"METAR SBST 021700Z 17006KT 140V210 8000 BKN022 27/25 Q1011","temp":27,"dewp":25,"wdir":170,"wspd":6,"visib":4.97,"altim":1011,"clouds":[{"cover":"BKN","base":2200}],"obsTime":1775149200},"SBTA":{"icaoId":"SBTA","flightCategory":"VFR","rawOb":"METAR SBTA 021700Z 08006KT 040V120 9999 VCSH SCT030 FEW035TCU SCT100 29/27 Q1014","temp":29,"dewp":27,"wdir":80,"wspd":6,"visib":"6+","altim":1014,"clouds":[{"cover":"SCT","base":3000},{"cover":"FEW","base":3500},{"cover":"SCT","base":10000}],"obsTime":1775149200},"SBAF":{"icaoId":"SBAF","flightCategory":"VFR","rawOb":" SBAF 021700Z 02008KT 9999 FEW035 FEW040TCU 34/21 Q1011","temp":34,"dewp":21,"wdir":20,"wspd":8,"visib":"6+","altim":1011,"clouds":[{"cover":"FEW","base":3500},{"cover":"FEW","base":4000}],"obsTime":1775149200}}}