{"updated":1777696289,"count":55,"data":{"SBSN":{"icaoId":"SBSN","flightCategory":"VFR","rawOb":"METAR SBSN 020300Z 15001KT CAVOK 25/25 Q1012","temp":25,"dewp":25,"wdir":150,"wspd":1,"visib":"6+","altim":1012,"clouds":[],"obsTime":1777690800},"SBCT":{"icaoId":"SBCT","flightCategory":"LIFR","rawOb":"METAR SBCT 020300Z 06002KT 0150 R15/0550 R33/0650 FG VV001 17/17 Q1020","temp":17,"dewp":17,"wdir":60,"wspd":2,"visib":0.09,"altim":1020,"clouds":[{"cover":"OVX","base":100}],"obsTime":1777690800},"SBMK":{"icaoId":"SBMK","flightCategory":"VFR","rawOb":"METAR SBMK 020300Z 12004KT CAVOK 23/17 Q1020","temp":23,"dewp":17,"wdir":120,"wspd":4,"visib":"6+","altim":1020,"clouds":[],"obsTime":1777690800},"SBGL":{"icaoId":"SBGL","flightCategory":"VFR","rawOb":"METAR SBGL 020300Z 13002KT 9999 FEW030 24/22 Q1016","temp":24,"dewp":22,"wdir":130,"wspd":2,"visib":"6+","altim":1016,"clouds":[{"cover":"FEW","base":3000}],"obsTime":1777690800},"SBMO":{"icaoId":"SBMO","flightCategory":"MVFR","rawOb":"METAR SBMO 020300Z 14008KT 8000 RA BKN030 BKN055 23/23 Q1015","temp":23,"dewp":23,"wdir":140,"wspd":8,"visib":4.97,"altim":1015,"clouds":[{"cover":"BKN","base":3000},{"cover":"BKN","base":5500}],"obsTime":1777690800},"SBMQ":{"icaoId":"SBMQ","flightCategory":"MVFR","rawOb":"METAR SBMQ 020300Z 10005KT 6000 -RA SCT009 BKN016 OVC032 26/25 Q1012","temp":26,"dewp":25,"wdir":100,"wspd":5,"visib":3.73,"altim":1012,"clouds":[{"cover":"SCT","base":900},{"cover":"BKN","base":1600},{"cover":"OVC","base":3200}],"obsTime":1777690800},"SBBV":{"icaoId":"SBBV","flightCategory":"VFR","rawOb":"METAR SBBV 020300Z 11006KT 9999 FEW030 FEW035TCU BKN100 27/24 Q1012","temp":27,"dewp":24,"wdir":110,"wspd":6,"visib":"6+","altim":1012,"clouds":[{"cover":"FEW","base":3000},{"cover":"FEW","base":3500},{"cover":"BKN","base":10000}],"obsTime":1777690800},"SBGO":{"icaoId":"SBGO","flightCategory":"VFR","rawOb":"METAR SBGO 020300Z 29003KT CAVOK 21/19 Q1019","temp":21,"dewp":19,"wdir":290,"wspd":3,"visib":"6+","altim":1019,"clouds":[],"obsTime":1777690800},"SBNT":{"icaoId":"SBNT","flightCategory":"VFR","rawOb":"METAR SBNT 020300Z 18005KT 9999 FEW025 SCT100 24/23 Q1012","temp":24,"dewp":23,"wdir":180,"wspd":5,"visib":"6+","altim":1012,"clouds":[{"cover":"FEW","base":2500},{"cover":"SCT","base":10000}],"obsTime":1777690800},"SBBR":{"icaoId":"SBBR","flightCategory":"VFR","rawOb":"METAR SBBR 020300Z 12004KT 9999 SCT045 SCT080 21/17 Q1021","temp":21,"dewp":17,"wdir":120,"wspd":4,"visib":"6+","altim":1021,"clouds":[{"cover":"SCT","base":4500},{"cover":"SCT","base":8000}],"obsTime":1777690800},"SBPA":{"icaoId":"SBPA","flightCategory":"IFR","rawOb":"METAR SBPA 020300Z 06013KT 3000 TSRA BR BKN005 BKN040 FEW045CB 19/19 Q1012","temp":19,"dewp":19,"wdir":60,"wspd":13,"visib":1.86,"altim":1012,"clouds":[{"cover":"BKN","base":500},{"cover":"BKN","base":4000},{"cover":"FEW","base":4500}],"obsTime":1777690800},"SBGR":{"icaoId":"SBGR","flightCategory":"VFR","rawOb":"METAR SBGR 020300Z 06008KT CAVOK 21/20 Q1020","temp":21,"dewp":20,"wdir":60,"wspd":8,"visib":"6+","altim":1020,"clouds":[],"obsTime":1777690800},"SBPJ":{"icaoId":"SBPJ","flightCategory":"VFR","rawOb":"METAR SBPJ 020300Z 15004KT 9999 FEW035 SCT060 BKN100 27/24 Q1014","temp":27,"dewp":24,"wdir":150,"wspd":4,"visib":"6+","altim":1014,"clouds":[{"cover":"FEW","base":3500},{"cover":"SCT","base":6000},{"cover":"BKN","base":10000}],"obsTime":1777690800},"SBEG":{"icaoId":"SBEG","flightCategory":"VFR","rawOb":"METAR SBEG 020300Z 00000KT 9999 FEW010 FEW020TCU SCT100 25/25 Q1012","temp":25,"dewp":25,"wdir":0,"wspd":0,"visib":"6+","altim":1012,"clouds":[{"cover":"FEW","base":1000},{"cover":"FEW","base":2000},{"cover":"SCT","base":10000}],"obsTime":1777690800},"SBPV":{"icaoId":"SBPV","flightCategory":"VFR","rawOb":"METAR SBPV 020300Z 34004KT 9999 FEW035 27/23 Q1011","temp":27,"dewp":23,"wdir":340,"wspd":4,"visib":"6+","altim":1011,"clouds":[{"cover":"FEW","base":3500}],"obsTime":1777690800},"SBRB":{"icaoId":"SBRB","flightCategory":"MVFR","rawOb":"METAR SBRB 020300Z 20001KT 7000 -RA FEW025 FEW030TCU SCT100 26/25 Q1012","temp":26,"dewp":25,"wdir":200,"wspd":1,"visib":4.35,"altim":1012,"clouds":[{"cover":"FEW","base":2500},{"cover":"FEW","base":3000},{"cover":"SCT","base":10000}],"obsTime":1777690800},"SBJU":{"icaoId":"SBJU","flightCategory":"MVFR","rawOb":"METAR SBJU 020300Z 00000KT 9999 BKN020 24/22 Q1014","temp":24,"dewp":22,"wdir":0,"wspd":0,"visib":"6+","altim":1014,"clouds":[{"cover":"BKN","base":2000}],"obsTime":1777690800},"SBFI":{"icaoId":"SBFI","flightCategory":"VFR","rawOb":"METAR SBFI 020300Z 03005KT CAVOK 24/23 Q1013","temp":24,"dewp":23,"wdir":30,"wspd":5,"visib":"6+","altim":1013,"clouds":[],"obsTime":1777690800},"SBRF":{"icaoId":"SBRF","flightCategory":"MVFR","rawOb":"METAR SBRF 020300Z 22004KT 5000 BR SCT007 BKN010 23/23 Q1013","temp":23,"dewp":23,"wdir":220,"wspd":4,"visib":3.11,"altim":1013,"clouds":[{"cover":"SCT","base":700},{"cover":"BKN","base":1000}],"obsTime":1777690800},"SBCF":{"icaoId":"SBCF","flightCategory":"VFR","rawOb":"METAR SBCF 020300Z 17003KT CAVOK 20/15 Q1022","temp":20,"dewp":15,"wdir":170,"wspd":3,"visib":"6+","altim":1022,"clouds":[],"obsTime":1777690800},"SBSG":{"icaoId":"SBSG","flightCategory":"VFR","rawOb":"METAR SBSG 020300Z 17003KT 100V210 9999 FEW017 SCT060 24/23 Q1013","temp":24,"dewp":23,"wdir":170,"wspd":3,"visib":"6+","altim":1013,"clouds":[{"cover":"FEW","base":1700},{"cover":"SCT","base":6000}],"obsTime":1777690800},"SBKP":{"icaoId":"SBKP","flightCategory":"VFR","rawOb":"METAR SBKP 020300Z 05002KT CAVOK 24/19 Q1019","temp":24,"dewp":19,"wdir":50,"wspd":2,"visib":"6+","altim":1019,"clouds":[],"obsTime":1777690800},"SBSL":{"icaoId":"SBSL","flightCategory":"VFR","rawOb":"METAR SBSL 020300Z 00000KT 9999 FEW017 SCT080 26/25 Q1012","temp":26,"dewp":25,"wdir":0,"wspd":0,"visib":"6+","altim":1012,"clouds":[{"cover":"FEW","base":1700},{"cover":"SCT","base":8000}],"obsTime":1777690800},"SBBE":{"icaoId":"SBBE","flightCategory":"VFR","rawOb":"METAR SBBE 020300Z 09002KT CAVOK 24/24 Q1012","temp":24,"dewp":24,"wdir":90,"wspd":2,"visib":"6+","altim":1012,"clouds":[],"obsTime":1777690800},"SBLO":{"icaoId":"SBLO","flightCategory":"VFR","rawOb":"METAR SBLO 020300Z 25002KT CAVOK 22/20 Q1017","temp":22,"dewp":20,"wdir":250,"wspd":2,"visib":"6+","altim":1017,"clouds":[],"obsTime":1777690800},"SBSP":{"icaoId":"SBSP","flightCategory":"VFR","rawOb":"METAR SBSP 020300Z AUTO 04007KT 9999 FEW042 22/20 Q1020","temp":22,"dewp":20,"wdir":40,"wspd":7,"visib":"6+","altim":1020,"clouds":[{"cover":"FEW","base":4200}],"obsTime":1777690800},"SBFL":{"icaoId":"SBFL","flightCategory":"MVFR","rawOb":"METAR SBFL 020300Z 34007KT 9999 BKN030 23/21 Q1015","temp":23,"dewp":21,"wdir":340,"wspd":7,"visib":"6+","altim":1015,"clouds":[{"cover":"BKN","base":3000}],"obsTime":1777690800},"SBSV":{"icaoId":"SBSV","flightCategory":"VFR","rawOb":"METAR SBSV 020300Z 10005KT 9999 SCT023 27/23 Q1015","temp":27,"dewp":23,"wdir":100,"wspd":5,"visib":"6+","altim":1015,"clouds":[{"cover":"SCT","base":2300}],"obsTime":1777690800},"SBMA":{"icaoId":"SBMA","flightCategory":"VFR","rawOb":"METAR SBMA 020300Z 00000KT 9999 FEW015 SCT090 26/24 Q1012","temp":26,"dewp":24,"wdir":0,"wspd":0,"visib":"6+","altim":1012,"clouds":[{"cover":"FEW","base":1500},{"cover":"SCT","base":9000}],"obsTime":1777690800},"SBTE":{"icaoId":"SBTE","flightCategory":"VFR","rawOb":"METAR SBTE 020300Z 13004KT 080V170 CAVOK 27/24 Q1012","temp":27,"dewp":24,"wdir":130,"wspd":4,"visib":"6+","altim":1012,"clouds":[],"obsTime":1777690800},"SBUL":{"icaoId":"SBUL","flightCategory":"VFR","rawOb":"METAR SBUL 020300Z 13005KT CAVOK 21/14 Q1021","temp":21,"dewp":14,"wdir":130,"wspd":5,"visib":"6+","altim":1021,"clouds":[],"obsTime":1777690800},"SBME":{"icaoId":"SBME","flightCategory":"VFR","rawOb":"METAR SBME 020300Z 02005KT 9999 FEW011 23/22 Q1018","temp":23,"dewp":22,"wdir":20,"wspd":5,"visib":"6+","altim":1018,"clouds":[{"cover":"FEW","base":1100}],"obsTime":1777690800},"SBUR":{"icaoId":"SBUR","flightCategory":"VFR","rawOb":"METAR SBUR 020300Z 03006KT CAVOK 22/14 Q1020","temp":22,"dewp":14,"wdir":30,"wspd":6,"visib":"6+","altim":1020,"clouds":[],"obsTime":1777690800},"SBCG":{"icaoId":"SBCG","flightCategory":"VFR","rawOb":"METAR SBCG 020300Z 05005KT CAVOK 21/17 Q1016","temp":21,"dewp":17,"wdir":50,"wspd":5,"visib":"6+","altim":1016,"clouds":[],"obsTime":1777690800},"SBVT":{"icaoId":"SBVT","flightCategory":"VFR","rawOb":"METAR SBVT 020300Z 28002KT 9999 SCT015 BKN070 21/21 Q1018","temp":21,"dewp":21,"wdir":280,"wspd":2,"visib":"6+","altim":1018,"clouds":[{"cover":"SCT","base":1500},{"cover":"BKN","base":7000}],"obsTime":1777690800},"SBMG":{"icaoId":"SBMG","flightCategory":"VFR","rawOb":"METAR SBMG 020300Z 03006KT CAVOK 22/20 Q1016","temp":22,"dewp":20,"wdir":30,"wspd":6,"visib":"6+","altim":1016,"clouds":[],"obsTime":1777690800},"SBFZ":{"icaoId":"SBFZ","flightCategory":"VFR","rawOb":"METAR SBFZ 020300Z 16006KT 9999 FEW020 26/24 Q1011","temp":26,"dewp":24,"wdir":160,"wspd":6,"visib":"6+","altim":1011,"clouds":[{"cover":"FEW","base":2000}],"obsTime":1777690800},"SBIL":{"icaoId":"SBIL","flightCategory":"VFR","rawOb":"METAR SBIL 020300Z 26005KT 9999 FEW009 SCT021 BKN070 25/23 Q1016","temp":25,"dewp":23,"wdir":260,"wspd":5,"visib":"6+","altim":1016,"clouds":[{"cover":"FEW","base":900},{"cover":"SCT","base":2100},{"cover":"BKN","base":7000}],"obsTime":1777690800},"SBPS":{"icaoId":"SBPS","flightCategory":"MVFR","rawOb":"METAR SBPS 020300Z 24003KT 8000 -RA SCT020 BKN070 24/23 Q1018","temp":24,"dewp":23,"wdir":240,"wspd":3,"visib":4.97,"altim":1018,"clouds":[{"cover":"SCT","base":2000},{"cover":"BKN","base":7000}],"obsTime":1777690800},"SBPL":{"icaoId":"SBPL","flightCategory":"VFR","rawOb":"METAR SBPL 020300Z 14006KT CAVOK 26/21 Q1015","temp":26,"dewp":21,"wdir":140,"wspd":6,"visib":"6+","altim":1015,"clouds":[],"obsTime":1777690800},"SBAX":{"icaoId":"SBAX","flightCategory":"VFR","rawOb":"METAR SBAX 020300Z AUTO 11007KT CAVOK 19/13 Q1022","temp":19,"dewp":13,"wdir":110,"wspd":7,"visib":"6+","altim":1022,"clouds":[],"obsTime":1777690800},"SBSC":{"icaoId":"SBSC","flightCategory":"MVFR","rawOb":"METAR SBSC 020300Z 31003KT 7000 SCT015 23/22 Q1017","temp":23,"dewp":22,"wdir":310,"wspd":3,"visib":4.35,"altim":1017,"clouds":[{"cover":"SCT","base":1500}],"obsTime":1777690800},"SBDN":{"icaoId":"SBDN","flightCategory":"VFR","rawOb":"METAR SBDN 020300Z 06006KT CAVOK 24/18 Q1016","temp":24,"dewp":18,"wdir":60,"wspd":6,"visib":"6+","altim":1016,"clouds":[],"obsTime":1777690800},"SBKG":{"icaoId":"SBKG","flightCategory":"VFR","rawOb":"METAR SBKG 020300Z 26002KT CAVOK 21/20 Q1015","temp":21,"dewp":20,"wdir":260,"wspd":2,"visib":"6+","altim":1015,"clouds":[],"obsTime":1777690800},"SBAR":{"icaoId":"SBAR","flightCategory":"VFR","rawOb":"METAR SBAR 020300Z 14004KT 9999 FEW023 27/23 Q1014","temp":27,"dewp":23,"wdir":140,"wspd":4,"visib":"6+","altim":1014,"clouds":[{"cover":"FEW","base":2300}],"obsTime":1777690800},"SBSR":{"icaoId":"SBSR","flightCategory":"VFR","rawOb":"METAR SBSR 020300Z 08004KT CAVOK 24/16 Q1018","temp":24,"dewp":16,"wdir":80,"wspd":4,"visib":"6+","altim":1018,"clouds":[],"obsTime":1777690800},"SBIP":{"icaoId":"SBIP","flightCategory":"VFR","rawOb":"METAR SBIP 020300Z AUTO 00000KT CAVOK 19/19 Q1019","temp":19,"dewp":19,"wdir":0,"wspd":0,"visib":"6+","altim":1019,"clouds":[],"obsTime":1777690800},"SBOI":{"icaoId":"SBOI","flightCategory":"VFR","rawOb":"METAR SBOI 020300Z AUTO VRB01KT 9999 // FEW064/// 25/24 Q1013","temp":25,"dewp":24,"wdir":"VRB","wspd":1,"visib":"6+","altim":1013,"clouds":[{"cover":"FEW","base":6400}],"obsTime":1777690800},"SBTF":{"icaoId":"SBTF","flightCategory":"VFR","rawOb":"METAR SBTF 020300Z 07003KT 9999 FEW006 26/25 Q1011","temp":26,"dewp":25,"wdir":70,"wspd":3,"visib":"6+","altim":1011,"clouds":[{"cover":"FEW","base":600}],"obsTime":1777690800},"SBCO":{"icaoId":"SBCO","flightCategory":"IFR","rawOb":"METAR SBCO 020300Z 06010KT 4000 TSRA BKN009 FEW040CB OVC050 19/18 Q1013","temp":19,"dewp":18,"wdir":60,"wspd":10,"visib":2.49,"altim":1013,"clouds":[{"cover":"BKN","base":900},{"cover":"FEW","base":4000},{"cover":"OVC","base":5000}],"obsTime":1777690800},"SBSM":{"icaoId":"SBSM","flightCategory":"LIFR","rawOb":"METAR SBSM 020300Z 29004KT 190V320 4000 -TSRA BKN002 OVC030 //////CB 19/19 Q1011 RETS","temp":19,"dewp":19,"wdir":290,"wspd":4,"visib":2.49,"altim":1011,"clouds":[{"cover":"BKN","base":200},{"cover":"OVC","base":3000}],"obsTime":1777690800},"SBLE":{"icaoId":"SBLE","flightCategory":"MVFR","rawOb":"METAR SBLE 020300Z AUTO 00000KT 9999 FEW011 BKN022 ///// Q////","temp":null,"dewp":null,"wdir":0,"wspd":0,"visib":"6+","altim":null,"clouds":[{"cover":"FEW","base":1100},{"cover":"BKN","base":2200}],"obsTime":1777690800},"SBJV":{"icaoId":"SBJV","flightCategory":"VFR","rawOb":"METAR SBJV 020300Z 32002KT 9000 FEW010 20/19 Q1015","temp":20,"dewp":19,"wdir":320,"wspd":2,"visib":5.59,"altim":1015,"clouds":[{"cover":"FEW","base":1000}],"obsTime":1777690800},"SBAN":{"icaoId":"SBAN","flightCategory":"VFR","rawOb":"METAR SBAN 020300Z 16006KT CAVOK 19/15 Q1022","temp":19,"dewp":15,"wdir":160,"wspd":6,"visib":"6+","altim":1022,"clouds":[],"obsTime":1777690800},"SBJP":{"icaoId":"SBJP","flightCategory":"VFR","rawOb":"METAR SBJP 020300Z 17006KT 9999 FEW015 BKN070 23/22 Q1013","temp":23,"dewp":22,"wdir":170,"wspd":6,"visib":"6+","altim":1013,"clouds":[{"cover":"FEW","base":1500},{"cover":"BKN","base":7000}],"obsTime":1777690800}}}