{"updated":1779326953,"count":63,"data":{"SBMA":{"icaoId":"SBMA","flightCategory":"VFR","rawOb":"METAR SBMA 210000Z 00000KT CAVOK 28/25 Q1012","temp":28,"dewp":25,"wdir":0,"wspd":0,"visib":"6+","altim":1012,"clouds":[],"obsTime":1779321600},"SBBE":{"icaoId":"SBBE","flightCategory":"VFR","rawOb":"METAR SBBE 210000Z 15003KT 9999 SCT048 BKN069 26/25 Q1013","temp":26,"dewp":25,"wdir":150,"wspd":3,"visib":"6+","altim":1013,"clouds":[{"cover":"SCT","base":4800},{"cover":"BKN","base":6900}],"obsTime":1779321600},"SBBR":{"icaoId":"SBBR","flightCategory":"VFR","rawOb":"METAR SBBR 210000Z 18004KT CAVOK 23/16 Q1021","temp":23,"dewp":16,"wdir":180,"wspd":4,"visib":"6+","altim":1021,"clouds":[],"obsTime":1779321600},"SBVT":{"icaoId":"SBVT","flightCategory":"VFR","rawOb":"METAR SBVT 210000Z 32003KT CAVOK 21/20 Q1018","temp":21,"dewp":20,"wdir":320,"wspd":3,"visib":"6+","altim":1018,"clouds":[],"obsTime":1779321600},"SBUR":{"icaoId":"SBUR","flightCategory":"VFR","rawOb":"METAR SBUR 210000Z 15010KT CAVOK 19/17 Q1022","temp":19,"dewp":17,"wdir":150,"wspd":10,"visib":"6+","altim":1022,"clouds":[],"obsTime":1779321600},"SBBV":{"icaoId":"SBBV","flightCategory":"VFR","rawOb":"METAR SBBV 210000Z 21004KT 9999 SCT030 FEW035TCU SCT070 27/25 Q1013","temp":27,"dewp":25,"wdir":210,"wspd":4,"visib":"6+","altim":1013,"clouds":[{"cover":"SCT","base":3000},{"cover":"FEW","base":3500},{"cover":"SCT","base":7000}],"obsTime":1779321600},"SBUL":{"icaoId":"SBUL","flightCategory":"VFR","rawOb":"METAR SBUL 210000Z 21009KT 9999 FEW049 SCT090 20/18 Q1023","temp":20,"dewp":18,"wdir":210,"wspd":9,"visib":"6+","altim":1023,"clouds":[{"cover":"FEW","base":4900},{"cover":"SCT","base":9000}],"obsTime":1779321600},"SBCF":{"icaoId":"SBCF","flightCategory":"VFR","rawOb":"METAR SBCF 210000Z 18005KT 9999 -RA BKN045 BKN100 20/17 Q1022","temp":20,"dewp":17,"wdir":180,"wspd":5,"visib":"6+","altim":1022,"clouds":[{"cover":"BKN","base":4500},{"cover":"BKN","base":10000}],"obsTime":1779321600},"SBTE":{"icaoId":"SBTE","flightCategory":"VFR","rawOb":"METAR SBTE 210000Z 31002KT 9999 FEW020 28/24 Q1012","temp":28,"dewp":24,"wdir":310,"wspd":2,"visib":"6+","altim":1012,"clouds":[{"cover":"FEW","base":2000}],"obsTime":1779321600},"SBCG":{"icaoId":"SBCG","flightCategory":"VFR","rawOb":"METAR SBCG 210000Z 14008KT 9999 FEW040 BKN100 17/14 Q1022","temp":17,"dewp":14,"wdir":140,"wspd":8,"visib":"6+","altim":1022,"clouds":[{"cover":"FEW","base":4000},{"cover":"BKN","base":10000}],"obsTime":1779321600},"SBSV":{"icaoId":"SBSV","flightCategory":"VFR","rawOb":"METAR SBSV 210000Z 12006KT 9999 SCT021 SCT030 27/22 Q1016","temp":27,"dewp":22,"wdir":120,"wspd":6,"visib":"6+","altim":1016,"clouds":[{"cover":"SCT","base":2100},{"cover":"SCT","base":3000}],"obsTime":1779321600},"SBSP":{"icaoId":"SBSP","flightCategory":"IFR","rawOb":"METAR SBSP 210000Z 15007KT 9999 BKN008 OVC013 16/15 Q1023","temp":16,"dewp":15,"wdir":150,"wspd":7,"visib":"6+","altim":1023,"clouds":[{"cover":"BKN","base":800},{"cover":"OVC","base":1300}],"obsTime":1779321600},"SBMG":{"icaoId":"SBMG","flightCategory":"VFR","rawOb":"METAR SBMG 210000Z 23006KT CAVOK 15/12 Q1021","temp":15,"dewp":12,"wdir":230,"wspd":6,"visib":"6+","altim":1021,"clouds":[],"obsTime":1779321600},"SBME":{"icaoId":"SBME","flightCategory":"VFR","rawOb":"METAR SBME 210000Z 35004KT 9999 SCT020 OVC090 20/19 Q1019","temp":20,"dewp":19,"wdir":350,"wspd":4,"visib":"6+","altim":1019,"clouds":[{"cover":"SCT","base":2000},{"cover":"OVC","base":9000}],"obsTime":1779321600},"SBCT":{"icaoId":"SBCT","flightCategory":"LIFR","rawOb":"SPECI SBCT 202340Z 11005KT 6000 BKN003 13/13 Q1023","temp":13,"dewp":13,"wdir":110,"wspd":5,"visib":3.73,"altim":1023,"clouds":[{"cover":"BKN","base":300}],"obsTime":1779320400},"SBSN":{"icaoId":"SBSN","flightCategory":"VFR","rawOb":"METAR SBSN 210000Z 08001KT CAVOK 26/25 Q1012","temp":26,"dewp":25,"wdir":80,"wspd":1,"visib":"6+","altim":1012,"clouds":[],"obsTime":1779321600},"SBEG":{"icaoId":"SBEG","flightCategory":"VFR","rawOb":"METAR SBEG 210000Z 20003KT 9999 -RA VCTS SCT007 SCT020 FEW025CB 25/24 Q1014","temp":25,"dewp":24,"wdir":200,"wspd":3,"visib":"6+","altim":1014,"clouds":[{"cover":"SCT","base":700},{"cover":"SCT","base":2000},{"cover":"FEW","base":2500}],"obsTime":1779321600},"SBSL":{"icaoId":"SBSL","flightCategory":"VFR","rawOb":"METAR SBSL 210000Z 08007KT 9999 FEW025 27/25 Q1013","temp":27,"dewp":25,"wdir":80,"wspd":7,"visib":"6+","altim":1013,"clouds":[{"cover":"FEW","base":2500}],"obsTime":1779321600},"SBFI":{"icaoId":"SBFI","flightCategory":"VFR","rawOb":"METAR SBFI 210000Z 03001KT CAVOK 09/09 Q1023","temp":9,"dewp":9,"wdir":30,"wspd":1,"visib":"6+","altim":1023,"clouds":[],"obsTime":1779321600},"SBSG":{"icaoId":"SBSG","flightCategory":"VFR","rawOb":"METAR SBSG 210000Z 13006KT 9999 FEW023 25/23 Q1015","temp":25,"dewp":23,"wdir":130,"wspd":6,"visib":"6+","altim":1015,"clouds":[{"cover":"FEW","base":2300}],"obsTime":1779321600},"SBRF":{"icaoId":"SBRF","flightCategory":"VFR","rawOb":"METAR SBRF 210000Z 12006KT 9999 FEW025 27/22 Q1015","temp":27,"dewp":22,"wdir":120,"wspd":6,"visib":"6+","altim":1015,"clouds":[{"cover":"FEW","base":2500}],"obsTime":1779321600},"SBFL":{"icaoId":"SBFL","flightCategory":"MVFR","rawOb":"METAR SBFL 210000Z 19005KT 9999 OVC030 16/10 Q1022","temp":16,"dewp":10,"wdir":190,"wspd":5,"visib":"6+","altim":1022,"clouds":[{"cover":"OVC","base":3000}],"obsTime":1779321600},"SBRB":{"icaoId":"SBRB","flightCategory":"MVFR","rawOb":"METAR SBRB 210000Z 16002KT 9999 OVC015 21/19 Q1017","temp":21,"dewp":19,"wdir":160,"wspd":2,"visib":"6+","altim":1017,"clouds":[{"cover":"OVC","base":1500}],"obsTime":1779321600},"SBFZ":{"icaoId":"SBFZ","flightCategory":"VFR","rawOb":"METAR SBFZ 210000Z 12008KT 9999 FEW040 27/24 Q1013","temp":27,"dewp":24,"wdir":120,"wspd":8,"visib":"6+","altim":1013,"clouds":[{"cover":"FEW","base":4000}],"obsTime":1779321600},"SBPV":{"icaoId":"SBPV","flightCategory":"MVFR","rawOb":"METAR SBPV 210000Z 00000KT 9999 BKN017 23/19 Q1015","temp":23,"dewp":19,"wdir":0,"wspd":0,"visib":"6+","altim":1015,"clouds":[{"cover":"BKN","base":1700}],"obsTime":1779321600},"SBGL":{"icaoId":"SBGL","flightCategory":"VFR","rawOb":"METAR SBGL 210000Z 27006KT 9999 FEW012 SCT020 BKN033 22/20 Q1020","temp":22,"dewp":20,"wdir":270,"wspd":6,"visib":"6+","altim":1020,"clouds":[{"cover":"FEW","base":1200},{"cover":"SCT","base":2000},{"cover":"BKN","base":3300}],"obsTime":1779321600},"SBPJ":{"icaoId":"SBPJ","flightCategory":"VFR","rawOb":"METAR SBPJ 210000Z 13005KT CAVOK 26/21 Q1014","temp":26,"dewp":21,"wdir":130,"wspd":5,"visib":"6+","altim":1014,"clouds":[],"obsTime":1779321600},"SBGO":{"icaoId":"SBGO","flightCategory":"VFR","rawOb":"METAR SBGO 210000Z 15008KT CAVOK 24/20 Q1020","temp":24,"dewp":20,"wdir":150,"wspd":8,"visib":"6+","altim":1020,"clouds":[],"obsTime":1779321600},"SBGR":{"icaoId":"SBGR","flightCategory":"MVFR","rawOb":"METAR SBGR 210000Z 11005KT 9999 FEW011 BKN030 17/15 Q1023","temp":17,"dewp":15,"wdir":110,"wspd":5,"visib":"6+","altim":1023,"clouds":[{"cover":"FEW","base":1100},{"cover":"BKN","base":3000}],"obsTime":1779321600},"SBPA":{"icaoId":"SBPA","flightCategory":"VFR","rawOb":"METAR SBPA 210000Z 25004KT CAVOK 13/08 Q1023","temp":13,"dewp":8,"wdir":250,"wspd":4,"visib":"6+","altim":1023,"clouds":[],"obsTime":1779321600},"SBIL":{"icaoId":"SBIL","flightCategory":"VFR","rawOb":"METAR SBIL 210000Z 15004KT 9999 SCT033 25/23 Q1017","temp":25,"dewp":23,"wdir":150,"wspd":4,"visib":"6+","altim":1017,"clouds":[{"cover":"SCT","base":3300}],"obsTime":1779321600},"SBNT":{"icaoId":"SBNT","flightCategory":"VFR","rawOb":"METAR SBNT 210000Z 14005KT 9999 FEW020 BKN050 26/23 Q1015","temp":26,"dewp":23,"wdir":140,"wspd":5,"visib":"6+","altim":1015,"clouds":[{"cover":"FEW","base":2000},{"cover":"BKN","base":5000}],"obsTime":1779321600},"SBJU":{"icaoId":"SBJU","flightCategory":"VFR","rawOb":"METAR SBJU 210000Z 00000KT 9999 SCT020 24/21 Q1016","temp":24,"dewp":21,"wdir":0,"wspd":0,"visib":"6+","altim":1016,"clouds":[{"cover":"SCT","base":2000}],"obsTime":1779321600},"SBMQ":{"icaoId":"SBMQ","flightCategory":"VFR","rawOb":"METAR SBMQ 210000Z 02005KT CAVOK 27/26 Q1013","temp":27,"dewp":26,"wdir":20,"wspd":5,"visib":"6+","altim":1013,"clouds":[],"obsTime":1779321600},"SBMO":{"icaoId":"SBMO","flightCategory":"VFR","rawOb":"METAR SBMO 210000Z 26002KT 9999 FEW024 BKN035 24/23 Q1016","temp":24,"dewp":23,"wdir":260,"wspd":2,"visib":"6+","altim":1016,"clouds":[{"cover":"FEW","base":2400},{"cover":"BKN","base":3500}],"obsTime":1779321600},"SBKP":{"icaoId":"SBKP","flightCategory":"VFR","rawOb":"METAR SBKP 210000Z 12005KT 9999 FEW035 SCT070 17/15 Q1022","temp":17,"dewp":15,"wdir":120,"wspd":5,"visib":"6+","altim":1022,"clouds":[{"cover":"FEW","base":3500},{"cover":"SCT","base":7000}],"obsTime":1779321600},"SBMK":{"icaoId":"SBMK","flightCategory":"VFR","rawOb":"METAR SBMK 210000Z 10004KT CAVOK 24/17 Q1020","temp":24,"dewp":17,"wdir":100,"wspd":4,"visib":"6+","altim":1020,"clouds":[],"obsTime":1779321600},"SBLO":{"icaoId":"SBLO","flightCategory":"VFR","rawOb":"METAR SBLO 210000Z 25002KT 9999 FEW035 17/14 Q1021","temp":17,"dewp":14,"wdir":250,"wspd":2,"visib":"6+","altim":1021,"clouds":[{"cover":"FEW","base":3500}],"obsTime":1779321600},"SBCZ":{"icaoId":"SBCZ","flightCategory":"MVFR","rawOb":"METAR SBCZ 210000Z 12005KT 9999 SCT008 OVC015 20/19 Q1016","temp":20,"dewp":19,"wdir":120,"wspd":5,"visib":"6+","altim":1016,"clouds":[{"cover":"SCT","base":800},{"cover":"OVC","base":1500}],"obsTime":1779321600},"SBAR":{"icaoId":"SBAR","flightCategory":"VFR","rawOb":"METAR SBAR 210000Z 11007KT 9999 FEW015 SCT020 27/23 Q1015","temp":27,"dewp":23,"wdir":110,"wspd":7,"visib":"6+","altim":1015,"clouds":[{"cover":"FEW","base":1500},{"cover":"SCT","base":2000}],"obsTime":1779321600},"SBAX":{"icaoId":"SBAX","flightCategory":"VFR","rawOb":"METAR SBAX 210000Z 12008KT CAVOK 19/19 Q1022","temp":19,"dewp":19,"wdir":120,"wspd":8,"visib":"6+","altim":1022,"clouds":[],"obsTime":1779321600},"SBBH":{"icaoId":"SBBH","flightCategory":"VFR","rawOb":"METAR SBBH 210000Z 09005KT 9999 -RA BKN040 OVC100 20/17 Q1022","temp":20,"dewp":17,"wdir":90,"wspd":5,"visib":"6+","altim":1022,"clouds":[{"cover":"BKN","base":4000},{"cover":"OVC","base":10000}],"obsTime":1779321600},"SBBU":{"icaoId":"SBBU","flightCategory":"VFR","rawOb":"METAR SBBU 210000Z 18002KT CAVOK 20/18 Q1021","temp":20,"dewp":18,"wdir":180,"wspd":2,"visib":"6+","altim":1021,"clouds":[],"obsTime":1779321600},"SBCA":{"icaoId":"SBCA","flightCategory":"VFR","rawOb":"METAR SBCA 210000Z 20006KT CAVOK 10/06 Q1024","temp":10,"dewp":6,"wdir":200,"wspd":6,"visib":"6+","altim":1024,"clouds":[],"obsTime":1779321600},"SBCO":{"icaoId":"SBCO","flightCategory":"VFR","rawOb":"METAR SBCO 210000Z 17003KT CAVOK 10/07 Q1024","temp":10,"dewp":7,"wdir":170,"wspd":3,"visib":"6+","altim":1024,"clouds":[],"obsTime":1779321600},"SBDN":{"icaoId":"SBDN","flightCategory":"VFR","rawOb":"METAR SBDN 210000Z 00000KT 9999 FEW039 18/15 Q1021","temp":18,"dewp":15,"wdir":0,"wspd":0,"visib":"6+","altim":1021,"clouds":[{"cover":"FEW","base":3900}],"obsTime":1779321600},"SBES":{"icaoId":"SBES","flightCategory":"VFR","rawOb":"METAR SBES 210000Z 00000KT 9000 FEW010 19/// Q1019","temp":null,"dewp":null,"wdir":0,"wspd":0,"visib":5.59,"altim":1019,"clouds":[{"cover":"FEW","base":1000}],"obsTime":1779321600},"SBKG":{"icaoId":"SBKG","flightCategory":"VFR","rawOb":"METAR SBKG 210000Z 10006KT CAVOK 22/19 Q1018","temp":22,"dewp":19,"wdir":100,"wspd":6,"visib":"6+","altim":1018,"clouds":[],"obsTime":1779321600},"SBPL":{"icaoId":"SBPL","flightCategory":"VFR","rawOb":"METAR SBPL 210000Z 13005KT CAVOK 28/19 Q1015","temp":28,"dewp":19,"wdir":130,"wspd":5,"visib":"6+","altim":1015,"clouds":[],"obsTime":1779321600},"SBPS":{"icaoId":"SBPS","flightCategory":"VFR","rawOb":"METAR SBPS 210000Z 14003KT 9999 SCT020 BKN070 25/22 Q1017","temp":25,"dewp":22,"wdir":140,"wspd":3,"visib":"6+","altim":1017,"clouds":[{"cover":"SCT","base":2000},{"cover":"BKN","base":7000}],"obsTime":1779321600},"SBSC":{"icaoId":"SBSC","flightCategory":"IFR","rawOb":"METAR SBSC 210000Z 22005KT 3000 -RA BR BKN008 BKN030 OVC035 21/20 Q1020","temp":21,"dewp":20,"wdir":220,"wspd":5,"visib":1.86,"altim":1020,"clouds":[{"cover":"BKN","base":800},{"cover":"BKN","base":3000},{"cover":"OVC","base":3500}],"obsTime":1779321600},"SBSJ":{"icaoId":"SBSJ","flightCategory":"VFR","rawOb":"METAR SBSJ 210000Z 20005KT 9999 SCT027 17/15 Q1022","temp":17,"dewp":15,"wdir":200,"wspd":5,"visib":"6+","altim":1022,"clouds":[{"cover":"SCT","base":2700}],"obsTime":1779321600},"SBSM":{"icaoId":"SBSM","flightCategory":"VFR","rawOb":"METAR SBSM 210000Z 00000KT CAVOK 08/07 Q1024","temp":8,"dewp":7,"wdir":0,"wspd":0,"visib":"6+","altim":1024,"clouds":[],"obsTime":1779321600},"SBSR":{"icaoId":"SBSR","flightCategory":"VFR","rawOb":"METAR SBSR 210000Z 23003KT CAVOK 20/17 Q1021","temp":20,"dewp":17,"wdir":230,"wspd":3,"visib":"6+","altim":1021,"clouds":[],"obsTime":1779321600},"SBLE":{"icaoId":"SBLE","flightCategory":"VFR","rawOb":"METAR SBLE 210000Z AUTO 06005KT CAVOK 22/22 Q1018","temp":22,"dewp":22,"wdir":60,"wspd":5,"visib":"6+","altim":1018,"clouds":[],"obsTime":1779321600},"SBJV":{"icaoId":"SBJV","flightCategory":"MVFR","rawOb":"METAR SBJV 210000Z 15004KT 9999 BKN015 BKN025 18/16 Q1022","temp":18,"dewp":16,"wdir":150,"wspd":4,"visib":"6+","altim":1022,"clouds":[{"cover":"BKN","base":1500},{"cover":"BKN","base":2500}],"obsTime":1779321600},"SBNM":{"icaoId":"SBNM","flightCategory":"VFR","rawOb":"METAR SBNM 210000Z AUTO 21004KT CAVOK 12/06 Q1025","temp":12,"dewp":6,"wdir":210,"wspd":4,"visib":"6+","altim":1025,"clouds":[],"obsTime":1779321600},"SBLS":{"icaoId":"SBLS","flightCategory":"VFR","rawOb":"METAR SBLS 210000Z 19006KT 9999 FEW045 BKN100 20/16 Q1022","temp":20,"dewp":16,"wdir":190,"wspd":6,"visib":"6+","altim":1022,"clouds":[{"cover":"FEW","base":4500},{"cover":"BKN","base":10000}],"obsTime":1779321600},"SBMT":{"icaoId":"SBMT","flightCategory":"MVFR","rawOb":"METAR SBMT 210000Z 11006KT 9999 SCT011 BKN013 17/15 Q1022","temp":17,"dewp":15,"wdir":110,"wspd":6,"visib":"6+","altim":1022,"clouds":[{"cover":"SCT","base":1100},{"cover":"BKN","base":1300}],"obsTime":1779321600},"SBTA":{"icaoId":"SBTA","flightCategory":"VFR","rawOb":"METAR SBTA 210000Z 17004KT 9999 FEW025 BKN040 BKN050 19/15 Q1021","temp":19,"dewp":15,"wdir":170,"wspd":4,"visib":"6+","altim":1021,"clouds":[{"cover":"FEW","base":2500},{"cover":"BKN","base":4000},{"cover":"BKN","base":5000}],"obsTime":1779321600},"SBAN":{"icaoId":"SBAN","flightCategory":"VFR","rawOb":"METAR SBAN 210000Z 29009KT CAVOK 21/18 Q1022","temp":21,"dewp":18,"wdir":290,"wspd":9,"visib":"6+","altim":1022,"clouds":[],"obsTime":1779321600},"SBJP":{"icaoId":"SBJP","flightCategory":"VFR","rawOb":"METAR SBJP 210000Z 14005KT CAVOK 24/23 Q1015","temp":24,"dewp":23,"wdir":140,"wspd":5,"visib":"6+","altim":1015,"clouds":[],"obsTime":1779321600},"SBJR":{"icaoId":"SBJR","flightCategory":"MVFR","rawOb":"METAR SBJR 210000Z 28002KT 7000 VCSH FEW006 BKN012 BKN080 22/21 Q1019","temp":22,"dewp":21,"wdir":280,"wspd":2,"visib":4.35,"altim":1019,"clouds":[{"cover":"FEW","base":600},{"cover":"BKN","base":1200},{"cover":"BKN","base":8000}],"obsTime":1779321600}}}