{"updated":1780209409,"count":53,"data":{"SBSP":{"icaoId":"SBSP","flightCategory":"MVFR","rawOb":"SPECI SBSP 310441Z AUTO 20005KT 9999 BKN010 OVC017 15/14 Q1023","temp":15,"dewp":14,"wdir":200,"wspd":5,"visib":"6+","altim":1023,"clouds":[{"cover":"BKN","base":1000},{"cover":"OVC","base":1700}],"obsTime":1780202460},"SBCT":{"icaoId":"SBCT","flightCategory":"IFR","rawOb":"METAR SBCT 310500Z 33001KT 5000 BR BKN009 13/12 Q1023","temp":13,"dewp":12,"wdir":330,"wspd":1,"visib":3.11,"altim":1023,"clouds":[{"cover":"BKN","base":900}],"obsTime":1780203600},"SBPA":{"icaoId":"SBPA","flightCategory":"MVFR","rawOb":"METAR SBPA 310500Z VRB01KT 8000 BKN035 BKN070 16/15 Q1020","temp":16,"dewp":15,"wdir":"VRB","wspd":1,"visib":4.97,"altim":1020,"clouds":[{"cover":"BKN","base":3500},{"cover":"BKN","base":7000}],"obsTime":1780203600},"SBGO":{"icaoId":"SBGO","flightCategory":"VFR","rawOb":"METAR SBGO 310500Z VRB02KT CAVOK 17/16 Q1020","temp":17,"dewp":16,"wdir":"VRB","wspd":2,"visib":"6+","altim":1020,"clouds":[],"obsTime":1780203600},"SBBV":{"icaoId":"SBBV","flightCategory":"VFR","rawOb":"METAR SBBV 310500Z 03001KT 9999 -SHRA SCT013 BKN040 FEW045TCU BKN100 26/26 Q1015","temp":26,"dewp":26,"wdir":30,"wspd":1,"visib":"6+","altim":1015,"clouds":[{"cover":"SCT","base":1300},{"cover":"BKN","base":4000},{"cover":"FEW","base":4500},{"cover":"BKN","base":10000}],"obsTime":1780203600},"SBPJ":{"icaoId":"SBPJ","flightCategory":"VFR","rawOb":"METAR SBPJ 310500Z 13005KT CAVOK 22/20 Q1014","temp":22,"dewp":20,"wdir":130,"wspd":5,"visib":"6+","altim":1014,"clouds":[],"obsTime":1780203600},"SBPV":{"icaoId":"SBPV","flightCategory":"VFR","rawOb":"METAR SBPV 310500Z 00000KT CAVOK 24/22 Q1014","temp":24,"dewp":22,"wdir":0,"wspd":0,"visib":"6+","altim":1014,"clouds":[],"obsTime":1780203600},"SBCF":{"icaoId":"SBCF","flightCategory":"VFR","rawOb":"METAR SBCF 310500Z 34001KT CAVOK 16/15 Q1022","temp":16,"dewp":15,"wdir":340,"wspd":1,"visib":"6+","altim":1022,"clouds":[],"obsTime":1780203600},"SBRB":{"icaoId":"SBRB","flightCategory":"VFR","rawOb":"METAR SBRB 310500Z 00000KT CAVOK 22/22 Q1015","temp":22,"dewp":22,"wdir":0,"wspd":0,"visib":"6+","altim":1015,"clouds":[],"obsTime":1780203600},"SBGR":{"icaoId":"SBGR","flightCategory":"MVFR","rawOb":"METAR SBGR 310500Z 18005KT 9999 OVC023 16/13 Q1022","temp":16,"dewp":13,"wdir":180,"wspd":5,"visib":"6+","altim":1022,"clouds":[{"cover":"OVC","base":2300}],"obsTime":1780203600},"SBRF":{"icaoId":"SBRF","flightCategory":"VFR","rawOb":"METAR SBRF 310500Z 23003KT 9999 VCSH FEW020 BKN040 24/23 Q1014","temp":24,"dewp":23,"wdir":230,"wspd":3,"visib":"6+","altim":1014,"clouds":[{"cover":"FEW","base":2000},{"cover":"BKN","base":4000}],"obsTime":1780203600},"SBJU":{"icaoId":"SBJU","flightCategory":"MVFR","rawOb":"METAR SBJU 310500Z 13004KT 9999 BKN019 23/19 Q1016","temp":23,"dewp":19,"wdir":130,"wspd":4,"visib":"6+","altim":1016,"clouds":[{"cover":"BKN","base":1900}],"obsTime":1780203600},"SBSG":{"icaoId":"SBSG","flightCategory":"VFR","rawOb":"METAR SBSG 310500Z 18004KT 150V210 9999 SCT015 23/23 Q1014","temp":23,"dewp":23,"wdir":180,"wspd":4,"visib":"6+","altim":1014,"clouds":[{"cover":"SCT","base":1500}],"obsTime":1780203600},"SBEG":{"icaoId":"SBEG","flightCategory":"VFR","rawOb":"METAR SBEG 310500Z 05003KT 350V080 9999 VCTS SCT020 FEW025CB BKN100 25/23 Q1013","temp":25,"dewp":23,"wdir":50,"wspd":3,"visib":"6+","altim":1013,"clouds":[{"cover":"SCT","base":2000},{"cover":"FEW","base":2500},{"cover":"BKN","base":10000}],"obsTime":1780203600},"SBSL":{"icaoId":"SBSL","flightCategory":"VFR","rawOb":"METAR SBSL 310500Z 10005KT CAVOK 25/24 Q1013","temp":25,"dewp":24,"wdir":100,"wspd":5,"visib":"6+","altim":1013,"clouds":[],"obsTime":1780203600},"SBSN":{"icaoId":"SBSN","flightCategory":"VFR","rawOb":"METAR SBSN 310500Z 08003KT 9000 -TSRA FEW015 FEW023CB OVC073 25/24 Q1013","temp":25,"dewp":24,"wdir":80,"wspd":3,"visib":5.59,"altim":1013,"clouds":[{"cover":"FEW","base":1500},{"cover":"FEW","base":2300},{"cover":"OVC","base":7300}],"obsTime":1780203600},"SBKP":{"icaoId":"SBKP","flightCategory":"VFR","rawOb":"METAR SBKP 310500Z 17005KT CAVOK 16/15 Q1021","temp":16,"dewp":15,"wdir":170,"wspd":5,"visib":"6+","altim":1021,"clouds":[],"obsTime":1780203600},"SBMQ":{"icaoId":"SBMQ","flightCategory":"VFR","rawOb":"METAR SBMQ 310500Z 21002KT 9999 SCT011 SCT023 BKN100 26/26 Q1013","temp":26,"dewp":26,"wdir":210,"wspd":2,"visib":"6+","altim":1013,"clouds":[{"cover":"SCT","base":1100},{"cover":"SCT","base":2300},{"cover":"BKN","base":10000}],"obsTime":1780203600},"SBFL":{"icaoId":"SBFL","flightCategory":"IFR","rawOb":"METAR SBFL 310500Z 21003KT 8000 BKN007 15/14 Q1020","temp":15,"dewp":14,"wdir":210,"wspd":3,"visib":4.97,"altim":1020,"clouds":[{"cover":"BKN","base":700}],"obsTime":1780203600},"SBMK":{"icaoId":"SBMK","flightCategory":"VFR","rawOb":"METAR SBMK 310500Z 00000KT CAVOK 17/15 Q1020","temp":17,"dewp":15,"wdir":0,"wspd":0,"visib":"6+","altim":1020,"clouds":[],"obsTime":1780203600},"SBFZ":{"icaoId":"SBFZ","flightCategory":"VFR","rawOb":"METAR SBFZ 310500Z 21003KT 9999 FEW020 BKN070 26/24 Q1013","temp":26,"dewp":24,"wdir":210,"wspd":3,"visib":"6+","altim":1013,"clouds":[{"cover":"FEW","base":2000},{"cover":"BKN","base":7000}],"obsTime":1780203600},"SBBR":{"icaoId":"SBBR","flightCategory":"VFR","rawOb":"METAR SBBR 310500Z 00000KT CAVOK 15/14 Q1022","temp":15,"dewp":14,"wdir":0,"wspd":0,"visib":"6+","altim":1022,"clouds":[],"obsTime":1780203600},"SBMO":{"icaoId":"SBMO","flightCategory":"VFR","rawOb":"METAR SBMO 310500Z 30003KT 9999 FEW020 21/21 Q1015","temp":21,"dewp":21,"wdir":300,"wspd":3,"visib":"6+","altim":1015,"clouds":[{"cover":"FEW","base":2000}],"obsTime":1780203600},"SBGL":{"icaoId":"SBGL","flightCategory":"VFR","rawOb":"METAR SBGL 310500Z 28007KT 260V320 9999 SCT045 SCT066 22/18 Q1018","temp":22,"dewp":18,"wdir":280,"wspd":7,"visib":"6+","altim":1018,"clouds":[{"cover":"SCT","base":4500},{"cover":"SCT","base":6600}],"obsTime":1780203600},"SBNT":{"icaoId":"SBNT","flightCategory":"VFR","rawOb":"METAR SBNT 310500Z 18006KT 9999 FEW018 SCT100 24/23 Q1013","temp":24,"dewp":23,"wdir":180,"wspd":6,"visib":"6+","altim":1013,"clouds":[{"cover":"FEW","base":1800},{"cover":"SCT","base":10000}],"obsTime":1780203600},"SBVT":{"icaoId":"SBVT","flightCategory":"VFR","rawOb":"METAR SBVT 310500Z 00000KT CAVOK 16/14 Q1018","temp":16,"dewp":14,"wdir":0,"wspd":0,"visib":"6+","altim":1018,"clouds":[],"obsTime":1780203600},"SBUR":{"icaoId":"SBUR","flightCategory":"VFR","rawOb":"METAR SBUR 310500Z 01003KT CAVOK 20/16 Q1020","temp":20,"dewp":16,"wdir":10,"wspd":3,"visib":"6+","altim":1020,"clouds":[],"obsTime":1780203600},"SBLO":{"icaoId":"SBLO","flightCategory":"VFR","rawOb":"METAR SBLO 310500Z 23002KT CAVOK 16/14 Q1021","temp":16,"dewp":14,"wdir":230,"wspd":2,"visib":"6+","altim":1021,"clouds":[],"obsTime":1780203600},"SBSV":{"icaoId":"SBSV","flightCategory":"IFR","rawOb":"METAR SBSV 310500Z 17010KT 4000 -RA BR BKN012 BKN019 OVC040 23/22 Q1017 RERA","temp":23,"dewp":22,"wdir":170,"wspd":10,"visib":2.49,"altim":1017,"clouds":[{"cover":"BKN","base":1200},{"cover":"BKN","base":1900},{"cover":"OVC","base":4000}],"obsTime":1780203600},"SBFI":{"icaoId":"SBFI","flightCategory":"LIFR","rawOb":"METAR SBFI 310500Z 00000KT 1500 R15///// R33///// BCFG NSC 13/13 Q1020","temp":13,"dewp":13,"wdir":0,"wspd":0,"visib":0.93,"altim":1020,"clouds":[],"obsTime":1780203600},"SBTE":{"icaoId":"SBTE","flightCategory":"VFR","rawOb":"METAR SBTE 310500Z VRB01KT 9999 FEW020 BKN080 26/22 Q1012","temp":26,"dewp":22,"wdir":"VRB","wspd":1,"visib":"6+","altim":1012,"clouds":[{"cover":"FEW","base":2000},{"cover":"BKN","base":8000}],"obsTime":1780203600},"SBMA":{"icaoId":"SBMA","flightCategory":"VFR","rawOb":"METAR SBMA 310500Z 00000KT CAVOK 25/22 Q1013","temp":25,"dewp":22,"wdir":0,"wspd":0,"visib":"6+","altim":1013,"clouds":[],"obsTime":1780203600},"SBUL":{"icaoId":"SBUL","flightCategory":"VFR","rawOb":"METAR SBUL 310500Z 12004KT 9999 SCT045 19/15 Q1022","temp":19,"dewp":15,"wdir":120,"wspd":4,"visib":"6+","altim":1022,"clouds":[{"cover":"SCT","base":4500}],"obsTime":1780203600},"SBBE":{"icaoId":"SBBE","flightCategory":"VFR","rawOb":"METAR SBBE 310500Z 14005KT 9999 FEW010 SCT030 BKN100 25/25 Q1014","temp":25,"dewp":25,"wdir":140,"wspd":5,"visib":"6+","altim":1014,"clouds":[{"cover":"FEW","base":1000},{"cover":"SCT","base":3000},{"cover":"BKN","base":10000}],"obsTime":1780203600},"SBME":{"icaoId":"SBME","flightCategory":"VFR","rawOb":"METAR SBME 310500Z 02008KT CAVOK 20/14 Q1017","temp":20,"dewp":14,"wdir":20,"wspd":8,"visib":"6+","altim":1017,"clouds":[],"obsTime":1780203600},"SBCG":{"icaoId":"SBCG","flightCategory":"VFR","rawOb":"METAR SBCG 310500Z 12006KT CAVOK 18/16 Q1020","temp":18,"dewp":16,"wdir":120,"wspd":6,"visib":"6+","altim":1020,"clouds":[],"obsTime":1780203600},"SBMG":{"icaoId":"SBMG","flightCategory":"VFR","rawOb":"METAR SBMG 310500Z AUTO 13006KT CAVOK 17/13 Q1020","temp":17,"dewp":13,"wdir":130,"wspd":6,"visib":"6+","altim":1020,"clouds":[],"obsTime":1780203600},"SBOI":{"icaoId":"SBOI","flightCategory":"MVFR","rawOb":"METAR SBOI 310500Z AUTO VRB02KT 8000 // FEW002/// OVC062/// 25/24 Q1014","temp":25,"dewp":24,"wdir":"VRB","wspd":2,"visib":4.97,"altim":1014,"clouds":[{"cover":"FEW","base":200},{"cover":"OVC","base":6200}],"obsTime":1780203600},"SBDN":{"icaoId":"SBDN","flightCategory":"VFR","rawOb":"METAR SBDN 310500Z 11004KT CAVOK 16/13 Q1020","temp":16,"dewp":13,"wdir":110,"wspd":4,"visib":"6+","altim":1020,"clouds":[],"obsTime":1780203600},"SBAR":{"icaoId":"SBAR","flightCategory":"VFR","rawOb":"METAR SBAR 310500Z 14006KT 9999 FEW023 26/22 Q1015","temp":26,"dewp":22,"wdir":140,"wspd":6,"visib":"6+","altim":1015,"clouds":[{"cover":"FEW","base":2300}],"obsTime":1780203600},"SBAX":{"icaoId":"SBAX","flightCategory":"VFR","rawOb":"METAR SBAX 310500Z AUTO 12004KT 9999 SCT040 17/15 Q1022","temp":17,"dewp":15,"wdir":120,"wspd":4,"visib":"6+","altim":1022,"clouds":[{"cover":"SCT","base":4000}],"obsTime":1780203600},"SBIP":{"icaoId":"SBIP","flightCategory":"IFR","rawOb":"METAR SBIP 310500Z AUTO 19003KT 1800 BR SCT003 17/17 Q1020","temp":17,"dewp":17,"wdir":190,"wspd":3,"visib":1.12,"altim":1020,"clouds":[{"cover":"SCT","base":300}],"obsTime":1780203600},"SBKG":{"icaoId":"SBKG","flightCategory":"IFR","rawOb":"METAR SBKG 310500Z 15003KT 9999 BKN007 22/21 Q1017","temp":22,"dewp":21,"wdir":150,"wspd":3,"visib":"6+","altim":1017,"clouds":[{"cover":"BKN","base":700}],"obsTime":1780203600},"SBPL":{"icaoId":"SBPL","flightCategory":"VFR","rawOb":"METAR SBPL 310500Z 12010KT CAVOK 24/20 Q1017","temp":24,"dewp":20,"wdir":120,"wspd":10,"visib":"6+","altim":1017,"clouds":[],"obsTime":1780203600},"SBPS":{"icaoId":"SBPS","flightCategory":"VFR","rawOb":"METAR SBPS 310500Z 25005KT 9999 SCT015 BKN070 21/19 Q1018","temp":21,"dewp":19,"wdir":250,"wspd":5,"visib":"6+","altim":1018,"clouds":[{"cover":"SCT","base":1500},{"cover":"BKN","base":7000}],"obsTime":1780203600},"SBSC":{"icaoId":"SBSC","flightCategory":"VFR","rawOb":"METAR SBSC 310500Z 26005KT 9999 FEW040 21/18 Q1018","temp":21,"dewp":18,"wdir":260,"wspd":5,"visib":"6+","altim":1018,"clouds":[{"cover":"FEW","base":4000}],"obsTime":1780203600},"SBSJ":{"icaoId":"SBSJ","flightCategory":"MVFR","rawOb":"METAR SBSJ 310500Z 23005KT 8000 OVC011 17/15 Q1022","temp":17,"dewp":15,"wdir":230,"wspd":5,"visib":4.97,"altim":1022,"clouds":[{"cover":"OVC","base":1100}],"obsTime":1780203600},"SBSR":{"icaoId":"SBSR","flightCategory":"VFR","rawOb":"METAR SBSR 310500Z 17005KT CAVOK 19/14 Q1020","temp":19,"dewp":14,"wdir":170,"wspd":5,"visib":"6+","altim":1020,"clouds":[],"obsTime":1780203600},"SBTU":{"icaoId":"SBTU","flightCategory":"LIFR","rawOb":"METAR SBTU 310500Z AUTO 21011KT 9999 // OVC002/// 24/23 Q1016","temp":24,"dewp":23,"wdir":210,"wspd":11,"visib":"6+","altim":1016,"clouds":[{"cover":"OVC","base":200}],"obsTime":1780203600},"SBNM":{"icaoId":"SBNM","flightCategory":"IFR","rawOb":"METAR SBNM 310500Z AUTO 01002KT 5000 BR OVC007 15/15 Q1022","temp":15,"dewp":15,"wdir":10,"wspd":2,"visib":3.11,"altim":1022,"clouds":[{"cover":"OVC","base":700}],"obsTime":1780203600},"SBAN":{"icaoId":"SBAN","flightCategory":"VFR","rawOb":"METAR SBAN 310500Z 15004KT CAVOK 17/14 Q1024","temp":17,"dewp":14,"wdir":150,"wspd":4,"visib":"6+","altim":1024,"clouds":[],"obsTime":1780203600},"SBJP":{"icaoId":"SBJP","flightCategory":"MVFR","rawOb":"METAR SBJP 310500Z 17006KT 9999 BKN016 23/23 Q1015","temp":23,"dewp":23,"wdir":170,"wspd":6,"visib":"6+","altim":1015,"clouds":[{"cover":"BKN","base":1600}],"obsTime":1780203600},"SBLE":{"icaoId":"SBLE","flightCategory":"VFR","rawOb":"METAR SBLE 310500Z AUTO VRB02KT 9999 OVC032 ///// Q////","temp":null,"dewp":null,"wdir":"VRB","wspd":2,"visib":"6+","altim":null,"clouds":[{"cover":"OVC","base":3200}],"obsTime":1780203600}}}