{"updated":1778290158,"count":67,"data":{"SBMO":{"icaoId":"SBMO","flightCategory":"MVFR","rawOb":"SPECI SBMO 082340Z VRB01KT 9999 FEW004 BKN022 OVC070 24/24 Q1014","temp":24,"dewp":24,"wdir":"VRB","wspd":1,"visib":"6+","altim":1014,"clouds":[{"cover":"FEW","base":400},{"cover":"BKN","base":2200},{"cover":"OVC","base":7000}],"obsTime":1778283600},"SBVT":{"icaoId":"SBVT","flightCategory":"VFR","rawOb":"METAR SBVT 090000Z 02007KT 9999 FEW015 SCT070 25/23 Q1016","temp":25,"dewp":23,"wdir":20,"wspd":7,"visib":"6+","altim":1016,"clouds":[{"cover":"FEW","base":1500},{"cover":"SCT","base":7000}],"obsTime":1778284800},"SBBR":{"icaoId":"SBBR","flightCategory":"VFR","rawOb":"METAR SBBR 090000Z 22003KT CAVOK 22/15 Q1019","temp":22,"dewp":15,"wdir":220,"wspd":3,"visib":"6+","altim":1019,"clouds":[],"obsTime":1778284800},"SBBV":{"icaoId":"SBBV","flightCategory":"VFR","rawOb":"METAR SBBV 090000Z 17007KT 9999 FEW040 FEW045TCU BKN100 28/23 Q1010","temp":28,"dewp":23,"wdir":170,"wspd":7,"visib":"6+","altim":1010,"clouds":[{"cover":"FEW","base":4000},{"cover":"FEW","base":4500},{"cover":"BKN","base":10000}],"obsTime":1778284800},"SBCB":{"icaoId":"SBCB","flightCategory":"VFR","rawOb":"METAR SBCB 090100Z 06014KT 9999 FEW020 25/23 Q1014","temp":25,"dewp":23,"wdir":60,"wspd":14,"visib":"6+","altim":1014,"clouds":[{"cover":"FEW","base":2000}],"obsTime":1778288400},"SBCF":{"icaoId":"SBCF","flightCategory":"VFR","rawOb":"METAR SBCF 090000Z 10003KT 070V140 CAVOK 22/16 Q1019","temp":22,"dewp":16,"wdir":100,"wspd":3,"visib":"6+","altim":1019,"clouds":[],"obsTime":1778284800},"SBCG":{"icaoId":"SBCG","flightCategory":"IFR","rawOb":"METAR SBCG 090000Z 31004KT 9999 -DZ VCTS BKN006 BKN008 BKN035 FEW045CB 20/20 Q1013","temp":20,"dewp":20,"wdir":310,"wspd":4,"visib":"6+","altim":1013,"clouds":[{"cover":"BKN","base":600},{"cover":"BKN","base":800},{"cover":"BKN","base":3500},{"cover":"FEW","base":4500}],"obsTime":1778284800},"SBCT":{"icaoId":"SBCT","flightCategory":"MVFR","rawOb":"METAR SBCT 090000Z 33010KT 9999 -RA BKN013 OVC100 17/16 Q1014","temp":17,"dewp":16,"wdir":330,"wspd":10,"visib":"6+","altim":1014,"clouds":[{"cover":"BKN","base":1300},{"cover":"OVC","base":10000}],"obsTime":1778284800},"SBEG":{"icaoId":"SBEG","flightCategory":"VFR","rawOb":"METAR SBEG 090000Z 35003KT 9999 VCTS FEW020 FEW025CB SCT100 26/25 Q1010","temp":26,"dewp":25,"wdir":350,"wspd":3,"visib":"6+","altim":1010,"clouds":[{"cover":"FEW","base":2000},{"cover":"FEW","base":2500},{"cover":"SCT","base":10000}],"obsTime":1778284800},"SBFI":{"icaoId":"SBFI","flightCategory":"VFR","rawOb":"METAR SBFI 090000Z 16005KT CAVOK 14/11 Q1013","temp":14,"dewp":11,"wdir":160,"wspd":5,"visib":"6+","altim":1013,"clouds":[],"obsTime":1778284800},"SBFL":{"icaoId":"SBFL","flightCategory":"VFR","rawOb":"METAR SBFL 090000Z VRB02KT 9999 FEW040 SCT100 22/20 Q1008","temp":22,"dewp":20,"wdir":"VRB","wspd":2,"visib":"6+","altim":1008,"clouds":[{"cover":"FEW","base":4000},{"cover":"SCT","base":10000}],"obsTime":1778284800},"SBFZ":{"icaoId":"SBFZ","flightCategory":"VFR","rawOb":"METAR SBFZ 090000Z 09002KT 9999 SCT017 27/24 Q1012","temp":27,"dewp":24,"wdir":90,"wspd":2,"visib":"6+","altim":1012,"clouds":[{"cover":"SCT","base":1700}],"obsTime":1778284800},"SBGL":{"icaoId":"SBGL","flightCategory":"VFR","rawOb":"METAR SBGL 090000Z 10006KT CAVOK 26/19 Q1012","temp":26,"dewp":19,"wdir":100,"wspd":6,"visib":"6+","altim":1012,"clouds":[],"obsTime":1778284800},"SBGO":{"icaoId":"SBGO","flightCategory":"VFR","rawOb":"METAR SBGO 090000Z 31003KT CAVOK 22/19 Q1016","temp":22,"dewp":19,"wdir":310,"wspd":3,"visib":"6+","altim":1016,"clouds":[],"obsTime":1778284800},"SBGR":{"icaoId":"SBGR","flightCategory":"VFR","rawOb":"METAR SBGR 090000Z 34008G18KT 9000 -RA FEW015 BKN050 BKN066 26/16 Q1016","temp":26,"dewp":16,"wdir":340,"wspd":8,"visib":5.59,"altim":1016,"clouds":[{"cover":"FEW","base":1500},{"cover":"BKN","base":5000},{"cover":"BKN","base":6600}],"obsTime":1778284800},"SBIL":{"icaoId":"SBIL","flightCategory":"VFR","rawOb":"METAR SBIL 090000Z 28002KT 9999 FEW020 25/24 Q1016","temp":25,"dewp":24,"wdir":280,"wspd":2,"visib":"6+","altim":1016,"clouds":[{"cover":"FEW","base":2000}],"obsTime":1778284800},"SBJU":{"icaoId":"SBJU","flightCategory":"VFR","rawOb":"METAR SBJU 090000Z 00000KT 9999 SCT022 25/22 Q1015","temp":25,"dewp":22,"wdir":0,"wspd":0,"visib":"6+","altim":1015,"clouds":[{"cover":"SCT","base":2200}],"obsTime":1778284800},"SBKP":{"icaoId":"SBKP","flightCategory":"VFR","rawOb":"METAR SBKP 090000Z 03006KT CAVOK 26/16 Q1014","temp":26,"dewp":16,"wdir":30,"wspd":6,"visib":"6+","altim":1014,"clouds":[],"obsTime":1778284800},"SBLO":{"icaoId":"SBLO","flightCategory":"IFR","rawOb":"METAR SBLO 090000Z VRB01KT 4000 BR FEW004 SCT037 BKN049 19/19 Q1013","temp":19,"dewp":19,"wdir":"VRB","wspd":1,"visib":2.49,"altim":1013,"clouds":[{"cover":"FEW","base":400},{"cover":"SCT","base":3700},{"cover":"BKN","base":4900}],"obsTime":1778284800},"SBMA":{"icaoId":"SBMA","flightCategory":"VFR","rawOb":"METAR SBMA 090000Z 34004KT CAVOK 27/25 Q1010","temp":27,"dewp":25,"wdir":340,"wspd":4,"visib":"6+","altim":1010,"clouds":[],"obsTime":1778284800},"SBME":{"icaoId":"SBME","flightCategory":"VFR","rawOb":"METAR SBME 090000Z 04008KT 9999 SCT023 26/22 Q1014","temp":26,"dewp":22,"wdir":40,"wspd":8,"visib":"6+","altim":1014,"clouds":[{"cover":"SCT","base":2300}],"obsTime":1778284800},"SBMG":{"icaoId":"SBMG","flightCategory":"IFR","rawOb":"METAR SBMG 090000Z 30006KT 9000 SCT004 BKN008 19/19 Q1012","temp":19,"dewp":19,"wdir":300,"wspd":6,"visib":5.59,"altim":1012,"clouds":[{"cover":"SCT","base":400},{"cover":"BKN","base":800}],"obsTime":1778284800},"SBMK":{"icaoId":"SBMK","flightCategory":"VFR","rawOb":"METAR SBMK 090000Z 00000KT CAVOK 21/17 Q1018","temp":21,"dewp":17,"wdir":0,"wspd":0,"visib":"6+","altim":1018,"clouds":[],"obsTime":1778284800},"SBMQ":{"icaoId":"SBMQ","flightCategory":"VFR","rawOb":"METAR SBMQ 090000Z 36005KT 9999 SCT040 26/25 Q1012","temp":26,"dewp":25,"wdir":360,"wspd":5,"visib":"6+","altim":1012,"clouds":[{"cover":"SCT","base":4000}],"obsTime":1778284800},"SBNT":{"icaoId":"SBNT","flightCategory":"VFR","rawOb":"METAR SBNT 090000Z 18006KT 9999 SCT030 SCT050 25/25 Q1013","temp":25,"dewp":25,"wdir":180,"wspd":6,"visib":"6+","altim":1013,"clouds":[{"cover":"SCT","base":3000},{"cover":"SCT","base":5000}],"obsTime":1778284800},"SBPA":{"icaoId":"SBPA","flightCategory":"VFR","rawOb":"METAR SBPA 090000Z 27012KT CAVOK 15/08 Q1010","temp":15,"dewp":8,"wdir":270,"wspd":12,"visib":"6+","altim":1010,"clouds":[],"obsTime":1778284800},"SBPJ":{"icaoId":"SBPJ","flightCategory":"VFR","rawOb":"METAR SBPJ 090000Z 12006KT 9999 FEW023 SCT070 27/23 Q1011","temp":27,"dewp":23,"wdir":120,"wspd":6,"visib":"6+","altim":1011,"clouds":[{"cover":"FEW","base":2300},{"cover":"SCT","base":7000}],"obsTime":1778284800},"SBPV":{"icaoId":"SBPV","flightCategory":"VFR","rawOb":"METAR SBPV 090000Z 11001KT 9999 SCT030 27/22 Q1008","temp":27,"dewp":22,"wdir":110,"wspd":1,"visib":"6+","altim":1008,"clouds":[{"cover":"SCT","base":3000}],"obsTime":1778284800},"SBRB":{"icaoId":"SBRB","flightCategory":"MVFR","rawOb":"METAR SBRB 090000Z 31002KT 8000 FEW020 26/24 Q1008","temp":26,"dewp":24,"wdir":310,"wspd":2,"visib":4.97,"altim":1008,"clouds":[{"cover":"FEW","base":2000}],"obsTime":1778284800},"SBRF":{"icaoId":"SBRF","flightCategory":"MVFR","rawOb":"METAR SBRF 090000Z 11011KT 9999 BKN025 27/24 Q1013","temp":27,"dewp":24,"wdir":110,"wspd":11,"visib":"6+","altim":1013,"clouds":[{"cover":"BKN","base":2500}],"obsTime":1778284800},"SBSG":{"icaoId":"SBSG","flightCategory":"VFR","rawOb":"METAR SBSG 090000Z 16003KT 130V190 9999 VCSH FEW015 BKN070 25/24 Q1013","temp":25,"dewp":24,"wdir":160,"wspd":3,"visib":"6+","altim":1013,"clouds":[{"cover":"FEW","base":1500},{"cover":"BKN","base":7000}],"obsTime":1778284800},"SBSL":{"icaoId":"SBSL","flightCategory":"MVFR","rawOb":"METAR SBSL 090000Z 10011G21KT 6000 -RA SCT011 BKN100 24/23 Q1012","temp":24,"dewp":23,"wdir":100,"wspd":11,"visib":3.73,"altim":1012,"clouds":[{"cover":"SCT","base":1100},{"cover":"BKN","base":10000}],"obsTime":1778284800},"SBSN":{"icaoId":"SBSN","flightCategory":"VFR","rawOb":"METAR SBSN 090000Z 10002KT CAVOK 25/24 Q1009","temp":25,"dewp":24,"wdir":100,"wspd":2,"visib":"6+","altim":1009,"clouds":[],"obsTime":1778284800},"SBSP":{"icaoId":"SBSP","flightCategory":"VFR","rawOb":"METAR SBSP 090000Z 02008KT 9999 SCT045 25/15 Q1015","temp":25,"dewp":15,"wdir":20,"wspd":8,"visib":"6+","altim":1015,"clouds":[{"cover":"SCT","base":4500}],"obsTime":1778284800},"SBSV":{"icaoId":"SBSV","flightCategory":"VFR","rawOb":"METAR SBSV 090000Z 09007KT 9999 FEW027 27/22 Q1015","temp":27,"dewp":22,"wdir":90,"wspd":7,"visib":"6+","altim":1015,"clouds":[{"cover":"FEW","base":2700}],"obsTime":1778284800},"SBTE":{"icaoId":"SBTE","flightCategory":"VFR","rawOb":"METAR SBTE 090000Z 32002KT CAVOK 28/25 Q1010","temp":28,"dewp":25,"wdir":320,"wspd":2,"visib":"6+","altim":1010,"clouds":[],"obsTime":1778284800},"SBUL":{"icaoId":"SBUL","flightCategory":"VFR","rawOb":"METAR SBUL 090000Z 11007KT CAVOK 23/16 Q1018","temp":23,"dewp":16,"wdir":110,"wspd":7,"visib":"6+","altim":1018,"clouds":[],"obsTime":1778284800},"SBUR":{"icaoId":"SBUR","flightCategory":"VFR","rawOb":"METAR SBUR 090000Z 03005KT CAVOK 24/16 Q1017","temp":24,"dewp":16,"wdir":30,"wspd":5,"visib":"6+","altim":1017,"clouds":[],"obsTime":1778284800},"SBBE":{"icaoId":"SBBE","flightCategory":"MVFR","rawOb":"METAR SBBE 090000Z 01002KT 9999 FEW010 BKN030 BKN080 23/23 Q1011","temp":23,"dewp":23,"wdir":10,"wspd":2,"visib":"6+","altim":1011,"clouds":[{"cover":"FEW","base":1000},{"cover":"BKN","base":3000},{"cover":"BKN","base":8000}],"obsTime":1778284800},"SBCZ":{"icaoId":"SBCZ","flightCategory":"VFR","rawOb":"METAR SBCZ 090000Z 00000KT CAVOK 26/24 Q1008","temp":26,"dewp":24,"wdir":0,"wspd":0,"visib":"6+","altim":1008,"clouds":[],"obsTime":1778284800},"SBTU":{"icaoId":"SBTU","flightCategory":"VFR","rawOb":"METAR SBTU 090000Z AUTO VRB02KT 9999 // ///////// ///// Q1013","temp":null,"dewp":null,"wdir":"VRB","wspd":2,"visib":"6+","altim":1013,"clouds":[],"obsTime":1778284800},"SBDN":{"icaoId":"SBDN","flightCategory":"MVFR","rawOb":"METAR SBDN 090000Z 26006KT 8000 -RA SCT045 BKN080 22/19 Q1012","temp":22,"dewp":19,"wdir":260,"wspd":6,"visib":4.97,"altim":1012,"clouds":[{"cover":"SCT","base":4500},{"cover":"BKN","base":8000}],"obsTime":1778284800},"SBPL":{"icaoId":"SBPL","flightCategory":"VFR","rawOb":"METAR SBPL 090000Z 05004KT CAVOK 25/23 Q1015","temp":25,"dewp":23,"wdir":50,"wspd":4,"visib":"6+","altim":1015,"clouds":[],"obsTime":1778284800},"SBBU":{"icaoId":"SBBU","flightCategory":"VFR","rawOb":"METAR SBBU 090000Z 02006KT CAVOK 28/16 Q1012","temp":28,"dewp":16,"wdir":20,"wspd":6,"visib":"6+","altim":1012,"clouds":[],"obsTime":1778284800},"SBPS":{"icaoId":"SBPS","flightCategory":"MVFR","rawOb":"METAR SBPS 090000Z 25003KT 9999 FEW003 BKN020 24/23 Q1016","temp":24,"dewp":23,"wdir":250,"wspd":3,"visib":"6+","altim":1016,"clouds":[{"cover":"FEW","base":300},{"cover":"BKN","base":2000}],"obsTime":1778284800},"SBSC":{"icaoId":"SBSC","flightCategory":"VFR","rawOb":"METAR SBSC 090000Z 03005KT CAVOK 24/19 Q1012","temp":24,"dewp":19,"wdir":30,"wspd":5,"visib":"6+","altim":1012,"clouds":[],"obsTime":1778284800},"SBIP":{"icaoId":"SBIP","flightCategory":"VFR","rawOb":"METAR SBIP 090000Z AUTO 20002KT CAVOK 20/20 Q1017","temp":20,"dewp":20,"wdir":200,"wspd":2,"visib":"6+","altim":1017,"clouds":[],"obsTime":1778284800},"SBBH":{"icaoId":"SBBH","flightCategory":"VFR","rawOb":"METAR SBBH 090000Z 11005KT CAVOK 21/17 Q1019","temp":21,"dewp":17,"wdir":110,"wspd":5,"visib":"6+","altim":1019,"clouds":[],"obsTime":1778284800},"SBSJ":{"icaoId":"SBSJ","flightCategory":"VFR","rawOb":"METAR SBSJ 090000Z 04002KT CAVOK 23/16 Q1015","temp":23,"dewp":16,"wdir":40,"wspd":2,"visib":"6+","altim":1015,"clouds":[],"obsTime":1778284800},"SBKG":{"icaoId":"SBKG","flightCategory":"MVFR","rawOb":"METAR SBKG 090000Z 17005KT 9999 BKN015 23/22 Q1015","temp":23,"dewp":22,"wdir":170,"wspd":5,"visib":"6+","altim":1015,"clouds":[{"cover":"BKN","base":1500}],"obsTime":1778284800},"SBSM":{"icaoId":"SBSM","flightCategory":"VFR","rawOb":"METAR SBSM 090000Z 28005KT CAVOK 11/07 Q1012","temp":11,"dewp":7,"wdir":280,"wspd":5,"visib":"6+","altim":1012,"clouds":[],"obsTime":1778284800},"SBSR":{"icaoId":"SBSR","flightCategory":"VFR","rawOb":"METAR SBSR 090000Z 04005KT CAVOK 26/14 Q1013","temp":26,"dewp":14,"wdir":40,"wspd":5,"visib":"6+","altim":1013,"clouds":[],"obsTime":1778284800},"SBCO":{"icaoId":"SBCO","flightCategory":"VFR","rawOb":"METAR SBCO 090000Z 27010KT CAVOK 15/08 Q1011","temp":15,"dewp":8,"wdir":270,"wspd":10,"visib":"6+","altim":1011,"clouds":[],"obsTime":1778284800},"SBAR":{"icaoId":"SBAR","flightCategory":"VFR","rawOb":"METAR SBAR 090000Z 12009KT 9999 FEW022 BKN085 28/23 Q1014","temp":28,"dewp":23,"wdir":120,"wspd":9,"visib":"6+","altim":1014,"clouds":[{"cover":"FEW","base":2200},{"cover":"BKN","base":8500}],"obsTime":1778284800},"SBAX":{"icaoId":"SBAX","flightCategory":"VFR","rawOb":"METAR SBAX 090000Z 07003KT CAVOK 21/15 Q1019","temp":21,"dewp":15,"wdir":70,"wspd":3,"visib":"6+","altim":1019,"clouds":[],"obsTime":1778284800},"SBOI":{"icaoId":"SBOI","flightCategory":"VFR","rawOb":"METAR SBOI 090000Z AUTO 34004KT 9999 // FEW007/// BKN033/// BKN049/// 25/24 Q1012","temp":25,"dewp":24,"wdir":340,"wspd":4,"visib":"6+","altim":1012,"clouds":[{"cover":"FEW","base":700},{"cover":"BKN","base":3300},{"cover":"BKN","base":4900}],"obsTime":1778284800},"SBTT":{"icaoId":"SBTT","flightCategory":"VFR","rawOb":"SPECI SBTT 082334Z 06005KT 9999 BKN032 OVC100 25/22 Q1009 RERA","temp":25,"dewp":22,"wdir":60,"wspd":5,"visib":"6+","altim":1009,"clouds":[{"cover":"BKN","base":3200},{"cover":"OVC","base":10000}],"obsTime":1778283240},"SBJP":{"icaoId":"SBJP","flightCategory":"IFR","rawOb":"SPECI SBJP 082336Z 16006KT 3000 RA BKN010 BKN070 25/24 Q1013","temp":25,"dewp":24,"wdir":160,"wspd":6,"visib":1.86,"altim":1013,"clouds":[{"cover":"BKN","base":1000},{"cover":"BKN","base":7000}],"obsTime":1778283360},"SBAN":{"icaoId":"SBAN","flightCategory":"VFR","rawOb":"METAR SBAN 090000Z VRB01KT CAVOK 18/15 Q1019","temp":18,"dewp":15,"wdir":"VRB","wspd":1,"visib":"6+","altim":1019,"clouds":[],"obsTime":1778284800},"SBNM":{"icaoId":"SBNM","flightCategory":"VFR","rawOb":"METAR SBNM 090000Z AUTO 29005KT CAVOK 13/08 Q1013","temp":13,"dewp":8,"wdir":290,"wspd":5,"visib":"6+","altim":1013,"clouds":[],"obsTime":1778284800},"SBLE":{"icaoId":"SBLE","flightCategory":"VFR","rawOb":"METAR SBLE 090000Z AUTO 00000KT 9999 BKN038 ///// Q////","temp":null,"dewp":null,"wdir":0,"wspd":0,"visib":"6+","altim":null,"clouds":[{"cover":"BKN","base":3800}],"obsTime":1778284800},"SBLS":{"icaoId":"SBLS","flightCategory":"VFR","rawOb":"METAR SBLS 090000Z 15003KT CAVOK 21/17 Q1019","temp":21,"dewp":17,"wdir":150,"wspd":3,"visib":"6+","altim":1019,"clouds":[],"obsTime":1778284800},"SBMT":{"icaoId":"SBMT","flightCategory":"VFR","rawOb":"METAR SBMT 090000Z 05005KT CAVOK 24/16 Q1014","temp":24,"dewp":16,"wdir":50,"wspd":5,"visib":"6+","altim":1014,"clouds":[],"obsTime":1778284800},"SBTA":{"icaoId":"SBTA","flightCategory":"VFR","rawOb":"METAR SBTA 090000Z VRB01KT CAVOK 20/16 Q1014","temp":20,"dewp":16,"wdir":"VRB","wspd":1,"visib":"6+","altim":1014,"clouds":[],"obsTime":1778284800},"SBJV":{"icaoId":"SBJV","flightCategory":"VFR","rawOb":"METAR SBJV 090000Z 11003KT 9000 SCT035 BKN100 21/20 Q1008","temp":21,"dewp":20,"wdir":110,"wspd":3,"visib":5.59,"altim":1008,"clouds":[{"cover":"SCT","base":3500},{"cover":"BKN","base":10000}],"obsTime":1778284800},"SBIH":{"icaoId":"SBIH","flightCategory":"VFR","rawOb":"METAR SBIH 090000Z 25002KT 9999 FEW018 26/25 Q1010","temp":26,"dewp":25,"wdir":250,"wspd":2,"visib":"6+","altim":1010,"clouds":[{"cover":"FEW","base":1800}],"obsTime":1778284800},"SBJR":{"icaoId":"SBJR","flightCategory":"VFR","rawOb":"METAR SBJR 090000Z 36008KT CAVOK 27/18 Q1012","temp":27,"dewp":18,"wdir":360,"wspd":8,"visib":"6+","altim":1012,"clouds":[],"obsTime":1778284800}}}