{"updated":1776457955,"count":84,"data":{"SBEG":{"icaoId":"SBEG","flightCategory":"LIFR","rawOb":"METAR SBEG 171900Z 27003KT 9999 -TSRA BKN002 BKN020 FEW025CB 24/24 Q1007","temp":24,"dewp":24,"wdir":270,"wspd":3,"visib":"6+","altim":1007,"clouds":[{"cover":"BKN","base":200},{"cover":"BKN","base":2000},{"cover":"FEW","base":2500}],"obsTime":1776452400},"SBMA":{"icaoId":"SBMA","flightCategory":"VFR","rawOb":"METAR SBMA 171900Z 34006KT 9999 SCT020 FEW023TCU 32/26 Q1004","temp":32,"dewp":26,"wdir":340,"wspd":6,"visib":"6+","altim":1004,"clouds":[{"cover":"SCT","base":2000},{"cover":"FEW","base":2300}],"obsTime":1776452400},"SBBR":{"icaoId":"SBBR","flightCategory":"VFR","rawOb":"METAR SBBR 171900Z 01004KT 330V040 9999 SCT040 FEW045TCU SCT100 27/17 Q1013","temp":27,"dewp":17,"wdir":10,"wspd":4,"visib":"6+","altim":1013,"clouds":[{"cover":"SCT","base":4000},{"cover":"FEW","base":4500},{"cover":"SCT","base":10000}],"obsTime":1776452400},"SBME":{"icaoId":"SBME","flightCategory":"VFR","rawOb":"METAR SBME 171900Z 10009KT CAVOK 28/22 Q1007","temp":28,"dewp":22,"wdir":100,"wspd":9,"visib":"6+","altim":1007,"clouds":[],"obsTime":1776452400},"SBMG":{"icaoId":"SBMG","flightCategory":"VFR","rawOb":"METAR SBMG 171900Z 31006KT 9999 FEW045 FEW050TCU SCT100 29/21 Q1008","temp":29,"dewp":21,"wdir":310,"wspd":6,"visib":"6+","altim":1008,"clouds":[{"cover":"FEW","base":4500},{"cover":"FEW","base":5000},{"cover":"SCT","base":10000}],"obsTime":1776452400},"SBFI":{"icaoId":"SBFI","flightCategory":"VFR","rawOb":"METAR SBFI 171900Z 24006KT 9999 BKN035 28/20 Q1008","temp":28,"dewp":20,"wdir":240,"wspd":6,"visib":"6+","altim":1008,"clouds":[{"cover":"BKN","base":3500}],"obsTime":1776452400},"SBMK":{"icaoId":"SBMK","flightCategory":"VFR","rawOb":"METAR SBMK 171900Z 07005KT 9999 SCT045 BKN090 28/16 Q1011","temp":28,"dewp":16,"wdir":70,"wspd":5,"visib":"6+","altim":1011,"clouds":[{"cover":"SCT","base":4500},{"cover":"BKN","base":9000}],"obsTime":1776452400},"SBMO":{"icaoId":"SBMO","flightCategory":"MVFR","rawOb":"METAR SBMO 171900Z 17009KT 9999 VCSH BKN020 BKN060 27/24 Q1008","temp":27,"dewp":24,"wdir":170,"wspd":9,"visib":"6+","altim":1008,"clouds":[{"cover":"BKN","base":2000},{"cover":"BKN","base":6000}],"obsTime":1776452400},"SBLO":{"icaoId":"SBLO","flightCategory":"VFR","rawOb":"METAR SBLO 171900Z 32010KT 9999 FEW035 30/19 Q1009","temp":30,"dewp":19,"wdir":320,"wspd":10,"visib":"6+","altim":1009,"clouds":[{"cover":"FEW","base":3500}],"obsTime":1776452400},"SBKP":{"icaoId":"SBKP","flightCategory":"VFR","rawOb":"METAR SBKP 171900Z 36004KT 310V040 CAVOK 30/14 Q1011","temp":30,"dewp":14,"wdir":360,"wspd":4,"visib":"6+","altim":1011,"clouds":[],"obsTime":1776452400},"SBCZ":{"icaoId":"SBCZ","flightCategory":"VFR","rawOb":"METAR SBCZ 171900Z 04003KT 9999 SCT010 BKN100 26/24 Q1008","temp":26,"dewp":24,"wdir":40,"wspd":3,"visib":"6+","altim":1008,"clouds":[{"cover":"SCT","base":1000},{"cover":"BKN","base":10000}],"obsTime":1776452400},"SBFL":{"icaoId":"SBFL","flightCategory":"VFR","rawOb":"METAR SBFL 171900Z 35009KT 9999 SCT040 28/23 Q1005","temp":28,"dewp":23,"wdir":350,"wspd":9,"visib":"6+","altim":1005,"clouds":[{"cover":"SCT","base":4000}],"obsTime":1776452400},"SBMQ":{"icaoId":"SBMQ","flightCategory":"MVFR","rawOb":"METAR SBMQ 171900Z 12004KT 9999 BKN015 BKN100 29/26 Q1005","temp":29,"dewp":26,"wdir":120,"wspd":4,"visib":"6+","altim":1005,"clouds":[{"cover":"BKN","base":1500},{"cover":"BKN","base":10000}],"obsTime":1776452400},"SBCG":{"icaoId":"SBCG","flightCategory":"VFR","rawOb":"METAR SBCG 171900Z 08011KT 9999 3000SE SHRA BKN035 FEW040TCU SCT050 27/20 Q1009","temp":27,"dewp":20,"wdir":80,"wspd":11,"visib":"6+","altim":1009,"clouds":[{"cover":"BKN","base":3500},{"cover":"FEW","base":4000},{"cover":"SCT","base":5000}],"obsTime":1776452400},"SBNT":{"icaoId":"SBNT","flightCategory":"VFR","rawOb":"METAR SBNT 171900Z 12012KT 090V150 9999 FEW024 SCT040 BKN070 29/24 Q1007","temp":29,"dewp":24,"wdir":120,"wspd":12,"visib":"6+","altim":1007,"clouds":[{"cover":"FEW","base":2400},{"cover":"SCT","base":4000},{"cover":"BKN","base":7000}],"obsTime":1776452400},"SBPA":{"icaoId":"SBPA","flightCategory":"VFR","rawOb":"METAR SBPA 171900Z 29012KT 260V320 9999 SCT035 28/18 Q1006","temp":28,"dewp":18,"wdir":290,"wspd":12,"visib":"6+","altim":1006,"clouds":[{"cover":"SCT","base":3500}],"obsTime":1776452400},"SBFZ":{"icaoId":"SBFZ","flightCategory":"VFR","rawOb":"METAR SBFZ 171900Z 09013KT 9999 FEW025 30/24 Q1005","temp":30,"dewp":24,"wdir":90,"wspd":13,"visib":"6+","altim":1005,"clouds":[{"cover":"FEW","base":2500}],"obsTime":1776452400},"SBPJ":{"icaoId":"SBPJ","flightCategory":"VFR","rawOb":"METAR SBPJ 171900Z VRB06KT 9999 VCTS FEW018 FEW027CB BKN045 29/25 Q1007","temp":29,"dewp":25,"wdir":"VRB","wspd":6,"visib":"6+","altim":1007,"clouds":[{"cover":"FEW","base":1800},{"cover":"FEW","base":2700},{"cover":"BKN","base":4500}],"obsTime":1776452400},"SBBV":{"icaoId":"SBBV","flightCategory":"VFR","rawOb":"METAR SBBV 171900Z 09009KT 9999 SCT025 FEW035TCU BKN100 33/21 Q1006","temp":33,"dewp":21,"wdir":90,"wspd":9,"visib":"6+","altim":1006,"clouds":[{"cover":"SCT","base":2500},{"cover":"FEW","base":3500},{"cover":"BKN","base":10000}],"obsTime":1776452400},"SBPV":{"icaoId":"SBPV","flightCategory":"MVFR","rawOb":"METAR SBPV 171900Z 20003KT 5000 BR BKN020 BKN025 FEW035TCU 26/24 Q1007 RERA","temp":26,"dewp":24,"wdir":200,"wspd":3,"visib":3.11,"altim":1007,"clouds":[{"cover":"BKN","base":2000},{"cover":"BKN","base":2500},{"cover":"FEW","base":3500}],"obsTime":1776452400},"SBGL":{"icaoId":"SBGL","flightCategory":"VFR","rawOb":"METAR SBGL 171900Z 13009KT 9999 SCT013 29/22 Q1007","temp":29,"dewp":22,"wdir":130,"wspd":9,"visib":"6+","altim":1007,"clouds":[{"cover":"SCT","base":1300}],"obsTime":1776452400},"SBCP":{"icaoId":"SBCP","flightCategory":"VFR","rawOb":"METAR SBCP 171900Z 09008KT 9999 SCT020 28/21 Q1008","temp":28,"dewp":21,"wdir":90,"wspd":8,"visib":"6+","altim":1008,"clouds":[{"cover":"SCT","base":2000}],"obsTime":1776452400},"SBRB":{"icaoId":"SBRB","flightCategory":"VFR","rawOb":"METAR SBRB 171900Z 28003KT 9999 FEW010 SCT020 BKN100 26/23 Q1009","temp":26,"dewp":23,"wdir":280,"wspd":3,"visib":"6+","altim":1009,"clouds":[{"cover":"FEW","base":1000},{"cover":"SCT","base":2000},{"cover":"BKN","base":10000}],"obsTime":1776452400},"SBGO":{"icaoId":"SBGO","flightCategory":"VFR","rawOb":"METAR SBGO 171900Z 34005KT 9999 VCSH SCT040 FEW050TCU 29/21 Q1010","temp":29,"dewp":21,"wdir":340,"wspd":5,"visib":"6+","altim":1010,"clouds":[{"cover":"SCT","base":4000},{"cover":"FEW","base":5000}],"obsTime":1776452400},"SBRF":{"icaoId":"SBRF","flightCategory":"VFR","rawOb":"METAR SBRF 171900Z 14008KT 110V180 9999 FEW023 29/24 Q1007","temp":29,"dewp":24,"wdir":140,"wspd":8,"visib":"6+","altim":1007,"clouds":[{"cover":"FEW","base":2300}],"obsTime":1776452400},"SBAT":{"icaoId":"SBAT","flightCategory":"VFR","rawOb":"METAR SBAT 171900Z 27003KT 9999 VCSH SCT018 FEW030TCU 28/26 Q1007","temp":28,"dewp":26,"wdir":270,"wspd":3,"visib":"6+","altim":1007,"clouds":[{"cover":"SCT","base":1800},{"cover":"FEW","base":3000}],"obsTime":1776452400},"SBSG":{"icaoId":"SBSG","flightCategory":"VFR","rawOb":"METAR SBSG 171900Z 12008KT 090V150 9999 SCT033 29/23 Q1007","temp":29,"dewp":23,"wdir":120,"wspd":8,"visib":"6+","altim":1007,"clouds":[{"cover":"SCT","base":3300}],"obsTime":1776452400},"SBBE":{"icaoId":"SBBE","flightCategory":"VFR","rawOb":"METAR SBBE 171900Z 08005KT 9999 -RA SCT030 BKN100 24/24 Q1005","temp":24,"dewp":24,"wdir":80,"wspd":5,"visib":"6+","altim":1005,"clouds":[{"cover":"SCT","base":3000},{"cover":"BKN","base":10000}],"obsTime":1776452400},"SBSL":{"icaoId":"SBSL","flightCategory":"IFR","rawOb":"METAR SBSL 171900Z 17005KT 140V200 4000 -RA BR BKN020 FEW025TCU SCT090 26/24 Q1005 RETS","temp":26,"dewp":24,"wdir":170,"wspd":5,"visib":2.49,"altim":1005,"clouds":[{"cover":"BKN","base":2000},{"cover":"FEW","base":2500},{"cover":"SCT","base":9000}],"obsTime":1776452400},"SBSN":{"icaoId":"SBSN","flightCategory":"VFR","rawOb":"METAR SBSN 171900Z 12006KT 060V140 9999 FEW023 FEW040TCU 30/24 Q1004","temp":30,"dewp":24,"wdir":120,"wspd":6,"visib":"6+","altim":1004,"clouds":[{"cover":"FEW","base":2300},{"cover":"FEW","base":4000}],"obsTime":1776452400},"SBGR":{"icaoId":"SBGR","flightCategory":"VFR","rawOb":"METAR SBGR 171900Z 32007KT CAVOK 29/14 Q1011","temp":29,"dewp":14,"wdir":320,"wspd":7,"visib":"6+","altim":1011,"clouds":[],"obsTime":1776452400},"SBSP":{"icaoId":"SBSP","flightCategory":"VFR","rawOb":"METAR SBSP 171900Z VRB04KT CAVOK 30/14 Q1012","temp":30,"dewp":14,"wdir":"VRB","wspd":4,"visib":"6+","altim":1012,"clouds":[],"obsTime":1776452400},"SBCR":{"icaoId":"SBCR","flightCategory":"VFR","rawOb":"METAR SBCR 171900Z 31004KT 240V350 9999 SCT040 FEW045TCU 32/23 Q1006","temp":32,"dewp":23,"wdir":310,"wspd":4,"visib":"6+","altim":1006,"clouds":[{"cover":"SCT","base":4000},{"cover":"FEW","base":4500}],"obsTime":1776452400},"SBSV":{"icaoId":"SBSV","flightCategory":"VFR","rawOb":"METAR SBSV 171900Z 15009KT 9999 FEW023 29/23 Q1008","temp":29,"dewp":23,"wdir":150,"wspd":9,"visib":"6+","altim":1008,"clouds":[{"cover":"FEW","base":2300}],"obsTime":1776452400},"SBHT":{"icaoId":"SBHT","flightCategory":"VFR","rawOb":"METAR SBHT 171900Z 18005KT 9999 SCT030 31/25 Q1005","temp":31,"dewp":25,"wdir":180,"wspd":5,"visib":"6+","altim":1005,"clouds":[{"cover":"SCT","base":3000}],"obsTime":1776452400},"SBTE":{"icaoId":"SBTE","flightCategory":"VFR","rawOb":"METAR SBTE 171900Z 17005KT 9999 SCT025 33/23 Q1004","temp":33,"dewp":23,"wdir":170,"wspd":5,"visib":"6+","altim":1004,"clouds":[{"cover":"SCT","base":2500}],"obsTime":1776452400},"SBCT":{"icaoId":"SBCT","flightCategory":"VFR","rawOb":"METAR SBCT 171900Z 29013KT 9999 SCT045 FEW050TCU 28/16 Q1011","temp":28,"dewp":16,"wdir":290,"wspd":13,"visib":"6+","altim":1011,"clouds":[{"cover":"SCT","base":4500},{"cover":"FEW","base":5000}],"obsTime":1776452400},"SBIL":{"icaoId":"SBIL","flightCategory":"VFR","rawOb":"METAR SBIL 171900Z 16007KT 110V190 CAVOK 29/24 Q1009","temp":29,"dewp":24,"wdir":160,"wspd":7,"visib":"6+","altim":1009,"clouds":[],"obsTime":1776452400},"SBUL":{"icaoId":"SBUL","flightCategory":"VFR","rawOb":"METAR SBUL 171900Z 35004KT 9999 FEW049 27/16 Q1013","temp":27,"dewp":16,"wdir":350,"wspd":4,"visib":"6+","altim":1013,"clouds":[{"cover":"FEW","base":4900}],"obsTime":1776452400},"SBJU":{"icaoId":"SBJU","flightCategory":"VFR","rawOb":"METAR SBJU 171900Z 12006KT 9999 SCT022 31/22 Q1008","temp":31,"dewp":22,"wdir":120,"wspd":6,"visib":"6+","altim":1008,"clouds":[{"cover":"SCT","base":2200}],"obsTime":1776452400},"SBUR":{"icaoId":"SBUR","flightCategory":"VFR","rawOb":"METAR SBUR 171900Z 24006KT CAVOK 29/14 Q1012","temp":29,"dewp":14,"wdir":240,"wspd":6,"visib":"6+","altim":1012,"clouds":[],"obsTime":1776452400},"SBVT":{"icaoId":"SBVT","flightCategory":"VFR","rawOb":"METAR SBVT 171900Z 06008KT 9999 FEW040 BKN100 28/22 Q1008","temp":28,"dewp":22,"wdir":60,"wspd":8,"visib":"6+","altim":1008,"clouds":[{"cover":"FEW","base":4000},{"cover":"BKN","base":10000}],"obsTime":1776452400},"SBCB":{"icaoId":"SBCB","flightCategory":"VFR","rawOb":"METAR SBCB 171900Z 10014KT CAVOK 26/21 Q1008","temp":26,"dewp":21,"wdir":100,"wspd":14,"visib":"6+","altim":1008,"clouds":[],"obsTime":1776452400},"SBCF":{"icaoId":"SBCF","flightCategory":"VFR","rawOb":"METAR SBCF 171900Z 05005KT 9999 FEW045 25/15 Q1013","temp":25,"dewp":15,"wdir":50,"wspd":5,"visib":"6+","altim":1013,"clouds":[{"cover":"FEW","base":4500}],"obsTime":1776452400},"SBOI":{"icaoId":"SBOI","flightCategory":"VFR","rawOb":"METAR SBOI 171900Z AUTO 04009KT 010V080 9999 FEW035 31/24 Q1005","temp":31,"dewp":24,"wdir":40,"wspd":9,"visib":"6+","altim":1005,"clouds":[{"cover":"FEW","base":3500}],"obsTime":1776452400},"SBBH":{"icaoId":"SBBH","flightCategory":"VFR","rawOb":"METAR SBBH 171900Z 30005KT 9999 BKN049 26/15 Q1012","temp":26,"dewp":15,"wdir":300,"wspd":5,"visib":"6+","altim":1012,"clouds":[{"cover":"BKN","base":4900}],"obsTime":1776452400},"SBBU":{"icaoId":"SBBU","flightCategory":"VFR","rawOb":"METAR SBBU 171900Z 23009KT 9999 SCT040 32/18 Q1010","temp":32,"dewp":18,"wdir":230,"wspd":9,"visib":"6+","altim":1010,"clouds":[{"cover":"SCT","base":4000}],"obsTime":1776452400},"SBPB":{"icaoId":"SBPB","flightCategory":"VFR","rawOb":"METAR SBPB 171900Z 04011KT 9999 SCT016 FEW025TCU BKN080 29/26 Q1005","temp":29,"dewp":26,"wdir":40,"wspd":11,"visib":"6+","altim":1005,"clouds":[{"cover":"SCT","base":1600},{"cover":"FEW","base":2500},{"cover":"BKN","base":8000}],"obsTime":1776452400},"SBPL":{"icaoId":"SBPL","flightCategory":"VFR","rawOb":"METAR SBPL 171900Z 11007KT 9999 FEW030 33/18 Q1007","temp":33,"dewp":18,"wdir":110,"wspd":7,"visib":"6+","altim":1007,"clouds":[{"cover":"FEW","base":3000}],"obsTime":1776452400},"SBAR":{"icaoId":"SBAR","flightCategory":"VFR","rawOb":"METAR SBAR 171900Z 12008KT 9999 FEW023 30/23 Q1008","temp":30,"dewp":23,"wdir":120,"wspd":8,"visib":"6+","altim":1008,"clouds":[{"cover":"FEW","base":2300}],"obsTime":1776452400},"SBCO":{"icaoId":"SBCO","flightCategory":"VFR","rawOb":"METAR SBCO 171900Z 28012KT 9999 SCT040 27/18 Q1006","temp":27,"dewp":18,"wdir":280,"wspd":12,"visib":"6+","altim":1006,"clouds":[{"cover":"SCT","base":4000}],"obsTime":1776452400},"SBPP":{"icaoId":"SBPP","flightCategory":"VFR","rawOb":"METAR SBPP 171900Z 27008KT 9999 SCT020 28/22 Q1010","temp":28,"dewp":22,"wdir":270,"wspd":8,"visib":"6+","altim":1010,"clouds":[{"cover":"SCT","base":2000}],"obsTime":1776452400},"SBPS":{"icaoId":"SBPS","flightCategory":"VFR","rawOb":"METAR SBPS 171900Z 12005KT 9999 FEW025 27/23 Q1009","temp":27,"dewp":23,"wdir":120,"wspd":5,"visib":"6+","altim":1009,"clouds":[{"cover":"FEW","base":2500}],"obsTime":1776452400},"SBDN":{"icaoId":"SBDN","flightCategory":"VFR","rawOb":"METAR SBDN 171900Z 27006G17KT 9999 FEW050 FEW060TCU 33/19 Q1009","temp":33,"dewp":19,"wdir":270,"wspd":6,"visib":"6+","altim":1009,"clouds":[{"cover":"FEW","base":5000},{"cover":"FEW","base":6000}],"obsTime":1776452400},"SBAX":{"icaoId":"SBAX","flightCategory":"VFR","rawOb":"METAR SBAX 171900Z 32005KT 9999 SCT030 27/13 Q1013","temp":27,"dewp":13,"wdir":320,"wspd":5,"visib":"6+","altim":1013,"clouds":[{"cover":"SCT","base":3000}],"obsTime":1776452400},"SBSC":{"icaoId":"SBSC","flightCategory":"VFR","rawOb":"METAR SBSC 171900Z 21006KT CAVOK 29/21 Q1007","temp":29,"dewp":21,"wdir":210,"wspd":6,"visib":"6+","altim":1007,"clouds":[],"obsTime":1776452400},"SBSJ":{"icaoId":"SBSJ","flightCategory":"VFR","rawOb":"METAR SBSJ 171900Z 17005KT 140V260 9999 FEW040 29/14 Q1011","temp":29,"dewp":14,"wdir":170,"wspd":5,"visib":"6+","altim":1011,"clouds":[{"cover":"FEW","base":4000}],"obsTime":1776452400},"SBCA":{"icaoId":"SBCA","flightCategory":"MVFR","rawOb":"METAR SBCA 171900Z 28009KT 240V320 9999 BKN020 25/20 Q1012","temp":25,"dewp":20,"wdir":280,"wspd":9,"visib":"6+","altim":1012,"clouds":[{"cover":"BKN","base":2000}],"obsTime":1776452400},"SBES":{"icaoId":"SBES","flightCategory":"VFR","rawOb":"METAR SBES 171900Z VRB09KT 9999 FEW025 27/// Q1008","temp":null,"dewp":null,"wdir":"VRB","wspd":9,"visib":"6+","altim":1008,"clouds":[{"cover":"FEW","base":2500}],"obsTime":1776452400},"SBSM":{"icaoId":"SBSM","flightCategory":"VFR","rawOb":"METAR SBSM 171900Z 27008G18KT 220V310 9999 FEW035 BKN050 27/17 Q1007","temp":27,"dewp":17,"wdir":270,"wspd":8,"visib":"6+","altim":1007,"clouds":[{"cover":"FEW","base":3500},{"cover":"BKN","base":5000}],"obsTime":1776452400},"SBBQ":{"icaoId":"SBBQ","flightCategory":"VFR","rawOb":"METAR SBBQ 171900Z 30005KT 9999 SCT045 25/11 Q1015","temp":25,"dewp":11,"wdir":300,"wspd":5,"visib":"6+","altim":1015,"clouds":[{"cover":"SCT","base":4500}],"obsTime":1776452400},"SBSR":{"icaoId":"SBSR","flightCategory":"VFR","rawOb":"METAR SBSR 171900Z VRB04KT 9999 SCT030 31/15 Q1010","temp":31,"dewp":15,"wdir":"VRB","wspd":4,"visib":"6+","altim":1010,"clouds":[{"cover":"SCT","base":3000}],"obsTime":1776452400},"SBCC":{"icaoId":"SBCC","flightCategory":"VFR","rawOb":"METAR SBCC 171900Z 32006KT 9999 SCT030 SCT100 27/21 Q1007","temp":27,"dewp":21,"wdir":320,"wspd":6,"visib":"6+","altim":1007,"clouds":[{"cover":"SCT","base":3000},{"cover":"SCT","base":10000}],"obsTime":1776452400},"SBTF":{"icaoId":"SBTF","flightCategory":"VFR","rawOb":"METAR SBTF 171900Z 25003KT 9999 SCT006 BKN100 27/26 Q1007","temp":27,"dewp":26,"wdir":250,"wspd":3,"visib":"6+","altim":1007,"clouds":[{"cover":"SCT","base":600},{"cover":"BKN","base":10000}],"obsTime":1776452400},"SBIP":{"icaoId":"SBIP","flightCategory":"VFR","rawOb":"METAR SBIP 171900Z AUTO 01005KT CAVOK 28/19 Q1010","temp":28,"dewp":19,"wdir":10,"wspd":5,"visib":"6+","altim":1010,"clouds":[],"obsTime":1776452400},"SBTT":{"icaoId":"SBTT","flightCategory":"VFR","rawOb":"METAR SBTT 171900Z 12002KT 9999 FEW010 SCT012 26/22 Q1008","temp":26,"dewp":22,"wdir":120,"wspd":2,"visib":"6+","altim":1008,"clouds":[{"cover":"FEW","base":1000},{"cover":"SCT","base":1200}],"obsTime":1776452400},"SBCJ":{"icaoId":"SBCJ","flightCategory":"VFR","rawOb":"METAR SBCJ 171900Z 00000KT 9999 SCT017 FEW020TCU 27/22 Q1009","temp":27,"dewp":22,"wdir":0,"wspd":0,"visib":"6+","altim":1009,"clouds":[{"cover":"SCT","base":1700},{"cover":"FEW","base":2000}],"obsTime":1776452400},"SBUY":{"icaoId":"SBUY","flightCategory":"IFR","rawOb":"METAR SBUY 171900Z 31002KT 2500 -RA BR FEW006 FEW025TCU BKN070 24/24 Q1007","temp":24,"dewp":24,"wdir":310,"wspd":2,"visib":1.55,"altim":1007,"clouds":[{"cover":"FEW","base":600},{"cover":"FEW","base":2500},{"cover":"BKN","base":7000}],"obsTime":1776452400},"SBKG":{"icaoId":"SBKG","flightCategory":"VFR","rawOb":"METAR SBKG 171900Z 10010KT 9999 SCT025 29/22 Q1009","temp":29,"dewp":22,"wdir":100,"wspd":10,"visib":"6+","altim":1009,"clouds":[{"cover":"SCT","base":2500}],"obsTime":1776452400},"SBVH":{"icaoId":"SBVH","flightCategory":"VFR","rawOb":"METAR SBVH 171900Z 33008KT 9999 SCT030 FEW035TCU 29/22 Q1009","temp":29,"dewp":22,"wdir":330,"wspd":8,"visib":"6+","altim":1009,"clouds":[{"cover":"SCT","base":3000},{"cover":"FEW","base":3500}],"obsTime":1776452400},"SBGM":{"icaoId":"SBGM","flightCategory":"MVFR","rawOb":"METAR SBGM 171900Z 30004KT 7000 -DZ SCT010 OVC050 24/22 Q1007","temp":24,"dewp":22,"wdir":300,"wspd":4,"visib":4.35,"altim":1007,"clouds":[{"cover":"SCT","base":1000},{"cover":"OVC","base":5000}],"obsTime":1776452400},"SBAF":{"icaoId":"SBAF","flightCategory":"VFR","rawOb":"METAR SBAF 171900Z 17010KT 9999 FEW030 29/22 Q1007","temp":29,"dewp":22,"wdir":170,"wspd":10,"visib":"6+","altim":1007,"clouds":[{"cover":"FEW","base":3000}],"obsTime":1776452400},"SBLE":{"icaoId":"SBLE","flightCategory":"VFR","rawOb":"METAR SBLE 171900Z AUTO 12003KT 050V200 CAVOK 29/20 Q1010","temp":29,"dewp":20,"wdir":120,"wspd":3,"visib":"6+","altim":1010,"clouds":[],"obsTime":1776452400},"SBGW":{"icaoId":"SBGW","flightCategory":"VFR","rawOb":"METAR SBGW 171900Z 24005KT 200V260 CAVOK 30/12 Q1010","temp":30,"dewp":12,"wdir":240,"wspd":5,"visib":"6+","altim":1010,"clouds":[],"obsTime":1776452400},"SBJR":{"icaoId":"SBJR","flightCategory":"VFR","rawOb":"METAR SBJR 171900Z 21004KT 9999 FEW025 30/22 Q1007","temp":30,"dewp":22,"wdir":210,"wspd":4,"visib":"6+","altim":1007,"clouds":[{"cover":"FEW","base":2500}],"obsTime":1776452400},"SBLS":{"icaoId":"SBLS","flightCategory":"VFR","rawOb":"METAR SBLS 171900Z VRB03KT 9999 FEW045 25/15 Q1012","temp":25,"dewp":15,"wdir":"VRB","wspd":3,"visib":"6+","altim":1012,"clouds":[{"cover":"FEW","base":4500}],"obsTime":1776452400},"SBMT":{"icaoId":"SBMT","flightCategory":"VFR","rawOb":"METAR SBMT 171900Z 30006KT 9999 SCT040 28/14 Q1011","temp":28,"dewp":14,"wdir":300,"wspd":6,"visib":"6+","altim":1011,"clouds":[{"cover":"SCT","base":4000}],"obsTime":1776452400},"SBST":{"icaoId":"SBST","flightCategory":"VFR","rawOb":"METAR SBST 171900Z 12005KT CAVOK 28/21 Q1007","temp":28,"dewp":21,"wdir":120,"wspd":5,"visib":"6+","altim":1007,"clouds":[],"obsTime":1776452400},"SBTA":{"icaoId":"SBTA","flightCategory":"VFR","rawOb":"METAR SBTA 171900Z 24004KT CAVOK 29/14 Q1010","temp":29,"dewp":14,"wdir":240,"wspd":4,"visib":"6+","altim":1010,"clouds":[],"obsTime":1776452400},"SBJV":{"icaoId":"SBJV","flightCategory":"VFR","rawOb":"METAR SBJV 171900Z 12007KT 9999 SCT030 29/24 Q1006","temp":29,"dewp":24,"wdir":120,"wspd":7,"visib":"6+","altim":1006,"clouds":[{"cover":"SCT","base":3000}],"obsTime":1776452400},"SBAN":{"icaoId":"SBAN","flightCategory":"VFR","rawOb":"METAR SBAN 171900Z 01001KT 9999 FEW035 FEW035TCU SCT100 26/17 Q1014","temp":26,"dewp":17,"wdir":10,"wspd":1,"visib":"6+","altim":1014,"clouds":[{"cover":"FEW","base":3500},{"cover":"FEW","base":3500},{"cover":"SCT","base":10000}],"obsTime":1776452400},"SBPF":{"icaoId":"SBPF","flightCategory":"VFR","rawOb":"METAR SBPF 172000Z 27010KT 9999 SCT040 23/14 Q1011","temp":23,"dewp":14,"wdir":270,"wspd":10,"visib":"6+","altim":1011,"clouds":[{"cover":"SCT","base":4000}],"obsTime":1776456000},"SBIH":{"icaoId":"SBIH","flightCategory":"VFR","rawOb":"METAR SBIH 171900Z 09006KT 9999 SCT016 FEW023TCU 30/24 Q1005","temp":30,"dewp":24,"wdir":90,"wspd":6,"visib":"6+","altim":1005,"clouds":[{"cover":"SCT","base":1600},{"cover":"FEW","base":2300}],"obsTime":1776452400},"SBJP":{"icaoId":"SBJP","flightCategory":"VFR","rawOb":"METAR SBJP 171900Z 12011KT 080V160 9999 FEW030 29/24 Q1007","temp":29,"dewp":24,"wdir":120,"wspd":11,"visib":"6+","altim":1007,"clouds":[{"cover":"FEW","base":3000}],"obsTime":1776452400}}}