{"updated":1775546222,"count":46,"data":{"SBSP":{"icaoId":"SBSP","flightCategory":"VFR","rawOb":"METAR SBSP 070700Z AUTO VRB01KT 9000 SCT011 21/20 Q1020","temp":21,"dewp":20,"wdir":"VRB","wspd":1,"visib":5.59,"altim":1020,"clouds":[{"cover":"SCT","base":1100}],"obsTime":1775545200},"SBBE":{"icaoId":"SBBE","flightCategory":"VFR","rawOb":"METAR SBBE 070600Z 06004KT CAVOK 24/24 Q1010","temp":24,"dewp":24,"wdir":60,"wspd":4,"visib":"6+","altim":1010,"clouds":[],"obsTime":1775541600},"SBNT":{"icaoId":"SBNT","flightCategory":"VFR","rawOb":"METAR SBNT 070600Z 20005KT 170V230 9999 FEW019 SCT023 BKN100 24/23 Q1011","temp":24,"dewp":23,"wdir":200,"wspd":5,"visib":"6+","altim":1011,"clouds":[{"cover":"FEW","base":1900},{"cover":"SCT","base":2300},{"cover":"BKN","base":10000}],"obsTime":1775541600},"SBFZ":{"icaoId":"SBFZ","flightCategory":"MVFR","rawOb":"METAR SBFZ 070600Z 17014KT 6000 -TSRA BKN020 FEW030CB BKN060 25/23 Q1011","temp":25,"dewp":23,"wdir":170,"wspd":14,"visib":3.73,"altim":1011,"clouds":[{"cover":"BKN","base":2000},{"cover":"FEW","base":3000},{"cover":"BKN","base":6000}],"obsTime":1775541600},"SBPA":{"icaoId":"SBPA","flightCategory":"VFR","rawOb":"METAR SBPA 070600Z 10010KT 9999 SCT040 SCT100 22/20 Q1012","temp":22,"dewp":20,"wdir":100,"wspd":10,"visib":"6+","altim":1012,"clouds":[{"cover":"SCT","base":4000},{"cover":"SCT","base":10000}],"obsTime":1775541600},"SBPJ":{"icaoId":"SBPJ","flightCategory":"VFR","rawOb":"METAR SBPJ 070600Z 13003KT 9999 FEW025 SCT100 25/24 Q1013","temp":25,"dewp":24,"wdir":130,"wspd":3,"visib":"6+","altim":1013,"clouds":[{"cover":"FEW","base":2500},{"cover":"SCT","base":10000}],"obsTime":1775541600},"SBBV":{"icaoId":"SBBV","flightCategory":"VFR","rawOb":"METAR SBBV 070600Z 07004KT 9999 FEW040 SCT100 27/22 Q1010","temp":27,"dewp":22,"wdir":70,"wspd":4,"visib":"6+","altim":1010,"clouds":[{"cover":"FEW","base":4000},{"cover":"SCT","base":10000}],"obsTime":1775541600},"SBPV":{"icaoId":"SBPV","flightCategory":"MVFR","rawOb":"METAR SBPV 070600Z 30001KT 9999 -TSRA BKN030 FEW035CB BKN070 25/23 Q1011","temp":25,"dewp":23,"wdir":300,"wspd":1,"visib":"6+","altim":1011,"clouds":[{"cover":"BKN","base":3000},{"cover":"FEW","base":3500},{"cover":"BKN","base":7000}],"obsTime":1775541600},"SBGL":{"icaoId":"SBGL","flightCategory":"VFR","rawOb":"METAR SBGL 070600Z 10004KT 9999 FEW020 SCT060 24/22 Q1016","temp":24,"dewp":22,"wdir":100,"wspd":4,"visib":"6+","altim":1016,"clouds":[{"cover":"FEW","base":2000},{"cover":"SCT","base":6000}],"obsTime":1775541600},"SBGO":{"icaoId":"SBGO","flightCategory":"VFR","rawOb":"METAR SBGO 070600Z 14002KT 9999 FEW048 FEW053TCU BKN100 22/20 Q1018","temp":22,"dewp":20,"wdir":140,"wspd":2,"visib":"6+","altim":1018,"clouds":[{"cover":"FEW","base":4800},{"cover":"FEW","base":5300},{"cover":"BKN","base":10000}],"obsTime":1775541600},"SBRB":{"icaoId":"SBRB","flightCategory":"VFR","rawOb":"METAR SBRB 070600Z 17001KT 9999 FEW011 SCT080 23/22 Q1011","temp":23,"dewp":22,"wdir":170,"wspd":1,"visib":"6+","altim":1011,"clouds":[{"cover":"FEW","base":1100},{"cover":"SCT","base":8000}],"obsTime":1775541600},"SBRF":{"icaoId":"SBRF","flightCategory":"MVFR","rawOb":"METAR SBRF 070600Z 21006KT 5000 -RA BR SCT010 BKN020 FEW022TCU OVC040 24/24 Q1012 RERA","temp":24,"dewp":24,"wdir":210,"wspd":6,"visib":3.11,"altim":1012,"clouds":[{"cover":"SCT","base":1000},{"cover":"BKN","base":2000},{"cover":"FEW","base":2200},{"cover":"OVC","base":4000}],"obsTime":1775541600},"SBUR":{"icaoId":"SBUR","flightCategory":"VFR","rawOb":"METAR SBUR 070600Z 10005KT CAVOK 21/20 Q1019","temp":21,"dewp":20,"wdir":100,"wspd":5,"visib":"6+","altim":1019,"clouds":[],"obsTime":1775541600},"SBMA":{"icaoId":"SBMA","flightCategory":"VFR","rawOb":"METAR SBMA 070600Z 26001KT CAVOK 25/23 Q1011","temp":25,"dewp":23,"wdir":260,"wspd":1,"visib":"6+","altim":1011,"clouds":[],"obsTime":1775541600},"SBCG":{"icaoId":"SBCG","flightCategory":"VFR","rawOb":"METAR SBCG 070600Z 07004KT CAVOK 22/19 Q1014","temp":22,"dewp":19,"wdir":70,"wspd":4,"visib":"6+","altim":1014,"clouds":[],"obsTime":1775541600},"SBME":{"icaoId":"SBME","flightCategory":"VFR","rawOb":"METAR SBME 070600Z 34002KT CAVOK 23/22 Q1017","temp":23,"dewp":22,"wdir":340,"wspd":2,"visib":"6+","altim":1017,"clouds":[],"obsTime":1775541600},"SBFL":{"icaoId":"SBFL","flightCategory":"MVFR","rawOb":"METAR SBFL 070600Z 07010KT 030V090 9999 BKN014 OVC040 25/23 Q1015","temp":25,"dewp":23,"wdir":70,"wspd":10,"visib":"6+","altim":1015,"clouds":[{"cover":"BKN","base":1400},{"cover":"OVC","base":4000}],"obsTime":1775541600},"SBMO":{"icaoId":"SBMO","flightCategory":"VFR","rawOb":"METAR SBMO 070600Z VRB02KT 9000 SCT036 BKN080 23/22 Q1014","temp":23,"dewp":22,"wdir":"VRB","wspd":2,"visib":5.59,"altim":1014,"clouds":[{"cover":"SCT","base":3600},{"cover":"BKN","base":8000}],"obsTime":1775541600},"SBCT":{"icaoId":"SBCT","flightCategory":"MVFR","rawOb":"METAR SBCT 070600Z 04004KT 9999 BKN013 19/19 Q1020","temp":19,"dewp":19,"wdir":40,"wspd":4,"visib":"6+","altim":1020,"clouds":[{"cover":"BKN","base":1300}],"obsTime":1775541600},"SBSG":{"icaoId":"SBSG","flightCategory":"MVFR","rawOb":"METAR SBSG 070600Z 20005KT 9999 BKN010 SCT023 23/23 Q1012","temp":23,"dewp":23,"wdir":200,"wspd":5,"visib":"6+","altim":1012,"clouds":[{"cover":"BKN","base":1000},{"cover":"SCT","base":2300}],"obsTime":1775541600},"SBCF":{"icaoId":"SBCF","flightCategory":"VFR","rawOb":"METAR SBCF 070600Z 12008KT CAVOK 21/18 Q1020","temp":21,"dewp":18,"wdir":120,"wspd":8,"visib":"6+","altim":1020,"clouds":[],"obsTime":1775541600},"SBSL":{"icaoId":"SBSL","flightCategory":"VFR","rawOb":"METAR SBSL 070600Z 14003KT CAVOK 25/24 Q1011","temp":25,"dewp":24,"wdir":140,"wspd":3,"visib":"6+","altim":1011,"clouds":[],"obsTime":1775541600},"SBGR":{"icaoId":"SBGR","flightCategory":"MVFR","rawOb":"METAR SBGR 070600Z 11001KT 9999 OVC017 22/20 Q1020","temp":22,"dewp":20,"wdir":110,"wspd":1,"visib":"6+","altim":1020,"clouds":[{"cover":"OVC","base":1700}],"obsTime":1775541600},"SBJU":{"icaoId":"SBJU","flightCategory":"VFR","rawOb":"METAR SBJU 070600Z 00000KT 9999 SCT020 24/22 Q1015","temp":24,"dewp":22,"wdir":0,"wspd":0,"visib":"6+","altim":1015,"clouds":[{"cover":"SCT","base":2000}],"obsTime":1775541600},"SBSN":{"icaoId":"SBSN","flightCategory":"VFR","rawOb":"METAR SBSN 070600Z 10005KT 9999 -RA SCT010 OVC100 24/23 Q1010","temp":24,"dewp":23,"wdir":100,"wspd":5,"visib":"6+","altim":1010,"clouds":[{"cover":"SCT","base":1000},{"cover":"OVC","base":10000}],"obsTime":1775541600},"SBEG":{"icaoId":"SBEG","flightCategory":"VFR","rawOb":"METAR SBEG 070600Z 06002KT CAVOK 25/24 Q1010","temp":25,"dewp":24,"wdir":60,"wspd":2,"visib":"6+","altim":1010,"clouds":[],"obsTime":1775541600},"SBSV":{"icaoId":"SBSV","flightCategory":"VFR","rawOb":"METAR SBSV 070600Z 10006KT 9999 FEW020 27/23 Q1014","temp":27,"dewp":23,"wdir":100,"wspd":6,"visib":"6+","altim":1014,"clouds":[{"cover":"FEW","base":2000}],"obsTime":1775541600},"SBTE":{"icaoId":"SBTE","flightCategory":"LIFR","rawOb":"METAR SBTE 070600Z 00000KT 0300 FG BKN001 24/24 Q1011","temp":24,"dewp":24,"wdir":0,"wspd":0,"visib":0.19,"altim":1011,"clouds":[{"cover":"BKN","base":100}],"obsTime":1775541600},"SBBR":{"icaoId":"SBBR","flightCategory":"VFR","rawOb":"METAR SBBR 070600Z VRB02KT CAVOK 20/19 Q1019","temp":20,"dewp":19,"wdir":"VRB","wspd":2,"visib":"6+","altim":1019,"clouds":[],"obsTime":1775541600},"SBKP":{"icaoId":"SBKP","flightCategory":"VFR","rawOb":"METAR SBKP 070600Z 00000KT 9999 FEW040 20/20 Q1020","temp":20,"dewp":20,"wdir":0,"wspd":0,"visib":"6+","altim":1020,"clouds":[{"cover":"FEW","base":4000}],"obsTime":1775541600},"SBUL":{"icaoId":"SBUL","flightCategory":"VFR","rawOb":"METAR SBUL 070600Z 26006KT CAVOK 21/19 Q1020","temp":21,"dewp":19,"wdir":260,"wspd":6,"visib":"6+","altim":1020,"clouds":[],"obsTime":1775541600},"SBMQ":{"icaoId":"SBMQ","flightCategory":"MVFR","rawOb":"METAR SBMQ 070600Z 02004KT 9999 BKN013 26/25 Q1010","temp":26,"dewp":25,"wdir":20,"wspd":4,"visib":"6+","altim":1010,"clouds":[{"cover":"BKN","base":1300}],"obsTime":1775541600},"SBFI":{"icaoId":"SBFI","flightCategory":"VFR","rawOb":"METAR SBFI 070600Z 06008KT 9999 FEW030TCU BKN100 26/22 Q1011","temp":26,"dewp":22,"wdir":60,"wspd":8,"visib":"6+","altim":1011,"clouds":[{"cover":"FEW","base":3000},{"cover":"BKN","base":10000}],"obsTime":1775541600},"SBLO":{"icaoId":"SBLO","flightCategory":"MVFR","rawOb":"METAR SBLO 070600Z 08005KT 9999 BKN015 BKN040 22/20 Q1017","temp":22,"dewp":20,"wdir":80,"wspd":5,"visib":"6+","altim":1017,"clouds":[{"cover":"BKN","base":1500},{"cover":"BKN","base":4000}],"obsTime":1775541600},"SBVT":{"icaoId":"SBVT","flightCategory":"VFR","rawOb":"METAR SBVT 070600Z 31003KT 9999 FEW020 BKN050 23/23 Q1016","temp":23,"dewp":23,"wdir":310,"wspd":3,"visib":"6+","altim":1016,"clouds":[{"cover":"FEW","base":2000},{"cover":"BKN","base":5000}],"obsTime":1775541600},"SBOI":{"icaoId":"SBOI","flightCategory":"MVFR","rawOb":"METAR SBOI 070600Z AUTO VRB02KT 9999 // FEW001/// BKN014/// OVC061/// 25/24 Q1011","temp":25,"dewp":24,"wdir":"VRB","wspd":2,"visib":"6+","altim":1011,"clouds":[{"cover":"FEW","base":100},{"cover":"BKN","base":1400},{"cover":"OVC","base":6100}],"obsTime":1775541600},"SBAR":{"icaoId":"SBAR","flightCategory":"VFR","rawOb":"METAR SBAR 070600Z 12007KT 9999 FEW015 SCT020 28/24 Q1013","temp":28,"dewp":24,"wdir":120,"wspd":7,"visib":"6+","altim":1013,"clouds":[{"cover":"FEW","base":1500},{"cover":"SCT","base":2000}],"obsTime":1775541600},"SBSC":{"icaoId":"SBSC","flightCategory":"MVFR","rawOb":"METAR SBSC 070600Z 04003KT 5000 BR OVC030 23/22 Q1016","temp":23,"dewp":22,"wdir":40,"wspd":3,"visib":3.11,"altim":1016,"clouds":[{"cover":"OVC","base":3000}],"obsTime":1775541600},"SBPL":{"icaoId":"SBPL","flightCategory":"MVFR","rawOb":"METAR SBPL 070600Z 12006KT 9999 BKN025 26/22 Q1015","temp":26,"dewp":22,"wdir":120,"wspd":6,"visib":"6+","altim":1015,"clouds":[{"cover":"BKN","base":2500}],"obsTime":1775541600},"SBKG":{"icaoId":"SBKG","flightCategory":"VFR","rawOb":"METAR SBKG 070600Z 18002KT CAVOK 21/20 Q1014","temp":21,"dewp":20,"wdir":180,"wspd":2,"visib":"6+","altim":1014,"clouds":[],"obsTime":1775541600},"SBPS":{"icaoId":"SBPS","flightCategory":"VFR","rawOb":"METAR SBPS 070600Z 26004KT 9999 SCT015 24/23 Q1016","temp":24,"dewp":23,"wdir":260,"wspd":4,"visib":"6+","altim":1016,"clouds":[{"cover":"SCT","base":1500}],"obsTime":1775541600},"SBSJ":{"icaoId":"SBSJ","flightCategory":"MVFR","rawOb":"SPECI SBSJ 070629Z 14003KT 6000 BKN013 BKN020 21/20 Q1019","temp":21,"dewp":20,"wdir":140,"wspd":3,"visib":3.73,"altim":1019,"clouds":[{"cover":"BKN","base":1300},{"cover":"BKN","base":2000}],"obsTime":1775543340},"SBSR":{"icaoId":"SBSR","flightCategory":"VFR","rawOb":"METAR SBSR 070600Z 10005KT CAVOK 23/19 Q1018","temp":23,"dewp":19,"wdir":100,"wspd":5,"visib":"6+","altim":1018,"clouds":[],"obsTime":1775541600},"SBDN":{"icaoId":"SBDN","flightCategory":"VFR","rawOb":"METAR SBDN 070600Z 05008KT 9999 FEW039 22/19 Q1016","temp":22,"dewp":19,"wdir":50,"wspd":8,"visib":"6+","altim":1016,"clouds":[{"cover":"FEW","base":3900}],"obsTime":1775541600},"SBAN":{"icaoId":"SBAN","flightCategory":"VFR","rawOb":"METAR SBAN 070600Z 17001KT 9999 SCT035 BKN100 19/17 Q1020","temp":19,"dewp":17,"wdir":170,"wspd":1,"visib":"6+","altim":1020,"clouds":[{"cover":"SCT","base":3500},{"cover":"BKN","base":10000}],"obsTime":1775541600},"SBJP":{"icaoId":"SBJP","flightCategory":"VFR","rawOb":"METAR SBJP 070600Z 28005KT 210V330 9999 -RA FEW025 23/23 Q1012","temp":23,"dewp":23,"wdir":280,"wspd":5,"visib":"6+","altim":1012,"clouds":[{"cover":"FEW","base":2500}],"obsTime":1775541600}}}