{"updated":1784627771,"count":66,"data":{"SBRF":{"icaoId":"SBRF","flightCategory":"VFR","rawOb":"METAR SBRF 210800Z 20008KT 9999 SCT027 23/22 Q1013","temp":23,"dewp":22,"wdir":200,"wspd":8,"visib":"6+","altim":1013,"clouds":[{"cover":"SCT","base":2700}],"obsTime":1784620800},"SBMG":{"icaoId":"SBMG","flightCategory":"VFR","rawOb":"METAR SBMG 210800Z AUTO 03014KT CAVOK 21/13 Q1012","temp":21,"dewp":13,"wdir":30,"wspd":14,"visib":"6+","altim":1012,"clouds":[],"obsTime":1784620800},"SBJU":{"icaoId":"SBJU","flightCategory":"VFR","rawOb":"METAR SBJU 210800Z 18005KT 9999 FEW020 24/17 Q1015","temp":24,"dewp":17,"wdir":180,"wspd":5,"visib":"6+","altim":1015,"clouds":[{"cover":"FEW","base":2000}],"obsTime":1784620800},"SBME":{"icaoId":"SBME","flightCategory":"VFR","rawOb":"METAR SBME 210800Z 02008KT CAVOK 19/17 Q1016","temp":19,"dewp":17,"wdir":20,"wspd":8,"visib":"6+","altim":1016,"clouds":[],"obsTime":1784620800},"SBMK":{"icaoId":"SBMK","flightCategory":"VFR","rawOb":"METAR SBMK 210800Z 23003KT CAVOK 14/12 Q1019","temp":14,"dewp":12,"wdir":230,"wspd":3,"visib":"6+","altim":1019,"clouds":[],"obsTime":1784620800},"SBUL":{"icaoId":"SBUL","flightCategory":"VFR","rawOb":"METAR SBUL 210800Z 12007KT CAVOK 16/09 Q1019","temp":16,"dewp":9,"wdir":120,"wspd":7,"visib":"6+","altim":1019,"clouds":[],"obsTime":1784620800},"SBCB":{"icaoId":"SBCB","flightCategory":"VFR","rawOb":"METAR SBCB 210900Z 07007KT CAVOK 20/18 Q1016","temp":20,"dewp":18,"wdir":70,"wspd":7,"visib":"6+","altim":1016,"clouds":[],"obsTime":1784624400},"SBUR":{"icaoId":"SBUR","flightCategory":"VFR","rawOb":"METAR SBUR 210800Z 04007KT CAVOK 18/09 Q1018","temp":18,"dewp":9,"wdir":40,"wspd":7,"visib":"6+","altim":1018,"clouds":[],"obsTime":1784620800},"SBEG":{"icaoId":"SBEG","flightCategory":"VFR","rawOb":"METAR SBEG 210800Z 08004KT CAVOK 26/23 Q1010","temp":26,"dewp":23,"wdir":80,"wspd":4,"visib":"6+","altim":1010,"clouds":[],"obsTime":1784620800},"SBSP":{"icaoId":"SBSP","flightCategory":"VFR","rawOb":"METAR SBSP 210800Z AUTO 33005KT CAVOK 17/10 Q1018","temp":17,"dewp":10,"wdir":330,"wspd":5,"visib":"6+","altim":1018,"clouds":[],"obsTime":1784620800},"SBLO":{"icaoId":"SBLO","flightCategory":"VFR","rawOb":"METAR SBLO 210800Z 22003KT CAVOK 17/15 Q1014","temp":17,"dewp":15,"wdir":220,"wspd":3,"visib":"6+","altim":1014,"clouds":[],"obsTime":1784620800},"SBSV":{"icaoId":"SBSV","flightCategory":"VFR","rawOb":"METAR SBSV 210800Z 13006KT 9999 SCT021 BKN100 24/22 Q1016","temp":24,"dewp":22,"wdir":130,"wspd":6,"visib":"6+","altim":1016,"clouds":[{"cover":"SCT","base":2100},{"cover":"BKN","base":10000}],"obsTime":1784620800},"SBCF":{"icaoId":"SBCF","flightCategory":"VFR","rawOb":"METAR SBCF 210800Z 16003KT CAVOK 15/13 Q1020","temp":15,"dewp":13,"wdir":160,"wspd":3,"visib":"6+","altim":1020,"clouds":[],"obsTime":1784620800},"SBPA":{"icaoId":"SBPA","flightCategory":"MVFR","rawOb":"METAR SBPA 210800Z VRB02KT 7000 SCT035 BKN090 18/18 Q1007","temp":18,"dewp":18,"wdir":"VRB","wspd":2,"visib":4.35,"altim":1007,"clouds":[{"cover":"SCT","base":3500},{"cover":"BKN","base":9000}],"obsTime":1784620800},"SBMO":{"icaoId":"SBMO","flightCategory":"MVFR","rawOb":"METAR SBMO 210800Z 35002KT 9999 -DZ SCT015 BKN020 22/22 Q1015","temp":22,"dewp":22,"wdir":350,"wspd":2,"visib":"6+","altim":1015,"clouds":[{"cover":"SCT","base":1500},{"cover":"BKN","base":2000}],"obsTime":1784620800},"SBSL":{"icaoId":"SBSL","flightCategory":"VFR","rawOb":"METAR SBSL 210800Z 04006KT 9999 FEW017 26/24 Q1011","temp":26,"dewp":24,"wdir":40,"wspd":6,"visib":"6+","altim":1011,"clouds":[{"cover":"FEW","base":1700}],"obsTime":1784620800},"SBFL":{"icaoId":"SBFL","flightCategory":"VFR","rawOb":"METAR SBFL 210800Z 30006KT CAVOK 19/17 Q1010","temp":19,"dewp":17,"wdir":300,"wspd":6,"visib":"6+","altim":1010,"clouds":[],"obsTime":1784620800},"SBGL":{"icaoId":"SBGL","flightCategory":"VFR","rawOb":"METAR SBGL 210800Z 06004KT CAVOK 17/15 Q1015","temp":17,"dewp":15,"wdir":60,"wspd":4,"visib":"6+","altim":1015,"clouds":[],"obsTime":1784620800},"SBGR":{"icaoId":"SBGR","flightCategory":"VFR","rawOb":"METAR SBGR 210800Z 12002KT CAVOK 13/10 Q1018","temp":13,"dewp":10,"wdir":120,"wspd":2,"visib":"6+","altim":1018,"clouds":[],"obsTime":1784620800},"SBSN":{"icaoId":"SBSN","flightCategory":"VFR","rawOb":"METAR SBSN 210800Z 08008KT CAVOK 27/24 Q1010","temp":27,"dewp":24,"wdir":80,"wspd":8,"visib":"6+","altim":1010,"clouds":[],"obsTime":1784620800},"SBCT":{"icaoId":"SBCT","flightCategory":"VFR","rawOb":"METAR SBCT 210800Z 02003KT CAVOK 17/13 Q1016","temp":17,"dewp":13,"wdir":20,"wspd":3,"visib":"6+","altim":1016,"clouds":[],"obsTime":1784620800},"SBVT":{"icaoId":"SBVT","flightCategory":"MVFR","rawOb":"METAR SBVT 210800Z 35003KT 9000 -RA SCT015 BKN020 OVC040 20/19 Q1019","temp":20,"dewp":19,"wdir":350,"wspd":3,"visib":5.59,"altim":1019,"clouds":[{"cover":"SCT","base":1500},{"cover":"BKN","base":2000},{"cover":"OVC","base":4000}],"obsTime":1784620800},"SBPJ":{"icaoId":"SBPJ","flightCategory":"VFR","rawOb":"METAR SBPJ 210800Z 15004KT CAVOK 22/17 Q1013","temp":22,"dewp":17,"wdir":150,"wspd":4,"visib":"6+","altim":1013,"clouds":[],"obsTime":1784620800},"SBFI":{"icaoId":"SBFI","flightCategory":"VFR","rawOb":"METAR SBFI 210800Z 10002KT 9999 SCT030 BKN070 21/20 Q1008","temp":21,"dewp":20,"wdir":100,"wspd":2,"visib":"6+","altim":1008,"clouds":[{"cover":"SCT","base":3000},{"cover":"BKN","base":7000}],"obsTime":1784620800},"SBNT":{"icaoId":"SBNT","flightCategory":"IFR","rawOb":"METAR SBNT 210800Z 16004KT 120V190 4000 RA BR BKN007 BKN013 FEW025TCU BKN060 22/22 Q1013","temp":22,"dewp":22,"wdir":160,"wspd":4,"visib":2.49,"altim":1013,"clouds":[{"cover":"BKN","base":700},{"cover":"BKN","base":1300},{"cover":"FEW","base":2500},{"cover":"BKN","base":6000}],"obsTime":1784620800},"SBSG":{"icaoId":"SBSG","flightCategory":"LIFR","rawOb":"METAR SBSG 210800Z 17004KT 130V210 3000 RA BR OVC004 22/22 Q1014","temp":22,"dewp":22,"wdir":170,"wspd":4,"visib":1.86,"altim":1014,"clouds":[{"cover":"OVC","base":400}],"obsTime":1784620800},"SBPV":{"icaoId":"SBPV","flightCategory":"VFR","rawOb":"METAR SBPV 210800Z 00000KT CAVOK 23/22 Q1009","temp":23,"dewp":22,"wdir":0,"wspd":0,"visib":"6+","altim":1009,"clouds":[],"obsTime":1784620800},"SBBR":{"icaoId":"SBBR","flightCategory":"VFR","rawOb":"METAR SBBR 210800Z 30002KT CAVOK 13/10 Q1020","temp":13,"dewp":10,"wdir":300,"wspd":2,"visib":"6+","altim":1020,"clouds":[],"obsTime":1784620800},"SBFZ":{"icaoId":"SBFZ","flightCategory":"MVFR","rawOb":"METAR SBFZ 210800Z 12010KT 7000 -SHRA BKN018 OVC070 24/23 Q1012","temp":24,"dewp":23,"wdir":120,"wspd":10,"visib":4.35,"altim":1012,"clouds":[{"cover":"BKN","base":1800},{"cover":"OVC","base":7000}],"obsTime":1784620800},"SBBV":{"icaoId":"SBBV","flightCategory":"VFR","rawOb":"METAR SBBV 210800Z 08004KT CAVOK 25/23 Q1011","temp":25,"dewp":23,"wdir":80,"wspd":4,"visib":"6+","altim":1011,"clouds":[],"obsTime":1784620800},"SBBE":{"icaoId":"SBBE","flightCategory":"VFR","rawOb":"METAR SBBE 210800Z 10006KT 9999 FEW040 BKN080 25/25 Q1011","temp":25,"dewp":25,"wdir":100,"wspd":6,"visib":"6+","altim":1011,"clouds":[{"cover":"FEW","base":4000},{"cover":"BKN","base":8000}],"obsTime":1784620800},"SBRB":{"icaoId":"SBRB","flightCategory":"MVFR","rawOb":"METAR SBRB 210800Z 19002KT 8000 NSC 22/22 Q1009","temp":22,"dewp":22,"wdir":190,"wspd":2,"visib":4.97,"altim":1009,"clouds":[],"obsTime":1784620800},"SBMA":{"icaoId":"SBMA","flightCategory":"VFR","rawOb":"METAR SBMA 210800Z 16002KT CAVOK 24/20 Q1011","temp":24,"dewp":20,"wdir":160,"wspd":2,"visib":"6+","altim":1011,"clouds":[],"obsTime":1784620800},"SBKP":{"icaoId":"SBKP","flightCategory":"VFR","rawOb":"METAR SBKP 210800Z 12006KT CAVOK 14/11 Q1018","temp":14,"dewp":11,"wdir":120,"wspd":6,"visib":"6+","altim":1018,"clouds":[],"obsTime":1784620800},"SBMQ":{"icaoId":"SBMQ","flightCategory":"MVFR","rawOb":"METAR SBMQ 210800Z 36004KT 9999 BKN028 BKN086 26/25 Q1010","temp":26,"dewp":25,"wdir":360,"wspd":4,"visib":"6+","altim":1010,"clouds":[{"cover":"BKN","base":2800},{"cover":"BKN","base":8600}],"obsTime":1784620800},"SBTE":{"icaoId":"SBTE","flightCategory":"IFR","rawOb":"METAR SBTE 210800Z 25003KT 9999 BKN009 25/22 Q1011","temp":25,"dewp":22,"wdir":250,"wspd":3,"visib":"6+","altim":1011,"clouds":[{"cover":"BKN","base":900}],"obsTime":1784620800},"SBGO":{"icaoId":"SBGO","flightCategory":"VFR","rawOb":"METAR SBGO 210800Z 15002KT CAVOK 16/12 Q1018","temp":16,"dewp":12,"wdir":150,"wspd":2,"visib":"6+","altim":1018,"clouds":[],"obsTime":1784620800},"SBCG":{"icaoId":"SBCG","flightCategory":"VFR","rawOb":"METAR SBCG 210800Z 36008KT CAVOK 23/16 Q1012","temp":23,"dewp":16,"wdir":360,"wspd":8,"visib":"6+","altim":1012,"clouds":[],"obsTime":1784620800},"SBIP":{"icaoId":"SBIP","flightCategory":"MVFR","rawOb":"METAR SBIP 210800Z AUTO 35003KT 9999 FEW016 OVC022 20/19 Q1019","temp":20,"dewp":19,"wdir":350,"wspd":3,"visib":"6+","altim":1019,"clouds":[{"cover":"FEW","base":1600},{"cover":"OVC","base":2200}],"obsTime":1784620800},"SBOI":{"icaoId":"SBOI","flightCategory":"LIFR","rawOb":"METAR SBOI 210800Z AUTO 00000KT 0500 FG VV001 23/22 Q1012","temp":23,"dewp":22,"wdir":0,"wspd":0,"visib":0.31,"altim":1012,"clouds":[{"cover":"OVX","base":100}],"obsTime":1784620800},"SBSM":{"icaoId":"SBSM","flightCategory":"LIFR","rawOb":"METAR SBSM 210900Z VRB02KT 1500 R29///// R11/P2000 -DZ BR OVC003 19/18 Q1007","temp":19,"dewp":18,"wdir":"VRB","wspd":2,"visib":0.93,"altim":1007,"clouds":[{"cover":"OVC","base":300}],"obsTime":1784624400},"SBSJ":{"icaoId":"SBSJ","flightCategory":"VFR","rawOb":"SPECI SBSJ 210830Z VRB04KT CAVOK 11/09 Q1018","temp":11,"dewp":9,"wdir":"VRB","wspd":4,"visib":"6+","altim":1018,"clouds":[],"obsTime":1784622600},"SBCA":{"icaoId":"SBCA","flightCategory":"MVFR","rawOb":"METAR SBCA 210900Z 30006KT 9999 TS SCT010 BKN025 FEW035CB BKN080 19/15 Q1014","temp":19,"dewp":15,"wdir":300,"wspd":6,"visib":"6+","altim":1014,"clouds":[{"cover":"SCT","base":1000},{"cover":"BKN","base":2500},{"cover":"FEW","base":3500},{"cover":"BKN","base":8000}],"obsTime":1784624400},"SBCO":{"icaoId":"SBCO","flightCategory":"MVFR","rawOb":"METAR SBCO 210900Z 18002KT 6000 -RA SCT035 BKN080 18/18 Q1007","temp":18,"dewp":18,"wdir":180,"wspd":2,"visib":3.73,"altim":1007,"clouds":[{"cover":"SCT","base":3500},{"cover":"BKN","base":8000}],"obsTime":1784624400},"SBKG":{"icaoId":"SBKG","flightCategory":"VFR","rawOb":"METAR SBKG 210800Z 13006KT 9999 SCT015 SCT070 21/19 Q1016","temp":21,"dewp":19,"wdir":130,"wspd":6,"visib":"6+","altim":1016,"clouds":[{"cover":"SCT","base":1500},{"cover":"SCT","base":7000}],"obsTime":1784620800},"SBTU":{"icaoId":"SBTU","flightCategory":"IFR","rawOb":"METAR SBTU 210800Z AUTO 20006KT 9999 // BKN005/// ///// Q1013","temp":null,"dewp":null,"wdir":200,"wspd":6,"visib":"6+","altim":1013,"clouds":[{"cover":"BKN","base":500}],"obsTime":1784620800},"SBAX":{"icaoId":"SBAX","flightCategory":"VFR","rawOb":"METAR SBAX 210800Z AUTO 12006KT CAVOK 13/08 Q1020","temp":13,"dewp":8,"wdir":120,"wspd":6,"visib":"6+","altim":1020,"clouds":[],"obsTime":1784620800},"SBBH":{"icaoId":"SBBH","flightCategory":"VFR","rawOb":"METAR SBBH 210900Z 12005KT CAVOK 15/13 Q1020","temp":15,"dewp":13,"wdir":120,"wspd":5,"visib":"6+","altim":1020,"clouds":[],"obsTime":1784624400},"SBBU":{"icaoId":"SBBU","flightCategory":"VFR","rawOb":"METAR SBBU 210900Z 06005KT CAVOK 19/13 Q1016","temp":19,"dewp":13,"wdir":60,"wspd":5,"visib":"6+","altim":1016,"clouds":[],"obsTime":1784624400},"SBDN":{"icaoId":"SBDN","flightCategory":"VFR","rawOb":"METAR SBDN 210800Z 05007KT CAVOK 19/12 Q1013","temp":19,"dewp":12,"wdir":50,"wspd":7,"visib":"6+","altim":1013,"clouds":[],"obsTime":1784620800},"SBSC":{"icaoId":"SBSC","flightCategory":"VFR","rawOb":"METAR SBSC 210800Z 32002KT CAVOK 18/15 Q1013","temp":18,"dewp":15,"wdir":320,"wspd":2,"visib":"6+","altim":1013,"clouds":[],"obsTime":1784620800},"SBSR":{"icaoId":"SBSR","flightCategory":"VFR","rawOb":"METAR SBSR 210800Z 07007KT CAVOK 18/11 Q1015","temp":18,"dewp":11,"wdir":70,"wspd":7,"visib":"6+","altim":1015,"clouds":[],"obsTime":1784620800},"SBES":{"icaoId":"SBES","flightCategory":"VFR","rawOb":"METAR SBES 210900Z 02004KT 320V050 CAVOK 17/// Q1016","temp":null,"dewp":null,"wdir":20,"wspd":4,"visib":"6+","altim":1016,"clouds":[],"obsTime":1784624400},"SBAR":{"icaoId":"SBAR","flightCategory":"VFR","rawOb":"METAR SBAR 210800Z 15006KT 9999 FEW022 BKN035 24/20 Q1015","temp":24,"dewp":20,"wdir":150,"wspd":6,"visib":"6+","altim":1015,"clouds":[{"cover":"FEW","base":2200},{"cover":"BKN","base":3500}],"obsTime":1784620800},"SBPL":{"icaoId":"SBPL","flightCategory":"MVFR","rawOb":"METAR SBPL 210800Z 12007KT 9999 SCT015 BKN020 22/19 Q1016","temp":22,"dewp":19,"wdir":120,"wspd":7,"visib":"6+","altim":1016,"clouds":[{"cover":"SCT","base":1500},{"cover":"BKN","base":2000}],"obsTime":1784620800},"SBPS":{"icaoId":"SBPS","flightCategory":"VFR","rawOb":"METAR SBPS 210800Z 26002KT 9999 SCT015 BKN070 21/20 Q1017","temp":21,"dewp":20,"wdir":260,"wspd":2,"visib":"6+","altim":1017,"clouds":[{"cover":"SCT","base":1500},{"cover":"BKN","base":7000}],"obsTime":1784620800},"SBNM":{"icaoId":"SBNM","flightCategory":"LIFR","rawOb":"METAR SBNM 210800Z AUTO 22006KT 2100 -RA BR BKN002 BKN005 OVC007 19/18 Q1008","temp":19,"dewp":18,"wdir":220,"wspd":6,"visib":1.3,"altim":1008,"clouds":[{"cover":"BKN","base":200},{"cover":"BKN","base":500},{"cover":"OVC","base":700}],"obsTime":1784620800},"SBLE":{"icaoId":"SBLE","flightCategory":"MVFR","rawOb":"METAR SBLE 210800Z AUTO 28003KT 9000 -RA FEW014 BKN017 OVC032 ///// Q1019","temp":null,"dewp":null,"wdir":280,"wspd":3,"visib":5.59,"altim":1019,"clouds":[{"cover":"FEW","base":1400},{"cover":"BKN","base":1700},{"cover":"OVC","base":3200}],"obsTime":1784620800},"SBJP":{"icaoId":"SBJP","flightCategory":"MVFR","rawOb":"METAR SBJP 210800Z 18006KT 8000 -RA FEW007 BKN070 23/23 Q1014","temp":23,"dewp":23,"wdir":180,"wspd":6,"visib":4.97,"altim":1014,"clouds":[{"cover":"FEW","base":700},{"cover":"BKN","base":7000}],"obsTime":1784620800},"SBTA":{"icaoId":"SBTA","flightCategory":"VFR","rawOb":"METAR SBTA 210900Z 00000KT CAVOK 08/07 Q1018","temp":8,"dewp":7,"wdir":0,"wspd":0,"visib":"6+","altim":1018,"clouds":[],"obsTime":1784624400},"SBJV":{"icaoId":"SBJV","flightCategory":"VFR","rawOb":"METAR SBJV 210900Z 10004KT CAVOK 17/17 Q1011","temp":17,"dewp":17,"wdir":100,"wspd":4,"visib":"6+","altim":1011,"clouds":[],"obsTime":1784624400},"SBAN":{"icaoId":"SBAN","flightCategory":"VFR","rawOb":"METAR SBAN 210800Z 10004KT CAVOK 17/10 Q1020","temp":17,"dewp":10,"wdir":100,"wspd":4,"visib":"6+","altim":1020,"clouds":[],"obsTime":1784620800},"SBPF":{"icaoId":"SBPF","flightCategory":"VFR","rawOb":"METAR SBPF 210900Z 35007KT 9999 -TSRA SCT010 FEW045CB BKN070 18/17 Q1011","temp":18,"dewp":17,"wdir":350,"wspd":7,"visib":"6+","altim":1011,"clouds":[{"cover":"SCT","base":1000},{"cover":"FEW","base":4500},{"cover":"BKN","base":7000}],"obsTime":1784624400},"SBMT":{"icaoId":"SBMT","flightCategory":"VFR","rawOb":"METAR SBMT 210900Z 04001KT CAVOK 13/09 Q1018","temp":13,"dewp":9,"wdir":40,"wspd":1,"visib":"6+","altim":1018,"clouds":[],"obsTime":1784624400},"SBLS":{"icaoId":"SBLS","flightCategory":"VFR","rawOb":"METAR SBLS 210900Z /////KT CAVOK 14/13 Q1020","temp":14,"dewp":13,"wdir":null,"wspd":null,"visib":"6+","altim":1020,"clouds":[],"obsTime":1784624400},"SBGW":{"icaoId":"SBGW","flightCategory":"VFR","rawOb":"METAR SBGW 210900Z 36002KT CAVOK 09/07 Q1018","temp":9,"dewp":7,"wdir":360,"wspd":2,"visib":"6+","altim":1018,"clouds":[],"obsTime":1784624400}}}