{"updated":1784348284,"count":56,"data":{"SBCG":{"icaoId":"SBCG","flightCategory":"VFR","rawOb":"METAR SBCG 180300Z 10013KT CAVOK 25/17 Q1014","temp":25,"dewp":17,"wdir":100,"wspd":13,"visib":"6+","altim":1014,"clouds":[],"obsTime":1784343600},"SBCF":{"icaoId":"SBCF","flightCategory":"VFR","rawOb":"METAR SBCF 180300Z 10005KT CAVOK 15/09 Q1025","temp":15,"dewp":9,"wdir":100,"wspd":5,"visib":"6+","altim":1025,"clouds":[],"obsTime":1784343600},"SBBE":{"icaoId":"SBBE","flightCategory":"VFR","rawOb":"METAR SBBE 180300Z 07008KT CAVOK 26/24 Q1014","temp":26,"dewp":24,"wdir":70,"wspd":8,"visib":"6+","altim":1014,"clouds":[],"obsTime":1784343600},"SBBV":{"icaoId":"SBBV","flightCategory":"VFR","rawOb":"METAR SBBV 180300Z 35001KT 9999 FEW040 27/25 Q1013","temp":27,"dewp":25,"wdir":350,"wspd":1,"visib":"6+","altim":1013,"clouds":[{"cover":"FEW","base":4000}],"obsTime":1784343600},"SBEG":{"icaoId":"SBEG","flightCategory":"VFR","rawOb":"METAR SBEG 180300Z 10005KT CAVOK 26/24 Q1013","temp":26,"dewp":24,"wdir":100,"wspd":5,"visib":"6+","altim":1013,"clouds":[],"obsTime":1784343600},"SBSL":{"icaoId":"SBSL","flightCategory":"VFR","rawOb":"METAR SBSL 180300Z 07004KT 9999 FEW020 BKN090 26/24 Q1014","temp":26,"dewp":24,"wdir":70,"wspd":4,"visib":"6+","altim":1014,"clouds":[{"cover":"FEW","base":2000},{"cover":"BKN","base":9000}],"obsTime":1784343600},"SBRF":{"icaoId":"SBRF","flightCategory":"IFR","rawOb":"SPECI SBRF 180220Z 14017KT 100V170 2500 RA BKN011 OVC040 24/23 Q1017","temp":24,"dewp":23,"wdir":140,"wspd":17,"visib":1.55,"altim":1017,"clouds":[{"cover":"BKN","base":1100},{"cover":"OVC","base":4000}],"obsTime":1784341200},"SBMO":{"icaoId":"SBMO","flightCategory":"MVFR","rawOb":"METAR SBMO 180300Z 16008KT 5000 -RA BR BKN015 23/21 Q1018","temp":23,"dewp":21,"wdir":160,"wspd":8,"visib":3.11,"altim":1018,"clouds":[{"cover":"BKN","base":1500}],"obsTime":1784343600},"SBFZ":{"icaoId":"SBFZ","flightCategory":"VFR","rawOb":"METAR SBFZ 180300Z 12011KT 9999 SCT020 BKN060 27/24 Q1014","temp":27,"dewp":24,"wdir":120,"wspd":11,"visib":"6+","altim":1014,"clouds":[{"cover":"SCT","base":2000},{"cover":"BKN","base":6000}],"obsTime":1784343600},"SBGR":{"icaoId":"SBGR","flightCategory":"VFR","rawOb":"METAR SBGR 180300Z 04005KT CAVOK 16/08 Q1022","temp":16,"dewp":8,"wdir":40,"wspd":5,"visib":"6+","altim":1022,"clouds":[],"obsTime":1784343600},"SBPA":{"icaoId":"SBPA","flightCategory":"VFR","rawOb":"METAR SBPA 180300Z 04004KT 010V070 CAVOK 26/16 Q1007","temp":26,"dewp":16,"wdir":40,"wspd":4,"visib":"6+","altim":1007,"clouds":[],"obsTime":1784343600},"SBPV":{"icaoId":"SBPV","flightCategory":"VFR","rawOb":"METAR SBPV 180300Z 16002KT CAVOK 24/23 Q1013","temp":24,"dewp":23,"wdir":160,"wspd":2,"visib":"6+","altim":1013,"clouds":[],"obsTime":1784343600},"SBGL":{"icaoId":"SBGL","flightCategory":"VFR","rawOb":"METAR SBGL 180300Z 13003KT 070V170 CAVOK 18/13 Q1020","temp":18,"dewp":13,"wdir":130,"wspd":3,"visib":"6+","altim":1020,"clouds":[],"obsTime":1784343600},"SBBR":{"icaoId":"SBBR","flightCategory":"VFR","rawOb":"METAR SBBR 180300Z 08002KT CAVOK 15/08 Q1024","temp":15,"dewp":8,"wdir":80,"wspd":2,"visib":"6+","altim":1024,"clouds":[],"obsTime":1784343600},"SBMG":{"icaoId":"SBMG","flightCategory":"VFR","rawOb":"METAR SBMG 180300Z 03017KT CAVOK 22/12 Q1015","temp":22,"dewp":12,"wdir":30,"wspd":17,"visib":"6+","altim":1015,"clouds":[],"obsTime":1784343600},"SBJU":{"icaoId":"SBJU","flightCategory":"VFR","rawOb":"METAR SBJU 180300Z 18010KT 9999 FEW020 24/17 Q1019","temp":24,"dewp":17,"wdir":180,"wspd":10,"visib":"6+","altim":1019,"clouds":[{"cover":"FEW","base":2000}],"obsTime":1784343600},"SBME":{"icaoId":"SBME","flightCategory":"VFR","rawOb":"METAR SBME 180300Z 02010KT CAVOK 20/17 Q1022","temp":20,"dewp":17,"wdir":20,"wspd":10,"visib":"6+","altim":1022,"clouds":[],"obsTime":1784343600},"SBMK":{"icaoId":"SBMK","flightCategory":"VFR","rawOb":"METAR SBMK 180300Z 10006KT CAVOK 16/10 Q1024","temp":16,"dewp":10,"wdir":100,"wspd":6,"visib":"6+","altim":1024,"clouds":[],"obsTime":1784343600},"SBUL":{"icaoId":"SBUL","flightCategory":"VFR","rawOb":"METAR SBUL 180300Z 12002KT CAVOK 14/08 Q1023","temp":14,"dewp":8,"wdir":120,"wspd":2,"visib":"6+","altim":1023,"clouds":[],"obsTime":1784343600},"SBUR":{"icaoId":"SBUR","flightCategory":"VFR","rawOb":"METAR SBUR 180300Z 03009KT CAVOK 17/08 Q1022","temp":17,"dewp":8,"wdir":30,"wspd":9,"visib":"6+","altim":1022,"clouds":[],"obsTime":1784343600},"SBSG":{"icaoId":"SBSG","flightCategory":"LIFR","rawOb":"METAR SBSG 180300Z 18005KT 140V220 3000 -RA BR BKN003 BKN020 23/23 Q1016","temp":23,"dewp":23,"wdir":180,"wspd":5,"visib":1.86,"altim":1016,"clouds":[{"cover":"BKN","base":300},{"cover":"BKN","base":2000}],"obsTime":1784343600},"SBMA":{"icaoId":"SBMA","flightCategory":"VFR","rawOb":"METAR SBMA 180300Z 00000KT CAVOK 25/21 Q1014","temp":25,"dewp":21,"wdir":0,"wspd":0,"visib":"6+","altim":1014,"clouds":[],"obsTime":1784343600},"SBSV":{"icaoId":"SBSV","flightCategory":"VFR","rawOb":"METAR SBSV 180300Z COR 13019KT 100V170 9999 VCSH FEW026 FEW030TCU BKN055 24/20 Q1021","temp":24,"dewp":20,"wdir":130,"wspd":19,"visib":"6+","altim":1021,"clouds":[{"cover":"FEW","base":2600},{"cover":"FEW","base":3000},{"cover":"BKN","base":5500}],"obsTime":1784343600},"SBGO":{"icaoId":"SBGO","flightCategory":"VFR","rawOb":"METAR SBGO 180300Z 12004KT 070V180 CAVOK 18/08 Q1021","temp":18,"dewp":8,"wdir":120,"wspd":4,"visib":"6+","altim":1021,"clouds":[],"obsTime":1784343600},"SBPJ":{"icaoId":"SBPJ","flightCategory":"VFR","rawOb":"METAR SBPJ 180300Z VRB02KT CAVOK 22/16 Q1016","temp":22,"dewp":16,"wdir":"VRB","wspd":2,"visib":"6+","altim":1016,"clouds":[],"obsTime":1784343600},"SBSP":{"icaoId":"SBSP","flightCategory":"VFR","rawOb":"METAR SBSP 180300Z AUTO 01013KT CAVOK 17/08 Q1022","temp":17,"dewp":8,"wdir":10,"wspd":13,"visib":"6+","altim":1022,"clouds":[],"obsTime":1784343600},"SBNT":{"icaoId":"SBNT","flightCategory":"IFR","rawOb":"METAR SBNT 180300Z 12005KT 080V140 3000 -RA BR BKN005 OVC015 23/23 Q1016","temp":23,"dewp":23,"wdir":120,"wspd":5,"visib":1.86,"altim":1016,"clouds":[{"cover":"BKN","base":500},{"cover":"OVC","base":1500}],"obsTime":1784343600},"SBFL":{"icaoId":"SBFL","flightCategory":"VFR","rawOb":"METAR SBFL 180300Z 33008KT CAVOK 18/16 Q1014","temp":18,"dewp":16,"wdir":330,"wspd":8,"visib":"6+","altim":1014,"clouds":[],"obsTime":1784343600},"SBSN":{"icaoId":"SBSN","flightCategory":"VFR","rawOb":"METAR SBSN 180300Z 12003KT CAVOK 26/25 Q1013","temp":26,"dewp":25,"wdir":120,"wspd":3,"visib":"6+","altim":1013,"clouds":[],"obsTime":1784343600},"SBMQ":{"icaoId":"SBMQ","flightCategory":"MVFR","rawOb":"METAR SBMQ 180300Z 06010KT 9999 BKN019 28/25 Q1014","temp":28,"dewp":25,"wdir":60,"wspd":10,"visib":"6+","altim":1014,"clouds":[{"cover":"BKN","base":1900}],"obsTime":1784343600},"SBLO":{"icaoId":"SBLO","flightCategory":"VFR","rawOb":"METAR SBLO 180300Z 13004KT CAVOK 18/13 Q1018","temp":18,"dewp":13,"wdir":130,"wspd":4,"visib":"6+","altim":1018,"clouds":[],"obsTime":1784343600},"SBTE":{"icaoId":"SBTE","flightCategory":"VFR","rawOb":"METAR SBTE 180300Z 00000KT CAVOK 26/21 Q1013","temp":26,"dewp":21,"wdir":0,"wspd":0,"visib":"6+","altim":1013,"clouds":[],"obsTime":1784343600},"SBFI":{"icaoId":"SBFI","flightCategory":"VFR","rawOb":"METAR SBFI 180300Z 03014KT CAVOK 26/17 Q1009","temp":26,"dewp":17,"wdir":30,"wspd":14,"visib":"6+","altim":1009,"clouds":[],"obsTime":1784343600},"SBKP":{"icaoId":"SBKP","flightCategory":"VFR","rawOb":"METAR SBKP 180300Z 04004KT CAVOK 16/08 Q1021","temp":16,"dewp":8,"wdir":40,"wspd":4,"visib":"6+","altim":1021,"clouds":[],"obsTime":1784343600},"SBCT":{"icaoId":"SBCT","flightCategory":"VFR","rawOb":"METAR SBCT 180300Z 04004KT CAVOK 15/12 Q1020","temp":15,"dewp":12,"wdir":40,"wspd":4,"visib":"6+","altim":1020,"clouds":[],"obsTime":1784343600},"SBVT":{"icaoId":"SBVT","flightCategory":"MVFR","rawOb":"METAR SBVT 180300Z 31003KT 9999 VCSH FEW016 BKN023 BKN040 19/17 Q1024","temp":19,"dewp":17,"wdir":310,"wspd":3,"visib":"6+","altim":1024,"clouds":[{"cover":"FEW","base":1600},{"cover":"BKN","base":2300},{"cover":"BKN","base":4000}],"obsTime":1784343600},"SBRB":{"icaoId":"SBRB","flightCategory":"MVFR","rawOb":"METAR SBRB 180300Z 01001KT 8000 FEW015 SCT100 22/22 Q1013","temp":22,"dewp":22,"wdir":10,"wspd":1,"visib":4.97,"altim":1013,"clouds":[{"cover":"FEW","base":1500},{"cover":"SCT","base":10000}],"obsTime":1784343600},"SBIP":{"icaoId":"SBIP","flightCategory":"VFR","rawOb":"METAR SBIP 180300Z AUTO VRB01KT CAVOK 15/15 Q1024","temp":15,"dewp":15,"wdir":"VRB","wspd":1,"visib":"6+","altim":1024,"clouds":[],"obsTime":1784343600},"SBPS":{"icaoId":"SBPS","flightCategory":"VFR","rawOb":"METAR SBPS 180300Z 25006KT 9999 SCT025 BKN050 19/19 Q1023","temp":19,"dewp":19,"wdir":250,"wspd":6,"visib":"6+","altim":1023,"clouds":[{"cover":"SCT","base":2500},{"cover":"BKN","base":5000}],"obsTime":1784343600},"SBPL":{"icaoId":"SBPL","flightCategory":"VFR","rawOb":"METAR SBPL 180300Z 11011KT 9999 FEW020 22/17 Q1020","temp":22,"dewp":17,"wdir":110,"wspd":11,"visib":"6+","altim":1020,"clouds":[{"cover":"FEW","base":2000}],"obsTime":1784343600},"SBOI":{"icaoId":"SBOI","flightCategory":"VFR","rawOb":"METAR SBOI 180300Z AUTO 16001KT CAVOK 24/23 Q1015","temp":24,"dewp":23,"wdir":160,"wspd":1,"visib":"6+","altim":1015,"clouds":[],"obsTime":1784343600},"SBKG":{"icaoId":"SBKG","flightCategory":"IFR","rawOb":"METAR SBKG 180300Z 17005KT 6000 -RA FEW004 BKN006 BKN070 20/20 Q1019","temp":20,"dewp":20,"wdir":170,"wspd":5,"visib":3.73,"altim":1019,"clouds":[{"cover":"FEW","base":400},{"cover":"BKN","base":600},{"cover":"BKN","base":7000}],"obsTime":1784343600},"SBAX":{"icaoId":"SBAX","flightCategory":"VFR","rawOb":"METAR SBAX 180300Z AUTO 07003KT 320V120 CAVOK 14/08 Q1024","temp":14,"dewp":8,"wdir":70,"wspd":3,"visib":"6+","altim":1024,"clouds":[],"obsTime":1784343600},"SBDN":{"icaoId":"SBDN","flightCategory":"VFR","rawOb":"METAR SBDN 180300Z 05009KT CAVOK 20/11 Q1016","temp":20,"dewp":11,"wdir":50,"wspd":9,"visib":"6+","altim":1016,"clouds":[],"obsTime":1784343600},"SBSC":{"icaoId":"SBSC","flightCategory":"VFR","rawOb":"METAR SBSC 180300Z 36011KT CAVOK 20/12 Q1020","temp":20,"dewp":12,"wdir":360,"wspd":11,"visib":"6+","altim":1020,"clouds":[],"obsTime":1784343600},"SBSR":{"icaoId":"SBSR","flightCategory":"VFR","rawOb":"METAR SBSR 180300Z 07005KT CAVOK 19/07 Q1020","temp":19,"dewp":7,"wdir":70,"wspd":5,"visib":"6+","altim":1020,"clouds":[],"obsTime":1784343600},"SBAR":{"icaoId":"SBAR","flightCategory":"VFR","rawOb":"METAR SBAR 180300Z 13006KT 040V180 9999 4000N -RA SCT030 OVC060 25/20 Q1019","temp":25,"dewp":20,"wdir":130,"wspd":6,"visib":"6+","altim":1019,"clouds":[{"cover":"SCT","base":3000},{"cover":"OVC","base":6000}],"obsTime":1784343600},"SBTU":{"icaoId":"SBTU","flightCategory":"VFR","rawOb":"METAR SBTU 180300Z AUTO 26004KT 9999 // NCD ///// Q1016","temp":null,"dewp":null,"wdir":260,"wspd":4,"visib":"6+","altim":1016,"clouds":[],"obsTime":1784343600},"SBSM":{"icaoId":"SBSM","flightCategory":"VFR","rawOb":"METAR SBSM 180300Z 02017G29KT CAVOK 27/18 Q1005 WS ALL RWY","temp":27,"dewp":18,"wdir":20,"wspd":17,"visib":"6+","altim":1005,"clouds":[],"obsTime":1784343600},"SBCO":{"icaoId":"SBCO","flightCategory":"VFR","rawOb":"METAR SBCO 180300Z 03005KT CAVOK 26/16 Q1007","temp":26,"dewp":16,"wdir":30,"wspd":5,"visib":"6+","altim":1007,"clouds":[],"obsTime":1784343600},"SBSJ":{"icaoId":"SBSJ","flightCategory":"VFR","rawOb":"SPECI SBSJ 180230Z 17004KT CAVOK 11/08 Q1021","temp":11,"dewp":8,"wdir":170,"wspd":4,"visib":"6+","altim":1021,"clouds":[],"obsTime":1784341800},"SBNM":{"icaoId":"SBNM","flightCategory":"VFR","rawOb":"METAR SBNM 180300Z AUTO 36012KT CAVOK 25/18 Q1007","temp":25,"dewp":18,"wdir":360,"wspd":12,"visib":"6+","altim":1007,"clouds":[],"obsTime":1784343600},"SBLE":{"icaoId":"SBLE","flightCategory":"VFR","rawOb":"METAR SBLE 180300Z AUTO 12002KT 9999 FEW019 ///// Q1024","temp":null,"dewp":null,"wdir":120,"wspd":2,"visib":"6+","altim":1024,"clouds":[{"cover":"FEW","base":1900}],"obsTime":1784343600},"SBAN":{"icaoId":"SBAN","flightCategory":"VFR","rawOb":"METAR SBAN 180300Z 08006KT CAVOK 14/06 Q1024","temp":14,"dewp":6,"wdir":80,"wspd":6,"visib":"6+","altim":1024,"clouds":[],"obsTime":1784343600},"SBJP":{"icaoId":"SBJP","flightCategory":"IFR","rawOb":"METAR SBJP 180300Z 15008KT 5000 -RA BKN006 BKN020 OVC070 24/23 Q1016","temp":24,"dewp":23,"wdir":150,"wspd":8,"visib":3.11,"altim":1016,"clouds":[{"cover":"BKN","base":600},{"cover":"BKN","base":2000},{"cover":"OVC","base":7000}],"obsTime":1784343600},"SBTA":{"icaoId":"SBTA","flightCategory":"VFR","rawOb":"METAR SBTA 180300Z VRB01KT CAVOK 08/07 Q1021","temp":8,"dewp":7,"wdir":"VRB","wspd":1,"visib":"6+","altim":1021,"clouds":[],"obsTime":1784343600}}}