{"updated":1784829990,"count":87,"data":{"SBCT":{"icaoId":"SBCT","flightCategory":"VFR","rawOb":"METAR SBCT 231700Z VRB02KT 9999 SCT030 BKN050 20/13 Q1019","temp":20,"dewp":13,"wdir":"VRB","wspd":2,"visib":"6+","altim":1019,"clouds":[{"cover":"SCT","base":3000},{"cover":"BKN","base":5000}],"obsTime":1784826000},"SBKP":{"icaoId":"SBKP","flightCategory":"VFR","rawOb":"METAR SBKP 231700Z 21006KT 170V260 9999 BKN045 23/16 Q1017","temp":23,"dewp":16,"wdir":210,"wspd":6,"visib":"6+","altim":1017,"clouds":[{"cover":"BKN","base":4500}],"obsTime":1784826000},"SBLO":{"icaoId":"SBLO","flightCategory":"VFR","rawOb":"METAR SBLO 231700Z 12004KT 070V210 9999 SCT035 22/14 Q1017","temp":22,"dewp":14,"wdir":120,"wspd":4,"visib":"6+","altim":1017,"clouds":[{"cover":"SCT","base":3500}],"obsTime":1784826000},"SBSV":{"icaoId":"SBSV","flightCategory":"VFR","rawOb":"METAR SBSV 231700Z 11011KT 9999 FEW021 SCT040 28/22 Q1016","temp":28,"dewp":22,"wdir":110,"wspd":11,"visib":"6+","altim":1016,"clouds":[{"cover":"FEW","base":2100},{"cover":"SCT","base":4000}],"obsTime":1784826000},"SBFL":{"icaoId":"SBFL","flightCategory":"VFR","rawOb":"METAR SBFL 231700Z 18012KT 140V210 9999 FEW040 22/12 Q1017","temp":22,"dewp":12,"wdir":180,"wspd":12,"visib":"6+","altim":1017,"clouds":[{"cover":"FEW","base":4000}],"obsTime":1784826000},"SBPA":{"icaoId":"SBPA","flightCategory":"MVFR","rawOb":"METAR SBPA 231700Z 17005KT 140V210 9999 BKN014 BKN025 18/15 Q1019","temp":18,"dewp":15,"wdir":170,"wspd":5,"visib":"6+","altim":1019,"clouds":[{"cover":"BKN","base":1400},{"cover":"BKN","base":2500}],"obsTime":1784826000},"SBRF":{"icaoId":"SBRF","flightCategory":"VFR","rawOb":"METAR SBRF 231700Z 13014KT 9999 VCSH FEW015 SCT025 BKN060 28/24 Q1014","temp":28,"dewp":24,"wdir":130,"wspd":14,"visib":"6+","altim":1014,"clouds":[{"cover":"FEW","base":1500},{"cover":"SCT","base":2500},{"cover":"BKN","base":6000}],"obsTime":1784826000},"SBFI":{"icaoId":"SBFI","flightCategory":"MVFR","rawOb":"METAR SBFI 231700Z 10004KT 9999 BKN024 21/16 Q1016","temp":21,"dewp":16,"wdir":100,"wspd":4,"visib":"6+","altim":1016,"clouds":[{"cover":"BKN","base":2400}],"obsTime":1784826000},"SBTE":{"icaoId":"SBTE","flightCategory":"VFR","rawOb":"METAR SBTE 231700Z 09006KT 9999 SCT040 35/21 Q1010","temp":35,"dewp":21,"wdir":90,"wspd":6,"visib":"6+","altim":1010,"clouds":[{"cover":"SCT","base":4000}],"obsTime":1784826000},"SBEG":{"icaoId":"SBEG","flightCategory":"VFR","rawOb":"METAR SBEG 231700Z 11009KT 9999 BKN040 32/23 Q1011","temp":32,"dewp":23,"wdir":110,"wspd":9,"visib":"6+","altim":1011,"clouds":[{"cover":"BKN","base":4000}],"obsTime":1784826000},"SBGO":{"icaoId":"SBGO","flightCategory":"VFR","rawOb":"METAR SBGO 231700Z 26007KT 220V310 CAVOK 32/11 Q1017","temp":32,"dewp":11,"wdir":260,"wspd":7,"visib":"6+","altim":1017,"clouds":[],"obsTime":1784826000},"SBCG":{"icaoId":"SBCG","flightCategory":"VFR","rawOb":"METAR SBCG 231700Z 03004KT 280V080 9999 FEW025 SCT060 26/18 Q1015","temp":26,"dewp":18,"wdir":30,"wspd":4,"visib":"6+","altim":1015,"clouds":[{"cover":"FEW","base":2500},{"cover":"SCT","base":6000}],"obsTime":1784826000},"SBCP":{"icaoId":"SBCP","flightCategory":"VFR","rawOb":"METAR SBCP 231700Z 19009KT CAVOK 31/20 Q1013","temp":31,"dewp":20,"wdir":190,"wspd":9,"visib":"6+","altim":1013,"clouds":[],"obsTime":1784826000},"SBCZ":{"icaoId":"SBCZ","flightCategory":"VFR","rawOb":"METAR SBCZ 231700Z 23002KT 9999 FEW025 BKN100 29/25 Q1013","temp":29,"dewp":25,"wdir":230,"wspd":2,"visib":"6+","altim":1013,"clouds":[{"cover":"FEW","base":2500},{"cover":"BKN","base":10000}],"obsTime":1784826000},"SBVT":{"icaoId":"SBVT","flightCategory":"VFR","rawOb":"METAR SBVT 231700Z 06013KT 9999 FEW030 30/20 Q1012","temp":30,"dewp":20,"wdir":60,"wspd":13,"visib":"6+","altim":1012,"clouds":[{"cover":"FEW","base":3000}],"obsTime":1784826000},"SBGR":{"icaoId":"SBGR","flightCategory":"VFR","rawOb":"METAR SBGR 231700Z 26008KT 9999 BKN043 24/15 Q1017","temp":24,"dewp":15,"wdir":260,"wspd":8,"visib":"6+","altim":1017,"clouds":[{"cover":"BKN","base":4300}],"obsTime":1784826000},"SBMQ":{"icaoId":"SBMQ","flightCategory":"MVFR","rawOb":"METAR SBMQ 231700Z 05010KT 010V100 9999 BKN030 32/25 Q1011","temp":32,"dewp":25,"wdir":50,"wspd":10,"visib":"6+","altim":1011,"clouds":[{"cover":"BKN","base":3000}],"obsTime":1784826000},"SBNT":{"icaoId":"SBNT","flightCategory":"VFR","rawOb":"METAR SBNT 231700Z 14010KT 9999 VCSH SCT010 SCT023 BKN080 26/24 Q1013","temp":26,"dewp":24,"wdir":140,"wspd":10,"visib":"6+","altim":1013,"clouds":[{"cover":"SCT","base":1000},{"cover":"SCT","base":2300},{"cover":"BKN","base":8000}],"obsTime":1784826000},"SBSL":{"icaoId":"SBSL","flightCategory":"MVFR","rawOb":"METAR SBSL 231700Z 07009KT 030V100 9999 BKN030 31/24 Q1011","temp":31,"dewp":24,"wdir":70,"wspd":9,"visib":"6+","altim":1011,"clouds":[{"cover":"BKN","base":3000}],"obsTime":1784826000},"SBBR":{"icaoId":"SBBR","flightCategory":"VFR","rawOb":"METAR SBBR 231700Z 03007KT CAVOK 28/07 Q1019","temp":28,"dewp":7,"wdir":30,"wspd":7,"visib":"6+","altim":1019,"clouds":[],"obsTime":1784826000},"SBCB":{"icaoId":"SBCB","flightCategory":"VFR","rawOb":"METAR SBCB 231700Z 30009KT 9999 SCT025 OVC070 24/19 Q1014","temp":24,"dewp":19,"wdir":300,"wspd":9,"visib":"6+","altim":1014,"clouds":[{"cover":"SCT","base":2500},{"cover":"OVC","base":7000}],"obsTime":1784826000},"SBCF":{"icaoId":"SBCF","flightCategory":"VFR","rawOb":"METAR SBCF 231700Z 01005KT CAVOK 28/08 Q1018","temp":28,"dewp":8,"wdir":10,"wspd":5,"visib":"6+","altim":1018,"clouds":[],"obsTime":1784826000},"SBFZ":{"icaoId":"SBFZ","flightCategory":"MVFR","rawOb":"METAR SBFZ 231700Z 10015KT 070V130 9999 BKN025 29/24 Q1012","temp":29,"dewp":24,"wdir":100,"wspd":15,"visib":"6+","altim":1012,"clouds":[{"cover":"BKN","base":2500}],"obsTime":1784826000},"SBRB":{"icaoId":"SBRB","flightCategory":"MVFR","rawOb":"METAR SBRB 231700Z 01004KT 9999 BKN030 33/23 Q1013","temp":33,"dewp":23,"wdir":10,"wspd":4,"visib":"6+","altim":1013,"clouds":[{"cover":"BKN","base":3000}],"obsTime":1784826000},"SBMO":{"icaoId":"SBMO","flightCategory":"MVFR","rawOb":"METAR SBMO 231700Z 13011KT 9999 BKN017 27/23 Q1015","temp":27,"dewp":23,"wdir":130,"wspd":11,"visib":"6+","altim":1015,"clouds":[{"cover":"BKN","base":1700}],"obsTime":1784826000},"SBSN":{"icaoId":"SBSN","flightCategory":"VFR","rawOb":"METAR SBSN 231700Z 08011KT 9999 SCT020 31/24 Q1011","temp":31,"dewp":24,"wdir":80,"wspd":11,"visib":"6+","altim":1011,"clouds":[{"cover":"SCT","base":2000}],"obsTime":1784826000},"SBSG":{"icaoId":"SBSG","flightCategory":"MVFR","rawOb":"METAR SBSG 231700Z 12009KT 090V160 9999 VCSH BKN013 FEW020TCU BKN040 27/24 Q1013","temp":27,"dewp":24,"wdir":120,"wspd":9,"visib":"6+","altim":1013,"clouds":[{"cover":"BKN","base":1300},{"cover":"FEW","base":2000},{"cover":"BKN","base":4000}],"obsTime":1784826000},"SBBV":{"icaoId":"SBBV","flightCategory":"VFR","rawOb":"METAR SBBV 231700Z 09006KT 9999 BKN040 33/20 Q1011","temp":33,"dewp":20,"wdir":90,"wspd":6,"visib":"6+","altim":1011,"clouds":[{"cover":"BKN","base":4000}],"obsTime":1784826000},"SBGL":{"icaoId":"SBGL","flightCategory":"VFR","rawOb":"METAR SBGL 231700Z 14007KT 9999 SCT030 BKN100 26/18 Q1013","temp":26,"dewp":18,"wdir":140,"wspd":7,"visib":"6+","altim":1013,"clouds":[{"cover":"SCT","base":3000},{"cover":"BKN","base":10000}],"obsTime":1784826000},"SBBE":{"icaoId":"SBBE","flightCategory":"VFR","rawOb":"METAR SBBE 231700Z 08008KT 9999 BKN038 32/24 Q1011","temp":32,"dewp":24,"wdir":80,"wspd":8,"visib":"6+","altim":1011,"clouds":[{"cover":"BKN","base":3800}],"obsTime":1784826000},"SBPV":{"icaoId":"SBPV","flightCategory":"VFR","rawOb":"METAR SBPV 231700Z VRB04KT 9999 SCT030 34/18 Q1011","temp":34,"dewp":18,"wdir":"VRB","wspd":4,"visib":"6+","altim":1011,"clouds":[{"cover":"SCT","base":3000}],"obsTime":1784826000},"SBMA":{"icaoId":"SBMA","flightCategory":"VFR","rawOb":"METAR SBMA 231700Z 04007KT 9999 SCT020 36/21 Q1010","temp":36,"dewp":21,"wdir":40,"wspd":7,"visib":"6+","altim":1010,"clouds":[{"cover":"SCT","base":2000}],"obsTime":1784826000},"SBCR":{"icaoId":"SBCR","flightCategory":"VFR","rawOb":"METAR SBCR 231700Z 25009KT 220V290 9999 SCT026 24/17 Q1015","temp":24,"dewp":17,"wdir":250,"wspd":9,"visib":"6+","altim":1015,"clouds":[{"cover":"SCT","base":2600}],"obsTime":1784826000},"SBSP":{"icaoId":"SBSP","flightCategory":"MVFR","rawOb":"METAR SBSP 231700Z 24008KT 200V280 9999 BKN030 SCT040 21/15 Q1019","temp":21,"dewp":15,"wdir":240,"wspd":8,"visib":"6+","altim":1019,"clouds":[{"cover":"BKN","base":3000},{"cover":"SCT","base":4000}],"obsTime":1784826000},"SBPJ":{"icaoId":"SBPJ","flightCategory":"VFR","rawOb":"METAR SBPJ 231700Z 27006KT 9999 SCT045 36/18 Q1012","temp":36,"dewp":18,"wdir":270,"wspd":6,"visib":"6+","altim":1012,"clouds":[{"cover":"SCT","base":4500}],"obsTime":1784826000},"SBIL":{"icaoId":"SBIL","flightCategory":"VFR","rawOb":"METAR SBIL 231700Z 12007KT 9999 SCT020 27/22 Q1016","temp":27,"dewp":22,"wdir":120,"wspd":7,"visib":"6+","altim":1016,"clouds":[{"cover":"SCT","base":2000}],"obsTime":1784826000},"SBJU":{"icaoId":"SBJU","flightCategory":"VFR","rawOb":"METAR SBJU 231700Z 11007KT 9999 SCT020 32/15 Q1014","temp":32,"dewp":15,"wdir":110,"wspd":7,"visib":"6+","altim":1014,"clouds":[{"cover":"SCT","base":2000}],"obsTime":1784826000},"SBAT":{"icaoId":"SBAT","flightCategory":"VFR","rawOb":"METAR SBAT 231700Z 12006KT 9999 SCT040 36/16 Q1012","temp":36,"dewp":16,"wdir":120,"wspd":6,"visib":"6+","altim":1012,"clouds":[{"cover":"SCT","base":4000}],"obsTime":1784826000},"SBHT":{"icaoId":"SBHT","flightCategory":"MVFR","rawOb":"METAR SBHT 231700Z 13002KT 9999 BKN030 32/25 Q1011","temp":32,"dewp":25,"wdir":130,"wspd":2,"visib":"6+","altim":1011,"clouds":[{"cover":"BKN","base":3000}],"obsTime":1784826000},"SBMG":{"icaoId":"SBMG","flightCategory":"MVFR","rawOb":"METAR SBMG 231700Z 22005KT 190V250 9999 SCT025 BKN030 20/16 Q1016","temp":20,"dewp":16,"wdir":220,"wspd":5,"visib":"6+","altim":1016,"clouds":[{"cover":"SCT","base":2500},{"cover":"BKN","base":3000}],"obsTime":1784826000},"SBME":{"icaoId":"SBME","flightCategory":"VFR","rawOb":"METAR SBME 231700Z 14007KT 110V180 CAVOK 24/20 Q1013","temp":24,"dewp":20,"wdir":140,"wspd":7,"visib":"6+","altim":1013,"clouds":[],"obsTime":1784826000},"SBMK":{"icaoId":"SBMK","flightCategory":"VFR","rawOb":"METAR SBMK 231700Z 31005KT 9999 FEW032 30/10 Q1016","temp":30,"dewp":10,"wdir":310,"wspd":5,"visib":"6+","altim":1016,"clouds":[{"cover":"FEW","base":3200}],"obsTime":1784826000},"SBUL":{"icaoId":"SBUL","flightCategory":"VFR","rawOb":"METAR SBUL 231700Z 35006KT CAVOK 27/10 Q1019","temp":27,"dewp":10,"wdir":350,"wspd":6,"visib":"6+","altim":1019,"clouds":[],"obsTime":1784826000},"SBUR":{"icaoId":"SBUR","flightCategory":"VFR","rawOb":"METAR SBUR 231700Z 31008KT CAVOK 29/11 Q1017","temp":29,"dewp":11,"wdir":310,"wspd":8,"visib":"6+","altim":1017,"clouds":[],"obsTime":1784826000},"SBPP":{"icaoId":"SBPP","flightCategory":"MVFR","rawOb":"METAR SBPP 231700Z 07007KT 8000 FEW007 BKN010 OVC070 17/16 Q1017 RETS","temp":17,"dewp":16,"wdir":70,"wspd":7,"visib":4.97,"altim":1017,"clouds":[{"cover":"FEW","base":700},{"cover":"BKN","base":1000},{"cover":"OVC","base":7000}],"obsTime":1784826000},"SBCJ":{"icaoId":"SBCJ","flightCategory":"MVFR","rawOb":"METAR SBCJ 231700Z 16007KT 120V220 9999 BKN020 31/19 Q1014","temp":31,"dewp":19,"wdir":160,"wspd":7,"visib":"6+","altim":1014,"clouds":[{"cover":"BKN","base":2000}],"obsTime":1784826000},"SBPB":{"icaoId":"SBPB","flightCategory":"VFR","rawOb":"METAR SBPB 231700Z 04013KT 9999 SCT020 31/25 Q1011","temp":31,"dewp":25,"wdir":40,"wspd":13,"visib":"6+","altim":1011,"clouds":[{"cover":"SCT","base":2000}],"obsTime":1784826000},"SBTT":{"icaoId":"SBTT","flightCategory":"MVFR","rawOb":"METAR SBTT 231700Z 14006KT 110V170 9999 BKN020 FEW025TCU 30/25 Q1012","temp":30,"dewp":25,"wdir":140,"wspd":6,"visib":"6+","altim":1012,"clouds":[{"cover":"BKN","base":2000},{"cover":"FEW","base":2500}],"obsTime":1784826000},"SBSJ":{"icaoId":"SBSJ","flightCategory":"VFR","rawOb":"METAR SBSJ 231700Z 21008KT 140V280 9999 BKN049 26/16 Q1016","temp":26,"dewp":16,"wdir":210,"wspd":8,"visib":"6+","altim":1016,"clouds":[{"cover":"BKN","base":4900}],"obsTime":1784826000},"SBAR":{"icaoId":"SBAR","flightCategory":"VFR","rawOb":"METAR SBAR 231700Z 12010KT 9999 SCT023 SCT050 27/22 Q1015","temp":27,"dewp":22,"wdir":120,"wspd":10,"visib":"6+","altim":1015,"clouds":[{"cover":"SCT","base":2300},{"cover":"SCT","base":5000}],"obsTime":1784826000},"SBPL":{"icaoId":"SBPL","flightCategory":"VFR","rawOb":"METAR SBPL 231700Z 11009KT 9999 SCT025 31/18 Q1015","temp":31,"dewp":18,"wdir":110,"wspd":9,"visib":"6+","altim":1015,"clouds":[{"cover":"SCT","base":2500}],"obsTime":1784826000},"SBTF":{"icaoId":"SBTF","flightCategory":"MVFR","rawOb":"METAR SBTF 231700Z 09005KT 9999 BKN020 33/24 Q1010","temp":33,"dewp":24,"wdir":90,"wspd":5,"visib":"6+","altim":1010,"clouds":[{"cover":"BKN","base":2000}],"obsTime":1784826000},"SBPS":{"icaoId":"SBPS","flightCategory":"VFR","rawOb":"METAR SBPS 231700Z 07011KT 9999 SCT025 BKN050 27/22 Q1016","temp":27,"dewp":22,"wdir":70,"wspd":11,"visib":"6+","altim":1016,"clouds":[{"cover":"SCT","base":2500},{"cover":"BKN","base":5000}],"obsTime":1784826000},"SBUY":{"icaoId":"SBUY","flightCategory":"VFR","rawOb":"METAR SBUY 231700Z 13004KT 9999 SCT030 32/22 Q1010","temp":32,"dewp":22,"wdir":130,"wspd":4,"visib":"6+","altim":1010,"clouds":[{"cover":"SCT","base":3000}],"obsTime":1784826000},"SBOI":{"icaoId":"SBOI","flightCategory":"VFR","rawOb":"METAR SBOI 231700Z AUTO 17007KT 120V240 CAVOK 33/21 Q1011","temp":33,"dewp":21,"wdir":170,"wspd":7,"visib":"6+","altim":1011,"clouds":[],"obsTime":1784826000},"SBTU":{"icaoId":"SBTU","flightCategory":"VFR","rawOb":"METAR SBTU 231700Z AUTO 25005KT 220V290 9999 // FEW038/// 31/23 Q1013","temp":31,"dewp":23,"wdir":250,"wspd":5,"visib":"6+","altim":1013,"clouds":[{"cover":"FEW","base":3800}],"obsTime":1784826000},"SBVH":{"icaoId":"SBVH","flightCategory":"VFR","rawOb":"METAR SBVH 231700Z 09008KT 050V140 9999 SCT040 32/18 Q1015","temp":32,"dewp":18,"wdir":90,"wspd":8,"visib":"6+","altim":1015,"clouds":[{"cover":"SCT","base":4000}],"obsTime":1784826000},"SBCA":{"icaoId":"SBCA","flightCategory":"MVFR","rawOb":"METAR SBCA 231700Z 03009KT 9999 FEW010 SCT014 BKN020 19/15 Q1018","temp":19,"dewp":15,"wdir":30,"wspd":9,"visib":"6+","altim":1018,"clouds":[{"cover":"FEW","base":1000},{"cover":"SCT","base":1400},{"cover":"BKN","base":2000}],"obsTime":1784826000},"SBCO":{"icaoId":"SBCO","flightCategory":"MVFR","rawOb":"METAR SBCO 231700Z 09005KT 050V140 5000 -RA BR BKN015 BKN030 17/15 Q1019","temp":17,"dewp":15,"wdir":90,"wspd":5,"visib":3.11,"altim":1019,"clouds":[{"cover":"BKN","base":1500},{"cover":"BKN","base":3000}],"obsTime":1784826000},"SBSM":{"icaoId":"SBSM","flightCategory":"MVFR","rawOb":"METAR SBSM 231700Z 10008KT 9999 OVC025 17/13 Q1019","temp":17,"dewp":13,"wdir":100,"wspd":8,"visib":"6+","altim":1019,"clouds":[{"cover":"OVC","base":2500}],"obsTime":1784826000},"SBAU":{"icaoId":"SBAU","flightCategory":"VFR","rawOb":"METAR SBAU 231700Z 27006KT CAVOK 29/14 Q1015","temp":29,"dewp":14,"wdir":270,"wspd":6,"visib":"6+","altim":1015,"clouds":[],"obsTime":1784826000},"SBAX":{"icaoId":"SBAX","flightCategory":"VFR","rawOb":"METAR SBAX 231700Z 28007KT CAVOK 27/08 Q1019","temp":27,"dewp":8,"wdir":280,"wspd":7,"visib":"6+","altim":1019,"clouds":[],"obsTime":1784826000},"SBBH":{"icaoId":"SBBH","flightCategory":"VFR","rawOb":"METAR SBBH 231700Z 09003KT CAVOK 29/10 Q1017","temp":29,"dewp":10,"wdir":90,"wspd":3,"visib":"6+","altim":1017,"clouds":[],"obsTime":1784826000},"SBBQ":{"icaoId":"SBBQ","flightCategory":"VFR","rawOb":"METAR SBBQ 231700Z 28008KT CAVOK 27/10 Q1020","temp":27,"dewp":10,"wdir":280,"wspd":8,"visib":"6+","altim":1020,"clouds":[],"obsTime":1784826000},"SBBU":{"icaoId":"SBBU","flightCategory":"VFR","rawOb":"METAR SBBU 231700Z 24002KT 9999 BKN040 25/17 Q1017","temp":25,"dewp":17,"wdir":240,"wspd":2,"visib":"6+","altim":1017,"clouds":[{"cover":"BKN","base":4000}],"obsTime":1784826000},"SBDN":{"icaoId":"SBDN","flightCategory":"VFR","rawOb":"METAR SBDN 231700Z 11004KT 9999 SCT021 23/16 Q1016","temp":23,"dewp":16,"wdir":110,"wspd":4,"visib":"6+","altim":1016,"clouds":[{"cover":"SCT","base":2100}],"obsTime":1784826000},"SBIP":{"icaoId":"SBIP","flightCategory":"VFR","rawOb":"METAR SBIP 231700Z AUTO 05005KT 340V120 CAVOK 30/17 Q1014","temp":30,"dewp":17,"wdir":50,"wspd":5,"visib":"6+","altim":1014,"clouds":[],"obsTime":1784826000},"SBSC":{"icaoId":"SBSC","flightCategory":"VFR","rawOb":"METAR SBSC 231700Z 19012KT CAVOK 25/18 Q1014","temp":25,"dewp":18,"wdir":190,"wspd":12,"visib":"6+","altim":1014,"clouds":[],"obsTime":1784826000},"SBSR":{"icaoId":"SBSR","flightCategory":"VFR","rawOb":"METAR SBSR 231700Z VRB04KT CAVOK 28/13 Q1015","temp":28,"dewp":13,"wdir":"VRB","wspd":4,"visib":"6+","altim":1015,"clouds":[],"obsTime":1784826000},"SBES":{"icaoId":"SBES","flightCategory":"VFR","rawOb":"METAR SBES 231700Z 22004KT 190V260 9999 FEW020 BKN100 23/// Q1013","temp":null,"dewp":null,"wdir":220,"wspd":4,"visib":"6+","altim":1013,"clouds":[{"cover":"FEW","base":2000},{"cover":"BKN","base":10000}],"obsTime":1784826000},"SBKG":{"icaoId":"SBKG","flightCategory":"IFR","rawOb":"METAR SBKG 231700Z 09004KT 8000 BKN009 23/22 Q1016","temp":23,"dewp":22,"wdir":90,"wspd":4,"visib":4.97,"altim":1016,"clouds":[{"cover":"BKN","base":900}],"obsTime":1784826000},"SBCC":{"icaoId":"SBCC","flightCategory":"VFR","rawOb":"METAR SBCC 231700Z 07010KT CAVOK 33/14 Q1013","temp":33,"dewp":14,"wdir":70,"wspd":10,"visib":"6+","altim":1013,"clouds":[],"obsTime":1784826000},"SBGM":{"icaoId":"SBGM","flightCategory":"VFR","rawOb":"METAR SBGM 231700Z 33006KT CAVOK 33/07 Q1012","temp":33,"dewp":7,"wdir":330,"wspd":6,"visib":"6+","altim":1012,"clouds":[],"obsTime":1784826000},"SBJP":{"icaoId":"SBJP","flightCategory":"MVFR","rawOb":"METAR SBJP 231700Z 10012KT 9999 BKN015 27/24 Q1014","temp":27,"dewp":24,"wdir":100,"wspd":12,"visib":"6+","altim":1014,"clouds":[{"cover":"BKN","base":1500}],"obsTime":1784826000},"SBLE":{"icaoId":"SBLE","flightCategory":"VFR","rawOb":"METAR SBLE 231700Z AUTO VRB04KT CAVOK 26/17 Q1017","temp":26,"dewp":17,"wdir":"VRB","wspd":4,"visib":"6+","altim":1017,"clouds":[],"obsTime":1784826000},"SBIH":{"icaoId":"SBIH","flightCategory":"VFR","rawOb":"METAR SBIH 231700Z 06011KT 9999 SCT020 33/24 Q1010","temp":33,"dewp":24,"wdir":60,"wspd":11,"visib":"6+","altim":1010,"clouds":[{"cover":"SCT","base":2000}],"obsTime":1784826000},"SBJV":{"icaoId":"SBJV","flightCategory":"MVFR","rawOb":"METAR SBJV 231700Z 12008KT 9999 BKN030 BKN080 22/16 Q1017","temp":22,"dewp":16,"wdir":120,"wspd":8,"visib":"6+","altim":1017,"clouds":[{"cover":"BKN","base":3000},{"cover":"BKN","base":8000}],"obsTime":1784826000},"SBNM":{"icaoId":"SBNM","flightCategory":"MVFR","rawOb":"METAR SBNM 231700Z 09007KT 9999 FEW012 BKN025 17/13 Q1018","temp":17,"dewp":13,"wdir":90,"wspd":7,"visib":"6+","altim":1018,"clouds":[{"cover":"FEW","base":1200},{"cover":"BKN","base":2500}],"obsTime":1784826000},"SBPF":{"icaoId":"SBPF","flightCategory":"MVFR","rawOb":"METAR SBPF 231700Z AUTO 11008KT 9999 BKN022 BKN026 16/11 Q1019","temp":16,"dewp":11,"wdir":110,"wspd":8,"visib":"6+","altim":1019,"clouds":[{"cover":"BKN","base":2200},{"cover":"BKN","base":2600}],"obsTime":1784826000},"SBAN":{"icaoId":"SBAN","flightCategory":"VFR","rawOb":"METAR SBAN 231700Z 20006KT 9999 FEW030 28/08 Q1020","temp":28,"dewp":8,"wdir":200,"wspd":6,"visib":"6+","altim":1020,"clouds":[{"cover":"FEW","base":3000}],"obsTime":1784826000},"SBAF":{"icaoId":"SBAF","flightCategory":"MVFR","rawOb":"METAR SBAF 231700Z 19011KT 7000 FEW020 SCT090 25/19 Q1014","temp":25,"dewp":19,"wdir":190,"wspd":11,"visib":4.35,"altim":1014,"clouds":[{"cover":"FEW","base":2000},{"cover":"SCT","base":9000}],"obsTime":1784826000},"SBGW":{"icaoId":"SBGW","flightCategory":"VFR","rawOb":"METAR SBGW 231700Z 24005KT 200V320 9999 FEW030 27/15 Q1015","temp":27,"dewp":15,"wdir":240,"wspd":5,"visib":"6+","altim":1015,"clouds":[{"cover":"FEW","base":3000}],"obsTime":1784826000},"SBJR":{"icaoId":"SBJR","flightCategory":"VFR","rawOb":"METAR SBJR 231700Z 18006KT 9999 FEW020 BKN100 27/18 Q1014","temp":27,"dewp":18,"wdir":180,"wspd":6,"visib":"6+","altim":1014,"clouds":[{"cover":"FEW","base":2000},{"cover":"BKN","base":10000}],"obsTime":1784826000},"SBLS":{"icaoId":"SBLS","flightCategory":"VFR","rawOb":"METAR SBLS 231700Z VRB05KT 9999 FEW048 29/10 Q1017","temp":29,"dewp":10,"wdir":"VRB","wspd":5,"visib":"6+","altim":1017,"clouds":[{"cover":"FEW","base":4800}],"obsTime":1784826000},"SBMT":{"icaoId":"SBMT","flightCategory":"VFR","rawOb":"METAR SBMT 231700Z 23007KT 200V260 9999 BKN040 22/13 Q1017","temp":22,"dewp":13,"wdir":230,"wspd":7,"visib":"6+","altim":1017,"clouds":[{"cover":"BKN","base":4000}],"obsTime":1784826000},"SBST":{"icaoId":"SBST","flightCategory":"VFR","rawOb":"METAR SBST 231700Z 23004KT CAVOK 22/17 Q1016","temp":22,"dewp":17,"wdir":230,"wspd":4,"visib":"6+","altim":1016,"clouds":[],"obsTime":1784826000},"SBTA":{"icaoId":"SBTA","flightCategory":"VFR","rawOb":"METAR SBTA 231700Z 24010KT 210V270 9999 FEW035 BKN070 27/14 Q1015","temp":27,"dewp":14,"wdir":240,"wspd":10,"visib":"6+","altim":1015,"clouds":[{"cover":"FEW","base":3500},{"cover":"BKN","base":7000}],"obsTime":1784826000}}}