{"updated":1782773034,"count":83,"data":{"SBMG":{"icaoId":"SBMG","flightCategory":"VFR","rawOb":"METAR SBMG 292100Z 01006KT 9999 FEW025TCU 24/19 Q1016","temp":24,"dewp":19,"wdir":10,"wspd":6,"visib":"6+","altim":1016,"clouds":[{"cover":"FEW","base":2500}],"obsTime":1782766800},"SBIL":{"icaoId":"SBIL","flightCategory":"VFR","rawOb":"METAR SBIL 292100Z 18006KT 9999 FEW025 26/22 Q1018","temp":26,"dewp":22,"wdir":180,"wspd":6,"visib":"6+","altim":1018,"clouds":[{"cover":"FEW","base":2500}],"obsTime":1782766800},"SBJU":{"icaoId":"SBJU","flightCategory":"VFR","rawOb":"METAR SBJU 292100Z 06003KT 9999 SCT020 28/18 Q1015","temp":28,"dewp":18,"wdir":60,"wspd":3,"visib":"6+","altim":1015,"clouds":[{"cover":"SCT","base":2000}],"obsTime":1782766800},"SBME":{"icaoId":"SBME","flightCategory":"VFR","rawOb":"METAR SBME 292100Z 03004KT CAVOK 25/18 Q1018","temp":25,"dewp":18,"wdir":30,"wspd":4,"visib":"6+","altim":1018,"clouds":[],"obsTime":1782766800},"SBMK":{"icaoId":"SBMK","flightCategory":"VFR","rawOb":"METAR SBMK 292100Z 08006KT CAVOK 23/11 Q1020","temp":23,"dewp":11,"wdir":80,"wspd":6,"visib":"6+","altim":1020,"clouds":[],"obsTime":1782766800},"SBUL":{"icaoId":"SBUL","flightCategory":"VFR","rawOb":"METAR SBUL 292100Z 06006KT CAVOK 21/13 Q1021","temp":21,"dewp":13,"wdir":60,"wspd":6,"visib":"6+","altim":1021,"clouds":[],"obsTime":1782766800},"SBUR":{"icaoId":"SBUR","flightCategory":"VFR","rawOb":"METAR SBUR 292100Z 02003KT CAVOK 25/13 Q1020","temp":25,"dewp":13,"wdir":20,"wspd":3,"visib":"6+","altim":1020,"clouds":[],"obsTime":1782766800},"SBCP":{"icaoId":"SBCP","flightCategory":"VFR","rawOb":"METAR SBCP 292100Z 08005KT CAVOK 23/20 Q1019","temp":23,"dewp":20,"wdir":80,"wspd":5,"visib":"6+","altim":1019,"clouds":[],"obsTime":1782766800},"SBFI":{"icaoId":"SBFI","flightCategory":"IFR","rawOb":"METAR SBFI 292100Z 23003KT 9999 -RA BKN006 SCT017 17/16 Q1016","temp":17,"dewp":16,"wdir":230,"wspd":3,"visib":"6+","altim":1016,"clouds":[{"cover":"BKN","base":600},{"cover":"SCT","base":1700}],"obsTime":1782766800},"SBPJ":{"icaoId":"SBPJ","flightCategory":"VFR","rawOb":"METAR SBPJ 292100Z 00000KT CAVOK 32/19 Q1013","temp":32,"dewp":19,"wdir":0,"wspd":0,"visib":"6+","altim":1013,"clouds":[],"obsTime":1782766800},"SBSL":{"icaoId":"SBSL","flightCategory":"VFR","rawOb":"METAR SBSL 292100Z 06004KT 9999 SCT020 26/22 Q1011","temp":26,"dewp":22,"wdir":60,"wspd":4,"visib":"6+","altim":1011,"clouds":[{"cover":"SCT","base":2000}],"obsTime":1782766800},"SBRB":{"icaoId":"SBRB","flightCategory":"VFR","rawOb":"METAR SBRB 292100Z 21002KT 9999 SCT030 31/22 Q1012","temp":31,"dewp":22,"wdir":210,"wspd":2,"visib":"6+","altim":1012,"clouds":[{"cover":"SCT","base":3000}],"obsTime":1782766800},"SBSG":{"icaoId":"SBSG","flightCategory":"MVFR","rawOb":"METAR SBSG 292100Z 13004KT 100V160 9999 VCSH BKN020 FEW026TCU BKN070 24/23 Q1014","temp":24,"dewp":23,"wdir":130,"wspd":4,"visib":"6+","altim":1014,"clouds":[{"cover":"BKN","base":2000},{"cover":"FEW","base":2600},{"cover":"BKN","base":7000}],"obsTime":1782766800},"SBFZ":{"icaoId":"SBFZ","flightCategory":"VFR","rawOb":"METAR SBFZ 292100Z 10010KT 9999 SCT020 27/23 Q1012","temp":27,"dewp":23,"wdir":100,"wspd":10,"visib":"6+","altim":1012,"clouds":[{"cover":"SCT","base":2000}],"obsTime":1782766800},"SBCF":{"icaoId":"SBCF","flightCategory":"VFR","rawOb":"METAR SBCF 292100Z 12010KT CAVOK 22/14 Q1022","temp":22,"dewp":14,"wdir":120,"wspd":10,"visib":"6+","altim":1022,"clouds":[],"obsTime":1782766800},"SBPV":{"icaoId":"SBPV","flightCategory":"VFR","rawOb":"METAR SBPV 292100Z 00000KT CAVOK 32/23 Q1009","temp":32,"dewp":23,"wdir":0,"wspd":0,"visib":"6+","altim":1009,"clouds":[],"obsTime":1782766800},"SBEG":{"icaoId":"SBEG","flightCategory":"VFR","rawOb":"METAR SBEG 292100Z 11009KT 9999 FEW035 FEW040TCU 31/23 Q1009","temp":31,"dewp":23,"wdir":110,"wspd":9,"visib":"6+","altim":1009,"clouds":[{"cover":"FEW","base":3500},{"cover":"FEW","base":4000}],"obsTime":1782766800},"SBBE":{"icaoId":"SBBE","flightCategory":"MVFR","rawOb":"SPECI SBBE 292046Z 10012KT 5000 2000NE TSRA BR SCT015 BKN030 FEW040CB 26/24 Q1011","temp":26,"dewp":24,"wdir":100,"wspd":12,"visib":3.11,"altim":1011,"clouds":[{"cover":"SCT","base":1500},{"cover":"BKN","base":3000},{"cover":"FEW","base":4000}],"obsTime":1782765960},"SBSV":{"icaoId":"SBSV","flightCategory":"VFR","rawOb":"METAR SBSV 292100Z 07007KT 9999 SCT023 25/22 Q1017","temp":25,"dewp":22,"wdir":70,"wspd":7,"visib":"6+","altim":1017,"clouds":[{"cover":"SCT","base":2300}],"obsTime":1782766800},"SBCT":{"icaoId":"SBCT","flightCategory":"IFR","rawOb":"METAR SBCT 292100Z 08004KT 9999 VCTS BKN008 FEW030CB OVC060 15/15 Q1020","temp":15,"dewp":15,"wdir":80,"wspd":4,"visib":"6+","altim":1020,"clouds":[{"cover":"BKN","base":800},{"cover":"FEW","base":3000},{"cover":"OVC","base":6000}],"obsTime":1782766800},"SBBV":{"icaoId":"SBBV","flightCategory":"MVFR","rawOb":"METAR SBBV 292100Z 12005KT 9999 VCSH BKN025 FEW030TCU BKN070 30/24 Q1010","temp":30,"dewp":24,"wdir":120,"wspd":5,"visib":"6+","altim":1010,"clouds":[{"cover":"BKN","base":2500},{"cover":"FEW","base":3000},{"cover":"BKN","base":7000}],"obsTime":1782766800},"SBKP":{"icaoId":"SBKP","flightCategory":"VFR","rawOb":"METAR SBKP 292100Z 03002KT 9999 FEW045 25/16 Q1020","temp":25,"dewp":16,"wdir":30,"wspd":2,"visib":"6+","altim":1020,"clouds":[{"cover":"FEW","base":4500}],"obsTime":1782766800},"SBCZ":{"icaoId":"SBCZ","flightCategory":"VFR","rawOb":"METAR SBCZ 292100Z 19005KT 9999 SCT026 BKN100 29/24 Q1012","temp":29,"dewp":24,"wdir":190,"wspd":5,"visib":"6+","altim":1012,"clouds":[{"cover":"SCT","base":2600},{"cover":"BKN","base":10000}],"obsTime":1782766800},"SBNT":{"icaoId":"SBNT","flightCategory":"VFR","rawOb":"METAR SBNT 292100Z 14007KT 9999 VCSH SCT021 FEW027TCU BKN040 BKN100 25/22 Q1014","temp":25,"dewp":22,"wdir":140,"wspd":7,"visib":"6+","altim":1014,"clouds":[{"cover":"SCT","base":2100},{"cover":"FEW","base":2700},{"cover":"BKN","base":4000},{"cover":"BKN","base":10000}],"obsTime":1782766800},"SBCG":{"icaoId":"SBCG","flightCategory":"VFR","rawOb":"METAR SBCG 292100Z 30004KT 9999 FEW040 27/18 Q1016","temp":27,"dewp":18,"wdir":300,"wspd":4,"visib":"6+","altim":1016,"clouds":[{"cover":"FEW","base":4000}],"obsTime":1782766800},"SBGO":{"icaoId":"SBGO","flightCategory":"VFR","rawOb":"METAR SBGO 292100Z 09003KT CAVOK 27/14 Q1018","temp":27,"dewp":14,"wdir":90,"wspd":3,"visib":"6+","altim":1018,"clouds":[],"obsTime":1782766800},"SBPA":{"icaoId":"SBPA","flightCategory":"VFR","rawOb":"METAR SBPA 292100Z 17005KT 9999 FEW025 13/10 Q1020","temp":13,"dewp":10,"wdir":170,"wspd":5,"visib":"6+","altim":1020,"clouds":[{"cover":"FEW","base":2500}],"obsTime":1782766800},"SBFL":{"icaoId":"SBFL","flightCategory":"MVFR","rawOb":"METAR SBFL 292100Z 20005KT 9999 BKN030 OVC040 15/12 Q1020","temp":15,"dewp":12,"wdir":200,"wspd":5,"visib":"6+","altim":1020,"clouds":[{"cover":"BKN","base":3000},{"cover":"OVC","base":4000}],"obsTime":1782766800},"SBVT":{"icaoId":"SBVT","flightCategory":"VFR","rawOb":"METAR SBVT 292100Z 05008KT CAVOK 23/21 Q1019","temp":23,"dewp":21,"wdir":50,"wspd":8,"visib":"6+","altim":1019,"clouds":[],"obsTime":1782766800},"SBSP":{"icaoId":"SBSP","flightCategory":"IFR","rawOb":"METAR SBSP 292100Z 18009KT 9999 BKN009 17/16 Q1023","temp":17,"dewp":16,"wdir":180,"wspd":9,"visib":"6+","altim":1023,"clouds":[{"cover":"BKN","base":900}],"obsTime":1782766800},"SBLO":{"icaoId":"SBLO","flightCategory":"VFR","rawOb":"METAR SBLO 292100Z 03003KT 9999 SCT040 25/19 Q1017","temp":25,"dewp":19,"wdir":30,"wspd":3,"visib":"6+","altim":1017,"clouds":[{"cover":"SCT","base":4000}],"obsTime":1782766800},"SBGL":{"icaoId":"SBGL","flightCategory":"VFR","rawOb":"METAR SBGL 292100Z 29007KT CAVOK 23/19 Q1018","temp":23,"dewp":19,"wdir":290,"wspd":7,"visib":"6+","altim":1018,"clouds":[],"obsTime":1782766800},"SBGR":{"icaoId":"SBGR","flightCategory":"MVFR","rawOb":"METAR SBGR 292100Z 23005KT 5000 BR SCT046 20/17 Q1021","temp":20,"dewp":17,"wdir":230,"wspd":5,"visib":3.11,"altim":1021,"clouds":[{"cover":"SCT","base":4600}],"obsTime":1782766800},"SBSN":{"icaoId":"SBSN","flightCategory":"VFR","rawOb":"METAR SBSN 292100Z 08004KT 9999 FEW020 29/25 Q1009","temp":29,"dewp":25,"wdir":80,"wspd":4,"visib":"6+","altim":1009,"clouds":[{"cover":"FEW","base":2000}],"obsTime":1782766800},"SBRF":{"icaoId":"SBRF","flightCategory":"MVFR","rawOb":"METAR SBRF 292100Z 12009KT 9999 4000N -RA BKN018 BKN050 25/22 Q1015","temp":25,"dewp":22,"wdir":120,"wspd":9,"visib":"6+","altim":1015,"clouds":[{"cover":"BKN","base":1800},{"cover":"BKN","base":5000}],"obsTime":1782766800},"SBMA":{"icaoId":"SBMA","flightCategory":"VFR","rawOb":"METAR SBMA 292100Z 09003KT 9999 FEW020 FEW025TCU BKN080 31/21 Q1011","temp":31,"dewp":21,"wdir":90,"wspd":3,"visib":"6+","altim":1011,"clouds":[{"cover":"FEW","base":2000},{"cover":"FEW","base":2500},{"cover":"BKN","base":8000}],"obsTime":1782766800},"SBMO":{"icaoId":"SBMO","flightCategory":"VFR","rawOb":"METAR SBMO 292100Z 07007KT 9999 FEW010 SCT020 BKN070 23/22 Q1016","temp":23,"dewp":22,"wdir":70,"wspd":7,"visib":"6+","altim":1016,"clouds":[{"cover":"FEW","base":1000},{"cover":"SCT","base":2000},{"cover":"BKN","base":7000}],"obsTime":1782766800},"SBTE":{"icaoId":"SBTE","flightCategory":"VFR","rawOb":"METAR SBTE 292100Z 14003KT 080V210 CAVOK 32/18 Q1011","temp":32,"dewp":18,"wdir":140,"wspd":3,"visib":"6+","altim":1011,"clouds":[],"obsTime":1782766800},"SBMQ":{"icaoId":"SBMQ","flightCategory":"VFR","rawOb":"METAR SBMQ 292100Z 08003KT 9999 VCSH FEW020 FEW041TCU 27/25 Q1010 RERA","temp":27,"dewp":25,"wdir":80,"wspd":3,"visib":"6+","altim":1010,"clouds":[{"cover":"FEW","base":2000},{"cover":"FEW","base":4100}],"obsTime":1782766800},"SBBR":{"icaoId":"SBBR","flightCategory":"VFR","rawOb":"METAR SBBR 292100Z 13006KT CAVOK 24/11 Q1021","temp":24,"dewp":11,"wdir":130,"wspd":6,"visib":"6+","altim":1021,"clouds":[],"obsTime":1782766800},"SBAT":{"icaoId":"SBAT","flightCategory":"VFR","rawOb":"METAR SBAT 292100Z 17006KT 9999 FEW030 33/15 Q1012","temp":33,"dewp":15,"wdir":170,"wspd":6,"visib":"6+","altim":1012,"clouds":[{"cover":"FEW","base":3000}],"obsTime":1782766800},"SBHT":{"icaoId":"SBHT","flightCategory":"VFR","rawOb":"METAR SBHT 292100Z 15002KT 9999 SCT030 27/25 Q1010","temp":27,"dewp":25,"wdir":150,"wspd":2,"visib":"6+","altim":1010,"clouds":[{"cover":"SCT","base":3000}],"obsTime":1782766800},"SBCR":{"icaoId":"SBCR","flightCategory":"VFR","rawOb":"METAR SBCR 292100Z 05003KT 010V140 9999 FEW040 29/19 Q1013","temp":29,"dewp":19,"wdir":50,"wspd":3,"visib":"6+","altim":1013,"clouds":[{"cover":"FEW","base":4000}],"obsTime":1782766800},"SBCB":{"icaoId":"SBCB","flightCategory":"VFR","rawOb":"METAR SBCB 292100Z 11005KT CAVOK 23/20 Q1018","temp":23,"dewp":20,"wdir":110,"wspd":5,"visib":"6+","altim":1018,"clouds":[],"obsTime":1782766800},"SBUY":{"icaoId":"SBUY","flightCategory":"VFR","rawOb":"METAR SBUY 292100Z 28001KT 9999 FEW020 FEW030TCU SCT100 29/25 Q1009","temp":29,"dewp":25,"wdir":280,"wspd":1,"visib":"6+","altim":1009,"clouds":[{"cover":"FEW","base":2000},{"cover":"FEW","base":3000},{"cover":"SCT","base":10000}],"obsTime":1782766800},"SBCA":{"icaoId":"SBCA","flightCategory":"LIFR","rawOb":"METAR SBCA 292100Z 19005KT 0900 FG BKN001 FEW050TCU BKN100 18/17 Q1017","temp":18,"dewp":17,"wdir":190,"wspd":5,"visib":0.56,"altim":1017,"clouds":[{"cover":"BKN","base":100},{"cover":"FEW","base":5000},{"cover":"BKN","base":10000}],"obsTime":1782766800},"SBCO":{"icaoId":"SBCO","flightCategory":"VFR","rawOb":"METAR SBCO 292100Z 12004KT CAVOK 11/10 Q1020","temp":11,"dewp":10,"wdir":120,"wspd":4,"visib":"6+","altim":1020,"clouds":[],"obsTime":1782766800},"SBSM":{"icaoId":"SBSM","flightCategory":"VFR","rawOb":"METAR SBSM 292100Z VRB02KT 9999 FEW011 10/09 Q1020","temp":10,"dewp":9,"wdir":"VRB","wspd":2,"visib":"6+","altim":1020,"clouds":[{"cover":"FEW","base":1100}],"obsTime":1782766800},"SBKG":{"icaoId":"SBKG","flightCategory":"MVFR","rawOb":"METAR SBKG 292100Z 12011KT 9999 -RA BKN015 22/21 Q1017","temp":22,"dewp":21,"wdir":120,"wspd":11,"visib":"6+","altim":1017,"clouds":[{"cover":"BKN","base":1500}],"obsTime":1782766800},"SBAX":{"icaoId":"SBAX","flightCategory":"VFR","rawOb":"METAR SBAX 292100Z AUTO 08002KT CAVOK 22/13 Q1021","temp":22,"dewp":13,"wdir":80,"wspd":2,"visib":"6+","altim":1021,"clouds":[],"obsTime":1782766800},"SBBH":{"icaoId":"SBBH","flightCategory":"VFR","rawOb":"METAR SBBH 292100Z 11005KT CAVOK 22/14 Q1022","temp":22,"dewp":14,"wdir":110,"wspd":5,"visib":"6+","altim":1022,"clouds":[],"obsTime":1782766800},"SBBU":{"icaoId":"SBBU","flightCategory":"VFR","rawOb":"METAR SBBU 292100Z 04003KT CAVOK 27/18 Q1018","temp":27,"dewp":18,"wdir":40,"wspd":3,"visib":"6+","altim":1018,"clouds":[],"obsTime":1782766800},"SBDN":{"icaoId":"SBDN","flightCategory":"VFR","rawOb":"METAR SBDN 292100Z 00000KT 9999 FEW049 27/17 Q1016","temp":27,"dewp":17,"wdir":0,"wspd":0,"visib":"6+","altim":1016,"clouds":[{"cover":"FEW","base":4900}],"obsTime":1782766800},"SBIP":{"icaoId":"SBIP","flightCategory":"VFR","rawOb":"METAR SBIP 292100Z AUTO VRB01KT CAVOK 19/16 Q1020","temp":19,"dewp":16,"wdir":"VRB","wspd":1,"visib":"6+","altim":1020,"clouds":[],"obsTime":1782766800},"SBSC":{"icaoId":"SBSC","flightCategory":"VFR","rawOb":"METAR SBSC 292100Z 18003KT 9999 FEW010 21/20 Q1019","temp":21,"dewp":20,"wdir":180,"wspd":3,"visib":"6+","altim":1019,"clouds":[{"cover":"FEW","base":1000}],"obsTime":1782766800},"SBSR":{"icaoId":"SBSR","flightCategory":"VFR","rawOb":"METAR SBSR 292100Z 05004KT 9999 FEW035 28/15 Q1018","temp":28,"dewp":15,"wdir":50,"wspd":4,"visib":"6+","altim":1018,"clouds":[{"cover":"FEW","base":3500}],"obsTime":1782766800},"SBVH":{"icaoId":"SBVH","flightCategory":"VFR","rawOb":"METAR SBVH 292100Z 08006KT CAVOK 29/20 Q1014","temp":29,"dewp":20,"wdir":80,"wspd":6,"visib":"6+","altim":1014,"clouds":[],"obsTime":1782766800},"SBPL":{"icaoId":"SBPL","flightCategory":"VFR","rawOb":"METAR SBPL 292100Z 12010KT 9999 FEW030 25/20 Q1016","temp":25,"dewp":20,"wdir":120,"wspd":10,"visib":"6+","altim":1016,"clouds":[{"cover":"FEW","base":3000}],"obsTime":1782766800},"SBPS":{"icaoId":"SBPS","flightCategory":"VFR","rawOb":"METAR SBPS 292100Z 14004KT 9999 SCT017 BKN050 23/21 Q1019","temp":23,"dewp":21,"wdir":140,"wspd":4,"visib":"6+","altim":1019,"clouds":[{"cover":"SCT","base":1700},{"cover":"BKN","base":5000}],"obsTime":1782766800},"SBSJ":{"icaoId":"SBSJ","flightCategory":"VFR","rawOb":"METAR SBSJ 292100Z VRB01KT CAVOK 22/16 Q1020","temp":22,"dewp":16,"wdir":"VRB","wspd":1,"visib":"6+","altim":1020,"clouds":[],"obsTime":1782766800},"SBOI":{"icaoId":"SBOI","flightCategory":"VFR","rawOb":"METAR SBOI 292100Z AUTO 10004KT 060V150 CAVOK 30/23 Q1011","temp":30,"dewp":23,"wdir":100,"wspd":4,"visib":"6+","altim":1011,"clouds":[],"obsTime":1782766800},"SBTF":{"icaoId":"SBTF","flightCategory":"VFR","rawOb":"METAR SBTF 292100Z 12002KT 9999 FEW008 SCT080 25/23 Q1010","temp":25,"dewp":23,"wdir":120,"wspd":2,"visib":"6+","altim":1010,"clouds":[{"cover":"FEW","base":800},{"cover":"SCT","base":8000}],"obsTime":1782766800},"SBTU":{"icaoId":"SBTU","flightCategory":"VFR","rawOb":"METAR SBTU 292100Z AUTO 19004KT 9999 // FEW030/// OVC074/// ///// Q1013","temp":null,"dewp":null,"wdir":190,"wspd":4,"visib":"6+","altim":1013,"clouds":[{"cover":"FEW","base":3000},{"cover":"OVC","base":7400}],"obsTime":1782766800},"SBTT":{"icaoId":"SBTT","flightCategory":"VFR","rawOb":"METAR SBTT 292100Z 26003KT 9999 FEW030 28/23 Q1011","temp":28,"dewp":23,"wdir":260,"wspd":3,"visib":"6+","altim":1011,"clouds":[{"cover":"FEW","base":3000}],"obsTime":1782766800},"SBAR":{"icaoId":"SBAR","flightCategory":"VFR","rawOb":"METAR SBAR 292100Z 12008KT 9999 FEW023 SCT050 26/22 Q1016","temp":26,"dewp":22,"wdir":120,"wspd":8,"visib":"6+","altim":1016,"clouds":[{"cover":"FEW","base":2300},{"cover":"SCT","base":5000}],"obsTime":1782766800},"SBPB":{"icaoId":"SBPB","flightCategory":"VFR","rawOb":"METAR SBPB 292100Z 07008KT 9999 FEW020 FEW025TCU 28/23 Q1011","temp":28,"dewp":23,"wdir":70,"wspd":8,"visib":"6+","altim":1011,"clouds":[{"cover":"FEW","base":2000},{"cover":"FEW","base":2500}],"obsTime":1782766800},"SBCJ":{"icaoId":"SBCJ","flightCategory":"VFR","rawOb":"METAR SBCJ 292100Z 14004KT 9999 FEW030 27/18 Q1016","temp":27,"dewp":18,"wdir":140,"wspd":4,"visib":"6+","altim":1016,"clouds":[{"cover":"FEW","base":3000}],"obsTime":1782766800},"SBPP":{"icaoId":"SBPP","flightCategory":"MVFR","rawOb":"METAR SBPP 292100Z 27005KT 9999 BKN025 21/20 Q1016","temp":21,"dewp":20,"wdir":270,"wspd":5,"visib":"6+","altim":1016,"clouds":[{"cover":"BKN","base":2500}],"obsTime":1782766800},"SBES":{"icaoId":"SBES","flightCategory":"VFR","rawOb":"METAR SBES 292100Z 06004KT CAVOK 22/// Q1018","temp":null,"dewp":null,"wdir":60,"wspd":4,"visib":"6+","altim":1018,"clouds":[],"obsTime":1782766800},"SBLE":{"icaoId":"SBLE","flightCategory":"VFR","rawOb":"METAR SBLE 292100Z AUTO 04004KT CAVOK ///// Q////","temp":null,"dewp":null,"wdir":40,"wspd":4,"visib":"6+","altim":null,"clouds":[],"obsTime":1782766800},"SBAN":{"icaoId":"SBAN","flightCategory":"VFR","rawOb":"METAR SBAN 292100Z 09004KT 9999 FEW030 22/12 Q1021","temp":22,"dewp":12,"wdir":90,"wspd":4,"visib":"6+","altim":1021,"clouds":[{"cover":"FEW","base":3000}],"obsTime":1782766800},"SBJV":{"icaoId":"SBJV","flightCategory":"MVFR","rawOb":"METAR SBJV 292100Z 33004KT 280V040 5000 -TSRA BR BKN013 SCT025 SCT030CB 15/15 Q1020","temp":15,"dewp":15,"wdir":330,"wspd":4,"visib":3.11,"altim":1020,"clouds":[{"cover":"BKN","base":1300},{"cover":"SCT","base":2500},{"cover":"SCT","base":3000}],"obsTime":1782766800},"SBNM":{"icaoId":"SBNM","flightCategory":"VFR","rawOb":"METAR SBNM 292100Z AUTO 17004KT 9999 SCT039 15/09 Q1018","temp":15,"dewp":9,"wdir":170,"wspd":4,"visib":"6+","altim":1018,"clouds":[{"cover":"SCT","base":3900}],"obsTime":1782766800},"SBPF":{"icaoId":"SBPF","flightCategory":"MVFR","rawOb":"METAR SBPF 292100Z 13003KT 9999 OVC020 13/11 Q1019","temp":13,"dewp":11,"wdir":130,"wspd":3,"visib":"6+","altim":1019,"clouds":[{"cover":"OVC","base":2000}],"obsTime":1782766800},"SBAF":{"icaoId":"SBAF","flightCategory":"VFR","rawOb":"METAR SBAF 292100Z 21005KT CAVOK 22/22 Q1019","temp":22,"dewp":22,"wdir":210,"wspd":5,"visib":"6+","altim":1019,"clouds":[],"obsTime":1782766800},"SBGW":{"icaoId":"SBGW","flightCategory":"VFR","rawOb":"METAR SBGW 292100Z 03004KT CAVOK 23/13 Q1020","temp":23,"dewp":13,"wdir":30,"wspd":4,"visib":"6+","altim":1020,"clouds":[],"obsTime":1782766800},"SBJR":{"icaoId":"SBJR","flightCategory":"MVFR","rawOb":"METAR SBJR 292100Z 00000KT 8000 NSC 20/19 Q1018","temp":20,"dewp":19,"wdir":0,"wspd":0,"visib":4.97,"altim":1018,"clouds":[],"obsTime":1782766800},"SBLS":{"icaoId":"SBLS","flightCategory":"VFR","rawOb":"METAR SBLS 292100Z 14009KT CAVOK 21/14 Q1022","temp":21,"dewp":14,"wdir":140,"wspd":9,"visib":"6+","altim":1022,"clouds":[],"obsTime":1782766800},"SBMT":{"icaoId":"SBMT","flightCategory":"VFR","rawOb":"METAR SBMT 292100Z 18006KT 9999 FEW013 BKN040 17/16 Q1022","temp":17,"dewp":16,"wdir":180,"wspd":6,"visib":"6+","altim":1022,"clouds":[{"cover":"FEW","base":1300},{"cover":"BKN","base":4000}],"obsTime":1782766800},"SBTA":{"icaoId":"SBTA","flightCategory":"VFR","rawOb":"METAR SBTA 292100Z VRB02KT 9999 FEW025 23/17 Q1019","temp":23,"dewp":17,"wdir":"VRB","wspd":2,"visib":"6+","altim":1019,"clouds":[{"cover":"FEW","base":2500}],"obsTime":1782766800},"SBJP":{"icaoId":"SBJP","flightCategory":"VFR","rawOb":"METAR SBJP 292100Z 12006KT 9999 FEW007 SCT019 BKN100 25/24 Q1015","temp":25,"dewp":24,"wdir":120,"wspd":6,"visib":"6+","altim":1015,"clouds":[{"cover":"FEW","base":700},{"cover":"SCT","base":1900},{"cover":"BKN","base":10000}],"obsTime":1782766800},"SBIH":{"icaoId":"SBIH","flightCategory":"VFR","rawOb":"METAR SBIH 292100Z 09007KT 9999 FEW020 FEW025TCU 30/23 Q1009","temp":30,"dewp":23,"wdir":90,"wspd":7,"visib":"6+","altim":1009,"clouds":[{"cover":"FEW","base":2000},{"cover":"FEW","base":2500}],"obsTime":1782766800},"SBST":{"icaoId":"SBST","flightCategory":"MVFR","rawOb":"METAR SBST 292100Z 22002KT 8000 SCT013 BKN028 OVC034 20/19 Q1020","temp":20,"dewp":19,"wdir":220,"wspd":2,"visib":4.97,"altim":1020,"clouds":[{"cover":"SCT","base":1300},{"cover":"BKN","base":2800},{"cover":"OVC","base":3400}],"obsTime":1782766800}}}