{"updated":1774345348,"count":63,"data":{"SBFI":{"icaoId":"SBFI","flightCategory":"VFR","rawOb":"METAR SBFI 240800Z 18002KT 9999 SCT020 BKN080 23/23 Q1009","temp":23,"dewp":23,"wdir":180,"wspd":2,"visib":"6+","altim":1009,"clouds":[{"cover":"SCT","base":2000},{"cover":"BKN","base":8000}],"obsTime":1774339200},"SBBE":{"icaoId":"SBBE","flightCategory":"VFR","rawOb":"METAR SBBE 240800Z 08002KT 9999 FEW020 25/25 Q1010","temp":25,"dewp":25,"wdir":80,"wspd":2,"visib":"6+","altim":1010,"clouds":[{"cover":"FEW","base":2000}],"obsTime":1774339200},"SBBR":{"icaoId":"SBBR","flightCategory":"IFR","rawOb":"METAR SBBR 240800Z 34006KT 9999 BKN008 20/19 Q1016","temp":20,"dewp":19,"wdir":340,"wspd":6,"visib":"6+","altim":1016,"clouds":[{"cover":"BKN","base":800}],"obsTime":1774339200},"SBVT":{"icaoId":"SBVT","flightCategory":"VFR","rawOb":"METAR SBVT 240800Z 02002KT 9999 FEW023 SCT032 BKN038 22/22 Q1013","temp":22,"dewp":22,"wdir":20,"wspd":2,"visib":"6+","altim":1013,"clouds":[{"cover":"FEW","base":2300},{"cover":"SCT","base":3200},{"cover":"BKN","base":3800}],"obsTime":1774339200},"SBBV":{"icaoId":"SBBV","flightCategory":"VFR","rawOb":"METAR SBBV 240800Z 08009KT 9999 FEW035 FEW040TCU SCT080 27/23 Q1009","temp":27,"dewp":23,"wdir":80,"wspd":9,"visib":"6+","altim":1009,"clouds":[{"cover":"FEW","base":3500},{"cover":"FEW","base":4000},{"cover":"SCT","base":8000}],"obsTime":1774339200},"SBCB":{"icaoId":"SBCB","flightCategory":"VFR","rawOb":"METAR SBCB 240900Z 05007KT 9999 FEW015 24/22 Q1011","temp":24,"dewp":22,"wdir":50,"wspd":7,"visib":"6+","altim":1011,"clouds":[{"cover":"FEW","base":1500}],"obsTime":1774342800},"SBCF":{"icaoId":"SBCF","flightCategory":"VFR","rawOb":"METAR SBCF 240800Z 06005KT CAVOK 18/15 Q1016","temp":18,"dewp":15,"wdir":60,"wspd":5,"visib":"6+","altim":1016,"clouds":[],"obsTime":1774339200},"SBCG":{"icaoId":"SBCG","flightCategory":"VFR","rawOb":"METAR SBCG 240800Z 11004KT CAVOK 24/22 Q1012","temp":24,"dewp":22,"wdir":110,"wspd":4,"visib":"6+","altim":1012,"clouds":[],"obsTime":1774339200},"SBCT":{"icaoId":"SBCT","flightCategory":"LIFR","rawOb":"METAR SBCT 240800Z 07005KT 4000 BR OVC004 19/19 Q1015","temp":19,"dewp":19,"wdir":70,"wspd":5,"visib":2.49,"altim":1015,"clouds":[{"cover":"OVC","base":400}],"obsTime":1774339200},"SBEG":{"icaoId":"SBEG","flightCategory":"VFR","rawOb":"METAR SBEG 240800Z 14002KT CAVOK 26/25 Q1008","temp":26,"dewp":25,"wdir":140,"wspd":2,"visib":"6+","altim":1008,"clouds":[],"obsTime":1774339200},"SBFL":{"icaoId":"SBFL","flightCategory":"VFR","rawOb":"METAR SBFL 240800Z 32009KT CAVOK 25/23 Q1009","temp":25,"dewp":23,"wdir":320,"wspd":9,"visib":"6+","altim":1009,"clouds":[],"obsTime":1774339200},"SBFZ":{"icaoId":"SBFZ","flightCategory":"VFR","rawOb":"METAR SBFZ 240800Z 18005KT 150V210 9999 FEW020 26/24 Q1009","temp":26,"dewp":24,"wdir":180,"wspd":5,"visib":"6+","altim":1009,"clouds":[{"cover":"FEW","base":2000}],"obsTime":1774339200},"SBGL":{"icaoId":"SBGL","flightCategory":"MVFR","rawOb":"METAR SBGL 240800Z 30003KT 8000 FEW011 22/21 Q1011","temp":22,"dewp":21,"wdir":300,"wspd":3,"visib":4.97,"altim":1011,"clouds":[{"cover":"FEW","base":1100}],"obsTime":1774339200},"SBGO":{"icaoId":"SBGO","flightCategory":"VFR","rawOb":"METAR SBGO 240800Z 28004KT 9999 FEW040 SCT100 20/19 Q1014","temp":20,"dewp":19,"wdir":280,"wspd":4,"visib":"6+","altim":1014,"clouds":[{"cover":"FEW","base":4000},{"cover":"SCT","base":10000}],"obsTime":1774339200},"SBGR":{"icaoId":"SBGR","flightCategory":"IFR","rawOb":"METAR SBGR 240800Z 08005KT 6000 OVC007 19/18 Q1014","temp":19,"dewp":18,"wdir":80,"wspd":5,"visib":3.73,"altim":1014,"clouds":[{"cover":"OVC","base":700}],"obsTime":1774339200},"SBJU":{"icaoId":"SBJU","flightCategory":"MVFR","rawOb":"METAR SBJU 240800Z 16003KT 9999 SCT010 BKN017 23/22 Q1012","temp":23,"dewp":22,"wdir":160,"wspd":3,"visib":"6+","altim":1012,"clouds":[{"cover":"SCT","base":1000},{"cover":"BKN","base":1700}],"obsTime":1774339200},"SBKP":{"icaoId":"SBKP","flightCategory":"VFR","rawOb":"METAR SBKP 240800Z 13006KT CAVOK 19/17 Q1013","temp":19,"dewp":17,"wdir":130,"wspd":6,"visib":"6+","altim":1013,"clouds":[],"obsTime":1774339200},"SBLO":{"icaoId":"SBLO","flightCategory":"VFR","rawOb":"METAR SBLO 240800Z 00000KT 9999 SCT040 23/21 Q1012","temp":23,"dewp":21,"wdir":0,"wspd":0,"visib":"6+","altim":1012,"clouds":[{"cover":"SCT","base":4000}],"obsTime":1774339200},"SBMA":{"icaoId":"SBMA","flightCategory":"VFR","rawOb":"METAR SBMA 240800Z 13004KT 9999 FEW020 OVC080 24/23 Q1010","temp":24,"dewp":23,"wdir":130,"wspd":4,"visib":"6+","altim":1010,"clouds":[{"cover":"FEW","base":2000},{"cover":"OVC","base":8000}],"obsTime":1774339200},"SBME":{"icaoId":"SBME","flightCategory":"VFR","rawOb":"METAR SBME 240800Z 06003KT CAVOK 22/21 Q1011","temp":22,"dewp":21,"wdir":60,"wspd":3,"visib":"6+","altim":1011,"clouds":[],"obsTime":1774339200},"SBMG":{"icaoId":"SBMG","flightCategory":"VFR","rawOb":"METAR SBMG 240800Z AUTO 21004KT 180V240 9999 FEW045 23/22 Q1011","temp":23,"dewp":22,"wdir":210,"wspd":4,"visib":"6+","altim":1011,"clouds":[{"cover":"FEW","base":4500}],"obsTime":1774339200},"SBMK":{"icaoId":"SBMK","flightCategory":"VFR","rawOb":"METAR SBMK 240800Z 00000KT 9999 FEW030 19/19 Q1014","temp":19,"dewp":19,"wdir":0,"wspd":0,"visib":"6+","altim":1014,"clouds":[{"cover":"FEW","base":3000}],"obsTime":1774339200},"SBMO":{"icaoId":"SBMO","flightCategory":"VFR","rawOb":"METAR SBMO 240800Z VRB01KT 9999 SCT018 23/22 Q1011","temp":23,"dewp":22,"wdir":"VRB","wspd":1,"visib":"6+","altim":1011,"clouds":[{"cover":"SCT","base":1800}],"obsTime":1774339200},"SBMQ":{"icaoId":"SBMQ","flightCategory":"VFR","rawOb":"METAR SBMQ 240800Z 03005KT 9999 SCT017 26/24 Q1010","temp":26,"dewp":24,"wdir":30,"wspd":5,"visib":"6+","altim":1010,"clouds":[{"cover":"SCT","base":1700}],"obsTime":1774339200},"SBNT":{"icaoId":"SBNT","flightCategory":"VFR","rawOb":"METAR SBNT 240800Z 02002KT 9999 SCT026 24/23 Q1010","temp":24,"dewp":23,"wdir":20,"wspd":2,"visib":"6+","altim":1010,"clouds":[{"cover":"SCT","base":2600}],"obsTime":1774339200},"SBPA":{"icaoId":"SBPA","flightCategory":"IFR","rawOb":"METAR SBPA 240800Z 23009KT 180V280 3000 DZ BR BKN005 BKN045 23/22 Q1008","temp":23,"dewp":22,"wdir":230,"wspd":9,"visib":1.86,"altim":1008,"clouds":[{"cover":"BKN","base":500},{"cover":"BKN","base":4500}],"obsTime":1774339200},"SBPJ":{"icaoId":"SBPJ","flightCategory":"VFR","rawOb":"METAR SBPJ 240800Z 32002KT 9999 FEW030 24/23 Q1011","temp":24,"dewp":23,"wdir":320,"wspd":2,"visib":"6+","altim":1011,"clouds":[{"cover":"FEW","base":3000}],"obsTime":1774339200},"SBPV":{"icaoId":"SBPV","flightCategory":"VFR","rawOb":"METAR SBPV 240800Z 35002KT 9999 FEW003 25/23 Q1008","temp":25,"dewp":23,"wdir":350,"wspd":2,"visib":"6+","altim":1008,"clouds":[{"cover":"FEW","base":300}],"obsTime":1774339200},"SBRB":{"icaoId":"SBRB","flightCategory":"VFR","rawOb":"METAR SBRB 240800Z 00000KT 9999 FEW030 BKN100 24/23 Q1009","temp":24,"dewp":23,"wdir":0,"wspd":0,"visib":"6+","altim":1009,"clouds":[{"cover":"FEW","base":3000},{"cover":"BKN","base":10000}],"obsTime":1774339200},"SBRF":{"icaoId":"SBRF","flightCategory":"VFR","rawOb":"METAR SBRF 240800Z 10004KT 9999 SCT025 28/23 Q1010","temp":28,"dewp":23,"wdir":100,"wspd":4,"visib":"6+","altim":1010,"clouds":[{"cover":"SCT","base":2500}],"obsTime":1774339200},"SBSG":{"icaoId":"SBSG","flightCategory":"VFR","rawOb":"METAR SBSG 240800Z 20003KT 9999 FEW023 23/23 Q1011","temp":23,"dewp":23,"wdir":200,"wspd":3,"visib":"6+","altim":1011,"clouds":[{"cover":"FEW","base":2300}],"obsTime":1774339200},"SBSL":{"icaoId":"SBSL","flightCategory":"VFR","rawOb":"METAR SBSL 240800Z 04006KT 9999 FEW020 26/24 Q1009","temp":26,"dewp":24,"wdir":40,"wspd":6,"visib":"6+","altim":1009,"clouds":[{"cover":"FEW","base":2000}],"obsTime":1774339200},"SBSN":{"icaoId":"SBSN","flightCategory":"VFR","rawOb":"METAR SBSN 240800Z 10009KT 9999 SCT011 BKN070 27/25 Q1009 RETS","temp":27,"dewp":25,"wdir":100,"wspd":9,"visib":"6+","altim":1009,"clouds":[{"cover":"SCT","base":1100},{"cover":"BKN","base":7000}],"obsTime":1774339200},"SBSP":{"icaoId":"SBSP","flightCategory":"VFR","rawOb":"SPECI SBSP 240743Z AUTO VRB02KT 9999 FEW011 19/17 Q1014","temp":19,"dewp":17,"wdir":"VRB","wspd":2,"visib":"6+","altim":1014,"clouds":[{"cover":"FEW","base":1100}],"obsTime":1774338180},"SBSV":{"icaoId":"SBSV","flightCategory":"VFR","rawOb":"METAR SBSV 240800Z 27003KT 250V310 9999 SCT025 25/23 Q1011","temp":25,"dewp":23,"wdir":270,"wspd":3,"visib":"6+","altim":1011,"clouds":[{"cover":"SCT","base":2500}],"obsTime":1774339200},"SBTE":{"icaoId":"SBTE","flightCategory":"MVFR","rawOb":"METAR SBTE 240800Z 00000KT 9999 BKN015 BKN080 25/23 Q1009","temp":25,"dewp":23,"wdir":0,"wspd":0,"visib":"6+","altim":1009,"clouds":[{"cover":"BKN","base":1500},{"cover":"BKN","base":8000}],"obsTime":1774339200},"SBUL":{"icaoId":"SBUL","flightCategory":"VFR","rawOb":"METAR SBUL 240800Z 15006KT CAVOK 22/17 Q1014","temp":22,"dewp":17,"wdir":150,"wspd":6,"visib":"6+","altim":1014,"clouds":[],"obsTime":1774339200},"SBUR":{"icaoId":"SBUR","flightCategory":"VFR","rawOb":"METAR SBUR 240800Z 03002KT CAVOK 24/18 Q1013","temp":24,"dewp":18,"wdir":30,"wspd":2,"visib":"6+","altim":1013,"clouds":[],"obsTime":1774339200},"SBSJ":{"icaoId":"SBSJ","flightCategory":"MVFR","rawOb":"SPECI SBSJ 240830Z 00000KT 5000 BR NSC 17/16 Q1014","temp":17,"dewp":16,"wdir":0,"wspd":0,"visib":3.11,"altim":1014,"clouds":[],"obsTime":1774341000},"SBSR":{"icaoId":"SBSR","flightCategory":"VFR","rawOb":"METAR SBSR 240800Z 19002KT CAVOK 24/21 Q1012","temp":24,"dewp":21,"wdir":190,"wspd":2,"visib":"6+","altim":1012,"clouds":[],"obsTime":1774339200},"SBCO":{"icaoId":"SBCO","flightCategory":"IFR","rawOb":"METAR SBCO 240900Z 19007KT 170V230 6000 -RA BKN007 BKN025 21/20 Q1010","temp":21,"dewp":20,"wdir":190,"wspd":7,"visib":3.73,"altim":1010,"clouds":[{"cover":"BKN","base":700},{"cover":"BKN","base":2500}],"obsTime":1774342800},"SBDN":{"icaoId":"SBDN","flightCategory":"VFR","rawOb":"METAR SBDN 240800Z 12008KT CAVOK 25/21 Q1011","temp":25,"dewp":21,"wdir":120,"wspd":8,"visib":"6+","altim":1011,"clouds":[],"obsTime":1774339200},"SBES":{"icaoId":"SBES","flightCategory":"VFR","rawOb":"METAR SBES 240900Z 04006KT 9999 FEW010 21/// Q1011","temp":null,"dewp":null,"wdir":40,"wspd":6,"visib":"6+","altim":1011,"clouds":[{"cover":"FEW","base":1000}],"obsTime":1774342800},"SBIP":{"icaoId":"SBIP","flightCategory":"VFR","rawOb":"METAR SBIP 240800Z AUTO 01006KT 9999 SCT011 19/18 Q1013","temp":19,"dewp":18,"wdir":10,"wspd":6,"visib":"6+","altim":1013,"clouds":[{"cover":"SCT","base":1100}],"obsTime":1774339200},"SBKG":{"icaoId":"SBKG","flightCategory":"VFR","rawOb":"METAR SBKG 240800Z 00000KT 9999 FEW005 SCT008 22/21 Q1013","temp":22,"dewp":21,"wdir":0,"wspd":0,"visib":"6+","altim":1013,"clouds":[{"cover":"FEW","base":500},{"cover":"SCT","base":800}],"obsTime":1774339200},"SBPL":{"icaoId":"SBPL","flightCategory":"VFR","rawOb":"METAR SBPL 240800Z 13005KT 9999 FEW020 BKN070 25/23 Q1012","temp":25,"dewp":23,"wdir":130,"wspd":5,"visib":"6+","altim":1012,"clouds":[{"cover":"FEW","base":2000},{"cover":"BKN","base":7000}],"obsTime":1774339200},"SBPS":{"icaoId":"SBPS","flightCategory":"IFR","rawOb":"METAR SBPS 240800Z 28003KT 9000 BKN007 OVC015 23/23 Q1013","temp":23,"dewp":23,"wdir":280,"wspd":3,"visib":5.59,"altim":1013,"clouds":[{"cover":"BKN","base":700},{"cover":"OVC","base":1500}],"obsTime":1774339200},"SBSC":{"icaoId":"SBSC","flightCategory":"MVFR","rawOb":"METAR SBSC 240800Z 03005KT 6000 FEW020 21/20 Q1011","temp":21,"dewp":20,"wdir":30,"wspd":5,"visib":3.73,"altim":1011,"clouds":[{"cover":"FEW","base":2000}],"obsTime":1774339200},"SBSM":{"icaoId":"SBSM","flightCategory":"IFR","rawOb":"METAR SBSM 240900Z 23003KT 3000 -DZ BR SCT004 OVC008 19/19 Q1012","temp":19,"dewp":19,"wdir":230,"wspd":3,"visib":1.86,"altim":1012,"clouds":[{"cover":"SCT","base":400},{"cover":"OVC","base":800}],"obsTime":1774342800},"SBAR":{"icaoId":"SBAR","flightCategory":"VFR","rawOb":"METAR SBAR 240800Z 06004KT 9999 FEW021 27/23 Q1011","temp":27,"dewp":23,"wdir":60,"wspd":4,"visib":"6+","altim":1011,"clouds":[{"cover":"FEW","base":2100}],"obsTime":1774339200},"SBAX":{"icaoId":"SBAX","flightCategory":"VFR","rawOb":"METAR SBAX 240800Z AUTO 28003KT 250V310 9999 FEW049 19/18 Q1015","temp":19,"dewp":18,"wdir":280,"wspd":3,"visib":"6+","altim":1015,"clouds":[{"cover":"FEW","base":4900}],"obsTime":1774339200},"SBBH":{"icaoId":"SBBH","flightCategory":"VFR","rawOb":"METAR SBBH 240900Z 08004KT 9999 SCT049 SCT100 18/16 Q1016","temp":18,"dewp":16,"wdir":80,"wspd":4,"visib":"6+","altim":1016,"clouds":[{"cover":"SCT","base":4900},{"cover":"SCT","base":10000}],"obsTime":1774342800},"SBBU":{"icaoId":"SBBU","flightCategory":"MVFR","rawOb":"METAR SBBU 240900Z 22005KT 9999 BKN020 SCT025 23/20 Q1014","temp":23,"dewp":20,"wdir":220,"wspd":5,"visib":"6+","altim":1014,"clouds":[{"cover":"BKN","base":2000},{"cover":"SCT","base":2500}],"obsTime":1774342800},"SBCA":{"icaoId":"SBCA","flightCategory":"VFR","rawOb":"METAR SBCA 240900Z 16003KT 130V220 CAVOK 21/20 Q1013","temp":21,"dewp":20,"wdir":160,"wspd":3,"visib":"6+","altim":1013,"clouds":[],"obsTime":1774342800},"SBOI":{"icaoId":"SBOI","flightCategory":"VFR","rawOb":"METAR SBOI 240800Z AUTO 11003KT 050V170 9999 // OVC036/// 24/24 Q1010","temp":24,"dewp":24,"wdir":110,"wspd":3,"visib":"6+","altim":1010,"clouds":[{"cover":"OVC","base":3600}],"obsTime":1774339200},"SBAN":{"icaoId":"SBAN","flightCategory":"VFR","rawOb":"METAR SBAN 240800Z 21004KT 9999 FEW040 22/16 Q1017","temp":22,"dewp":16,"wdir":210,"wspd":4,"visib":"6+","altim":1017,"clouds":[{"cover":"FEW","base":4000}],"obsTime":1774339200},"SBLS":{"icaoId":"SBLS","flightCategory":"VFR","rawOb":"METAR SBLS 240900Z VRB02KT CAVOK 17/15 Q1016","temp":17,"dewp":15,"wdir":"VRB","wspd":2,"visib":"6+","altim":1016,"clouds":[],"obsTime":1774342800},"SBMT":{"icaoId":"SBMT","flightCategory":"MVFR","rawOb":"METAR SBMT 240900Z 08006KT 9999 FEW007 BKN013 19/17 Q1014","temp":19,"dewp":17,"wdir":80,"wspd":6,"visib":"6+","altim":1014,"clouds":[{"cover":"FEW","base":700},{"cover":"BKN","base":1300}],"obsTime":1774342800},"SBTA":{"icaoId":"SBTA","flightCategory":"VFR","rawOb":"METAR SBTA 240900Z 00000KT 9999 FEW035 17/17 Q1013","temp":17,"dewp":17,"wdir":0,"wspd":0,"visib":"6+","altim":1013,"clouds":[{"cover":"FEW","base":3500}],"obsTime":1774342800},"SBJP":{"icaoId":"SBJP","flightCategory":"VFR","rawOb":"METAR SBJP 240800Z 23002KT 9999 FEW025 24/22 Q1011","temp":24,"dewp":22,"wdir":230,"wspd":2,"visib":"6+","altim":1011,"clouds":[{"cover":"FEW","base":2500}],"obsTime":1774339200},"SBLE":{"icaoId":"SBLE","flightCategory":"VFR","rawOb":"METAR SBLE 240800Z AUTO 00000KT 9999 FEW019 ///// Q////","temp":null,"dewp":null,"wdir":0,"wspd":0,"visib":"6+","altim":null,"clouds":[{"cover":"FEW","base":1900}],"obsTime":1774339200},"SBJV":{"icaoId":"SBJV","flightCategory":"VFR","rawOb":"METAR SBJV 240900Z 31004KT 9999 SCT030 24/23 Q1010","temp":24,"dewp":23,"wdir":310,"wspd":4,"visib":"6+","altim":1010,"clouds":[{"cover":"SCT","base":3000}],"obsTime":1774342800},"SBGW":{"icaoId":"SBGW","flightCategory":"MVFR","rawOb":"METAR SBGW 240900Z 00000KT 8000 FEW010 18/14 Q1013","temp":18,"dewp":14,"wdir":0,"wspd":0,"visib":4.97,"altim":1013,"clouds":[{"cover":"FEW","base":1000}],"obsTime":1774342800}}}