{"updated":1780778214,"count":86,"data":{"SBRF":{"icaoId":"SBRF","flightCategory":"MVFR","rawOb":"METAR SBRF 061900Z 14011KT 8000 VCSH BKN020 OVC050 26/23 Q1012","temp":26,"dewp":23,"wdir":140,"wspd":11,"visib":4.97,"altim":1012,"clouds":[{"cover":"BKN","base":2000},{"cover":"OVC","base":5000}],"obsTime":1780772400},"SBMA":{"icaoId":"SBMA","flightCategory":"VFR","rawOb":"METAR SBMA 061900Z 08004KT 9999 SCT025 32/21 Q1010","temp":32,"dewp":21,"wdir":80,"wspd":4,"visib":"6+","altim":1010,"clouds":[{"cover":"SCT","base":2500}],"obsTime":1780772400},"SBME":{"icaoId":"SBME","flightCategory":"VFR","rawOb":"METAR SBME 061900Z 08009KT CAVOK 22/16 Q1017","temp":22,"dewp":16,"wdir":80,"wspd":9,"visib":"6+","altim":1017,"clouds":[],"obsTime":1780772400},"SBFI":{"icaoId":"SBFI","flightCategory":"VFR","rawOb":"METAR SBFI 061900Z 02006KT CAVOK 25/16 Q1016","temp":25,"dewp":16,"wdir":20,"wspd":6,"visib":"6+","altim":1016,"clouds":[],"obsTime":1780772400},"SBMG":{"icaoId":"SBMG","flightCategory":"VFR","rawOb":"METAR SBMG 061900Z 22006KT 9999 SCT040 23/13 Q1018","temp":23,"dewp":13,"wdir":220,"wspd":6,"visib":"6+","altim":1018,"clouds":[{"cover":"SCT","base":4000}],"obsTime":1780772400},"SBBV":{"icaoId":"SBBV","flightCategory":"MVFR","rawOb":"METAR SBBV 061900Z 20004KT 9999 BKN016 FEW030TCU BKN070 26/23 Q1011","temp":26,"dewp":23,"wdir":200,"wspd":4,"visib":"6+","altim":1011,"clouds":[{"cover":"BKN","base":1600},{"cover":"FEW","base":3000},{"cover":"BKN","base":7000}],"obsTime":1780772400},"SBMK":{"icaoId":"SBMK","flightCategory":"VFR","rawOb":"METAR SBMK 061900Z 05003KT CAVOK 25/09 Q1018","temp":25,"dewp":9,"wdir":50,"wspd":3,"visib":"6+","altim":1018,"clouds":[],"obsTime":1780772400},"SBCG":{"icaoId":"SBCG","flightCategory":"VFR","rawOb":"METAR SBCG 061900Z VRB04KT CAVOK 27/11 Q1017","temp":27,"dewp":11,"wdir":"VRB","wspd":4,"visib":"6+","altim":1017,"clouds":[],"obsTime":1780772400},"SBFL":{"icaoId":"SBFL","flightCategory":"VFR","rawOb":"METAR SBFL 061900Z 15004KT 110V190 9999 FEW020 SCT066 23/17 Q1015","temp":23,"dewp":17,"wdir":150,"wspd":4,"visib":"6+","altim":1015,"clouds":[{"cover":"FEW","base":2000},{"cover":"SCT","base":6600}],"obsTime":1780772400},"SBMO":{"icaoId":"SBMO","flightCategory":"MVFR","rawOb":"METAR SBMO 061900Z 19007KT 8000 VCSH FEW022 BKN035 OVC061 24/22 Q1014","temp":24,"dewp":22,"wdir":190,"wspd":7,"visib":4.97,"altim":1014,"clouds":[{"cover":"FEW","base":2200},{"cover":"BKN","base":3500},{"cover":"OVC","base":6100}],"obsTime":1780772400},"SBCP":{"icaoId":"SBCP","flightCategory":"VFR","rawOb":"METAR SBCP 061900Z 10008KT 9999 FEW020 23/14 Q1017","temp":23,"dewp":14,"wdir":100,"wspd":8,"visib":"6+","altim":1017,"clouds":[{"cover":"FEW","base":2000}],"obsTime":1780772400},"SBMQ":{"icaoId":"SBMQ","flightCategory":"VFR","rawOb":"METAR SBMQ 061900Z 05012KT 9999 VCTS FEW025 FEW035CB 30/24 Q1010","temp":30,"dewp":24,"wdir":50,"wspd":12,"visib":"6+","altim":1010,"clouds":[{"cover":"FEW","base":2500},{"cover":"FEW","base":3500}],"obsTime":1780772400},"SBNT":{"icaoId":"SBNT","flightCategory":"MVFR","rawOb":"METAR SBNT 061900Z 14013KT 9999 SCT023 BKN029 FEW030TCU BKN080 28/23 Q1012","temp":28,"dewp":23,"wdir":140,"wspd":13,"visib":"6+","altim":1012,"clouds":[{"cover":"SCT","base":2300},{"cover":"BKN","base":2900},{"cover":"FEW","base":3000},{"cover":"BKN","base":8000}],"obsTime":1780772400},"SBFZ":{"icaoId":"SBFZ","flightCategory":"VFR","rawOb":"METAR SBFZ 061900Z 09009KT 9999 FEW025 29/23 Q1010","temp":29,"dewp":23,"wdir":90,"wspd":9,"visib":"6+","altim":1010,"clouds":[{"cover":"FEW","base":2500}],"obsTime":1780772400},"SBGL":{"icaoId":"SBGL","flightCategory":"VFR","rawOb":"METAR SBGL 061900Z 06007KT 9999 FEW040 24/13 Q1016","temp":24,"dewp":13,"wdir":60,"wspd":7,"visib":"6+","altim":1016,"clouds":[{"cover":"FEW","base":4000}],"obsTime":1780772400},"SBPA":{"icaoId":"SBPA","flightCategory":"VFR","rawOb":"METAR SBPA 061900Z 27004KT 250V310 9999 FEW020 23/17 Q1015","temp":23,"dewp":17,"wdir":270,"wspd":4,"visib":"6+","altim":1015,"clouds":[{"cover":"FEW","base":2000}],"obsTime":1780772400},"SBBE":{"icaoId":"SBBE","flightCategory":"LIFR","rawOb":"METAR SBBE 061900Z 04016G26KT 1000 R03///// +RA BR SCT010 SCT040 FEW045TCU 27/27 Q1010","temp":27,"dewp":27,"wdir":40,"wspd":16,"visib":0.62,"altim":1010,"clouds":[{"cover":"SCT","base":1000},{"cover":"SCT","base":4000},{"cover":"FEW","base":4500}],"obsTime":1780772400},"SBPJ":{"icaoId":"SBPJ","flightCategory":"VFR","rawOb":"METAR SBPJ 061900Z 10005KT 9999 FEW045 32/18 Q1012","temp":32,"dewp":18,"wdir":100,"wspd":5,"visib":"6+","altim":1012,"clouds":[{"cover":"FEW","base":4500}],"obsTime":1780772400},"SBGO":{"icaoId":"SBGO","flightCategory":"VFR","rawOb":"METAR SBGO 061900Z 36003KT CAVOK 27/09 Q1017","temp":27,"dewp":9,"wdir":360,"wspd":3,"visib":"6+","altim":1017,"clouds":[],"obsTime":1780772400},"SBPV":{"icaoId":"SBPV","flightCategory":"MVFR","rawOb":"METAR SBPV 061900Z 33005KT 9999 VCSH BKN030 FEW035TCU BKN070 29/24 Q1011","temp":29,"dewp":24,"wdir":330,"wspd":5,"visib":"6+","altim":1011,"clouds":[{"cover":"BKN","base":3000},{"cover":"FEW","base":3500},{"cover":"BKN","base":7000}],"obsTime":1780772400},"SBRB":{"icaoId":"SBRB","flightCategory":"VFR","rawOb":"METAR SBRB 061900Z 10004KT 9999 SCT040 32/21 Q1012","temp":32,"dewp":21,"wdir":100,"wspd":4,"visib":"6+","altim":1012,"clouds":[{"cover":"SCT","base":4000}],"obsTime":1780772400},"SBCR":{"icaoId":"SBCR","flightCategory":"VFR","rawOb":"METAR SBCR 061900Z 06006KT 360V110 CAVOK 30/12 Q1013","temp":30,"dewp":12,"wdir":60,"wspd":6,"visib":"6+","altim":1013,"clouds":[],"obsTime":1780772400},"SBCB":{"icaoId":"SBCB","flightCategory":"VFR","rawOb":"METAR SBCB 061900Z 11009KT CAVOK 22/15 Q1017","temp":22,"dewp":15,"wdir":110,"wspd":9,"visib":"6+","altim":1017,"clouds":[],"obsTime":1780772400},"SBLO":{"icaoId":"SBLO","flightCategory":"VFR","rawOb":"METAR SBLO 061900Z VRB02KT 9999 FEW030 22/13 Q1018","temp":22,"dewp":13,"wdir":"VRB","wspd":2,"visib":"6+","altim":1018,"clouds":[{"cover":"FEW","base":3000}],"obsTime":1780772400},"SBKP":{"icaoId":"SBKP","flightCategory":"VFR","rawOb":"METAR SBKP 061900Z 26007KT 220V300 CAVOK 23/10 Q1019","temp":23,"dewp":10,"wdir":260,"wspd":7,"visib":"6+","altim":1019,"clouds":[],"obsTime":1780772400},"SBEG":{"icaoId":"SBEG","flightCategory":"VFR","rawOb":"METAR SBEG 061900Z VRB02KT 9999 SCT025 FEW030TCU SCT100 30/25 Q1010","temp":30,"dewp":25,"wdir":"VRB","wspd":2,"visib":"6+","altim":1010,"clouds":[{"cover":"SCT","base":2500},{"cover":"FEW","base":3000},{"cover":"SCT","base":10000}],"obsTime":1780772400},"SBSG":{"icaoId":"SBSG","flightCategory":"VFR","rawOb":"METAR SBSG 061900Z 13005KT 090V170 9999 VCSH BKN033 FEW035TCU 27/23 Q1012","temp":27,"dewp":23,"wdir":130,"wspd":5,"visib":"6+","altim":1012,"clouds":[{"cover":"BKN","base":3300},{"cover":"FEW","base":3500}],"obsTime":1780772400},"SBGR":{"icaoId":"SBGR","flightCategory":"VFR","rawOb":"METAR SBGR 061900Z 28007KT CAVOK 23/10 Q1019","temp":23,"dewp":10,"wdir":280,"wspd":7,"visib":"6+","altim":1019,"clouds":[],"obsTime":1780772400},"SBHT":{"icaoId":"SBHT","flightCategory":"VFR","rawOb":"METAR SBHT 061900Z 09002KT 9999 SCT030 SCT100 30/25 Q1009","temp":30,"dewp":25,"wdir":90,"wspd":2,"visib":"6+","altim":1009,"clouds":[{"cover":"SCT","base":3000},{"cover":"SCT","base":10000}],"obsTime":1780772400},"SBSL":{"icaoId":"SBSL","flightCategory":"VFR","rawOb":"METAR SBSL 061900Z 10003KT 9999 SCT025 FEW027TCU SCT070 30/24 Q1010","temp":30,"dewp":24,"wdir":100,"wspd":3,"visib":"6+","altim":1010,"clouds":[{"cover":"SCT","base":2500},{"cover":"FEW","base":2700},{"cover":"SCT","base":7000}],"obsTime":1780772400},"SBCT":{"icaoId":"SBCT","flightCategory":"VFR","rawOb":"METAR SBCT 061900Z 26005KT 220V300 9999 FEW030 20/08 Q1019","temp":20,"dewp":8,"wdir":260,"wspd":5,"visib":"6+","altim":1019,"clouds":[{"cover":"FEW","base":3000}],"obsTime":1780772400},"SBSN":{"icaoId":"SBSN","flightCategory":"VFR","rawOb":"METAR SBSN 061900Z 07005KT 9999 SCT020 30/25 Q1009","temp":30,"dewp":25,"wdir":70,"wspd":5,"visib":"6+","altim":1009,"clouds":[{"cover":"SCT","base":2000}],"obsTime":1780772400},"SBIL":{"icaoId":"SBIL","flightCategory":"VFR","rawOb":"METAR SBIL 061900Z 20007KT 160V230 9999 SCT023 SCT080 26/20 Q1017","temp":26,"dewp":20,"wdir":200,"wspd":7,"visib":"6+","altim":1017,"clouds":[{"cover":"SCT","base":2300},{"cover":"SCT","base":8000}],"obsTime":1780772400},"SBSP":{"icaoId":"SBSP","flightCategory":"VFR","rawOb":"METAR SBSP 061900Z 30007KT CAVOK 21/08 Q1020","temp":21,"dewp":8,"wdir":300,"wspd":7,"visib":"6+","altim":1020,"clouds":[],"obsTime":1780772400},"SBBR":{"icaoId":"SBBR","flightCategory":"VFR","rawOb":"METAR SBBR 061900Z 06004KT 350V150 CAVOK 24/07 Q1019","temp":24,"dewp":7,"wdir":60,"wspd":4,"visib":"6+","altim":1019,"clouds":[],"obsTime":1780772400},"SBSV":{"icaoId":"SBSV","flightCategory":"VFR","rawOb":"METAR SBSV 061900Z 15012KT 120V180 9000 VCSH SCT020 FEW023TCU BKN050 25/20 Q1015","temp":25,"dewp":20,"wdir":150,"wspd":12,"visib":5.59,"altim":1015,"clouds":[{"cover":"SCT","base":2000},{"cover":"FEW","base":2300},{"cover":"BKN","base":5000}],"obsTime":1780772400},"SBTE":{"icaoId":"SBTE","flightCategory":"VFR","rawOb":"METAR SBTE 061900Z 15007KT 9999 SCT030 32/20 Q1010","temp":32,"dewp":20,"wdir":150,"wspd":7,"visib":"6+","altim":1010,"clouds":[{"cover":"SCT","base":3000}],"obsTime":1780772400},"SBJU":{"icaoId":"SBJU","flightCategory":"MVFR","rawOb":"METAR SBJU 061900Z 17010KT 9999 BKN020 27/18 Q1014","temp":27,"dewp":18,"wdir":170,"wspd":10,"visib":"6+","altim":1014,"clouds":[{"cover":"BKN","base":2000}],"obsTime":1780772400},"SBUL":{"icaoId":"SBUL","flightCategory":"VFR","rawOb":"METAR SBUL 061900Z 00000KT CAVOK 22/08 Q1020","temp":22,"dewp":8,"wdir":0,"wspd":0,"visib":"6+","altim":1020,"clouds":[],"obsTime":1780772400},"SBCF":{"icaoId":"SBCF","flightCategory":"VFR","rawOb":"METAR SBCF 061900Z 20004KT CAVOK 22/08 Q1020","temp":22,"dewp":8,"wdir":200,"wspd":4,"visib":"6+","altim":1020,"clouds":[],"obsTime":1780772400},"SBUR":{"icaoId":"SBUR","flightCategory":"VFR","rawOb":"METAR SBUR 061900Z 17003KT CAVOK 24/06 Q1019","temp":24,"dewp":6,"wdir":170,"wspd":3,"visib":"6+","altim":1019,"clouds":[],"obsTime":1780772400},"SBCZ":{"icaoId":"SBCZ","flightCategory":"VFR","rawOb":"METAR SBCZ 061900Z 11003KT 9999 SCT035 31/21 Q1012","temp":31,"dewp":21,"wdir":110,"wspd":3,"visib":"6+","altim":1012,"clouds":[{"cover":"SCT","base":3500}],"obsTime":1780772400},"SBVT":{"icaoId":"SBVT","flightCategory":"VFR","rawOb":"METAR SBVT 061900Z 16008KT 9999 SCT040 22/16 Q1018","temp":22,"dewp":16,"wdir":160,"wspd":8,"visib":"6+","altim":1018,"clouds":[{"cover":"SCT","base":4000}],"obsTime":1780772400},"SBAT":{"icaoId":"SBAT","flightCategory":"VFR","rawOb":"METAR SBAT 061900Z 15006KT 9999 SCT035 34/18 Q1012","temp":34,"dewp":18,"wdir":150,"wspd":6,"visib":"6+","altim":1012,"clouds":[{"cover":"SCT","base":3500}],"obsTime":1780772400},"SBPB":{"icaoId":"SBPB","flightCategory":"MVFR","rawOb":"METAR SBPB 061900Z 08005KT 9999 BKN016 FEW025TCU BKN080 29/24 Q1010","temp":29,"dewp":24,"wdir":80,"wspd":5,"visib":"6+","altim":1010,"clouds":[{"cover":"BKN","base":1600},{"cover":"FEW","base":2500},{"cover":"BKN","base":8000}],"obsTime":1780772400},"SBBH":{"icaoId":"SBBH","flightCategory":"VFR","rawOb":"METAR SBBH 061900Z 08003KT 9999 SCT040 21/08 Q1020","temp":21,"dewp":8,"wdir":80,"wspd":3,"visib":"6+","altim":1020,"clouds":[{"cover":"SCT","base":4000}],"obsTime":1780772400},"SBCO":{"icaoId":"SBCO","flightCategory":"VFR","rawOb":"METAR SBCO 061900Z 29006KT 9999 FEW025 23/16 Q1015","temp":23,"dewp":16,"wdir":290,"wspd":6,"visib":"6+","altim":1015,"clouds":[{"cover":"FEW","base":2500}],"obsTime":1780772400},"SBPL":{"icaoId":"SBPL","flightCategory":"VFR","rawOb":"METAR SBPL 061900Z 12007KT 9999 SCT030 BKN070 28/16 Q1015","temp":28,"dewp":16,"wdir":120,"wspd":7,"visib":"6+","altim":1015,"clouds":[{"cover":"SCT","base":3000},{"cover":"BKN","base":7000}],"obsTime":1780772400},"SBDN":{"icaoId":"SBDN","flightCategory":"VFR","rawOb":"METAR SBDN 061900Z 21003KT CAVOK 25/12 Q1017","temp":25,"dewp":12,"wdir":210,"wspd":3,"visib":"6+","altim":1017,"clouds":[],"obsTime":1780772400},"SBPP":{"icaoId":"SBPP","flightCategory":"VFR","rawOb":"METAR SBPP 061900Z 06009KT CAVOK 24/14 Q1018","temp":24,"dewp":14,"wdir":60,"wspd":9,"visib":"6+","altim":1018,"clouds":[],"obsTime":1780772400},"SBPS":{"icaoId":"SBPS","flightCategory":"VFR","rawOb":"METAR SBPS 061900Z 15006KT 050V210 9999 SCT025 OVC050 24/18 Q1017","temp":24,"dewp":18,"wdir":150,"wspd":6,"visib":"6+","altim":1017,"clouds":[{"cover":"SCT","base":2500},{"cover":"OVC","base":5000}],"obsTime":1780772400},"SBAR":{"icaoId":"SBAR","flightCategory":"VFR","rawOb":"METAR SBAR 061900Z 15007KT 9999 SCT040 BKN078 27/19 Q1014","temp":27,"dewp":19,"wdir":150,"wspd":7,"visib":"6+","altim":1014,"clouds":[{"cover":"SCT","base":4000},{"cover":"BKN","base":7800}],"obsTime":1780772400},"SBES":{"icaoId":"SBES","flightCategory":"VFR","rawOb":"METAR SBES 061900Z 08008KT 050V130 9999 FEW020 22/// Q1017","temp":null,"dewp":null,"wdir":80,"wspd":8,"visib":"6+","altim":1017,"clouds":[{"cover":"FEW","base":2000}],"obsTime":1780772400},"SBSC":{"icaoId":"SBSC","flightCategory":"VFR","rawOb":"METAR SBSC 061900Z 18007KT CAVOK 24/16 Q1016","temp":24,"dewp":16,"wdir":180,"wspd":7,"visib":"6+","altim":1016,"clouds":[],"obsTime":1780772400},"SBSJ":{"icaoId":"SBSJ","flightCategory":"VFR","rawOb":"METAR SBSJ 061900Z 31002KT CAVOK 23/12 Q1018","temp":23,"dewp":12,"wdir":310,"wspd":2,"visib":"6+","altim":1018,"clouds":[],"obsTime":1780772400},"SBCA":{"icaoId":"SBCA","flightCategory":"VFR","rawOb":"METAR SBCA 061900Z 32005KT 280V360 CAVOK 22/11 Q1019","temp":22,"dewp":11,"wdir":320,"wspd":5,"visib":"6+","altim":1019,"clouds":[],"obsTime":1780772400},"SBSM":{"icaoId":"SBSM","flightCategory":"VFR","rawOb":"METAR SBSM 061900Z VRB02KT 9999 SCT035 23/18 Q1016","temp":23,"dewp":18,"wdir":"VRB","wspd":2,"visib":"6+","altim":1016,"clouds":[{"cover":"SCT","base":3500}],"obsTime":1780772400},"SBCC":{"icaoId":"SBCC","flightCategory":"VFR","rawOb":"METAR SBCC 061900Z 07008KT 9999 SCT045 31/16 Q1013","temp":31,"dewp":16,"wdir":70,"wspd":8,"visib":"6+","altim":1013,"clouds":[{"cover":"SCT","base":4500}],"obsTime":1780772400},"SBIP":{"icaoId":"SBIP","flightCategory":"VFR","rawOb":"METAR SBIP 061900Z AUTO 03003KT 340V070 CAVOK 24/12 Q1018","temp":24,"dewp":12,"wdir":30,"wspd":3,"visib":"6+","altim":1018,"clouds":[],"obsTime":1780772400},"SBAX":{"icaoId":"SBAX","flightCategory":"VFR","rawOb":"METAR SBAX 061900Z AUTO 20004KT 140V280 CAVOK 22/06 Q1020","temp":22,"dewp":6,"wdir":200,"wspd":4,"visib":"6+","altim":1020,"clouds":[],"obsTime":1780772400},"SBTF":{"icaoId":"SBTF","flightCategory":"VFR","rawOb":"METAR SBTF 061900Z 18002KT 9999 FEW012 SCT018 BKN090 31/24 Q1010","temp":31,"dewp":24,"wdir":180,"wspd":2,"visib":"6+","altim":1010,"clouds":[{"cover":"FEW","base":1200},{"cover":"SCT","base":1800},{"cover":"BKN","base":9000}],"obsTime":1780772400},"SBKG":{"icaoId":"SBKG","flightCategory":"MVFR","rawOb":"METAR SBKG 061900Z 13006KT 9999 SCT007 BKN011 23/22 Q1015","temp":23,"dewp":22,"wdir":130,"wspd":6,"visib":"6+","altim":1015,"clouds":[{"cover":"SCT","base":700},{"cover":"BKN","base":1100}],"obsTime":1780772400},"SBTT":{"icaoId":"SBTT","flightCategory":"VFR","rawOb":"METAR SBTT 061900Z 21006KT 9999 FEW025 30/23 Q1011","temp":30,"dewp":23,"wdir":210,"wspd":6,"visib":"6+","altim":1011,"clouds":[{"cover":"FEW","base":2500}],"obsTime":1780772400},"SBCJ":{"icaoId":"SBCJ","flightCategory":"VFR","rawOb":"METAR SBCJ 061900Z 13004KT 9999 SCT025 FEW030TCU 27/21 Q1015","temp":27,"dewp":21,"wdir":130,"wspd":4,"visib":"6+","altim":1015,"clouds":[{"cover":"SCT","base":2500},{"cover":"FEW","base":3000}],"obsTime":1780772400},"SBTU":{"icaoId":"SBTU","flightCategory":"VFR","rawOb":"METAR SBTU 061900Z AUTO 30006KT 9999 // FEW083/// SCT096/// 31/22 Q1011","temp":31,"dewp":22,"wdir":300,"wspd":6,"visib":"6+","altim":1011,"clouds":[{"cover":"FEW","base":8300},{"cover":"SCT","base":9600}],"obsTime":1780772400},"SBBU":{"icaoId":"SBBU","flightCategory":"VFR","rawOb":"METAR SBBU 061900Z 11005KT CAVOK 25/12 Q1019","temp":25,"dewp":12,"wdir":110,"wspd":5,"visib":"6+","altim":1019,"clouds":[],"obsTime":1780772400},"SBUY":{"icaoId":"SBUY","flightCategory":"MVFR","rawOb":"METAR SBUY 061900Z 26003KT 6000 -RA BKN018 OVC090 22/22 Q1011","temp":22,"dewp":22,"wdir":260,"wspd":3,"visib":3.73,"altim":1011,"clouds":[{"cover":"BKN","base":1800},{"cover":"OVC","base":9000}],"obsTime":1780772400},"SBOI":{"icaoId":"SBOI","flightCategory":"VFR","rawOb":"METAR SBOI 061900Z AUTO VRB04KT 9999 FEW030 29/24 Q1010","temp":29,"dewp":24,"wdir":"VRB","wspd":4,"visib":"6+","altim":1010,"clouds":[{"cover":"FEW","base":3000}],"obsTime":1780772400},"SBVH":{"icaoId":"SBVH","flightCategory":"VFR","rawOb":"METAR SBVH 061900Z 08008KT CAVOK 29/16 Q1015","temp":29,"dewp":16,"wdir":80,"wspd":8,"visib":"6+","altim":1015,"clouds":[],"obsTime":1780772400},"SBBQ":{"icaoId":"SBBQ","flightCategory":"VFR","rawOb":"METAR SBBQ 061900Z 24004KT CAVOK 18/08 Q1022","temp":18,"dewp":8,"wdir":240,"wspd":4,"visib":"6+","altim":1022,"clouds":[],"obsTime":1780772400},"SBGM":{"icaoId":"SBGM","flightCategory":"VFR","rawOb":"METAR SBGM 061900Z 11005KT 9999 SCT040 SCT050 31/20 Q1011","temp":31,"dewp":20,"wdir":110,"wspd":5,"visib":"6+","altim":1011,"clouds":[{"cover":"SCT","base":4000},{"cover":"SCT","base":5000}],"obsTime":1780772400},"SBSR":{"icaoId":"SBSR","flightCategory":"VFR","rawOb":"METAR SBSR 061900Z VRB02KT CAVOK 27/08 Q1018","temp":27,"dewp":8,"wdir":"VRB","wspd":2,"visib":"6+","altim":1018,"clouds":[],"obsTime":1780772400},"SBJP":{"icaoId":"SBJP","flightCategory":"MVFR","rawOb":"METAR SBJP 061900Z 13009KT 5000 -RA BKN015 25/24 Q1012","temp":25,"dewp":24,"wdir":130,"wspd":9,"visib":3.11,"altim":1012,"clouds":[{"cover":"BKN","base":1500}],"obsTime":1780772400},"SBLE":{"icaoId":"SBLE","flightCategory":"VFR","rawOb":"METAR SBLE 061900Z AUTO 10004KT 080V140 CAVOK 26/16 Q1017","temp":26,"dewp":16,"wdir":100,"wspd":4,"visib":"6+","altim":1017,"clouds":[],"obsTime":1780772400},"SBTC":{"icaoId":"SBTC","flightCategory":"VFR","rawOb":"METAR SBTC 061900Z 21007KT 9999 SCT025 SCT070 24/19 Q1017","temp":24,"dewp":19,"wdir":210,"wspd":7,"visib":"6+","altim":1017,"clouds":[{"cover":"SCT","base":2500},{"cover":"SCT","base":7000}],"obsTime":1780772400},"SBIH":{"icaoId":"SBIH","flightCategory":"VFR","rawOb":"METAR SBIH 061900Z 03003KT 9999 FEW018 FEW025TCU BKN100 28/24 Q1009","temp":28,"dewp":24,"wdir":30,"wspd":3,"visib":"6+","altim":1009,"clouds":[{"cover":"FEW","base":1800},{"cover":"FEW","base":2500},{"cover":"BKN","base":10000}],"obsTime":1780772400},"SBJV":{"icaoId":"SBJV","flightCategory":"VFR","rawOb":"METAR SBJV 061900Z 14005KT CAVOK 23/19 Q1016","temp":23,"dewp":19,"wdir":140,"wspd":5,"visib":"6+","altim":1016,"clouds":[],"obsTime":1780772400},"SBNM":{"icaoId":"SBNM","flightCategory":"VFR","rawOb":"METAR SBNM 061900Z AUTO 22004KT 9999 FEW036 23/17 Q1017","temp":23,"dewp":17,"wdir":220,"wspd":4,"visib":"6+","altim":1017,"clouds":[{"cover":"FEW","base":3600}],"obsTime":1780772400},"SBAN":{"icaoId":"SBAN","flightCategory":"VFR","rawOb":"METAR SBAN 061900Z VRB03KT CAVOK 24/06 Q1020","temp":24,"dewp":6,"wdir":"VRB","wspd":3,"visib":"6+","altim":1020,"clouds":[],"obsTime":1780772400},"SBAF":{"icaoId":"SBAF","flightCategory":"VFR","rawOb":"METAR SBAF 061900Z 21004KT 9999 FEW030 24/15 Q1017","temp":24,"dewp":15,"wdir":210,"wspd":4,"visib":"6+","altim":1017,"clouds":[{"cover":"FEW","base":3000}],"obsTime":1780772400},"SBGW":{"icaoId":"SBGW","flightCategory":"VFR","rawOb":"METAR SBGW 061900Z 24003KT CAVOK 24/09 Q1018","temp":24,"dewp":9,"wdir":240,"wspd":3,"visib":"6+","altim":1018,"clouds":[],"obsTime":1780772400},"SBJR":{"icaoId":"SBJR","flightCategory":"VFR","rawOb":"METAR SBJR 061900Z 17005KT 9999 FEW030 24/15 Q1017","temp":24,"dewp":15,"wdir":170,"wspd":5,"visib":"6+","altim":1017,"clouds":[{"cover":"FEW","base":3000}],"obsTime":1780772400},"SBLS":{"icaoId":"SBLS","flightCategory":"VFR","rawOb":"METAR SBLS 061900Z VRB03KT 9999 SCT048 21/09 Q1020","temp":21,"dewp":9,"wdir":"VRB","wspd":3,"visib":"6+","altim":1020,"clouds":[{"cover":"SCT","base":4800}],"obsTime":1780772400},"SBMT":{"icaoId":"SBMT","flightCategory":"VFR","rawOb":"METAR SBMT 061900Z 24006KT CAVOK 23/09 Q1019","temp":23,"dewp":9,"wdir":240,"wspd":6,"visib":"6+","altim":1019,"clouds":[],"obsTime":1780772400},"SBST":{"icaoId":"SBST","flightCategory":"VFR","rawOb":"METAR SBST 061900Z 25002KT 9999 FEW040 21/14 Q1017","temp":21,"dewp":14,"wdir":250,"wspd":2,"visib":"6+","altim":1017,"clouds":[{"cover":"FEW","base":4000}],"obsTime":1780772400},"SBTA":{"icaoId":"SBTA","flightCategory":"VFR","rawOb":"METAR SBTA 061900Z 23003KT 140V270 CAVOK 23/11 Q1018","temp":23,"dewp":11,"wdir":230,"wspd":3,"visib":"6+","altim":1018,"clouds":[],"obsTime":1780772400}}}