{"updated":1775484184,"count":86,"data":{"SBRB":{"icaoId":"SBRB","flightCategory":"IFR","rawOb":"METAR SBRB 061300Z 11003KT 6000 OVC007 25/24 Q1014","temp":25,"dewp":24,"wdir":110,"wspd":3,"visib":3.73,"altim":1014,"clouds":[{"cover":"OVC","base":700}],"obsTime":1775480400},"SBBE":{"icaoId":"SBBE","flightCategory":"IFR","rawOb":"METAR SBBE 061300Z 11004KT 9999 OVC007 27/24 Q1014","temp":27,"dewp":24,"wdir":110,"wspd":4,"visib":"6+","altim":1014,"clouds":[{"cover":"OVC","base":700}],"obsTime":1775480400},"SBBR":{"icaoId":"SBBR","flightCategory":"VFR","rawOb":"METAR SBBR 061300Z 09010KT 9999 SCT020 SCT100 25/20 Q1022","temp":25,"dewp":20,"wdir":90,"wspd":10,"visib":"6+","altim":1022,"clouds":[{"cover":"SCT","base":2000},{"cover":"SCT","base":10000}],"obsTime":1775480400},"SBBV":{"icaoId":"SBBV","flightCategory":"VFR","rawOb":"METAR SBBV 061300Z 10012KT 9999 FEW020 28/23 Q1013","temp":28,"dewp":23,"wdir":100,"wspd":12,"visib":"6+","altim":1013,"clouds":[{"cover":"FEW","base":2000}],"obsTime":1775480400},"SBCB":{"icaoId":"SBCB","flightCategory":"VFR","rawOb":"METAR SBCB 061300Z 21005KT 9999 FEW020 28/23 Q1018","temp":28,"dewp":23,"wdir":210,"wspd":5,"visib":"6+","altim":1018,"clouds":[{"cover":"FEW","base":2000}],"obsTime":1775480400},"SBCF":{"icaoId":"SBCF","flightCategory":"MVFR","rawOb":"METAR SBCF 061300Z 11005KT 9999 BKN020 25/19 Q1022","temp":25,"dewp":19,"wdir":110,"wspd":5,"visib":"6+","altim":1022,"clouds":[{"cover":"BKN","base":2000}],"obsTime":1775480400},"SBCG":{"icaoId":"SBCG","flightCategory":"VFR","rawOb":"METAR SBCG 061300Z 03009KT CAVOK 28/19 Q1016","temp":28,"dewp":19,"wdir":30,"wspd":9,"visib":"6+","altim":1016,"clouds":[],"obsTime":1775480400},"SBCP":{"icaoId":"SBCP","flightCategory":"VFR","rawOb":"METAR SBCP 061300Z 00000KT 9999 SCT020 30/23 Q1017","temp":30,"dewp":23,"wdir":0,"wspd":0,"visib":"6+","altim":1017,"clouds":[{"cover":"SCT","base":2000}],"obsTime":1775480400},"SBCR":{"icaoId":"SBCR","flightCategory":"VFR","rawOb":"METAR SBCR 061300Z 07008KT CAVOK 27/23 Q1013","temp":27,"dewp":23,"wdir":70,"wspd":8,"visib":"6+","altim":1013,"clouds":[],"obsTime":1775480400},"SBEG":{"icaoId":"SBEG","flightCategory":"VFR","rawOb":"METAR SBEG 061300Z 08008KT 030V110 9999 FEW012 29/24 Q1013","temp":29,"dewp":24,"wdir":80,"wspd":8,"visib":"6+","altim":1013,"clouds":[{"cover":"FEW","base":1200}],"obsTime":1775480400},"SBFI":{"icaoId":"SBFI","flightCategory":"VFR","rawOb":"METAR SBFI 061300Z 04009KT CAVOK 28/22 Q1015","temp":28,"dewp":22,"wdir":40,"wspd":9,"visib":"6+","altim":1015,"clouds":[],"obsTime":1775480400},"SBFL":{"icaoId":"SBFL","flightCategory":"IFR","rawOb":"METAR SBFL 061300Z 19005KT 2000 -RA BR BKN007 OVC010 23/23 Q1020","temp":23,"dewp":23,"wdir":190,"wspd":5,"visib":1.24,"altim":1020,"clouds":[{"cover":"BKN","base":700},{"cover":"OVC","base":1000}],"obsTime":1775480400},"SBFZ":{"icaoId":"SBFZ","flightCategory":"VFR","rawOb":"METAR SBFZ 061300Z 17007KT 9999 SCT025 28/25 Q1014","temp":28,"dewp":25,"wdir":170,"wspd":7,"visib":"6+","altim":1014,"clouds":[{"cover":"SCT","base":2500}],"obsTime":1775480400},"SBGL":{"icaoId":"SBGL","flightCategory":"VFR","rawOb":"METAR SBGL 061300Z VRB02KT 9999 SCT020 29/22 Q1017","temp":29,"dewp":22,"wdir":"VRB","wspd":2,"visib":"6+","altim":1017,"clouds":[{"cover":"SCT","base":2000}],"obsTime":1775480400},"SBGO":{"icaoId":"SBGO","flightCategory":"VFR","rawOb":"METAR SBGO 061300Z 08010KT 9999 FEW023 BKN100 29/21 Q1019","temp":29,"dewp":21,"wdir":80,"wspd":10,"visib":"6+","altim":1019,"clouds":[{"cover":"FEW","base":2300},{"cover":"BKN","base":10000}],"obsTime":1775480400},"SBGR":{"icaoId":"SBGR","flightCategory":"MVFR","rawOb":"METAR SBGR 061300Z 06008KT 9999 BKN015 23/19 Q1022","temp":23,"dewp":19,"wdir":60,"wspd":8,"visib":"6+","altim":1022,"clouds":[{"cover":"BKN","base":1500}],"obsTime":1775480400},"SBKP":{"icaoId":"SBKP","flightCategory":"VFR","rawOb":"METAR SBKP 061300Z 07007KT 030V120 CAVOK 27/19 Q1020","temp":27,"dewp":19,"wdir":70,"wspd":7,"visib":"6+","altim":1020,"clouds":[],"obsTime":1775480400},"SBLO":{"icaoId":"SBLO","flightCategory":"VFR","rawOb":"METAR SBLO 061300Z 10009KT 060V140 9999 FEW020 25/20 Q1019","temp":25,"dewp":20,"wdir":100,"wspd":9,"visib":"6+","altim":1019,"clouds":[{"cover":"FEW","base":2000}],"obsTime":1775480400},"SBMA":{"icaoId":"SBMA","flightCategory":"VFR","rawOb":"METAR SBMA 061300Z 23003KT 9999 SCT015 SCT080 28/25 Q1015","temp":28,"dewp":25,"wdir":230,"wspd":3,"visib":"6+","altim":1015,"clouds":[{"cover":"SCT","base":1500},{"cover":"SCT","base":8000}],"obsTime":1775480400},"SBMO":{"icaoId":"SBMO","flightCategory":"VFR","rawOb":"METAR SBMO 061300Z 08004KT 360V160 9999 SCT021 SCT080 29/24 Q1015","temp":29,"dewp":24,"wdir":80,"wspd":4,"visib":"6+","altim":1015,"clouds":[{"cover":"SCT","base":2100},{"cover":"SCT","base":8000}],"obsTime":1775480400},"SBMQ":{"icaoId":"SBMQ","flightCategory":"MVFR","rawOb":"METAR SBMQ 061300Z 03002KT 9999 BKN017 FEW054TCU 28/24 Q1014","temp":28,"dewp":24,"wdir":30,"wspd":2,"visib":"6+","altim":1014,"clouds":[{"cover":"BKN","base":1700},{"cover":"FEW","base":5400}],"obsTime":1775480400},"SBPA":{"icaoId":"SBPA","flightCategory":"VFR","rawOb":"METAR SBPA 061300Z 10013KT 9999 FEW025 SCT100 24/19 Q1018","temp":24,"dewp":19,"wdir":100,"wspd":13,"visib":"6+","altim":1018,"clouds":[{"cover":"FEW","base":2500},{"cover":"SCT","base":10000}],"obsTime":1775480400},"SBPJ":{"icaoId":"SBPJ","flightCategory":"VFR","rawOb":"METAR SBPJ 061300Z 20003KT 170V230 9999 VCSH FEW017 SCT045 BKN080 27/24 Q1016","temp":27,"dewp":24,"wdir":200,"wspd":3,"visib":"6+","altim":1016,"clouds":[{"cover":"FEW","base":1700},{"cover":"SCT","base":4500},{"cover":"BKN","base":8000}],"obsTime":1775480400},"SBPV":{"icaoId":"SBPV","flightCategory":"VFR","rawOb":"METAR SBPV 061300Z 08006KT 9999 SCT008 27/24 Q1012","temp":27,"dewp":24,"wdir":80,"wspd":6,"visib":"6+","altim":1012,"clouds":[{"cover":"SCT","base":800}],"obsTime":1775480400},"SBRF":{"icaoId":"SBRF","flightCategory":"VFR","rawOb":"METAR SBRF 061300Z 15006KT 9999 SCT024 30/22 Q1014","temp":30,"dewp":22,"wdir":150,"wspd":6,"visib":"6+","altim":1014,"clouds":[{"cover":"SCT","base":2400}],"obsTime":1775480400},"SBSG":{"icaoId":"SBSG","flightCategory":"MVFR","rawOb":"METAR SBSG 061300Z 16004KT 090V230 9999 BKN027 FEW030TCU 29/24 Q1014","temp":29,"dewp":24,"wdir":160,"wspd":4,"visib":"6+","altim":1014,"clouds":[{"cover":"BKN","base":2700},{"cover":"FEW","base":3000}],"obsTime":1775480400},"SBSL":{"icaoId":"SBSL","flightCategory":"VFR","rawOb":"METAR SBSL 061300Z 12007KT 9999 FEW010 BKN100 27/24 Q1014","temp":27,"dewp":24,"wdir":120,"wspd":7,"visib":"6+","altim":1014,"clouds":[{"cover":"FEW","base":1000},{"cover":"BKN","base":10000}],"obsTime":1775480400},"SBSN":{"icaoId":"SBSN","flightCategory":"MVFR","rawOb":"METAR SBSN 061300Z 11008KT 9999 BKN016 27/25 Q1013","temp":27,"dewp":25,"wdir":110,"wspd":8,"visib":"6+","altim":1013,"clouds":[{"cover":"BKN","base":1600}],"obsTime":1775480400},"SBSP":{"icaoId":"SBSP","flightCategory":"VFR","rawOb":"METAR SBSP 061300Z 09007KT 060V130 CAVOK 25/18 Q1023","temp":25,"dewp":18,"wdir":90,"wspd":7,"visib":"6+","altim":1023,"clouds":[],"obsTime":1775480400},"SBSV":{"icaoId":"SBSV","flightCategory":"VFR","rawOb":"METAR SBSV 061300Z 11005KT 9999 VCSH SCT021 FEW025TCU SCT100 27/23 Q1016","temp":27,"dewp":23,"wdir":110,"wspd":5,"visib":"6+","altim":1016,"clouds":[{"cover":"SCT","base":2100},{"cover":"FEW","base":2500},{"cover":"SCT","base":10000}],"obsTime":1775480400},"SBTE":{"icaoId":"SBTE","flightCategory":"MVFR","rawOb":"METAR SBTE 061300Z 35004KT 9999 BKN016 BKN070 27/24 Q1014","temp":27,"dewp":24,"wdir":350,"wspd":4,"visib":"6+","altim":1014,"clouds":[{"cover":"BKN","base":1600},{"cover":"BKN","base":7000}],"obsTime":1775480400},"SBVT":{"icaoId":"SBVT","flightCategory":"VFR","rawOb":"METAR SBVT 061300Z 29003KT 9999 FEW025 30/23 Q1017","temp":30,"dewp":23,"wdir":290,"wspd":3,"visib":"6+","altim":1017,"clouds":[{"cover":"FEW","base":2500}],"obsTime":1775480400},"SBUR":{"icaoId":"SBUR","flightCategory":"VFR","rawOb":"METAR SBUR 061300Z 07005KT CAVOK 27/20 Q1020","temp":27,"dewp":20,"wdir":70,"wspd":5,"visib":"6+","altim":1020,"clouds":[],"obsTime":1775480400},"SBHT":{"icaoId":"SBHT","flightCategory":"MVFR","rawOb":"METAR SBHT 061300Z 13005KT 9999 BKN017 BKN090 28/24 Q1014","temp":28,"dewp":24,"wdir":130,"wspd":5,"visib":"6+","altim":1014,"clouds":[{"cover":"BKN","base":1700},{"cover":"BKN","base":9000}],"obsTime":1775480400},"SBIL":{"icaoId":"SBIL","flightCategory":"VFR","rawOb":"METAR SBIL 061300Z 17006KT 9999 SCT025 30/25 Q1017","temp":30,"dewp":25,"wdir":170,"wspd":6,"visib":"6+","altim":1017,"clouds":[{"cover":"SCT","base":2500}],"obsTime":1775480400},"SBJU":{"icaoId":"SBJU","flightCategory":"MVFR","rawOb":"METAR SBJU 061300Z 00000KT 9999 BKN020 26/23 Q1017","temp":26,"dewp":23,"wdir":0,"wspd":0,"visib":"6+","altim":1017,"clouds":[{"cover":"BKN","base":2000}],"obsTime":1775480400},"SBME":{"icaoId":"SBME","flightCategory":"VFR","rawOb":"METAR SBME 061300Z 16005KT 9999 SCT025 28/23 Q1018","temp":28,"dewp":23,"wdir":160,"wspd":5,"visib":"6+","altim":1018,"clouds":[{"cover":"SCT","base":2500}],"obsTime":1775480400},"SBMG":{"icaoId":"SBMG","flightCategory":"VFR","rawOb":"METAR SBMG 061300Z 07012KT 040V110 9999 FEW025 26/19 Q1017","temp":26,"dewp":19,"wdir":70,"wspd":12,"visib":"6+","altim":1017,"clouds":[{"cover":"FEW","base":2500}],"obsTime":1775480400},"SBMK":{"icaoId":"SBMK","flightCategory":"VFR","rawOb":"METAR SBMK 061300Z 09008KT 9999 BKN035 26/20 Q1020","temp":26,"dewp":20,"wdir":90,"wspd":8,"visib":"6+","altim":1020,"clouds":[{"cover":"BKN","base":3500}],"obsTime":1775480400},"SBNT":{"icaoId":"SBNT","flightCategory":"VFR","rawOb":"METAR SBNT 061300Z 16007KT 9999 SCT028 SCT047 BKN100 31/24 Q1014","temp":31,"dewp":24,"wdir":160,"wspd":7,"visib":"6+","altim":1014,"clouds":[{"cover":"SCT","base":2800},{"cover":"SCT","base":4700},{"cover":"BKN","base":10000}],"obsTime":1775480400},"SBUL":{"icaoId":"SBUL","flightCategory":"VFR","rawOb":"METAR SBUL 061300Z 10009KT 9999 FEW030 26/19 Q1021","temp":26,"dewp":19,"wdir":100,"wspd":9,"visib":"6+","altim":1021,"clouds":[{"cover":"FEW","base":3000}],"obsTime":1775480400},"SBCT":{"icaoId":"SBCT","flightCategory":"MVFR","rawOb":"METAR SBCT 061300Z 08007KT 050V140 9999 BKN014 BKN023 22/19 Q1023","temp":22,"dewp":19,"wdir":80,"wspd":7,"visib":"6+","altim":1023,"clouds":[{"cover":"BKN","base":1400},{"cover":"BKN","base":2300}],"obsTime":1775480400},"SBCZ":{"icaoId":"SBCZ","flightCategory":"IFR","rawOb":"METAR SBCZ 061300Z 19004KT 9999 BKN006 OVC100 24/24 Q1013","temp":24,"dewp":24,"wdir":190,"wspd":4,"visib":"6+","altim":1013,"clouds":[{"cover":"BKN","base":600},{"cover":"OVC","base":10000}],"obsTime":1775480400},"SBAT":{"icaoId":"SBAT","flightCategory":"VFR","rawOb":"METAR SBAT 061300Z 14003KT 9999 FEW016 BKN100 27/23 Q1015","temp":27,"dewp":23,"wdir":140,"wspd":3,"visib":"6+","altim":1015,"clouds":[{"cover":"FEW","base":1600},{"cover":"BKN","base":10000}],"obsTime":1775480400},"SBSJ":{"icaoId":"SBSJ","flightCategory":"VFR","rawOb":"METAR SBSJ 061300Z 05003KT 9999 SCT014 23/20 Q1021","temp":23,"dewp":20,"wdir":50,"wspd":3,"visib":"6+","altim":1021,"clouds":[{"cover":"SCT","base":1400}],"obsTime":1775480400},"SBPL":{"icaoId":"SBPL","flightCategory":"MVFR","rawOb":"METAR SBPL 061300Z 11007KT 9999 BKN030 28/21 Q1017","temp":28,"dewp":21,"wdir":110,"wspd":7,"visib":"6+","altim":1017,"clouds":[{"cover":"BKN","base":3000}],"obsTime":1775480400},"SBPP":{"icaoId":"SBPP","flightCategory":"VFR","rawOb":"METAR SBPP 061300Z 36008KT CAVOK 27/20 Q1017","temp":27,"dewp":20,"wdir":360,"wspd":8,"visib":"6+","altim":1017,"clouds":[],"obsTime":1775480400},"SBOI":{"icaoId":"SBOI","flightCategory":"VFR","rawOb":"METAR SBOI 061300Z AUTO 13002KT 9999 FEW019 26/25 Q1015","temp":26,"dewp":25,"wdir":130,"wspd":2,"visib":"6+","altim":1015,"clouds":[{"cover":"FEW","base":1900}],"obsTime":1775480400},"SBTD":{"icaoId":"SBTD","flightCategory":"VFR","rawOb":"METAR SBTD 061300Z /////KT CAVOK 26/20 Q1018","temp":26,"dewp":20,"wdir":null,"wspd":null,"visib":"6+","altim":1018,"clouds":[],"obsTime":1775480400},"SBTF":{"icaoId":"SBTF","flightCategory":"VFR","rawOb":"METAR SBTF 061300Z 10006KT CAVOK 30/26 Q1011","temp":30,"dewp":26,"wdir":100,"wspd":6,"visib":"6+","altim":1011,"clouds":[],"obsTime":1775480400},"SBCJ":{"icaoId":"SBCJ","flightCategory":"VFR","rawOb":"METAR SBCJ 061300Z 11005KT 9999 SCT010 SCT090 26/21 Q1018","temp":26,"dewp":21,"wdir":110,"wspd":5,"visib":"6+","altim":1018,"clouds":[{"cover":"SCT","base":1000},{"cover":"SCT","base":9000}],"obsTime":1775480400},"SBPS":{"icaoId":"SBPS","flightCategory":"VFR","rawOb":"METAR SBPS 061300Z 12005KT 090V190 9999 SCT020 29/24 Q1017","temp":29,"dewp":24,"wdir":120,"wspd":5,"visib":"6+","altim":1017,"clouds":[{"cover":"SCT","base":2000}],"obsTime":1775480400},"SBTT":{"icaoId":"SBTT","flightCategory":"IFR","rawOb":"METAR SBTT 061300Z 03004KT 340V050 9999 -DZ BKN006 OVC080 25/23 Q1013","temp":25,"dewp":23,"wdir":30,"wspd":4,"visib":"6+","altim":1013,"clouds":[{"cover":"BKN","base":600},{"cover":"OVC","base":8000}],"obsTime":1775480400},"SBPB":{"icaoId":"SBPB","flightCategory":"VFR","rawOb":"METAR SBPB 061300Z 12005KT 9999 FEW020 SCT100 28/25 Q1013","temp":28,"dewp":25,"wdir":120,"wspd":5,"visib":"6+","altim":1013,"clouds":[{"cover":"FEW","base":2000},{"cover":"SCT","base":10000}],"obsTime":1775480400},"SBUY":{"icaoId":"SBUY","flightCategory":"VFR","rawOb":"METAR SBUY 061300Z 13003KT 9999 FEW020 SCT100 27/24 Q1011","temp":27,"dewp":24,"wdir":130,"wspd":3,"visib":"6+","altim":1011,"clouds":[{"cover":"FEW","base":2000},{"cover":"SCT","base":10000}],"obsTime":1775480400},"SBAR":{"icaoId":"SBAR","flightCategory":"VFR","rawOb":"METAR SBAR 061300Z 11010KT 040V150 9999 FEW020 FEW023TCU SCT070 30/23 Q1015","temp":30,"dewp":23,"wdir":110,"wspd":10,"visib":"6+","altim":1015,"clouds":[{"cover":"FEW","base":2000},{"cover":"FEW","base":2300},{"cover":"SCT","base":7000}],"obsTime":1775480400},"SBGM":{"icaoId":"SBGM","flightCategory":"VFR","rawOb":"METAR SBGM 061300Z VRB02KT 9999 FEW006 SCT033 27/23 Q1013","temp":27,"dewp":23,"wdir":"VRB","wspd":2,"visib":"6+","altim":1013,"clouds":[{"cover":"FEW","base":600},{"cover":"SCT","base":3300}],"obsTime":1775480400},"SBIP":{"icaoId":"SBIP","flightCategory":"VFR","rawOb":"METAR SBIP 061300Z AUTO 03006KT 360V080 9999 FEW017 28/22 Q1019","temp":28,"dewp":22,"wdir":30,"wspd":6,"visib":"6+","altim":1019,"clouds":[{"cover":"FEW","base":1700}],"obsTime":1775480400},"SBKG":{"icaoId":"SBKG","flightCategory":"MVFR","rawOb":"METAR SBKG 061300Z 10008KT 9999 BKN018 26/22 Q1017","temp":26,"dewp":22,"wdir":100,"wspd":8,"visib":"6+","altim":1017,"clouds":[{"cover":"BKN","base":1800}],"obsTime":1775480400},"SBSC":{"icaoId":"SBSC","flightCategory":"VFR","rawOb":"METAR SBSC 061300Z VRB02KT 9999 FEW020 29/22 Q1017","temp":29,"dewp":22,"wdir":"VRB","wspd":2,"visib":"6+","altim":1017,"clouds":[{"cover":"FEW","base":2000}],"obsTime":1775480400},"SBSM":{"icaoId":"SBSM","flightCategory":"VFR","rawOb":"METAR SBSM 061300Z 11007KT 9999 FEW040 20/17 Q1016","temp":20,"dewp":17,"wdir":110,"wspd":7,"visib":"6+","altim":1016,"clouds":[{"cover":"FEW","base":4000}],"obsTime":1775480400},"SBSR":{"icaoId":"SBSR","flightCategory":"VFR","rawOb":"METAR SBSR 061300Z 06006KT CAVOK 26/20 Q1018","temp":26,"dewp":20,"wdir":60,"wspd":6,"visib":"6+","altim":1018,"clouds":[],"obsTime":1775480400},"SBVH":{"icaoId":"SBVH","flightCategory":"VFR","rawOb":"METAR SBVH 061300Z 07005KT 9999 SCT006 SCT100 25/22 Q1016","temp":25,"dewp":22,"wdir":70,"wspd":5,"visib":"6+","altim":1016,"clouds":[{"cover":"SCT","base":600},{"cover":"SCT","base":10000}],"obsTime":1775480400},"SBAU":{"icaoId":"SBAU","flightCategory":"VFR","rawOb":"METAR SBAU 061300Z 09008KT CAVOK 27/22 Q1017","temp":27,"dewp":22,"wdir":90,"wspd":8,"visib":"6+","altim":1017,"clouds":[],"obsTime":1775480400},"SBAX":{"icaoId":"SBAX","flightCategory":"VFR","rawOb":"METAR SBAX 061300Z 08006KT 9999 SCT025 25/20 Q1022","temp":25,"dewp":20,"wdir":80,"wspd":6,"visib":"6+","altim":1022,"clouds":[{"cover":"SCT","base":2500}],"obsTime":1775480400},"SBBH":{"icaoId":"SBBH","flightCategory":"VFR","rawOb":"METAR SBBH 061300Z 04005KT 9999 SCT023 26/20 Q1021","temp":26,"dewp":20,"wdir":40,"wspd":5,"visib":"6+","altim":1021,"clouds":[{"cover":"SCT","base":2300}],"obsTime":1775480400},"SBBQ":{"icaoId":"SBBQ","flightCategory":"IFR","rawOb":"METAR SBBQ 061300Z 09006KT 5000 BR BKN009 20/18 Q1025","temp":20,"dewp":18,"wdir":90,"wspd":6,"visib":3.11,"altim":1025,"clouds":[{"cover":"BKN","base":900}],"obsTime":1775480400},"SBBU":{"icaoId":"SBBU","flightCategory":"VFR","rawOb":"METAR SBBU 061300Z 07008KT CAVOK 27/21 Q1019","temp":27,"dewp":21,"wdir":70,"wspd":8,"visib":"6+","altim":1019,"clouds":[],"obsTime":1775480400},"SBCA":{"icaoId":"SBCA","flightCategory":"VFR","rawOb":"METAR SBCA 061300Z 05010G23KT 9999 FEW030 24/18 Q1019","temp":24,"dewp":18,"wdir":50,"wspd":10,"visib":"6+","altim":1019,"clouds":[{"cover":"FEW","base":3000}],"obsTime":1775480400},"SBCC":{"icaoId":"SBCC","flightCategory":"VFR","rawOb":"METAR SBCC 061300Z 03003KT CAVOK 26/22 Q1016","temp":26,"dewp":22,"wdir":30,"wspd":3,"visib":"6+","altim":1016,"clouds":[],"obsTime":1775480400},"SBCO":{"icaoId":"SBCO","flightCategory":"VFR","rawOb":"METAR SBCO 061300Z 11011KT 9999 FEW023 25/19 Q1018","temp":25,"dewp":19,"wdir":110,"wspd":11,"visib":"6+","altim":1018,"clouds":[{"cover":"FEW","base":2300}],"obsTime":1775480400},"SBDN":{"icaoId":"SBDN","flightCategory":"VFR","rawOb":"METAR SBDN 061300Z 09007KT 9999 SCT017 27/21 Q1017","temp":27,"dewp":21,"wdir":90,"wspd":7,"visib":"6+","altim":1017,"clouds":[{"cover":"SCT","base":1700}],"obsTime":1775480400},"SBES":{"icaoId":"SBES","flightCategory":"VFR","rawOb":"METAR SBES 061300Z 10004KT 020V150 9999 SCT020 28/// Q1018","temp":null,"dewp":null,"wdir":100,"wspd":4,"visib":"6+","altim":1018,"clouds":[{"cover":"SCT","base":2000}],"obsTime":1775480400},"SBJP":{"icaoId":"SBJP","flightCategory":"MVFR","rawOb":"METAR SBJP 061300Z 13007KT 9999 BKN025 30/24 Q1015","temp":30,"dewp":24,"wdir":130,"wspd":7,"visib":"6+","altim":1015,"clouds":[{"cover":"BKN","base":2500}],"obsTime":1775480400},"SBLE":{"icaoId":"SBLE","flightCategory":"MVFR","rawOb":"SPECI SBLE 061209Z AUTO 16004KT 100V190 9999 -RA FEW009 BKN018 OVC032 ///// Q////","temp":null,"dewp":null,"wdir":160,"wspd":4,"visib":"6+","altim":null,"clouds":[{"cover":"FEW","base":900},{"cover":"BKN","base":1800},{"cover":"OVC","base":3200}],"obsTime":1775477340},"SBIH":{"icaoId":"SBIH","flightCategory":"VFR","rawOb":"METAR SBIH 061300Z 04004KT 9999 SCT015 28/23 Q1013","temp":28,"dewp":23,"wdir":40,"wspd":4,"visib":"6+","altim":1013,"clouds":[{"cover":"SCT","base":1500}],"obsTime":1775480400},"SBJV":{"icaoId":"SBJV","flightCategory":"LIFR","rawOb":"METAR SBJV 061300Z 19004KT 3000 -RA BR BKN003 OVC010 23/23 Q1020 RESHRA","temp":23,"dewp":23,"wdir":190,"wspd":4,"visib":1.86,"altim":1020,"clouds":[{"cover":"BKN","base":300},{"cover":"OVC","base":1000}],"obsTime":1775480400},"SBPF":{"icaoId":"SBPF","flightCategory":"VFR","rawOb":"METAR SBPF 061300Z 04014KT CAVOK 22/17 Q1020","temp":22,"dewp":17,"wdir":40,"wspd":14,"visib":"6+","altim":1020,"clouds":[],"obsTime":1775480400},"SBAN":{"icaoId":"SBAN","flightCategory":"VFR","rawOb":"METAR SBAN 061300Z 09012KT 9999 FEW030 25/18 Q1022","temp":25,"dewp":18,"wdir":90,"wspd":12,"visib":"6+","altim":1022,"clouds":[{"cover":"FEW","base":3000}],"obsTime":1775480400},"SBAF":{"icaoId":"SBAF","flightCategory":"VFR","rawOb":"METAR SBAF 061300Z 29002KT 9999 FEW010 SCT025 29/23 Q1018","temp":29,"dewp":23,"wdir":290,"wspd":2,"visib":"6+","altim":1018,"clouds":[{"cover":"FEW","base":1000},{"cover":"SCT","base":2500}],"obsTime":1775480400},"SBGW":{"icaoId":"SBGW","flightCategory":"VFR","rawOb":"METAR SBGW 061300Z 08004KT 9999 SCT020 26/18 Q1021","temp":26,"dewp":18,"wdir":80,"wspd":4,"visib":"6+","altim":1021,"clouds":[{"cover":"SCT","base":2000}],"obsTime":1775480400},"SBJR":{"icaoId":"SBJR","flightCategory":"VFR","rawOb":"METAR SBJR 061300Z 17004KT 9999 FEW023 31/23 Q1017","temp":31,"dewp":23,"wdir":170,"wspd":4,"visib":"6+","altim":1017,"clouds":[{"cover":"FEW","base":2300}],"obsTime":1775480400},"SBLS":{"icaoId":"SBLS","flightCategory":"MVFR","rawOb":"METAR SBLS 061300Z 12006KT 040V140 9999 BKN020 25/20 Q1021","temp":25,"dewp":20,"wdir":120,"wspd":6,"visib":"6+","altim":1021,"clouds":[{"cover":"BKN","base":2000}],"obsTime":1775480400},"SBMT":{"icaoId":"SBMT","flightCategory":"MVFR","rawOb":"METAR SBMT 061300Z 08006KT 040V110 9999 BKN019 23/19 Q1022","temp":23,"dewp":19,"wdir":80,"wspd":6,"visib":"6+","altim":1022,"clouds":[{"cover":"BKN","base":1900}],"obsTime":1775480400},"SBST":{"icaoId":"SBST","flightCategory":"VFR","rawOb":"METAR SBST 061300Z 02004KT 9999 FEW022 SCT036 27/24 Q1018","temp":27,"dewp":24,"wdir":20,"wspd":4,"visib":"6+","altim":1018,"clouds":[{"cover":"FEW","base":2200},{"cover":"SCT","base":3600}],"obsTime":1775480400},"SBTA":{"icaoId":"SBTA","flightCategory":"MVFR","rawOb":"METAR SBTA 061300Z VRB03KT 9999 FEW008 BKN014 BKN018 24/20 Q1020","temp":24,"dewp":20,"wdir":"VRB","wspd":3,"visib":"6+","altim":1020,"clouds":[{"cover":"FEW","base":800},{"cover":"BKN","base":1400},{"cover":"BKN","base":1800}],"obsTime":1775480400}}}