{"updated":1784280251,"count":64,"data":{"SBNT":{"icaoId":"SBNT","flightCategory":"VFR","rawOb":"METAR SBNT 170800Z 19010KT 9999 FEW020 22/21 Q1015","temp":22,"dewp":21,"wdir":190,"wspd":10,"visib":"6+","altim":1015,"clouds":[{"cover":"FEW","base":2000}],"obsTime":1784275200},"SBBV":{"icaoId":"SBBV","flightCategory":"VFR","rawOb":"METAR SBBV 170800Z 36002KT 9999 FEW045 25/24 Q1013","temp":25,"dewp":24,"wdir":360,"wspd":2,"visib":"6+","altim":1013,"clouds":[{"cover":"FEW","base":4500}],"obsTime":1784275200},"SBFL":{"icaoId":"SBFL","flightCategory":"VFR","rawOb":"METAR SBFL 170800Z 10005KT 9999 FEW008 13/12 Q1016","temp":13,"dewp":12,"wdir":100,"wspd":5,"visib":"6+","altim":1016,"clouds":[{"cover":"FEW","base":800}],"obsTime":1784275200},"SBSL":{"icaoId":"SBSL","flightCategory":"VFR","rawOb":"METAR SBSL 170800Z 11002KT 9999 FEW020 SCT070 26/24 Q1013","temp":26,"dewp":24,"wdir":110,"wspd":2,"visib":"6+","altim":1013,"clouds":[{"cover":"FEW","base":2000},{"cover":"SCT","base":7000}],"obsTime":1784275200},"SBCF":{"icaoId":"SBCF","flightCategory":"VFR","rawOb":"METAR SBCF 170800Z 10003KT CAVOK 11/08 Q1026","temp":11,"dewp":8,"wdir":100,"wspd":3,"visib":"6+","altim":1026,"clouds":[],"obsTime":1784275200},"SBSG":{"icaoId":"SBSG","flightCategory":"VFR","rawOb":"METAR SBSG 170800Z 19006KT 150V230 9999 FEW017 SCT050 22/21 Q1016","temp":22,"dewp":21,"wdir":190,"wspd":6,"visib":"6+","altim":1016,"clouds":[{"cover":"FEW","base":1700},{"cover":"SCT","base":5000}],"obsTime":1784275200},"SBLO":{"icaoId":"SBLO","flightCategory":"VFR","rawOb":"METAR SBLO 170800Z VRB02KT CAVOK 14/13 Q1018","temp":14,"dewp":13,"wdir":"VRB","wspd":2,"visib":"6+","altim":1018,"clouds":[],"obsTime":1784275200},"SBTE":{"icaoId":"SBTE","flightCategory":"VFR","rawOb":"METAR SBTE 170800Z 14005KT CAVOK 25/18 Q1014","temp":25,"dewp":18,"wdir":140,"wspd":5,"visib":"6+","altim":1014,"clouds":[],"obsTime":1784275200},"SBRF":{"icaoId":"SBRF","flightCategory":"MVFR","rawOb":"METAR SBRF 170800Z 18009KT 9999 FEW010 BKN018 BKN045 24/22 Q1017","temp":24,"dewp":22,"wdir":180,"wspd":9,"visib":"6+","altim":1017,"clouds":[{"cover":"FEW","base":1000},{"cover":"BKN","base":1800},{"cover":"BKN","base":4500}],"obsTime":1784275200},"SBPA":{"icaoId":"SBPA","flightCategory":"VFR","rawOb":"METAR SBPA 170800Z 00000KT CAVOK 14/12 Q1009","temp":14,"dewp":12,"wdir":0,"wspd":0,"visib":"6+","altim":1009,"clouds":[],"obsTime":1784275200},"SBCG":{"icaoId":"SBCG","flightCategory":"VFR","rawOb":"METAR SBCG 170800Z 36009KT CAVOK 24/17 Q1014","temp":24,"dewp":17,"wdir":360,"wspd":9,"visib":"6+","altim":1014,"clouds":[],"obsTime":1784275200},"SBCB":{"icaoId":"SBCB","flightCategory":"VFR","rawOb":"METAR SBCB 170900Z 07012KT CAVOK 20/13 Q1022","temp":20,"dewp":13,"wdir":70,"wspd":12,"visib":"6+","altim":1022,"clouds":[],"obsTime":1784278800},"SBFI":{"icaoId":"SBFI","flightCategory":"VFR","rawOb":"METAR SBFI 170800Z 03010KT CAVOK 24/16 Q1009","temp":24,"dewp":16,"wdir":30,"wspd":10,"visib":"6+","altim":1009,"clouds":[],"obsTime":1784275200},"SBBR":{"icaoId":"SBBR","flightCategory":"VFR","rawOb":"METAR SBBR 170800Z 11005KT CAVOK 12/07 Q1024","temp":12,"dewp":7,"wdir":110,"wspd":5,"visib":"6+","altim":1024,"clouds":[],"obsTime":1784275200},"SBGR":{"icaoId":"SBGR","flightCategory":"VFR","rawOb":"METAR SBGR 170800Z 09005KT CAVOK 08/07 Q1022","temp":8,"dewp":7,"wdir":90,"wspd":5,"visib":"6+","altim":1022,"clouds":[],"obsTime":1784275200},"SBMA":{"icaoId":"SBMA","flightCategory":"VFR","rawOb":"METAR SBMA 170800Z 28002KT CAVOK 23/22 Q1013","temp":23,"dewp":22,"wdir":280,"wspd":2,"visib":"6+","altim":1013,"clouds":[],"obsTime":1784275200},"SBMO":{"icaoId":"SBMO","flightCategory":"MVFR","rawOb":"METAR SBMO 170800Z VRB02KT 9999 BKN020 21/20 Q1018","temp":21,"dewp":20,"wdir":"VRB","wspd":2,"visib":"6+","altim":1018,"clouds":[{"cover":"BKN","base":2000}],"obsTime":1784275200},"SBPV":{"icaoId":"SBPV","flightCategory":"VFR","rawOb":"METAR SBPV 170800Z 15001KT CAVOK 24/23 Q1012","temp":24,"dewp":23,"wdir":150,"wspd":1,"visib":"6+","altim":1012,"clouds":[],"obsTime":1784275200},"SBGO":{"icaoId":"SBGO","flightCategory":"VFR","rawOb":"METAR SBGO 170800Z 07007KT 040V100 CAVOK 19/08 Q1021","temp":19,"dewp":8,"wdir":70,"wspd":7,"visib":"6+","altim":1021,"clouds":[],"obsTime":1784275200},"SBCT":{"icaoId":"SBCT","flightCategory":"VFR","rawOb":"METAR SBCT 170800Z 03004KT 9000 NSC 11/11 Q1020","temp":11,"dewp":11,"wdir":30,"wspd":4,"visib":5.59,"altim":1020,"clouds":[],"obsTime":1784275200},"SBMQ":{"icaoId":"SBMQ","flightCategory":"VFR","rawOb":"METAR SBMQ 170800Z 35003KT 9999 SCT026 FEW040TCU 25/24 Q1013","temp":25,"dewp":24,"wdir":350,"wspd":3,"visib":"6+","altim":1013,"clouds":[{"cover":"SCT","base":2600},{"cover":"FEW","base":4000}],"obsTime":1784275200},"SBJU":{"icaoId":"SBJU","flightCategory":"VFR","rawOb":"METAR SBJU 170800Z 17005KT 9999 SCT020 20/17 Q1019","temp":20,"dewp":17,"wdir":170,"wspd":5,"visib":"6+","altim":1019,"clouds":[{"cover":"SCT","base":2000}],"obsTime":1784275200},"SBSV":{"icaoId":"SBSV","flightCategory":"VFR","rawOb":"METAR SBSV 170800Z 12012KT 9999 FEW023 OVC060 25/15 Q1020","temp":25,"dewp":15,"wdir":120,"wspd":12,"visib":"6+","altim":1020,"clouds":[{"cover":"FEW","base":2300},{"cover":"OVC","base":6000}],"obsTime":1784275200},"SBME":{"icaoId":"SBME","flightCategory":"VFR","rawOb":"METAR SBME 170800Z 01007KT CAVOK 15/12 Q1023","temp":15,"dewp":12,"wdir":10,"wspd":7,"visib":"6+","altim":1023,"clouds":[],"obsTime":1784275200},"SBMK":{"icaoId":"SBMK","flightCategory":"VFR","rawOb":"METAR SBMK 170800Z 06004KT CAVOK 14/09 Q1024","temp":14,"dewp":9,"wdir":60,"wspd":4,"visib":"6+","altim":1024,"clouds":[],"obsTime":1784275200},"SBUL":{"icaoId":"SBUL","flightCategory":"VFR","rawOb":"METAR SBUL 170800Z 10014KT CAVOK 14/08 Q1023","temp":14,"dewp":8,"wdir":100,"wspd":14,"visib":"6+","altim":1023,"clouds":[],"obsTime":1784275200},"SBUR":{"icaoId":"SBUR","flightCategory":"VFR","rawOb":"METAR SBUR 170800Z 03013KT CAVOK 15/08 Q1021","temp":15,"dewp":8,"wdir":30,"wspd":13,"visib":"6+","altim":1021,"clouds":[],"obsTime":1784275200},"SBPJ":{"icaoId":"SBPJ","flightCategory":"VFR","rawOb":"METAR SBPJ 170800Z 13006KT CAVOK 23/14 Q1016","temp":23,"dewp":14,"wdir":130,"wspd":6,"visib":"6+","altim":1016,"clouds":[],"obsTime":1784275200},"SBMG":{"icaoId":"SBMG","flightCategory":"VFR","rawOb":"METAR SBMG 170800Z AUTO 03013KT CAVOK 20/12 Q1016","temp":20,"dewp":12,"wdir":30,"wspd":13,"visib":"6+","altim":1016,"clouds":[],"obsTime":1784275200},"SBFZ":{"icaoId":"SBFZ","flightCategory":"VFR","rawOb":"METAR SBFZ 170800Z 15007KT CAVOK 24/22 Q1014","temp":24,"dewp":22,"wdir":150,"wspd":7,"visib":"6+","altim":1014,"clouds":[],"obsTime":1784275200},"SBBE":{"icaoId":"SBBE","flightCategory":"MVFR","rawOb":"METAR SBBE 170800Z 10005KT 9999 BKN020 OVC040 25/25 Q1013","temp":25,"dewp":25,"wdir":100,"wspd":5,"visib":"6+","altim":1013,"clouds":[{"cover":"BKN","base":2000},{"cover":"OVC","base":4000}],"obsTime":1784275200},"SBKP":{"icaoId":"SBKP","flightCategory":"VFR","rawOb":"METAR SBKP 170800Z 10005KT CAVOK 13/08 Q1021","temp":13,"dewp":8,"wdir":100,"wspd":5,"visib":"6+","altim":1021,"clouds":[],"obsTime":1784275200},"SBSN":{"icaoId":"SBSN","flightCategory":"VFR","rawOb":"METAR SBSN 170800Z 08012KT 9999 SCT010 SCT026 BKN100 26/24 Q1012","temp":26,"dewp":24,"wdir":80,"wspd":12,"visib":"6+","altim":1012,"clouds":[{"cover":"SCT","base":1000},{"cover":"SCT","base":2600},{"cover":"BKN","base":10000}],"obsTime":1784275200},"SBSP":{"icaoId":"SBSP","flightCategory":"VFR","rawOb":"METAR SBSP 170800Z AUTO 07004KT 040V110 CAVOK 14/08 Q1022","temp":14,"dewp":8,"wdir":70,"wspd":4,"visib":"6+","altim":1022,"clouds":[],"obsTime":1784275200},"SBVT":{"icaoId":"SBVT","flightCategory":"VFR","rawOb":"METAR SBVT 170800Z 28005KT 9999 BKN049 17/15 Q1024","temp":17,"dewp":15,"wdir":280,"wspd":5,"visib":"6+","altim":1024,"clouds":[{"cover":"BKN","base":4900}],"obsTime":1784275200},"SBEG":{"icaoId":"SBEG","flightCategory":"VFR","rawOb":"METAR SBEG 170800Z 10006KT CAVOK 26/23 Q1013","temp":26,"dewp":23,"wdir":100,"wspd":6,"visib":"6+","altim":1013,"clouds":[],"obsTime":1784275200},"SBGL":{"icaoId":"SBGL","flightCategory":"VFR","rawOb":"METAR SBGL 170800Z 07004KT CAVOK 14/12 Q1021","temp":14,"dewp":12,"wdir":70,"wspd":4,"visib":"6+","altim":1021,"clouds":[],"obsTime":1784275200},"SBRB":{"icaoId":"SBRB","flightCategory":"MVFR","rawOb":"METAR SBRB 170800Z COR 02003KT 8000 NSC 22/22 Q1012","temp":22,"dewp":22,"wdir":20,"wspd":3,"visib":4.97,"altim":1012,"clouds":[],"obsTime":1784275200},"SBOI":{"icaoId":"SBOI","flightCategory":"MVFR","rawOb":"METAR SBOI 170800Z AUTO 00000KT 8000 NCD 22/22 Q1014","temp":22,"dewp":22,"wdir":0,"wspd":0,"visib":4.97,"altim":1014,"clouds":[],"obsTime":1784275200},"SBSM":{"icaoId":"SBSM","flightCategory":"VFR","rawOb":"METAR SBSM 170900Z 02014G28KT CAVOK 24/14 Q1006 WS ALL RWY","temp":24,"dewp":14,"wdir":20,"wspd":14,"visib":"6+","altim":1006,"clouds":[],"obsTime":1784278800},"SBES":{"icaoId":"SBES","flightCategory":"VFR","rawOb":"METAR SBES 170900Z 04005KT 360V070 CAVOK 16/// Q1022","temp":null,"dewp":null,"wdir":40,"wspd":5,"visib":"6+","altim":1022,"clouds":[],"obsTime":1784278800},"SBPL":{"icaoId":"SBPL","flightCategory":"MVFR","rawOb":"METAR SBPL 170800Z 12007KT 9999 BKN020 20/16 Q1020","temp":20,"dewp":16,"wdir":120,"wspd":7,"visib":"6+","altim":1020,"clouds":[{"cover":"BKN","base":2000}],"obsTime":1784275200},"SBPS":{"icaoId":"SBPS","flightCategory":"VFR","rawOb":"METAR SBPS 170800Z 25006KT 210V270 9999 FEW020 BKN070 19/17 Q1022","temp":19,"dewp":17,"wdir":250,"wspd":6,"visib":"6+","altim":1022,"clouds":[{"cover":"FEW","base":2000},{"cover":"BKN","base":7000}],"obsTime":1784275200},"SBCO":{"icaoId":"SBCO","flightCategory":"VFR","rawOb":"METAR SBCO 170900Z 05002KT CAVOK 13/12 Q1009","temp":13,"dewp":12,"wdir":50,"wspd":2,"visib":"6+","altim":1009,"clouds":[],"obsTime":1784278800},"SBCA":{"icaoId":"SBCA","flightCategory":"VFR","rawOb":"METAR SBCA 170900Z 03021G31KT CAVOK 19/12 Q1015","temp":19,"dewp":12,"wdir":30,"wspd":21,"visib":"6+","altim":1015,"clouds":[],"obsTime":1784278800},"SBSR":{"icaoId":"SBSR","flightCategory":"VFR","rawOb":"METAR SBSR 170800Z 09010KT CAVOK 17/09 Q1019","temp":17,"dewp":9,"wdir":90,"wspd":10,"visib":"6+","altim":1019,"clouds":[],"obsTime":1784275200},"SBSC":{"icaoId":"SBSC","flightCategory":"MVFR","rawOb":"METAR SBSC 170800Z 35013KT 8000 NSC 15/12 Q1021","temp":15,"dewp":12,"wdir":350,"wspd":13,"visib":4.97,"altim":1021,"clouds":[],"obsTime":1784275200},"SBAR":{"icaoId":"SBAR","flightCategory":"VFR","rawOb":"METAR SBAR 170800Z 14011KT 9999 VCSH SCT025 BKN060 25/20 Q1018","temp":25,"dewp":20,"wdir":140,"wspd":11,"visib":"6+","altim":1018,"clouds":[{"cover":"SCT","base":2500},{"cover":"BKN","base":6000}],"obsTime":1784275200},"SBIP":{"icaoId":"SBIP","flightCategory":"VFR","rawOb":"METAR SBIP 170800Z AUTO 00000KT CAVOK 15/15 Q1025","temp":15,"dewp":15,"wdir":0,"wspd":0,"visib":"6+","altim":1025,"clouds":[],"obsTime":1784275200},"SBDN":{"icaoId":"SBDN","flightCategory":"VFR","rawOb":"METAR SBDN 170800Z COR 05011KT CAVOK 18/11 Q1017","temp":18,"dewp":11,"wdir":50,"wspd":11,"visib":"6+","altim":1017,"clouds":[],"obsTime":1784275200},"SBBU":{"icaoId":"SBBU","flightCategory":"VFR","rawOb":"METAR SBBU 170900Z 06011KT CAVOK 17/11 Q1020","temp":17,"dewp":11,"wdir":60,"wspd":11,"visib":"6+","altim":1020,"clouds":[],"obsTime":1784278800},"SBTU":{"icaoId":"SBTU","flightCategory":"VFR","rawOb":"METAR SBTU 170800Z AUTO 25004KT 210V270 9999 // NCD ///// Q1015","temp":null,"dewp":null,"wdir":250,"wspd":4,"visib":"6+","altim":1015,"clouds":[],"obsTime":1784275200},"SBBH":{"icaoId":"SBBH","flightCategory":"VFR","rawOb":"METAR SBBH 170900Z 00000KT CAVOK 10/08 Q1026","temp":10,"dewp":8,"wdir":0,"wspd":0,"visib":"6+","altim":1026,"clouds":[],"obsTime":1784278800},"SBKG":{"icaoId":"SBKG","flightCategory":"IFR","rawOb":"METAR SBKG 170800Z 16005KT 9999 -DZ SCT005 BKN008 19/19 Q1019","temp":19,"dewp":19,"wdir":160,"wspd":5,"visib":"6+","altim":1019,"clouds":[{"cover":"SCT","base":500},{"cover":"BKN","base":800}],"obsTime":1784275200},"SBSJ":{"icaoId":"SBSJ","flightCategory":"MVFR","rawOb":"SPECI SBSJ 170830Z 03005KT 350V070 8000 NSC 12/09 Q1023","temp":12,"dewp":9,"wdir":30,"wspd":5,"visib":4.97,"altim":1023,"clouds":[],"obsTime":1784277000},"SBJV":{"icaoId":"SBJV","flightCategory":"LIFR","rawOb":"METAR SBJV 170900Z 23002KT 1200 R33/P2000 -DZ BKN002 BKN004 16/16 Q1018","temp":16,"dewp":16,"wdir":230,"wspd":2,"visib":0.75,"altim":1018,"clouds":[{"cover":"BKN","base":200},{"cover":"BKN","base":400}],"obsTime":1784278800},"SBNM":{"icaoId":"SBNM","flightCategory":"VFR","rawOb":"METAR SBNM 170800Z AUTO 04008KT CAVOK 19/14 Q1008","temp":19,"dewp":14,"wdir":40,"wspd":8,"visib":"6+","altim":1008,"clouds":[],"obsTime":1784275200},"SBMT":{"icaoId":"SBMT","flightCategory":"MVFR","rawOb":"METAR SBMT 170900Z 13003KT 100V160 7000 3000SE NSC 12/10 Q1022","temp":12,"dewp":10,"wdir":130,"wspd":3,"visib":4.35,"altim":1022,"clouds":[],"obsTime":1784278800},"SBJP":{"icaoId":"SBJP","flightCategory":"VFR","rawOb":"METAR SBJP 170800Z 20005KT 9999 FEW020 22/21 Q1017","temp":22,"dewp":21,"wdir":200,"wspd":5,"visib":"6+","altim":1017,"clouds":[{"cover":"FEW","base":2000}],"obsTime":1784275200},"SBAN":{"icaoId":"SBAN","flightCategory":"VFR","rawOb":"METAR SBAN 170800Z 09010KT CAVOK 16/08 Q1022","temp":16,"dewp":8,"wdir":90,"wspd":10,"visib":"6+","altim":1022,"clouds":[],"obsTime":1784275200},"SBLE":{"icaoId":"SBLE","flightCategory":"VFR","rawOb":"METAR SBLE 170800Z AUTO 16003KT 9999 SCT035 BKN040 ///// Q1023","temp":null,"dewp":null,"wdir":160,"wspd":3,"visib":"6+","altim":1023,"clouds":[{"cover":"SCT","base":3500},{"cover":"BKN","base":4000}],"obsTime":1784275200},"SBGW":{"icaoId":"SBGW","flightCategory":"VFR","rawOb":"METAR SBGW 170900Z 03002KT CAVOK 09/08 Q1023","temp":9,"dewp":8,"wdir":30,"wspd":2,"visib":"6+","altim":1023,"clouds":[],"obsTime":1784278800},"SBLS":{"icaoId":"SBLS","flightCategory":"VFR","rawOb":"METAR SBLS 170900Z 13006KT 9999 FEW030 12/08 Q1025","temp":12,"dewp":8,"wdir":130,"wspd":6,"visib":"6+","altim":1025,"clouds":[{"cover":"FEW","base":3000}],"obsTime":1784278800},"SBTA":{"icaoId":"SBTA","flightCategory":"VFR","rawOb":"METAR SBTA 170900Z 00000KT CAVOK 07/06 Q1022","temp":7,"dewp":6,"wdir":0,"wspd":0,"visib":"6+","altim":1022,"clouds":[],"obsTime":1784278800}}}