{"updated":1777145751,"count":86,"data":{"SBVT":{"icaoId":"SBVT","flightCategory":"VFR","rawOb":"METAR SBVT 251800Z 06011KT 9999 SCT030 30/22 Q1011","temp":30,"dewp":22,"wdir":60,"wspd":11,"visib":"6+","altim":1011,"clouds":[{"cover":"SCT","base":3000}],"obsTime":1777140000},"SBAT":{"icaoId":"SBAT","flightCategory":"VFR","rawOb":"METAR SBAT 251800Z 09005KT 9999 SCT030 FEW035TCU 33/24 Q1010","temp":33,"dewp":24,"wdir":90,"wspd":5,"visib":"6+","altim":1010,"clouds":[{"cover":"SCT","base":3000},{"cover":"FEW","base":3500}],"obsTime":1777140000},"SBBE":{"icaoId":"SBBE","flightCategory":"VFR","rawOb":"METAR SBBE 251800Z 29003KT 9999 VCSH SCT023 FEW024TCU 29/25 Q1010","temp":29,"dewp":25,"wdir":290,"wspd":3,"visib":"6+","altim":1010,"clouds":[{"cover":"SCT","base":2300},{"cover":"FEW","base":2400}],"obsTime":1777140000},"SBBR":{"icaoId":"SBBR","flightCategory":"VFR","rawOb":"METAR SBBR 251800Z 32003KT 250V050 9999 SCT045 29/13 Q1017","temp":29,"dewp":13,"wdir":320,"wspd":3,"visib":"6+","altim":1017,"clouds":[{"cover":"SCT","base":4500}],"obsTime":1777140000},"SBBV":{"icaoId":"SBBV","flightCategory":"MVFR","rawOb":"METAR SBBV 251800Z 07005KT 9999 BKN030 FEW035TCU 31/22 Q1009","temp":31,"dewp":22,"wdir":70,"wspd":5,"visib":"6+","altim":1009,"clouds":[{"cover":"BKN","base":3000},{"cover":"FEW","base":3500}],"obsTime":1777140000},"SBCB":{"icaoId":"SBCB","flightCategory":"VFR","rawOb":"METAR SBCB 251800Z 08011KT CAVOK 29/22 Q1010","temp":29,"dewp":22,"wdir":80,"wspd":11,"visib":"6+","altim":1010,"clouds":[],"obsTime":1777140000},"SBCF":{"icaoId":"SBCF","flightCategory":"VFR","rawOb":"METAR SBCF 251800Z 22009KT 9999 SCT045 28/14 Q1016","temp":28,"dewp":14,"wdir":220,"wspd":9,"visib":"6+","altim":1016,"clouds":[{"cover":"SCT","base":4500}],"obsTime":1777140000},"SBCG":{"icaoId":"SBCG","flightCategory":"VFR","rawOb":"METAR SBCG 251800Z 30008KT 270V340 CAVOK 32/16 Q1013","temp":32,"dewp":16,"wdir":300,"wspd":8,"visib":"6+","altim":1013,"clouds":[],"obsTime":1777140000},"SBCP":{"icaoId":"SBCP","flightCategory":"VFR","rawOb":"METAR SBCP 251800Z 32010KT 9999 SCT020 32/19 Q1011","temp":32,"dewp":19,"wdir":320,"wspd":10,"visib":"6+","altim":1011,"clouds":[{"cover":"SCT","base":2000}],"obsTime":1777140000},"SBCR":{"icaoId":"SBCR","flightCategory":"VFR","rawOb":"METAR SBCR 251800Z 33004KT 260V030 9999 BKN040 34/22 Q1010","temp":34,"dewp":22,"wdir":330,"wspd":4,"visib":"6+","altim":1010,"clouds":[{"cover":"BKN","base":4000}],"obsTime":1777140000},"SBCT":{"icaoId":"SBCT","flightCategory":"VFR","rawOb":"METAR SBCT 251800Z 26010KT 9999 SCT045 SCT083 29/14 Q1014","temp":29,"dewp":14,"wdir":260,"wspd":10,"visib":"6+","altim":1014,"clouds":[{"cover":"SCT","base":4500},{"cover":"SCT","base":8300}],"obsTime":1777140000},"SBCZ":{"icaoId":"SBCZ","flightCategory":"MVFR","rawOb":"METAR SBCZ 251800Z 07004KT 9999 BKN030 FEW030TCU 30/23 Q1011","temp":30,"dewp":23,"wdir":70,"wspd":4,"visib":"6+","altim":1011,"clouds":[{"cover":"BKN","base":3000},{"cover":"FEW","base":3000}],"obsTime":1777140000},"SBEG":{"icaoId":"SBEG","flightCategory":"VFR","rawOb":"METAR SBEG 251800Z 04003KT 9999 TS VCSH SCT025 FEW030CB SCT100 26/24 Q1010","temp":26,"dewp":24,"wdir":40,"wspd":3,"visib":"6+","altim":1010,"clouds":[{"cover":"SCT","base":2500},{"cover":"FEW","base":3000},{"cover":"SCT","base":10000}],"obsTime":1777140000},"SBFI":{"icaoId":"SBFI","flightCategory":"VFR","rawOb":"METAR SBFI 251800Z 19004KT 9999 FEW030 BKN080 27/23 Q1011","temp":27,"dewp":23,"wdir":190,"wspd":4,"visib":"6+","altim":1011,"clouds":[{"cover":"FEW","base":3000},{"cover":"BKN","base":8000}],"obsTime":1777140000},"SBFL":{"icaoId":"SBFL","flightCategory":"VFR","rawOb":"METAR SBFL 251800Z 13010KT 9999 FEW036 26/21 Q1009","temp":26,"dewp":21,"wdir":130,"wspd":10,"visib":"6+","altim":1009,"clouds":[{"cover":"FEW","base":3600}],"obsTime":1777140000},"SBFZ":{"icaoId":"SBFZ","flightCategory":"VFR","rawOb":"METAR SBFZ 251800Z 04003KT 9999 VCSH SCT021 FEW025TCU BKN080 28/23 Q1009","temp":28,"dewp":23,"wdir":40,"wspd":3,"visib":"6+","altim":1009,"clouds":[{"cover":"SCT","base":2100},{"cover":"FEW","base":2500},{"cover":"BKN","base":8000}],"obsTime":1777140000},"SBGL":{"icaoId":"SBGL","flightCategory":"VFR","rawOb":"METAR SBGL 251800Z 27007KT 240V340 9999 FEW025 34/17 Q1009","temp":34,"dewp":17,"wdir":270,"wspd":7,"visib":"6+","altim":1009,"clouds":[{"cover":"FEW","base":2500}],"obsTime":1777140000},"SBGO":{"icaoId":"SBGO","flightCategory":"VFR","rawOb":"METAR SBGO 251800Z VRB04KT 9999 FEW045 32/15 Q1015","temp":32,"dewp":15,"wdir":"VRB","wspd":4,"visib":"6+","altim":1015,"clouds":[{"cover":"FEW","base":4500}],"obsTime":1777140000},"SBGR":{"icaoId":"SBGR","flightCategory":"VFR","rawOb":"METAR SBGR 251800Z 29013KT CAVOK 29/16 Q1015","temp":29,"dewp":16,"wdir":290,"wspd":13,"visib":"6+","altim":1015,"clouds":[],"obsTime":1777140000},"SBHT":{"icaoId":"SBHT","flightCategory":"MVFR","rawOb":"METAR SBHT 251800Z 15005KT 9999 BKN030 FEW035TCU 31/24 Q1009","temp":31,"dewp":24,"wdir":150,"wspd":5,"visib":"6+","altim":1009,"clouds":[{"cover":"BKN","base":3000},{"cover":"FEW","base":3500}],"obsTime":1777140000},"SBIL":{"icaoId":"SBIL","flightCategory":"VFR","rawOb":"METAR SBIL 251800Z 17006KT 120V210 9999 FEW025 29/24 Q1013","temp":29,"dewp":24,"wdir":170,"wspd":6,"visib":"6+","altim":1013,"clouds":[{"cover":"FEW","base":2500}],"obsTime":1777140000},"SBJU":{"icaoId":"SBJU","flightCategory":"VFR","rawOb":"METAR SBJU 251800Z COR 12003KT 9999 SCT022 30/21 Q1012","temp":30,"dewp":21,"wdir":120,"wspd":3,"visib":"6+","altim":1012,"clouds":[{"cover":"SCT","base":2200}],"obsTime":1777140000},"SBKP":{"icaoId":"SBKP","flightCategory":"VFR","rawOb":"METAR SBKP 251800Z 30008KT 280V350 CAVOK 30/17 Q1014","temp":30,"dewp":17,"wdir":300,"wspd":8,"visib":"6+","altim":1014,"clouds":[],"obsTime":1777140000},"SBLO":{"icaoId":"SBLO","flightCategory":"VFR","rawOb":"METAR SBLO 251800Z 31006KT 9999 SCT042 31/17 Q1013","temp":31,"dewp":17,"wdir":310,"wspd":6,"visib":"6+","altim":1013,"clouds":[{"cover":"SCT","base":4200}],"obsTime":1777140000},"SBMA":{"icaoId":"SBMA","flightCategory":"MVFR","rawOb":"METAR SBMA 251800Z 09003KT 9999 BKN020 FEW023TCU 32/23 Q1009","temp":32,"dewp":23,"wdir":90,"wspd":3,"visib":"6+","altim":1009,"clouds":[{"cover":"BKN","base":2000},{"cover":"FEW","base":2300}],"obsTime":1777140000},"SBME":{"icaoId":"SBME","flightCategory":"VFR","rawOb":"METAR SBME 251800Z 36005KT CAVOK 34/16 Q1010","temp":34,"dewp":16,"wdir":360,"wspd":5,"visib":"6+","altim":1010,"clouds":[],"obsTime":1777140000},"SBMG":{"icaoId":"SBMG","flightCategory":"VFR","rawOb":"METAR SBMG 251800Z 29006KT 250V340 9999 FEW045 30/17 Q1012","temp":30,"dewp":17,"wdir":290,"wspd":6,"visib":"6+","altim":1012,"clouds":[{"cover":"FEW","base":4500}],"obsTime":1777140000},"SBMK":{"icaoId":"SBMK","flightCategory":"VFR","rawOb":"METAR SBMK 251800Z 04004KT 9999 BKN045 31/17 Q1014","temp":31,"dewp":17,"wdir":40,"wspd":4,"visib":"6+","altim":1014,"clouds":[{"cover":"BKN","base":4500}],"obsTime":1777140000},"SBMO":{"icaoId":"SBMO","flightCategory":"VFR","rawOb":"METAR SBMO 251800Z 12011KT 9999 SCT030 FEW035TCU 29/23 Q1011","temp":29,"dewp":23,"wdir":120,"wspd":11,"visib":"6+","altim":1011,"clouds":[{"cover":"SCT","base":3000},{"cover":"FEW","base":3500}],"obsTime":1777140000},"SBMQ":{"icaoId":"SBMQ","flightCategory":"VFR","rawOb":"METAR SBMQ 251800Z 07006KT 9999 SCT035 FEW038TCU 32/24 Q1009","temp":32,"dewp":24,"wdir":70,"wspd":6,"visib":"6+","altim":1009,"clouds":[{"cover":"SCT","base":3500},{"cover":"FEW","base":3800}],"obsTime":1777140000},"SBNT":{"icaoId":"SBNT","flightCategory":"VFR","rawOb":"METAR SBNT 251800Z 10011KT 9999 SCT023 29/24 Q1009","temp":29,"dewp":24,"wdir":100,"wspd":11,"visib":"6+","altim":1009,"clouds":[{"cover":"SCT","base":2300}],"obsTime":1777140000},"SBPA":{"icaoId":"SBPA","flightCategory":"MVFR","rawOb":"METAR SBPA 251800Z 21006KT 180V240 9999 VCSH SCT015 BKN030 22/20 Q1011","temp":22,"dewp":20,"wdir":210,"wspd":6,"visib":"6+","altim":1011,"clouds":[{"cover":"SCT","base":1500},{"cover":"BKN","base":3000}],"obsTime":1777140000},"SBPJ":{"icaoId":"SBPJ","flightCategory":"VFR","rawOb":"METAR SBPJ 251800Z 11005KT 070V160 9999 SCT043 34/21 Q1010","temp":34,"dewp":21,"wdir":110,"wspd":5,"visib":"6+","altim":1010,"clouds":[{"cover":"SCT","base":4300}],"obsTime":1777140000},"SBPV":{"icaoId":"SBPV","flightCategory":"MVFR","rawOb":"METAR SBPV 251800Z 07005KT 9999 BKN025 FEW030TCU 30/28 Q1010","temp":30,"dewp":28,"wdir":70,"wspd":5,"visib":"6+","altim":1010,"clouds":[{"cover":"BKN","base":2500},{"cover":"FEW","base":3000}],"obsTime":1777140000},"SBRB":{"icaoId":"SBRB","flightCategory":"MVFR","rawOb":"METAR SBRB 251800Z 33003KT 9999 BKN025 SCT100 29/23 Q1012","temp":29,"dewp":23,"wdir":330,"wspd":3,"visib":"6+","altim":1012,"clouds":[{"cover":"BKN","base":2500},{"cover":"SCT","base":10000}],"obsTime":1777140000},"SBRF":{"icaoId":"SBRF","flightCategory":"VFR","rawOb":"METAR SBRF 251800Z 13010KT 9999 SCT024 29/24 Q1010","temp":29,"dewp":24,"wdir":130,"wspd":10,"visib":"6+","altim":1010,"clouds":[{"cover":"SCT","base":2400}],"obsTime":1777140000},"SBSG":{"icaoId":"SBSG","flightCategory":"MVFR","rawOb":"METAR SBSG 251800Z 10012KT 9999 VCSH BKN023 FEW030TCU 28/24 Q1009","temp":28,"dewp":24,"wdir":100,"wspd":12,"visib":"6+","altim":1009,"clouds":[{"cover":"BKN","base":2300},{"cover":"FEW","base":3000}],"obsTime":1777140000},"SBSL":{"icaoId":"SBSL","flightCategory":"MVFR","rawOb":"METAR SBSL 251800Z 01006KT 9999 VCSH BKN020 FEW025TCU BKN090 26/24 Q1010","temp":26,"dewp":24,"wdir":10,"wspd":6,"visib":"6+","altim":1010,"clouds":[{"cover":"BKN","base":2000},{"cover":"FEW","base":2500},{"cover":"BKN","base":9000}],"obsTime":1777140000},"SBSN":{"icaoId":"SBSN","flightCategory":"VFR","rawOb":"METAR SBSN 251800Z 07008KT 9999 FEW021 FEW026TCU 30/24 Q1009","temp":30,"dewp":24,"wdir":70,"wspd":8,"visib":"6+","altim":1009,"clouds":[{"cover":"FEW","base":2100},{"cover":"FEW","base":2600}],"obsTime":1777140000},"SBSP":{"icaoId":"SBSP","flightCategory":"VFR","rawOb":"METAR SBSP 251800Z 32012KT 260V350 9999 SCT045 28/15 Q1015","temp":28,"dewp":15,"wdir":320,"wspd":12,"visib":"6+","altim":1015,"clouds":[{"cover":"SCT","base":4500}],"obsTime":1777140000},"SBSV":{"icaoId":"SBSV","flightCategory":"VFR","rawOb":"METAR SBSV 251800Z 12009KT 090V180 9999 VCSH SCT023 FEW025TCU 29/23 Q1012","temp":29,"dewp":23,"wdir":120,"wspd":9,"visib":"6+","altim":1012,"clouds":[{"cover":"SCT","base":2300},{"cover":"FEW","base":2500}],"obsTime":1777140000},"SBTE":{"icaoId":"SBTE","flightCategory":"MVFR","rawOb":"METAR SBTE 251800Z 09004KT 9999 BKN020 FEW025TCU 30/24 Q1008","temp":30,"dewp":24,"wdir":90,"wspd":4,"visib":"6+","altim":1008,"clouds":[{"cover":"BKN","base":2000},{"cover":"FEW","base":2500}],"obsTime":1777140000},"SBUL":{"icaoId":"SBUL","flightCategory":"VFR","rawOb":"METAR SBUL 251800Z 36006KT 9999 SCT048 27/16 Q1017","temp":27,"dewp":16,"wdir":360,"wspd":6,"visib":"6+","altim":1017,"clouds":[{"cover":"SCT","base":4800}],"obsTime":1777140000},"SBUR":{"icaoId":"SBUR","flightCategory":"VFR","rawOb":"METAR SBUR 251800Z 25006KT CAVOK 31/14 Q1015","temp":31,"dewp":14,"wdir":250,"wspd":6,"visib":"6+","altim":1015,"clouds":[],"obsTime":1777140000},"SBVH":{"icaoId":"SBVH","flightCategory":"VFR","rawOb":"METAR SBVH 251800Z 12007KT 9999 SCT030 BKN073 28/22 Q1013","temp":28,"dewp":22,"wdir":120,"wspd":7,"visib":"6+","altim":1013,"clouds":[{"cover":"SCT","base":3000},{"cover":"BKN","base":7300}],"obsTime":1777140000},"SBAR":{"icaoId":"SBAR","flightCategory":"VFR","rawOb":"METAR SBAR 251800Z 12011KT 9999 FEW015 SCT020 29/23 Q1011","temp":29,"dewp":23,"wdir":120,"wspd":11,"visib":"6+","altim":1011,"clouds":[{"cover":"FEW","base":1500},{"cover":"SCT","base":2000}],"obsTime":1777140000},"SBAX":{"icaoId":"SBAX","flightCategory":"VFR","rawOb":"METAR SBAX 251800Z AUTO VRB03KT CAVOK 28/13 Q1017","temp":28,"dewp":13,"wdir":"VRB","wspd":3,"visib":"6+","altim":1017,"clouds":[],"obsTime":1777140000},"SBBH":{"icaoId":"SBBH","flightCategory":"VFR","rawOb":"METAR SBBH 251800Z 27010KT 9999 FEW048 29/13 Q1016","temp":29,"dewp":13,"wdir":270,"wspd":10,"visib":"6+","altim":1016,"clouds":[{"cover":"FEW","base":4800}],"obsTime":1777140000},"SBBQ":{"icaoId":"SBBQ","flightCategory":"VFR","rawOb":"METAR SBBQ 251800Z 27008KT 220V310 9999 SCT040 26/11 Q1019","temp":26,"dewp":11,"wdir":270,"wspd":8,"visib":"6+","altim":1019,"clouds":[{"cover":"SCT","base":4000}],"obsTime":1777140000},"SBBU":{"icaoId":"SBBU","flightCategory":"VFR","rawOb":"METAR SBBU 251800Z 28010KT 9999 SCT040 31/19 Q1013","temp":31,"dewp":19,"wdir":280,"wspd":10,"visib":"6+","altim":1013,"clouds":[{"cover":"SCT","base":4000}],"obsTime":1777140000},"SBCA":{"icaoId":"SBCA","flightCategory":"VFR","rawOb":"METAR SBCA 251800Z 32008KT 9999 FEW025 27/17 Q1015","temp":27,"dewp":17,"wdir":320,"wspd":8,"visib":"6+","altim":1015,"clouds":[{"cover":"FEW","base":2500}],"obsTime":1777140000},"SBCC":{"icaoId":"SBCC","flightCategory":"VFR","rawOb":"METAR SBCC 251800Z 08007KT 9999 SCT030 FEW035TCU SCT100 31/20 Q1011","temp":31,"dewp":20,"wdir":80,"wspd":7,"visib":"6+","altim":1011,"clouds":[{"cover":"SCT","base":3000},{"cover":"FEW","base":3500},{"cover":"SCT","base":10000}],"obsTime":1777140000},"SBCJ":{"icaoId":"SBCJ","flightCategory":"VFR","rawOb":"METAR SBCJ 251800Z 00000KT 9999 SCT018 FEW020TCU 27/22 Q1013","temp":27,"dewp":22,"wdir":0,"wspd":0,"visib":"6+","altim":1013,"clouds":[{"cover":"SCT","base":1800},{"cover":"FEW","base":2000}],"obsTime":1777140000},"SBCO":{"icaoId":"SBCO","flightCategory":"IFR","rawOb":"METAR SBCO 251800Z 19006KT 4000 -RA BR SCT020 BKN040 21/20 Q1011","temp":21,"dewp":20,"wdir":190,"wspd":6,"visib":2.49,"altim":1011,"clouds":[{"cover":"SCT","base":2000},{"cover":"BKN","base":4000}],"obsTime":1777140000},"SBDN":{"icaoId":"SBDN","flightCategory":"VFR","rawOb":"METAR SBDN 251800Z 30006KT CAVOK 32/17 Q1012","temp":32,"dewp":17,"wdir":300,"wspd":6,"visib":"6+","altim":1012,"clouds":[],"obsTime":1777140000},"SBES":{"icaoId":"SBES","flightCategory":"VFR","rawOb":"METAR SBES 251800Z 06008KT 010V080 9999 FEW025 31/// Q1010","temp":null,"dewp":null,"wdir":60,"wspd":8,"visib":"6+","altim":1010,"clouds":[{"cover":"FEW","base":2500}],"obsTime":1777140000},"SBGM":{"icaoId":"SBGM","flightCategory":"VFR","rawOb":"METAR SBGM 251800Z 34007KT 9999 SCT040 33/22 Q1010","temp":33,"dewp":22,"wdir":340,"wspd":7,"visib":"6+","altim":1010,"clouds":[{"cover":"SCT","base":4000}],"obsTime":1777140000},"SBIP":{"icaoId":"SBIP","flightCategory":"VFR","rawOb":"METAR SBIP 251800Z AUTO 06005KT 350V090 CAVOK 29/19 Q1013","temp":29,"dewp":19,"wdir":60,"wspd":5,"visib":"6+","altim":1013,"clouds":[],"obsTime":1777140000},"SBKG":{"icaoId":"SBKG","flightCategory":"MVFR","rawOb":"METAR SBKG 251800Z 10008KT 9999 BKN025 28/22 Q1012","temp":28,"dewp":22,"wdir":100,"wspd":8,"visib":"6+","altim":1012,"clouds":[{"cover":"BKN","base":2500}],"obsTime":1777140000},"SBOI":{"icaoId":"SBOI","flightCategory":"VFR","rawOb":"METAR SBOI 251800Z AUTO VRB03KT 9999 FEW027 28/25 Q1010","temp":28,"dewp":25,"wdir":"VRB","wspd":3,"visib":"6+","altim":1010,"clouds":[{"cover":"FEW","base":2700}],"obsTime":1777140000},"SBPB":{"icaoId":"SBPB","flightCategory":"VFR","rawOb":"METAR SBPB 251800Z 02006KT 9999 FEW016 BKN090 27/24 Q1010","temp":27,"dewp":24,"wdir":20,"wspd":6,"visib":"6+","altim":1010,"clouds":[{"cover":"FEW","base":1600},{"cover":"BKN","base":9000}],"obsTime":1777140000},"SBPL":{"icaoId":"SBPL","flightCategory":"VFR","rawOb":"METAR SBPL 251800Z 14004KT 9999 FEW022 BKN040 27/22 Q1012","temp":27,"dewp":22,"wdir":140,"wspd":4,"visib":"6+","altim":1012,"clouds":[{"cover":"FEW","base":2200},{"cover":"BKN","base":4000}],"obsTime":1777140000},"SBPP":{"icaoId":"SBPP","flightCategory":"VFR","rawOb":"METAR SBPP 251800Z 31008KT 9999 SCT025 SCT070 30/18 Q1014","temp":30,"dewp":18,"wdir":310,"wspd":8,"visib":"6+","altim":1014,"clouds":[{"cover":"SCT","base":2500},{"cover":"SCT","base":7000}],"obsTime":1777140000},"SBPS":{"icaoId":"SBPS","flightCategory":"VFR","rawOb":"METAR SBPS 251800Z 11005KT 9999 SCT020 28/23 Q1013","temp":28,"dewp":23,"wdir":110,"wspd":5,"visib":"6+","altim":1013,"clouds":[{"cover":"SCT","base":2000}],"obsTime":1777140000},"SBSC":{"icaoId":"SBSC","flightCategory":"VFR","rawOb":"METAR SBSC 251800Z 25004KT 9999 FEW030 34/16 Q1009","temp":34,"dewp":16,"wdir":250,"wspd":4,"visib":"6+","altim":1009,"clouds":[{"cover":"FEW","base":3000}],"obsTime":1777140000},"SBSJ":{"icaoId":"SBSJ","flightCategory":"VFR","rawOb":"METAR SBSJ 251800Z 27010KT 230V300 9999 FEW040 SCT060 30/16 Q1014","temp":30,"dewp":16,"wdir":270,"wspd":10,"visib":"6+","altim":1014,"clouds":[{"cover":"FEW","base":4000},{"cover":"SCT","base":6000}],"obsTime":1777140000},"SBSM":{"icaoId":"SBSM","flightCategory":"MVFR","rawOb":"METAR SBSM 251800Z VRB02KT 9999 FEW020 BKN030 24/20 Q1011","temp":24,"dewp":20,"wdir":"VRB","wspd":2,"visib":"6+","altim":1011,"clouds":[{"cover":"FEW","base":2000},{"cover":"BKN","base":3000}],"obsTime":1777140000},"SBSR":{"icaoId":"SBSR","flightCategory":"VFR","rawOb":"METAR SBSR 251800Z VRB03KT 9999 SCT040 31/14 Q1013","temp":31,"dewp":14,"wdir":"VRB","wspd":3,"visib":"6+","altim":1013,"clouds":[{"cover":"SCT","base":4000}],"obsTime":1777140000},"SBTF":{"icaoId":"SBTF","flightCategory":"VFR","rawOb":"METAR SBTF 251800Z 26006KT 9999 FEW015 BKN090 28/24 Q1010","temp":28,"dewp":24,"wdir":260,"wspd":6,"visib":"6+","altim":1010,"clouds":[{"cover":"FEW","base":1500},{"cover":"BKN","base":9000}],"obsTime":1777140000},"SBTT":{"icaoId":"SBTT","flightCategory":"VFR","rawOb":"METAR SBTT 251800Z 34005KT 9999 SCT016 BKN090 27/23 Q1012","temp":27,"dewp":23,"wdir":340,"wspd":5,"visib":"6+","altim":1012,"clouds":[{"cover":"SCT","base":1600},{"cover":"BKN","base":9000}],"obsTime":1777140000},"SBUY":{"icaoId":"SBUY","flightCategory":"VFR","rawOb":"METAR SBUY 251800Z 34007KT 9999 FEW025 BKN100 29/24 Q1009","temp":29,"dewp":24,"wdir":340,"wspd":7,"visib":"6+","altim":1009,"clouds":[{"cover":"FEW","base":2500},{"cover":"BKN","base":10000}],"obsTime":1777140000},"SBTA":{"icaoId":"SBTA","flightCategory":"VFR","rawOb":"METAR SBTA 251800Z 36004KT 270V080 9999 FEW035 BKN050 30/15 Q1013","temp":30,"dewp":15,"wdir":360,"wspd":4,"visib":"6+","altim":1013,"clouds":[{"cover":"FEW","base":3500},{"cover":"BKN","base":5000}],"obsTime":1777140000},"SBJP":{"icaoId":"SBJP","flightCategory":"VFR","rawOb":"METAR SBJP 251800Z 11013KT 9999 FEW025 30/24 Q1010","temp":30,"dewp":24,"wdir":110,"wspd":13,"visib":"6+","altim":1010,"clouds":[{"cover":"FEW","base":2500}],"obsTime":1777140000},"SBJV":{"icaoId":"SBJV","flightCategory":"VFR","rawOb":"METAR SBJV 251800Z 12006KT CAVOK 30/22 Q1008","temp":30,"dewp":22,"wdir":120,"wspd":6,"visib":"6+","altim":1008,"clouds":[],"obsTime":1777140000},"SBNM":{"icaoId":"SBNM","flightCategory":"MVFR","rawOb":"METAR SBNM 251800Z 26002KT 9999 SCT016 BKN030 23/19 Q1012","temp":23,"dewp":19,"wdir":260,"wspd":2,"visib":"6+","altim":1012,"clouds":[{"cover":"SCT","base":1600},{"cover":"BKN","base":3000}],"obsTime":1777140000},"SBPF":{"icaoId":"SBPF","flightCategory":"MVFR","rawOb":"METAR SBPF 251800Z 26003KT 9999 BKN015 19/16 Q1014","temp":19,"dewp":16,"wdir":260,"wspd":3,"visib":"6+","altim":1014,"clouds":[{"cover":"BKN","base":1500}],"obsTime":1777140000},"SBLE":{"icaoId":"SBLE","flightCategory":"VFR","rawOb":"METAR SBLE 251800Z AUTO 20003KT 150V250 CAVOK 26/23 Q1014","temp":26,"dewp":23,"wdir":200,"wspd":3,"visib":"6+","altim":1014,"clouds":[],"obsTime":1777140000},"SBTC":{"icaoId":"SBTC","flightCategory":"VFR","rawOb":"METAR SBTC 251800Z 14006KT 9999 FEW020 28/23 Q1013","temp":28,"dewp":23,"wdir":140,"wspd":6,"visib":"6+","altim":1013,"clouds":[{"cover":"FEW","base":2000}],"obsTime":1777140000},"SBIH":{"icaoId":"SBIH","flightCategory":"VFR","rawOb":"METAR SBIH 251800Z 11005KT 9999 SCT018 FEW025TCU 33/22 Q1008","temp":33,"dewp":22,"wdir":110,"wspd":5,"visib":"6+","altim":1008,"clouds":[{"cover":"SCT","base":1800},{"cover":"FEW","base":2500}],"obsTime":1777140000},"SBAN":{"icaoId":"SBAN","flightCategory":"VFR","rawOb":"METAR SBAN 251800Z 29005KT 9999 SCT030 28/13 Q1018","temp":28,"dewp":13,"wdir":290,"wspd":5,"visib":"6+","altim":1018,"clouds":[{"cover":"SCT","base":3000}],"obsTime":1777140000},"SBAF":{"icaoId":"SBAF","flightCategory":"VFR","rawOb":"METAR SBAF 251800Z 25005KT 9999 FEW025 33/16 Q1010","temp":33,"dewp":16,"wdir":250,"wspd":5,"visib":"6+","altim":1010,"clouds":[{"cover":"FEW","base":2500}],"obsTime":1777140000},"SBGW":{"icaoId":"SBGW","flightCategory":"VFR","rawOb":"METAR SBGW 251800Z VRB02KT 9999 SCT030 30/14 Q1013","temp":30,"dewp":14,"wdir":"VRB","wspd":2,"visib":"6+","altim":1013,"clouds":[{"cover":"SCT","base":3000}],"obsTime":1777140000},"SBJR":{"icaoId":"SBJR","flightCategory":"VFR","rawOb":"METAR SBJR 251800Z 19004KT 9999 FEW025 33/20 Q1009","temp":33,"dewp":20,"wdir":190,"wspd":4,"visib":"6+","altim":1009,"clouds":[{"cover":"FEW","base":2500}],"obsTime":1777140000},"SBLS":{"icaoId":"SBLS","flightCategory":"VFR","rawOb":"METAR SBLS 251800Z 29004KT 190V340 9999 SCT045 28/14 Q1016","temp":28,"dewp":14,"wdir":290,"wspd":4,"visib":"6+","altim":1016,"clouds":[{"cover":"SCT","base":4500}],"obsTime":1777140000},"SBMT":{"icaoId":"SBMT","flightCategory":"VFR","rawOb":"METAR SBMT 251800Z 28010G24KT 250V340 CAVOK 29/14 Q1014","temp":29,"dewp":14,"wdir":280,"wspd":10,"visib":"6+","altim":1014,"clouds":[],"obsTime":1777140000},"SBST":{"icaoId":"SBST","flightCategory":"VFR","rawOb":"METAR SBST 251800Z 24005KT CAVOK 30/23 Q1008","temp":30,"dewp":23,"wdir":240,"wspd":5,"visib":"6+","altim":1008,"clouds":[],"obsTime":1777140000}}}