{"updated":1784868014,"count":56,"data":{"SBSP":{"icaoId":"SBSP","flightCategory":"IFR","rawOb":"SPECI SBSP 240249Z AUTO 19009KT 9999 BKN007 BKN009 OVC023 14/14 Q1022","temp":14,"dewp":14,"wdir":190,"wspd":9,"visib":"6+","altim":1022,"clouds":[{"cover":"BKN","base":700},{"cover":"BKN","base":900},{"cover":"OVC","base":2300}],"obsTime":1784861340},"SBJU":{"icaoId":"SBJU","flightCategory":"VFR","rawOb":"METAR SBJU 240300Z 11010KT 9999 SCT020 25/19 Q1016","temp":25,"dewp":19,"wdir":110,"wspd":10,"visib":"6+","altim":1016,"clouds":[{"cover":"SCT","base":2000}],"obsTime":1784862000},"SBRF":{"icaoId":"SBRF","flightCategory":"MVFR","rawOb":"METAR SBRF 240300Z 14010KT 9999 BKN018 BKN090 26/23 Q1015","temp":26,"dewp":23,"wdir":140,"wspd":10,"visib":"6+","altim":1015,"clouds":[{"cover":"BKN","base":1800},{"cover":"BKN","base":9000}],"obsTime":1784862000},"SBMG":{"icaoId":"SBMG","flightCategory":"MVFR","rawOb":"METAR SBMG 240300Z COR 05012KT 8000 -RA VCTS FEW040CB BKN080 17/15 Q1016 RETS","temp":17,"dewp":15,"wdir":50,"wspd":12,"visib":4.97,"altim":1016,"clouds":[{"cover":"FEW","base":4000},{"cover":"BKN","base":8000}],"obsTime":1784862000},"SBME":{"icaoId":"SBME","flightCategory":"VFR","rawOb":"METAR SBME 240300Z 22008KT 9999 FEW015 BKN040 BKN100 22/19 Q1017","temp":22,"dewp":19,"wdir":220,"wspd":8,"visib":"6+","altim":1017,"clouds":[{"cover":"FEW","base":1500},{"cover":"BKN","base":4000},{"cover":"BKN","base":10000}],"obsTime":1784862000},"SBMK":{"icaoId":"SBMK","flightCategory":"VFR","rawOb":"METAR SBMK 240300Z 25002KT CAVOK 18/12 Q1017","temp":18,"dewp":12,"wdir":250,"wspd":2,"visib":"6+","altim":1017,"clouds":[],"obsTime":1784862000},"SBUL":{"icaoId":"SBUL","flightCategory":"VFR","rawOb":"METAR SBUL 240300Z 19003KT CAVOK 21/12 Q1019","temp":21,"dewp":12,"wdir":190,"wspd":3,"visib":"6+","altim":1019,"clouds":[],"obsTime":1784862000},"SBUR":{"icaoId":"SBUR","flightCategory":"VFR","rawOb":"METAR SBUR 240300Z 15003KT CAVOK 22/13 Q1018","temp":22,"dewp":13,"wdir":150,"wspd":3,"visib":"6+","altim":1018,"clouds":[],"obsTime":1784862000},"SBMA":{"icaoId":"SBMA","flightCategory":"VFR","rawOb":"METAR SBMA 240300Z 34003KT CAVOK 28/23 Q1012","temp":28,"dewp":23,"wdir":340,"wspd":3,"visib":"6+","altim":1012,"clouds":[],"obsTime":1784862000},"SBBV":{"icaoId":"SBBV","flightCategory":"VFR","rawOb":"METAR SBBV 240300Z 09006KT CAVOK 28/22 Q1012","temp":28,"dewp":22,"wdir":90,"wspd":6,"visib":"6+","altim":1012,"clouds":[],"obsTime":1784862000},"SBSN":{"icaoId":"SBSN","flightCategory":"VFR","rawOb":"METAR SBSN 240300Z 11001KT CAVOK 25/24 Q1012","temp":25,"dewp":24,"wdir":110,"wspd":1,"visib":"6+","altim":1012,"clouds":[],"obsTime":1784862000},"SBPJ":{"icaoId":"SBPJ","flightCategory":"VFR","rawOb":"METAR SBPJ 240300Z 12004KT CAVOK 24/18 Q1013","temp":24,"dewp":18,"wdir":120,"wspd":4,"visib":"6+","altim":1013,"clouds":[],"obsTime":1784862000},"SBFL":{"icaoId":"SBFL","flightCategory":"VFR","rawOb":"METAR SBFL 240300Z 20007KT CAVOK 17/12 Q1020","temp":17,"dewp":12,"wdir":200,"wspd":7,"visib":"6+","altim":1020,"clouds":[],"obsTime":1784862000},"SBFZ":{"icaoId":"SBFZ","flightCategory":"VFR","rawOb":"METAR SBFZ 240300Z 10008KT 9999 SCT019 27/24 Q1014","temp":27,"dewp":24,"wdir":100,"wspd":8,"visib":"6+","altim":1014,"clouds":[{"cover":"SCT","base":1900}],"obsTime":1784862000},"SBSL":{"icaoId":"SBSL","flightCategory":"VFR","rawOb":"METAR SBSL 240300Z 06007KT 030V100 9999 SCT017 27/24 Q1012","temp":27,"dewp":24,"wdir":60,"wspd":7,"visib":"6+","altim":1012,"clouds":[{"cover":"SCT","base":1700}],"obsTime":1784862000},"SBEG":{"icaoId":"SBEG","flightCategory":"VFR","rawOb":"METAR SBEG 240300Z 12003KT CAVOK 27/24 Q1012","temp":27,"dewp":24,"wdir":120,"wspd":3,"visib":"6+","altim":1012,"clouds":[],"obsTime":1784862000},"SBBE":{"icaoId":"SBBE","flightCategory":"VFR","rawOb":"METAR SBBE 240300Z 06010KT 9999 FEW040 26/24 Q1013","temp":26,"dewp":24,"wdir":60,"wspd":10,"visib":"6+","altim":1013,"clouds":[{"cover":"FEW","base":4000}],"obsTime":1784862000},"SBLO":{"icaoId":"SBLO","flightCategory":"MVFR","rawOb":"METAR SBLO 240300Z 16002KT 8000 -TSRA FEW025 FEW040CB OVC090 17/16 Q1018 RERA","temp":17,"dewp":16,"wdir":160,"wspd":2,"visib":4.97,"altim":1018,"clouds":[{"cover":"FEW","base":2500},{"cover":"FEW","base":4000},{"cover":"OVC","base":9000}],"obsTime":1784862000},"SBKP":{"icaoId":"SBKP","flightCategory":"VFR","rawOb":"METAR SBKP 240300Z 15009KT 9999 BKN043 17/14 Q1020","temp":17,"dewp":14,"wdir":150,"wspd":9,"visib":"6+","altim":1020,"clouds":[{"cover":"BKN","base":4300}],"obsTime":1784862000},"SBPV":{"icaoId":"SBPV","flightCategory":"VFR","rawOb":"METAR SBPV 240300Z 00000KT CAVOK 24/21 Q1011","temp":24,"dewp":21,"wdir":0,"wspd":0,"visib":"6+","altim":1011,"clouds":[],"obsTime":1784862000},"SBMQ":{"icaoId":"SBMQ","flightCategory":"VFR","rawOb":"METAR SBMQ 240300Z 01006KT 9999 SCT036 27/25 Q1013","temp":27,"dewp":25,"wdir":10,"wspd":6,"visib":"6+","altim":1013,"clouds":[{"cover":"SCT","base":3600}],"obsTime":1784862000},"SBCT":{"icaoId":"SBCT","flightCategory":"MVFR","rawOb":"METAR SBCT 240300Z 07006KT 9999 FEW011 BKN023 11/10 Q1022","temp":11,"dewp":10,"wdir":70,"wspd":6,"visib":"6+","altim":1022,"clouds":[{"cover":"FEW","base":1100},{"cover":"BKN","base":2300}],"obsTime":1784862000},"SBMO":{"icaoId":"SBMO","flightCategory":"VFR","rawOb":"METAR SBMO 240300Z 31003KT 9999 SCT017 21/21 Q1016","temp":21,"dewp":21,"wdir":310,"wspd":3,"visib":"6+","altim":1016,"clouds":[{"cover":"SCT","base":1700}],"obsTime":1784862000},"SBFI":{"icaoId":"SBFI","flightCategory":"VFR","rawOb":"METAR SBFI 240300Z 01001KT 9999 BCFG NSC 15/15 Q1016","temp":15,"dewp":15,"wdir":10,"wspd":1,"visib":"6+","altim":1016,"clouds":[],"obsTime":1784862000},"SBSG":{"icaoId":"SBSG","flightCategory":"IFR","rawOb":"METAR SBSG 240300Z 18003KT 130V210 5000 -RA BR BKN005 BKN019 BKN070 23/23 Q1015","temp":23,"dewp":23,"wdir":180,"wspd":3,"visib":3.11,"altim":1015,"clouds":[{"cover":"BKN","base":500},{"cover":"BKN","base":1900},{"cover":"BKN","base":7000}],"obsTime":1784862000},"SBRB":{"icaoId":"SBRB","flightCategory":"MVFR","rawOb":"METAR SBRB 240300Z 24005KT 8000 NSC 25/23 Q1013","temp":25,"dewp":23,"wdir":240,"wspd":5,"visib":4.97,"altim":1013,"clouds":[],"obsTime":1784862000},"SBSV":{"icaoId":"SBSV","flightCategory":"VFR","rawOb":"METAR SBSV 240300Z 08010KT 9999 SCT019 25/21 Q1016","temp":25,"dewp":21,"wdir":80,"wspd":10,"visib":"6+","altim":1016,"clouds":[{"cover":"SCT","base":1900}],"obsTime":1784862000},"SBCG":{"icaoId":"SBCG","flightCategory":"VFR","rawOb":"METAR SBCG 240300Z 10005KT CAVOK 21/18 Q1016","temp":21,"dewp":18,"wdir":100,"wspd":5,"visib":"6+","altim":1016,"clouds":[],"obsTime":1784862000},"SBTE":{"icaoId":"SBTE","flightCategory":"VFR","rawOb":"METAR SBTE 240300Z 33005KT CAVOK 28/23 Q1012","temp":28,"dewp":23,"wdir":330,"wspd":5,"visib":"6+","altim":1012,"clouds":[],"obsTime":1784862000},"SBGR":{"icaoId":"SBGR","flightCategory":"MVFR","rawOb":"METAR SBGR 240300Z 12003KT 9999 OVC013 15/13 Q1022","temp":15,"dewp":13,"wdir":120,"wspd":3,"visib":"6+","altim":1022,"clouds":[{"cover":"OVC","base":1300}],"obsTime":1784862000},"SBNT":{"icaoId":"SBNT","flightCategory":"VFR","rawOb":"METAR SBNT 240300Z 17004KT 9999 FEW031 SCT050 BKN066 23/23 Q1014","temp":23,"dewp":23,"wdir":170,"wspd":4,"visib":"6+","altim":1014,"clouds":[{"cover":"FEW","base":3100},{"cover":"SCT","base":5000},{"cover":"BKN","base":6600}],"obsTime":1784862000},"SBBR":{"icaoId":"SBBR","flightCategory":"VFR","rawOb":"METAR SBBR 240300Z 33002KT CAVOK 17/11 Q1020","temp":17,"dewp":11,"wdir":330,"wspd":2,"visib":"6+","altim":1020,"clouds":[],"obsTime":1784862000},"SBGL":{"icaoId":"SBGL","flightCategory":"VFR","rawOb":"METAR SBGL 240300Z 25005KT 9999 FEW045 21/18 Q1018","temp":21,"dewp":18,"wdir":250,"wspd":5,"visib":"6+","altim":1018,"clouds":[{"cover":"FEW","base":4500}],"obsTime":1784862000},"SBGO":{"icaoId":"SBGO","flightCategory":"VFR","rawOb":"METAR SBGO 240300Z 35002KT CAVOK 19/15 Q1017","temp":19,"dewp":15,"wdir":350,"wspd":2,"visib":"6+","altim":1017,"clouds":[],"obsTime":1784862000},"SBCF":{"icaoId":"SBCF","flightCategory":"VFR","rawOb":"METAR SBCF 240300Z 00000KT CAVOK 20/12 Q1019","temp":20,"dewp":12,"wdir":0,"wspd":0,"visib":"6+","altim":1019,"clouds":[],"obsTime":1784862000},"SBPA":{"icaoId":"SBPA","flightCategory":"VFR","rawOb":"METAR SBPA 240300Z 10003KT 070V130 9999 SCT020 14/14 Q1021","temp":14,"dewp":14,"wdir":100,"wspd":3,"visib":"6+","altim":1021,"clouds":[{"cover":"SCT","base":2000}],"obsTime":1784862000},"SBVT":{"icaoId":"SBVT","flightCategory":"VFR","rawOb":"METAR SBVT 240300Z 01007KT 9999 SCT025 23/20 Q1016","temp":23,"dewp":20,"wdir":10,"wspd":7,"visib":"6+","altim":1016,"clouds":[{"cover":"SCT","base":2500}],"obsTime":1784862000},"SBSC":{"icaoId":"SBSC","flightCategory":"VFR","rawOb":"METAR SBSC 240300Z 22005KT 9999 FEW015 BKN033 20/18 Q1018","temp":20,"dewp":18,"wdir":220,"wspd":5,"visib":"6+","altim":1018,"clouds":[{"cover":"FEW","base":1500},{"cover":"BKN","base":3300}],"obsTime":1784862000},"SBSR":{"icaoId":"SBSR","flightCategory":"VFR","rawOb":"METAR SBSR 240300Z 18006KT CAVOK 20/16 Q1017","temp":20,"dewp":16,"wdir":180,"wspd":6,"visib":"6+","altim":1017,"clouds":[],"obsTime":1784862000},"SBAR":{"icaoId":"SBAR","flightCategory":"VFR","rawOb":"METAR SBAR 240300Z 11006KT 9999 SCT022 25/21 Q1016","temp":25,"dewp":21,"wdir":110,"wspd":6,"visib":"6+","altim":1016,"clouds":[{"cover":"SCT","base":2200}],"obsTime":1784862000},"SBPL":{"icaoId":"SBPL","flightCategory":"VFR","rawOb":"METAR SBPL 240300Z 10008KT CAVOK 25/18 Q1016","temp":25,"dewp":18,"wdir":100,"wspd":8,"visib":"6+","altim":1016,"clouds":[],"obsTime":1784862000},"SBKG":{"icaoId":"SBKG","flightCategory":"IFR","rawOb":"METAR SBKG 240300Z 18003KT 9999 BKN009 21/21 Q1017","temp":21,"dewp":21,"wdir":180,"wspd":3,"visib":"6+","altim":1017,"clouds":[{"cover":"BKN","base":900}],"obsTime":1784862000},"SBTU":{"icaoId":"SBTU","flightCategory":"VFR","rawOb":"METAR SBTU 240300Z AUTO 20005KT 9999 // NCD ///// Q1014","temp":null,"dewp":null,"wdir":200,"wspd":5,"visib":"6+","altim":1014,"clouds":[],"obsTime":1784862000},"SBDN":{"icaoId":"SBDN","flightCategory":"MVFR","rawOb":"METAR SBDN 240300Z 14007KT 5000 TSRA SCT045 FEW060CB BKN070 18/15 Q1018","temp":18,"dewp":15,"wdir":140,"wspd":7,"visib":3.11,"altim":1018,"clouds":[{"cover":"SCT","base":4500},{"cover":"FEW","base":6000},{"cover":"BKN","base":7000}],"obsTime":1784862000},"SBPS":{"icaoId":"SBPS","flightCategory":"VFR","rawOb":"METAR SBPS 240300Z 27003KT 250V310 9999 FEW025 21/20 Q1017","temp":21,"dewp":20,"wdir":270,"wspd":3,"visib":"6+","altim":1017,"clouds":[{"cover":"FEW","base":2500}],"obsTime":1784862000},"SBIP":{"icaoId":"SBIP","flightCategory":"VFR","rawOb":"METAR SBIP 240300Z AUTO 00000KT CAVOK 17/17 Q1016","temp":17,"dewp":17,"wdir":0,"wspd":0,"visib":"6+","altim":1016,"clouds":[],"obsTime":1784862000},"SBOI":{"icaoId":"SBOI","flightCategory":"VFR","rawOb":"METAR SBOI 240300Z AUTO 00000KT CAVOK 25/23 Q1014","temp":25,"dewp":23,"wdir":0,"wspd":0,"visib":"6+","altim":1014,"clouds":[],"obsTime":1784862000},"SBCO":{"icaoId":"SBCO","flightCategory":"VFR","rawOb":"METAR SBCO 240300Z 00000KT 9000 FEW026 12/12 Q1021","temp":12,"dewp":12,"wdir":0,"wspd":0,"visib":5.59,"altim":1021,"clouds":[{"cover":"FEW","base":2600}],"obsTime":1784862000},"SBSM":{"icaoId":"SBSM","flightCategory":"MVFR","rawOb":"METAR SBSM 240300Z 10010KT 9999 SCT013 BKN026 15/13 Q1019","temp":15,"dewp":13,"wdir":100,"wspd":10,"visib":"6+","altim":1019,"clouds":[{"cover":"SCT","base":1300},{"cover":"BKN","base":2600}],"obsTime":1784862000},"SBCJ":{"icaoId":"SBCJ","flightCategory":"VFR","rawOb":"SPECI SBCJ 240245Z 04003KT CAVOK 25/20 Q1016","temp":25,"dewp":20,"wdir":40,"wspd":3,"visib":"6+","altim":1016,"clouds":[],"obsTime":1784861100},"SBJP":{"icaoId":"SBJP","flightCategory":"VFR","rawOb":"METAR SBJP 240300Z 15004KT 9999 FEW025 OVC070 24/23 Q1015","temp":24,"dewp":23,"wdir":150,"wspd":4,"visib":"6+","altim":1015,"clouds":[{"cover":"FEW","base":2500},{"cover":"OVC","base":7000}],"obsTime":1784862000},"SBAN":{"icaoId":"SBAN","flightCategory":"VFR","rawOb":"METAR SBAN 240300Z 16003KT CAVOK 20/10 Q1020","temp":20,"dewp":10,"wdir":160,"wspd":3,"visib":"6+","altim":1020,"clouds":[],"obsTime":1784862000},"SBNM":{"icaoId":"SBNM","flightCategory":"VFR","rawOb":"METAR SBNM 240300Z AUTO 10009KT CAVOK 11/10 Q1018","temp":11,"dewp":10,"wdir":100,"wspd":9,"visib":"6+","altim":1018,"clouds":[],"obsTime":1784862000},"SBLE":{"icaoId":"SBLE","flightCategory":"MVFR","rawOb":"METAR SBLE 240300Z AUTO 19003KT 9999 BKN018 BKN028 ///// Q1019","temp":null,"dewp":null,"wdir":190,"wspd":3,"visib":"6+","altim":1019,"clouds":[{"cover":"BKN","base":1800},{"cover":"BKN","base":2800}],"obsTime":1784862000},"SBPF":{"icaoId":"SBPF","flightCategory":"VFR","rawOb":"METAR SBPF 240300Z 12010KT CAVOK 11/10 Q1019","temp":11,"dewp":10,"wdir":120,"wspd":10,"visib":"6+","altim":1019,"clouds":[],"obsTime":1784862000},"SBTA":{"icaoId":"SBTA","flightCategory":"MVFR","rawOb":"METAR SBTA 240300Z 22006KT 9999 OVC027 18/14 Q1019","temp":18,"dewp":14,"wdir":220,"wspd":6,"visib":"6+","altim":1019,"clouds":[{"cover":"OVC","base":2700}],"obsTime":1784862000}}}