{"updated":1779364731,"count":83,"data":{"SBSN":{"icaoId":"SBSN","flightCategory":"MVFR","rawOb":"METAR SBSN 211000Z 13002KT 6000 -RA BKN015 FEW030TCU BKN080 25/25 Q1012","temp":25,"dewp":25,"wdir":130,"wspd":2,"visib":3.73,"altim":1012,"clouds":[{"cover":"BKN","base":1500},{"cover":"FEW","base":3000},{"cover":"BKN","base":8000}],"obsTime":1779357600},"SBBV":{"icaoId":"SBBV","flightCategory":"MVFR","rawOb":"METAR SBBV 211000Z 20003KT 5000 -RA SCT004 BKN015 FEW035TCU 24/24 Q1014","temp":24,"dewp":24,"wdir":200,"wspd":3,"visib":3.11,"altim":1014,"clouds":[{"cover":"SCT","base":400},{"cover":"BKN","base":1500},{"cover":"FEW","base":3500}],"obsTime":1779357600},"SBBR":{"icaoId":"SBBR","flightCategory":"VFR","rawOb":"METAR SBBR 211000Z 11005KT 060V150 9999 FEW008 19/17 Q1022","temp":19,"dewp":17,"wdir":110,"wspd":5,"visib":"6+","altim":1022,"clouds":[{"cover":"FEW","base":800}],"obsTime":1779357600},"SBRB":{"icaoId":"SBRB","flightCategory":"MVFR","rawOb":"METAR SBRB 211000Z 17004KT 8000 SCT020 BKN045 20/18 Q1018","temp":20,"dewp":18,"wdir":170,"wspd":4,"visib":4.97,"altim":1018,"clouds":[{"cover":"SCT","base":2000},{"cover":"BKN","base":4500}],"obsTime":1779357600},"SBBE":{"icaoId":"SBBE","flightCategory":"VFR","rawOb":"METAR SBBE 211000Z 00000KT CAVOK 24/24 Q1012","temp":24,"dewp":24,"wdir":0,"wspd":0,"visib":"6+","altim":1012,"clouds":[],"obsTime":1779357600},"SBCB":{"icaoId":"SBCB","flightCategory":"MVFR","rawOb":"METAR SBCB 211000Z 31006KT 9999 -DZ FEW005 BKN025 OVC040 21/19 Q1020","temp":21,"dewp":19,"wdir":310,"wspd":6,"visib":"6+","altim":1020,"clouds":[{"cover":"FEW","base":500},{"cover":"BKN","base":2500},{"cover":"OVC","base":4000}],"obsTime":1779357600},"SBCF":{"icaoId":"SBCF","flightCategory":"VFR","rawOb":"METAR SBCF 211000Z 18003KT CAVOK 17/16 Q1022","temp":17,"dewp":16,"wdir":180,"wspd":3,"visib":"6+","altim":1022,"clouds":[],"obsTime":1779357600},"SBCG":{"icaoId":"SBCG","flightCategory":"MVFR","rawOb":"METAR SBCG 211000Z 14010KT 9999 BKN030 14/10 Q1022","temp":14,"dewp":10,"wdir":140,"wspd":10,"visib":"6+","altim":1022,"clouds":[{"cover":"BKN","base":3000}],"obsTime":1779357600},"SBCP":{"icaoId":"SBCP","flightCategory":"VFR","rawOb":"METAR SBCP 211000Z 27005KT 9999 SCT015 BKN090 21/20 Q1019","temp":21,"dewp":20,"wdir":270,"wspd":5,"visib":"6+","altim":1019,"clouds":[{"cover":"SCT","base":1500},{"cover":"BKN","base":9000}],"obsTime":1779357600},"SBCR":{"icaoId":"SBCR","flightCategory":"VFR","rawOb":"METAR SBCR 211100Z 23008KT 200V270 9999 OVC045 15/12 Q1022","temp":15,"dewp":12,"wdir":230,"wspd":8,"visib":"6+","altim":1022,"clouds":[{"cover":"OVC","base":4500}],"obsTime":1779361200},"SBCT":{"icaoId":"SBCT","flightCategory":"LIFR","rawOb":"METAR SBCT 211000Z 18003KT 100V220 4000 BR BKN002 OVC006 11/11 Q1024","temp":11,"dewp":11,"wdir":180,"wspd":3,"visib":2.49,"altim":1024,"clouds":[{"cover":"BKN","base":200},{"cover":"OVC","base":600}],"obsTime":1779357600},"SBEG":{"icaoId":"SBEG","flightCategory":"IFR","rawOb":"METAR SBEG 211000Z 18004KT 9999 BKN005 BKN080 25/24 Q1013","temp":25,"dewp":24,"wdir":180,"wspd":4,"visib":"6+","altim":1013,"clouds":[{"cover":"BKN","base":500},{"cover":"BKN","base":8000}],"obsTime":1779357600},"SBFI":{"icaoId":"SBFI","flightCategory":"VFR","rawOb":"METAR SBFI 211000Z 16005KT 9999 BCFG NSC 05/05 Q1023","temp":5,"dewp":5,"wdir":160,"wspd":5,"visib":"6+","altim":1023,"clouds":[],"obsTime":1779357600},"SBFL":{"icaoId":"SBFL","flightCategory":"VFR","rawOb":"METAR SBFL 211000Z 16004KT 110V190 CAVOK 14/07 Q1024","temp":14,"dewp":7,"wdir":160,"wspd":4,"visib":"6+","altim":1024,"clouds":[],"obsTime":1779357600},"SBFZ":{"icaoId":"SBFZ","flightCategory":"VFR","rawOb":"METAR SBFZ 211000Z 16009KT 9999 FEW017 26/23 Q1013","temp":26,"dewp":23,"wdir":160,"wspd":9,"visib":"6+","altim":1013,"clouds":[{"cover":"FEW","base":1700}],"obsTime":1779357600},"SBGL":{"icaoId":"SBGL","flightCategory":"MVFR","rawOb":"METAR SBGL 211000Z 21004KT 9999 FEW010 SCT017 BKN030 20/18 Q1020","temp":20,"dewp":18,"wdir":210,"wspd":4,"visib":"6+","altim":1020,"clouds":[{"cover":"FEW","base":1000},{"cover":"SCT","base":1700},{"cover":"BKN","base":3000}],"obsTime":1779357600},"SBGO":{"icaoId":"SBGO","flightCategory":"MVFR","rawOb":"METAR SBGO 211000Z 13005KT 5000 BR FEW030 19/19 Q1021","temp":19,"dewp":19,"wdir":130,"wspd":5,"visib":3.11,"altim":1021,"clouds":[{"cover":"FEW","base":3000}],"obsTime":1779357600},"SBGR":{"icaoId":"SBGR","flightCategory":"VFR","rawOb":"METAR SBGR 211000Z 15002KT 9999 FEW021 14/13 Q1023","temp":14,"dewp":13,"wdir":150,"wspd":2,"visib":"6+","altim":1023,"clouds":[{"cover":"FEW","base":2100}],"obsTime":1779357600},"SBHT":{"icaoId":"SBHT","flightCategory":"VFR","rawOb":"METAR SBHT 211000Z 00000KT 9999 FEW010 BKN080 25/24 Q1013","temp":25,"dewp":24,"wdir":0,"wspd":0,"visib":"6+","altim":1013,"clouds":[{"cover":"FEW","base":1000},{"cover":"BKN","base":8000}],"obsTime":1779357600},"SBIL":{"icaoId":"SBIL","flightCategory":"MVFR","rawOb":"METAR SBIL 211000Z 29003KT 9999 BKN020 23/23 Q1018","temp":23,"dewp":23,"wdir":290,"wspd":3,"visib":"6+","altim":1018,"clouds":[{"cover":"BKN","base":2000}],"obsTime":1779357600},"SBJU":{"icaoId":"SBJU","flightCategory":"VFR","rawOb":"METAR SBJU 211000Z 00000KT CAVOK 24/20 Q1017","temp":24,"dewp":20,"wdir":0,"wspd":0,"visib":"6+","altim":1017,"clouds":[],"obsTime":1779357600},"SBKP":{"icaoId":"SBKP","flightCategory":"VFR","rawOb":"METAR SBKP 211000Z 12007KT CAVOK 15/13 Q1022","temp":15,"dewp":13,"wdir":120,"wspd":7,"visib":"6+","altim":1022,"clouds":[],"obsTime":1779357600},"SBLO":{"icaoId":"SBLO","flightCategory":"VFR","rawOb":"METAR SBLO 211000Z 18003KT CAVOK 14/12 Q1021","temp":14,"dewp":12,"wdir":180,"wspd":3,"visib":"6+","altim":1021,"clouds":[],"obsTime":1779357600},"SBMA":{"icaoId":"SBMA","flightCategory":"VFR","rawOb":"METAR SBMA 211000Z 00000KT CAVOK 26/25 Q1013","temp":26,"dewp":25,"wdir":0,"wspd":0,"visib":"6+","altim":1013,"clouds":[],"obsTime":1779357600},"SBME":{"icaoId":"SBME","flightCategory":"MVFR","rawOb":"METAR SBME 211000Z 28004KT 7000 FEW006 BKN019 OVC070 20/19 Q1020","temp":20,"dewp":19,"wdir":280,"wspd":4,"visib":4.35,"altim":1020,"clouds":[{"cover":"FEW","base":600},{"cover":"BKN","base":1900},{"cover":"OVC","base":7000}],"obsTime":1779357600},"SBMG":{"icaoId":"SBMG","flightCategory":"VFR","rawOb":"METAR SBMG 211000Z 15007KT 9999 BCFG NSC 10/09 Q1020","temp":10,"dewp":9,"wdir":150,"wspd":7,"visib":"6+","altim":1020,"clouds":[],"obsTime":1779357600},"SBMK":{"icaoId":"SBMK","flightCategory":"VFR","rawOb":"METAR SBMK 211000Z 00000KT 9999 FEW030 19/17 Q1020","temp":19,"dewp":17,"wdir":0,"wspd":0,"visib":"6+","altim":1020,"clouds":[{"cover":"FEW","base":3000}],"obsTime":1779357600},"SBMO":{"icaoId":"SBMO","flightCategory":"VFR","rawOb":"METAR SBMO 211000Z 31003KT 9999 VCSH FEW008 SCT020 BKN050 24/23 Q1016 RERA","temp":24,"dewp":23,"wdir":310,"wspd":3,"visib":"6+","altim":1016,"clouds":[{"cover":"FEW","base":800},{"cover":"SCT","base":2000},{"cover":"BKN","base":5000}],"obsTime":1779357600},"SBMQ":{"icaoId":"SBMQ","flightCategory":"IFR","rawOb":"METAR SBMQ 211000Z 26002KT 3000 -RA BR SCT005 BKN009 26/25 Q1013","temp":26,"dewp":25,"wdir":260,"wspd":2,"visib":1.86,"altim":1013,"clouds":[{"cover":"SCT","base":500},{"cover":"BKN","base":900}],"obsTime":1779357600},"SBNT":{"icaoId":"SBNT","flightCategory":"VFR","rawOb":"METAR SBNT 211000Z 18007KT 9999 FEW020 25/23 Q1014","temp":25,"dewp":23,"wdir":180,"wspd":7,"visib":"6+","altim":1014,"clouds":[{"cover":"FEW","base":2000}],"obsTime":1779357600},"SBPA":{"icaoId":"SBPA","flightCategory":"VFR","rawOb":"METAR SBPA 211000Z 23006KT 9999 FEW045 10/06 Q1026","temp":10,"dewp":6,"wdir":230,"wspd":6,"visib":"6+","altim":1026,"clouds":[{"cover":"FEW","base":4500}],"obsTime":1779357600},"SBPJ":{"icaoId":"SBPJ","flightCategory":"VFR","rawOb":"METAR SBPJ 211000Z 18004KT 150V210 CAVOK 23/19 Q1014","temp":23,"dewp":19,"wdir":180,"wspd":4,"visib":"6+","altim":1014,"clouds":[],"obsTime":1779357600},"SBPV":{"icaoId":"SBPV","flightCategory":"MVFR","rawOb":"METAR SBPV 211000Z 19003KT 9999 FEW008 BKN020 22/20 Q1014","temp":22,"dewp":20,"wdir":190,"wspd":3,"visib":"6+","altim":1014,"clouds":[{"cover":"FEW","base":800},{"cover":"BKN","base":2000}],"obsTime":1779357600},"SBAT":{"icaoId":"SBAT","flightCategory":"VFR","rawOb":"METAR SBAT 211100Z 19004KT 9999 FEW010 22/22 Q1016","temp":22,"dewp":22,"wdir":190,"wspd":4,"visib":"6+","altim":1016,"clouds":[{"cover":"FEW","base":1000}],"obsTime":1779361200},"SBRF":{"icaoId":"SBRF","flightCategory":"VFR","rawOb":"METAR SBRF 211000Z 20005KT 9999 FEW025 SCT060 25/23 Q1015","temp":25,"dewp":23,"wdir":200,"wspd":5,"visib":"6+","altim":1015,"clouds":[{"cover":"FEW","base":2500},{"cover":"SCT","base":6000}],"obsTime":1779357600},"SBSG":{"icaoId":"SBSG","flightCategory":"VFR","rawOb":"METAR SBSG 211000Z 18005KT 140V220 9999 FEW023 24/23 Q1014","temp":24,"dewp":23,"wdir":180,"wspd":5,"visib":"6+","altim":1014,"clouds":[{"cover":"FEW","base":2300}],"obsTime":1779357600},"SBSL":{"icaoId":"SBSL","flightCategory":"VFR","rawOb":"METAR SBSL 211000Z 11005KT CAVOK 27/25 Q1012","temp":27,"dewp":25,"wdir":110,"wspd":5,"visib":"6+","altim":1012,"clouds":[],"obsTime":1779357600},"SBSP":{"icaoId":"SBSP","flightCategory":"MVFR","rawOb":"METAR SBSP 211000Z 18006KT 140V210 9999 SCT009 BKN024 15/14 Q1024","temp":15,"dewp":14,"wdir":180,"wspd":6,"visib":"6+","altim":1024,"clouds":[{"cover":"SCT","base":900},{"cover":"BKN","base":2400}],"obsTime":1779357600},"SBSV":{"icaoId":"SBSV","flightCategory":"VFR","rawOb":"METAR SBSV 211000Z 16007KT 9999 SCT023 27/21 Q1016","temp":27,"dewp":21,"wdir":160,"wspd":7,"visib":"6+","altim":1016,"clouds":[{"cover":"SCT","base":2300}],"obsTime":1779357600},"SBTE":{"icaoId":"SBTE","flightCategory":"VFR","rawOb":"METAR SBTE 211000Z 14004KT 9999 FEW020 26/23 Q1013","temp":26,"dewp":23,"wdir":140,"wspd":4,"visib":"6+","altim":1013,"clouds":[{"cover":"FEW","base":2000}],"obsTime":1779357600},"SBUL":{"icaoId":"SBUL","flightCategory":"MVFR","rawOb":"METAR SBUL 211000Z 21006KT 5000 1400S BR SCT003 16/16 Q1022","temp":16,"dewp":16,"wdir":210,"wspd":6,"visib":3.11,"altim":1022,"clouds":[{"cover":"SCT","base":300}],"obsTime":1779357600},"SBUR":{"icaoId":"SBUR","flightCategory":"MVFR","rawOb":"METAR SBUR 211000Z 31002KT 5000 BR NSC 16/15 Q1022","temp":16,"dewp":15,"wdir":310,"wspd":2,"visib":3.11,"altim":1022,"clouds":[],"obsTime":1779357600},"SBVT":{"icaoId":"SBVT","flightCategory":"VFR","rawOb":"METAR SBVT 211000Z 20004KT 9999 FEW028 BKN070 21/20 Q1019","temp":21,"dewp":20,"wdir":200,"wspd":4,"visib":"6+","altim":1019,"clouds":[{"cover":"FEW","base":2800},{"cover":"BKN","base":7000}],"obsTime":1779357600},"SBAR":{"icaoId":"SBAR","flightCategory":"LIFR","rawOb":"METAR SBAR 211000Z 19005KT 160V220 1600 RA BR BKN005 OVC012 23/23 Q1016","temp":23,"dewp":23,"wdir":190,"wspd":5,"visib":0.99,"altim":1016,"clouds":[{"cover":"BKN","base":500},{"cover":"OVC","base":1200}],"obsTime":1779357600},"SBTF":{"icaoId":"SBTF","flightCategory":"VFR","rawOb":"SPECI SBTF 211115Z 17005KT 9999 FEW006 SCT010 BKN090 23/23 Q1014","temp":23,"dewp":23,"wdir":170,"wspd":5,"visib":"6+","altim":1014,"clouds":[{"cover":"FEW","base":600},{"cover":"SCT","base":1000},{"cover":"BKN","base":9000}],"obsTime":1779362100},"SBPP":{"icaoId":"SBPP","flightCategory":"VFR","rawOb":"SPECI SBPP 211115Z 17004KT CAVOK 10/05 Q1024","temp":10,"dewp":5,"wdir":170,"wspd":4,"visib":"6+","altim":1024,"clouds":[],"obsTime":1779362100},"SBOI":{"icaoId":"SBOI","flightCategory":"LIFR","rawOb":"METAR SBOI 211000Z AUTO 29001KT 1000 // VV001 24/24 Q1013","temp":24,"dewp":24,"wdir":290,"wspd":1,"visib":0.62,"altim":1013,"clouds":[{"cover":"OVX","base":100}],"obsTime":1779357600},"SBCA":{"icaoId":"SBCA","flightCategory":"VFR","rawOb":"METAR SBCA 211000Z 18009KT CAVOK 05/04 Q1023","temp":5,"dewp":4,"wdir":180,"wspd":9,"visib":"6+","altim":1023,"clouds":[],"obsTime":1779357600},"SBVH":{"icaoId":"SBVH","flightCategory":"LIFR","rawOb":"METAR SBVH 211100Z 16011KT 0900 FG OVC005 16/16 Q1020","temp":16,"dewp":16,"wdir":160,"wspd":11,"visib":0.56,"altim":1020,"clouds":[{"cover":"OVC","base":500}],"obsTime":1779361200},"SBAX":{"icaoId":"SBAX","flightCategory":"VFR","rawOb":"METAR SBAX 211000Z 08004KT CAVOK 15/14 Q1022","temp":15,"dewp":14,"wdir":80,"wspd":4,"visib":"6+","altim":1022,"clouds":[],"obsTime":1779357600},"SBBH":{"icaoId":"SBBH","flightCategory":"VFR","rawOb":"METAR SBBH 211100Z 10006KT CAVOK 20/16 Q1022","temp":20,"dewp":16,"wdir":100,"wspd":6,"visib":"6+","altim":1022,"clouds":[],"obsTime":1779361200},"SBBU":{"icaoId":"SBBU","flightCategory":"MVFR","rawOb":"METAR SBBU 211000Z 16002KT 5000 BR FEW020 16/16 Q1022","temp":16,"dewp":16,"wdir":160,"wspd":2,"visib":3.11,"altim":1022,"clouds":[{"cover":"FEW","base":2000}],"obsTime":1779357600},"SBCC":{"icaoId":"SBCC","flightCategory":"LIFR","rawOb":"METAR SBCC 211100Z 14007KT 1200 R12/P2000 BR OVC002 21/21 Q1017","temp":21,"dewp":21,"wdir":140,"wspd":7,"visib":0.75,"altim":1017,"clouds":[{"cover":"OVC","base":200}],"obsTime":1779361200},"SBCJ":{"icaoId":"SBCJ","flightCategory":"VFR","rawOb":"SPECI SBCJ 211015Z 00000KT 9999 FEW030 23/21 Q1018","temp":23,"dewp":21,"wdir":0,"wspd":0,"visib":"6+","altim":1018,"clouds":[{"cover":"FEW","base":3000}],"obsTime":1779358500},"SBCO":{"icaoId":"SBCO","flightCategory":"VFR","rawOb":"METAR SBCO 211000Z 30003KT 9999 FEW045 08/06 Q1026","temp":8,"dewp":6,"wdir":300,"wspd":3,"visib":"6+","altim":1026,"clouds":[{"cover":"FEW","base":4500}],"obsTime":1779357600},"SBDN":{"icaoId":"SBDN","flightCategory":"VFR","rawOb":"METAR SBDN 211000Z 00000KT CAVOK 14/13 Q1021","temp":14,"dewp":13,"wdir":0,"wspd":0,"visib":"6+","altim":1021,"clouds":[],"obsTime":1779357600},"SBES":{"icaoId":"SBES","flightCategory":"MVFR","rawOb":"METAR SBES 211000Z VRB03KT 9999 FEW005 BKN030 19/// Q1020","temp":null,"dewp":null,"wdir":"VRB","wspd":3,"visib":"6+","altim":1020,"clouds":[{"cover":"FEW","base":500},{"cover":"BKN","base":3000}],"obsTime":1779357600},"SBKG":{"icaoId":"SBKG","flightCategory":"VFR","rawOb":"METAR SBKG 211000Z 20002KT 9999 SCT015 22/21 Q1018","temp":22,"dewp":21,"wdir":200,"wspd":2,"visib":"6+","altim":1018,"clouds":[{"cover":"SCT","base":1500}],"obsTime":1779357600},"SBPB":{"icaoId":"SBPB","flightCategory":"VFR","rawOb":"SPECI SBPB 211015Z 08004KT CAVOK 27/23 Q1013","temp":27,"dewp":23,"wdir":80,"wspd":4,"visib":"6+","altim":1013,"clouds":[],"obsTime":1779358500},"SBPL":{"icaoId":"SBPL","flightCategory":"VFR","rawOb":"METAR SBPL 211000Z 13006KT CAVOK 24/20 Q1017","temp":24,"dewp":20,"wdir":130,"wspd":6,"visib":"6+","altim":1017,"clouds":[],"obsTime":1779357600},"SBPS":{"icaoId":"SBPS","flightCategory":"VFR","rawOb":"METAR SBPS 211000Z 26004KT 9999 FEW020 22/22 Q1018","temp":22,"dewp":22,"wdir":260,"wspd":4,"visib":"6+","altim":1018,"clouds":[{"cover":"FEW","base":2000}],"obsTime":1779357600},"SBSC":{"icaoId":"SBSC","flightCategory":"VFR","rawOb":"METAR SBSC 211000Z 00000KT 9999 FEW008 SCT025 BKN055 20/19 Q1021","temp":20,"dewp":19,"wdir":0,"wspd":0,"visib":"6+","altim":1021,"clouds":[{"cover":"FEW","base":800},{"cover":"SCT","base":2500},{"cover":"BKN","base":5500}],"obsTime":1779357600},"SBSJ":{"icaoId":"SBSJ","flightCategory":"VFR","rawOb":"METAR SBSJ 211000Z 19002KT 9999 SCT033 14/13 Q1023","temp":14,"dewp":13,"wdir":190,"wspd":2,"visib":"6+","altim":1023,"clouds":[{"cover":"SCT","base":3300}],"obsTime":1779357600},"SBSM":{"icaoId":"SBSM","flightCategory":"MVFR","rawOb":"METAR SBSM 211000Z 00000KT 9999 BKN030 06/06 Q1027","temp":6,"dewp":6,"wdir":0,"wspd":0,"visib":"6+","altim":1027,"clouds":[{"cover":"BKN","base":3000}],"obsTime":1779357600},"SBSR":{"icaoId":"SBSR","flightCategory":"MVFR","rawOb":"METAR SBSR 211000Z 21004KT 180V270 5000 BR SCT008 BKN030 17/17 Q1021","temp":17,"dewp":17,"wdir":210,"wspd":4,"visib":3.11,"altim":1021,"clouds":[{"cover":"SCT","base":800},{"cover":"BKN","base":3000}],"obsTime":1779357600},"SBTD":{"icaoId":"SBTD","flightCategory":"VFR","rawOb":"METAR SBTD 211100Z /////KT CAVOK 09/05 Q1023","temp":9,"dewp":5,"wdir":null,"wspd":null,"visib":"6+","altim":1023,"clouds":[],"obsTime":1779361200},"SBTT":{"icaoId":"SBTT","flightCategory":"IFR","rawOb":"METAR SBTT 211000Z 19008KT 8000 BKN008 OVC014 21/19 Q1015","temp":21,"dewp":19,"wdir":190,"wspd":8,"visib":4.97,"altim":1015,"clouds":[{"cover":"BKN","base":800},{"cover":"OVC","base":1400}],"obsTime":1779357600},"SBTU":{"icaoId":"SBTU","flightCategory":"VFR","rawOb":"METAR SBTU 211100Z AUTO 22005KT 9999 // FEW005/// BKN100/// 26/25 Q1015","temp":26,"dewp":25,"wdir":220,"wspd":5,"visib":"6+","altim":1015,"clouds":[{"cover":"FEW","base":500},{"cover":"BKN","base":10000}],"obsTime":1779361200},"SBUY":{"icaoId":"SBUY","flightCategory":"IFR","rawOb":"METAR SBUY 211100Z 21002KT 4000 BR BKN006 21/21 Q1014","temp":21,"dewp":21,"wdir":210,"wspd":2,"visib":2.49,"altim":1014,"clouds":[{"cover":"BKN","base":600}],"obsTime":1779361200},"SBIH":{"icaoId":"SBIH","flightCategory":"MVFR","rawOb":"METAR SBIH 211100Z 27003KT 7000 -RA SCT006 FEW025TCU OVC100 23/23 Q1013","temp":23,"dewp":23,"wdir":270,"wspd":3,"visib":4.35,"altim":1013,"clouds":[{"cover":"SCT","base":600},{"cover":"FEW","base":2500},{"cover":"OVC","base":10000}],"obsTime":1779361200},"SBJV":{"icaoId":"SBJV","flightCategory":"VFR","rawOb":"METAR SBJV 211000Z 19002KT 9999 FEW015 12/12 Q1024","temp":12,"dewp":12,"wdir":190,"wspd":2,"visib":"6+","altim":1024,"clouds":[{"cover":"FEW","base":1500}],"obsTime":1779357600},"SBNM":{"icaoId":"SBNM","flightCategory":"VFR","rawOb":"METAR SBNM 211000Z AUTO VRB02KT CAVOK 04/03 Q1025","temp":4,"dewp":3,"wdir":"VRB","wspd":2,"visib":"6+","altim":1025,"clouds":[],"obsTime":1779357600},"SBPF":{"icaoId":"SBPF","flightCategory":"VFR","rawOb":"METAR SBPF 211000Z 15007KT CAVOK 05/03 Q1025","temp":5,"dewp":3,"wdir":150,"wspd":7,"visib":"6+","altim":1025,"clouds":[],"obsTime":1779357600},"SBAF":{"icaoId":"SBAF","flightCategory":"MVFR","rawOb":"METAR SBAF 211000Z 08001KT 8000 SCT007 BKN020 OVC040 20/20 Q1021","temp":20,"dewp":20,"wdir":80,"wspd":1,"visib":4.97,"altim":1021,"clouds":[{"cover":"SCT","base":700},{"cover":"BKN","base":2000},{"cover":"OVC","base":4000}],"obsTime":1779357600},"SBGW":{"icaoId":"SBGW","flightCategory":"MVFR","rawOb":"METAR SBGW 211000Z 23003KT 200V270 5000 HZ BKN013 BKN020 17/13 Q1022","temp":17,"dewp":13,"wdir":230,"wspd":3,"visib":3.11,"altim":1022,"clouds":[{"cover":"BKN","base":1300},{"cover":"BKN","base":2000}],"obsTime":1779357600},"SBJR":{"icaoId":"SBJR","flightCategory":"VFR","rawOb":"METAR SBJR 211000Z 02001KT 9999 FEW007 SCT020 BKN040 20/19 Q1020","temp":20,"dewp":19,"wdir":20,"wspd":1,"visib":"6+","altim":1020,"clouds":[{"cover":"FEW","base":700},{"cover":"SCT","base":2000},{"cover":"BKN","base":4000}],"obsTime":1779357600},"SBLS":{"icaoId":"SBLS","flightCategory":"VFR","rawOb":"METAR SBLS 211000Z 18008KT CAVOK 18/16 Q1021","temp":18,"dewp":16,"wdir":180,"wspd":8,"visib":"6+","altim":1021,"clouds":[],"obsTime":1779357600},"SBMT":{"icaoId":"SBMT","flightCategory":"MVFR","rawOb":"METAR SBMT 211000Z 14003KT 100V160 9999 SCT015 BKN019 15/13 Q1023","temp":15,"dewp":13,"wdir":140,"wspd":3,"visib":"6+","altim":1023,"clouds":[{"cover":"SCT","base":1500},{"cover":"BKN","base":1900}],"obsTime":1779357600},"SBST":{"icaoId":"SBST","flightCategory":"LIFR","rawOb":"METAR SBST 211100Z 07002KT 1500 RA BR OVC010 18/18 Q1023","temp":18,"dewp":18,"wdir":70,"wspd":2,"visib":0.93,"altim":1023,"clouds":[{"cover":"OVC","base":1000}],"obsTime":1779361200},"SBTA":{"icaoId":"SBTA","flightCategory":"MVFR","rawOb":"METAR SBTA 211000Z VRB01KT 9999 FEW015 BKN030 16/16 Q1022","temp":16,"dewp":16,"wdir":"VRB","wspd":1,"visib":"6+","altim":1022,"clouds":[{"cover":"FEW","base":1500},{"cover":"BKN","base":3000}],"obsTime":1779357600},"SBLE":{"icaoId":"SBLE","flightCategory":"LIFR","rawOb":"METAR SBLE 211000Z AUTO 17003KT 140V210 4600 -RA OVC002 ///// Q////","temp":null,"dewp":null,"wdir":170,"wspd":3,"visib":2.86,"altim":null,"clouds":[{"cover":"OVC","base":200}],"obsTime":1779357600},"SBAN":{"icaoId":"SBAN","flightCategory":"LIFR","rawOb":"METAR SBAN 211000Z 20008KT 0100 R24R/1400 R06L/P2000 FG BKN002 18/18 Q1022","temp":18,"dewp":18,"wdir":200,"wspd":8,"visib":0.06,"altim":1022,"clouds":[{"cover":"BKN","base":200}],"obsTime":1779357600},"SBJP":{"icaoId":"SBJP","flightCategory":"VFR","rawOb":"METAR SBJP 211000Z 19006KT 9999 SCT020 BKN070 23/22 Q1015","temp":23,"dewp":22,"wdir":190,"wspd":6,"visib":"6+","altim":1015,"clouds":[{"cover":"SCT","base":2000},{"cover":"BKN","base":7000}],"obsTime":1779357600}}}