{"updated":1775151590,"count":87,"data":{"SBCZ":{"icaoId":"SBCZ","flightCategory":"MVFR","rawOb":"METAR SBCZ 021600Z VRB03KT 9999 BKN020 SCT100 29/25 Q1011","temp":29,"dewp":25,"wdir":"VRB","wspd":3,"visib":"6+","altim":1011,"clouds":[{"cover":"BKN","base":2000},{"cover":"SCT","base":10000}],"obsTime":1775145600},"SBAT":{"icaoId":"SBAT","flightCategory":"VFR","rawOb":"METAR SBAT 021600Z 06002KT 9999 SCT030 SCT100 31/23 Q1013","temp":31,"dewp":23,"wdir":60,"wspd":2,"visib":"6+","altim":1013,"clouds":[{"cover":"SCT","base":3000},{"cover":"SCT","base":10000}],"obsTime":1775145600},"SBBE":{"icaoId":"SBBE","flightCategory":"IFR","rawOb":"METAR SBBE 021600Z 16007KT 4000 -RA SCT008 BKN025 FEW030TCU 24/24 Q1014","temp":24,"dewp":24,"wdir":160,"wspd":7,"visib":2.49,"altim":1014,"clouds":[{"cover":"SCT","base":800},{"cover":"BKN","base":2500},{"cover":"FEW","base":3000}],"obsTime":1775145600},"SBCF":{"icaoId":"SBCF","flightCategory":"VFR","rawOb":"METAR SBCF 021600Z 09003KT 9999 BKN035 26/18 Q1019","temp":26,"dewp":18,"wdir":90,"wspd":3,"visib":"6+","altim":1019,"clouds":[{"cover":"BKN","base":3500}],"obsTime":1775145600},"SBBR":{"icaoId":"SBBR","flightCategory":"VFR","rawOb":"METAR SBBR 021600Z 07008KT 030V120 9999 SCT030 FEW035TCU 26/19 Q1019","temp":26,"dewp":19,"wdir":70,"wspd":8,"visib":"6+","altim":1019,"clouds":[{"cover":"SCT","base":3000},{"cover":"FEW","base":3500}],"obsTime":1775145600},"SBBV":{"icaoId":"SBBV","flightCategory":"VFR","rawOb":"METAR SBBV 021600Z 08010KT 9999 BKN040 31/21 Q1012","temp":31,"dewp":21,"wdir":80,"wspd":10,"visib":"6+","altim":1012,"clouds":[{"cover":"BKN","base":4000}],"obsTime":1775145600},"SBCB":{"icaoId":"SBCB","flightCategory":"VFR","rawOb":"METAR SBCB 021600Z 07017KT CAVOK 29/22 Q1013","temp":29,"dewp":22,"wdir":70,"wspd":17,"visib":"6+","altim":1013,"clouds":[],"obsTime":1775145600},"SBCG":{"icaoId":"SBCG","flightCategory":"VFR","rawOb":"METAR SBCG 021600Z 30007KT 260V010 9999 BKN040 30/21 Q1015","temp":30,"dewp":21,"wdir":300,"wspd":7,"visib":"6+","altim":1015,"clouds":[{"cover":"BKN","base":4000}],"obsTime":1775145600},"SBCP":{"icaoId":"SBCP","flightCategory":"VFR","rawOb":"METAR SBCP 021600Z 09013KT CAVOK 31/22 Q1014","temp":31,"dewp":22,"wdir":90,"wspd":13,"visib":"6+","altim":1014,"clouds":[],"obsTime":1775145600},"SBCR":{"icaoId":"SBCR","flightCategory":"VFR","rawOb":"METAR SBCR 021600Z 36006KT 300V040 9999 SCT030 34/23 Q1011","temp":34,"dewp":23,"wdir":360,"wspd":6,"visib":"6+","altim":1011,"clouds":[{"cover":"SCT","base":3000}],"obsTime":1775145600},"SBCT":{"icaoId":"SBCT","flightCategory":"MVFR","rawOb":"METAR SBCT 021600Z 28007KT 230V320 9999 BKN030 FEW035TCU 25/16 Q1017","temp":25,"dewp":16,"wdir":280,"wspd":7,"visib":"6+","altim":1017,"clouds":[{"cover":"BKN","base":3000},{"cover":"FEW","base":3500}],"obsTime":1775145600},"SBEG":{"icaoId":"SBEG","flightCategory":"MVFR","rawOb":"METAR SBEG 021600Z 11005KT 060V160 9999 BKN020 SCT100 29/24 Q1012","temp":29,"dewp":24,"wdir":110,"wspd":5,"visib":"6+","altim":1012,"clouds":[{"cover":"BKN","base":2000},{"cover":"SCT","base":10000}],"obsTime":1775145600},"SBFI":{"icaoId":"SBFI","flightCategory":"VFR","rawOb":"METAR SBFI 021600Z 02010KT 9999 SCT030 29/22 Q1012","temp":29,"dewp":22,"wdir":20,"wspd":10,"visib":"6+","altim":1012,"clouds":[{"cover":"SCT","base":3000}],"obsTime":1775145600},"SBFL":{"icaoId":"SBFL","flightCategory":"VFR","rawOb":"METAR SBFL 021600Z 34008KT 9999 FEW030 30/21 Q1010","temp":30,"dewp":21,"wdir":340,"wspd":8,"visib":"6+","altim":1010,"clouds":[{"cover":"FEW","base":3000}],"obsTime":1775145600},"SBFZ":{"icaoId":"SBFZ","flightCategory":"VFR","rawOb":"METAR SBFZ 021600Z 13005KT 090V170 9999 SCT010 BKN070 27/25 Q1011","temp":27,"dewp":25,"wdir":130,"wspd":5,"visib":"6+","altim":1011,"clouds":[{"cover":"SCT","base":1000},{"cover":"BKN","base":7000}],"obsTime":1775145600},"SBGL":{"icaoId":"SBGL","flightCategory":"VFR","rawOb":"METAR SBGL 021600Z 01008KT 9999 FEW046 34/22 Q1012","temp":34,"dewp":22,"wdir":10,"wspd":8,"visib":"6+","altim":1012,"clouds":[{"cover":"FEW","base":4600}],"obsTime":1775145600},"SBGO":{"icaoId":"SBGO","flightCategory":"VFR","rawOb":"METAR SBGO 021600Z 30005KT 9999 -RA SCT036 FEW042TCU SCT070 26/22 Q1018","temp":26,"dewp":22,"wdir":300,"wspd":5,"visib":"6+","altim":1018,"clouds":[{"cover":"SCT","base":3600},{"cover":"FEW","base":4200},{"cover":"SCT","base":7000}],"obsTime":1775145600},"SBGR":{"icaoId":"SBGR","flightCategory":"VFR","rawOb":"METAR SBGR 021600Z 33012KT 9999 BKN040 29/19 Q1017","temp":29,"dewp":19,"wdir":330,"wspd":12,"visib":"6+","altim":1017,"clouds":[{"cover":"BKN","base":4000}],"obsTime":1775145600},"SBHT":{"icaoId":"SBHT","flightCategory":"MVFR","rawOb":"METAR SBHT 021600Z 19003KT 9999 BKN023 BKN090 30/24 Q1013","temp":30,"dewp":24,"wdir":190,"wspd":3,"visib":"6+","altim":1013,"clouds":[{"cover":"BKN","base":2300},{"cover":"BKN","base":9000}],"obsTime":1775145600},"SBIL":{"icaoId":"SBIL","flightCategory":"VFR","rawOb":"METAR SBIL 021600Z 15008KT 9999 SCT023 SCT100 31/24 Q1014","temp":31,"dewp":24,"wdir":150,"wspd":8,"visib":"6+","altim":1014,"clouds":[{"cover":"SCT","base":2300},{"cover":"SCT","base":10000}],"obsTime":1775145600},"SBJU":{"icaoId":"SBJU","flightCategory":"IFR","rawOb":"METAR SBJU 021600Z 14008KT 4000 -RA SCT008 BKN016 24/23 Q1013 RERA","temp":24,"dewp":23,"wdir":140,"wspd":8,"visib":2.49,"altim":1013,"clouds":[{"cover":"SCT","base":800},{"cover":"BKN","base":1600}],"obsTime":1775145600},"SBKP":{"icaoId":"SBKP","flightCategory":"MVFR","rawOb":"METAR SBKP 021600Z 34010KT 9999 BKN030 29/20 Q1016","temp":29,"dewp":20,"wdir":340,"wspd":10,"visib":"6+","altim":1016,"clouds":[{"cover":"BKN","base":3000}],"obsTime":1775145600},"SBLO":{"icaoId":"SBLO","flightCategory":"MVFR","rawOb":"METAR SBLO 021600Z 35007KT 290V040 9999 BKN030 29/20 Q1015","temp":29,"dewp":20,"wdir":350,"wspd":7,"visib":"6+","altim":1015,"clouds":[{"cover":"BKN","base":3000}],"obsTime":1775145600},"SBMA":{"icaoId":"SBMA","flightCategory":"MVFR","rawOb":"METAR SBMA 021600Z 00000KT 8000 -RA FEW010 SCT015 OVC100 23/22 Q1014","temp":23,"dewp":22,"wdir":0,"wspd":0,"visib":4.97,"altim":1014,"clouds":[{"cover":"FEW","base":1000},{"cover":"SCT","base":1500},{"cover":"OVC","base":10000}],"obsTime":1775145600},"SBME":{"icaoId":"SBME","flightCategory":"VFR","rawOb":"METAR SBME 021600Z 14008KT 9999 FEW043 30/21 Q1013","temp":30,"dewp":21,"wdir":140,"wspd":8,"visib":"6+","altim":1013,"clouds":[{"cover":"FEW","base":4300}],"obsTime":1775145600},"SBMG":{"icaoId":"SBMG","flightCategory":"VFR","rawOb":"METAR SBMG 021600Z 32009KT 290V010 9999 SCT035 29/19 Q1014","temp":29,"dewp":19,"wdir":320,"wspd":9,"visib":"6+","altim":1014,"clouds":[{"cover":"SCT","base":3500}],"obsTime":1775145600},"SBMK":{"icaoId":"SBMK","flightCategory":"MVFR","rawOb":"METAR SBMK 021600Z 09006KT 9999 BKN030 28/20 Q1018","temp":28,"dewp":20,"wdir":90,"wspd":6,"visib":"6+","altim":1018,"clouds":[{"cover":"BKN","base":3000}],"obsTime":1775145600},"SBMO":{"icaoId":"SBMO","flightCategory":"VFR","rawOb":"METAR SBMO 021600Z 10011KT 060V120 9999 SCT035 30/23 Q1011","temp":30,"dewp":23,"wdir":100,"wspd":11,"visib":"6+","altim":1011,"clouds":[{"cover":"SCT","base":3500}],"obsTime":1775145600},"SBMQ":{"icaoId":"SBMQ","flightCategory":"IFR","rawOb":"METAR SBMQ 021600Z 16003KT 9999 -RA BKN008 OVC067 26/25 Q1013","temp":26,"dewp":25,"wdir":160,"wspd":3,"visib":"6+","altim":1013,"clouds":[{"cover":"BKN","base":800},{"cover":"OVC","base":6700}],"obsTime":1775145600},"SBNT":{"icaoId":"SBNT","flightCategory":"MVFR","rawOb":"METAR SBNT 021600Z 10010KT 070V140 9999 BKN028 31/24 Q1011","temp":31,"dewp":24,"wdir":100,"wspd":10,"visib":"6+","altim":1011,"clouds":[{"cover":"BKN","base":2800}],"obsTime":1775145600},"SBPA":{"icaoId":"SBPA","flightCategory":"VFR","rawOb":"METAR SBPA 021600Z 27005KT 220V320 9999 FEW040 30/20 Q1010","temp":30,"dewp":20,"wdir":270,"wspd":5,"visib":"6+","altim":1010,"clouds":[{"cover":"FEW","base":4000}],"obsTime":1775145600},"SBPJ":{"icaoId":"SBPJ","flightCategory":"VFR","rawOb":"METAR SBPJ 021600Z 03003KT 9999 -RA SCT012 SCT030 OVC100 26/23 Q1014","temp":26,"dewp":23,"wdir":30,"wspd":3,"visib":"6+","altim":1014,"clouds":[{"cover":"SCT","base":1200},{"cover":"SCT","base":3000},{"cover":"OVC","base":10000}],"obsTime":1775145600},"SBPV":{"icaoId":"SBPV","flightCategory":"MVFR","rawOb":"METAR SBPV 021600Z 06004KT 9999 BKN025 FEW030TCU 29/23 Q1012","temp":29,"dewp":23,"wdir":60,"wspd":4,"visib":"6+","altim":1012,"clouds":[{"cover":"BKN","base":2500},{"cover":"FEW","base":3000}],"obsTime":1775145600},"SBRB":{"icaoId":"SBRB","flightCategory":"MVFR","rawOb":"METAR SBRB 021600Z 06003KT 9999 BKN025 31/23 Q1013","temp":31,"dewp":23,"wdir":60,"wspd":3,"visib":"6+","altim":1013,"clouds":[{"cover":"BKN","base":2500}],"obsTime":1775145600},"SBRF":{"icaoId":"SBRF","flightCategory":"VFR","rawOb":"METAR SBRF 021600Z 10008KT 9999 SCT020 FEW025TCU 30/24 Q1011","temp":30,"dewp":24,"wdir":100,"wspd":8,"visib":"6+","altim":1011,"clouds":[{"cover":"SCT","base":2000},{"cover":"FEW","base":2500}],"obsTime":1775145600},"SBSG":{"icaoId":"SBSG","flightCategory":"VFR","rawOb":"METAR SBSG 021600Z 10008KT 070V170 9999 SCT023 31/24 Q1011","temp":31,"dewp":24,"wdir":100,"wspd":8,"visib":"6+","altim":1011,"clouds":[{"cover":"SCT","base":2300}],"obsTime":1775145600},"SBSL":{"icaoId":"SBSL","flightCategory":"VFR","rawOb":"METAR SBSL 021600Z 02006KT 340V050 9999 SCT030 BKN080 26/23 Q1012","temp":26,"dewp":23,"wdir":20,"wspd":6,"visib":"6+","altim":1012,"clouds":[{"cover":"SCT","base":3000},{"cover":"BKN","base":8000}],"obsTime":1775145600},"SBSN":{"icaoId":"SBSN","flightCategory":"VFR","rawOb":"METAR SBSN 021600Z 36005KT 9999 FEW020 SCT100 30/23 Q1012","temp":30,"dewp":23,"wdir":360,"wspd":5,"visib":"6+","altim":1012,"clouds":[{"cover":"FEW","base":2000},{"cover":"SCT","base":10000}],"obsTime":1775145600},"SBSP":{"icaoId":"SBSP","flightCategory":"VFR","rawOb":"METAR SBSP 021600Z 32010KT 280V350 9999 FEW040 28/18 Q1018","temp":28,"dewp":18,"wdir":320,"wspd":10,"visib":"6+","altim":1018,"clouds":[{"cover":"FEW","base":4000}],"obsTime":1775145600},"SBSV":{"icaoId":"SBSV","flightCategory":"VFR","rawOb":"METAR SBSV 021600Z 11010KT 9999 SCT023 SCT100 30/21 Q1012","temp":30,"dewp":21,"wdir":110,"wspd":10,"visib":"6+","altim":1012,"clouds":[{"cover":"SCT","base":2300},{"cover":"SCT","base":10000}],"obsTime":1775145600},"SBTE":{"icaoId":"SBTE","flightCategory":"VFR","rawOb":"METAR SBTE 021600Z 26003KT 210V340 9999 SCT016 BKN080 27/24 Q1011","temp":27,"dewp":24,"wdir":260,"wspd":3,"visib":"6+","altim":1011,"clouds":[{"cover":"SCT","base":1600},{"cover":"BKN","base":8000}],"obsTime":1775145600},"SBUL":{"icaoId":"SBUL","flightCategory":"MVFR","rawOb":"METAR SBUL 021600Z 06011KT 9999 TS VCSH SCT015 BKN020 FEW030CB 26/19 Q1019","temp":26,"dewp":19,"wdir":60,"wspd":11,"visib":"6+","altim":1019,"clouds":[{"cover":"SCT","base":1500},{"cover":"BKN","base":2000},{"cover":"FEW","base":3000}],"obsTime":1775145600},"SBUR":{"icaoId":"SBUR","flightCategory":"VFR","rawOb":"METAR SBUR 021600Z 33008KT 9999 BKN045 29/19 Q1017","temp":29,"dewp":19,"wdir":330,"wspd":8,"visib":"6+","altim":1017,"clouds":[{"cover":"BKN","base":4500}],"obsTime":1775145600},"SBVT":{"icaoId":"SBVT","flightCategory":"VFR","rawOb":"METAR SBVT 021600Z 07008KT 9999 FEW040 30/23 Q1014","temp":30,"dewp":23,"wdir":70,"wspd":8,"visib":"6+","altim":1014,"clouds":[{"cover":"FEW","base":4000}],"obsTime":1775145600},"SBSJ":{"icaoId":"SBSJ","flightCategory":"VFR","rawOb":"METAR SBSJ 021600Z 01005KT 9999 SCT030 29/19 Q1016","temp":29,"dewp":19,"wdir":10,"wspd":5,"visib":"6+","altim":1016,"clouds":[{"cover":"SCT","base":3000}],"obsTime":1775145600},"SBAU":{"icaoId":"SBAU","flightCategory":"VFR","rawOb":"METAR SBAU 021600Z 01007KT CAVOK 32/19 Q1014","temp":32,"dewp":19,"wdir":10,"wspd":7,"visib":"6+","altim":1014,"clouds":[],"obsTime":1775145600},"SBAX":{"icaoId":"SBAX","flightCategory":"MVFR","rawOb":"METAR SBAX 021600Z 36006KT 9999 BKN020 27/18 Q1019","temp":27,"dewp":18,"wdir":360,"wspd":6,"visib":"6+","altim":1019,"clouds":[{"cover":"BKN","base":2000}],"obsTime":1775145600},"SBBH":{"icaoId":"SBBH","flightCategory":"VFR","rawOb":"METAR SBBH 021600Z 05005KT 9999 BKN038 FEW040TCU BKN070 27/18 Q1018","temp":27,"dewp":18,"wdir":50,"wspd":5,"visib":"6+","altim":1018,"clouds":[{"cover":"BKN","base":3800},{"cover":"FEW","base":4000},{"cover":"BKN","base":7000}],"obsTime":1775145600},"SBBQ":{"icaoId":"SBBQ","flightCategory":"MVFR","rawOb":"METAR SBBQ 021600Z 34005KT 9999 BKN030 24/17 Q1021","temp":24,"dewp":17,"wdir":340,"wspd":5,"visib":"6+","altim":1021,"clouds":[{"cover":"BKN","base":3000}],"obsTime":1775145600},"SBBU":{"icaoId":"SBBU","flightCategory":"VFR","rawOb":"METAR SBBU 021600Z 30008KT 9999 FEW040 BKN100 28/21 Q1016","temp":28,"dewp":21,"wdir":300,"wspd":8,"visib":"6+","altim":1016,"clouds":[{"cover":"FEW","base":4000},{"cover":"BKN","base":10000}],"obsTime":1775145600},"SBCA":{"icaoId":"SBCA","flightCategory":"VFR","rawOb":"METAR SBCA 021600Z 03007G17KT 9999 SCT015 25/19 Q1017","temp":25,"dewp":19,"wdir":30,"wspd":7,"visib":"6+","altim":1017,"clouds":[{"cover":"SCT","base":1500}],"obsTime":1775145600},"SBCC":{"icaoId":"SBCC","flightCategory":"VFR","rawOb":"METAR SBCC 021600Z 02003KT 9999 FEW012 BKN100 24/21 Q1014","temp":24,"dewp":21,"wdir":20,"wspd":3,"visib":"6+","altim":1014,"clouds":[{"cover":"FEW","base":1200},{"cover":"BKN","base":10000}],"obsTime":1775145600},"SBCJ":{"icaoId":"SBCJ","flightCategory":"LIFR","rawOb":"SPECI SBCJ 021550Z 09010KT 1000 RA BR BKN004 BKN080 21/20 Q1018","temp":21,"dewp":20,"wdir":90,"wspd":10,"visib":0.62,"altim":1018,"clouds":[{"cover":"BKN","base":400},{"cover":"BKN","base":8000}],"obsTime":1775145000},"SBCO":{"icaoId":"SBCO","flightCategory":"VFR","rawOb":"METAR SBCO 021600Z 22006KT CAVOK 30/21 Q1010","temp":30,"dewp":21,"wdir":220,"wspd":6,"visib":"6+","altim":1010,"clouds":[],"obsTime":1775145600},"SBDN":{"icaoId":"SBDN","flightCategory":"VFR","rawOb":"METAR SBDN 021600Z 33006KT 9999 FEW030 31/19 Q1014","temp":31,"dewp":19,"wdir":330,"wspd":6,"visib":"6+","altim":1014,"clouds":[{"cover":"FEW","base":3000}],"obsTime":1775145600},"SBES":{"icaoId":"SBES","flightCategory":"VFR","rawOb":"METAR SBES 021600Z 06016KT 030V090 9999 FEW020 30/// Q1013","temp":null,"dewp":null,"wdir":60,"wspd":16,"visib":"6+","altim":1013,"clouds":[{"cover":"FEW","base":2000}],"obsTime":1775145600},"SBGM":{"icaoId":"SBGM","flightCategory":"MVFR","rawOb":"METAR SBGM 021600Z 02006KT 320V110 9999 BKN023 31/15 Q1012","temp":31,"dewp":15,"wdir":20,"wspd":6,"visib":"6+","altim":1012,"clouds":[{"cover":"BKN","base":2300}],"obsTime":1775145600},"SBIP":{"icaoId":"SBIP","flightCategory":"VFR","rawOb":"METAR SBIP 021600Z AUTO 05006KT 010V070 9999 BKN038 29/20 Q1016","temp":29,"dewp":20,"wdir":50,"wspd":6,"visib":"6+","altim":1016,"clouds":[{"cover":"BKN","base":3800}],"obsTime":1775145600},"SBKG":{"icaoId":"SBKG","flightCategory":"VFR","rawOb":"METAR SBKG 021600Z 12010KT 9999 SCT025 BKN080 27/21 Q1014","temp":27,"dewp":21,"wdir":120,"wspd":10,"visib":"6+","altim":1014,"clouds":[{"cover":"SCT","base":2500},{"cover":"BKN","base":8000}],"obsTime":1775145600},"SBOI":{"icaoId":"SBOI","flightCategory":"VFR","rawOb":"METAR SBOI 021600Z AUTO 07006KT 030V110 9999 SCT032 BKN039 31/25 Q1011","temp":31,"dewp":25,"wdir":70,"wspd":6,"visib":"6+","altim":1011,"clouds":[{"cover":"SCT","base":3200},{"cover":"BKN","base":3900}],"obsTime":1775145600},"SBPB":{"icaoId":"SBPB","flightCategory":"VFR","rawOb":"METAR SBPB 021600Z 02009KT 9999 SCT020 30/25 Q1011","temp":30,"dewp":25,"wdir":20,"wspd":9,"visib":"6+","altim":1011,"clouds":[{"cover":"SCT","base":2000}],"obsTime":1775145600},"SBPL":{"icaoId":"SBPL","flightCategory":"VFR","rawOb":"METAR SBPL 021600Z 08006KT 9999 SCT030 29/23 Q1013","temp":29,"dewp":23,"wdir":80,"wspd":6,"visib":"6+","altim":1013,"clouds":[{"cover":"SCT","base":3000}],"obsTime":1775145600},"SBPP":{"icaoId":"SBPP","flightCategory":"MVFR","rawOb":"METAR SBPP 021600Z 04010KT 9999 BKN025 OVC070 22/19 Q1016","temp":22,"dewp":19,"wdir":40,"wspd":10,"visib":"6+","altim":1016,"clouds":[{"cover":"BKN","base":2500},{"cover":"OVC","base":7000}],"obsTime":1775145600},"SBPS":{"icaoId":"SBPS","flightCategory":"VFR","rawOb":"METAR SBPS 021600Z 11007KT 060V140 9999 SCT020 29/24 Q1014","temp":29,"dewp":24,"wdir":110,"wspd":7,"visib":"6+","altim":1014,"clouds":[{"cover":"SCT","base":2000}],"obsTime":1775145600},"SBSC":{"icaoId":"SBSC","flightCategory":"VFR","rawOb":"METAR SBSC 021600Z 02007KT 9999 FEW030 SCT100 33/22 Q1012","temp":33,"dewp":22,"wdir":20,"wspd":7,"visib":"6+","altim":1012,"clouds":[{"cover":"FEW","base":3000},{"cover":"SCT","base":10000}],"obsTime":1775145600},"SBAR":{"icaoId":"SBAR","flightCategory":"VFR","rawOb":"METAR SBAR 021600Z 12005KT 9999 FEW023 SCT070 30/24 Q1011","temp":30,"dewp":24,"wdir":120,"wspd":5,"visib":"6+","altim":1011,"clouds":[{"cover":"FEW","base":2300},{"cover":"SCT","base":7000}],"obsTime":1775145600},"SBSM":{"icaoId":"SBSM","flightCategory":"VFR","rawOb":"METAR SBSM 021600Z 17003KT 070V240 9999 FEW040 30/20 Q1010","temp":30,"dewp":20,"wdir":170,"wspd":3,"visib":"6+","altim":1010,"clouds":[{"cover":"FEW","base":4000}],"obsTime":1775145600},"SBSR":{"icaoId":"SBSR","flightCategory":"VFR","rawOb":"METAR SBSR 021600Z VRB05KT 9999 SCT030 SCT070 30/19 Q1015","temp":30,"dewp":19,"wdir":"VRB","wspd":5,"visib":"6+","altim":1015,"clouds":[{"cover":"SCT","base":3000},{"cover":"SCT","base":7000}],"obsTime":1775145600},"SBTF":{"icaoId":"SBTF","flightCategory":"VFR","rawOb":"METAR SBTF 021600Z 11008KT 9999 SCT017 BKN100 31/25 Q1011","temp":31,"dewp":25,"wdir":110,"wspd":8,"visib":"6+","altim":1011,"clouds":[{"cover":"SCT","base":1700},{"cover":"BKN","base":10000}],"obsTime":1775145600},"SBTT":{"icaoId":"SBTT","flightCategory":"MVFR","rawOb":"METAR SBTT 021600Z VRB02KT 8000 -TSRA SCT012 FEW040CB OVC070 24/23 Q1013","temp":24,"dewp":23,"wdir":"VRB","wspd":2,"visib":4.97,"altim":1013,"clouds":[{"cover":"SCT","base":1200},{"cover":"FEW","base":4000},{"cover":"OVC","base":7000}],"obsTime":1775145600},"SBUY":{"icaoId":"SBUY","flightCategory":"VFR","rawOb":"METAR SBUY 021600Z 11004KT 9999 SCT025 31/23 Q1010","temp":31,"dewp":23,"wdir":110,"wspd":4,"visib":"6+","altim":1010,"clouds":[{"cover":"SCT","base":2500}],"obsTime":1775145600},"SBVH":{"icaoId":"SBVH","flightCategory":"MVFR","rawOb":"METAR SBVH 021600Z 09004KT 9999 BKN025 SCT100 27/21 Q1015","temp":27,"dewp":21,"wdir":90,"wspd":4,"visib":"6+","altim":1015,"clouds":[{"cover":"BKN","base":2500},{"cover":"SCT","base":10000}],"obsTime":1775145600},"SBTD":{"icaoId":"SBTD","flightCategory":"MVFR","rawOb":"METAR SBTD 021600Z /////KT 9999 BKN020 27/20 Q1015","temp":27,"dewp":20,"wdir":null,"wspd":null,"visib":"6+","altim":1015,"clouds":[{"cover":"BKN","base":2000}],"obsTime":1775145600},"SBJP":{"icaoId":"SBJP","flightCategory":"VFR","rawOb":"METAR SBJP 021600Z 07008KT 040V110 9999 SCT020 BKN080 30/24 Q1011","temp":30,"dewp":24,"wdir":70,"wspd":8,"visib":"6+","altim":1011,"clouds":[{"cover":"SCT","base":2000},{"cover":"BKN","base":8000}],"obsTime":1775145600},"SBLE":{"icaoId":"SBLE","flightCategory":"VFR","rawOb":"METAR SBLE 021600Z AUTO 19005KT 150V240 9999 BKN049 27/21 Q1016","temp":27,"dewp":21,"wdir":190,"wspd":5,"visib":"6+","altim":1016,"clouds":[{"cover":"BKN","base":4900}],"obsTime":1775145600},"SBTC":{"icaoId":"SBTC","flightCategory":"VFR","rawOb":"METAR SBTC 021700Z 14007KT 9999 SCT030 30/24 Q1013","temp":30,"dewp":24,"wdir":140,"wspd":7,"visib":"6+","altim":1013,"clouds":[{"cover":"SCT","base":3000}],"obsTime":1775149200},"SBIH":{"icaoId":"SBIH","flightCategory":"VFR","rawOb":"METAR SBIH 021600Z 08002KT 9999 FEW020 30/23 Q1012","temp":30,"dewp":23,"wdir":80,"wspd":2,"visib":"6+","altim":1012,"clouds":[{"cover":"FEW","base":2000}],"obsTime":1775145600},"SBJV":{"icaoId":"SBJV","flightCategory":"VFR","rawOb":"METAR SBJV 021600Z 13007KT 9999 FEW035 30/22 Q1011","temp":30,"dewp":22,"wdir":130,"wspd":7,"visib":"6+","altim":1011,"clouds":[{"cover":"FEW","base":3500}],"obsTime":1775145600},"SBNM":{"icaoId":"SBNM","flightCategory":"VFR","rawOb":"METAR SBNM 021600Z 30002KT 9999 SCT035 32/21 Q1011","temp":32,"dewp":21,"wdir":300,"wspd":2,"visib":"6+","altim":1011,"clouds":[{"cover":"SCT","base":3500}],"obsTime":1775145600},"SBAN":{"icaoId":"SBAN","flightCategory":"MVFR","rawOb":"METAR SBAN 021600Z VRB03KT 9999 BKN025 FEW035TCU BKN100 25/18 Q1020","temp":25,"dewp":18,"wdir":"VRB","wspd":3,"visib":"6+","altim":1020,"clouds":[{"cover":"BKN","base":2500},{"cover":"FEW","base":3500},{"cover":"BKN","base":10000}],"obsTime":1775145600},"SBGW":{"icaoId":"SBGW","flightCategory":"VFR","rawOb":"METAR SBGW 021600Z 06003KT 010V100 9999 FEW025 FEW030TCU BKN100 29/17 Q1015","temp":29,"dewp":17,"wdir":60,"wspd":3,"visib":"6+","altim":1015,"clouds":[{"cover":"FEW","base":2500},{"cover":"FEW","base":3000},{"cover":"BKN","base":10000}],"obsTime":1775145600},"SBJR":{"icaoId":"SBJR","flightCategory":"VFR","rawOb":"METAR SBJR 021600Z 36005KT 9999 FEW030 36/21 Q1012","temp":36,"dewp":21,"wdir":360,"wspd":5,"visib":"6+","altim":1012,"clouds":[{"cover":"FEW","base":3000}],"obsTime":1775145600},"SBLS":{"icaoId":"SBLS","flightCategory":"MVFR","rawOb":"METAR SBLS 021600Z 15007KT 100V160 9999 2000SE VCSH BKN030 FEW035TCU 26/19 Q1019","temp":26,"dewp":19,"wdir":150,"wspd":7,"visib":"6+","altim":1019,"clouds":[{"cover":"BKN","base":3000},{"cover":"FEW","base":3500}],"obsTime":1775145600},"SBMT":{"icaoId":"SBMT","flightCategory":"VFR","rawOb":"METAR SBMT 021600Z 31010KT 9999 SCT030 BKN100 28/18 Q1016","temp":28,"dewp":18,"wdir":310,"wspd":10,"visib":"6+","altim":1016,"clouds":[{"cover":"SCT","base":3000},{"cover":"BKN","base":10000}],"obsTime":1775145600},"SBST":{"icaoId":"SBST","flightCategory":"MVFR","rawOb":"METAR SBST 021600Z 14006KT 100V170 8000 SCT025 27/25 Q1012","temp":27,"dewp":25,"wdir":140,"wspd":6,"visib":4.97,"altim":1012,"clouds":[{"cover":"SCT","base":2500}],"obsTime":1775145600},"SBTA":{"icaoId":"SBTA","flightCategory":"VFR","rawOb":"METAR SBTA 021600Z VRB04KT 9999 FEW035 28/27 Q1015","temp":28,"dewp":27,"wdir":"VRB","wspd":4,"visib":"6+","altim":1015,"clouds":[{"cover":"FEW","base":3500}],"obsTime":1775145600},"SBAF":{"icaoId":"SBAF","flightCategory":"VFR","rawOb":" SBAF 021600Z 01009KT 9999 FEW040 34/20 Q1012","temp":34,"dewp":20,"wdir":10,"wspd":9,"visib":"6+","altim":1012,"clouds":[{"cover":"FEW","base":4000}],"obsTime":1775145600}}}