{"updated":1774334148,"count":49,"data":{"SBRF":{"icaoId":"SBRF","flightCategory":"VFR","rawOb":"METAR SBRF 240500Z 08006KT 9999 SCT023 28/23 Q1010","temp":28,"dewp":23,"wdir":80,"wspd":6,"visib":"6+","altim":1010,"clouds":[{"cover":"SCT","base":2300}],"obsTime":1774328400},"SBBE":{"icaoId":"SBBE","flightCategory":"VFR","rawOb":"METAR SBBE 240500Z 09005KT 9999 FEW020 26/24 Q1010","temp":26,"dewp":24,"wdir":90,"wspd":5,"visib":"6+","altim":1010,"clouds":[{"cover":"FEW","base":2000}],"obsTime":1774328400},"SBBR":{"icaoId":"SBBR","flightCategory":"VFR","rawOb":"METAR SBBR 240500Z 35005KT 320V070 9999 SCT035 BKN060 20/18 Q1016","temp":20,"dewp":18,"wdir":350,"wspd":5,"visib":"6+","altim":1016,"clouds":[{"cover":"SCT","base":3500},{"cover":"BKN","base":6000}],"obsTime":1774328400},"SBBV":{"icaoId":"SBBV","flightCategory":"VFR","rawOb":"METAR SBBV 240500Z 09010KT 9999 VCTS FEW035 FEW040CB SCT080 28/22 Q1009","temp":28,"dewp":22,"wdir":90,"wspd":10,"visib":"6+","altim":1009,"clouds":[{"cover":"FEW","base":3500},{"cover":"FEW","base":4000},{"cover":"SCT","base":8000}],"obsTime":1774328400},"SBCF":{"icaoId":"SBCF","flightCategory":"VFR","rawOb":"METAR SBCF 240500Z 11004KT 9999 VCTS BKN040 FEW045CB 19/16 Q1016","temp":19,"dewp":16,"wdir":110,"wspd":4,"visib":"6+","altim":1016,"clouds":[{"cover":"BKN","base":4000},{"cover":"FEW","base":4500}],"obsTime":1774328400},"SBCG":{"icaoId":"SBCG","flightCategory":"VFR","rawOb":"METAR SBCG 240500Z VRB01KT CAVOK 24/22 Q1012","temp":24,"dewp":22,"wdir":"VRB","wspd":1,"visib":"6+","altim":1012,"clouds":[],"obsTime":1774328400},"SBCT":{"icaoId":"SBCT","flightCategory":"LIFR","rawOb":"METAR SBCT 240500Z 05003KT 3000 BR OVC003 19/19 Q1015","temp":19,"dewp":19,"wdir":50,"wspd":3,"visib":1.86,"altim":1015,"clouds":[{"cover":"OVC","base":300}],"obsTime":1774328400},"SBEG":{"icaoId":"SBEG","flightCategory":"VFR","rawOb":"METAR SBEG 240500Z 14002KT CAVOK 27/26 Q1008","temp":27,"dewp":26,"wdir":140,"wspd":2,"visib":"6+","altim":1008,"clouds":[],"obsTime":1774328400},"SBFI":{"icaoId":"SBFI","flightCategory":"VFR","rawOb":"METAR SBFI 240500Z 07002KT 9999 SCT030 BKN070 24/24 Q1010","temp":24,"dewp":24,"wdir":70,"wspd":2,"visib":"6+","altim":1010,"clouds":[{"cover":"SCT","base":3000},{"cover":"BKN","base":7000}],"obsTime":1774328400},"SBFL":{"icaoId":"SBFL","flightCategory":"VFR","rawOb":"METAR SBFL 240500Z 21009KT CAVOK 26/22 Q1010","temp":26,"dewp":22,"wdir":210,"wspd":9,"visib":"6+","altim":1010,"clouds":[],"obsTime":1774328400},"SBFZ":{"icaoId":"SBFZ","flightCategory":"VFR","rawOb":"METAR SBFZ 240500Z 19005KT 9999 FEW020 26/24 Q1009","temp":26,"dewp":24,"wdir":190,"wspd":5,"visib":"6+","altim":1009,"clouds":[{"cover":"FEW","base":2000}],"obsTime":1774328400},"SBGL":{"icaoId":"SBGL","flightCategory":"VFR","rawOb":"METAR SBGL 240500Z 21003KT CAVOK 22/20 Q1011","temp":22,"dewp":20,"wdir":210,"wspd":3,"visib":"6+","altim":1011,"clouds":[],"obsTime":1774328400},"SBGO":{"icaoId":"SBGO","flightCategory":"VFR","rawOb":"METAR SBGO 240500Z 31004KT CAVOK 21/19 Q1014","temp":21,"dewp":19,"wdir":310,"wspd":4,"visib":"6+","altim":1014,"clouds":[],"obsTime":1774328400},"SBGR":{"icaoId":"SBGR","flightCategory":"MVFR","rawOb":"METAR SBGR 240500Z 08003KT 9000 BKN010 19/17 Q1015","temp":19,"dewp":17,"wdir":80,"wspd":3,"visib":5.59,"altim":1015,"clouds":[{"cover":"BKN","base":1000}],"obsTime":1774328400},"SBJU":{"icaoId":"SBJU","flightCategory":"VFR","rawOb":"METAR SBJU 240500Z 06004KT 9999 FEW020 22/22 Q1012","temp":22,"dewp":22,"wdir":60,"wspd":4,"visib":"6+","altim":1012,"clouds":[{"cover":"FEW","base":2000}],"obsTime":1774328400},"SBKP":{"icaoId":"SBKP","flightCategory":"VFR","rawOb":"METAR SBKP 240500Z 12009KT CAVOK 20/18 Q1013","temp":20,"dewp":18,"wdir":120,"wspd":9,"visib":"6+","altim":1013,"clouds":[],"obsTime":1774328400},"SBLO":{"icaoId":"SBLO","flightCategory":"VFR","rawOb":"METAR SBLO 240500Z 06002KT 9999 FEW040 24/21 Q1012","temp":24,"dewp":21,"wdir":60,"wspd":2,"visib":"6+","altim":1012,"clouds":[{"cover":"FEW","base":4000}],"obsTime":1774328400},"SBMA":{"icaoId":"SBMA","flightCategory":"MVFR","rawOb":"METAR SBMA 240500Z 18006KT 9999 -RA BKN020 25/23 Q1011","temp":25,"dewp":23,"wdir":180,"wspd":6,"visib":"6+","altim":1011,"clouds":[{"cover":"BKN","base":2000}],"obsTime":1774328400},"SBME":{"icaoId":"SBME","flightCategory":"MVFR","rawOb":"METAR SBME 240500Z 26002KT 9999 BKN021 21/20 Q1012","temp":21,"dewp":20,"wdir":260,"wspd":2,"visib":"6+","altim":1012,"clouds":[{"cover":"BKN","base":2100}],"obsTime":1774328400},"SBMG":{"icaoId":"SBMG","flightCategory":"VFR","rawOb":"METAR SBMG 240500Z AUTO 03005KT CAVOK 24/22 Q1011","temp":24,"dewp":22,"wdir":30,"wspd":5,"visib":"6+","altim":1011,"clouds":[],"obsTime":1774328400},"SBMO":{"icaoId":"SBMO","flightCategory":"VFR","rawOb":"METAR SBMO 240500Z 36003KT 9999 FEW018 24/23 Q1011","temp":24,"dewp":23,"wdir":360,"wspd":3,"visib":"6+","altim":1011,"clouds":[{"cover":"FEW","base":1800}],"obsTime":1774328400},"SBMQ":{"icaoId":"SBMQ","flightCategory":"VFR","rawOb":"METAR SBMQ 240500Z 01004KT 9999 SCT040 26/24 Q1010","temp":26,"dewp":24,"wdir":10,"wspd":4,"visib":"6+","altim":1010,"clouds":[{"cover":"SCT","base":4000}],"obsTime":1774328400},"SBNT":{"icaoId":"SBNT","flightCategory":"VFR","rawOb":"METAR SBNT 240500Z 18003KT 9999 FEW022 25/23 Q1010","temp":25,"dewp":23,"wdir":180,"wspd":3,"visib":"6+","altim":1010,"clouds":[{"cover":"FEW","base":2200}],"obsTime":1774328400},"SBPA":{"icaoId":"SBPA","flightCategory":"VFR","rawOb":"METAR SBPA 240500Z 25003KT 9000 SCT045 24/23 Q1007","temp":24,"dewp":23,"wdir":250,"wspd":3,"visib":5.59,"altim":1007,"clouds":[{"cover":"SCT","base":4500}],"obsTime":1774328400},"SBPJ":{"icaoId":"SBPJ","flightCategory":"VFR","rawOb":"METAR SBPJ 240500Z 15005KT 9999 FEW030 SCT090 24/23 Q1011","temp":24,"dewp":23,"wdir":150,"wspd":5,"visib":"6+","altim":1011,"clouds":[{"cover":"FEW","base":3000},{"cover":"SCT","base":9000}],"obsTime":1774328400},"SBPV":{"icaoId":"SBPV","flightCategory":"VFR","rawOb":"METAR SBPV 240500Z 36004KT 9999 FEW003 25/23 Q1009","temp":25,"dewp":23,"wdir":360,"wspd":4,"visib":"6+","altim":1009,"clouds":[{"cover":"FEW","base":300}],"obsTime":1774328400},"SBRB":{"icaoId":"SBRB","flightCategory":"VFR","rawOb":"METAR SBRB 240500Z 00000KT 9999 FEW030 25/24 Q1009","temp":25,"dewp":24,"wdir":0,"wspd":0,"visib":"6+","altim":1009,"clouds":[{"cover":"FEW","base":3000}],"obsTime":1774328400},"SBSG":{"icaoId":"SBSG","flightCategory":"VFR","rawOb":"METAR SBSG 240500Z 19003KT 9999 FEW020 24/23 Q1010","temp":24,"dewp":23,"wdir":190,"wspd":3,"visib":"6+","altim":1010,"clouds":[{"cover":"FEW","base":2000}],"obsTime":1774328400},"SBSL":{"icaoId":"SBSL","flightCategory":"VFR","rawOb":"METAR SBSL 240500Z 05004KT 9999 FEW020 26/25 Q1009","temp":26,"dewp":25,"wdir":50,"wspd":4,"visib":"6+","altim":1009,"clouds":[{"cover":"FEW","base":2000}],"obsTime":1774328400},"SBSN":{"icaoId":"SBSN","flightCategory":"VFR","rawOb":"METAR SBSN 240500Z 17004KT 9999 FEW017 25/24 Q1008","temp":25,"dewp":24,"wdir":170,"wspd":4,"visib":"6+","altim":1008,"clouds":[{"cover":"FEW","base":1700}],"obsTime":1774328400},"SBSP":{"icaoId":"SBSP","flightCategory":"VFR","rawOb":"METAR SBSP 240500Z AUTO 11004KT 070V130 CAVOK 20/17 Q1015","temp":20,"dewp":17,"wdir":110,"wspd":4,"visib":"6+","altim":1015,"clouds":[],"obsTime":1774328400},"SBSV":{"icaoId":"SBSV","flightCategory":"VFR","rawOb":"METAR SBSV 240500Z 06005KT 010V070 9999 FEW022 26/22 Q1011","temp":26,"dewp":22,"wdir":60,"wspd":5,"visib":"6+","altim":1011,"clouds":[{"cover":"FEW","base":2200}],"obsTime":1774328400},"SBTE":{"icaoId":"SBTE","flightCategory":"VFR","rawOb":"METAR SBTE 240500Z 19003KT 9999 FEW015 25/24 Q1009","temp":25,"dewp":24,"wdir":190,"wspd":3,"visib":"6+","altim":1009,"clouds":[{"cover":"FEW","base":1500}],"obsTime":1774328400},"SBUL":{"icaoId":"SBUL","flightCategory":"VFR","rawOb":"METAR SBUL 240500Z 17006KT CAVOK 23/18 Q1015","temp":23,"dewp":18,"wdir":170,"wspd":6,"visib":"6+","altim":1015,"clouds":[],"obsTime":1774328400},"SBUR":{"icaoId":"SBUR","flightCategory":"VFR","rawOb":"METAR SBUR 240500Z 10004KT CAVOK 24/18 Q1014","temp":24,"dewp":18,"wdir":100,"wspd":4,"visib":"6+","altim":1014,"clouds":[],"obsTime":1774328400},"SBVT":{"icaoId":"SBVT","flightCategory":"VFR","rawOb":"METAR SBVT 240500Z 30003KT 9999 SCT020 BKN044 22/22 Q1013","temp":22,"dewp":22,"wdir":300,"wspd":3,"visib":"6+","altim":1013,"clouds":[{"cover":"SCT","base":2000},{"cover":"BKN","base":4400}],"obsTime":1774328400},"SBDN":{"icaoId":"SBDN","flightCategory":"VFR","rawOb":"METAR SBDN 240500Z 08004KT CAVOK 25/20 Q1011","temp":25,"dewp":20,"wdir":80,"wspd":4,"visib":"6+","altim":1011,"clouds":[],"obsTime":1774328400},"SBOI":{"icaoId":"SBOI","flightCategory":"VFR","rawOb":"METAR SBOI 240500Z AUTO 03003KT 010V070 9999 // FEW016/// 24/24 Q1010","temp":24,"dewp":24,"wdir":30,"wspd":3,"visib":"6+","altim":1010,"clouds":[{"cover":"FEW","base":1600}],"obsTime":1774328400},"SBAX":{"icaoId":"SBAX","flightCategory":"VFR","rawOb":"METAR SBAX 240500Z AUTO 10004KT CAVOK 21/16 Q1016","temp":21,"dewp":16,"wdir":100,"wspd":4,"visib":"6+","altim":1016,"clouds":[],"obsTime":1774328400},"SBPL":{"icaoId":"SBPL","flightCategory":"VFR","rawOb":"METAR SBPL 240500Z 10002KT 9999 FEW020 BKN070 25/24 Q1011","temp":25,"dewp":24,"wdir":100,"wspd":2,"visib":"6+","altim":1011,"clouds":[{"cover":"FEW","base":2000},{"cover":"BKN","base":7000}],"obsTime":1774328400},"SBIP":{"icaoId":"SBIP","flightCategory":"VFR","rawOb":"METAR SBIP 240500Z AUTO 32004KT 280V360 9999 -RA NSC 19/19 Q1014","temp":19,"dewp":19,"wdir":320,"wspd":4,"visib":"6+","altim":1014,"clouds":[],"obsTime":1774328400},"SBPS":{"icaoId":"SBPS","flightCategory":"VFR","rawOb":"METAR SBPS 240500Z 26002KT 9999 SCT018 BKN100 23/23 Q1012","temp":23,"dewp":23,"wdir":260,"wspd":2,"visib":"6+","altim":1012,"clouds":[{"cover":"SCT","base":1800},{"cover":"BKN","base":10000}],"obsTime":1774328400},"SBAR":{"icaoId":"SBAR","flightCategory":"VFR","rawOb":"METAR SBAR 240500Z 08008KT 9999 SCT021 28/23 Q1010","temp":28,"dewp":23,"wdir":80,"wspd":8,"visib":"6+","altim":1010,"clouds":[{"cover":"SCT","base":2100}],"obsTime":1774328400},"SBSC":{"icaoId":"SBSC","flightCategory":"VFR","rawOb":"METAR SBSC 240500Z 03004KT CAVOK 21/20 Q1011","temp":21,"dewp":20,"wdir":30,"wspd":4,"visib":"6+","altim":1011,"clouds":[],"obsTime":1774328400},"SBKG":{"icaoId":"SBKG","flightCategory":"IFR","rawOb":"METAR SBKG 240500Z 10006KT 9999 BKN007 23/22 Q1013","temp":23,"dewp":22,"wdir":100,"wspd":6,"visib":"6+","altim":1013,"clouds":[{"cover":"BKN","base":700}],"obsTime":1774328400},"SBSR":{"icaoId":"SBSR","flightCategory":"VFR","rawOb":"METAR SBSR 240500Z 28002KT CAVOK 24/21 Q1012","temp":24,"dewp":21,"wdir":280,"wspd":2,"visib":"6+","altim":1012,"clouds":[],"obsTime":1774328400},"SBAN":{"icaoId":"SBAN","flightCategory":"VFR","rawOb":"METAR SBAN 240500Z 20004KT 9999 FEW040 22/15 Q1017","temp":22,"dewp":15,"wdir":200,"wspd":4,"visib":"6+","altim":1017,"clouds":[{"cover":"FEW","base":4000}],"obsTime":1774328400},"SBLE":{"icaoId":"SBLE","flightCategory":"MVFR","rawOb":"METAR SBLE 240500Z AUTO 00000KT 9999 BKN018 ///// Q////","temp":null,"dewp":null,"wdir":0,"wspd":0,"visib":"6+","altim":null,"clouds":[{"cover":"BKN","base":1800}],"obsTime":1774328400},"SBJP":{"icaoId":"SBJP","flightCategory":"VFR","rawOb":"METAR SBJP 240500Z 14004KT 9999 FEW020 25/23 Q1010","temp":25,"dewp":23,"wdir":140,"wspd":4,"visib":"6+","altim":1010,"clouds":[{"cover":"FEW","base":2000}],"obsTime":1774328400}}}