{"updated":1779047851,"count":86,"data":{"SBKP":{"icaoId":"SBKP","flightCategory":"VFR","rawOb":"METAR SBKP 171800Z 22012KT 9999 -TSRA SCT011 FEW050CB OVC100 20/18 Q1017 RETS","temp":20,"dewp":18,"wdir":220,"wspd":12,"visib":"6+","altim":1017,"clouds":[{"cover":"SCT","base":1100},{"cover":"FEW","base":5000},{"cover":"OVC","base":10000}],"obsTime":1779040800},"SBBE":{"icaoId":"SBBE","flightCategory":"VFR","rawOb":"METAR SBBE 171800Z 09009KT 9999 SCT035 FEW040TCU SCT100 30/25 Q1009","temp":30,"dewp":25,"wdir":90,"wspd":9,"visib":"6+","altim":1009,"clouds":[{"cover":"SCT","base":3500},{"cover":"FEW","base":4000},{"cover":"SCT","base":10000}],"obsTime":1779040800},"SBCZ":{"icaoId":"SBCZ","flightCategory":"VFR","rawOb":"METAR SBCZ 171800Z 22004KT 9999 FEW020 FEW030TCU 31/25 Q1011","temp":31,"dewp":25,"wdir":220,"wspd":4,"visib":"6+","altim":1011,"clouds":[{"cover":"FEW","base":2000},{"cover":"FEW","base":3000}],"obsTime":1779040800},"SBAT":{"icaoId":"SBAT","flightCategory":"VFR","rawOb":"METAR SBAT 171800Z 03003KT 9999 SCT035 FEW040TCU 34/23 Q1011","temp":34,"dewp":23,"wdir":30,"wspd":3,"visib":"6+","altim":1011,"clouds":[{"cover":"SCT","base":3500},{"cover":"FEW","base":4000}],"obsTime":1779040800},"SBBR":{"icaoId":"SBBR","flightCategory":"VFR","rawOb":"METAR SBBR 171800Z VRB03KT 9999 SCT045 28/15 Q1018","temp":28,"dewp":15,"wdir":"VRB","wspd":3,"visib":"6+","altim":1018,"clouds":[{"cover":"SCT","base":4500}],"obsTime":1779040800},"SBBV":{"icaoId":"SBBV","flightCategory":"VFR","rawOb":"METAR SBBV 171800Z 09015KT 9999 SCT040 FEW045TCU 32/20 Q1011","temp":32,"dewp":20,"wdir":90,"wspd":15,"visib":"6+","altim":1011,"clouds":[{"cover":"SCT","base":4000},{"cover":"FEW","base":4500}],"obsTime":1779040800},"SBCB":{"icaoId":"SBCB","flightCategory":"VFR","rawOb":"METAR SBCB 171800Z 06009KT CAVOK 29/22 Q1012","temp":29,"dewp":22,"wdir":60,"wspd":9,"visib":"6+","altim":1012,"clouds":[],"obsTime":1779040800},"SBCF":{"icaoId":"SBCF","flightCategory":"VFR","rawOb":"METAR SBCF 171800Z 08005KT 9999 SCT040 27/18 Q1017","temp":27,"dewp":18,"wdir":80,"wspd":5,"visib":"6+","altim":1017,"clouds":[{"cover":"SCT","base":4000}],"obsTime":1779040800},"SBCG":{"icaoId":"SBCG","flightCategory":"IFR","rawOb":"METAR SBCG 171800Z 20006KT 9999 VCTS BKN007 BKN030 FEW050CB BKN080 23/22 Q1014 RETS","temp":23,"dewp":22,"wdir":200,"wspd":6,"visib":"6+","altim":1014,"clouds":[{"cover":"BKN","base":700},{"cover":"BKN","base":3000},{"cover":"FEW","base":5000},{"cover":"BKN","base":8000}],"obsTime":1779040800},"SBCP":{"icaoId":"SBCP","flightCategory":"VFR","rawOb":"METAR SBCP 171800Z 02006KT 9999 FEW020 SCT090 30/21 Q1012","temp":30,"dewp":21,"wdir":20,"wspd":6,"visib":"6+","altim":1012,"clouds":[{"cover":"FEW","base":2000},{"cover":"SCT","base":9000}],"obsTime":1779040800},"SBCR":{"icaoId":"SBCR","flightCategory":"MVFR","rawOb":"METAR SBCR 171800Z 24010KT 210V270 9999 OVC010 21/19 Q1013","temp":21,"dewp":19,"wdir":240,"wspd":10,"visib":"6+","altim":1013,"clouds":[{"cover":"OVC","base":1000}],"obsTime":1779040800},"SBCT":{"icaoId":"SBCT","flightCategory":"VFR","rawOb":"METAR SBCT 171800Z 31007KT 9999 SCT020 BKN083 19/16 Q1016","temp":19,"dewp":16,"wdir":310,"wspd":7,"visib":"6+","altim":1016,"clouds":[{"cover":"SCT","base":2000},{"cover":"BKN","base":8300}],"obsTime":1779040800},"SBEG":{"icaoId":"SBEG","flightCategory":"VFR","rawOb":"METAR SBEG 171800Z 35005KT 9999 VCSH SCT020 FEW025TCU SCT100 27/25 Q1011","temp":27,"dewp":25,"wdir":350,"wspd":5,"visib":"6+","altim":1011,"clouds":[{"cover":"SCT","base":2000},{"cover":"FEW","base":2500},{"cover":"SCT","base":10000}],"obsTime":1779040800},"SBFI":{"icaoId":"SBFI","flightCategory":"VFR","rawOb":"METAR SBFI 171800Z 20007KT 9999 SCT030 BKN100 23/19 Q1013","temp":23,"dewp":19,"wdir":200,"wspd":7,"visib":"6+","altim":1013,"clouds":[{"cover":"SCT","base":3000},{"cover":"BKN","base":10000}],"obsTime":1779040800},"SBFL":{"icaoId":"SBFL","flightCategory":"VFR","rawOb":"METAR SBFL 171800Z 11007KT 9999 SCT030 SCT066 21/17 Q1012","temp":21,"dewp":17,"wdir":110,"wspd":7,"visib":"6+","altim":1012,"clouds":[{"cover":"SCT","base":3000},{"cover":"SCT","base":6600}],"obsTime":1779040800},"SBFZ":{"icaoId":"SBFZ","flightCategory":"VFR","rawOb":"METAR SBFZ 171800Z 10012KT 9999 SCT017 FEW030TCU BKN100 28/24 Q1010","temp":28,"dewp":24,"wdir":100,"wspd":12,"visib":"6+","altim":1010,"clouds":[{"cover":"SCT","base":1700},{"cover":"FEW","base":3000},{"cover":"BKN","base":10000}],"obsTime":1779040800},"SBGL":{"icaoId":"SBGL","flightCategory":"MVFR","rawOb":"METAR SBGL 171800Z 14004KT 8000 SCT030 28/22 Q1011","temp":28,"dewp":22,"wdir":140,"wspd":4,"visib":4.97,"altim":1011,"clouds":[{"cover":"SCT","base":3000}],"obsTime":1779040800},"SBGO":{"icaoId":"SBGO","flightCategory":"VFR","rawOb":"METAR SBGO 171800Z 31006KT 270V010 9999 SCT049 31/17 Q1015","temp":31,"dewp":17,"wdir":310,"wspd":6,"visib":"6+","altim":1015,"clouds":[{"cover":"SCT","base":4900}],"obsTime":1779040800},"SBGR":{"icaoId":"SBGR","flightCategory":"VFR","rawOb":"METAR SBGR 171800Z 26003KT CAVOK 22/17 Q1016","temp":22,"dewp":17,"wdir":260,"wspd":3,"visib":"6+","altim":1016,"clouds":[],"obsTime":1779040800},"SBHT":{"icaoId":"SBHT","flightCategory":"MVFR","rawOb":"METAR SBHT 171800Z 15004KT 9999 BKN030 29/24 Q1010","temp":29,"dewp":24,"wdir":150,"wspd":4,"visib":"6+","altim":1010,"clouds":[{"cover":"BKN","base":3000}],"obsTime":1779040800},"SBIL":{"icaoId":"SBIL","flightCategory":"VFR","rawOb":"METAR SBIL 171800Z 19006KT 160V250 9999 SCT020 27/25 Q1013","temp":27,"dewp":25,"wdir":190,"wspd":6,"visib":"6+","altim":1013,"clouds":[{"cover":"SCT","base":2000}],"obsTime":1779040800},"SBJU":{"icaoId":"SBJU","flightCategory":"VFR","rawOb":"METAR SBJU 171800Z 08005KT 9999 FEW022 32/19 Q1012","temp":32,"dewp":19,"wdir":80,"wspd":5,"visib":"6+","altim":1012,"clouds":[{"cover":"FEW","base":2200}],"obsTime":1779040800},"SBLO":{"icaoId":"SBLO","flightCategory":"LIFR","rawOb":"METAR SBLO 171800Z 01009KT 8000 BKN004 OVC070 18/17 Q1016","temp":18,"dewp":17,"wdir":10,"wspd":9,"visib":4.97,"altim":1016,"clouds":[{"cover":"BKN","base":400},{"cover":"OVC","base":7000}],"obsTime":1779040800},"SBMA":{"icaoId":"SBMA","flightCategory":"VFR","rawOb":"METAR SBMA 171800Z 02004KT 9999 SCT025 FEW027TCU 33/23 Q1010","temp":33,"dewp":23,"wdir":20,"wspd":4,"visib":"6+","altim":1010,"clouds":[{"cover":"SCT","base":2500},{"cover":"FEW","base":2700}],"obsTime":1779040800},"SBME":{"icaoId":"SBME","flightCategory":"VFR","rawOb":"METAR SBME 171800Z 06009KT CAVOK 31/21 Q1011","temp":31,"dewp":21,"wdir":60,"wspd":9,"visib":"6+","altim":1011,"clouds":[],"obsTime":1779040800},"SBMG":{"icaoId":"SBMG","flightCategory":"VFR","rawOb":"METAR SBMG 171800Z 02011KT 350V050 9999 FEW009 SCT033 BKN100 19/18 Q1013","temp":19,"dewp":18,"wdir":20,"wspd":11,"visib":"6+","altim":1013,"clouds":[{"cover":"FEW","base":900},{"cover":"SCT","base":3300},{"cover":"BKN","base":10000}],"obsTime":1779040800},"SBMK":{"icaoId":"SBMK","flightCategory":"VFR","rawOb":"METAR SBMK 171800Z 07008KT 9999 FEW049 30/13 Q1015","temp":30,"dewp":13,"wdir":70,"wspd":8,"visib":"6+","altim":1015,"clouds":[{"cover":"FEW","base":4900}],"obsTime":1779040800},"SBMO":{"icaoId":"SBMO","flightCategory":"VFR","rawOb":"METAR SBMO 171800Z 10012KT 9999 VCSH FEW024 SCT040 BKN052 28/23 Q1013","temp":28,"dewp":23,"wdir":100,"wspd":12,"visib":"6+","altim":1013,"clouds":[{"cover":"FEW","base":2400},{"cover":"SCT","base":4000},{"cover":"BKN","base":5200}],"obsTime":1779040800},"SBMQ":{"icaoId":"SBMQ","flightCategory":"MVFR","rawOb":"METAR SBMQ 171800Z 07009KT 9999 BKN026 FEW032TCU 31/24 Q1010","temp":31,"dewp":24,"wdir":70,"wspd":9,"visib":"6+","altim":1010,"clouds":[{"cover":"BKN","base":2600},{"cover":"FEW","base":3200}],"obsTime":1779040800},"SBNT":{"icaoId":"SBNT","flightCategory":"MVFR","rawOb":"METAR SBNT 171800Z 16005KT 6000 VCSH BKN013 BKN030 BKN050 24/23 Q1012","temp":24,"dewp":23,"wdir":160,"wspd":5,"visib":3.73,"altim":1012,"clouds":[{"cover":"BKN","base":1300},{"cover":"BKN","base":3000},{"cover":"BKN","base":5000}],"obsTime":1779040800},"SBPA":{"icaoId":"SBPA","flightCategory":"IFR","rawOb":"METAR SBPA 171800Z 19009KT 160V220 9999 OVC009 17/15 Q1015","temp":17,"dewp":15,"wdir":190,"wspd":9,"visib":"6+","altim":1015,"clouds":[{"cover":"OVC","base":900}],"obsTime":1779040800},"SBPJ":{"icaoId":"SBPJ","flightCategory":"VFR","rawOb":"METAR SBPJ 171800Z 00000KT 9999 SCT040 35/20 Q1011","temp":35,"dewp":20,"wdir":0,"wspd":0,"visib":"6+","altim":1011,"clouds":[{"cover":"SCT","base":4000}],"obsTime":1779040800},"SBPV":{"icaoId":"SBPV","flightCategory":"MVFR","rawOb":"METAR SBPV 171800Z 05005KT 9999 BKN020 FEW035TCU 32/28 Q1010","temp":32,"dewp":28,"wdir":50,"wspd":5,"visib":"6+","altim":1010,"clouds":[{"cover":"BKN","base":2000},{"cover":"FEW","base":3500}],"obsTime":1779040800},"SBRB":{"icaoId":"SBRB","flightCategory":"VFR","rawOb":"METAR SBRB 171800Z 32005KT 9999 FEW025 FEW030TCU SCT100 32/22 Q1012","temp":32,"dewp":22,"wdir":320,"wspd":5,"visib":"6+","altim":1012,"clouds":[{"cover":"FEW","base":2500},{"cover":"FEW","base":3000},{"cover":"SCT","base":10000}],"obsTime":1779040800},"SBRF":{"icaoId":"SBRF","flightCategory":"VFR","rawOb":"METAR SBRF 171800Z 10008KT 9999 SCT023 SCT060 29/23 Q1012","temp":29,"dewp":23,"wdir":100,"wspd":8,"visib":"6+","altim":1012,"clouds":[{"cover":"SCT","base":2300},{"cover":"SCT","base":6000}],"obsTime":1779040800},"SBSG":{"icaoId":"SBSG","flightCategory":"MVFR","rawOb":"METAR SBSG 171800Z 17006KT 9999 VCSH SCT005 BKN030 25/24 Q1012","temp":25,"dewp":24,"wdir":170,"wspd":6,"visib":"6+","altim":1012,"clouds":[{"cover":"SCT","base":500},{"cover":"BKN","base":3000}],"obsTime":1779040800},"SBSL":{"icaoId":"SBSL","flightCategory":"MVFR","rawOb":"METAR SBSL 171800Z 05012KT 9999 VCSH BKN025 30/25 Q1010","temp":30,"dewp":25,"wdir":50,"wspd":12,"visib":"6+","altim":1010,"clouds":[{"cover":"BKN","base":2500}],"obsTime":1779040800},"SBSN":{"icaoId":"SBSN","flightCategory":"VFR","rawOb":"METAR SBSN 171800Z 09010KT 9999 FEW020 31/23 Q1010","temp":31,"dewp":23,"wdir":90,"wspd":10,"visib":"6+","altim":1010,"clouds":[{"cover":"FEW","base":2000}],"obsTime":1779040800},"SBSP":{"icaoId":"SBSP","flightCategory":"VFR","rawOb":"METAR SBSP 171800Z 28005KT 9999 FEW040 BKN100 21/16 Q1017","temp":21,"dewp":16,"wdir":280,"wspd":5,"visib":"6+","altim":1017,"clouds":[{"cover":"FEW","base":4000},{"cover":"BKN","base":10000}],"obsTime":1779040800},"SBSV":{"icaoId":"SBSV","flightCategory":"IFR","rawOb":"METAR SBSV 171800Z 21005KT 160V270 3000 RA BKN010 FEW023TCU BKN025 BKN060 25/23 Q1013","temp":25,"dewp":23,"wdir":210,"wspd":5,"visib":1.86,"altim":1013,"clouds":[{"cover":"BKN","base":1000},{"cover":"FEW","base":2300},{"cover":"BKN","base":2500},{"cover":"BKN","base":6000}],"obsTime":1779040800},"SBTE":{"icaoId":"SBTE","flightCategory":"VFR","rawOb":"METAR SBTE 171800Z 14007KT 110V180 9999 SCT025 32/21 Q1009","temp":32,"dewp":21,"wdir":140,"wspd":7,"visib":"6+","altim":1009,"clouds":[{"cover":"SCT","base":2500}],"obsTime":1779040800},"SBUL":{"icaoId":"SBUL","flightCategory":"VFR","rawOb":"METAR SBUL 171800Z 03010KT 9999 FEW030 27/17 Q1017","temp":27,"dewp":17,"wdir":30,"wspd":10,"visib":"6+","altim":1017,"clouds":[{"cover":"FEW","base":3000}],"obsTime":1779040800},"SBUR":{"icaoId":"SBUR","flightCategory":"VFR","rawOb":"METAR SBUR 171800Z 34010KT 9999 SCT049 30/17 Q1016","temp":30,"dewp":17,"wdir":340,"wspd":10,"visib":"6+","altim":1016,"clouds":[{"cover":"SCT","base":4900}],"obsTime":1779040800},"SBVT":{"icaoId":"SBVT","flightCategory":"VFR","rawOb":"METAR SBVT 171800Z 06008KT 9999 FEW035 28/22 Q1013","temp":28,"dewp":22,"wdir":60,"wspd":8,"visib":"6+","altim":1013,"clouds":[{"cover":"FEW","base":3500}],"obsTime":1779040800},"SBOI":{"icaoId":"SBOI","flightCategory":"MVFR","rawOb":"METAR SBOI 171800Z AUTO VRB03KT 7000 +RA FEW009 BKN019 25/24 Q1012","temp":25,"dewp":24,"wdir":"VRB","wspd":3,"visib":4.35,"altim":1012,"clouds":[{"cover":"FEW","base":900},{"cover":"BKN","base":1900}],"obsTime":1779040800},"SBCC":{"icaoId":"SBCC","flightCategory":"MVFR","rawOb":"METAR SBCC 171800Z /////KT 9999 TS BKN020 FEW030CB ///// Q1014","temp":null,"dewp":null,"wdir":null,"wspd":null,"visib":"6+","altim":1014,"clouds":[{"cover":"BKN","base":2000},{"cover":"FEW","base":3000}],"obsTime":1779040800},"SBAX":{"icaoId":"SBAX","flightCategory":"VFR","rawOb":"METAR SBAX 171800Z AUTO 03008KT 350V050 CAVOK 26/16 Q1017","temp":26,"dewp":16,"wdir":30,"wspd":8,"visib":"6+","altim":1017,"clouds":[],"obsTime":1779040800},"SBBH":{"icaoId":"SBBH","flightCategory":"VFR","rawOb":"METAR SBBH 171800Z 00000KT 9999 SCT040 26/18 Q1017","temp":26,"dewp":18,"wdir":0,"wspd":0,"visib":"6+","altim":1017,"clouds":[{"cover":"SCT","base":4000}],"obsTime":1779040800},"SBBQ":{"icaoId":"SBBQ","flightCategory":"VFR","rawOb":"METAR SBBQ 171800Z 35005KT 320V050 9999 SCT035 24/15 Q1020","temp":24,"dewp":15,"wdir":350,"wspd":5,"visib":"6+","altim":1020,"clouds":[{"cover":"SCT","base":3500}],"obsTime":1779040800},"SBBU":{"icaoId":"SBBU","flightCategory":"VFR","rawOb":"METAR SBBU 171800Z 19007KT 9999 SCT040 SCT075 OVC100 19/18 Q1018","temp":19,"dewp":18,"wdir":190,"wspd":7,"visib":"6+","altim":1018,"clouds":[{"cover":"SCT","base":4000},{"cover":"SCT","base":7500},{"cover":"OVC","base":10000}],"obsTime":1779040800},"SBCA":{"icaoId":"SBCA","flightCategory":"LIFR","rawOb":"METAR SBCA 171800Z 31008KT 2000 -DZ OVC002 18/18 Q1015","temp":18,"dewp":18,"wdir":310,"wspd":8,"visib":1.24,"altim":1015,"clouds":[{"cover":"OVC","base":200}],"obsTime":1779040800},"SBAR":{"icaoId":"SBAR","flightCategory":"MVFR","rawOb":"METAR SBAR 171800Z 10009KT 9999 -RA FEW015 BKN025 FEW026TCU 28/23 Q1012","temp":28,"dewp":23,"wdir":100,"wspd":9,"visib":"6+","altim":1012,"clouds":[{"cover":"FEW","base":1500},{"cover":"BKN","base":2500},{"cover":"FEW","base":2600}],"obsTime":1779040800},"SBCJ":{"icaoId":"SBCJ","flightCategory":"VFR","rawOb":"METAR SBCJ 171800Z 00000KT 9999 SCT023 29/22 Q1015","temp":29,"dewp":22,"wdir":0,"wspd":0,"visib":"6+","altim":1015,"clouds":[{"cover":"SCT","base":2300}],"obsTime":1779040800},"SBCO":{"icaoId":"SBCO","flightCategory":"IFR","rawOb":"METAR SBCO 171800Z 18007KT 150V220 9000 -DZ OVC009 17/15 Q1015","temp":17,"dewp":15,"wdir":180,"wspd":7,"visib":5.59,"altim":1015,"clouds":[{"cover":"OVC","base":900}],"obsTime":1779040800},"SBDN":{"icaoId":"SBDN","flightCategory":"MVFR","rawOb":"METAR SBDN 171800Z 05006KT 5000 -RA SCT005 BKN060 OVC100 18/17 Q1016 RETS","temp":18,"dewp":17,"wdir":50,"wspd":6,"visib":3.11,"altim":1016,"clouds":[{"cover":"SCT","base":500},{"cover":"BKN","base":6000},{"cover":"OVC","base":10000}],"obsTime":1779040800},"SBES":{"icaoId":"SBES","flightCategory":"VFR","rawOb":"METAR SBES 171800Z VRB09KT CAVOK 28/// Q1012","temp":null,"dewp":null,"wdir":"VRB","wspd":9,"visib":"6+","altim":1012,"clouds":[],"obsTime":1779040800},"SBGM":{"icaoId":"SBGM","flightCategory":"MVFR","rawOb":"METAR SBGM 171800Z 30005KT 9999 BKN030 33/22 Q1011","temp":33,"dewp":22,"wdir":300,"wspd":5,"visib":"6+","altim":1011,"clouds":[{"cover":"BKN","base":3000}],"obsTime":1779040800},"SBIP":{"icaoId":"SBIP","flightCategory":"VFR","rawOb":"METAR SBIP 171800Z AUTO 35006KT 300V030 CAVOK 29/18 Q1015","temp":29,"dewp":18,"wdir":350,"wspd":6,"visib":"6+","altim":1015,"clouds":[],"obsTime":1779040800},"SBKG":{"icaoId":"SBKG","flightCategory":"MVFR","rawOb":"METAR SBKG 171800Z 10009KT 8000 BKN010 BKN080 23/22 Q1015","temp":23,"dewp":22,"wdir":100,"wspd":9,"visib":4.97,"altim":1015,"clouds":[{"cover":"BKN","base":1000},{"cover":"BKN","base":8000}],"obsTime":1779040800},"SBPB":{"icaoId":"SBPB","flightCategory":"VFR","rawOb":"METAR SBPB 171800Z 02007KT 9999 FEW016 FEW025TCU 31/25 Q1010","temp":31,"dewp":25,"wdir":20,"wspd":7,"visib":"6+","altim":1010,"clouds":[{"cover":"FEW","base":1600},{"cover":"FEW","base":2500}],"obsTime":1779040800},"SBPL":{"icaoId":"SBPL","flightCategory":"VFR","rawOb":"METAR SBPL 171800Z 08010KT CAVOK 33/15 Q1012","temp":33,"dewp":15,"wdir":80,"wspd":10,"visib":"6+","altim":1012,"clouds":[],"obsTime":1779040800},"SBPP":{"icaoId":"SBPP","flightCategory":"LIFR","rawOb":"METAR SBPP 171800Z 22008KT 0000 FG VV000 18/18 Q1015","temp":18,"dewp":18,"wdir":220,"wspd":8,"visib":0,"altim":1015,"clouds":[{"cover":"OVX","base":0}],"obsTime":1779040800},"SBPS":{"icaoId":"SBPS","flightCategory":"VFR","rawOb":"METAR SBPS 171800Z 08006KT 9999 SCT020 BKN090 26/24 Q1014","temp":26,"dewp":24,"wdir":80,"wspd":6,"visib":"6+","altim":1014,"clouds":[{"cover":"SCT","base":2000},{"cover":"BKN","base":9000}],"obsTime":1779040800},"SBSC":{"icaoId":"SBSC","flightCategory":"MVFR","rawOb":"METAR SBSC 171800Z 06002KT 8000 FEW020 SCT100 30/22 Q1011","temp":30,"dewp":22,"wdir":60,"wspd":2,"visib":4.97,"altim":1011,"clouds":[{"cover":"FEW","base":2000},{"cover":"SCT","base":10000}],"obsTime":1779040800},"SBSJ":{"icaoId":"SBSJ","flightCategory":"MVFR","rawOb":"METAR SBSJ 171800Z 23003KT 200V280 6000 NSC 24/19 Q1016","temp":24,"dewp":19,"wdir":230,"wspd":3,"visib":3.73,"altim":1016,"clouds":[],"obsTime":1779040800},"SBSM":{"icaoId":"SBSM","flightCategory":"IFR","rawOb":"METAR SBSM 171800Z 00000KT 3000 -DZ BR BKN007 OVC010 15/15 Q1017","temp":15,"dewp":15,"wdir":0,"wspd":0,"visib":1.86,"altim":1017,"clouds":[{"cover":"BKN","base":700},{"cover":"OVC","base":1000}],"obsTime":1779040800},"SBSR":{"icaoId":"SBSR","flightCategory":"MVFR","rawOb":"METAR SBSR 171800Z 20010KT 7000 TS BKN025 FEW030CB BKN070 20/19 Q1016 RERA","temp":20,"dewp":19,"wdir":200,"wspd":10,"visib":4.35,"altim":1016,"clouds":[{"cover":"BKN","base":2500},{"cover":"FEW","base":3000},{"cover":"BKN","base":7000}],"obsTime":1779040800},"SBTF":{"icaoId":"SBTF","flightCategory":"VFR","rawOb":"METAR SBTF 171800Z 34004KT 9999 SCT020 31/25 Q1009","temp":31,"dewp":25,"wdir":340,"wspd":4,"visib":"6+","altim":1009,"clouds":[{"cover":"SCT","base":2000}],"obsTime":1779040800},"SBTT":{"icaoId":"SBTT","flightCategory":"MVFR","rawOb":"METAR SBTT 171800Z 25005KT 9999 BKN027 28/23 Q1011","temp":28,"dewp":23,"wdir":250,"wspd":5,"visib":"6+","altim":1011,"clouds":[{"cover":"BKN","base":2700}],"obsTime":1779040800},"SBUY":{"icaoId":"SBUY","flightCategory":"MVFR","rawOb":"METAR SBUY 171800Z 04006KT 9999 BKN012 BKN100 27/24 Q1010","temp":27,"dewp":24,"wdir":40,"wspd":6,"visib":"6+","altim":1010,"clouds":[{"cover":"BKN","base":1200},{"cover":"BKN","base":10000}],"obsTime":1779040800},"SBVH":{"icaoId":"SBVH","flightCategory":"VFR","rawOb":"METAR SBVH 171800Z 34006KT 9999 SCT035 FEW040TCU 30/22 Q1014","temp":30,"dewp":22,"wdir":340,"wspd":6,"visib":"6+","altim":1014,"clouds":[{"cover":"SCT","base":3500},{"cover":"FEW","base":4000}],"obsTime":1779040800},"SBAU":{"icaoId":"SBAU","flightCategory":"IFR","rawOb":"METAR SBAU 171800Z 18012KT 3000 -TSRA FEW005 FEW050CB OVC070 19/18 Q1017","temp":19,"dewp":18,"wdir":180,"wspd":12,"visib":1.86,"altim":1017,"clouds":[{"cover":"FEW","base":500},{"cover":"FEW","base":5000},{"cover":"OVC","base":7000}],"obsTime":1779040800},"SBNM":{"icaoId":"SBNM","flightCategory":"MVFR","rawOb":"METAR SBNM 171800Z AUTO 19007KT 9999 SCT007 BKN015 OVC018 17/15 Q1015","temp":17,"dewp":15,"wdir":190,"wspd":7,"visib":"6+","altim":1015,"clouds":[{"cover":"SCT","base":700},{"cover":"BKN","base":1500},{"cover":"OVC","base":1800}],"obsTime":1779040800},"SBTC":{"icaoId":"SBTC","flightCategory":"VFR","rawOb":"METAR SBTC 171800Z 14005KT 9999 SCT020 28/24 Q1013","temp":28,"dewp":24,"wdir":140,"wspd":5,"visib":"6+","altim":1013,"clouds":[{"cover":"SCT","base":2000}],"obsTime":1779040800},"SBAF":{"icaoId":"SBAF","flightCategory":"VFR","rawOb":"METAR SBAF 171800Z 18005KT CAVOK 30/23 Q1011","temp":30,"dewp":23,"wdir":180,"wspd":5,"visib":"6+","altim":1011,"clouds":[],"obsTime":1779040800},"SBAN":{"icaoId":"SBAN","flightCategory":"VFR","rawOb":"METAR SBAN 171800Z 08003KT 9999 BKN045 28/15 Q1019","temp":28,"dewp":15,"wdir":80,"wspd":3,"visib":"6+","altim":1019,"clouds":[{"cover":"BKN","base":4500}],"obsTime":1779040800},"SBLE":{"icaoId":"SBLE","flightCategory":"VFR","rawOb":"METAR SBLE 171800Z AUTO 18004KT 130V220 CAVOK 29/17 Q1014","temp":29,"dewp":17,"wdir":180,"wspd":4,"visib":"6+","altim":1014,"clouds":[],"obsTime":1779040800},"SBJV":{"icaoId":"SBJV","flightCategory":"MVFR","rawOb":"METAR SBJV 171800Z 04005KT 9000 BKN010 BKN040 21/19 Q1012","temp":21,"dewp":19,"wdir":40,"wspd":5,"visib":5.59,"altim":1012,"clouds":[{"cover":"BKN","base":1000},{"cover":"BKN","base":4000}],"obsTime":1779040800},"SBIH":{"icaoId":"SBIH","flightCategory":"VFR","rawOb":"METAR SBIH 171800Z 08008KT 9999 SCT018 32/24 Q1009","temp":32,"dewp":24,"wdir":80,"wspd":8,"visib":"6+","altim":1009,"clouds":[{"cover":"SCT","base":1800}],"obsTime":1779040800},"SBGW":{"icaoId":"SBGW","flightCategory":"VFR","rawOb":"METAR SBGW 171800Z 04004KT 360V110 9999 FEW030 25/16 Q1015","temp":25,"dewp":16,"wdir":40,"wspd":4,"visib":"6+","altim":1015,"clouds":[{"cover":"FEW","base":3000}],"obsTime":1779040800},"SBJR":{"icaoId":"SBJR","flightCategory":"MVFR","rawOb":"METAR SBJR 171800Z 20003KT 8000 NSC 28/21 Q1011","temp":28,"dewp":21,"wdir":200,"wspd":3,"visib":4.97,"altim":1011,"clouds":[],"obsTime":1779040800},"SBLS":{"icaoId":"SBLS","flightCategory":"VFR","rawOb":"METAR SBLS 171800Z 10004KT 360V130 9999 SCT030 26/18 Q1017","temp":26,"dewp":18,"wdir":100,"wspd":4,"visib":"6+","altim":1017,"clouds":[{"cover":"SCT","base":3000}],"obsTime":1779040800},"SBMT":{"icaoId":"SBMT","flightCategory":"VFR","rawOb":"METAR SBMT 171800Z 26006KT 9000 -DZ SCT025 BKN040 OVC080 21/17 Q1016","temp":21,"dewp":17,"wdir":260,"wspd":6,"visib":5.59,"altim":1016,"clouds":[{"cover":"SCT","base":2500},{"cover":"BKN","base":4000},{"cover":"OVC","base":8000}],"obsTime":1779040800},"SBST":{"icaoId":"SBST","flightCategory":"MVFR","rawOb":"METAR SBST 171800Z 13002KT 8000 FEW030 BKN070 23/22 Q1012","temp":23,"dewp":22,"wdir":130,"wspd":2,"visib":4.97,"altim":1012,"clouds":[{"cover":"FEW","base":3000},{"cover":"BKN","base":7000}],"obsTime":1779040800},"SBTA":{"icaoId":"SBTA","flightCategory":"VFR","rawOb":"METAR SBTA 171800Z 03004KT 9999 FEW025 SCT100 25/18 Q1014","temp":25,"dewp":18,"wdir":30,"wspd":4,"visib":"6+","altim":1014,"clouds":[{"cover":"FEW","base":2500},{"cover":"SCT","base":10000}],"obsTime":1779040800},"SBJP":{"icaoId":"SBJP","flightCategory":"VFR","rawOb":"METAR SBJP 171800Z 07006KT 030V110 9999 SCT020 SCT100 28/24 Q1012","temp":28,"dewp":24,"wdir":70,"wspd":6,"visib":"6+","altim":1012,"clouds":[{"cover":"SCT","base":2000},{"cover":"SCT","base":10000}],"obsTime":1779040800}}}