{"updated":1775986475,"count":63,"data":{"SBRF":{"icaoId":"SBRF","flightCategory":"MVFR","rawOb":"METAR SBRF 120800Z 22004KT 180V250 9999 VCSH FEW010 BKN017 FEW023TCU BKN060 24/24 Q1012","temp":24,"dewp":24,"wdir":220,"wspd":4,"visib":"6+","altim":1012,"clouds":[{"cover":"FEW","base":1000},{"cover":"BKN","base":1700},{"cover":"FEW","base":2300},{"cover":"BKN","base":6000}],"obsTime":1775980800},"SBMK":{"icaoId":"SBMK","flightCategory":"MVFR","rawOb":"METAR SBMK 120800Z 07004KT 9999 BKN030 21/18 Q1019","temp":21,"dewp":18,"wdir":70,"wspd":4,"visib":"6+","altim":1019,"clouds":[{"cover":"BKN","base":3000}],"obsTime":1775980800},"SBFZ":{"icaoId":"SBFZ","flightCategory":"VFR","rawOb":"METAR SBFZ 120800Z 00000KT 9999 SCT017 25/24 Q1011","temp":25,"dewp":24,"wdir":0,"wspd":0,"visib":"6+","altim":1011,"clouds":[{"cover":"SCT","base":1700}],"obsTime":1775980800},"SBMO":{"icaoId":"SBMO","flightCategory":"VFR","rawOb":"METAR SBMO 120800Z 27004KT 9999 FEW025 BKN070 23/23 Q1013","temp":23,"dewp":23,"wdir":270,"wspd":4,"visib":"6+","altim":1013,"clouds":[{"cover":"FEW","base":2500},{"cover":"BKN","base":7000}],"obsTime":1775980800},"SBCG":{"icaoId":"SBCG","flightCategory":"VFR","rawOb":"METAR SBCG 120800Z 07015KT CAVOK 24/20 Q1015","temp":24,"dewp":20,"wdir":70,"wspd":15,"visib":"6+","altim":1015,"clouds":[],"obsTime":1775980800},"SBMQ":{"icaoId":"SBMQ","flightCategory":"MVFR","rawOb":"METAR SBMQ 120800Z 34003KT 9999 -RA FEW012 BKN025 OVC066 24/24 Q1011","temp":24,"dewp":24,"wdir":340,"wspd":3,"visib":"6+","altim":1011,"clouds":[{"cover":"FEW","base":1200},{"cover":"BKN","base":2500},{"cover":"OVC","base":6600}],"obsTime":1775980800},"SBNT":{"icaoId":"SBNT","flightCategory":"VFR","rawOb":"METAR SBNT 120800Z 20002KT 9999 SCT006 BKN050 25/25 Q1011","temp":25,"dewp":25,"wdir":200,"wspd":2,"visib":"6+","altim":1011,"clouds":[{"cover":"SCT","base":600},{"cover":"BKN","base":5000}],"obsTime":1775980800},"SBGL":{"icaoId":"SBGL","flightCategory":"VFR","rawOb":"METAR SBGL 120800Z 33002KT 9999 FEW008 21/19 Q1020","temp":21,"dewp":19,"wdir":330,"wspd":2,"visib":"6+","altim":1020,"clouds":[{"cover":"FEW","base":800}],"obsTime":1775980800},"SBPA":{"icaoId":"SBPA","flightCategory":"MVFR","rawOb":"METAR SBPA 120800Z 06003KT 010V080 8000 -RA BKN035 FEW040TCU OVC090 20/19 Q1018","temp":20,"dewp":19,"wdir":60,"wspd":3,"visib":4.97,"altim":1018,"clouds":[{"cover":"BKN","base":3500},{"cover":"FEW","base":4000},{"cover":"OVC","base":9000}],"obsTime":1775980800},"SBGO":{"icaoId":"SBGO","flightCategory":"VFR","rawOb":"METAR SBGO 120800Z 13005KT 090V150 CAVOK 22/19 Q1018","temp":22,"dewp":19,"wdir":130,"wspd":5,"visib":"6+","altim":1018,"clouds":[],"obsTime":1775980800},"SBBV":{"icaoId":"SBBV","flightCategory":"VFR","rawOb":"METAR SBBV 120800Z 09010KT CAVOK 26/23 Q1011","temp":26,"dewp":23,"wdir":90,"wspd":10,"visib":"6+","altim":1011,"clouds":[],"obsTime":1775980800},"SBPJ":{"icaoId":"SBPJ","flightCategory":"VFR","rawOb":"METAR SBPJ 120800Z VRB01KT 9999 FEW011 SCT090 24/24 Q1012","temp":24,"dewp":24,"wdir":"VRB","wspd":1,"visib":"6+","altim":1012,"clouds":[{"cover":"FEW","base":1100},{"cover":"SCT","base":9000}],"obsTime":1775980800},"SBCT":{"icaoId":"SBCT","flightCategory":"MVFR","rawOb":"METAR SBCT 120800Z 05003KT 9999 BKN014 14/14 Q1023","temp":14,"dewp":14,"wdir":50,"wspd":3,"visib":"6+","altim":1023,"clouds":[{"cover":"BKN","base":1400}],"obsTime":1775980800},"SBPV":{"icaoId":"SBPV","flightCategory":"VFR","rawOb":"METAR SBPV 120800Z 07003KT CAVOK 25/23 Q1010","temp":25,"dewp":23,"wdir":70,"wspd":3,"visib":"6+","altim":1010,"clouds":[],"obsTime":1775980800},"SBRB":{"icaoId":"SBRB","flightCategory":"IFR","rawOb":"METAR SBRB 120800Z 00000KT 2000 BR FEW030 23/23 Q1011","temp":23,"dewp":23,"wdir":0,"wspd":0,"visib":1.24,"altim":1011,"clouds":[{"cover":"FEW","base":3000}],"obsTime":1775980800},"SBGR":{"icaoId":"SBGR","flightCategory":"VFR","rawOb":"METAR SBGR 120800Z 07006KT 9999 FEW011 15/14 Q1022","temp":15,"dewp":14,"wdir":70,"wspd":6,"visib":"6+","altim":1022,"clouds":[{"cover":"FEW","base":1100}],"obsTime":1775980800},"SBCF":{"icaoId":"SBCF","flightCategory":"VFR","rawOb":"METAR SBCF 120800Z 15008KT 9999 SCT017 18/16 Q1022","temp":18,"dewp":16,"wdir":150,"wspd":8,"visib":"6+","altim":1022,"clouds":[{"cover":"SCT","base":1700}],"obsTime":1775980800},"SBBE":{"icaoId":"SBBE","flightCategory":"VFR","rawOb":"METAR SBBE 120800Z 08004KT 9999 FEW015 SCT020 25/24 Q1011","temp":25,"dewp":24,"wdir":80,"wspd":4,"visib":"6+","altim":1011,"clouds":[{"cover":"FEW","base":1500},{"cover":"SCT","base":2000}],"obsTime":1775980800},"SBJU":{"icaoId":"SBJU","flightCategory":"VFR","rawOb":"METAR SBJU 120800Z 00000KT 9999 FEW020 22/21 Q1014","temp":22,"dewp":21,"wdir":0,"wspd":0,"visib":"6+","altim":1014,"clouds":[{"cover":"FEW","base":2000}],"obsTime":1775980800},"SBSG":{"icaoId":"SBSG","flightCategory":"VFR","rawOb":"METAR SBSG 120800Z VRB02KT 9999 FEW014 FEW025TCU BKN040 24/24 Q1012","temp":24,"dewp":24,"wdir":"VRB","wspd":2,"visib":"6+","altim":1012,"clouds":[{"cover":"FEW","base":1400},{"cover":"FEW","base":2500},{"cover":"BKN","base":4000}],"obsTime":1775980800},"SBCB":{"icaoId":"SBCB","flightCategory":"VFR","rawOb":"METAR SBCB 120900Z 01004KT 9999 SCT020 22/20 Q1020","temp":22,"dewp":20,"wdir":10,"wspd":4,"visib":"6+","altim":1020,"clouds":[{"cover":"SCT","base":2000}],"obsTime":1775984400},"SBSL":{"icaoId":"SBSL","flightCategory":"VFR","rawOb":"METAR SBSL 120800Z 11007KT 9999 FEW020 SCT080 25/24 Q1011","temp":25,"dewp":24,"wdir":110,"wspd":7,"visib":"6+","altim":1011,"clouds":[{"cover":"FEW","base":2000},{"cover":"SCT","base":8000}],"obsTime":1775980800},"SBEG":{"icaoId":"SBEG","flightCategory":"VFR","rawOb":"METAR SBEG 120800Z 05003KT 350V080 9999 VCTS SCT010 FEW025CB BKN090 24/23 Q1011 RETS","temp":24,"dewp":23,"wdir":50,"wspd":3,"visib":"6+","altim":1011,"clouds":[{"cover":"SCT","base":1000},{"cover":"FEW","base":2500},{"cover":"BKN","base":9000}],"obsTime":1775980800},"SBSN":{"icaoId":"SBSN","flightCategory":"VFR","rawOb":"METAR SBSN 120800Z 08008KT 9999 -RA SCT013 BKN070 27/25 Q1011","temp":27,"dewp":25,"wdir":80,"wspd":8,"visib":"6+","altim":1011,"clouds":[{"cover":"SCT","base":1300},{"cover":"BKN","base":7000}],"obsTime":1775980800},"SBKP":{"icaoId":"SBKP","flightCategory":"VFR","rawOb":"METAR SBKP 120800Z 10004KT CAVOK 17/14 Q1020","temp":17,"dewp":14,"wdir":100,"wspd":4,"visib":"6+","altim":1020,"clouds":[],"obsTime":1775980800},"SBSP":{"icaoId":"SBSP","flightCategory":"VFR","rawOb":"METAR SBSP 120800Z AUTO 09006KT 050V130 CAVOK 17/14 Q1022","temp":17,"dewp":14,"wdir":90,"wspd":6,"visib":"6+","altim":1022,"clouds":[],"obsTime":1775980800},"SBBR":{"icaoId":"SBBR","flightCategory":"IFR","rawOb":"METAR SBBR 120800Z 12011KT 9999 BKN008 20/19 Q1020","temp":20,"dewp":19,"wdir":120,"wspd":11,"visib":"6+","altim":1020,"clouds":[{"cover":"BKN","base":800}],"obsTime":1775980800},"SBSV":{"icaoId":"SBSV","flightCategory":"VFR","rawOb":"METAR SBSV 120800Z 12005KT 9999 SCT022 27/23 Q1013","temp":27,"dewp":23,"wdir":120,"wspd":5,"visib":"6+","altim":1013,"clouds":[{"cover":"SCT","base":2200}],"obsTime":1775980800},"SBLO":{"icaoId":"SBLO","flightCategory":"VFR","rawOb":"METAR SBLO 120800Z 10003KT CAVOK 17/14 Q1020","temp":17,"dewp":14,"wdir":100,"wspd":3,"visib":"6+","altim":1020,"clouds":[],"obsTime":1775980800},"SBTE":{"icaoId":"SBTE","flightCategory":"VFR","rawOb":"METAR SBTE 120800Z 16005KT 9999 FEW010 BKN090 25/24 Q1012","temp":25,"dewp":24,"wdir":160,"wspd":5,"visib":"6+","altim":1012,"clouds":[{"cover":"FEW","base":1000},{"cover":"BKN","base":9000}],"obsTime":1775980800},"SBUL":{"icaoId":"SBUL","flightCategory":"VFR","rawOb":"METAR SBUL 120800Z 12008KT 080V150 CAVOK 20/18 Q1020","temp":20,"dewp":18,"wdir":120,"wspd":8,"visib":"6+","altim":1020,"clouds":[],"obsTime":1775980800},"SBFI":{"icaoId":"SBFI","flightCategory":"VFR","rawOb":"METAR SBFI 120800Z 06004KT 9999 VCTS FEW030 FEW035CB BKN100 21/20 Q1015","temp":21,"dewp":20,"wdir":60,"wspd":4,"visib":"6+","altim":1015,"clouds":[{"cover":"FEW","base":3000},{"cover":"FEW","base":3500},{"cover":"BKN","base":10000}],"obsTime":1775980800},"SBMA":{"icaoId":"SBMA","flightCategory":"MVFR","rawOb":"METAR SBMA 120800Z 03003KT 9999 BKN010 25/24 Q1012","temp":25,"dewp":24,"wdir":30,"wspd":3,"visib":"6+","altim":1012,"clouds":[{"cover":"BKN","base":1000}],"obsTime":1775980800},"SBUR":{"icaoId":"SBUR","flightCategory":"VFR","rawOb":"METAR SBUR 120800Z 06008KT CAVOK 21/17 Q1019","temp":21,"dewp":17,"wdir":60,"wspd":8,"visib":"6+","altim":1019,"clouds":[],"obsTime":1775980800},"SBVT":{"icaoId":"SBVT","flightCategory":"VFR","rawOb":"METAR SBVT 120800Z 30004KT 9999 VCSH SCT025 SCT050 21/21 Q1018","temp":21,"dewp":21,"wdir":300,"wspd":4,"visib":"6+","altim":1018,"clouds":[{"cover":"SCT","base":2500},{"cover":"SCT","base":5000}],"obsTime":1775980800},"SBFL":{"icaoId":"SBFL","flightCategory":"VFR","rawOb":"METAR SBFL 120800Z 24002KT 9999 FEW010 BKN033 20/20 Q1020","temp":20,"dewp":20,"wdir":240,"wspd":2,"visib":"6+","altim":1020,"clouds":[{"cover":"FEW","base":1000},{"cover":"BKN","base":3300}],"obsTime":1775980800},"SBME":{"icaoId":"SBME","flightCategory":"VFR","rawOb":"METAR SBME 120800Z 24002KT 9999 SCT027 SCT100 21/20 Q1019","temp":21,"dewp":20,"wdir":240,"wspd":2,"visib":"6+","altim":1019,"clouds":[{"cover":"SCT","base":2700},{"cover":"SCT","base":10000}],"obsTime":1775980800},"SBMG":{"icaoId":"SBMG","flightCategory":"VFR","rawOb":"METAR SBMG 120800Z AUTO 08011KT CAVOK 19/13 Q1018","temp":19,"dewp":13,"wdir":80,"wspd":11,"visib":"6+","altim":1018,"clouds":[],"obsTime":1775980800},"SBCO":{"icaoId":"SBCO","flightCategory":"MVFR","rawOb":"METAR SBCO 120900Z 05007KT 9000 -RA BKN030 FEW040TCU OVC100 19/18 Q1017","temp":19,"dewp":18,"wdir":50,"wspd":7,"visib":5.59,"altim":1017,"clouds":[{"cover":"BKN","base":3000},{"cover":"FEW","base":4000},{"cover":"OVC","base":10000}],"obsTime":1775984400},"SBDN":{"icaoId":"SBDN","flightCategory":"VFR","rawOb":"METAR SBDN 120800Z 11014KT CAVOK 19/14 Q1017","temp":19,"dewp":14,"wdir":110,"wspd":14,"visib":"6+","altim":1017,"clouds":[],"obsTime":1775980800},"SBPS":{"icaoId":"SBPS","flightCategory":"MVFR","rawOb":"METAR SBPS 120800Z 26001KT 6000 -RA SCT008 BKN015 BKN050 23/22 Q1016","temp":23,"dewp":22,"wdir":260,"wspd":1,"visib":3.73,"altim":1016,"clouds":[{"cover":"SCT","base":800},{"cover":"BKN","base":1500},{"cover":"BKN","base":5000}],"obsTime":1775980800},"SBSC":{"icaoId":"SBSC","flightCategory":"VFR","rawOb":"METAR SBSC 120800Z 13002KT 9999 FEW010 20/18 Q1020","temp":20,"dewp":18,"wdir":130,"wspd":2,"visib":"6+","altim":1020,"clouds":[{"cover":"FEW","base":1000}],"obsTime":1775980800},"SBAX":{"icaoId":"SBAX","flightCategory":"VFR","rawOb":"METAR SBAX 120800Z AUTO 09008KT 9999 SCT012 ///// Q1021","temp":null,"dewp":null,"wdir":90,"wspd":8,"visib":"6+","altim":1021,"clouds":[{"cover":"SCT","base":1200}],"obsTime":1775980800},"SBSJ":{"icaoId":"SBSJ","flightCategory":"MVFR","rawOb":"SPECI SBSJ 120830Z VRB02KT 8000 NSC 14/13 Q1022","temp":14,"dewp":13,"wdir":"VRB","wspd":2,"visib":4.97,"altim":1022,"clouds":[],"obsTime":1775982600},"SBPL":{"icaoId":"SBPL","flightCategory":"VFR","rawOb":"METAR SBPL 120800Z 13005KT 9999 SCT020 BKN070 25/21 Q1015","temp":25,"dewp":21,"wdir":130,"wspd":5,"visib":"6+","altim":1015,"clouds":[{"cover":"SCT","base":2000},{"cover":"BKN","base":7000}],"obsTime":1775980800},"SBSM":{"icaoId":"SBSM","flightCategory":"VFR","rawOb":"METAR SBSM 120900Z 03017G28KT 9999 FEW040 BKN090 22/18 Q1014","temp":22,"dewp":18,"wdir":30,"wspd":17,"visib":"6+","altim":1014,"clouds":[{"cover":"FEW","base":4000},{"cover":"BKN","base":9000}],"obsTime":1775984400},"SBSR":{"icaoId":"SBSR","flightCategory":"VFR","rawOb":"METAR SBSR 120800Z 16006KT 9999 SCT025 22/18 Q1018","temp":22,"dewp":18,"wdir":160,"wspd":6,"visib":"6+","altim":1018,"clouds":[{"cover":"SCT","base":2500}],"obsTime":1775980800},"SBES":{"icaoId":"SBES","flightCategory":"MVFR","rawOb":"METAR SBES 120900Z VRB03KT 9000 VCSH SCT010 BKN030 20/// Q1020","temp":null,"dewp":null,"wdir":"VRB","wspd":3,"visib":5.59,"altim":1020,"clouds":[{"cover":"SCT","base":1000},{"cover":"BKN","base":3000}],"obsTime":1775984400},"SBAR":{"icaoId":"SBAR","flightCategory":"VFR","rawOb":"METAR SBAR 120800Z 26002KT 9999 FEW015 SCT020 25/24 Q1013","temp":25,"dewp":24,"wdir":260,"wspd":2,"visib":"6+","altim":1013,"clouds":[{"cover":"FEW","base":1500},{"cover":"SCT","base":2000}],"obsTime":1775980800},"SBIP":{"icaoId":"SBIP","flightCategory":"VFR","rawOb":"METAR SBIP 120800Z AUTO 00000KT 9999 FEW044 19/19 Q1019","temp":19,"dewp":19,"wdir":0,"wspd":0,"visib":"6+","altim":1019,"clouds":[{"cover":"FEW","base":4400}],"obsTime":1775980800},"SBKG":{"icaoId":"SBKG","flightCategory":"VFR","rawOb":"METAR SBKG 120800Z 17003KT 9999 SCT020 22/21 Q1015","temp":22,"dewp":21,"wdir":170,"wspd":3,"visib":"6+","altim":1015,"clouds":[{"cover":"SCT","base":2000}],"obsTime":1775980800},"SBBH":{"icaoId":"SBBH","flightCategory":"MVFR","rawOb":"METAR SBBH 120900Z 10005KT 9999 OVC026 19/16 Q1022","temp":19,"dewp":16,"wdir":100,"wspd":5,"visib":"6+","altim":1022,"clouds":[{"cover":"OVC","base":2600}],"obsTime":1775984400},"SBOI":{"icaoId":"SBOI","flightCategory":"VFR","rawOb":"METAR SBOI 120800Z AUTO 00000KT 9999 FEW049 25/24 Q1012","temp":25,"dewp":24,"wdir":0,"wspd":0,"visib":"6+","altim":1012,"clouds":[{"cover":"FEW","base":4900}],"obsTime":1775980800},"SBBU":{"icaoId":"SBBU","flightCategory":"VFR","rawOb":"METAR SBBU 120900Z 11009KT CAVOK 18/16 Q1020","temp":18,"dewp":16,"wdir":110,"wspd":9,"visib":"6+","altim":1020,"clouds":[],"obsTime":1775984400},"SBJP":{"icaoId":"SBJP","flightCategory":"MVFR","rawOb":"METAR SBJP 120800Z 22004KT 5000 -RA BKN014 25/24 Q1012","temp":25,"dewp":24,"wdir":220,"wspd":4,"visib":3.11,"altim":1012,"clouds":[{"cover":"BKN","base":1400}],"obsTime":1775980800},"SBLE":{"icaoId":"SBLE","flightCategory":"VFR","rawOb":"METAR SBLE 120800Z AUTO 00000KT 9999 FEW012 ///// Q////","temp":null,"dewp":null,"wdir":0,"wspd":0,"visib":"6+","altim":null,"clouds":[{"cover":"FEW","base":1200}],"obsTime":1775980800},"SBGW":{"icaoId":"SBGW","flightCategory":"IFR","rawOb":"METAR SBGW 120900Z 09003KT 060V160 4000 HZ SCT030 17/12 Q1022","temp":17,"dewp":12,"wdir":90,"wspd":3,"visib":2.49,"altim":1022,"clouds":[{"cover":"SCT","base":3000}],"obsTime":1775984400},"SBLS":{"icaoId":"SBLS","flightCategory":"MVFR","rawOb":"METAR SBLS 120900Z 15010KT 9999 FEW010 BKN020 18/16 Q1022","temp":18,"dewp":16,"wdir":150,"wspd":10,"visib":"6+","altim":1022,"clouds":[{"cover":"FEW","base":1000},{"cover":"BKN","base":2000}],"obsTime":1775984400},"SBMT":{"icaoId":"SBMT","flightCategory":"VFR","rawOb":"METAR SBMT 120900Z 09008KT 070V130 9999 FEW011 16/14 Q1022","temp":16,"dewp":14,"wdir":90,"wspd":8,"visib":"6+","altim":1022,"clouds":[{"cover":"FEW","base":1100}],"obsTime":1775984400},"SBTA":{"icaoId":"SBTA","flightCategory":"VFR","rawOb":"METAR SBTA 120900Z VRB01KT 9999 FEW020 14/13 Q1022","temp":14,"dewp":13,"wdir":"VRB","wspd":1,"visib":"6+","altim":1022,"clouds":[{"cover":"FEW","base":2000}],"obsTime":1775984400},"SBJV":{"icaoId":"SBJV","flightCategory":"VFR","rawOb":"METAR SBJV 120900Z 00000KT 9999 FEW004 18/18 Q1020","temp":18,"dewp":18,"wdir":0,"wspd":0,"visib":"6+","altim":1020,"clouds":[{"cover":"FEW","base":400}],"obsTime":1775984400},"SBPF":{"icaoId":"SBPF","flightCategory":"MVFR","rawOb":"METAR SBPF 120900Z 13010KT 9999 -RA BKN015 BKN070 17/17 Q1023","temp":17,"dewp":17,"wdir":130,"wspd":10,"visib":"6+","altim":1023,"clouds":[{"cover":"BKN","base":1500},{"cover":"BKN","base":7000}],"obsTime":1775984400},"SBAN":{"icaoId":"SBAN","flightCategory":"VFR","rawOb":"METAR SBAN 120800Z 11007KT CAVOK 19/18 Q1020","temp":19,"dewp":18,"wdir":110,"wspd":7,"visib":"6+","altim":1020,"clouds":[],"obsTime":1775980800}}}