{"updated":1776016576,"count":86,"data":{"SBRF":{"icaoId":"SBRF","flightCategory":"IFR","rawOb":"METAR SBRF 121600Z 09005KT 4500 -RA BR BKN012 BKN015 OVC050 26/24 Q1012","temp":26,"dewp":24,"wdir":90,"wspd":5,"visib":2.8,"altim":1012,"clouds":[{"cover":"BKN","base":1200},{"cover":"BKN","base":1500},{"cover":"OVC","base":5000}],"obsTime":1776009600},"SBSV":{"icaoId":"SBSV","flightCategory":"VFR","rawOb":"METAR SBSV 121600Z 18008KT 140V220 9999 SCT023 28/24 Q1013","temp":28,"dewp":24,"wdir":180,"wspd":8,"visib":"6+","altim":1013,"clouds":[{"cover":"SCT","base":2300}],"obsTime":1776009600},"SBBR":{"icaoId":"SBBR","flightCategory":"MVFR","rawOb":"METAR SBBR 121600Z 10010KT 9999 BKN030 FEW040TCU 26/17 Q1020","temp":26,"dewp":17,"wdir":100,"wspd":10,"visib":"6+","altim":1020,"clouds":[{"cover":"BKN","base":3000},{"cover":"FEW","base":4000}],"obsTime":1776009600},"SBBV":{"icaoId":"SBBV","flightCategory":"VFR","rawOb":"METAR SBBV 121600Z 10016G27KT 9999 SCT040 32/20 Q1013","temp":32,"dewp":20,"wdir":100,"wspd":16,"visib":"6+","altim":1013,"clouds":[{"cover":"SCT","base":4000}],"obsTime":1776009600},"SBGR":{"icaoId":"SBGR","flightCategory":"VFR","rawOb":"METAR SBGR 121600Z 05005KT 9999 FEW030 26/15 Q1021","temp":26,"dewp":15,"wdir":50,"wspd":5,"visib":"6+","altim":1021,"clouds":[{"cover":"FEW","base":3000}],"obsTime":1776009600},"SBAT":{"icaoId":"SBAT","flightCategory":"VFR","rawOb":"METAR SBAT 121600Z 01003KT 9999 SCT030 32/25 Q1013","temp":32,"dewp":25,"wdir":10,"wspd":3,"visib":"6+","altim":1013,"clouds":[{"cover":"SCT","base":3000}],"obsTime":1776009600},"SBBE":{"icaoId":"SBBE","flightCategory":"MVFR","rawOb":"METAR SBBE 121600Z 09005KT 9999 BKN030 FEW035TCU 31/24 Q1011","temp":31,"dewp":24,"wdir":90,"wspd":5,"visib":"6+","altim":1011,"clouds":[{"cover":"BKN","base":3000},{"cover":"FEW","base":3500}],"obsTime":1776009600},"SBCB":{"icaoId":"SBCB","flightCategory":"VFR","rawOb":"METAR SBCB 121600Z 10007KT 9999 SCT015 28/21 Q1020","temp":28,"dewp":21,"wdir":100,"wspd":7,"visib":"6+","altim":1020,"clouds":[{"cover":"SCT","base":1500}],"obsTime":1776009600},"SBCF":{"icaoId":"SBCF","flightCategory":"MVFR","rawOb":"METAR SBCF 121600Z 12009KT 9999 BKN030 25/17 Q1022","temp":25,"dewp":17,"wdir":120,"wspd":9,"visib":"6+","altim":1022,"clouds":[{"cover":"BKN","base":3000}],"obsTime":1776009600},"SBCG":{"icaoId":"SBCG","flightCategory":"VFR","rawOb":"METAR SBCG 121600Z 01013KT 9999 BKN047 31/20 Q1016","temp":31,"dewp":20,"wdir":10,"wspd":13,"visib":"6+","altim":1016,"clouds":[{"cover":"BKN","base":4700}],"obsTime":1776009600},"SBCP":{"icaoId":"SBCP","flightCategory":"MVFR","rawOb":"METAR SBCP 121600Z 17006KT 9999 BKN015 27/23 Q1019","temp":27,"dewp":23,"wdir":170,"wspd":6,"visib":"6+","altim":1019,"clouds":[{"cover":"BKN","base":1500}],"obsTime":1776009600},"SBCR":{"icaoId":"SBCR","flightCategory":"VFR","rawOb":"METAR SBCR 121600Z 03004KT 310V100 9999 BKN035 33/23 Q1012","temp":33,"dewp":23,"wdir":30,"wspd":4,"visib":"6+","altim":1012,"clouds":[{"cover":"BKN","base":3500}],"obsTime":1776009600},"SBCT":{"icaoId":"SBCT","flightCategory":"VFR","rawOb":"METAR SBCT 121600Z 07008KT 9999 SCT030 23/13 Q1024","temp":23,"dewp":13,"wdir":70,"wspd":8,"visib":"6+","altim":1024,"clouds":[{"cover":"SCT","base":3000}],"obsTime":1776009600},"SBCZ":{"icaoId":"SBCZ","flightCategory":"MVFR","rawOb":"METAR SBCZ 121600Z 06002KT 9999 BKN016 BKN090 27/25 Q1015","temp":27,"dewp":25,"wdir":60,"wspd":2,"visib":"6+","altim":1015,"clouds":[{"cover":"BKN","base":1600},{"cover":"BKN","base":9000}],"obsTime":1776009600},"SBEG":{"icaoId":"SBEG","flightCategory":"MVFR","rawOb":"METAR SBEG 121600Z 11008KT 9999 BKN020 FEW025TCU BKN060 29/25 Q1014","temp":29,"dewp":25,"wdir":110,"wspd":8,"visib":"6+","altim":1014,"clouds":[{"cover":"BKN","base":2000},{"cover":"FEW","base":2500},{"cover":"BKN","base":6000}],"obsTime":1776009600},"SBFI":{"icaoId":"SBFI","flightCategory":"IFR","rawOb":"METAR SBFI 121600Z 10006KT 4000 -TSRA FEW015 FEW035CB OVC070 18/18 Q1019","temp":18,"dewp":18,"wdir":100,"wspd":6,"visib":2.49,"altim":1019,"clouds":[{"cover":"FEW","base":1500},{"cover":"FEW","base":3500},{"cover":"OVC","base":7000}],"obsTime":1776009600},"SBFL":{"icaoId":"SBFL","flightCategory":"VFR","rawOb":"METAR SBFL 121600Z 35006KT CAVOK 25/19 Q1019","temp":25,"dewp":19,"wdir":350,"wspd":6,"visib":"6+","altim":1019,"clouds":[],"obsTime":1776009600},"SBFZ":{"icaoId":"SBFZ","flightCategory":"MVFR","rawOb":"METAR SBFZ 121600Z 09010KT 9999 VCSH BKN011 FEW025TCU BKN035 27/24 Q1011","temp":27,"dewp":24,"wdir":90,"wspd":10,"visib":"6+","altim":1011,"clouds":[{"cover":"BKN","base":1100},{"cover":"FEW","base":2500},{"cover":"BKN","base":3500}],"obsTime":1776009600},"SBGL":{"icaoId":"SBGL","flightCategory":"VFR","rawOb":"METAR SBGL 121600Z 06007KT 030V100 9999 SCT025 28/20 Q1019","temp":28,"dewp":20,"wdir":60,"wspd":7,"visib":"6+","altim":1019,"clouds":[{"cover":"SCT","base":2500}],"obsTime":1776009600},"SBGO":{"icaoId":"SBGO","flightCategory":"VFR","rawOb":"METAR SBGO 121600Z 09011KT 9999 BKN035 29/20 Q1019","temp":29,"dewp":20,"wdir":90,"wspd":11,"visib":"6+","altim":1019,"clouds":[{"cover":"BKN","base":3500}],"obsTime":1776009600},"SBHT":{"icaoId":"SBHT","flightCategory":"MVFR","rawOb":"METAR SBHT 121600Z 11004KT 9999 BKN030 31/24 Q1013","temp":31,"dewp":24,"wdir":110,"wspd":4,"visib":"6+","altim":1013,"clouds":[{"cover":"BKN","base":3000}],"obsTime":1776009600},"SBIL":{"icaoId":"SBIL","flightCategory":"VFR","rawOb":"METAR SBIL 121600Z 17008KT 140V220 9999 FEW020 29/24 Q1015","temp":29,"dewp":24,"wdir":170,"wspd":8,"visib":"6+","altim":1015,"clouds":[{"cover":"FEW","base":2000}],"obsTime":1776009600},"SBJU":{"icaoId":"SBJU","flightCategory":"VFR","rawOb":"METAR SBJU 121600Z 12008KT 9999 SCT022 30/21 Q1013","temp":30,"dewp":21,"wdir":120,"wspd":8,"visib":"6+","altim":1013,"clouds":[{"cover":"SCT","base":2200}],"obsTime":1776009600},"SBKP":{"icaoId":"SBKP","flightCategory":"VFR","rawOb":"METAR SBKP 121600Z VRB03KT 9999 FEW045 28/15 Q1020","temp":28,"dewp":15,"wdir":"VRB","wspd":3,"visib":"6+","altim":1020,"clouds":[{"cover":"FEW","base":4500}],"obsTime":1776009600},"SBLO":{"icaoId":"SBLO","flightCategory":"VFR","rawOb":"METAR SBLO 121600Z 10008KT 060V120 9999 FEW030 27/18 Q1019","temp":27,"dewp":18,"wdir":100,"wspd":8,"visib":"6+","altim":1019,"clouds":[{"cover":"FEW","base":3000}],"obsTime":1776009600},"SBMA":{"icaoId":"SBMA","flightCategory":"VFR","rawOb":"METAR SBMA 121600Z 12004KT 9999 SCT020 FEW023TCU BKN100 29/24 Q1013","temp":29,"dewp":24,"wdir":120,"wspd":4,"visib":"6+","altim":1013,"clouds":[{"cover":"SCT","base":2000},{"cover":"FEW","base":2300},{"cover":"BKN","base":10000}],"obsTime":1776009600},"SBME":{"icaoId":"SBME","flightCategory":"VFR","rawOb":"METAR SBME 121600Z 18007KT 9999 FEW025 SCT070 28/21 Q1019","temp":28,"dewp":21,"wdir":180,"wspd":7,"visib":"6+","altim":1019,"clouds":[{"cover":"FEW","base":2500},{"cover":"SCT","base":7000}],"obsTime":1776009600},"SBMG":{"icaoId":"SBMG","flightCategory":"VFR","rawOb":"METAR SBMG 121600Z 05006KT 350V120 CAVOK 28/19 Q1017","temp":28,"dewp":19,"wdir":50,"wspd":6,"visib":"6+","altim":1017,"clouds":[],"obsTime":1776009600},"SBMK":{"icaoId":"SBMK","flightCategory":"VFR","rawOb":"METAR SBMK 121600Z 15006KT 9999 FEW038 BKN070 25/18 Q1019","temp":25,"dewp":18,"wdir":150,"wspd":6,"visib":"6+","altim":1019,"clouds":[{"cover":"FEW","base":3800},{"cover":"BKN","base":7000}],"obsTime":1776009600},"SBMO":{"icaoId":"SBMO","flightCategory":"VFR","rawOb":"METAR SBMO 121600Z 12016KT 9999 VCSH SCT036 FEW040TCU BKN080 28/22 Q1012","temp":28,"dewp":22,"wdir":120,"wspd":16,"visib":"6+","altim":1012,"clouds":[{"cover":"SCT","base":3600},{"cover":"FEW","base":4000},{"cover":"BKN","base":8000}],"obsTime":1776009600},"SBMQ":{"icaoId":"SBMQ","flightCategory":"VFR","rawOb":"METAR SBMQ 121600Z 05006KT 9999 SCT025 FEW032TCU 31/25 Q1012","temp":31,"dewp":25,"wdir":50,"wspd":6,"visib":"6+","altim":1012,"clouds":[{"cover":"SCT","base":2500},{"cover":"FEW","base":3200}],"obsTime":1776009600},"SBNT":{"icaoId":"SBNT","flightCategory":"VFR","rawOb":"METAR SBNT 121600Z 09010KT 060V120 9999 VCSH FEW021 FEW030TCU SCT034 BKN100 30/24 Q1011","temp":30,"dewp":24,"wdir":90,"wspd":10,"visib":"6+","altim":1011,"clouds":[{"cover":"FEW","base":2100},{"cover":"FEW","base":3000},{"cover":"SCT","base":3400},{"cover":"BKN","base":10000}],"obsTime":1776009600},"SBPA":{"icaoId":"SBPA","flightCategory":"VFR","rawOb":"METAR SBPA 121600Z 02007KT 360V060 CAVOK 24/16 Q1016","temp":24,"dewp":16,"wdir":20,"wspd":7,"visib":"6+","altim":1016,"clouds":[],"obsTime":1776009600},"SBPJ":{"icaoId":"SBPJ","flightCategory":"VFR","rawOb":"METAR SBPJ 121600Z 27005KT 9999 FEW020 BKN050 30/24 Q1013","temp":30,"dewp":24,"wdir":270,"wspd":5,"visib":"6+","altim":1013,"clouds":[{"cover":"FEW","base":2000},{"cover":"BKN","base":5000}],"obsTime":1776009600},"SBPV":{"icaoId":"SBPV","flightCategory":"MVFR","rawOb":"METAR SBPV 121600Z 35005KT 9999 BKN030 FEW035TCU 29/26 Q1013","temp":29,"dewp":26,"wdir":350,"wspd":5,"visib":"6+","altim":1013,"clouds":[{"cover":"BKN","base":3000},{"cover":"FEW","base":3500}],"obsTime":1776009600},"SBRB":{"icaoId":"SBRB","flightCategory":"VFR","rawOb":"METAR SBRB 121600Z 24002KT 9999 FEW018 SCT030 BKN090 31/25 Q1014","temp":31,"dewp":25,"wdir":240,"wspd":2,"visib":"6+","altim":1014,"clouds":[{"cover":"FEW","base":1800},{"cover":"SCT","base":3000},{"cover":"BKN","base":9000}],"obsTime":1776009600},"SBSG":{"icaoId":"SBSG","flightCategory":"IFR","rawOb":"METAR SBSG 121600Z 11009KT 070V180 3000 RA BKN012 BKN023 BKN080 26/24 Q1012","temp":26,"dewp":24,"wdir":110,"wspd":9,"visib":1.86,"altim":1012,"clouds":[{"cover":"BKN","base":1200},{"cover":"BKN","base":2300},{"cover":"BKN","base":8000}],"obsTime":1776009600},"SBSL":{"icaoId":"SBSL","flightCategory":"VFR","rawOb":"METAR SBSL 121600Z 04009KT 350V070 9999 FEW013 BKN033 29/25 Q1011","temp":29,"dewp":25,"wdir":40,"wspd":9,"visib":"6+","altim":1011,"clouds":[{"cover":"FEW","base":1300},{"cover":"BKN","base":3300}],"obsTime":1776009600},"SBSN":{"icaoId":"SBSN","flightCategory":"VFR","rawOb":"METAR SBSN 121600Z 09011KT 040V100 9999 SCT023 FEW040TCU 31/24 Q1012","temp":31,"dewp":24,"wdir":90,"wspd":11,"visib":"6+","altim":1012,"clouds":[{"cover":"SCT","base":2300},{"cover":"FEW","base":4000}],"obsTime":1776009600},"SBSP":{"icaoId":"SBSP","flightCategory":"VFR","rawOb":"METAR SBSP 121600Z VRB03KT 9999 FEW040 25/12 Q1023","temp":25,"dewp":12,"wdir":"VRB","wspd":3,"visib":"6+","altim":1023,"clouds":[{"cover":"FEW","base":4000}],"obsTime":1776009600},"SBTE":{"icaoId":"SBTE","flightCategory":"VFR","rawOb":"METAR SBTE 121600Z VRB05KT 9999 SCT025 FEW025TCU 32/24 Q1010","temp":32,"dewp":24,"wdir":"VRB","wspd":5,"visib":"6+","altim":1010,"clouds":[{"cover":"SCT","base":2500},{"cover":"FEW","base":2500}],"obsTime":1776009600},"SBUL":{"icaoId":"SBUL","flightCategory":"VFR","rawOb":"METAR SBUL 121600Z 06011KT 9999 FEW025 SCT030 26/18 Q1021","temp":26,"dewp":18,"wdir":60,"wspd":11,"visib":"6+","altim":1021,"clouds":[{"cover":"FEW","base":2500},{"cover":"SCT","base":3000}],"obsTime":1776009600},"SBUR":{"icaoId":"SBUR","flightCategory":"VFR","rawOb":"METAR SBUR 121600Z 02009KT 9999 BKN040 28/17 Q1020","temp":28,"dewp":17,"wdir":20,"wspd":9,"visib":"6+","altim":1020,"clouds":[{"cover":"BKN","base":4000}],"obsTime":1776009600},"SBVT":{"icaoId":"SBVT","flightCategory":"MVFR","rawOb":"METAR SBVT 121600Z 14002KT 9999 SCT013 BKN030 24/22 Q1018","temp":24,"dewp":22,"wdir":140,"wspd":2,"visib":"6+","altim":1018,"clouds":[{"cover":"SCT","base":1300},{"cover":"BKN","base":3000}],"obsTime":1776009600},"SBTT":{"icaoId":"SBTT","flightCategory":"MVFR","rawOb":"METAR SBTT 121600Z 33007KT 9999 BKN015 BKN080 28/23 Q1014","temp":28,"dewp":23,"wdir":330,"wspd":7,"visib":"6+","altim":1014,"clouds":[{"cover":"BKN","base":1500},{"cover":"BKN","base":8000}],"obsTime":1776009600},"SBTF":{"icaoId":"SBTF","flightCategory":"VFR","rawOb":"METAR SBTF 121600Z 33008KT 9999 SCT020 33/27 Q1012","temp":33,"dewp":27,"wdir":330,"wspd":8,"visib":"6+","altim":1012,"clouds":[{"cover":"SCT","base":2000}],"obsTime":1776009600},"SBBH":{"icaoId":"SBBH","flightCategory":"VFR","rawOb":"METAR SBBH 121600Z 08009KT 9999 BKN038 24/17 Q1021","temp":24,"dewp":17,"wdir":80,"wspd":9,"visib":"6+","altim":1021,"clouds":[{"cover":"BKN","base":3800}],"obsTime":1776009600},"SBBQ":{"icaoId":"SBBQ","flightCategory":"MVFR","rawOb":"METAR SBBQ 121600Z 10006KT 9999 BKN025 20/15 Q1025","temp":20,"dewp":15,"wdir":100,"wspd":6,"visib":"6+","altim":1025,"clouds":[{"cover":"BKN","base":2500}],"obsTime":1776009600},"SBCC":{"icaoId":"SBCC","flightCategory":"VFR","rawOb":"METAR SBCC 121600Z 04007KT 9999 SCT030 BKN100 28/21 Q1015","temp":28,"dewp":21,"wdir":40,"wspd":7,"visib":"6+","altim":1015,"clouds":[{"cover":"SCT","base":3000},{"cover":"BKN","base":10000}],"obsTime":1776009600},"SBAU":{"icaoId":"SBAU","flightCategory":"VFR","rawOb":"METAR SBAU 121700Z 36006KT 9999 SCT035 33/21 Q1016","temp":33,"dewp":21,"wdir":360,"wspd":6,"visib":"6+","altim":1016,"clouds":[{"cover":"SCT","base":3500}],"obsTime":1776013200},"SBAX":{"icaoId":"SBAX","flightCategory":"VFR","rawOb":"METAR SBAX 121600Z AUTO 10008KT 060V140 9999 BKN032 24/17 Q1021","temp":24,"dewp":17,"wdir":100,"wspd":8,"visib":"6+","altim":1021,"clouds":[{"cover":"BKN","base":3200}],"obsTime":1776009600},"SBBU":{"icaoId":"SBBU","flightCategory":"VFR","rawOb":"METAR SBBU 121600Z 10007KT 9999 FEW040 30/19 Q1019","temp":30,"dewp":19,"wdir":100,"wspd":7,"visib":"6+","altim":1019,"clouds":[{"cover":"FEW","base":4000}],"obsTime":1776009600},"SBCA":{"icaoId":"SBCA","flightCategory":"VFR","rawOb":"METAR SBCA 121600Z 18014KT 9999 -TSRA FEW005 SCT030 FEW035CB BKN080 17/16 Q1022","temp":17,"dewp":16,"wdir":180,"wspd":14,"visib":"6+","altim":1022,"clouds":[{"cover":"FEW","base":500},{"cover":"SCT","base":3000},{"cover":"FEW","base":3500},{"cover":"BKN","base":8000}],"obsTime":1776009600},"SBAR":{"icaoId":"SBAR","flightCategory":"VFR","rawOb":"METAR SBAR 121600Z 14009KT 9999 FEW021 BKN070 29/23 Q1012","temp":29,"dewp":23,"wdir":140,"wspd":9,"visib":"6+","altim":1012,"clouds":[{"cover":"FEW","base":2100},{"cover":"BKN","base":7000}],"obsTime":1776009600},"SBCJ":{"icaoId":"SBCJ","flightCategory":"MVFR","rawOb":"METAR SBCJ 121600Z 08004KT 9999 BKN017 27/22 Q1018","temp":27,"dewp":22,"wdir":80,"wspd":4,"visib":"6+","altim":1018,"clouds":[{"cover":"BKN","base":1700}],"obsTime":1776009600},"SBCO":{"icaoId":"SBCO","flightCategory":"VFR","rawOb":"METAR SBCO 121600Z 02005KT CAVOK 25/17 Q1017","temp":25,"dewp":17,"wdir":20,"wspd":5,"visib":"6+","altim":1017,"clouds":[],"obsTime":1776009600},"SBDN":{"icaoId":"SBDN","flightCategory":"VFR","rawOb":"METAR SBDN 121600Z 04007KT CAVOK 30/20 Q1017","temp":30,"dewp":20,"wdir":40,"wspd":7,"visib":"6+","altim":1017,"clouds":[],"obsTime":1776009600},"SBES":{"icaoId":"SBES","flightCategory":"VFR","rawOb":"METAR SBES 121600Z 10007KT 060V140 9999 SCT020 SCT040 26/// Q1020","temp":null,"dewp":null,"wdir":100,"wspd":7,"visib":"6+","altim":1020,"clouds":[{"cover":"SCT","base":2000},{"cover":"SCT","base":4000}],"obsTime":1776009600},"SBGM":{"icaoId":"SBGM","flightCategory":"MVFR","rawOb":"METAR SBGM 121600Z 27004KT 9999 SCT020 BKN030 BKN050 31/24 Q1013","temp":31,"dewp":24,"wdir":270,"wspd":4,"visib":"6+","altim":1013,"clouds":[{"cover":"SCT","base":2000},{"cover":"BKN","base":3000},{"cover":"BKN","base":5000}],"obsTime":1776009600},"SBIP":{"icaoId":"SBIP","flightCategory":"VFR","rawOb":"METAR SBIP 121600Z AUTO 18003KT 100V260 9999 FEW034 28/19 Q1019","temp":28,"dewp":19,"wdir":180,"wspd":3,"visib":"6+","altim":1019,"clouds":[{"cover":"FEW","base":3400}],"obsTime":1776009600},"SBKG":{"icaoId":"SBKG","flightCategory":"MVFR","rawOb":"METAR SBKG 121600Z 13008KT 9999 BKN025 SCT080 29/22 Q1013","temp":29,"dewp":22,"wdir":130,"wspd":8,"visib":"6+","altim":1013,"clouds":[{"cover":"BKN","base":2500},{"cover":"SCT","base":8000}],"obsTime":1776009600},"SBOI":{"icaoId":"SBOI","flightCategory":"VFR","rawOb":"METAR SBOI 121600Z AUTO 04011KT 360V070 9999 FEW027 BKN031 31/24 Q1012","temp":31,"dewp":24,"wdir":40,"wspd":11,"visib":"6+","altim":1012,"clouds":[{"cover":"FEW","base":2700},{"cover":"BKN","base":3100}],"obsTime":1776009600},"SBPB":{"icaoId":"SBPB","flightCategory":"VFR","rawOb":"METAR SBPB 121600Z 04012KT 9999 SCT020 FEW025TCU 31/25 Q1011","temp":31,"dewp":25,"wdir":40,"wspd":12,"visib":"6+","altim":1011,"clouds":[{"cover":"SCT","base":2000},{"cover":"FEW","base":2500}],"obsTime":1776009600},"SBPL":{"icaoId":"SBPL","flightCategory":"MVFR","rawOb":"METAR SBPL 121600Z 11008KT 9999 BKN025 31/20 Q1013","temp":31,"dewp":20,"wdir":110,"wspd":8,"visib":"6+","altim":1013,"clouds":[{"cover":"BKN","base":2500}],"obsTime":1776009600},"SBPP":{"icaoId":"SBPP","flightCategory":"VFR","rawOb":"METAR SBPP 121600Z 05015KT 9999 FEW015 28/22 Q1017","temp":28,"dewp":22,"wdir":50,"wspd":15,"visib":"6+","altim":1017,"clouds":[{"cover":"FEW","base":1500}],"obsTime":1776009600},"SBPS":{"icaoId":"SBPS","flightCategory":"MVFR","rawOb":"METAR SBPS 121600Z 14007KT 080V210 9999 SCT009 BKN015 BKN070 26/24 Q1016","temp":26,"dewp":24,"wdir":140,"wspd":7,"visib":"6+","altim":1016,"clouds":[{"cover":"SCT","base":900},{"cover":"BKN","base":1500},{"cover":"BKN","base":7000}],"obsTime":1776009600},"SBSC":{"icaoId":"SBSC","flightCategory":"VFR","rawOb":"METAR SBSC 121600Z 10004KT 9999 SCT030 FEW032TCU SCT070 29/19 Q1019","temp":29,"dewp":19,"wdir":100,"wspd":4,"visib":"6+","altim":1019,"clouds":[{"cover":"SCT","base":3000},{"cover":"FEW","base":3200},{"cover":"SCT","base":7000}],"obsTime":1776009600},"SBSJ":{"icaoId":"SBSJ","flightCategory":"VFR","rawOb":"METAR SBSJ 121600Z 05006KT 9999 FEW025 26/17 Q1021","temp":26,"dewp":17,"wdir":50,"wspd":6,"visib":"6+","altim":1021,"clouds":[{"cover":"FEW","base":2500}],"obsTime":1776009600},"SBSM":{"icaoId":"SBSM","flightCategory":"VFR","rawOb":"METAR SBSM 121600Z 09003KT 020V180 9999 -RA FEW025 SCT040 BKN100 23/19 Q1017","temp":23,"dewp":19,"wdir":90,"wspd":3,"visib":"6+","altim":1017,"clouds":[{"cover":"FEW","base":2500},{"cover":"SCT","base":4000},{"cover":"BKN","base":10000}],"obsTime":1776009600},"SBSR":{"icaoId":"SBSR","flightCategory":"VFR","rawOb":"METAR SBSR 121600Z 03010KT CAVOK 29/18 Q1018","temp":29,"dewp":18,"wdir":30,"wspd":10,"visib":"6+","altim":1018,"clouds":[],"obsTime":1776009600},"SBUY":{"icaoId":"SBUY","flightCategory":"VFR","rawOb":"METAR SBUY 121600Z 24001KT 9999 SCT025 FEW035TCU SCT100 30/25 Q1012","temp":30,"dewp":25,"wdir":240,"wspd":1,"visib":"6+","altim":1012,"clouds":[{"cover":"SCT","base":2500},{"cover":"FEW","base":3500},{"cover":"SCT","base":10000}],"obsTime":1776009600},"SBVH":{"icaoId":"SBVH","flightCategory":"IFR","rawOb":"METAR SBVH 121600Z 11011KT 4000 -RA BKN030 FEW035TCU 25/24 Q1016","temp":25,"dewp":24,"wdir":110,"wspd":11,"visib":2.49,"altim":1016,"clouds":[{"cover":"BKN","base":3000},{"cover":"FEW","base":3500}],"obsTime":1776009600},"SBJP":{"icaoId":"SBJP","flightCategory":"IFR","rawOb":"METAR SBJP 121600Z 10008KT 2000 RA OVC006 25/25 Q1012","temp":25,"dewp":25,"wdir":100,"wspd":8,"visib":1.24,"altim":1012,"clouds":[{"cover":"OVC","base":600}],"obsTime":1776009600},"SBTC":{"icaoId":"SBTC","flightCategory":"VFR","rawOb":"METAR SBTC 121600Z 15005KT 9999 SCT020 28/23 Q1015","temp":28,"dewp":23,"wdir":150,"wspd":5,"visib":"6+","altim":1015,"clouds":[{"cover":"SCT","base":2000}],"obsTime":1776009600},"SBLE":{"icaoId":"SBLE","flightCategory":"VFR","rawOb":"METAR SBLE 121600Z AUTO 17005KT 080V230 9999 SCT037 29/20 Q1016","temp":29,"dewp":20,"wdir":170,"wspd":5,"visib":"6+","altim":1016,"clouds":[{"cover":"SCT","base":3700}],"obsTime":1776009600},"SBIH":{"icaoId":"SBIH","flightCategory":"VFR","rawOb":"METAR SBIH 121600Z 03009KT 9999 VCSH SCT016 FEW023TCU 31/25 Q1012","temp":31,"dewp":25,"wdir":30,"wspd":9,"visib":"6+","altim":1012,"clouds":[{"cover":"SCT","base":1600},{"cover":"FEW","base":2300}],"obsTime":1776009600},"SBJV":{"icaoId":"SBJV","flightCategory":"VFR","rawOb":"METAR SBJV 121600Z 32002KT 9999 SCT020 27/21 Q1020","temp":27,"dewp":21,"wdir":320,"wspd":2,"visib":"6+","altim":1020,"clouds":[{"cover":"SCT","base":2000}],"obsTime":1776009600},"SBNM":{"icaoId":"SBNM","flightCategory":"VFR","rawOb":"METAR SBNM 121600Z 05007KT 9999 SCT020 BKN070 22/18 Q1018","temp":22,"dewp":18,"wdir":50,"wspd":7,"visib":"6+","altim":1018,"clouds":[{"cover":"SCT","base":2000},{"cover":"BKN","base":7000}],"obsTime":1776009600},"SBAN":{"icaoId":"SBAN","flightCategory":"MVFR","rawOb":"METAR SBAN 121600Z 16008KT 9999 BKN030 26/17 Q1022","temp":26,"dewp":17,"wdir":160,"wspd":8,"visib":"6+","altim":1022,"clouds":[{"cover":"BKN","base":3000}],"obsTime":1776009600},"SBAF":{"icaoId":"SBAF","flightCategory":"VFR","rawOb":"METAR SBAF 121600Z VRB06KT 9999 FEW025 SCT037 28/20 Q1019","temp":28,"dewp":20,"wdir":"VRB","wspd":6,"visib":"6+","altim":1019,"clouds":[{"cover":"FEW","base":2500},{"cover":"SCT","base":3700}],"obsTime":1776009600},"SBGW":{"icaoId":"SBGW","flightCategory":"VFR","rawOb":"METAR SBGW 121600Z 03006KT 330V080 9999 SCT030 27/15 Q1020","temp":27,"dewp":15,"wdir":30,"wspd":6,"visib":"6+","altim":1020,"clouds":[{"cover":"SCT","base":3000}],"obsTime":1776009600},"SBJR":{"icaoId":"SBJR","flightCategory":"MVFR","rawOb":"METAR SBJR 121600Z 13009KT 9999 FEW025 BKN030 31/21 Q1019","temp":31,"dewp":21,"wdir":130,"wspd":9,"visib":"6+","altim":1019,"clouds":[{"cover":"FEW","base":2500},{"cover":"BKN","base":3000}],"obsTime":1776009600},"SBLS":{"icaoId":"SBLS","flightCategory":"MVFR","rawOb":"METAR SBLS 121600Z 12006KT 030V190 9999 BKN030 25/17 Q1021","temp":25,"dewp":17,"wdir":120,"wspd":6,"visib":"6+","altim":1021,"clouds":[{"cover":"BKN","base":3000}],"obsTime":1776009600},"SBMT":{"icaoId":"SBMT","flightCategory":"VFR","rawOb":"METAR SBMT 121600Z VRB05KT 9999 FEW020 25/14 Q1021","temp":25,"dewp":14,"wdir":"VRB","wspd":5,"visib":"6+","altim":1021,"clouds":[{"cover":"FEW","base":2000}],"obsTime":1776009600},"SBST":{"icaoId":"SBST","flightCategory":"VFR","rawOb":"METAR SBST 121600Z 16008KT 9999 FEW025 27/19 Q1018","temp":27,"dewp":19,"wdir":160,"wspd":8,"visib":"6+","altim":1018,"clouds":[{"cover":"FEW","base":2500}],"obsTime":1776009600},"SBTA":{"icaoId":"SBTA","flightCategory":"VFR","rawOb":"METAR SBTA 121600Z 05008KT 360V090 9999 SCT030 26/16 Q1020","temp":26,"dewp":16,"wdir":50,"wspd":8,"visib":"6+","altim":1020,"clouds":[{"cover":"SCT","base":3000}],"obsTime":1776009600}}}