{"updated":1777982308,"count":81,"data":{"SBSN":{"icaoId":"SBSN","flightCategory":"VFR","rawOb":"METAR SBSN 051000Z 17003KT 9999 VCSH FEW010 SCT020 FEW030TCU BKN100 25/25 Q1012","temp":25,"dewp":25,"wdir":170,"wspd":3,"visib":"6+","altim":1012,"clouds":[{"cover":"FEW","base":1000},{"cover":"SCT","base":2000},{"cover":"FEW","base":3000},{"cover":"BKN","base":10000}],"obsTime":1777975200},"SBGR":{"icaoId":"SBGR","flightCategory":"LIFR","rawOb":"METAR SBGR 051000Z 07007KT 0800 R28R/1400D R28L/1400D R10L/1600D R10R/P2000 FG OVC002 17/16 Q1023","temp":17,"dewp":16,"wdir":70,"wspd":7,"visib":0.5,"altim":1023,"clouds":[{"cover":"OVC","base":200}],"obsTime":1777975200},"SBMK":{"icaoId":"SBMK","flightCategory":"VFR","rawOb":"METAR SBMK 051000Z 00000KT CAVOK 19/17 Q1023","temp":19,"dewp":17,"wdir":0,"wspd":0,"visib":"6+","altim":1023,"clouds":[],"obsTime":1777975200},"SBMO":{"icaoId":"SBMO","flightCategory":"MVFR","rawOb":"METAR SBMO 051000Z 09002KT 6000 -RA FEW003 OVC014 23/23 Q1017","temp":23,"dewp":23,"wdir":90,"wspd":2,"visib":3.73,"altim":1017,"clouds":[{"cover":"FEW","base":300},{"cover":"OVC","base":1400}],"obsTime":1777975200},"SBFZ":{"icaoId":"SBFZ","flightCategory":"VFR","rawOb":"METAR SBFZ 051000Z 15006KT 9999 FEW017 27/24 Q1013","temp":27,"dewp":24,"wdir":150,"wspd":6,"visib":"6+","altim":1013,"clouds":[{"cover":"FEW","base":1700}],"obsTime":1777975200},"SBGL":{"icaoId":"SBGL","flightCategory":"MVFR","rawOb":"METAR SBGL 051000Z 06002KT 6000 0300NE R10/1900 R28/P2000 R33/P2000 R15/P2000 BCFG FEW009 20/19 Q1020","temp":20,"dewp":19,"wdir":60,"wspd":2,"visib":3.73,"altim":1020,"clouds":[{"cover":"FEW","base":900}],"obsTime":1777975200},"SBMQ":{"icaoId":"SBMQ","flightCategory":"VFR","rawOb":"METAR SBMQ 051000Z 36002KT 9999 SCT020 BKN050 25/25 Q1013","temp":25,"dewp":25,"wdir":360,"wspd":2,"visib":"6+","altim":1013,"clouds":[{"cover":"SCT","base":2000},{"cover":"BKN","base":5000}],"obsTime":1777975200},"SBCP":{"icaoId":"SBCP","flightCategory":"VFR","rawOb":"METAR SBCP 051000Z 34005KT CAVOK 20/18 Q1021","temp":20,"dewp":18,"wdir":340,"wspd":5,"visib":"6+","altim":1021,"clouds":[],"obsTime":1777975200},"SBNT":{"icaoId":"SBNT","flightCategory":"VFR","rawOb":"METAR SBNT 051000Z 18011KT 9999 FEW011 24/23 Q1014","temp":24,"dewp":23,"wdir":180,"wspd":11,"visib":"6+","altim":1014,"clouds":[{"cover":"FEW","base":1100}],"obsTime":1777975200},"SBGO":{"icaoId":"SBGO","flightCategory":"VFR","rawOb":"METAR SBGO 051000Z 13005KT CAVOK 19/16 Q1021","temp":19,"dewp":16,"wdir":130,"wspd":5,"visib":"6+","altim":1021,"clouds":[],"obsTime":1777975200},"SBPA":{"icaoId":"SBPA","flightCategory":"VFR","rawOb":"METAR SBPA 051000Z 00000KT 9999 SCT040 SCT090 19/18 Q1015","temp":19,"dewp":18,"wdir":0,"wspd":0,"visib":"6+","altim":1015,"clouds":[{"cover":"SCT","base":4000},{"cover":"SCT","base":9000}],"obsTime":1777975200},"SBBE":{"icaoId":"SBBE","flightCategory":"VFR","rawOb":"METAR SBBE 051000Z 14002KT 9999 FEW015 BKN100 24/24 Q1013","temp":24,"dewp":24,"wdir":140,"wspd":2,"visib":"6+","altim":1013,"clouds":[{"cover":"FEW","base":1500},{"cover":"BKN","base":10000}],"obsTime":1777975200},"SBPJ":{"icaoId":"SBPJ","flightCategory":"VFR","rawOb":"METAR SBPJ 051000Z 18005KT CAVOK 25/19 Q1015","temp":25,"dewp":19,"wdir":180,"wspd":5,"visib":"6+","altim":1015,"clouds":[],"obsTime":1777975200},"SBPV":{"icaoId":"SBPV","flightCategory":"VFR","rawOb":"METAR SBPV 051000Z 03002KT 9999 SCT003 BKN080 24/22 Q1013","temp":24,"dewp":22,"wdir":30,"wspd":2,"visib":"6+","altim":1013,"clouds":[{"cover":"SCT","base":300},{"cover":"BKN","base":8000}],"obsTime":1777975200},"SBRB":{"icaoId":"SBRB","flightCategory":"MVFR","rawOb":"METAR SBRB 051000Z 33003KT 8000 FEW002 SCT023 BKN100 24/23 Q1013","temp":24,"dewp":23,"wdir":330,"wspd":3,"visib":4.97,"altim":1013,"clouds":[{"cover":"FEW","base":200},{"cover":"SCT","base":2300},{"cover":"BKN","base":10000}],"obsTime":1777975200},"SBCR":{"icaoId":"SBCR","flightCategory":"VFR","rawOb":"METAR SBCR 051100Z 12004KT CAVOK 26/22 Q1014","temp":26,"dewp":22,"wdir":120,"wspd":4,"visib":"6+","altim":1014,"clouds":[],"obsTime":1777978800},"SBRF":{"icaoId":"SBRF","flightCategory":"VFR","rawOb":"METAR SBRF 051000Z 20005KT 9999 SCT010 SCT020 OVC060 23/23 Q1015","temp":23,"dewp":23,"wdir":200,"wspd":5,"visib":"6+","altim":1015,"clouds":[{"cover":"SCT","base":1000},{"cover":"SCT","base":2000},{"cover":"OVC","base":6000}],"obsTime":1777975200},"SBSG":{"icaoId":"SBSG","flightCategory":"MVFR","rawOb":"METAR SBSG 051000Z 18005KT 150V240 9999 BKN010 SCT016 FEW023TCU 25/23 Q1014","temp":25,"dewp":23,"wdir":180,"wspd":5,"visib":"6+","altim":1014,"clouds":[{"cover":"BKN","base":1000},{"cover":"SCT","base":1600},{"cover":"FEW","base":2300}],"obsTime":1777975200},"SBCB":{"icaoId":"SBCB","flightCategory":"VFR","rawOb":"METAR SBCB 051000Z 06010KT CAVOK 23/18 Q1020","temp":23,"dewp":18,"wdir":60,"wspd":10,"visib":"6+","altim":1020,"clouds":[],"obsTime":1777975200},"SBSL":{"icaoId":"SBSL","flightCategory":"VFR","rawOb":"METAR SBSL 051000Z 00000KT 9999 SCT017 25/24 Q1012","temp":25,"dewp":24,"wdir":0,"wspd":0,"visib":"6+","altim":1012,"clouds":[{"cover":"SCT","base":1700}],"obsTime":1777975200},"SBHT":{"icaoId":"SBHT","flightCategory":"MVFR","rawOb":"METAR SBHT 051000Z 10001KT 9999 BKN015 OVC080 26/25 Q1013","temp":26,"dewp":25,"wdir":100,"wspd":1,"visib":"6+","altim":1013,"clouds":[{"cover":"BKN","base":1500},{"cover":"OVC","base":8000}],"obsTime":1777975200},"SBME":{"icaoId":"SBME","flightCategory":"VFR","rawOb":"METAR SBME 051000Z 03007KT CAVOK 22/17 Q1020","temp":22,"dewp":17,"wdir":30,"wspd":7,"visib":"6+","altim":1020,"clouds":[],"obsTime":1777975200},"SBMG":{"icaoId":"SBMG","flightCategory":"VFR","rawOb":"METAR SBMG 051000Z 08005KT 9999 BCFG NSC 21/18 Q1018","temp":21,"dewp":18,"wdir":80,"wspd":5,"visib":"6+","altim":1018,"clouds":[],"obsTime":1777975200},"SBCG":{"icaoId":"SBCG","flightCategory":"VFR","rawOb":"METAR SBCG 051000Z 07002KT CAVOK 21/17 Q1017","temp":21,"dewp":17,"wdir":70,"wspd":2,"visib":"6+","altim":1017,"clouds":[],"obsTime":1777975200},"SBFL":{"icaoId":"SBFL","flightCategory":"VFR","rawOb":"METAR SBFL 051000Z 34012KT CAVOK 20/19 Q1017","temp":20,"dewp":19,"wdir":340,"wspd":12,"visib":"6+","altim":1017,"clouds":[],"obsTime":1777975200},"SBCT":{"icaoId":"SBCT","flightCategory":"IFR","rawOb":"METAR SBCT 051000Z 34002KT 1800 0600SE R33/0600 R15/1400 BR BCFG SCT001 SCT100 13/13 Q1023","temp":13,"dewp":13,"wdir":340,"wspd":2,"visib":1.12,"altim":1023,"clouds":[{"cover":"SCT","base":100},{"cover":"SCT","base":10000}],"obsTime":1777975200},"SBIL":{"icaoId":"SBIL","flightCategory":"MVFR","rawOb":"METAR SBIL 051000Z 26007KT 9999 FEW020 BKN030 24/21 Q1019","temp":24,"dewp":21,"wdir":260,"wspd":7,"visib":"6+","altim":1019,"clouds":[{"cover":"FEW","base":2000},{"cover":"BKN","base":3000}],"obsTime":1777975200},"SBSP":{"icaoId":"SBSP","flightCategory":"VFR","rawOb":"METAR SBSP 051000Z 05003KT CAVOK 18/17 Q1024","temp":18,"dewp":17,"wdir":50,"wspd":3,"visib":"6+","altim":1024,"clouds":[],"obsTime":1777975200},"SBEG":{"icaoId":"SBEG","flightCategory":"VFR","rawOb":"METAR SBEG 051000Z 15004KT 110V180 9999 SCT007 25/24 Q1013","temp":25,"dewp":24,"wdir":150,"wspd":4,"visib":"6+","altim":1013,"clouds":[{"cover":"SCT","base":700}],"obsTime":1777975200},"SBSV":{"icaoId":"SBSV","flightCategory":"VFR","rawOb":"METAR SBSV 051000Z 10010KT 9000 VCSH SCT024 FEW026TCU SCT070 28/22 Q1017","temp":28,"dewp":22,"wdir":100,"wspd":10,"visib":5.59,"altim":1017,"clouds":[{"cover":"SCT","base":2400},{"cover":"FEW","base":2600},{"cover":"SCT","base":7000}],"obsTime":1777975200},"SBJU":{"icaoId":"SBJU","flightCategory":"VFR","rawOb":"METAR SBJU 051000Z 12003KT 9999 SCT020 24/19 Q1017","temp":24,"dewp":19,"wdir":120,"wspd":3,"visib":"6+","altim":1017,"clouds":[{"cover":"SCT","base":2000}],"obsTime":1777975200},"SBTE":{"icaoId":"SBTE","flightCategory":"VFR","rawOb":"METAR SBTE 051000Z 34001KT 9999 FEW015 BKN090 25/24 Q1012","temp":25,"dewp":24,"wdir":340,"wspd":1,"visib":"6+","altim":1012,"clouds":[{"cover":"FEW","base":1500},{"cover":"BKN","base":9000}],"obsTime":1777975200},"SBBV":{"icaoId":"SBBV","flightCategory":"VFR","rawOb":"METAR SBBV 051000Z 08004KT CAVOK 24/22 Q1013","temp":24,"dewp":22,"wdir":80,"wspd":4,"visib":"6+","altim":1013,"clouds":[],"obsTime":1777975200},"SBUL":{"icaoId":"SBUL","flightCategory":"VFR","rawOb":"METAR SBUL 051000Z 13008KT CAVOK 18/15 Q1024","temp":18,"dewp":15,"wdir":130,"wspd":8,"visib":"6+","altim":1024,"clouds":[],"obsTime":1777975200},"SBKP":{"icaoId":"SBKP","flightCategory":"VFR","rawOb":"METAR SBKP 051000Z 11006KT CAVOK 18/17 Q1022","temp":18,"dewp":17,"wdir":110,"wspd":6,"visib":"6+","altim":1022,"clouds":[],"obsTime":1777975200},"SBUR":{"icaoId":"SBUR","flightCategory":"VFR","rawOb":"METAR SBUR 051000Z 04009KT CAVOK 21/16 Q1022","temp":21,"dewp":16,"wdir":40,"wspd":9,"visib":"6+","altim":1022,"clouds":[],"obsTime":1777975200},"SBVT":{"icaoId":"SBVT","flightCategory":"VFR","rawOb":"METAR SBVT 051000Z 32002KT CAVOK 20/19 Q1021","temp":20,"dewp":19,"wdir":320,"wspd":2,"visib":"6+","altim":1021,"clouds":[],"obsTime":1777975200},"SBAT":{"icaoId":"SBAT","flightCategory":"VFR","rawOb":"METAR SBAT 051100Z 00000KT 9999 4000NE SCT015 BKN070 25/25 Q1016","temp":25,"dewp":25,"wdir":0,"wspd":0,"visib":"6+","altim":1016,"clouds":[{"cover":"SCT","base":1500},{"cover":"BKN","base":7000}],"obsTime":1777978800},"SBLO":{"icaoId":"SBLO","flightCategory":"VFR","rawOb":"METAR SBLO 051000Z 20003KT CAVOK 19/17 Q1020","temp":19,"dewp":17,"wdir":200,"wspd":3,"visib":"6+","altim":1020,"clouds":[],"obsTime":1777975200},"SBCF":{"icaoId":"SBCF","flightCategory":"VFR","rawOb":"METAR SBCF 051000Z 17003KT CAVOK 17/16 Q1024","temp":17,"dewp":16,"wdir":170,"wspd":3,"visib":"6+","altim":1024,"clouds":[],"obsTime":1777975200},"SBMA":{"icaoId":"SBMA","flightCategory":"VFR","rawOb":"METAR SBMA 051000Z 34002KT CAVOK 26/24 Q1013","temp":26,"dewp":24,"wdir":340,"wspd":2,"visib":"6+","altim":1013,"clouds":[],"obsTime":1777975200},"SBFI":{"icaoId":"SBFI","flightCategory":"VFR","rawOb":"METAR SBFI 051000Z 12004KT CAVOK 19/19 Q1016","temp":19,"dewp":19,"wdir":120,"wspd":4,"visib":"6+","altim":1016,"clouds":[],"obsTime":1777975200},"SBBR":{"icaoId":"SBBR","flightCategory":"VFR","rawOb":"METAR SBBR 051000Z 12002KT CAVOK 18/08 Q1023","temp":18,"dewp":8,"wdir":120,"wspd":2,"visib":"6+","altim":1023,"clouds":[],"obsTime":1777975200},"SBTF":{"icaoId":"SBTF","flightCategory":"VFR","rawOb":"SPECI SBTF 051115Z 17004KT 9999 SCT005 OVC080 25/25 Q1013","temp":25,"dewp":25,"wdir":170,"wspd":4,"visib":"6+","altim":1013,"clouds":[{"cover":"SCT","base":500},{"cover":"OVC","base":8000}],"obsTime":1777979700},"SBPP":{"icaoId":"SBPP","flightCategory":"VFR","rawOb":"SPECI SBPP 051115Z 05005KT CAVOK 19/18 Q1019","temp":19,"dewp":18,"wdir":50,"wspd":5,"visib":"6+","altim":1019,"clouds":[],"obsTime":1777979700},"SBSC":{"icaoId":"SBSC","flightCategory":"VFR","rawOb":"METAR SBSC 051000Z 01010KT CAVOK 22/18 Q1020","temp":22,"dewp":18,"wdir":10,"wspd":10,"visib":"6+","altim":1020,"clouds":[],"obsTime":1777975200},"SBBH":{"icaoId":"SBBH","flightCategory":"VFR","rawOb":"METAR SBBH 051000Z 10005KT CAVOK 18/16 Q1024","temp":18,"dewp":16,"wdir":100,"wspd":5,"visib":"6+","altim":1024,"clouds":[],"obsTime":1777975200},"SBBU":{"icaoId":"SBBU","flightCategory":"VFR","rawOb":"METAR SBBU 051000Z 09004KT CAVOK 21/19 Q1021","temp":21,"dewp":19,"wdir":90,"wspd":4,"visib":"6+","altim":1021,"clouds":[],"obsTime":1777975200},"SBVH":{"icaoId":"SBVH","flightCategory":"VFR","rawOb":"METAR SBVH 051100Z 26003KT CAVOK 22/20 Q1017","temp":22,"dewp":20,"wdir":260,"wspd":3,"visib":"6+","altim":1017,"clouds":[],"obsTime":1777978800},"SBAR":{"icaoId":"SBAR","flightCategory":"MVFR","rawOb":"METAR SBAR 051000Z 13010KT 9999 BKN026 28/23 Q1016","temp":28,"dewp":23,"wdir":130,"wspd":10,"visib":"6+","altim":1016,"clouds":[{"cover":"BKN","base":2600}],"obsTime":1777975200},"SBAX":{"icaoId":"SBAX","flightCategory":"VFR","rawOb":"METAR SBAX 051000Z 10006KT CAVOK 17/16 Q1024","temp":17,"dewp":16,"wdir":100,"wspd":6,"visib":"6+","altim":1024,"clouds":[],"obsTime":1777975200},"SBCA":{"icaoId":"SBCA","flightCategory":"VFR","rawOb":"METAR SBCA 051000Z 05009KT CAVOK 20/16 Q1020","temp":20,"dewp":16,"wdir":50,"wspd":9,"visib":"6+","altim":1020,"clouds":[],"obsTime":1777975200},"SBCC":{"icaoId":"SBCC","flightCategory":"VFR","rawOb":"METAR SBCC 051100Z 12004KT 9999 FEW040 SCT080 23/22 Q1016","temp":23,"dewp":22,"wdir":120,"wspd":4,"visib":"6+","altim":1016,"clouds":[{"cover":"FEW","base":4000},{"cover":"SCT","base":8000}],"obsTime":1777978800},"SBCJ":{"icaoId":"SBCJ","flightCategory":"VFR","rawOb":"SPECI SBCJ 051015Z 00000KT CAVOK 22/21 Q1017","temp":22,"dewp":21,"wdir":0,"wspd":0,"visib":"6+","altim":1017,"clouds":[],"obsTime":1777976100},"SBCO":{"icaoId":"SBCO","flightCategory":"VFR","rawOb":"METAR SBCO 051000Z 00000KT 9999 FEW040 SCT070 18/18 Q1016","temp":18,"dewp":18,"wdir":0,"wspd":0,"visib":"6+","altim":1016,"clouds":[{"cover":"FEW","base":4000},{"cover":"SCT","base":7000}],"obsTime":1777975200},"SBDN":{"icaoId":"SBDN","flightCategory":"VFR","rawOb":"METAR SBDN 051000Z 07008KT CAVOK 22/17 Q1018","temp":22,"dewp":17,"wdir":70,"wspd":8,"visib":"6+","altim":1018,"clouds":[],"obsTime":1777975200},"SBES":{"icaoId":"SBES","flightCategory":"VFR","rawOb":"METAR SBES 051000Z VRB05KT CAVOK 21/// Q1020","temp":null,"dewp":null,"wdir":"VRB","wspd":5,"visib":"6+","altim":1020,"clouds":[],"obsTime":1777975200},"SBIP":{"icaoId":"SBIP","flightCategory":"VFR","rawOb":"METAR SBIP 051000Z AUTO VRB02KT CAVOK 20/20 Q1022","temp":20,"dewp":20,"wdir":"VRB","wspd":2,"visib":"6+","altim":1022,"clouds":[],"obsTime":1777975200},"SBKG":{"icaoId":"SBKG","flightCategory":"IFR","rawOb":"METAR SBKG 051000Z 18005KT 6000 -RA SCT005 BKN008 21/21 Q1018","temp":21,"dewp":21,"wdir":180,"wspd":5,"visib":3.73,"altim":1018,"clouds":[{"cover":"SCT","base":500},{"cover":"BKN","base":800}],"obsTime":1777975200},"SBPB":{"icaoId":"SBPB","flightCategory":"VFR","rawOb":"SPECI SBPB 051015Z 11004KT 9999 FEW020 BKN100 26/24 Q1012","temp":26,"dewp":24,"wdir":110,"wspd":4,"visib":"6+","altim":1012,"clouds":[{"cover":"FEW","base":2000},{"cover":"BKN","base":10000}],"obsTime":1777976100},"SBPL":{"icaoId":"SBPL","flightCategory":"VFR","rawOb":"METAR SBPL 051000Z 13009KT 9999 FEW020 24/21 Q1017","temp":24,"dewp":21,"wdir":130,"wspd":9,"visib":"6+","altim":1017,"clouds":[{"cover":"FEW","base":2000}],"obsTime":1777975200},"SBPS":{"icaoId":"SBPS","flightCategory":"MVFR","rawOb":"METAR SBPS 051000Z 24006KT 9999 SCT004 OVC030 22/21 Q1019","temp":22,"dewp":21,"wdir":240,"wspd":6,"visib":"6+","altim":1019,"clouds":[{"cover":"SCT","base":400},{"cover":"OVC","base":3000}],"obsTime":1777975200},"SBSJ":{"icaoId":"SBSJ","flightCategory":"MVFR","rawOb":"METAR SBSJ 051000Z 00000KT 8000 NSC 16/16 Q1023","temp":16,"dewp":16,"wdir":0,"wspd":0,"visib":4.97,"altim":1023,"clouds":[],"obsTime":1777975200},"SBSM":{"icaoId":"SBSM","flightCategory":"VFR","rawOb":"METAR SBSM 051000Z 05002KT 9999 FEW035 SCT070 20/19 Q1015","temp":20,"dewp":19,"wdir":50,"wspd":2,"visib":"6+","altim":1015,"clouds":[{"cover":"FEW","base":3500},{"cover":"SCT","base":7000}],"obsTime":1777975200},"SBSR":{"icaoId":"SBSR","flightCategory":"VFR","rawOb":"METAR SBSR 051000Z 07008KT CAVOK 22/17 Q1020","temp":22,"dewp":17,"wdir":70,"wspd":8,"visib":"6+","altim":1020,"clouds":[],"obsTime":1777975200},"SBTD":{"icaoId":"SBTD","flightCategory":"VFR","rawOb":"METAR SBTD 051100Z /////KT CAVOK 19/18 Q1019","temp":19,"dewp":18,"wdir":null,"wspd":null,"visib":"6+","altim":1019,"clouds":[],"obsTime":1777978800},"SBTT":{"icaoId":"SBTT","flightCategory":"VFR","rawOb":"METAR SBTT 051100Z 22002KT 9999 FEW030 OVC100 25/23 Q1013","temp":25,"dewp":23,"wdir":220,"wspd":2,"visib":"6+","altim":1013,"clouds":[{"cover":"FEW","base":3000},{"cover":"OVC","base":10000}],"obsTime":1777978800},"SBUY":{"icaoId":"SBUY","flightCategory":"LIFR","rawOb":"METAR SBUY 051100Z 14002KT 3000 BR BKN003 BKN070 23/23 Q1012","temp":23,"dewp":23,"wdir":140,"wspd":2,"visib":1.86,"altim":1012,"clouds":[{"cover":"BKN","base":300},{"cover":"BKN","base":7000}],"obsTime":1777978800},"SBJP":{"icaoId":"SBJP","flightCategory":"VFR","rawOb":"METAR SBJP 051000Z 17008KT 140V200 9999 FEW020 OVC100 24/23 Q1015","temp":24,"dewp":23,"wdir":170,"wspd":8,"visib":"6+","altim":1015,"clouds":[{"cover":"FEW","base":2000},{"cover":"OVC","base":10000}],"obsTime":1777975200},"SBPF":{"icaoId":"SBPF","flightCategory":"VFR","rawOb":"METAR SBPF 051000Z 05010KT CAVOK 16/15 Q1020","temp":16,"dewp":15,"wdir":50,"wspd":10,"visib":"6+","altim":1020,"clouds":[],"obsTime":1777975200},"SBIH":{"icaoId":"SBIH","flightCategory":"VFR","rawOb":"METAR SBIH 051100Z 20003KT 9999 FEW008 BKN080 26/25 Q1013","temp":26,"dewp":25,"wdir":200,"wspd":3,"visib":"6+","altim":1013,"clouds":[{"cover":"FEW","base":800},{"cover":"BKN","base":8000}],"obsTime":1777978800},"SBLE":{"icaoId":"SBLE","flightCategory":"MVFR","rawOb":"METAR SBLE 051000Z AUTO 14004KT 110V180 9999 BKN028 ///// Q////","temp":null,"dewp":null,"wdir":140,"wspd":4,"visib":"6+","altim":null,"clouds":[{"cover":"BKN","base":2800}],"obsTime":1777975200},"SBAN":{"icaoId":"SBAN","flightCategory":"VFR","rawOb":"METAR SBAN 051000Z 18010KT CAVOK 17/15 Q1023","temp":17,"dewp":15,"wdir":180,"wspd":10,"visib":"6+","altim":1023,"clouds":[],"obsTime":1777975200},"SBAF":{"icaoId":"SBAF","flightCategory":"VFR","rawOb":"METAR SBAF 051000Z 28002KT CAVOK 18/18 Q1020","temp":18,"dewp":18,"wdir":280,"wspd":2,"visib":"6+","altim":1020,"clouds":[],"obsTime":1777975200},"SBGW":{"icaoId":"SBGW","flightCategory":"VFR","rawOb":"METAR SBGW 051000Z VRB02KT CAVOK 17/13 Q1023","temp":17,"dewp":13,"wdir":"VRB","wspd":2,"visib":"6+","altim":1023,"clouds":[],"obsTime":1777975200},"SBJR":{"icaoId":"SBJR","flightCategory":"VFR","rawOb":"METAR SBJR 051000Z 01002KT CAVOK 21/19 Q1019","temp":21,"dewp":19,"wdir":10,"wspd":2,"visib":"6+","altim":1019,"clouds":[],"obsTime":1777975200},"SBLS":{"icaoId":"SBLS","flightCategory":"VFR","rawOb":"METAR SBLS 051000Z 16009KT CAVOK 18/16 Q1024","temp":18,"dewp":16,"wdir":160,"wspd":9,"visib":"6+","altim":1024,"clouds":[],"obsTime":1777975200},"SBMT":{"icaoId":"SBMT","flightCategory":"VFR","rawOb":"METAR SBMT 051000Z 08004KT CAVOK 17/16 Q1021","temp":17,"dewp":16,"wdir":80,"wspd":4,"visib":"6+","altim":1021,"clouds":[],"obsTime":1777975200},"SBTA":{"icaoId":"SBTA","flightCategory":"VFR","rawOb":"METAR SBTA 051000Z 00000KT CAVOK 15/15 Q1022","temp":15,"dewp":15,"wdir":0,"wspd":0,"visib":"6+","altim":1022,"clouds":[],"obsTime":1777975200},"SBST":{"icaoId":"SBST","flightCategory":"VFR","rawOb":"METAR SBST 051100Z /////KT CAVOK ///// Q1020","temp":null,"dewp":null,"wdir":null,"wspd":null,"visib":"6+","altim":1020,"clouds":[],"obsTime":1777978800},"SBJV":{"icaoId":"SBJV","flightCategory":"MVFR","rawOb":"METAR SBJV 051000Z 32003KT 5000 BR SCT009 17/17 Q1019","temp":17,"dewp":17,"wdir":320,"wspd":3,"visib":3.11,"altim":1019,"clouds":[{"cover":"SCT","base":900}],"obsTime":1777975200}}}