{"updated":1779155803,"count":64,"data":{"SBMG":{"icaoId":"SBMG","flightCategory":"MVFR","rawOb":"METAR SBMG 190000Z 28007KT 9999 BKN030 BKN090 16/15 Q1020","temp":16,"dewp":15,"wdir":280,"wspd":7,"visib":"6+","altim":1020,"clouds":[{"cover":"BKN","base":3000},{"cover":"BKN","base":9000}],"obsTime":1779148800},"SBGL":{"icaoId":"SBGL","flightCategory":"MVFR","rawOb":"METAR SBGL 190000Z 22006KT 9999 BKN021 OVC026 25/19 Q1017","temp":25,"dewp":19,"wdir":220,"wspd":6,"visib":"6+","altim":1017,"clouds":[{"cover":"BKN","base":2100},{"cover":"OVC","base":2600}],"obsTime":1779148800},"SBBR":{"icaoId":"SBBR","flightCategory":"VFR","rawOb":"METAR SBBR 190000Z VRB02KT CAVOK 22/17 Q1021","temp":22,"dewp":17,"wdir":"VRB","wspd":2,"visib":"6+","altim":1021,"clouds":[],"obsTime":1779148800},"SBMK":{"icaoId":"SBMK","flightCategory":"VFR","rawOb":"METAR SBMK 190000Z 35002KT CAVOK 23/18 Q1019","temp":23,"dewp":18,"wdir":350,"wspd":2,"visib":"6+","altim":1019,"clouds":[],"obsTime":1779148800},"SBEG":{"icaoId":"SBEG","flightCategory":"VFR","rawOb":"METAR SBEG 190000Z 18003KT CAVOK 24/24 Q1013","temp":24,"dewp":24,"wdir":180,"wspd":3,"visib":"6+","altim":1013,"clouds":[],"obsTime":1779148800},"SBMO":{"icaoId":"SBMO","flightCategory":"VFR","rawOb":"METAR SBMO 190000Z 36002KT 9999 FEW023 22/22 Q1016","temp":22,"dewp":22,"wdir":360,"wspd":2,"visib":"6+","altim":1016,"clouds":[{"cover":"FEW","base":2300}],"obsTime":1779148800},"SBGO":{"icaoId":"SBGO","flightCategory":"VFR","rawOb":"METAR SBGO 190000Z 15008KT 9999 FEW045 BKN070 25/20 Q1019","temp":25,"dewp":20,"wdir":150,"wspd":8,"visib":"6+","altim":1019,"clouds":[{"cover":"FEW","base":4500},{"cover":"BKN","base":7000}],"obsTime":1779148800},"SBMQ":{"icaoId":"SBMQ","flightCategory":"VFR","rawOb":"METAR SBMQ 190000Z 01004KT 9999 FEW005 SCT033 BKN070 27/26 Q1013 RETS","temp":27,"dewp":26,"wdir":10,"wspd":4,"visib":"6+","altim":1013,"clouds":[{"cover":"FEW","base":500},{"cover":"SCT","base":3300},{"cover":"BKN","base":7000}],"obsTime":1779148800},"SBNT":{"icaoId":"SBNT","flightCategory":"VFR","rawOb":"METAR SBNT 190000Z 15004KT 9999 FEW020 24/23 Q1015","temp":24,"dewp":23,"wdir":150,"wspd":4,"visib":"6+","altim":1015,"clouds":[{"cover":"FEW","base":2000}],"obsTime":1779148800},"SBBV":{"icaoId":"SBBV","flightCategory":"VFR","rawOb":"METAR SBBV 190000Z 17005KT 9999 FEW030 SCT090 29/23 Q1012","temp":29,"dewp":23,"wdir":170,"wspd":5,"visib":"6+","altim":1012,"clouds":[{"cover":"FEW","base":3000},{"cover":"SCT","base":9000}],"obsTime":1779148800},"SBGR":{"icaoId":"SBGR","flightCategory":"IFR","rawOb":"METAR SBGR 190000Z 18003KT 9999 BKN008 OVC013 18/16 Q1022","temp":18,"dewp":16,"wdir":180,"wspd":3,"visib":"6+","altim":1022,"clouds":[{"cover":"BKN","base":800},{"cover":"OVC","base":1300}],"obsTime":1779148800},"SBPA":{"icaoId":"SBPA","flightCategory":"VFR","rawOb":"METAR SBPA 190000Z 16003KT 120V200 9999 SCT045 14/10 Q1024","temp":14,"dewp":10,"wdir":160,"wspd":3,"visib":"6+","altim":1024,"clouds":[{"cover":"SCT","base":4500}],"obsTime":1779148800},"SBIL":{"icaoId":"SBIL","flightCategory":"VFR","rawOb":"METAR SBIL 190000Z 30005KT 9999 SCT025 25/24 Q1017","temp":25,"dewp":24,"wdir":300,"wspd":5,"visib":"6+","altim":1017,"clouds":[{"cover":"SCT","base":2500}],"obsTime":1779148800},"SBPJ":{"icaoId":"SBPJ","flightCategory":"VFR","rawOb":"METAR SBPJ 190000Z 12005KT 9999 FEW016 26/21 Q1013","temp":26,"dewp":21,"wdir":120,"wspd":5,"visib":"6+","altim":1013,"clouds":[{"cover":"FEW","base":1600}],"obsTime":1779148800},"SBPV":{"icaoId":"SBPV","flightCategory":"MVFR","rawOb":"METAR SBPV 190000Z 16008KT 9999 BKN012 25/21 Q1014","temp":25,"dewp":21,"wdir":160,"wspd":8,"visib":"6+","altim":1014,"clouds":[{"cover":"BKN","base":1200}],"obsTime":1779148800},"SBCG":{"icaoId":"SBCG","flightCategory":"MVFR","rawOb":"METAR SBCG 190000Z 16009KT 9999 BKN010 OVC035 15/13 Q1022","temp":15,"dewp":13,"wdir":160,"wspd":9,"visib":"6+","altim":1022,"clouds":[{"cover":"BKN","base":1000},{"cover":"OVC","base":3500}],"obsTime":1779148800},"SBRB":{"icaoId":"SBRB","flightCategory":"IFR","rawOb":"METAR SBRB 190000Z 17006KT 9999 BKN005 BKN100 20/19 Q1015","temp":20,"dewp":19,"wdir":170,"wspd":6,"visib":"6+","altim":1015,"clouds":[{"cover":"BKN","base":500},{"cover":"BKN","base":10000}],"obsTime":1779148800},"SBFI":{"icaoId":"SBFI","flightCategory":"MVFR","rawOb":"METAR SBFI 190000Z 20007KT 9999 BKN020 SCT080 14/13 Q1022","temp":14,"dewp":13,"wdir":200,"wspd":7,"visib":"6+","altim":1022,"clouds":[{"cover":"BKN","base":2000},{"cover":"SCT","base":8000}],"obsTime":1779148800},"SBRF":{"icaoId":"SBRF","flightCategory":"VFR","rawOb":"METAR SBRF 190000Z 16005KT 9999 SCT023 26/23 Q1015","temp":26,"dewp":23,"wdir":160,"wspd":5,"visib":"6+","altim":1015,"clouds":[{"cover":"SCT","base":2300}],"obsTime":1779148800},"SBJU":{"icaoId":"SBJU","flightCategory":"VFR","rawOb":"METAR SBJU 190000Z 20003KT 9999 SCT020 24/23 Q1016","temp":24,"dewp":23,"wdir":200,"wspd":3,"visib":"6+","altim":1016,"clouds":[{"cover":"SCT","base":2000}],"obsTime":1779148800},"SBSG":{"icaoId":"SBSG","flightCategory":"VFR","rawOb":"METAR SBSG 190000Z 14003KT 070V170 9999 FEW023 24/23 Q1015","temp":24,"dewp":23,"wdir":140,"wspd":3,"visib":"6+","altim":1015,"clouds":[{"cover":"FEW","base":2300}],"obsTime":1779148800},"SBKP":{"icaoId":"SBKP","flightCategory":"MVFR","rawOb":"METAR SBKP 190000Z 18004KT 8000 2000NW BCFG BKN035 BKN090 19/18 Q1021","temp":19,"dewp":18,"wdir":180,"wspd":4,"visib":4.97,"altim":1021,"clouds":[{"cover":"BKN","base":3500},{"cover":"BKN","base":9000}],"obsTime":1779148800},"SBFL":{"icaoId":"SBFL","flightCategory":"VFR","rawOb":"METAR SBFL 190000Z 17011KT 140V210 9999 BKN049 18/12 Q1021","temp":18,"dewp":12,"wdir":170,"wspd":11,"visib":"6+","altim":1021,"clouds":[{"cover":"BKN","base":4900}],"obsTime":1779148800},"SBSL":{"icaoId":"SBSL","flightCategory":"VFR","rawOb":"METAR SBSL 190000Z 10003KT CAVOK 26/25 Q1013","temp":26,"dewp":25,"wdir":100,"wspd":3,"visib":"6+","altim":1013,"clouds":[],"obsTime":1779148800},"SBLO":{"icaoId":"SBLO","flightCategory":"VFR","rawOb":"METAR SBLO 190000Z 25003KT 170V310 9999 FEW045 OVC070 19/17 Q1020","temp":19,"dewp":17,"wdir":250,"wspd":3,"visib":"6+","altim":1020,"clouds":[{"cover":"FEW","base":4500},{"cover":"OVC","base":7000}],"obsTime":1779148800},"SBSN":{"icaoId":"SBSN","flightCategory":"VFR","rawOb":"METAR SBSN 190000Z 16003KT 9999 FEW025 27/25 Q1012","temp":27,"dewp":25,"wdir":160,"wspd":3,"visib":"6+","altim":1012,"clouds":[{"cover":"FEW","base":2500}],"obsTime":1779148800},"SBCF":{"icaoId":"SBCF","flightCategory":"VFR","rawOb":"METAR SBCF 190000Z 20002KT CAVOK 23/18 Q1020","temp":23,"dewp":18,"wdir":200,"wspd":2,"visib":"6+","altim":1020,"clouds":[],"obsTime":1779148800},"SBSP":{"icaoId":"SBSP","flightCategory":"IFR","rawOb":"METAR SBSP 190000Z 20007KT 170V230 9999 BKN007 17/16 Q1023","temp":17,"dewp":16,"wdir":200,"wspd":7,"visib":"6+","altim":1023,"clouds":[{"cover":"BKN","base":700}],"obsTime":1779148800},"SBMA":{"icaoId":"SBMA","flightCategory":"VFR","rawOb":"METAR SBMA 190000Z 00000KT CAVOK 27/25 Q1012","temp":27,"dewp":25,"wdir":0,"wspd":0,"visib":"6+","altim":1012,"clouds":[],"obsTime":1779148800},"SBSV":{"icaoId":"SBSV","flightCategory":"VFR","rawOb":"METAR SBSV 190000Z 12005KT 9999 SCT023 27/23 Q1016","temp":27,"dewp":23,"wdir":120,"wspd":5,"visib":"6+","altim":1016,"clouds":[{"cover":"SCT","base":2300}],"obsTime":1779148800},"SBFZ":{"icaoId":"SBFZ","flightCategory":"VFR","rawOb":"METAR SBFZ 190000Z 13006KT 9999 FEW018 27/23 Q1013","temp":27,"dewp":23,"wdir":130,"wspd":6,"visib":"6+","altim":1013,"clouds":[{"cover":"FEW","base":1800}],"obsTime":1779148800},"SBTE":{"icaoId":"SBTE","flightCategory":"VFR","rawOb":"METAR SBTE 190000Z 05004KT 9999 SCT020 BKN090 28/24 Q1013","temp":28,"dewp":24,"wdir":50,"wspd":4,"visib":"6+","altim":1013,"clouds":[{"cover":"SCT","base":2000},{"cover":"BKN","base":9000}],"obsTime":1779148800},"SBUL":{"icaoId":"SBUL","flightCategory":"VFR","rawOb":"METAR SBUL 190000Z 22010KT CAVOK 20/19 Q1022","temp":20,"dewp":19,"wdir":220,"wspd":10,"visib":"6+","altim":1022,"clouds":[],"obsTime":1779148800},"SBME":{"icaoId":"SBME","flightCategory":"VFR","rawOb":"METAR SBME 190000Z 23002KT CAVOK 23/22 Q1016","temp":23,"dewp":22,"wdir":230,"wspd":2,"visib":"6+","altim":1016,"clouds":[],"obsTime":1779148800},"SBUR":{"icaoId":"SBUR","flightCategory":"VFR","rawOb":"METAR SBUR 190000Z 18007KT CAVOK 20/18 Q1021","temp":20,"dewp":18,"wdir":180,"wspd":7,"visib":"6+","altim":1021,"clouds":[],"obsTime":1779148800},"SBCT":{"icaoId":"SBCT","flightCategory":"LIFR","rawOb":"METAR SBCT 190000Z COR 12007KT 6000 -DZRA OVC004 12/12 Q1022","temp":12,"dewp":12,"wdir":120,"wspd":7,"visib":3.73,"altim":1022,"clouds":[{"cover":"OVC","base":400}],"obsTime":1779148800},"SBVT":{"icaoId":"SBVT","flightCategory":"VFR","rawOb":"METAR SBVT 190000Z 01005KT 9999 FEW045 26/23 Q1016","temp":26,"dewp":23,"wdir":10,"wspd":5,"visib":"6+","altim":1016,"clouds":[{"cover":"FEW","base":4500}],"obsTime":1779148800},"SBBE":{"icaoId":"SBBE","flightCategory":"VFR","rawOb":"METAR SBBE 190000Z 10002KT 9999 SCT034 26/25 Q1012","temp":26,"dewp":25,"wdir":100,"wspd":2,"visib":"6+","altim":1012,"clouds":[{"cover":"SCT","base":3400}],"obsTime":1779148800},"SBCZ":{"icaoId":"SBCZ","flightCategory":"VFR","rawOb":"METAR SBCZ 190000Z 36003KT 9999 SCT030 FEW030TCU 26/24 Q1013","temp":26,"dewp":24,"wdir":360,"wspd":3,"visib":"6+","altim":1013,"clouds":[{"cover":"SCT","base":3000},{"cover":"FEW","base":3000}],"obsTime":1779148800},"SBSJ":{"icaoId":"SBSJ","flightCategory":"MVFR","rawOb":"METAR SBSJ 190000Z 22005KT 8000 SCT036 BKN050 19/17 Q1021","temp":19,"dewp":17,"wdir":220,"wspd":5,"visib":4.97,"altim":1021,"clouds":[{"cover":"SCT","base":3600},{"cover":"BKN","base":5000}],"obsTime":1779148800},"SBCO":{"icaoId":"SBCO","flightCategory":"VFR","rawOb":"METAR SBCO 190000Z 06001KT 9999 BKN040 13/11 Q1024","temp":13,"dewp":11,"wdir":60,"wspd":1,"visib":"6+","altim":1024,"clouds":[{"cover":"BKN","base":4000}],"obsTime":1779148800},"SBOI":{"icaoId":"SBOI","flightCategory":"VFR","rawOb":"METAR SBOI 190000Z AUTO 35002KT 9999 // NCD 25/25 Q1013","temp":25,"dewp":25,"wdir":350,"wspd":2,"visib":"6+","altim":1013,"clouds":[],"obsTime":1779148800},"SBAX":{"icaoId":"SBAX","flightCategory":"VFR","rawOb":"METAR SBAX 190000Z 14002KT CAVOK 20/20 Q1022","temp":20,"dewp":20,"wdir":140,"wspd":2,"visib":"6+","altim":1022,"clouds":[],"obsTime":1779148800},"SBPL":{"icaoId":"SBPL","flightCategory":"VFR","rawOb":"METAR SBPL 190000Z 13006KT CAVOK 29/15 Q1015","temp":29,"dewp":15,"wdir":130,"wspd":6,"visib":"6+","altim":1015,"clouds":[],"obsTime":1779148800},"SBPS":{"icaoId":"SBPS","flightCategory":"VFR","rawOb":"METAR SBPS 190000Z 35002KT CAVOK 25/23 Q1017","temp":25,"dewp":23,"wdir":350,"wspd":2,"visib":"6+","altim":1017,"clouds":[],"obsTime":1779148800},"SBDN":{"icaoId":"SBDN","flightCategory":"VFR","rawOb":"METAR SBDN 190000Z 24008KT 9999 SCT017 OVC100 18/15 Q1020","temp":18,"dewp":15,"wdir":240,"wspd":8,"visib":"6+","altim":1020,"clouds":[{"cover":"SCT","base":1700},{"cover":"OVC","base":10000}],"obsTime":1779148800},"SBBH":{"icaoId":"SBBH","flightCategory":"VFR","rawOb":"METAR SBBH 190000Z 00000KT CAVOK 23/19 Q1020","temp":23,"dewp":19,"wdir":0,"wspd":0,"visib":"6+","altim":1020,"clouds":[],"obsTime":1779148800},"SBSC":{"icaoId":"SBSC","flightCategory":"MVFR","rawOb":"METAR SBSC 190000Z 19004KT 9999 FEW015 OVC023 23/21 Q1018","temp":23,"dewp":21,"wdir":190,"wspd":4,"visib":"6+","altim":1018,"clouds":[{"cover":"FEW","base":1500},{"cover":"OVC","base":2300}],"obsTime":1779148800},"SBAR":{"icaoId":"SBAR","flightCategory":"VFR","rawOb":"METAR SBAR 190000Z 12005KT 9999 FEW025 27/22 Q1016","temp":27,"dewp":22,"wdir":120,"wspd":5,"visib":"6+","altim":1016,"clouds":[{"cover":"FEW","base":2500}],"obsTime":1779148800},"SBSM":{"icaoId":"SBSM","flightCategory":"VFR","rawOb":"METAR SBSM 190000Z 00000KT CAVOK 07/07 Q1024","temp":7,"dewp":7,"wdir":0,"wspd":0,"visib":"6+","altim":1024,"clouds":[],"obsTime":1779148800},"SBIP":{"icaoId":"SBIP","flightCategory":"VFR","rawOb":"METAR SBIP 190000Z AUTO 00000KT CAVOK 21/21 Q1017","temp":21,"dewp":21,"wdir":0,"wspd":0,"visib":"6+","altim":1017,"clouds":[],"obsTime":1779148800},"SBSR":{"icaoId":"SBSR","flightCategory":"VFR","rawOb":"METAR SBSR 190000Z 26002KT 9999 -DZ FEW015 SCT030 BKN070 21/20 Q1020","temp":21,"dewp":20,"wdir":260,"wspd":2,"visib":"6+","altim":1020,"clouds":[{"cover":"FEW","base":1500},{"cover":"SCT","base":3000},{"cover":"BKN","base":7000}],"obsTime":1779148800},"SBBU":{"icaoId":"SBBU","flightCategory":"MVFR","rawOb":"METAR SBBU 190000Z 19002KT 9999 OVC015 21/21 Q1020","temp":21,"dewp":21,"wdir":190,"wspd":2,"visib":"6+","altim":1020,"clouds":[{"cover":"OVC","base":1500}],"obsTime":1779148800},"SBKG":{"icaoId":"SBKG","flightCategory":"MVFR","rawOb":"METAR SBKG 190000Z 09008KT 9999 BKN015 23/22 Q1018","temp":23,"dewp":22,"wdir":90,"wspd":8,"visib":"6+","altim":1018,"clouds":[{"cover":"BKN","base":1500}],"obsTime":1779148800},"SBES":{"icaoId":"SBES","flightCategory":"VFR","rawOb":"METAR SBES 190000Z VRB05KT 9999 SCT010 23/// Q1017","temp":null,"dewp":null,"wdir":"VRB","wspd":5,"visib":"6+","altim":1017,"clouds":[{"cover":"SCT","base":1000}],"obsTime":1779148800},"SBJP":{"icaoId":"SBJP","flightCategory":"VFR","rawOb":"METAR SBJP 190000Z 14004KT 9999 FEW020 24/23 Q1016","temp":24,"dewp":23,"wdir":140,"wspd":4,"visib":"6+","altim":1016,"clouds":[{"cover":"FEW","base":2000}],"obsTime":1779148800},"SBJV":{"icaoId":"SBJV","flightCategory":"VFR","rawOb":"METAR SBJV 190000Z 31003KT 9000 SCT012 BKN035 16/15 Q1022","temp":16,"dewp":15,"wdir":310,"wspd":3,"visib":5.59,"altim":1022,"clouds":[{"cover":"SCT","base":1200},{"cover":"BKN","base":3500}],"obsTime":1779148800},"SBNM":{"icaoId":"SBNM","flightCategory":"VFR","rawOb":"METAR SBNM 190000Z 20002KT CAVOK 10/06 Q1024","temp":10,"dewp":6,"wdir":200,"wspd":2,"visib":"6+","altim":1024,"clouds":[],"obsTime":1779148800},"SBAN":{"icaoId":"SBAN","flightCategory":"VFR","rawOb":"METAR SBAN 190000Z 27006KT 9999 VCSH FEW040 FEW045TCU BKN080 22/19 Q1022","temp":22,"dewp":19,"wdir":270,"wspd":6,"visib":"6+","altim":1022,"clouds":[{"cover":"FEW","base":4000},{"cover":"FEW","base":4500},{"cover":"BKN","base":8000}],"obsTime":1779148800},"SBLS":{"icaoId":"SBLS","flightCategory":"VFR","rawOb":"METAR SBLS 190000Z 16004KT CAVOK 24/19 Q1020","temp":24,"dewp":19,"wdir":160,"wspd":4,"visib":"6+","altim":1020,"clouds":[],"obsTime":1779148800},"SBMT":{"icaoId":"SBMT","flightCategory":"MVFR","rawOb":"METAR SBMT 190000Z 17006KT 8000 FEW006 BKN010 OVC017 17/16 Q1022","temp":17,"dewp":16,"wdir":170,"wspd":6,"visib":4.97,"altim":1022,"clouds":[{"cover":"FEW","base":600},{"cover":"BKN","base":1000},{"cover":"OVC","base":1700}],"obsTime":1779148800},"SBTA":{"icaoId":"SBTA","flightCategory":"VFR","rawOb":"METAR SBTA 190000Z VRB02KT 9999 BKN040 19/19 Q1020","temp":19,"dewp":19,"wdir":"VRB","wspd":2,"visib":"6+","altim":1020,"clouds":[{"cover":"BKN","base":4000}],"obsTime":1779148800},"SBLE":{"icaoId":"SBLE","flightCategory":"VFR","rawOb":"METAR SBLE 190000Z AUTO 31004KT CAVOK 20/20 Q1018","temp":20,"dewp":20,"wdir":310,"wspd":4,"visib":"6+","altim":1018,"clouds":[],"obsTime":1779148800},"SBJR":{"icaoId":"SBJR","flightCategory":"MVFR","rawOb":"METAR SBJR 190000Z 24002KT 9999 BKN020 SCT100 23/21 Q1017","temp":23,"dewp":21,"wdir":240,"wspd":2,"visib":"6+","altim":1017,"clouds":[{"cover":"BKN","base":2000},{"cover":"SCT","base":10000}],"obsTime":1779148800}}}