{"updated":1775495446,"count":86,"data":{"SBJU":{"icaoId":"SBJU","flightCategory":"MVFR","rawOb":"METAR SBJU 061600Z 09004KT 9999 BKN021 FEW023TCU 29/23 Q1014","temp":29,"dewp":23,"wdir":90,"wspd":4,"visib":"6+","altim":1014,"clouds":[{"cover":"BKN","base":2100},{"cover":"FEW","base":2300}],"obsTime":1775491200},"SBVT":{"icaoId":"SBVT","flightCategory":"VFR","rawOb":"METAR SBVT 061600Z 10008KT 9999 FEW030 31/21 Q1015","temp":31,"dewp":21,"wdir":100,"wspd":8,"visib":"6+","altim":1015,"clouds":[{"cover":"FEW","base":3000}],"obsTime":1775491200},"SBKP":{"icaoId":"SBKP","flightCategory":"VFR","rawOb":"METAR SBKP 061600Z VRB02KT 9999 BKN043 31/19 Q1018","temp":31,"dewp":19,"wdir":"VRB","wspd":2,"visib":"6+","altim":1018,"clouds":[{"cover":"BKN","base":4300}],"obsTime":1775491200},"SBUR":{"icaoId":"SBUR","flightCategory":"VFR","rawOb":"METAR SBUR 061600Z 36008KT 9999 FEW041 28/19 Q1018","temp":28,"dewp":19,"wdir":360,"wspd":8,"visib":"6+","altim":1018,"clouds":[{"cover":"FEW","base":4100}],"obsTime":1775491200},"SBLO":{"icaoId":"SBLO","flightCategory":"VFR","rawOb":"METAR SBLO 061600Z 09010KT 9999 SCT030 29/20 Q1017","temp":29,"dewp":20,"wdir":90,"wspd":10,"visib":"6+","altim":1017,"clouds":[{"cover":"SCT","base":3000}],"obsTime":1775491200},"SBMA":{"icaoId":"SBMA","flightCategory":"VFR","rawOb":"METAR SBMA 061600Z 23005KT 9999 SCT020 FEW025TCU BKN080 30/25 Q1013","temp":30,"dewp":25,"wdir":230,"wspd":5,"visib":"6+","altim":1013,"clouds":[{"cover":"SCT","base":2000},{"cover":"FEW","base":2500},{"cover":"BKN","base":8000}],"obsTime":1775491200},"SBCZ":{"icaoId":"SBCZ","flightCategory":"MVFR","rawOb":"METAR SBCZ 061600Z 15002KT 9999 BKN015 BKN100 28/24 Q1013","temp":28,"dewp":24,"wdir":150,"wspd":2,"visib":"6+","altim":1013,"clouds":[{"cover":"BKN","base":1500},{"cover":"BKN","base":10000}],"obsTime":1775491200},"SBEG":{"icaoId":"SBEG","flightCategory":"VFR","rawOb":"METAR SBEG 061600Z 08005KT 030V140 9999 SCT025 32/24 Q1011","temp":32,"dewp":24,"wdir":80,"wspd":5,"visib":"6+","altim":1011,"clouds":[{"cover":"SCT","base":2500}],"obsTime":1775491200},"SBME":{"icaoId":"SBME","flightCategory":"VFR","rawOb":"METAR SBME 061600Z 15008KT 9999 FEW025 28/24 Q1016","temp":28,"dewp":24,"wdir":150,"wspd":8,"visib":"6+","altim":1016,"clouds":[{"cover":"FEW","base":2500}],"obsTime":1775491200},"SBCB":{"icaoId":"SBCB","flightCategory":"VFR","rawOb":"METAR SBCB 061600Z 07006KT 9999 FEW025 29/23 Q1017","temp":29,"dewp":23,"wdir":70,"wspd":6,"visib":"6+","altim":1017,"clouds":[{"cover":"FEW","base":2500}],"obsTime":1775491200},"SBMG":{"icaoId":"SBMG","flightCategory":"VFR","rawOb":"METAR SBMG 061600Z 05009KT 010V080 9999 SCT040 31/20 Q1015","temp":31,"dewp":20,"wdir":50,"wspd":9,"visib":"6+","altim":1015,"clouds":[{"cover":"SCT","base":4000}],"obsTime":1775491200},"SBAT":{"icaoId":"SBAT","flightCategory":"VFR","rawOb":"METAR SBAT 061600Z 14006KT 9999 SCT030 33/24 Q1013","temp":33,"dewp":24,"wdir":140,"wspd":6,"visib":"6+","altim":1013,"clouds":[{"cover":"SCT","base":3000}],"obsTime":1775491200},"SBMK":{"icaoId":"SBMK","flightCategory":"VFR","rawOb":"METAR SBMK 061600Z 11008KT 9999 BKN040 31/20 Q1018","temp":31,"dewp":20,"wdir":110,"wspd":8,"visib":"6+","altim":1018,"clouds":[{"cover":"BKN","base":4000}],"obsTime":1775491200},"SBMO":{"icaoId":"SBMO","flightCategory":"VFR","rawOb":"METAR SBMO 061600Z 10008KT 040V150 9999 VCSH FEW030 BKN080 30/23 Q1013","temp":30,"dewp":23,"wdir":100,"wspd":8,"visib":"6+","altim":1013,"clouds":[{"cover":"FEW","base":3000},{"cover":"BKN","base":8000}],"obsTime":1775491200},"SBFI":{"icaoId":"SBFI","flightCategory":"VFR","rawOb":"METAR SBFI 061600Z 02011KT 9999 FEW030 32/22 Q1013","temp":32,"dewp":22,"wdir":20,"wspd":11,"visib":"6+","altim":1013,"clouds":[{"cover":"FEW","base":3000}],"obsTime":1775491200},"SBFL":{"icaoId":"SBFL","flightCategory":"LIFR","rawOb":"SPECI SBFL 061518Z 28006KT 250V320 1500 0800E R32/1700D R14/P2000D +RA BR BKN005 OVC010 23/22 Q1019","temp":23,"dewp":22,"wdir":280,"wspd":6,"visib":0.93,"altim":1019,"clouds":[{"cover":"BKN","base":500},{"cover":"OVC","base":1000}],"obsTime":1775488680},"SBMQ":{"icaoId":"SBMQ","flightCategory":"VFR","rawOb":"METAR SBMQ 061600Z 10006KT 9999 VCSH SCT021 SCT050TCU BKN100 30/24 Q1012","temp":30,"dewp":24,"wdir":100,"wspd":6,"visib":"6+","altim":1012,"clouds":[{"cover":"SCT","base":2100},{"cover":"SCT","base":5000},{"cover":"BKN","base":10000}],"obsTime":1775491200},"SBUL":{"icaoId":"SBUL","flightCategory":"MVFR","rawOb":"METAR SBUL 061600Z 06013KT 9999 BKN030 BKN080 27/19 Q1020","temp":27,"dewp":19,"wdir":60,"wspd":13,"visib":"6+","altim":1020,"clouds":[{"cover":"BKN","base":3000},{"cover":"BKN","base":8000}],"obsTime":1775491200},"SBNT":{"icaoId":"SBNT","flightCategory":"VFR","rawOb":"METAR SBNT 061600Z 11017KT 9999 BKN048 BKN100 32/23 Q1011","temp":32,"dewp":23,"wdir":110,"wspd":17,"visib":"6+","altim":1011,"clouds":[{"cover":"BKN","base":4800},{"cover":"BKN","base":10000}],"obsTime":1775491200},"SBCF":{"icaoId":"SBCF","flightCategory":"VFR","rawOb":"METAR SBCF 061600Z 10005KT 9999 BKN040 27/18 Q1020","temp":27,"dewp":18,"wdir":100,"wspd":5,"visib":"6+","altim":1020,"clouds":[{"cover":"BKN","base":4000}],"obsTime":1775491200},"SBPA":{"icaoId":"SBPA","flightCategory":"VFR","rawOb":"METAR SBPA 061600Z 11011KT 9999 FEW035 27/19 Q1015","temp":27,"dewp":19,"wdir":110,"wspd":11,"visib":"6+","altim":1015,"clouds":[{"cover":"FEW","base":3500}],"obsTime":1775491200},"SBFZ":{"icaoId":"SBFZ","flightCategory":"MVFR","rawOb":"METAR SBFZ 061600Z 09010KT 9999 BKN020 30/24 Q1011","temp":30,"dewp":24,"wdir":90,"wspd":10,"visib":"6+","altim":1011,"clouds":[{"cover":"BKN","base":2000}],"obsTime":1775491200},"SBPJ":{"icaoId":"SBPJ","flightCategory":"VFR","rawOb":"METAR SBPJ 061600Z 34003KT 9999 SCT030 FEW033TCU BKN100 29/25 Q1015","temp":29,"dewp":25,"wdir":340,"wspd":3,"visib":"6+","altim":1015,"clouds":[{"cover":"SCT","base":3000},{"cover":"FEW","base":3300},{"cover":"BKN","base":10000}],"obsTime":1775491200},"SBPV":{"icaoId":"SBPV","flightCategory":"MVFR","rawOb":"METAR SBPV 061600Z 04005KT 9999 BKN025 31/24 Q1011","temp":31,"dewp":24,"wdir":40,"wspd":5,"visib":"6+","altim":1011,"clouds":[{"cover":"BKN","base":2500}],"obsTime":1775491200},"SBBE":{"icaoId":"SBBE","flightCategory":"IFR","rawOb":"SPECI SBBE 061518Z 11008KT 2500 +RA BKN025 FEW030TCU BKN037 26/26 Q1013 RERA","temp":26,"dewp":26,"wdir":110,"wspd":8,"visib":1.55,"altim":1013,"clouds":[{"cover":"BKN","base":2500},{"cover":"FEW","base":3000},{"cover":"BKN","base":3700}],"obsTime":1775488680},"SBGL":{"icaoId":"SBGL","flightCategory":"VFR","rawOb":"METAR SBGL 061600Z 12008KT 9999 FEW025 30/21 Q1016","temp":30,"dewp":21,"wdir":120,"wspd":8,"visib":"6+","altim":1016,"clouds":[{"cover":"FEW","base":2500}],"obsTime":1775491200},"SBRB":{"icaoId":"SBRB","flightCategory":"MVFR","rawOb":"METAR SBRB 061600Z 07004KT 020V120 9999 BKN020 SCT100 30/25 Q1012","temp":30,"dewp":25,"wdir":70,"wspd":4,"visib":"6+","altim":1012,"clouds":[{"cover":"BKN","base":2000},{"cover":"SCT","base":10000}],"obsTime":1775491200},"SBRF":{"icaoId":"SBRF","flightCategory":"VFR","rawOb":"METAR SBRF 061600Z 14012KT 9999 FEW023 SCT070 31/24 Q1012","temp":31,"dewp":24,"wdir":140,"wspd":12,"visib":"6+","altim":1012,"clouds":[{"cover":"FEW","base":2300},{"cover":"SCT","base":7000}],"obsTime":1775491200},"SBCG":{"icaoId":"SBCG","flightCategory":"VFR","rawOb":"METAR SBCG 061600Z 05009KT 9999 BKN045 30/19 Q1015","temp":30,"dewp":19,"wdir":50,"wspd":9,"visib":"6+","altim":1015,"clouds":[{"cover":"BKN","base":4500}],"obsTime":1775491200},"SBSG":{"icaoId":"SBSG","flightCategory":"MVFR","rawOb":"METAR SBSG 061600Z 10009KT 080V140 9999 BKN030 FEW035TCU 32/23 Q1011","temp":32,"dewp":23,"wdir":100,"wspd":9,"visib":"6+","altim":1011,"clouds":[{"cover":"BKN","base":3000},{"cover":"FEW","base":3500}],"obsTime":1775491200},"SBGO":{"icaoId":"SBGO","flightCategory":"VFR","rawOb":"METAR SBGO 061600Z 04010KT 360V080 9999 SCT040 30/20 Q1018","temp":30,"dewp":20,"wdir":40,"wspd":10,"visib":"6+","altim":1018,"clouds":[{"cover":"SCT","base":4000}],"obsTime":1775491200},"SBSL":{"icaoId":"SBSL","flightCategory":"MVFR","rawOb":"METAR SBSL 061600Z 13007KT 9999 BKN020 29/24 Q1012","temp":29,"dewp":24,"wdir":130,"wspd":7,"visib":"6+","altim":1012,"clouds":[{"cover":"BKN","base":2000}],"obsTime":1775491200},"SBBR":{"icaoId":"SBBR","flightCategory":"VFR","rawOb":"METAR SBBR 061600Z 11009KT 9999 BKN035 28/17 Q1020","temp":28,"dewp":17,"wdir":110,"wspd":9,"visib":"6+","altim":1020,"clouds":[{"cover":"BKN","base":3500}],"obsTime":1775491200},"SBSN":{"icaoId":"SBSN","flightCategory":"VFR","rawOb":"METAR SBSN 061600Z 09013KT 9999 SCT020 30/24 Q1012","temp":30,"dewp":24,"wdir":90,"wspd":13,"visib":"6+","altim":1012,"clouds":[{"cover":"SCT","base":2000}],"obsTime":1775491200},"SBGR":{"icaoId":"SBGR","flightCategory":"VFR","rawOb":"METAR SBGR 061600Z 10007KT 9999 FEW033 28/19 Q1019","temp":28,"dewp":19,"wdir":100,"wspd":7,"visib":"6+","altim":1019,"clouds":[{"cover":"FEW","base":3300}],"obsTime":1775491200},"SBSP":{"icaoId":"SBSP","flightCategory":"VFR","rawOb":"METAR SBSP 061600Z 07005KT 020V160 9999 SCT043 28/17 Q1020","temp":28,"dewp":17,"wdir":70,"wspd":5,"visib":"6+","altim":1020,"clouds":[{"cover":"SCT","base":4300}],"obsTime":1775491200},"SBCP":{"icaoId":"SBCP","flightCategory":"VFR","rawOb":"METAR SBCP 061600Z 12008KT 9999 FEW020 32/23 Q1016","temp":32,"dewp":23,"wdir":120,"wspd":8,"visib":"6+","altim":1016,"clouds":[{"cover":"FEW","base":2000}],"obsTime":1775491200},"SBSV":{"icaoId":"SBSV","flightCategory":"VFR","rawOb":"METAR SBSV 061600Z 10007KT 9999 SCT021 FEW025TCU 30/23 Q1014","temp":30,"dewp":23,"wdir":100,"wspd":7,"visib":"6+","altim":1014,"clouds":[{"cover":"SCT","base":2100},{"cover":"FEW","base":2500}],"obsTime":1775491200},"SBBV":{"icaoId":"SBBV","flightCategory":"VFR","rawOb":"METAR SBBV 061600Z 08010KT 9999 BKN035 FEW040TCU 32/22 Q1012","temp":32,"dewp":22,"wdir":80,"wspd":10,"visib":"6+","altim":1012,"clouds":[{"cover":"BKN","base":3500},{"cover":"FEW","base":4000}],"obsTime":1775491200},"SBHT":{"icaoId":"SBHT","flightCategory":"MVFR","rawOb":"METAR SBHT 061600Z 10007KT 9999 BKN025 31/24 Q1012","temp":31,"dewp":24,"wdir":100,"wspd":7,"visib":"6+","altim":1012,"clouds":[{"cover":"BKN","base":2500}],"obsTime":1775491200},"SBTE":{"icaoId":"SBTE","flightCategory":"VFR","rawOb":"METAR SBTE 061600Z 28003KT 9999 VCSH SCT020 FEW025TCU BKN100 29/24 Q1012","temp":29,"dewp":24,"wdir":280,"wspd":3,"visib":"6+","altim":1012,"clouds":[{"cover":"SCT","base":2000},{"cover":"FEW","base":2500},{"cover":"BKN","base":10000}],"obsTime":1775491200},"SBCR":{"icaoId":"SBCR","flightCategory":"VFR","rawOb":"METAR SBCR 061600Z 36007KT 290V050 9999 FEW035 33/23 Q1012","temp":33,"dewp":23,"wdir":360,"wspd":7,"visib":"6+","altim":1012,"clouds":[{"cover":"FEW","base":3500}],"obsTime":1775491200},"SBIL":{"icaoId":"SBIL","flightCategory":"VFR","rawOb":"METAR SBIL 061600Z 15007KT 9999 SCT025 31/26 Q1015","temp":31,"dewp":26,"wdir":150,"wspd":7,"visib":"6+","altim":1015,"clouds":[{"cover":"SCT","base":2500}],"obsTime":1775491200},"SBCT":{"icaoId":"SBCT","flightCategory":"MVFR","rawOb":"METAR SBCT 061600Z 08008KT 9999 FEW020 BKN030 24/18 Q1021","temp":24,"dewp":18,"wdir":80,"wspd":8,"visib":"6+","altim":1021,"clouds":[{"cover":"FEW","base":2000},{"cover":"BKN","base":3000}],"obsTime":1775491200},"SBCJ":{"icaoId":"SBCJ","flightCategory":"MVFR","rawOb":"METAR SBCJ 061600Z 15006KT 9999 BKN013 26/22 Q1017","temp":26,"dewp":22,"wdir":150,"wspd":6,"visib":"6+","altim":1017,"clouds":[{"cover":"BKN","base":1300}],"obsTime":1775491200},"SBVH":{"icaoId":"SBVH","flightCategory":"MVFR","rawOb":"METAR SBVH 061600Z 07006KT 9999 BKN025 29/23 Q1015","temp":29,"dewp":23,"wdir":70,"wspd":6,"visib":"6+","altim":1015,"clouds":[{"cover":"BKN","base":2500}],"obsTime":1775491200},"SBOI":{"icaoId":"SBOI","flightCategory":"VFR","rawOb":"METAR SBOI 061600Z AUTO 06004KT 020V090 9000 -RA FEW009 OVC042 25/24 Q1014 RETSRA","temp":25,"dewp":24,"wdir":60,"wspd":4,"visib":5.59,"altim":1014,"clouds":[{"cover":"FEW","base":900},{"cover":"OVC","base":4200}],"obsTime":1775491200},"SBPB":{"icaoId":"SBPB","flightCategory":"VFR","rawOb":"METAR SBPB 061600Z 07008KT 9999 FEW020 FEW025TCU 31/24 Q1012","temp":31,"dewp":24,"wdir":70,"wspd":8,"visib":"6+","altim":1012,"clouds":[{"cover":"FEW","base":2000},{"cover":"FEW","base":2500}],"obsTime":1775491200},"SBBH":{"icaoId":"SBBH","flightCategory":"VFR","rawOb":"METAR SBBH 061600Z 07006KT 9999 SCT038 SCT070 29/19 Q1019","temp":29,"dewp":19,"wdir":70,"wspd":6,"visib":"6+","altim":1019,"clouds":[{"cover":"SCT","base":3800},{"cover":"SCT","base":7000}],"obsTime":1775491200},"SBPL":{"icaoId":"SBPL","flightCategory":"MVFR","rawOb":"METAR SBPL 061600Z 16003KT 9999 BKN030 31/20 Q1014","temp":31,"dewp":20,"wdir":160,"wspd":3,"visib":"6+","altim":1014,"clouds":[{"cover":"BKN","base":3000}],"obsTime":1775491200},"SBAR":{"icaoId":"SBAR","flightCategory":"VFR","rawOb":"METAR SBAR 061600Z 12010KT 9999 FEW020 31/24 Q1013","temp":31,"dewp":24,"wdir":120,"wspd":10,"visib":"6+","altim":1013,"clouds":[{"cover":"FEW","base":2000}],"obsTime":1775491200},"SBCO":{"icaoId":"SBCO","flightCategory":"VFR","rawOb":"METAR SBCO 061600Z 11013KT 060V140 9999 FEW034 28/20 Q1016","temp":28,"dewp":20,"wdir":110,"wspd":13,"visib":"6+","altim":1016,"clouds":[{"cover":"FEW","base":3400}],"obsTime":1775491200},"SBPP":{"icaoId":"SBPP","flightCategory":"VFR","rawOb":"METAR SBPP 061600Z 01013KT 9999 SCT020 30/22 Q1015","temp":30,"dewp":22,"wdir":10,"wspd":13,"visib":"6+","altim":1015,"clouds":[{"cover":"SCT","base":2000}],"obsTime":1775491200},"SBPS":{"icaoId":"SBPS","flightCategory":"VFR","rawOb":"METAR SBPS 061600Z 12007KT 9999 SCT020 29/24 Q1015","temp":29,"dewp":24,"wdir":120,"wspd":7,"visib":"6+","altim":1015,"clouds":[{"cover":"SCT","base":2000}],"obsTime":1775491200},"SBBU":{"icaoId":"SBBU","flightCategory":"VFR","rawOb":"METAR SBBU 061600Z 12005KT 9999 BKN040 31/22 Q1017","temp":31,"dewp":22,"wdir":120,"wspd":5,"visib":"6+","altim":1017,"clouds":[{"cover":"BKN","base":4000}],"obsTime":1775491200},"SBDN":{"icaoId":"SBDN","flightCategory":"VFR","rawOb":"METAR SBDN 061600Z 04006KT 9999 SCT035 31/20 Q1016","temp":31,"dewp":20,"wdir":40,"wspd":6,"visib":"6+","altim":1016,"clouds":[{"cover":"SCT","base":3500}],"obsTime":1775491200},"SBSC":{"icaoId":"SBSC","flightCategory":"VFR","rawOb":"METAR SBSC 061600Z 18009KT 9999 FEW020 29/23 Q1016","temp":29,"dewp":23,"wdir":180,"wspd":9,"visib":"6+","altim":1016,"clouds":[{"cover":"FEW","base":2000}],"obsTime":1775491200},"SBSJ":{"icaoId":"SBSJ","flightCategory":"VFR","rawOb":"METAR SBSJ 061600Z 35004KT 9999 SCT030 28/20 Q1019","temp":28,"dewp":20,"wdir":350,"wspd":4,"visib":"6+","altim":1019,"clouds":[{"cover":"SCT","base":3000}],"obsTime":1775491200},"SBCA":{"icaoId":"SBCA","flightCategory":"MVFR","rawOb":"METAR SBCA 061700Z 04009G19KT 9999 BKN025 28/20 Q1017","temp":28,"dewp":20,"wdir":40,"wspd":9,"visib":"6+","altim":1017,"clouds":[{"cover":"BKN","base":2500}],"obsTime":1775494800},"SBES":{"icaoId":"SBES","flightCategory":"VFR","rawOb":"METAR SBES 061600Z 09007KT 010V140 9999 FEW020 SCT035 29/// Q1016","temp":null,"dewp":null,"wdir":90,"wspd":7,"visib":"6+","altim":1016,"clouds":[{"cover":"FEW","base":2000},{"cover":"SCT","base":3500}],"obsTime":1775491200},"SBSM":{"icaoId":"SBSM","flightCategory":"VFR","rawOb":"METAR SBSM 061600Z 11010KT 070V150 9999 FEW040 BKN080 24/19 Q1014","temp":24,"dewp":19,"wdir":110,"wspd":10,"visib":"6+","altim":1014,"clouds":[{"cover":"FEW","base":4000},{"cover":"BKN","base":8000}],"obsTime":1775491200},"SBAU":{"icaoId":"SBAU","flightCategory":"VFR","rawOb":"METAR SBAU 061600Z 03008KT CAVOK 32/22 Q1015","temp":32,"dewp":22,"wdir":30,"wspd":8,"visib":"6+","altim":1015,"clouds":[],"obsTime":1775491200},"SBSR":{"icaoId":"SBSR","flightCategory":"VFR","rawOb":"METAR SBSR 061600Z 10006KT 9999 FEW035 29/19 Q1017","temp":29,"dewp":19,"wdir":100,"wspd":6,"visib":"6+","altim":1017,"clouds":[{"cover":"FEW","base":3500}],"obsTime":1775491200},"SBGM":{"icaoId":"SBGM","flightCategory":"MVFR","rawOb":"METAR SBGM 061600Z 36004KT 290V080 9999 BKN026 BKN040 32/21 Q1012","temp":32,"dewp":21,"wdir":360,"wspd":4,"visib":"6+","altim":1012,"clouds":[{"cover":"BKN","base":2600},{"cover":"BKN","base":4000}],"obsTime":1775491200},"SBCC":{"icaoId":"SBCC","flightCategory":"MVFR","rawOb":"METAR SBCC 061600Z 09007KT 9999 BKN020 SCT100 29/22 Q1014","temp":29,"dewp":22,"wdir":90,"wspd":7,"visib":"6+","altim":1014,"clouds":[{"cover":"BKN","base":2000},{"cover":"SCT","base":10000}],"obsTime":1775491200},"SBTF":{"icaoId":"SBTF","flightCategory":"VFR","rawOb":"METAR SBTF 061600Z 03004KT 9999 SCT020 33/25 Q1011","temp":33,"dewp":25,"wdir":30,"wspd":4,"visib":"6+","altim":1011,"clouds":[{"cover":"SCT","base":2000}],"obsTime":1775491200},"SBTT":{"icaoId":"SBTT","flightCategory":"MVFR","rawOb":"METAR SBTT 061600Z 35005KT 320V030 9999 SCT012 BKN023 BKN070 26/23 Q1013","temp":26,"dewp":23,"wdir":350,"wspd":5,"visib":"6+","altim":1013,"clouds":[{"cover":"SCT","base":1200},{"cover":"BKN","base":2300},{"cover":"BKN","base":7000}],"obsTime":1775491200},"SBBQ":{"icaoId":"SBBQ","flightCategory":"MVFR","rawOb":"METAR SBBQ 061600Z 10006KT 9999 BKN025 23/18 Q1024","temp":23,"dewp":18,"wdir":100,"wspd":6,"visib":"6+","altim":1024,"clouds":[{"cover":"BKN","base":2500}],"obsTime":1775491200},"SBUY":{"icaoId":"SBUY","flightCategory":"VFR","rawOb":"METAR SBUY 061600Z 08009KT 9999 SCT025 SCT100 30/23 Q1010","temp":30,"dewp":23,"wdir":80,"wspd":9,"visib":"6+","altim":1010,"clouds":[{"cover":"SCT","base":2500},{"cover":"SCT","base":10000}],"obsTime":1775491200},"SBKG":{"icaoId":"SBKG","flightCategory":"VFR","rawOb":"METAR SBKG 061600Z 13007KT 9999 SCT025 29/21 Q1014","temp":29,"dewp":21,"wdir":130,"wspd":7,"visib":"6+","altim":1014,"clouds":[{"cover":"SCT","base":2500}],"obsTime":1775491200},"SBAX":{"icaoId":"SBAX","flightCategory":"MVFR","rawOb":"METAR SBAX 061600Z 08007KT 9999 BKN025 BKN050 28/19 Q1020","temp":28,"dewp":19,"wdir":80,"wspd":7,"visib":"6+","altim":1020,"clouds":[{"cover":"BKN","base":2500},{"cover":"BKN","base":5000}],"obsTime":1775491200},"SBIP":{"icaoId":"SBIP","flightCategory":"VFR","rawOb":"METAR SBIP 061600Z AUTO 36007KT 320V040 9999 FEW037 31/21 Q1017","temp":31,"dewp":21,"wdir":360,"wspd":7,"visib":"6+","altim":1017,"clouds":[{"cover":"FEW","base":3700}],"obsTime":1775491200},"SBTD":{"icaoId":"SBTD","flightCategory":"VFR","rawOb":"METAR SBTD 061600Z /////KT 9999 SCT035 29/20 Q1016","temp":29,"dewp":20,"wdir":null,"wspd":null,"visib":"6+","altim":1016,"clouds":[{"cover":"SCT","base":3500}],"obsTime":1775491200},"SBJP":{"icaoId":"SBJP","flightCategory":"MVFR","rawOb":"METAR SBJP 061600Z 12011KT 9999 BKN030 31/24 Q1012","temp":31,"dewp":24,"wdir":120,"wspd":11,"visib":"6+","altim":1012,"clouds":[{"cover":"BKN","base":3000}],"obsTime":1775491200},"SBAN":{"icaoId":"SBAN","flightCategory":"VFR","rawOb":"METAR SBAN 061600Z 07007KT 9999 SCT030 SCT100 28/19 Q1021","temp":28,"dewp":19,"wdir":70,"wspd":7,"visib":"6+","altim":1021,"clouds":[{"cover":"SCT","base":3000},{"cover":"SCT","base":10000}],"obsTime":1775491200},"SBIH":{"icaoId":"SBIH","flightCategory":"VFR","rawOb":"METAR SBIH 061600Z 10010KT 9999 SCT018 31/24 Q1011","temp":31,"dewp":24,"wdir":100,"wspd":10,"visib":"6+","altim":1011,"clouds":[{"cover":"SCT","base":1800}],"obsTime":1775491200},"SBJV":{"icaoId":"SBJV","flightCategory":"MVFR","rawOb":"METAR SBJV 061600Z 16005KT 130V190 9000 -RA SCT008 BKN012 BKN030 25/24 Q1017","temp":25,"dewp":24,"wdir":160,"wspd":5,"visib":5.59,"altim":1017,"clouds":[{"cover":"SCT","base":800},{"cover":"BKN","base":1200},{"cover":"BKN","base":3000}],"obsTime":1775491200},"SBAF":{"icaoId":"SBAF","flightCategory":"VFR","rawOb":"METAR SBAF 061600Z 19009KT 160V220 9999 FEW030 30/25 Q1016","temp":30,"dewp":25,"wdir":190,"wspd":9,"visib":"6+","altim":1016,"clouds":[{"cover":"FEW","base":3000}],"obsTime":1775491200},"SBGW":{"icaoId":"SBGW","flightCategory":"VFR","rawOb":"METAR SBGW 061600Z 36003KT 300V060 9999 SCT030 29/19 Q1018","temp":29,"dewp":19,"wdir":360,"wspd":3,"visib":"6+","altim":1018,"clouds":[{"cover":"SCT","base":3000}],"obsTime":1775491200},"SBJR":{"icaoId":"SBJR","flightCategory":"VFR","rawOb":"METAR SBJR 061600Z 18006KT 9999 FEW025 31/24 Q1016","temp":31,"dewp":24,"wdir":180,"wspd":6,"visib":"6+","altim":1016,"clouds":[{"cover":"FEW","base":2500}],"obsTime":1775491200},"SBLS":{"icaoId":"SBLS","flightCategory":"VFR","rawOb":"METAR SBLS 061600Z VRB04KT 9999 BKN035 28/19 Q1020","temp":28,"dewp":19,"wdir":"VRB","wspd":4,"visib":"6+","altim":1020,"clouds":[{"cover":"BKN","base":3500}],"obsTime":1775491200},"SBMT":{"icaoId":"SBMT","flightCategory":"VFR","rawOb":"METAR SBMT 061600Z 04007KT 330V080 9999 SCT040 28/18 Q1019","temp":28,"dewp":18,"wdir":40,"wspd":7,"visib":"6+","altim":1019,"clouds":[{"cover":"SCT","base":4000}],"obsTime":1775491200},"SBST":{"icaoId":"SBST","flightCategory":"VFR","rawOb":"METAR SBST 061600Z 19009KT 9999 SCT025 29/24 Q1015","temp":29,"dewp":24,"wdir":190,"wspd":9,"visib":"6+","altim":1015,"clouds":[{"cover":"SCT","base":2500}],"obsTime":1775491200},"SBTA":{"icaoId":"SBTA","flightCategory":"VFR","rawOb":"METAR SBTA 061600Z 11003KT 040V190 9999 SCT030 FEW035TCU 28/19 Q1018","temp":28,"dewp":19,"wdir":110,"wspd":3,"visib":"6+","altim":1018,"clouds":[{"cover":"SCT","base":3000},{"cover":"FEW","base":3500}],"obsTime":1775491200},"SBLE":{"icaoId":"SBLE","flightCategory":"VFR","rawOb":"METAR SBLE 061600Z AUTO VRB03KT 9999 FEW030 28/20 Q1017","temp":28,"dewp":20,"wdir":"VRB","wspd":3,"visib":"6+","altim":1017,"clouds":[{"cover":"FEW","base":3000}],"obsTime":1775491200},"SBNM":{"icaoId":"SBNM","flightCategory":"VFR","rawOb":"METAR SBNM 061600Z 02010KT 9999 FEW015 30/22 Q1013","temp":30,"dewp":22,"wdir":20,"wspd":10,"visib":"6+","altim":1013,"clouds":[{"cover":"FEW","base":1500}],"obsTime":1775491200}}}