{"updated":1776885310,"count":84,"data":{"SBPV":{"icaoId":"SBPV","flightCategory":"MVFR","rawOb":"METAR SBPV 221800Z 21002KT 9999 VCSH BKN025 FEW030TCU SCT100 28/24 Q1009","temp":28,"dewp":24,"wdir":210,"wspd":2,"visib":"6+","altim":1009,"clouds":[{"cover":"BKN","base":2500},{"cover":"FEW","base":3000},{"cover":"SCT","base":10000}],"obsTime":1776880800},"SBBE":{"icaoId":"SBBE","flightCategory":"VFR","rawOb":"METAR SBBE 221800Z 12004KT 9999 BKN035 FEW040TCU 31/23 Q1008","temp":31,"dewp":23,"wdir":120,"wspd":4,"visib":"6+","altim":1008,"clouds":[{"cover":"BKN","base":3500},{"cover":"FEW","base":4000}],"obsTime":1776880800},"SBBR":{"icaoId":"SBBR","flightCategory":"VFR","rawOb":"METAR SBBR 221800Z 12007KT 090V150 9999 FEW045 28/13 Q1017","temp":28,"dewp":13,"wdir":120,"wspd":7,"visib":"6+","altim":1017,"clouds":[{"cover":"FEW","base":4500}],"obsTime":1776880800},"SBBV":{"icaoId":"SBBV","flightCategory":"IFR","rawOb":"METAR SBBV 221800Z 28009KT 9999 VCSH BKN007 BKN030 FEW035TCU BKN080 24/23 Q1013","temp":24,"dewp":23,"wdir":280,"wspd":9,"visib":"6+","altim":1013,"clouds":[{"cover":"BKN","base":700},{"cover":"BKN","base":3000},{"cover":"FEW","base":3500},{"cover":"BKN","base":8000}],"obsTime":1776880800},"SBCB":{"icaoId":"SBCB","flightCategory":"VFR","rawOb":"METAR SBCB 221800Z 10009KT CAVOK 27/18 Q1015","temp":27,"dewp":18,"wdir":100,"wspd":9,"visib":"6+","altim":1015,"clouds":[],"obsTime":1776880800},"SBCF":{"icaoId":"SBCF","flightCategory":"VFR","rawOb":"METAR SBCF 221800Z 11005KT 070V180 9999 SCT043 27/16 Q1018","temp":27,"dewp":16,"wdir":110,"wspd":5,"visib":"6+","altim":1018,"clouds":[{"cover":"SCT","base":4300}],"obsTime":1776880800},"SBCG":{"icaoId":"SBCG","flightCategory":"VFR","rawOb":"METAR SBCG 221800Z 12006KT 100V170 CAVOK 30/17 Q1015","temp":30,"dewp":17,"wdir":120,"wspd":6,"visib":"6+","altim":1015,"clouds":[],"obsTime":1776880800},"SBCP":{"icaoId":"SBCP","flightCategory":"VFR","rawOb":"METAR SBCP 221800Z 14014KT 9999 SCT025 28/18 Q1014","temp":28,"dewp":18,"wdir":140,"wspd":14,"visib":"6+","altim":1014,"clouds":[{"cover":"SCT","base":2500}],"obsTime":1776880800},"SBCR":{"icaoId":"SBCR","flightCategory":"VFR","rawOb":"METAR SBCR 221800Z 34004KT 270V060 9999 SCT035 32/24 Q1011","temp":32,"dewp":24,"wdir":340,"wspd":4,"visib":"6+","altim":1011,"clouds":[{"cover":"SCT","base":3500}],"obsTime":1776880800},"SBCT":{"icaoId":"SBCT","flightCategory":"VFR","rawOb":"METAR SBCT 221800Z 12005KT 060V180 CAVOK 26/10 Q1019","temp":26,"dewp":10,"wdir":120,"wspd":5,"visib":"6+","altim":1019,"clouds":[],"obsTime":1776880800},"SBCZ":{"icaoId":"SBCZ","flightCategory":"MVFR","rawOb":"METAR SBCZ 221800Z VRB03KT 9999 BKN027 29/24 Q1011","temp":29,"dewp":24,"wdir":"VRB","wspd":3,"visib":"6+","altim":1011,"clouds":[{"cover":"BKN","base":2700}],"obsTime":1776880800},"SBEG":{"icaoId":"SBEG","flightCategory":"IFR","rawOb":"METAR SBEG 221800Z 22008KT 9999 SCT005 BKN007 FEW040TCU BKN100 25/24 Q1011 RERA","temp":25,"dewp":24,"wdir":220,"wspd":8,"visib":"6+","altim":1011,"clouds":[{"cover":"SCT","base":500},{"cover":"BKN","base":700},{"cover":"FEW","base":4000},{"cover":"BKN","base":10000}],"obsTime":1776880800},"SBFI":{"icaoId":"SBFI","flightCategory":"VFR","rawOb":"METAR SBFI 221800Z 21003KT 9999 SCT025 30/16 Q1015","temp":30,"dewp":16,"wdir":210,"wspd":3,"visib":"6+","altim":1015,"clouds":[{"cover":"SCT","base":2500}],"obsTime":1776880800},"SBFL":{"icaoId":"SBFL","flightCategory":"VFR","rawOb":"METAR SBFL 221800Z 35010KT 9999 FEW025 29/20 Q1014","temp":29,"dewp":20,"wdir":350,"wspd":10,"visib":"6+","altim":1014,"clouds":[{"cover":"FEW","base":2500}],"obsTime":1776880800},"SBFZ":{"icaoId":"SBFZ","flightCategory":"VFR","rawOb":"METAR SBFZ 221800Z 10008KT 9999 SCT025 30/25 Q1008","temp":30,"dewp":25,"wdir":100,"wspd":8,"visib":"6+","altim":1008,"clouds":[{"cover":"SCT","base":2500}],"obsTime":1776880800},"SBGL":{"icaoId":"SBGL","flightCategory":"VFR","rawOb":"METAR SBGL 221800Z 13013KT 9999 FEW030 27/18 Q1014","temp":27,"dewp":18,"wdir":130,"wspd":13,"visib":"6+","altim":1014,"clouds":[{"cover":"FEW","base":3000}],"obsTime":1776880800},"SBGO":{"icaoId":"SBGO","flightCategory":"VFR","rawOb":"METAR SBGO 221800Z 13004KT 9999 VCSH SCT049 FEW053TCU 30/18 Q1015","temp":30,"dewp":18,"wdir":130,"wspd":4,"visib":"6+","altim":1015,"clouds":[{"cover":"SCT","base":4900},{"cover":"FEW","base":5300}],"obsTime":1776880800},"SBGR":{"icaoId":"SBGR","flightCategory":"VFR","rawOb":"METAR SBGR 221800Z 14003KT 9999 FEW045 26/16 Q1017","temp":26,"dewp":16,"wdir":140,"wspd":3,"visib":"6+","altim":1017,"clouds":[{"cover":"FEW","base":4500}],"obsTime":1776880800},"SBHT":{"icaoId":"SBHT","flightCategory":"MVFR","rawOb":"METAR SBHT 221800Z 13004KT 9999 BKN030 BKN100 32/23 Q1009","temp":32,"dewp":23,"wdir":130,"wspd":4,"visib":"6+","altim":1009,"clouds":[{"cover":"BKN","base":3000},{"cover":"BKN","base":10000}],"obsTime":1776880800},"SBIL":{"icaoId":"SBIL","flightCategory":"VFR","rawOb":"METAR SBIL 221800Z 18011KT 9999 FEW030 SCT090 30/23 Q1014","temp":30,"dewp":23,"wdir":180,"wspd":11,"visib":"6+","altim":1014,"clouds":[{"cover":"FEW","base":3000},{"cover":"SCT","base":9000}],"obsTime":1776880800},"SBJU":{"icaoId":"SBJU","flightCategory":"VFR","rawOb":"METAR SBJU 221800Z 01005KT 9999 SCT020 FEW022TCU 30/23 Q1011","temp":30,"dewp":23,"wdir":10,"wspd":5,"visib":"6+","altim":1011,"clouds":[{"cover":"SCT","base":2000},{"cover":"FEW","base":2200}],"obsTime":1776880800},"SBKP":{"icaoId":"SBKP","flightCategory":"VFR","rawOb":"METAR SBKP 221800Z 00000KT 9999 FEW035 28/15 Q1016","temp":28,"dewp":15,"wdir":0,"wspd":0,"visib":"6+","altim":1016,"clouds":[{"cover":"FEW","base":3500}],"obsTime":1776880800},"SBLO":{"icaoId":"SBLO","flightCategory":"VFR","rawOb":"METAR SBLO 221800Z 17004KT CAVOK 27/15 Q1017","temp":27,"dewp":15,"wdir":170,"wspd":4,"visib":"6+","altim":1017,"clouds":[],"obsTime":1776880800},"SBMA":{"icaoId":"SBMA","flightCategory":"VFR","rawOb":"METAR SBMA 221800Z 09004KT 9999 SCT025TCU 33/25 Q1008","temp":33,"dewp":25,"wdir":90,"wspd":4,"visib":"6+","altim":1008,"clouds":[{"cover":"SCT","base":2500}],"obsTime":1776880800},"SBME":{"icaoId":"SBME","flightCategory":"VFR","rawOb":"METAR SBME 221800Z 13009KT 9999 FEW025 27/20 Q1014","temp":27,"dewp":20,"wdir":130,"wspd":9,"visib":"6+","altim":1014,"clouds":[{"cover":"FEW","base":2500}],"obsTime":1776880800},"SBMG":{"icaoId":"SBMG","flightCategory":"VFR","rawOb":"METAR SBMG 221800Z 17006KT 130V210 CAVOK 28/17 Q1015","temp":28,"dewp":17,"wdir":170,"wspd":6,"visib":"6+","altim":1015,"clouds":[],"obsTime":1776880800},"SBMK":{"icaoId":"SBMK","flightCategory":"VFR","rawOb":"METAR SBMK 221800Z 05003KT 9999 SCT046 30/15 Q1016","temp":30,"dewp":15,"wdir":50,"wspd":3,"visib":"6+","altim":1016,"clouds":[{"cover":"SCT","base":4600}],"obsTime":1776880800},"SBMO":{"icaoId":"SBMO","flightCategory":"MVFR","rawOb":"METAR SBMO 221800Z 21006KT 170V250 9999 BKN023 SCT070 29/25 Q1013","temp":29,"dewp":25,"wdir":210,"wspd":6,"visib":"6+","altim":1013,"clouds":[{"cover":"BKN","base":2300},{"cover":"SCT","base":7000}],"obsTime":1776880800},"SBMQ":{"icaoId":"SBMQ","flightCategory":"MVFR","rawOb":"METAR SBMQ 221800Z 12002KT 9999 -TSRA BKN020 FEW020CB BKN100 28/25 Q1008","temp":28,"dewp":25,"wdir":120,"wspd":2,"visib":"6+","altim":1008,"clouds":[{"cover":"BKN","base":2000},{"cover":"FEW","base":2000},{"cover":"BKN","base":10000}],"obsTime":1776880800},"SBNT":{"icaoId":"SBNT","flightCategory":"VFR","rawOb":"METAR SBNT 221800Z 10012KT 9999 FEW033 30/23 Q1009","temp":30,"dewp":23,"wdir":100,"wspd":12,"visib":"6+","altim":1009,"clouds":[{"cover":"FEW","base":3300}],"obsTime":1776880800},"SBPA":{"icaoId":"SBPA","flightCategory":"VFR","rawOb":"METAR SBPA 221800Z 25007KT 220V290 9999 FEW030 29/20 Q1014","temp":29,"dewp":20,"wdir":250,"wspd":7,"visib":"6+","altim":1014,"clouds":[{"cover":"FEW","base":3000}],"obsTime":1776880800},"SBPJ":{"icaoId":"SBPJ","flightCategory":"VFR","rawOb":"METAR SBPJ 221800Z 14005KT 9999 FEW023 SCT045 32/23 Q1011","temp":32,"dewp":23,"wdir":140,"wspd":5,"visib":"6+","altim":1011,"clouds":[{"cover":"FEW","base":2300},{"cover":"SCT","base":4500}],"obsTime":1776880800},"SBAT":{"icaoId":"SBAT","flightCategory":"VFR","rawOb":"METAR SBAT 221800Z 05005KT 9999 VCSH BKN035 FEW040TCU 27/24 Q1009","temp":27,"dewp":24,"wdir":50,"wspd":5,"visib":"6+","altim":1009,"clouds":[{"cover":"BKN","base":3500},{"cover":"FEW","base":4000}],"obsTime":1776880800},"SBRB":{"icaoId":"SBRB","flightCategory":"VFR","rawOb":"METAR SBRB 221800Z 20002KT 9999 SCT025 SCT100 30/23 Q1011","temp":30,"dewp":23,"wdir":200,"wspd":2,"visib":"6+","altim":1011,"clouds":[{"cover":"SCT","base":2500},{"cover":"SCT","base":10000}],"obsTime":1776880800},"SBRF":{"icaoId":"SBRF","flightCategory":"VFR","rawOb":"METAR SBRF 221800Z 14010KT 9999 FEW025 29/24 Q1010","temp":29,"dewp":24,"wdir":140,"wspd":10,"visib":"6+","altim":1010,"clouds":[{"cover":"FEW","base":2500}],"obsTime":1776880800},"SBSG":{"icaoId":"SBSG","flightCategory":"VFR","rawOb":"METAR SBSG 221800Z 12008KT 090V170 9999 BKN036 30/23 Q1009","temp":30,"dewp":23,"wdir":120,"wspd":8,"visib":"6+","altim":1009,"clouds":[{"cover":"BKN","base":3600}],"obsTime":1776880800},"SBSL":{"icaoId":"SBSL","flightCategory":"VFR","rawOb":"METAR SBSL 221800Z 03009KT 9999 FEW030 FEW031TCU 30/25 Q1008","temp":30,"dewp":25,"wdir":30,"wspd":9,"visib":"6+","altim":1008,"clouds":[{"cover":"FEW","base":3000},{"cover":"FEW","base":3100}],"obsTime":1776880800},"SBSN":{"icaoId":"SBSN","flightCategory":"VFR","rawOb":"METAR SBSN 221800Z 07010KT 030V090 9999 FEW025 SCT040TCU 31/25 Q1008","temp":31,"dewp":25,"wdir":70,"wspd":10,"visib":"6+","altim":1008,"clouds":[{"cover":"FEW","base":2500},{"cover":"SCT","base":4000}],"obsTime":1776880800},"SBSP":{"icaoId":"SBSP","flightCategory":"VFR","rawOb":"METAR SBSP 221800Z 15010KT 110V180 9999 FEW035 25/17 Q1018","temp":25,"dewp":17,"wdir":150,"wspd":10,"visib":"6+","altim":1018,"clouds":[{"cover":"FEW","base":3500}],"obsTime":1776880800},"SBSV":{"icaoId":"SBSV","flightCategory":"MVFR","rawOb":"METAR SBSV 221800Z 17008KT 150V210 9999 VCSH BKN017 BKN018 FEW020TCU BKN060 26/24 Q1012","temp":26,"dewp":24,"wdir":170,"wspd":8,"visib":"6+","altim":1012,"clouds":[{"cover":"BKN","base":1700},{"cover":"BKN","base":1800},{"cover":"FEW","base":2000},{"cover":"BKN","base":6000}],"obsTime":1776880800},"SBTE":{"icaoId":"SBTE","flightCategory":"VFR","rawOb":"METAR SBTE 221800Z 16006KT 100V200 9999 FEW020 32/25 Q1008","temp":32,"dewp":25,"wdir":160,"wspd":6,"visib":"6+","altim":1008,"clouds":[{"cover":"FEW","base":2000}],"obsTime":1776880800},"SBUL":{"icaoId":"SBUL","flightCategory":"VFR","rawOb":"METAR SBUL 221800Z 05004KT 9999 SCT030 FEW035TCU SCT090 27/17 Q1017","temp":27,"dewp":17,"wdir":50,"wspd":4,"visib":"6+","altim":1017,"clouds":[{"cover":"SCT","base":3000},{"cover":"FEW","base":3500},{"cover":"SCT","base":9000}],"obsTime":1776880800},"SBUR":{"icaoId":"SBUR","flightCategory":"VFR","rawOb":"METAR SBUR 221800Z 25004KT CAVOK 31/15 Q1016","temp":31,"dewp":15,"wdir":250,"wspd":4,"visib":"6+","altim":1016,"clouds":[],"obsTime":1776880800},"SBVT":{"icaoId":"SBVT","flightCategory":"VFR","rawOb":"METAR SBVT 221800Z 16009KT 9999 FEW040 27/22 Q1015","temp":27,"dewp":22,"wdir":160,"wspd":9,"visib":"6+","altim":1015,"clouds":[{"cover":"FEW","base":4000}],"obsTime":1776880800},"SBOI":{"icaoId":"SBOI","flightCategory":"VFR","rawOb":"METAR SBOI 221800Z AUTO 08006KT 020V140 9999 SCT031 BKN044 30/24 Q1009","temp":30,"dewp":24,"wdir":80,"wspd":6,"visib":"6+","altim":1009,"clouds":[{"cover":"SCT","base":3100},{"cover":"BKN","base":4400}],"obsTime":1776880800},"SBCA":{"icaoId":"SBCA","flightCategory":"VFR","rawOb":"METAR SBCA 221800Z 22003KT 190V280 9999 SCT040 27/17 Q1018","temp":27,"dewp":17,"wdir":220,"wspd":3,"visib":"6+","altim":1018,"clouds":[{"cover":"SCT","base":4000}],"obsTime":1776880800},"SBKG":{"icaoId":"SBKG","flightCategory":"VFR","rawOb":"METAR SBKG 221800Z 17006KT 9999 FEW025 30/20 Q1012","temp":30,"dewp":20,"wdir":170,"wspd":6,"visib":"6+","altim":1012,"clouds":[{"cover":"FEW","base":2500}],"obsTime":1776880800},"SBBU":{"icaoId":"SBBU","flightCategory":"VFR","rawOb":"METAR SBBU 221800Z 08005KT CAVOK 31/14 Q1016","temp":31,"dewp":14,"wdir":80,"wspd":5,"visib":"6+","altim":1016,"clouds":[],"obsTime":1776880800},"SBIP":{"icaoId":"SBIP","flightCategory":"VFR","rawOb":"METAR SBIP 221800Z AUTO 35005KT 320V040 CAVOK 30/18 Q1015","temp":30,"dewp":18,"wdir":350,"wspd":5,"visib":"6+","altim":1015,"clouds":[],"obsTime":1776880800},"SBAX":{"icaoId":"SBAX","flightCategory":"VFR","rawOb":"METAR SBAX 221800Z 06004KT 9999 FEW030 27/17 Q1018","temp":27,"dewp":17,"wdir":60,"wspd":4,"visib":"6+","altim":1018,"clouds":[{"cover":"FEW","base":3000}],"obsTime":1776880800},"SBPB":{"icaoId":"SBPB","flightCategory":"VFR","rawOb":"METAR SBPB 221800Z 02008KT 9999 FEW016 FEW025TCU 31/25 Q1008","temp":31,"dewp":25,"wdir":20,"wspd":8,"visib":"6+","altim":1008,"clouds":[{"cover":"FEW","base":1600},{"cover":"FEW","base":2500}],"obsTime":1776880800},"SBCC":{"icaoId":"SBCC","flightCategory":"VFR","rawOb":"METAR SBCC 221800Z 03009KT 9999 SCT025 30/22 Q1010","temp":30,"dewp":22,"wdir":30,"wspd":9,"visib":"6+","altim":1010,"clouds":[{"cover":"SCT","base":2500}],"obsTime":1776880800},"SBPL":{"icaoId":"SBPL","flightCategory":"VFR","rawOb":"METAR SBPL 221800Z 11009KT 9999 FEW030 BKN070 32/20 Q1011","temp":32,"dewp":20,"wdir":110,"wspd":9,"visib":"6+","altim":1011,"clouds":[{"cover":"FEW","base":3000},{"cover":"BKN","base":7000}],"obsTime":1776880800},"SBVH":{"icaoId":"SBVH","flightCategory":"MVFR","rawOb":"METAR SBVH 221800Z 09008KT 9999 BKN030 29/22 Q1012","temp":29,"dewp":22,"wdir":90,"wspd":8,"visib":"6+","altim":1012,"clouds":[{"cover":"BKN","base":3000}],"obsTime":1776880800},"SBPP":{"icaoId":"SBPP","flightCategory":"VFR","rawOb":"METAR SBPP 221800Z 07005KT CAVOK 27/19 Q1017","temp":27,"dewp":19,"wdir":70,"wspd":5,"visib":"6+","altim":1017,"clouds":[],"obsTime":1776880800},"SBAR":{"icaoId":"SBAR","flightCategory":"IFR","rawOb":"SPECI SBAR 221720Z 14013KT 9999 VCSH BKN008 BKN017 FEW023TCU BKN100 27/24 Q1012","temp":27,"dewp":24,"wdir":140,"wspd":13,"visib":"6+","altim":1012,"clouds":[{"cover":"BKN","base":800},{"cover":"BKN","base":1700},{"cover":"FEW","base":2300},{"cover":"BKN","base":10000}],"obsTime":1776878400},"SBCJ":{"icaoId":"SBCJ","flightCategory":"VFR","rawOb":"METAR SBCJ 221800Z 13009KT 9999 SCT024 28/20 Q1013","temp":28,"dewp":20,"wdir":130,"wspd":9,"visib":"6+","altim":1013,"clouds":[{"cover":"SCT","base":2400}],"obsTime":1776880800},"SBPS":{"icaoId":"SBPS","flightCategory":"VFR","rawOb":"METAR SBPS 221800Z 15005KT 080V220 9999 SCT020 28/22 Q1014","temp":28,"dewp":22,"wdir":150,"wspd":5,"visib":"6+","altim":1014,"clouds":[{"cover":"SCT","base":2000}],"obsTime":1776880800},"SBSC":{"icaoId":"SBSC","flightCategory":"VFR","rawOb":"METAR SBSC 221800Z 16010KT 9999 FEW030 27/21 Q1014","temp":27,"dewp":21,"wdir":160,"wspd":10,"visib":"6+","altim":1014,"clouds":[{"cover":"FEW","base":3000}],"obsTime":1776880800},"SBCO":{"icaoId":"SBCO","flightCategory":"VFR","rawOb":"METAR SBCO 221800Z 24008KT 9999 FEW035 29/20 Q1014","temp":29,"dewp":20,"wdir":240,"wspd":8,"visib":"6+","altim":1014,"clouds":[{"cover":"FEW","base":3500}],"obsTime":1776880800},"SBSJ":{"icaoId":"SBSJ","flightCategory":"VFR","rawOb":"METAR SBSJ 221800Z 30003KT 250V340 9999 SCT033 27/17 Q1017","temp":27,"dewp":17,"wdir":300,"wspd":3,"visib":"6+","altim":1017,"clouds":[{"cover":"SCT","base":3300}],"obsTime":1776880800},"SBBH":{"icaoId":"SBBH","flightCategory":"VFR","rawOb":"METAR SBBH 221800Z 05004KT 9999 SCT045 27/16 Q1017","temp":27,"dewp":16,"wdir":50,"wspd":4,"visib":"6+","altim":1017,"clouds":[{"cover":"SCT","base":4500}],"obsTime":1776880800},"SBSM":{"icaoId":"SBSM","flightCategory":"VFR","rawOb":"METAR SBSM 221800Z 18003KT 9999 SCT030 29/21 Q1015","temp":29,"dewp":21,"wdir":180,"wspd":3,"visib":"6+","altim":1015,"clouds":[{"cover":"SCT","base":3000}],"obsTime":1776880800},"SBDN":{"icaoId":"SBDN","flightCategory":"VFR","rawOb":"METAR SBDN 221800Z 15006KT CAVOK 31/14 Q1015","temp":31,"dewp":14,"wdir":150,"wspd":6,"visib":"6+","altim":1015,"clouds":[],"obsTime":1776880800},"SBSR":{"icaoId":"SBSR","flightCategory":"VFR","rawOb":"METAR SBSR 221800Z VRB03KT 9999 FEW030 32/13 Q1014","temp":32,"dewp":13,"wdir":"VRB","wspd":3,"visib":"6+","altim":1014,"clouds":[{"cover":"FEW","base":3000}],"obsTime":1776880800},"SBUY":{"icaoId":"SBUY","flightCategory":"VFR","rawOb":"METAR SBUY 221800Z 00000KT 9999 FEW025 BKN100 29/23 Q1009","temp":29,"dewp":23,"wdir":0,"wspd":0,"visib":"6+","altim":1009,"clouds":[{"cover":"FEW","base":2500},{"cover":"BKN","base":10000}],"obsTime":1776880800},"SBTF":{"icaoId":"SBTF","flightCategory":"VFR","rawOb":"METAR SBTF 221800Z 25004KT 9999 SCT015 BKN090 29/26 Q1010","temp":29,"dewp":26,"wdir":250,"wspd":4,"visib":"6+","altim":1010,"clouds":[{"cover":"SCT","base":1500},{"cover":"BKN","base":9000}],"obsTime":1776880800},"SBBQ":{"icaoId":"SBBQ","flightCategory":"VFR","rawOb":"METAR SBBQ 221800Z 12004KT 080V170 9999 BKN035 22/17 Q1021","temp":22,"dewp":17,"wdir":120,"wspd":4,"visib":"6+","altim":1021,"clouds":[{"cover":"BKN","base":3500}],"obsTime":1776880800},"SBTT":{"icaoId":"SBTT","flightCategory":"VFR","rawOb":"METAR SBTT 221800Z 25006KT 9999 SCT035 29/22 Q1011","temp":29,"dewp":22,"wdir":250,"wspd":6,"visib":"6+","altim":1011,"clouds":[{"cover":"SCT","base":3500}],"obsTime":1776880800},"SBES":{"icaoId":"SBES","flightCategory":"VFR","rawOb":"METAR SBES 221800Z 10008KT 350V140 9999 FEW030 27/// Q1015","temp":null,"dewp":null,"wdir":100,"wspd":8,"visib":"6+","altim":1015,"clouds":[{"cover":"FEW","base":3000}],"obsTime":1776880800},"SBGM":{"icaoId":"SBGM","flightCategory":"VFR","rawOb":"METAR SBGM 221800Z 13005KT 9999 SCT020 30/23 Q1011","temp":30,"dewp":23,"wdir":130,"wspd":5,"visib":"6+","altim":1011,"clouds":[{"cover":"SCT","base":2000}],"obsTime":1776880800},"SBAU":{"icaoId":"SBAU","flightCategory":"VFR","rawOb":"METAR SBAU 221800Z 18006KT CAVOK 32/14 Q1014","temp":32,"dewp":14,"wdir":180,"wspd":6,"visib":"6+","altim":1014,"clouds":[],"obsTime":1776880800},"SBTA":{"icaoId":"SBTA","flightCategory":"VFR","rawOb":"METAR SBTA 221800Z 36003KT 320V070 9999 SCT035 27/16 Q1016","temp":27,"dewp":16,"wdir":360,"wspd":3,"visib":"6+","altim":1016,"clouds":[{"cover":"SCT","base":3500}],"obsTime":1776880800},"SBJP":{"icaoId":"SBJP","flightCategory":"VFR","rawOb":"METAR SBJP 221800Z 11010KT CAVOK 30/23 Q1010","temp":30,"dewp":23,"wdir":110,"wspd":10,"visib":"6+","altim":1010,"clouds":[],"obsTime":1776880800},"SBAF":{"icaoId":"SBAF","flightCategory":"VFR","rawOb":"METAR SBAF 221800Z 19012KT 9999 FEW030 27/20 Q1015","temp":27,"dewp":20,"wdir":190,"wspd":12,"visib":"6+","altim":1015,"clouds":[{"cover":"FEW","base":3000}],"obsTime":1776880800},"SBGW":{"icaoId":"SBGW","flightCategory":"VFR","rawOb":"METAR SBGW 221800Z 36004KT 9999 FEW030 28/15 Q1016","temp":28,"dewp":15,"wdir":360,"wspd":4,"visib":"6+","altim":1016,"clouds":[{"cover":"FEW","base":3000}],"obsTime":1776880800},"SBLE":{"icaoId":"SBLE","flightCategory":"VFR","rawOb":"METAR SBLE 221800Z AUTO VRB04KT CAVOK 29/19 Q1014","temp":29,"dewp":19,"wdir":"VRB","wspd":4,"visib":"6+","altim":1014,"clouds":[],"obsTime":1776880800},"SBJV":{"icaoId":"SBJV","flightCategory":"VFR","rawOb":"METAR SBJV 221800Z 13007KT 9999 FEW030 28/20 Q1015","temp":28,"dewp":20,"wdir":130,"wspd":7,"visib":"6+","altim":1015,"clouds":[{"cover":"FEW","base":3000}],"obsTime":1776880800},"SBAN":{"icaoId":"SBAN","flightCategory":"VFR","rawOb":"METAR SBAN 221800Z 02002KT 9999 VCSH BKN035 FEW040TCU 27/18 Q1018","temp":27,"dewp":18,"wdir":20,"wspd":2,"visib":"6+","altim":1018,"clouds":[{"cover":"BKN","base":3500},{"cover":"FEW","base":4000}],"obsTime":1776880800},"SBIH":{"icaoId":"SBIH","flightCategory":"VFR","rawOb":"METAR SBIH 221800Z 04008KT 9999 SCT020 FEW023TCU 32/23 Q1008","temp":32,"dewp":23,"wdir":40,"wspd":8,"visib":"6+","altim":1008,"clouds":[{"cover":"SCT","base":2000},{"cover":"FEW","base":2300}],"obsTime":1776880800},"SBJR":{"icaoId":"SBJR","flightCategory":"VFR","rawOb":"METAR SBJR 221800Z 15010KT 9999 FEW030 28/19 Q1015","temp":28,"dewp":19,"wdir":150,"wspd":10,"visib":"6+","altim":1015,"clouds":[{"cover":"FEW","base":3000}],"obsTime":1776880800},"SBLS":{"icaoId":"SBLS","flightCategory":"VFR","rawOb":"METAR SBLS 221800Z VRB03KT 9999 SCT035 27/16 Q1017","temp":27,"dewp":16,"wdir":"VRB","wspd":3,"visib":"6+","altim":1017,"clouds":[{"cover":"SCT","base":3500}],"obsTime":1776880800},"SBMT":{"icaoId":"SBMT","flightCategory":"VFR","rawOb":"METAR SBMT 221800Z VRB03KT CAVOK 27/13 Q1017","temp":27,"dewp":13,"wdir":"VRB","wspd":3,"visib":"6+","altim":1017,"clouds":[],"obsTime":1776880800},"SBST":{"icaoId":"SBST","flightCategory":"MVFR","rawOb":"METAR SBST 221800Z 16005KT 9999 BKN028 BKN033 25/20 Q1015","temp":25,"dewp":20,"wdir":160,"wspd":5,"visib":"6+","altim":1015,"clouds":[{"cover":"BKN","base":2800},{"cover":"BKN","base":3300}],"obsTime":1776880800}}}