{"updated":1784764266,"count":76,"data":{"SBLO":{"icaoId":"SBLO","flightCategory":"IFR","rawOb":"METAR SBLO 222200Z 09005KT 060V130 3000 RA SCT015 OVC060 15/14 Q1016","temp":15,"dewp":14,"wdir":90,"wspd":5,"visib":1.86,"altim":1016,"clouds":[{"cover":"SCT","base":1500},{"cover":"OVC","base":6000}],"obsTime":1784757600},"SBCG":{"icaoId":"SBCG","flightCategory":"VFR","rawOb":"METAR SBCG 222200Z 28005KT 220V320 9999 TS SCT035 FEW040CB BKN080 23/19 Q1014","temp":23,"dewp":19,"wdir":280,"wspd":5,"visib":"6+","altim":1014,"clouds":[{"cover":"SCT","base":3500},{"cover":"FEW","base":4000},{"cover":"BKN","base":8000}],"obsTime":1784757600},"SBFI":{"icaoId":"SBFI","flightCategory":"IFR","rawOb":"METAR SBFI 222200Z 19004KT 9999 BKN009 BKN040 18/18 Q1014","temp":18,"dewp":18,"wdir":190,"wspd":4,"visib":"6+","altim":1014,"clouds":[{"cover":"BKN","base":900},{"cover":"BKN","base":4000}],"obsTime":1784757600},"SBPA":{"icaoId":"SBPA","flightCategory":"IFR","rawOb":"METAR SBPA 222200Z 16009KT 3500 BR BKN009 OVC025 16/16 Q1012 RETS","temp":16,"dewp":16,"wdir":160,"wspd":9,"visib":2.17,"altim":1012,"clouds":[{"cover":"BKN","base":900},{"cover":"OVC","base":2500}],"obsTime":1784757600},"SBMA":{"icaoId":"SBMA","flightCategory":"VFR","rawOb":"METAR SBMA 222200Z 00000KT 9999 SCT025 FEW030TCU BKN100 32/22 Q1011","temp":32,"dewp":22,"wdir":0,"wspd":0,"visib":"6+","altim":1011,"clouds":[{"cover":"SCT","base":2500},{"cover":"FEW","base":3000},{"cover":"BKN","base":10000}],"obsTime":1784757600},"SBMO":{"icaoId":"SBMO","flightCategory":"MVFR","rawOb":"METAR SBMO 222200Z 12005KT 6000 -RA SCT015 BKN021 24/23 Q1016 RERA","temp":24,"dewp":23,"wdir":120,"wspd":5,"visib":3.73,"altim":1016,"clouds":[{"cover":"SCT","base":1500},{"cover":"BKN","base":2100}],"obsTime":1784757600},"SBSN":{"icaoId":"SBSN","flightCategory":"VFR","rawOb":"METAR SBSN 222200Z 14003KT 9999 FEW020 SCT080 28/24 Q1011","temp":28,"dewp":24,"wdir":140,"wspd":3,"visib":"6+","altim":1011,"clouds":[{"cover":"FEW","base":2000},{"cover":"SCT","base":8000}],"obsTime":1784757600},"SBCF":{"icaoId":"SBCF","flightCategory":"VFR","rawOb":"METAR SBCF 222200Z 03004KT CAVOK 24/09 Q1019","temp":24,"dewp":9,"wdir":30,"wspd":4,"visib":"6+","altim":1019,"clouds":[],"obsTime":1784757600},"SBSV":{"icaoId":"SBSV","flightCategory":"VFR","rawOb":"METAR SBSV 222200Z 12007KT 090V170 9999 FEW026 SCT100 26/21 Q1017","temp":26,"dewp":21,"wdir":120,"wspd":7,"visib":"6+","altim":1017,"clouds":[{"cover":"FEW","base":2600},{"cover":"SCT","base":10000}],"obsTime":1784757600},"SBFL":{"icaoId":"SBFL","flightCategory":"VFR","rawOb":"METAR SBFL 222200Z VRB01KT 9999 SCT007 18/18 Q1012","temp":18,"dewp":18,"wdir":"VRB","wspd":1,"visib":"6+","altim":1012,"clouds":[{"cover":"SCT","base":700}],"obsTime":1784757600},"SBKP":{"icaoId":"SBKP","flightCategory":"VFR","rawOb":"METAR SBKP 222200Z 19008KT CAVOK 24/14 Q1016","temp":24,"dewp":14,"wdir":190,"wspd":8,"visib":"6+","altim":1016,"clouds":[],"obsTime":1784757600},"SBGO":{"icaoId":"SBGO","flightCategory":"VFR","rawOb":"METAR SBGO 222200Z 02005KT CAVOK 26/13 Q1017","temp":26,"dewp":13,"wdir":20,"wspd":5,"visib":"6+","altim":1017,"clouds":[],"obsTime":1784757600},"SBBE":{"icaoId":"SBBE","flightCategory":"VFR","rawOb":"METAR SBBE 222200Z 04007KT 9999 VCTS SCT010 BKN035 FEW045CB 26/24 Q1011 RERA","temp":26,"dewp":24,"wdir":40,"wspd":7,"visib":"6+","altim":1011,"clouds":[{"cover":"SCT","base":1000},{"cover":"BKN","base":3500},{"cover":"FEW","base":4500}],"obsTime":1784757600},"SBFZ":{"icaoId":"SBFZ","flightCategory":"VFR","rawOb":"METAR SBFZ 222200Z 11009KT 9999 FEW019 27/23 Q1012","temp":27,"dewp":23,"wdir":110,"wspd":9,"visib":"6+","altim":1012,"clouds":[{"cover":"FEW","base":1900}],"obsTime":1784757600},"SBGL":{"icaoId":"SBGL","flightCategory":"VFR","rawOb":"METAR SBGL 222200Z 26008KT 9999 FEW030 22/18 Q1015","temp":22,"dewp":18,"wdir":260,"wspd":8,"visib":"6+","altim":1015,"clouds":[{"cover":"FEW","base":3000}],"obsTime":1784757600},"SBBR":{"icaoId":"SBBR","flightCategory":"VFR","rawOb":"METAR SBBR 222200Z 16003KT 9999 FEW045 BKN090 25/10 Q1019","temp":25,"dewp":10,"wdir":160,"wspd":3,"visib":"6+","altim":1019,"clouds":[{"cover":"FEW","base":4500},{"cover":"BKN","base":9000}],"obsTime":1784757600},"SBSG":{"icaoId":"SBSG","flightCategory":"VFR","rawOb":"METAR SBSG 222200Z 17003KT 130V200 9999 SCT020 SCT070 24/23 Q1014","temp":24,"dewp":23,"wdir":170,"wspd":3,"visib":"6+","altim":1014,"clouds":[{"cover":"SCT","base":2000},{"cover":"SCT","base":7000}],"obsTime":1784757600},"SBRB":{"icaoId":"SBRB","flightCategory":"VFR","rawOb":"METAR SBRB 222200Z 03003KT 9999 FEW035 31/23 Q1009","temp":31,"dewp":23,"wdir":30,"wspd":3,"visib":"6+","altim":1009,"clouds":[{"cover":"FEW","base":3500}],"obsTime":1784757600},"SBPV":{"icaoId":"SBPV","flightCategory":"VFR","rawOb":"METAR SBPV 222200Z 04004KT CAVOK 32/21 Q1009","temp":32,"dewp":21,"wdir":40,"wspd":4,"visib":"6+","altim":1009,"clouds":[],"obsTime":1784757600},"SBRF":{"icaoId":"SBRF","flightCategory":"IFR","rawOb":"METAR SBRF 222200Z 13010KT 4000 -RA BR BKN009 BKN023 24/23 Q1015 RERA","temp":24,"dewp":23,"wdir":130,"wspd":10,"visib":2.49,"altim":1015,"clouds":[{"cover":"BKN","base":900},{"cover":"BKN","base":2300}],"obsTime":1784757600},"SBSL":{"icaoId":"SBSL","flightCategory":"VFR","rawOb":"METAR SBSL 222200Z 06007KT 020V080 9999 FEW025 SCT070 28/24 Q1012","temp":28,"dewp":24,"wdir":60,"wspd":7,"visib":"6+","altim":1012,"clouds":[{"cover":"FEW","base":2500},{"cover":"SCT","base":7000}],"obsTime":1784757600},"SBPJ":{"icaoId":"SBPJ","flightCategory":"VFR","rawOb":"METAR SBPJ 222200Z 16002KT CAVOK 28/18 Q1012","temp":28,"dewp":18,"wdir":160,"wspd":2,"visib":"6+","altim":1012,"clouds":[],"obsTime":1784757600},"SBSP":{"icaoId":"SBSP","flightCategory":"VFR","rawOb":"METAR SBSP 222200Z 19008KT 160V220 9999 FEW025 BKN070 17/13 Q1019","temp":17,"dewp":13,"wdir":190,"wspd":8,"visib":"6+","altim":1019,"clouds":[{"cover":"FEW","base":2500},{"cover":"BKN","base":7000}],"obsTime":1784757600},"SBGR":{"icaoId":"SBGR","flightCategory":"VFR","rawOb":"METAR SBGR 222200Z 17004KT CAVOK 18/12 Q1018","temp":18,"dewp":12,"wdir":170,"wspd":4,"visib":"6+","altim":1018,"clouds":[],"obsTime":1784757600},"SBCT":{"icaoId":"SBCT","flightCategory":"VFR","rawOb":"METAR SBCT 222200Z 01007KT 9999 -RA NSC 14/12 Q1016","temp":14,"dewp":12,"wdir":10,"wspd":7,"visib":"6+","altim":1016,"clouds":[],"obsTime":1784757600},"SBTE":{"icaoId":"SBTE","flightCategory":"VFR","rawOb":"METAR SBTE 222200Z 28002KT 9999 FEW040 31/21 Q1011","temp":31,"dewp":21,"wdir":280,"wspd":2,"visib":"6+","altim":1011,"clouds":[{"cover":"FEW","base":4000}],"obsTime":1784757600},"SBVT":{"icaoId":"SBVT","flightCategory":"VFR","rawOb":"METAR SBVT 222200Z 03013KT 9999 FEW030 24/20 Q1016","temp":24,"dewp":20,"wdir":30,"wspd":13,"visib":"6+","altim":1016,"clouds":[{"cover":"FEW","base":3000}],"obsTime":1784757600},"SBMQ":{"icaoId":"SBMQ","flightCategory":"VFR","rawOb":"METAR SBMQ 222200Z 03008KT 9999 FEW020 29/23 Q1011","temp":29,"dewp":23,"wdir":30,"wspd":8,"visib":"6+","altim":1011,"clouds":[{"cover":"FEW","base":2000}],"obsTime":1784757600},"SBCZ":{"icaoId":"SBCZ","flightCategory":"VFR","rawOb":"METAR SBCZ 222200Z 00000KT 9999 SCT030 30/25 Q1009","temp":30,"dewp":25,"wdir":0,"wspd":0,"visib":"6+","altim":1009,"clouds":[{"cover":"SCT","base":3000}],"obsTime":1784757600},"SBBV":{"icaoId":"SBBV","flightCategory":"VFR","rawOb":"METAR SBBV 222200Z 13009KT 9999 FEW030 FEW035TCU SCT100 31/21 Q1010","temp":31,"dewp":21,"wdir":130,"wspd":9,"visib":"6+","altim":1010,"clouds":[{"cover":"FEW","base":3000},{"cover":"FEW","base":3500},{"cover":"SCT","base":10000}],"obsTime":1784757600},"SBEG":{"icaoId":"SBEG","flightCategory":"VFR","rawOb":"METAR SBEG 222200Z 11009KT 9999 FEW035 31/23 Q1010","temp":31,"dewp":23,"wdir":110,"wspd":9,"visib":"6+","altim":1010,"clouds":[{"cover":"FEW","base":3500}],"obsTime":1784757600},"SBMG":{"icaoId":"SBMG","flightCategory":"IFR","rawOb":"METAR SBMG 222200Z 08014KT 4000 -RA BR SCT035 BKN050 FEW050TCU OVC070 16/15 Q1014 RETS RETSRA","temp":16,"dewp":15,"wdir":80,"wspd":14,"visib":2.49,"altim":1014,"clouds":[{"cover":"SCT","base":3500},{"cover":"BKN","base":5000},{"cover":"FEW","base":5000},{"cover":"OVC","base":7000}],"obsTime":1784757600},"SBIL":{"icaoId":"SBIL","flightCategory":"VFR","rawOb":"METAR SBIL 222200Z 14003KT 110V200 CAVOK 25/20 Q1018","temp":25,"dewp":20,"wdir":140,"wspd":3,"visib":"6+","altim":1018,"clouds":[],"obsTime":1784757600},"SBJU":{"icaoId":"SBJU","flightCategory":"VFR","rawOb":"METAR SBJU 222200Z 02003KT 9999 SCT020 29/18 Q1014","temp":29,"dewp":18,"wdir":20,"wspd":3,"visib":"6+","altim":1014,"clouds":[{"cover":"SCT","base":2000}],"obsTime":1784757600},"SBNT":{"icaoId":"SBNT","flightCategory":"VFR","rawOb":"METAR SBNT 222200Z 19004KT 9999 VCSH FEW029 SCT040 BKN100 24/23 Q1014","temp":24,"dewp":23,"wdir":190,"wspd":4,"visib":"6+","altim":1014,"clouds":[{"cover":"FEW","base":2900},{"cover":"SCT","base":4000},{"cover":"BKN","base":10000}],"obsTime":1784757600},"SBME":{"icaoId":"SBME","flightCategory":"VFR","rawOb":"METAR SBME 222200Z 04011KT 9999 SCT040 25/18 Q1014","temp":25,"dewp":18,"wdir":40,"wspd":11,"visib":"6+","altim":1014,"clouds":[{"cover":"SCT","base":4000}],"obsTime":1784757600},"SBMK":{"icaoId":"SBMK","flightCategory":"VFR","rawOb":"METAR SBMK 222200Z 12007KT CAVOK 25/11 Q1018","temp":25,"dewp":11,"wdir":120,"wspd":7,"visib":"6+","altim":1018,"clouds":[],"obsTime":1784757600},"SBUL":{"icaoId":"SBUL","flightCategory":"VFR","rawOb":"METAR SBUL 222200Z 01003KT 280V030 CAVOK 24/08 Q1019","temp":24,"dewp":8,"wdir":10,"wspd":3,"visib":"6+","altim":1019,"clouds":[],"obsTime":1784757600},"SBUR":{"icaoId":"SBUR","flightCategory":"VFR","rawOb":"METAR SBUR 222200Z 29003KT CAVOK 26/09 Q1017","temp":26,"dewp":9,"wdir":290,"wspd":3,"visib":"6+","altim":1017,"clouds":[],"obsTime":1784757600},"SBCP":{"icaoId":"SBCP","flightCategory":"VFR","rawOb":"METAR SBCP 222200Z 07010KT 9999 FEW030 24/21 Q1015","temp":24,"dewp":21,"wdir":70,"wspd":10,"visib":"6+","altim":1015,"clouds":[{"cover":"FEW","base":3000}],"obsTime":1784757600},"SBPL":{"icaoId":"SBPL","flightCategory":"VFR","rawOb":"METAR SBPL 222200Z 13008KT 9999 FEW030 28/17 Q1015","temp":28,"dewp":17,"wdir":130,"wspd":8,"visib":"6+","altim":1015,"clouds":[{"cover":"FEW","base":3000}],"obsTime":1784757600},"SBSM":{"icaoId":"SBSM","flightCategory":"MVFR","rawOb":"METAR SBSM 222200Z 22001KT 9999 FEW007 OVC018 16/16 Q1014","temp":16,"dewp":16,"wdir":220,"wspd":1,"visib":"6+","altim":1014,"clouds":[{"cover":"FEW","base":700},{"cover":"OVC","base":1800}],"obsTime":1784757600},"SBTU":{"icaoId":"SBTU","flightCategory":"VFR","rawOb":"METAR SBTU 222200Z AUTO 00000KT 9999 // NCD ///// Q1013","temp":null,"dewp":null,"wdir":0,"wspd":0,"visib":"6+","altim":1013,"clouds":[],"obsTime":1784757600},"SBUY":{"icaoId":"SBUY","flightCategory":"VFR","rawOb":"METAR SBUY 222200Z 15004KT 9999 FEW025 31/23 Q1008","temp":31,"dewp":23,"wdir":150,"wspd":4,"visib":"6+","altim":1008,"clouds":[{"cover":"FEW","base":2500}],"obsTime":1784757600},"SBSJ":{"icaoId":"SBSJ","flightCategory":"VFR","rawOb":"METAR SBSJ 222200Z 17005KT 120V190 CAVOK 18/14 Q1017","temp":18,"dewp":14,"wdir":170,"wspd":5,"visib":"6+","altim":1017,"clouds":[],"obsTime":1784757600},"SBOI":{"icaoId":"SBOI","flightCategory":"VFR","rawOb":"METAR SBOI 222200Z AUTO 09003KT 060V140 CAVOK 29/21 Q1011","temp":29,"dewp":21,"wdir":90,"wspd":3,"visib":"6+","altim":1011,"clouds":[],"obsTime":1784757600},"SBTT":{"icaoId":"SBTT","flightCategory":"VFR","rawOb":"METAR SBTT 222200Z 12002KT 9999 FEW025 FEW030TCU SCT090 28/23 Q1009","temp":28,"dewp":23,"wdir":120,"wspd":2,"visib":"6+","altim":1009,"clouds":[{"cover":"FEW","base":2500},{"cover":"FEW","base":3000},{"cover":"SCT","base":9000}],"obsTime":1784757600},"SBES":{"icaoId":"SBES","flightCategory":"VFR","rawOb":"METAR SBES 222200Z 23007KT 200V270 9000 FEW020 SCT100 22/// Q1015","temp":null,"dewp":null,"wdir":230,"wspd":7,"visib":5.59,"altim":1015,"clouds":[{"cover":"FEW","base":2000},{"cover":"SCT","base":10000}],"obsTime":1784757600},"SBAR":{"icaoId":"SBAR","flightCategory":"VFR","rawOb":"METAR SBAR 222200Z 11010KT 9999 FEW026 BKN045 26/22 Q1016","temp":26,"dewp":22,"wdir":110,"wspd":10,"visib":"6+","altim":1016,"clouds":[{"cover":"FEW","base":2600},{"cover":"BKN","base":4500}],"obsTime":1784757600},"SBPS":{"icaoId":"SBPS","flightCategory":"VFR","rawOb":"METAR SBPS 222200Z 31004KT 9999 SCT025 OVC070 23/20 Q1018","temp":23,"dewp":20,"wdir":310,"wspd":4,"visib":"6+","altim":1018,"clouds":[{"cover":"SCT","base":2500},{"cover":"OVC","base":7000}],"obsTime":1784757600},"SBCA":{"icaoId":"SBCA","flightCategory":"LIFR","rawOb":"METAR SBCA 222200Z 03010KT 2500 -DZ BR BKN002 BKN012 16/15 Q1016","temp":16,"dewp":15,"wdir":30,"wspd":10,"visib":1.55,"altim":1016,"clouds":[{"cover":"BKN","base":200},{"cover":"BKN","base":1200}],"obsTime":1784757600},"SBCO":{"icaoId":"SBCO","flightCategory":"IFR","rawOb":"METAR SBCO 222200Z 17007KT 4000 -RA BR BKN008 OVC017 17/16 Q1012","temp":17,"dewp":16,"wdir":170,"wspd":7,"visib":2.49,"altim":1012,"clouds":[{"cover":"BKN","base":800},{"cover":"OVC","base":1700}],"obsTime":1784757600},"SBVH":{"icaoId":"SBVH","flightCategory":"VFR","rawOb":"METAR SBVH 222200Z 05004KT 9999 FEW040 29/18 Q1014","temp":29,"dewp":18,"wdir":50,"wspd":4,"visib":"6+","altim":1014,"clouds":[{"cover":"FEW","base":4000}],"obsTime":1784757600},"SBKG":{"icaoId":"SBKG","flightCategory":"IFR","rawOb":"METAR SBKG 222200Z 11010KT 9999 -RA SCT005 BKN008 BKN070 21/21 Q1017","temp":21,"dewp":21,"wdir":110,"wspd":10,"visib":"6+","altim":1017,"clouds":[{"cover":"SCT","base":500},{"cover":"BKN","base":800},{"cover":"BKN","base":7000}],"obsTime":1784757600},"SBAX":{"icaoId":"SBAX","flightCategory":"VFR","rawOb":"METAR SBAX 222200Z AUTO 36003KT CAVOK 23/08 Q1018","temp":23,"dewp":8,"wdir":360,"wspd":3,"visib":"6+","altim":1018,"clouds":[],"obsTime":1784757600},"SBBH":{"icaoId":"SBBH","flightCategory":"VFR","rawOb":"METAR SBBH 222200Z 00000KT CAVOK 20/12 Q1018","temp":20,"dewp":12,"wdir":0,"wspd":0,"visib":"6+","altim":1018,"clouds":[],"obsTime":1784757600},"SBBU":{"icaoId":"SBBU","flightCategory":"VFR","rawOb":"METAR SBBU 222200Z 16012KT 120V230 CAVOK 23/17 Q1015","temp":23,"dewp":17,"wdir":160,"wspd":12,"visib":"6+","altim":1015,"clouds":[],"obsTime":1784757600},"SBDN":{"icaoId":"SBDN","flightCategory":"VFR","rawOb":"METAR SBDN 222200Z 14019KT 9999 FEW050TCU BKN080 18/13 Q1014","temp":18,"dewp":13,"wdir":140,"wspd":19,"visib":"6+","altim":1014,"clouds":[{"cover":"FEW","base":5000},{"cover":"BKN","base":8000}],"obsTime":1784757600},"SBIP":{"icaoId":"SBIP","flightCategory":"VFR","rawOb":"METAR SBIP 222200Z AUTO 00000KT CAVOK 20/17 Q1017","temp":20,"dewp":17,"wdir":0,"wspd":0,"visib":"6+","altim":1017,"clouds":[],"obsTime":1784757600},"SBSC":{"icaoId":"SBSC","flightCategory":"VFR","rawOb":"METAR SBSC 222200Z 19002KT CAVOK 19/18 Q1016","temp":19,"dewp":18,"wdir":190,"wspd":2,"visib":"6+","altim":1016,"clouds":[],"obsTime":1784757600},"SBSR":{"icaoId":"SBSR","flightCategory":"VFR","rawOb":"METAR SBSR 222200Z 00000KT CAVOK 27/10 Q1014","temp":27,"dewp":10,"wdir":0,"wspd":0,"visib":"6+","altim":1014,"clouds":[],"obsTime":1784757600},"SBTF":{"icaoId":"SBTF","flightCategory":"VFR","rawOb":"METAR SBTF 222200Z 13004KT 9999 FEW020 32/24 Q1008","temp":32,"dewp":24,"wdir":130,"wspd":4,"visib":"6+","altim":1008,"clouds":[{"cover":"FEW","base":2000}],"obsTime":1784757600},"SBCJ":{"icaoId":"SBCJ","flightCategory":"VFR","rawOb":"METAR SBCJ 222200Z 00000KT CAVOK 23/20 Q1015","temp":23,"dewp":20,"wdir":0,"wspd":0,"visib":"6+","altim":1015,"clouds":[],"obsTime":1784757600},"SBGM":{"icaoId":"SBGM","flightCategory":"VFR","rawOb":"METAR SBGM 222200Z 34003KT 9999 BKN041 BKN070 BKN100 32/12 Q1010","temp":32,"dewp":12,"wdir":340,"wspd":3,"visib":"6+","altim":1010,"clouds":[{"cover":"BKN","base":4100},{"cover":"BKN","base":7000},{"cover":"BKN","base":10000}],"obsTime":1784757600},"SBTA":{"icaoId":"SBTA","flightCategory":"VFR","rawOb":"METAR SBTA 222200Z 24003KT 210V300 CAVOK 19/14 Q1016","temp":19,"dewp":14,"wdir":240,"wspd":3,"visib":"6+","altim":1016,"clouds":[],"obsTime":1784757600},"SBJP":{"icaoId":"SBJP","flightCategory":"MVFR","rawOb":"METAR SBJP 222200Z 11002KT 8000 -RA SCT014 SCT025 BKN100 25/24 Q1015","temp":25,"dewp":24,"wdir":110,"wspd":2,"visib":4.97,"altim":1015,"clouds":[{"cover":"SCT","base":1400},{"cover":"SCT","base":2500},{"cover":"BKN","base":10000}],"obsTime":1784757600},"SBLE":{"icaoId":"SBLE","flightCategory":"VFR","rawOb":"METAR SBLE 222200Z AUTO 18003KT 140V210 9999 SCT042 ///// Q1019","temp":null,"dewp":null,"wdir":180,"wspd":3,"visib":"6+","altim":1019,"clouds":[{"cover":"SCT","base":4200}],"obsTime":1784757600},"SBJV":{"icaoId":"SBJV","flightCategory":"VFR","rawOb":"METAR SBJV 222200Z 17003KT 9999 SCT040 OVC100 20/15 Q1011","temp":20,"dewp":15,"wdir":170,"wspd":3,"visib":"6+","altim":1011,"clouds":[{"cover":"SCT","base":4000},{"cover":"OVC","base":10000}],"obsTime":1784757600},"SBNM":{"icaoId":"SBNM","flightCategory":"LIFR","rawOb":"METAR SBNM 222200Z AUTO 21007KT 9999 BKN004 BKN011 OVC014 16/16 Q1014","temp":16,"dewp":16,"wdir":210,"wspd":7,"visib":"6+","altim":1014,"clouds":[{"cover":"BKN","base":400},{"cover":"BKN","base":1100},{"cover":"OVC","base":1400}],"obsTime":1784757600},"SBAN":{"icaoId":"SBAN","flightCategory":"VFR","rawOb":"METAR SBAN 222200Z 30001KT CAVOK 19/09 Q1020","temp":19,"dewp":9,"wdir":300,"wspd":1,"visib":"6+","altim":1020,"clouds":[],"obsTime":1784757600},"SBAF":{"icaoId":"SBAF","flightCategory":"VFR","rawOb":"METAR SBAF 222200Z 20003KT 9000 FEW025 21/21 Q1015","temp":21,"dewp":21,"wdir":200,"wspd":3,"visib":5.59,"altim":1015,"clouds":[{"cover":"FEW","base":2500}],"obsTime":1784757600},"SBJR":{"icaoId":"SBJR","flightCategory":"VFR","rawOb":"METAR SBJR 222200Z 00000KT 9999 FEW018 20/18 Q1015","temp":20,"dewp":18,"wdir":0,"wspd":0,"visib":"6+","altim":1015,"clouds":[{"cover":"FEW","base":1800}],"obsTime":1784757600},"SBLS":{"icaoId":"SBLS","flightCategory":"VFR","rawOb":"METAR SBLS 222200Z 14006KT CAVOK 22/13 Q1018","temp":22,"dewp":13,"wdir":140,"wspd":6,"visib":"6+","altim":1018,"clouds":[],"obsTime":1784757600},"SBMT":{"icaoId":"SBMT","flightCategory":"VFR","rawOb":"METAR SBMT 222200Z 16006KT 110V190 CAVOK 18/12 Q1018","temp":18,"dewp":12,"wdir":160,"wspd":6,"visib":"6+","altim":1018,"clouds":[],"obsTime":1784757600},"SBPF":{"icaoId":"SBPF","flightCategory":"LIFR","rawOb":"METAR SBPF 222200Z 25008KT 9999 -RA BKN003 BKN070 16/16 Q1014","temp":16,"dewp":16,"wdir":250,"wspd":8,"visib":"6+","altim":1014,"clouds":[{"cover":"BKN","base":300},{"cover":"BKN","base":7000}],"obsTime":1784757600},"SBGW":{"icaoId":"SBGW","flightCategory":"VFR","rawOb":"METAR SBGW 222200Z 24003KT 180V300 CAVOK 19/14 Q1016","temp":19,"dewp":14,"wdir":240,"wspd":3,"visib":"6+","altim":1016,"clouds":[],"obsTime":1784757600}}}