{"updated":1773591479,"count":86,"data":{"SBMA":{"icaoId":"SBMA","flightCategory":"VFR","rawOb":"METAR SBMA 151500Z 22004KT 9999 SCT020 30/25 Q1013","temp":30,"dewp":25,"wdir":220,"wspd":4,"visib":"6+","altim":1013,"clouds":[{"cover":"SCT","base":2000}],"obsTime":1773586800},"SBBE":{"icaoId":"SBBE","flightCategory":"MVFR","rawOb":"METAR SBBE 151500Z 04007KT 9999 FEW022 BKN025 30/25 Q1011","temp":30,"dewp":25,"wdir":40,"wspd":7,"visib":"6+","altim":1011,"clouds":[{"cover":"FEW","base":2200},{"cover":"BKN","base":2500}],"obsTime":1773586800},"SBME":{"icaoId":"SBME","flightCategory":"VFR","rawOb":"METAR SBME 151500Z 12008KT 9999 FEW030 30/21 Q1011","temp":30,"dewp":21,"wdir":120,"wspd":8,"visib":"6+","altim":1011,"clouds":[{"cover":"FEW","base":3000}],"obsTime":1773586800},"SBFI":{"icaoId":"SBFI","flightCategory":"VFR","rawOb":"METAR SBFI 151500Z 36010G20KT 9999 FEW030 33/22 Q1009","temp":33,"dewp":22,"wdir":360,"wspd":10,"visib":"6+","altim":1009,"clouds":[{"cover":"FEW","base":3000}],"obsTime":1773586800},"SBMG":{"icaoId":"SBMG","flightCategory":"VFR","rawOb":"METAR SBMG 151500Z 34006KT 9999 SCT045 31/18 Q1012","temp":31,"dewp":18,"wdir":340,"wspd":6,"visib":"6+","altim":1012,"clouds":[{"cover":"SCT","base":4500}],"obsTime":1773586800},"SBCG":{"icaoId":"SBCG","flightCategory":"VFR","rawOb":"METAR SBCG 151500Z 32008KT 280V360 9999 SCT026 29/20 Q1013","temp":29,"dewp":20,"wdir":320,"wspd":8,"visib":"6+","altim":1013,"clouds":[{"cover":"SCT","base":2600}],"obsTime":1773586800},"SBMK":{"icaoId":"SBMK","flightCategory":"VFR","rawOb":"METAR SBMK 151500Z 07003KT 9999 SCT038 30/21 Q1013","temp":30,"dewp":21,"wdir":70,"wspd":3,"visib":"6+","altim":1013,"clouds":[{"cover":"SCT","base":3800}],"obsTime":1773586800},"SBFL":{"icaoId":"SBFL","flightCategory":"VFR","rawOb":"METAR SBFL 151500Z 34013G30KT 9999 FEW030 30/22 Q1008","temp":30,"dewp":22,"wdir":340,"wspd":13,"visib":"6+","altim":1008,"clouds":[{"cover":"FEW","base":3000}],"obsTime":1773586800},"SBMO":{"icaoId":"SBMO","flightCategory":"VFR","rawOb":"METAR SBMO 151500Z 07008KT 9999 SCT040 33/23 Q1011","temp":33,"dewp":23,"wdir":70,"wspd":8,"visib":"6+","altim":1011,"clouds":[{"cover":"SCT","base":4000}],"obsTime":1773586800},"SBFZ":{"icaoId":"SBFZ","flightCategory":"VFR","rawOb":"METAR SBFZ 151500Z 02006KT 9999 VCSH FEW025TCU BKN060 30/24 Q1011","temp":30,"dewp":24,"wdir":20,"wspd":6,"visib":"6+","altim":1011,"clouds":[{"cover":"FEW","base":2500},{"cover":"BKN","base":6000}],"obsTime":1773586800},"SBCF":{"icaoId":"SBCF","flightCategory":"MVFR","rawOb":"METAR SBCF 151500Z 21003KT 9999 BKN025 27/20 Q1016","temp":27,"dewp":20,"wdir":210,"wspd":3,"visib":"6+","altim":1016,"clouds":[{"cover":"BKN","base":2500}],"obsTime":1773586800},"SBLO":{"icaoId":"SBLO","flightCategory":"VFR","rawOb":"METAR SBLO 151500Z 36006KT 9999 SCT035 31/18 Q1013","temp":31,"dewp":18,"wdir":360,"wspd":6,"visib":"6+","altim":1013,"clouds":[{"cover":"SCT","base":3500}],"obsTime":1773586800},"SBEG":{"icaoId":"SBEG","flightCategory":"VFR","rawOb":"METAR SBEG 151500Z 05006KT 9999 SCT020 32/24 Q1011","temp":32,"dewp":24,"wdir":50,"wspd":6,"visib":"6+","altim":1011,"clouds":[{"cover":"SCT","base":2000}],"obsTime":1773586800},"SBMQ":{"icaoId":"SBMQ","flightCategory":"VFR","rawOb":"METAR SBMQ 151500Z 04009KT 9999 SCT020 FEW023TCU 29/25 Q1012","temp":29,"dewp":25,"wdir":40,"wspd":9,"visib":"6+","altim":1012,"clouds":[{"cover":"SCT","base":2000},{"cover":"FEW","base":2300}],"obsTime":1773586800},"SBBV":{"icaoId":"SBBV","flightCategory":"VFR","rawOb":"METAR SBBV 151500Z 09016KT 9999 BKN035 BKN090 31/21 Q1012","temp":31,"dewp":21,"wdir":90,"wspd":16,"visib":"6+","altim":1012,"clouds":[{"cover":"BKN","base":3500},{"cover":"BKN","base":9000}],"obsTime":1773586800},"SBNT":{"icaoId":"SBNT","flightCategory":"VFR","rawOb":"METAR SBNT 151500Z 08008KT 030V150 9999 SCT030 31/24 Q1011","temp":31,"dewp":24,"wdir":80,"wspd":8,"visib":"6+","altim":1011,"clouds":[{"cover":"SCT","base":3000}],"obsTime":1773586800},"SBPA":{"icaoId":"SBPA","flightCategory":"VFR","rawOb":"METAR SBPA 151500Z VRB02KT CAVOK 29/20 Q1008","temp":29,"dewp":20,"wdir":"VRB","wspd":2,"visib":"6+","altim":1008,"clouds":[],"obsTime":1773586800},"SBCP":{"icaoId":"SBCP","flightCategory":"VFR","rawOb":"METAR SBCP 151500Z 36003KT CAVOK 30/21 Q1011","temp":30,"dewp":21,"wdir":360,"wspd":3,"visib":"6+","altim":1011,"clouds":[],"obsTime":1773586800},"SBGL":{"icaoId":"SBGL","flightCategory":"VFR","rawOb":"METAR SBGL 151500Z VRB04KT 9999 FEW020 30/22 Q1010","temp":30,"dewp":22,"wdir":"VRB","wspd":4,"visib":"6+","altim":1010,"clouds":[{"cover":"FEW","base":2000}],"obsTime":1773586800},"SBPJ":{"icaoId":"SBPJ","flightCategory":"VFR","rawOb":"METAR SBPJ 151500Z 33007KT 9999 FEW030 SCT100 27/24 Q1013","temp":27,"dewp":24,"wdir":330,"wspd":7,"visib":"6+","altim":1013,"clouds":[{"cover":"FEW","base":3000},{"cover":"SCT","base":10000}],"obsTime":1773586800},"SBCR":{"icaoId":"SBCR","flightCategory":"MVFR","rawOb":"METAR SBCR 151500Z 36006KT 320V030 9999 BKN025 32/25 Q1009","temp":32,"dewp":25,"wdir":360,"wspd":6,"visib":"6+","altim":1009,"clouds":[{"cover":"BKN","base":2500}],"obsTime":1773586800},"SBPV":{"icaoId":"SBPV","flightCategory":"VFR","rawOb":"METAR SBPV 151500Z 02004KT 9999 FEW012 30/23 Q1011","temp":30,"dewp":23,"wdir":20,"wspd":4,"visib":"6+","altim":1011,"clouds":[{"cover":"FEW","base":1200}],"obsTime":1773586800},"SBRB":{"icaoId":"SBRB","flightCategory":"MVFR","rawOb":"METAR SBRB 151500Z 33005KT 8000 SCT025 BKN083 28/25 Q1012","temp":28,"dewp":25,"wdir":330,"wspd":5,"visib":4.97,"altim":1012,"clouds":[{"cover":"SCT","base":2500},{"cover":"BKN","base":8300}],"obsTime":1773586800},"SBGO":{"icaoId":"SBGO","flightCategory":"VFR","rawOb":"METAR SBGO 151500Z 32006KT 270V010 9999 SCT036 FEW045TCU BKN090 29/20 Q1015","temp":29,"dewp":20,"wdir":320,"wspd":6,"visib":"6+","altim":1015,"clouds":[{"cover":"SCT","base":3600},{"cover":"FEW","base":4500},{"cover":"BKN","base":9000}],"obsTime":1773586800},"SBAT":{"icaoId":"SBAT","flightCategory":"VFR","rawOb":"METAR SBAT 151500Z 08004KT 9999 SCT025 33/25 Q1012","temp":33,"dewp":25,"wdir":80,"wspd":4,"visib":"6+","altim":1012,"clouds":[{"cover":"SCT","base":2500}],"obsTime":1773586800},"SBRF":{"icaoId":"SBRF","flightCategory":"VFR","rawOb":"METAR SBRF 151500Z 10008KT 050V140 9999 SCT020 31/24 Q1011","temp":31,"dewp":24,"wdir":100,"wspd":8,"visib":"6+","altim":1011,"clouds":[{"cover":"SCT","base":2000}],"obsTime":1773586800},"SBGR":{"icaoId":"SBGR","flightCategory":"VFR","rawOb":"METAR SBGR 151500Z 25003KT 9999 SCT040 29/19 Q1015","temp":29,"dewp":19,"wdir":250,"wspd":3,"visib":"6+","altim":1015,"clouds":[{"cover":"SCT","base":4000}],"obsTime":1773586800},"SBSG":{"icaoId":"SBSG","flightCategory":"VFR","rawOb":"METAR SBSG 151500Z 07009KT 9999 SCT030 31/22 Q1011","temp":31,"dewp":22,"wdir":70,"wspd":9,"visib":"6+","altim":1011,"clouds":[{"cover":"SCT","base":3000}],"obsTime":1773586800},"SBSL":{"icaoId":"SBSL","flightCategory":"MVFR","rawOb":"METAR SBSL 151500Z 01011KT 9999 VCSH BKN023 FEW026TCU BKN080 29/26 Q1011","temp":29,"dewp":26,"wdir":10,"wspd":11,"visib":"6+","altim":1011,"clouds":[{"cover":"BKN","base":2300},{"cover":"FEW","base":2600},{"cover":"BKN","base":8000}],"obsTime":1773586800},"SBCT":{"icaoId":"SBCT","flightCategory":"VFR","rawOb":"METAR SBCT 151500Z 27010KT 9999 FEW040 29/16 Q1015","temp":29,"dewp":16,"wdir":270,"wspd":10,"visib":"6+","altim":1015,"clouds":[{"cover":"FEW","base":4000}],"obsTime":1773586800},"SBHT":{"icaoId":"SBHT","flightCategory":"MVFR","rawOb":"METAR SBHT 151500Z 11006KT 9999 BKN020 30/23 Q1013","temp":30,"dewp":23,"wdir":110,"wspd":6,"visib":"6+","altim":1013,"clouds":[{"cover":"BKN","base":2000}],"obsTime":1773586800},"SBSN":{"icaoId":"SBSN","flightCategory":"VFR","rawOb":"METAR SBSN 151500Z 08009KT 9999 SCT020 BKN100 29/24 Q1012","temp":29,"dewp":24,"wdir":80,"wspd":9,"visib":"6+","altim":1012,"clouds":[{"cover":"SCT","base":2000},{"cover":"BKN","base":10000}],"obsTime":1773586800},"SBCB":{"icaoId":"SBCB","flightCategory":"VFR","rawOb":"METAR SBCB 151500Z 09009KT CAVOK 28/21 Q1011","temp":28,"dewp":21,"wdir":90,"wspd":9,"visib":"6+","altim":1011,"clouds":[],"obsTime":1773586800},"SBSP":{"icaoId":"SBSP","flightCategory":"VFR","rawOb":"METAR SBSP 151500Z 32007KT 210V010 9999 SCT046 29/17 Q1015","temp":29,"dewp":17,"wdir":320,"wspd":7,"visib":"6+","altim":1015,"clouds":[{"cover":"SCT","base":4600}],"obsTime":1773586800},"SBIL":{"icaoId":"SBIL","flightCategory":"VFR","rawOb":"METAR SBIL 151500Z 07010KT 9999 SCT025 BKN070 31/26 Q1011","temp":31,"dewp":26,"wdir":70,"wspd":10,"visib":"6+","altim":1011,"clouds":[{"cover":"SCT","base":2500},{"cover":"BKN","base":7000}],"obsTime":1773586800},"SBSV":{"icaoId":"SBSV","flightCategory":"VFR","rawOb":"METAR SBSV 151500Z 07012KT 9999 FEW023 30/23 Q1011","temp":30,"dewp":23,"wdir":70,"wspd":12,"visib":"6+","altim":1011,"clouds":[{"cover":"FEW","base":2300}],"obsTime":1773586800},"SBCZ":{"icaoId":"SBCZ","flightCategory":"IFR","rawOb":"METAR SBCZ 151500Z 33004KT 9999 BKN006 OVC090 23/23 Q1013","temp":23,"dewp":23,"wdir":330,"wspd":4,"visib":"6+","altim":1013,"clouds":[{"cover":"BKN","base":600},{"cover":"OVC","base":9000}],"obsTime":1773586800},"SBTE":{"icaoId":"SBTE","flightCategory":"MVFR","rawOb":"METAR SBTE 151500Z 31004KT 9999 BKN025 SCT080 29/25 Q1011","temp":29,"dewp":25,"wdir":310,"wspd":4,"visib":"6+","altim":1011,"clouds":[{"cover":"BKN","base":2500},{"cover":"SCT","base":8000}],"obsTime":1773586800},"SBJU":{"icaoId":"SBJU","flightCategory":"MVFR","rawOb":"METAR SBJU 151500Z 09006KT 9999 BKN022 30/23 Q1013","temp":30,"dewp":23,"wdir":90,"wspd":6,"visib":"6+","altim":1013,"clouds":[{"cover":"BKN","base":2200}],"obsTime":1773586800},"SBUL":{"icaoId":"SBUL","flightCategory":"VFR","rawOb":"METAR SBUL 151500Z 27004KT 9999 SCT025 FEW040TCU 27/21 Q1016","temp":27,"dewp":21,"wdir":270,"wspd":4,"visib":"6+","altim":1016,"clouds":[{"cover":"SCT","base":2500},{"cover":"FEW","base":4000}],"obsTime":1773586800},"SBKP":{"icaoId":"SBKP","flightCategory":"VFR","rawOb":"METAR SBKP 151500Z 26005KT 9999 SCT030 30/18 Q1014","temp":30,"dewp":18,"wdir":260,"wspd":5,"visib":"6+","altim":1014,"clouds":[{"cover":"SCT","base":3000}],"obsTime":1773586800},"SBUR":{"icaoId":"SBUR","flightCategory":"VFR","rawOb":"METAR SBUR 151500Z 31004KT 9999 BKN038 28/18 Q1016","temp":28,"dewp":18,"wdir":310,"wspd":4,"visib":"6+","altim":1016,"clouds":[{"cover":"BKN","base":3800}],"obsTime":1773586800},"SBBR":{"icaoId":"SBBR","flightCategory":"VFR","rawOb":"METAR SBBR 151500Z 27006KT 210V320 9999 VCSH SCT030 FEW040TCU BKN070 28/17 Q1017","temp":28,"dewp":17,"wdir":270,"wspd":6,"visib":"6+","altim":1017,"clouds":[{"cover":"SCT","base":3000},{"cover":"FEW","base":4000},{"cover":"BKN","base":7000}],"obsTime":1773586800},"SBVT":{"icaoId":"SBVT","flightCategory":"VFR","rawOb":"METAR SBVT 151500Z 15010KT 9999 FEW040 27/23 Q1011","temp":27,"dewp":23,"wdir":150,"wspd":10,"visib":"6+","altim":1011,"clouds":[{"cover":"FEW","base":4000}],"obsTime":1773586800},"SBCC":{"icaoId":"SBCC","flightCategory":"MVFR","rawOb":"METAR SBCC 151500Z 35004KT 9999 BKN025 29/21 Q1014","temp":29,"dewp":21,"wdir":350,"wspd":4,"visib":"6+","altim":1014,"clouds":[{"cover":"BKN","base":2500}],"obsTime":1773586800},"SBAR":{"icaoId":"SBAR","flightCategory":"VFR","rawOb":"METAR SBAR 151500Z 09011KT 9999 FEW020 32/22 Q1011","temp":32,"dewp":22,"wdir":90,"wspd":11,"visib":"6+","altim":1011,"clouds":[{"cover":"FEW","base":2000}],"obsTime":1773586800},"SBAU":{"icaoId":"SBAU","flightCategory":"VFR","rawOb":"METAR SBAU 151600Z 09006KT 9999 FEW030 33/19 Q1011","temp":33,"dewp":19,"wdir":90,"wspd":6,"visib":"6+","altim":1011,"clouds":[{"cover":"FEW","base":3000}],"obsTime":1773590400},"SBAX":{"icaoId":"SBAX","flightCategory":"VFR","rawOb":"METAR SBAX 151500Z AUTO VRB02KT 9999 SCT048 27/18 Q1016","temp":27,"dewp":18,"wdir":"VRB","wspd":2,"visib":"6+","altim":1016,"clouds":[{"cover":"SCT","base":4800}],"obsTime":1773586800},"SBSC":{"icaoId":"SBSC","flightCategory":"VFR","rawOb":"METAR SBSC 151500Z 03008KT CAVOK 31/22 Q1010","temp":31,"dewp":22,"wdir":30,"wspd":8,"visib":"6+","altim":1010,"clouds":[],"obsTime":1773586800},"SBBH":{"icaoId":"SBBH","flightCategory":"VFR","rawOb":"METAR SBBH 151500Z 03003KT 9999 SCT030 28/19 Q1015","temp":28,"dewp":19,"wdir":30,"wspd":3,"visib":"6+","altim":1015,"clouds":[{"cover":"SCT","base":3000}],"obsTime":1773586800},"SBBQ":{"icaoId":"SBBQ","flightCategory":"MVFR","rawOb":"METAR SBBQ 151500Z 31004KT 210V020 9999 BKN030 26/15 Q1019","temp":26,"dewp":15,"wdir":310,"wspd":4,"visib":"6+","altim":1019,"clouds":[{"cover":"BKN","base":3000}],"obsTime":1773586800},"SBBU":{"icaoId":"SBBU","flightCategory":"VFR","rawOb":"METAR SBBU 151500Z 34007KT 9999 FEW035 31/19 Q1014","temp":31,"dewp":19,"wdir":340,"wspd":7,"visib":"6+","altim":1014,"clouds":[{"cover":"FEW","base":3500}],"obsTime":1773586800},"SBCA":{"icaoId":"SBCA","flightCategory":"VFR","rawOb":"METAR SBCA 151500Z 36011G21KT 9999 SCT020 29/19 Q1014","temp":29,"dewp":19,"wdir":360,"wspd":11,"visib":"6+","altim":1014,"clouds":[{"cover":"SCT","base":2000}],"obsTime":1773586800},"SBCJ":{"icaoId":"SBCJ","flightCategory":"MVFR","rawOb":"METAR SBCJ 151500Z 06003KT 9999 BKN021 26/21 Q1017","temp":26,"dewp":21,"wdir":60,"wspd":3,"visib":"6+","altim":1017,"clouds":[{"cover":"BKN","base":2100}],"obsTime":1773586800},"SBCO":{"icaoId":"SBCO","flightCategory":"VFR","rawOb":"METAR SBCO 151500Z VRB03KT 9999 FEW030 29/19 Q1009","temp":29,"dewp":19,"wdir":"VRB","wspd":3,"visib":"6+","altim":1009,"clouds":[{"cover":"FEW","base":3000}],"obsTime":1773586800},"SBDN":{"icaoId":"SBDN","flightCategory":"VFR","rawOb":"METAR SBDN 151500Z 36006KT 9999 SCT040 32/20 Q1012","temp":32,"dewp":20,"wdir":360,"wspd":6,"visib":"6+","altim":1012,"clouds":[{"cover":"SCT","base":4000}],"obsTime":1773586800},"SBES":{"icaoId":"SBES","flightCategory":"VFR","rawOb":"METAR SBES 151500Z 07008KT 010V110 9999 FEW022 29/// Q1011","temp":null,"dewp":null,"wdir":70,"wspd":8,"visib":"6+","altim":1011,"clouds":[{"cover":"FEW","base":2200}],"obsTime":1773586800},"SBGM":{"icaoId":"SBGM","flightCategory":"VFR","rawOb":"METAR SBGM 151500Z 27006KT 240V320 9999 SCT016 31/20 Q1011","temp":31,"dewp":20,"wdir":270,"wspd":6,"visib":"6+","altim":1011,"clouds":[{"cover":"SCT","base":1600}],"obsTime":1773586800},"SBIP":{"icaoId":"SBIP","flightCategory":"VFR","rawOb":"METAR SBIP 151500Z AUTO 00000KT 9999 FEW024 SCT045 29/23 Q1012","temp":29,"dewp":23,"wdir":0,"wspd":0,"visib":"6+","altim":1012,"clouds":[{"cover":"FEW","base":2400},{"cover":"SCT","base":4500}],"obsTime":1773586800},"SBKG":{"icaoId":"SBKG","flightCategory":"MVFR","rawOb":"METAR SBKG 151500Z 08007KT 9999 BKN030 29/21 Q1013","temp":29,"dewp":21,"wdir":80,"wspd":7,"visib":"6+","altim":1013,"clouds":[{"cover":"BKN","base":3000}],"obsTime":1773586800},"SBOI":{"icaoId":"SBOI","flightCategory":"VFR","rawOb":"METAR SBOI 151500Z AUTO 04009G21KT 360V090 9999 FEW017 30/25 Q1012","temp":30,"dewp":25,"wdir":40,"wspd":9,"visib":"6+","altim":1012,"clouds":[{"cover":"FEW","base":1700}],"obsTime":1773586800},"SBPB":{"icaoId":"SBPB","flightCategory":"VFR","rawOb":"METAR SBPB 151500Z 03009KT 9999 SCT020 FEW025TCU 31/25 Q1011","temp":31,"dewp":25,"wdir":30,"wspd":9,"visib":"6+","altim":1011,"clouds":[{"cover":"SCT","base":2000},{"cover":"FEW","base":2500}],"obsTime":1773586800},"SBPL":{"icaoId":"SBPL","flightCategory":"VFR","rawOb":"METAR SBPL 151500Z 01003KT 9999 SCT030 33/23 Q1012","temp":33,"dewp":23,"wdir":10,"wspd":3,"visib":"6+","altim":1012,"clouds":[{"cover":"SCT","base":3000}],"obsTime":1773586800},"SBPP":{"icaoId":"SBPP","flightCategory":"VFR","rawOb":"METAR SBPP 151500Z 34006KT 9999 SCT020 30/20 Q1013","temp":30,"dewp":20,"wdir":340,"wspd":6,"visib":"6+","altim":1013,"clouds":[{"cover":"SCT","base":2000}],"obsTime":1773586800},"SBPS":{"icaoId":"SBPS","flightCategory":"VFR","rawOb":"METAR SBPS 151500Z 33003KT 9999 SCT020 26/24 Q1011","temp":26,"dewp":24,"wdir":330,"wspd":3,"visib":"6+","altim":1011,"clouds":[{"cover":"SCT","base":2000}],"obsTime":1773586800},"SBSJ":{"icaoId":"SBSJ","flightCategory":"VFR","rawOb":"METAR SBSJ 151500Z 35003KT 9999 FEW025 27/19 Q1015","temp":27,"dewp":19,"wdir":350,"wspd":3,"visib":"6+","altim":1015,"clouds":[{"cover":"FEW","base":2500}],"obsTime":1773586800},"SBSM":{"icaoId":"SBSM","flightCategory":"VFR","rawOb":"METAR SBSM 151500Z 09005KT 050V180 CAVOK 29/20 Q1009","temp":29,"dewp":20,"wdir":90,"wspd":5,"visib":"6+","altim":1009,"clouds":[],"obsTime":1773586800},"SBSR":{"icaoId":"SBSR","flightCategory":"VFR","rawOb":"METAR SBSR 151500Z 01006KT 9999 FEW025 31/19 Q1014","temp":31,"dewp":19,"wdir":10,"wspd":6,"visib":"6+","altim":1014,"clouds":[{"cover":"FEW","base":2500}],"obsTime":1773586800},"SBTF":{"icaoId":"SBTF","flightCategory":"VFR","rawOb":"METAR SBTF 151500Z 09005KT 9999 SCT015 32/27 Q1011","temp":32,"dewp":27,"wdir":90,"wspd":5,"visib":"6+","altim":1011,"clouds":[{"cover":"SCT","base":1500}],"obsTime":1773586800},"SBTT":{"icaoId":"SBTT","flightCategory":"VFR","rawOb":"METAR SBTT 151500Z VRB03KT 9999 SCT010 BKN100 26/22 Q1013","temp":26,"dewp":22,"wdir":"VRB","wspd":3,"visib":"6+","altim":1013,"clouds":[{"cover":"SCT","base":1000},{"cover":"BKN","base":10000}],"obsTime":1773586800},"SBUY":{"icaoId":"SBUY","flightCategory":"VFR","rawOb":"METAR SBUY 151500Z 35002KT 9999 FEW020 BKN100 32/25 Q1010","temp":32,"dewp":25,"wdir":350,"wspd":2,"visib":"6+","altim":1010,"clouds":[{"cover":"FEW","base":2000},{"cover":"BKN","base":10000}],"obsTime":1773586800},"SBVH":{"icaoId":"SBVH","flightCategory":"VFR","rawOb":"METAR SBVH 151500Z 35008KT 9999 FEW015 SCT080 26/22 Q1014","temp":26,"dewp":22,"wdir":350,"wspd":8,"visib":"6+","altim":1014,"clouds":[{"cover":"FEW","base":1500},{"cover":"SCT","base":8000}],"obsTime":1773586800},"SBIH":{"icaoId":"SBIH","flightCategory":"VFR","rawOb":"METAR SBIH 151500Z 03007KT 9999 SCT012 FEW023TCU BKN080 27/25 Q1013","temp":27,"dewp":25,"wdir":30,"wspd":7,"visib":"6+","altim":1013,"clouds":[{"cover":"SCT","base":1200},{"cover":"FEW","base":2300},{"cover":"BKN","base":8000}],"obsTime":1773586800},"SBLE":{"icaoId":"SBLE","flightCategory":"VFR","rawOb":"METAR SBLE 151500Z AUTO VRB04KT 9999 FEW032 31/22 Q1013","temp":31,"dewp":22,"wdir":"VRB","wspd":4,"visib":"6+","altim":1013,"clouds":[{"cover":"FEW","base":3200}],"obsTime":1773586800},"SBAF":{"icaoId":"SBAF","flightCategory":"VFR","rawOb":"METAR SBAF 151500Z 04004KT 350V140 CAVOK 31/21 Q1011","temp":31,"dewp":21,"wdir":40,"wspd":4,"visib":"6+","altim":1011,"clouds":[],"obsTime":1773586800},"SBLS":{"icaoId":"SBLS","flightCategory":"MVFR","rawOb":"METAR SBLS 151500Z VRB02KT 9999 BKN027 28/21 Q1015","temp":28,"dewp":21,"wdir":"VRB","wspd":2,"visib":"6+","altim":1015,"clouds":[{"cover":"BKN","base":2700}],"obsTime":1773586800},"SBJP":{"icaoId":"SBJP","flightCategory":"MVFR","rawOb":"METAR SBJP 151500Z 06008KT 010V100 9999 BKN030 30/23 Q1011","temp":30,"dewp":23,"wdir":60,"wspd":8,"visib":"6+","altim":1011,"clouds":[{"cover":"BKN","base":3000}],"obsTime":1773586800},"SBMT":{"icaoId":"SBMT","flightCategory":"VFR","rawOb":"METAR SBMT 151500Z 27007KT 230V310 CAVOK 28/17 Q1014","temp":28,"dewp":17,"wdir":270,"wspd":7,"visib":"6+","altim":1014,"clouds":[],"obsTime":1773586800},"SBGW":{"icaoId":"SBGW","flightCategory":"VFR","rawOb":"METAR SBGW 151500Z 30002KT 9999 FEW025 28/16 Q1013","temp":28,"dewp":16,"wdir":300,"wspd":2,"visib":"6+","altim":1013,"clouds":[{"cover":"FEW","base":2500}],"obsTime":1773586800},"SBNM":{"icaoId":"SBNM","flightCategory":"VFR","rawOb":"METAR SBNM 151500Z 36006KT CAVOK 32/19 Q1010","temp":32,"dewp":19,"wdir":360,"wspd":6,"visib":"6+","altim":1010,"clouds":[],"obsTime":1773586800},"SBJR":{"icaoId":"SBJR","flightCategory":"VFR","rawOb":"METAR SBJR 151500Z 17006KT CAVOK 32/22 Q1010","temp":32,"dewp":22,"wdir":170,"wspd":6,"visib":"6+","altim":1010,"clouds":[],"obsTime":1773586800},"SBST":{"icaoId":"SBST","flightCategory":"VFR","rawOb":"METAR SBST 151500Z 17007KT 9999 FEW020 30/22 Q1010","temp":30,"dewp":22,"wdir":170,"wspd":7,"visib":"6+","altim":1010,"clouds":[{"cover":"FEW","base":2000}],"obsTime":1773586800},"SBAN":{"icaoId":"SBAN","flightCategory":"MVFR","rawOb":"METAR SBAN 151500Z 31004KT 9999 BKN030 FEW035TCU 27/18 Q1018","temp":27,"dewp":18,"wdir":310,"wspd":4,"visib":"6+","altim":1018,"clouds":[{"cover":"BKN","base":3000},{"cover":"FEW","base":3500}],"obsTime":1773586800},"SBTA":{"icaoId":"SBTA","flightCategory":"VFR","rawOb":"METAR SBTA 151500Z VRB02KT 9999 FEW020 27/20 Q1013","temp":27,"dewp":20,"wdir":"VRB","wspd":2,"visib":"6+","altim":1013,"clouds":[{"cover":"FEW","base":2000}],"obsTime":1773586800},"SBJV":{"icaoId":"SBJV","flightCategory":"VFR","rawOb":"METAR SBJV 151500Z 33003KT 9999 SCT035 31/24 Q1010","temp":31,"dewp":24,"wdir":330,"wspd":3,"visib":"6+","altim":1010,"clouds":[{"cover":"SCT","base":3500}],"obsTime":1773586800},"SBTC":{"icaoId":"SBTC","flightCategory":"VFR","rawOb":"METAR SBTC 151500Z 06008KT 9999 VCSH SCT025 BKN070 28/24 Q1011","temp":28,"dewp":24,"wdir":60,"wspd":8,"visib":"6+","altim":1011,"clouds":[{"cover":"SCT","base":2500},{"cover":"BKN","base":7000}],"obsTime":1773586800}}}