{"updated":1777116575,"count":82,"data":{"SBRB":{"icaoId":"SBRB","flightCategory":"LIFR","rawOb":"METAR SBRB 251000Z 06003KT 0900 R07///// R25///// FG BKN003 22/21 Q1011","temp":22,"dewp":21,"wdir":60,"wspd":3,"visib":0.56,"altim":1011,"clouds":[{"cover":"BKN","base":300}],"obsTime":1777111200},"SBFL":{"icaoId":"SBFL","flightCategory":"VFR","rawOb":"METAR SBFL 251000Z 36003KT 9999 FEW030 BKN100 22/21 Q1011","temp":22,"dewp":21,"wdir":360,"wspd":3,"visib":"6+","altim":1011,"clouds":[{"cover":"FEW","base":3000},{"cover":"BKN","base":10000}],"obsTime":1777111200},"SBMG":{"icaoId":"SBMG","flightCategory":"VFR","rawOb":"METAR SBMG 251000Z 03005KT CAVOK 20/17 Q1014","temp":20,"dewp":17,"wdir":30,"wspd":5,"visib":"6+","altim":1014,"clouds":[],"obsTime":1777111200},"SBBR":{"icaoId":"SBBR","flightCategory":"VFR","rawOb":"METAR SBBR 251000Z 21003KT CAVOK 17/15 Q1020","temp":17,"dewp":15,"wdir":210,"wspd":3,"visib":"6+","altim":1020,"clouds":[],"obsTime":1777111200},"SBMK":{"icaoId":"SBMK","flightCategory":"VFR","rawOb":"METAR SBMK 251000Z 00000KT CAVOK 20/17 Q1018","temp":20,"dewp":17,"wdir":0,"wspd":0,"visib":"6+","altim":1018,"clouds":[],"obsTime":1777111200},"SBMO":{"icaoId":"SBMO","flightCategory":"MVFR","rawOb":"METAR SBMO 251000Z 32003KT 9999 VCSH BKN015 FEW020TCU 24/24 Q1013","temp":24,"dewp":24,"wdir":320,"wspd":3,"visib":"6+","altim":1013,"clouds":[{"cover":"BKN","base":1500},{"cover":"FEW","base":2000}],"obsTime":1777111200},"SBFZ":{"icaoId":"SBFZ","flightCategory":"VFR","rawOb":"METAR SBFZ 251000Z 19005KT 9999 FEW030 BKN100 26/24 Q1011","temp":26,"dewp":24,"wdir":190,"wspd":5,"visib":"6+","altim":1011,"clouds":[{"cover":"FEW","base":3000},{"cover":"BKN","base":10000}],"obsTime":1777111200},"SBCG":{"icaoId":"SBCG","flightCategory":"VFR","rawOb":"METAR SBCG 251000Z 06005KT CAVOK 19/17 Q1015","temp":19,"dewp":17,"wdir":60,"wspd":5,"visib":"6+","altim":1015,"clouds":[],"obsTime":1777111200},"SBMQ":{"icaoId":"SBMQ","flightCategory":"VFR","rawOb":"METAR SBMQ 251000Z 36004KT 9999 SCT002 SCT021 25/25 Q1011","temp":25,"dewp":25,"wdir":360,"wspd":4,"visib":"6+","altim":1011,"clouds":[{"cover":"SCT","base":200},{"cover":"SCT","base":2100}],"obsTime":1777111200},"SBCB":{"icaoId":"SBCB","flightCategory":"VFR","rawOb":"METAR SBCB 251000Z 05010KT 9999 SCT040 24/21 Q1014","temp":24,"dewp":21,"wdir":50,"wspd":10,"visib":"6+","altim":1014,"clouds":[{"cover":"SCT","base":4000}],"obsTime":1777111200},"SBNT":{"icaoId":"SBNT","flightCategory":"VFR","rawOb":"METAR SBNT 251000Z 18007KT 9999 SCT021 FEW027TCU BKN100 25/23 Q1011","temp":25,"dewp":23,"wdir":180,"wspd":7,"visib":"6+","altim":1011,"clouds":[{"cover":"SCT","base":2100},{"cover":"FEW","base":2700},{"cover":"BKN","base":10000}],"obsTime":1777111200},"SBPA":{"icaoId":"SBPA","flightCategory":"IFR","rawOb":"METAR SBPA 251000Z 26006KT 7000 BKN007 OVC015 20/20 Q1012","temp":20,"dewp":20,"wdir":260,"wspd":6,"visib":4.35,"altim":1012,"clouds":[{"cover":"BKN","base":700},{"cover":"OVC","base":1500}],"obsTime":1777111200},"SBGL":{"icaoId":"SBGL","flightCategory":"VFR","rawOb":"METAR SBGL 251000Z 09003KT 9999 FEW008 SCT100 22/21 Q1013","temp":22,"dewp":21,"wdir":90,"wspd":3,"visib":"6+","altim":1013,"clouds":[{"cover":"FEW","base":800},{"cover":"SCT","base":10000}],"obsTime":1777111200},"SBCP":{"icaoId":"SBCP","flightCategory":"VFR","rawOb":"METAR SBCP 251000Z 04001KT CAVOK 22/21 Q1015","temp":22,"dewp":21,"wdir":40,"wspd":1,"visib":"6+","altim":1015,"clouds":[],"obsTime":1777111200},"SBPJ":{"icaoId":"SBPJ","flightCategory":"VFR","rawOb":"METAR SBPJ 251000Z 11004KT 9999 FEW025 24/23 Q1013","temp":24,"dewp":23,"wdir":110,"wspd":4,"visib":"6+","altim":1013,"clouds":[{"cover":"FEW","base":2500}],"obsTime":1777111200},"SBGO":{"icaoId":"SBGO","flightCategory":"VFR","rawOb":"METAR SBGO 251000Z 13002KT CAVOK 19/16 Q1018","temp":19,"dewp":16,"wdir":130,"wspd":2,"visib":"6+","altim":1018,"clouds":[],"obsTime":1777111200},"SBPV":{"icaoId":"SBPV","flightCategory":"VFR","rawOb":"METAR SBPV 251000Z VRB01KT 9999 SCT005 24/23 Q1011","temp":24,"dewp":23,"wdir":"VRB","wspd":1,"visib":"6+","altim":1011,"clouds":[{"cover":"SCT","base":500}],"obsTime":1777111200},"SBGR":{"icaoId":"SBGR","flightCategory":"VFR","rawOb":"METAR SBGR 251000Z 08003KT CAVOK 17/16 Q1017","temp":17,"dewp":16,"wdir":80,"wspd":3,"visib":"6+","altim":1017,"clouds":[],"obsTime":1777111200},"SBBV":{"icaoId":"SBBV","flightCategory":"VFR","rawOb":"METAR SBBV 251000Z 35002KT 9999 FEW040 FEW045TCU 24/24 Q1011","temp":24,"dewp":24,"wdir":350,"wspd":2,"visib":"6+","altim":1011,"clouds":[{"cover":"FEW","base":4000},{"cover":"FEW","base":4500}],"obsTime":1777111200},"SBME":{"icaoId":"SBME","flightCategory":"VFR","rawOb":"METAR SBME 251000Z 02004KT 9999 FEW025 BKN100 23/19 Q1014","temp":23,"dewp":19,"wdir":20,"wspd":4,"visib":"6+","altim":1014,"clouds":[{"cover":"FEW","base":2500},{"cover":"BKN","base":10000}],"obsTime":1777111200},"SBRF":{"icaoId":"SBRF","flightCategory":"MVFR","rawOb":"METAR SBRF 251000Z 20005KT 9999 FEW010 BKN018 25/24 Q1012","temp":25,"dewp":24,"wdir":200,"wspd":5,"visib":"6+","altim":1012,"clouds":[{"cover":"FEW","base":1000},{"cover":"BKN","base":1800}],"obsTime":1777111200},"SBCR":{"icaoId":"SBCR","flightCategory":"VFR","rawOb":"METAR SBCR 251100Z 00000KT CAVOK 25/23 Q1013","temp":25,"dewp":23,"wdir":0,"wspd":0,"visib":"6+","altim":1013,"clouds":[],"obsTime":1777114800},"SBSG":{"icaoId":"SBSG","flightCategory":"VFR","rawOb":"METAR SBSG 251000Z 18003KT 150V220 9999 VCSH SCT020 FEW025TCU BKN100 24/23 Q1011","temp":24,"dewp":23,"wdir":180,"wspd":3,"visib":"6+","altim":1011,"clouds":[{"cover":"SCT","base":2000},{"cover":"FEW","base":2500},{"cover":"BKN","base":10000}],"obsTime":1777111200},"SBCT":{"icaoId":"SBCT","flightCategory":"LIFR","rawOb":"METAR SBCT 251000Z 00000KT 0100 R33/0375 R15/0450 FG VV001 16/16 Q1017","temp":16,"dewp":16,"wdir":0,"wspd":0,"visib":0.06,"altim":1017,"clouds":[{"cover":"OVX","base":100}],"obsTime":1777111200},"SBSL":{"icaoId":"SBSL","flightCategory":"LIFR","rawOb":"SPECI SBSL 250938Z 16003KT 130V200 4000 -RA BKN003 BKN015 24/23 Q1012 RERA","temp":24,"dewp":23,"wdir":160,"wspd":3,"visib":2.49,"altim":1012,"clouds":[{"cover":"BKN","base":300},{"cover":"BKN","base":1500}],"obsTime":1777109880},"SBAT":{"icaoId":"SBAT","flightCategory":"VFR","rawOb":"METAR SBAT 251100Z 00000KT CAVOK 25/24 Q1014","temp":25,"dewp":24,"wdir":0,"wspd":0,"visib":"6+","altim":1014,"clouds":[],"obsTime":1777114800},"SBHT":{"icaoId":"SBHT","flightCategory":"VFR","rawOb":"METAR SBHT 251000Z 24003KT 9999 SCT010 BKN080 24/23 Q1011","temp":24,"dewp":23,"wdir":240,"wspd":3,"visib":"6+","altim":1011,"clouds":[{"cover":"SCT","base":1000},{"cover":"BKN","base":8000}],"obsTime":1777111200},"SBBE":{"icaoId":"SBBE","flightCategory":"VFR","rawOb":"METAR SBBE 251000Z 12004KT 9999 SCT005 BKN100 24/23 Q1011","temp":24,"dewp":23,"wdir":120,"wspd":4,"visib":"6+","altim":1011,"clouds":[{"cover":"SCT","base":500},{"cover":"BKN","base":10000}],"obsTime":1777111200},"SBSN":{"icaoId":"SBSN","flightCategory":"VFR","rawOb":"METAR SBSN 251000Z 18004KT 9999 FEW015 23/22 Q1011","temp":23,"dewp":22,"wdir":180,"wspd":4,"visib":"6+","altim":1011,"clouds":[{"cover":"FEW","base":1500}],"obsTime":1777111200},"SBIL":{"icaoId":"SBIL","flightCategory":"VFR","rawOb":"METAR SBIL 251000Z 28005KT 9999 FEW040 BKN070 24/23 Q1015","temp":24,"dewp":23,"wdir":280,"wspd":5,"visib":"6+","altim":1015,"clouds":[{"cover":"FEW","base":4000},{"cover":"BKN","base":7000}],"obsTime":1777111200},"SBSP":{"icaoId":"SBSP","flightCategory":"VFR","rawOb":"METAR SBSP 251000Z 04004KT CAVOK 19/17 Q1018","temp":19,"dewp":17,"wdir":40,"wspd":4,"visib":"6+","altim":1018,"clouds":[],"obsTime":1777111200},"SBCZ":{"icaoId":"SBCZ","flightCategory":"IFR","rawOb":"METAR SBCZ 251100Z 00000KT 9999 OVC005 23/23 Q1012","temp":23,"dewp":23,"wdir":0,"wspd":0,"visib":"6+","altim":1012,"clouds":[{"cover":"OVC","base":500}],"obsTime":1777114800},"SBSV":{"icaoId":"SBSV","flightCategory":"MVFR","rawOb":"METAR SBSV 251000Z 14007KT 9999 BKN022 FEW025TCU SCT070 27/24 Q1014","temp":27,"dewp":24,"wdir":140,"wspd":7,"visib":"6+","altim":1014,"clouds":[{"cover":"BKN","base":2200},{"cover":"FEW","base":2500},{"cover":"SCT","base":7000}],"obsTime":1777111200},"SBTE":{"icaoId":"SBTE","flightCategory":"MVFR","rawOb":"METAR SBTE 251000Z 33003KT 9999 SCT006 BKN010 BKN090 24/23 Q1011","temp":24,"dewp":23,"wdir":330,"wspd":3,"visib":"6+","altim":1011,"clouds":[{"cover":"SCT","base":600},{"cover":"BKN","base":1000},{"cover":"BKN","base":9000}],"obsTime":1777111200},"SBJU":{"icaoId":"SBJU","flightCategory":"VFR","rawOb":"METAR SBJU 251000Z 00000KT 9999 FEW020 23/20 Q1014","temp":23,"dewp":20,"wdir":0,"wspd":0,"visib":"6+","altim":1014,"clouds":[{"cover":"FEW","base":2000}],"obsTime":1777111200},"SBCF":{"icaoId":"SBCF","flightCategory":"VFR","rawOb":"METAR SBCF 251000Z 16004KT CAVOK 17/16 Q1019","temp":17,"dewp":16,"wdir":160,"wspd":4,"visib":"6+","altim":1019,"clouds":[],"obsTime":1777111200},"SBUL":{"icaoId":"SBUL","flightCategory":"VFR","rawOb":"METAR SBUL 251000Z 12005KT CAVOK 20/14 Q1019","temp":20,"dewp":14,"wdir":120,"wspd":5,"visib":"6+","altim":1019,"clouds":[],"obsTime":1777111200},"SBKP":{"icaoId":"SBKP","flightCategory":"MVFR","rawOb":"METAR SBKP 251000Z 11005KT 7000 NSC 18/16 Q1017","temp":18,"dewp":16,"wdir":110,"wspd":5,"visib":4.35,"altim":1017,"clouds":[],"obsTime":1777111200},"SBUR":{"icaoId":"SBUR","flightCategory":"VFR","rawOb":"METAR SBUR 251000Z 02005KT CAVOK 20/14 Q1018","temp":20,"dewp":14,"wdir":20,"wspd":5,"visib":"6+","altim":1018,"clouds":[],"obsTime":1777111200},"SBVT":{"icaoId":"SBVT","flightCategory":"VFR","rawOb":"METAR SBVT 251000Z 33002KT CAVOK 21/21 Q1016","temp":21,"dewp":21,"wdir":330,"wspd":2,"visib":"6+","altim":1016,"clouds":[],"obsTime":1777111200},"SBEG":{"icaoId":"SBEG","flightCategory":"VFR","rawOb":"METAR SBEG 251000Z 00000KT 9999 FEW006 BKN100 24/24 Q1011","temp":24,"dewp":24,"wdir":0,"wspd":0,"visib":"6+","altim":1011,"clouds":[{"cover":"FEW","base":600},{"cover":"BKN","base":10000}],"obsTime":1777111200},"SBLO":{"icaoId":"SBLO","flightCategory":"VFR","rawOb":"METAR SBLO 251000Z 12001KT CAVOK 19/17 Q1015","temp":19,"dewp":17,"wdir":120,"wspd":1,"visib":"6+","altim":1015,"clouds":[],"obsTime":1777111200},"SBMA":{"icaoId":"SBMA","flightCategory":"VFR","rawOb":"METAR SBMA 251000Z 08002KT 9999 FEW012 BKN080 24/23 Q1012","temp":24,"dewp":23,"wdir":80,"wspd":2,"visib":"6+","altim":1012,"clouds":[{"cover":"FEW","base":1200},{"cover":"BKN","base":8000}],"obsTime":1777111200},"SBFI":{"icaoId":"SBFI","flightCategory":"VFR","rawOb":"METAR SBFI 251000Z 12003KT 9000 NSC 20/20 Q1013","temp":20,"dewp":20,"wdir":120,"wspd":3,"visib":5.59,"altim":1013,"clouds":[],"obsTime":1777111200},"SBTF":{"icaoId":"SBTF","flightCategory":"VFR","rawOb":"SPECI SBTF 251115Z 20003KT 9999 -RA SCT006 OVC100 23/23 Q1012","temp":23,"dewp":23,"wdir":200,"wspd":3,"visib":"6+","altim":1012,"clouds":[{"cover":"SCT","base":600},{"cover":"OVC","base":10000}],"obsTime":1777115700},"SBPP":{"icaoId":"SBPP","flightCategory":"VFR","rawOb":"SPECI SBPP 251115Z 01003KT CAVOK 23/17 Q1016","temp":23,"dewp":17,"wdir":10,"wspd":3,"visib":"6+","altim":1016,"clouds":[],"obsTime":1777115700},"SBVH":{"icaoId":"SBVH","flightCategory":"VFR","rawOb":"METAR SBVH 251100Z 32002KT 9999 FEW035 23/22 Q1016","temp":23,"dewp":22,"wdir":320,"wspd":2,"visib":"6+","altim":1016,"clouds":[{"cover":"FEW","base":3500}],"obsTime":1777114800},"SBAX":{"icaoId":"SBAX","flightCategory":"VFR","rawOb":"METAR SBAX 251000Z AUTO 14004KT CAVOK 18/13 Q1020","temp":18,"dewp":13,"wdir":140,"wspd":4,"visib":"6+","altim":1020,"clouds":[],"obsTime":1777111200},"SBUY":{"icaoId":"SBUY","flightCategory":"MVFR","rawOb":"METAR SBUY 251100Z 00000KT 5000 BR FEW003 SCT090 22/21 Q1012","temp":22,"dewp":21,"wdir":0,"wspd":0,"visib":3.11,"altim":1012,"clouds":[{"cover":"FEW","base":300},{"cover":"SCT","base":9000}],"obsTime":1777114800},"SBBH":{"icaoId":"SBBH","flightCategory":"VFR","rawOb":"METAR SBBH 251000Z 10002KT CAVOK 18/16 Q1019","temp":18,"dewp":16,"wdir":100,"wspd":2,"visib":"6+","altim":1019,"clouds":[],"obsTime":1777111200},"SBTT":{"icaoId":"SBTT","flightCategory":"MVFR","rawOb":"METAR SBTT 251100Z 14003KT 9999 BKN010 BKN090 23/21 Q1012","temp":23,"dewp":21,"wdir":140,"wspd":3,"visib":"6+","altim":1012,"clouds":[{"cover":"BKN","base":1000},{"cover":"BKN","base":9000}],"obsTime":1777114800},"SBBU":{"icaoId":"SBBU","flightCategory":"VFR","rawOb":"METAR SBBU 251000Z 03004KT CAVOK 22/19 Q1016","temp":22,"dewp":19,"wdir":30,"wspd":4,"visib":"6+","altim":1016,"clouds":[],"obsTime":1777111200},"SBCA":{"icaoId":"SBCA","flightCategory":"VFR","rawOb":"METAR SBCA 251100Z 01004KT CAVOK 21/16 Q1017","temp":21,"dewp":16,"wdir":10,"wspd":4,"visib":"6+","altim":1017,"clouds":[],"obsTime":1777114800},"SBCC":{"icaoId":"SBCC","flightCategory":"VFR","rawOb":"METAR SBCC 251100Z 03005KT CAVOK 23/20 Q1015","temp":23,"dewp":20,"wdir":30,"wspd":5,"visib":"6+","altim":1015,"clouds":[],"obsTime":1777114800},"SBCJ":{"icaoId":"SBCJ","flightCategory":"VFR","rawOb":"SPECI SBCJ 251015Z 00000KT CAVOK 22/21 Q1016","temp":22,"dewp":21,"wdir":0,"wspd":0,"visib":"6+","altim":1016,"clouds":[],"obsTime":1777112100},"SBSR":{"icaoId":"SBSR","flightCategory":"VFR","rawOb":"METAR SBSR 251000Z 07003KT 9999 FEW030 22/17 Q1016","temp":22,"dewp":17,"wdir":70,"wspd":3,"visib":"6+","altim":1016,"clouds":[{"cover":"FEW","base":3000}],"obsTime":1777111200},"SBCO":{"icaoId":"SBCO","flightCategory":"IFR","rawOb":"METAR SBCO 251000Z 27006KT 4000 BR BKN007 OVC015 20/20 Q1012","temp":20,"dewp":20,"wdir":270,"wspd":6,"visib":2.49,"altim":1012,"clouds":[{"cover":"BKN","base":700},{"cover":"OVC","base":1500}],"obsTime":1777111200},"SBSM":{"icaoId":"SBSM","flightCategory":"IFR","rawOb":"METAR SBSM 251000Z 11001KT 3000 BR OVC005 19/19 Q1013","temp":19,"dewp":19,"wdir":110,"wspd":1,"visib":1.86,"altim":1013,"clouds":[{"cover":"OVC","base":500}],"obsTime":1777111200},"SBDN":{"icaoId":"SBDN","flightCategory":"VFR","rawOb":"METAR SBDN 251000Z 06005KT CAVOK 22/17 Q1015","temp":22,"dewp":17,"wdir":60,"wspd":5,"visib":"6+","altim":1015,"clouds":[],"obsTime":1777111200},"SBES":{"icaoId":"SBES","flightCategory":"VFR","rawOb":"METAR SBES 251000Z 05008KT 330V110 9999 SCT040 22/// Q1014","temp":null,"dewp":null,"wdir":50,"wspd":8,"visib":"6+","altim":1014,"clouds":[{"cover":"SCT","base":4000}],"obsTime":1777111200},"SBSJ":{"icaoId":"SBSJ","flightCategory":"MVFR","rawOb":"METAR SBSJ 251000Z 00000KT 6000 NSC 16/15 Q1017","temp":16,"dewp":15,"wdir":0,"wspd":0,"visib":3.73,"altim":1017,"clouds":[],"obsTime":1777111200},"SBSC":{"icaoId":"SBSC","flightCategory":"VFR","rawOb":"METAR SBSC 251000Z 03005KT 9999 FEW020 24/20 Q1015","temp":24,"dewp":20,"wdir":30,"wspd":5,"visib":"6+","altim":1015,"clouds":[{"cover":"FEW","base":2000}],"obsTime":1777111200},"SBIP":{"icaoId":"SBIP","flightCategory":"VFR","rawOb":"METAR SBIP 251000Z AUTO VRB01KT 9999 BKN035 21/21 Q1017","temp":21,"dewp":21,"wdir":"VRB","wspd":1,"visib":"6+","altim":1017,"clouds":[{"cover":"BKN","base":3500}],"obsTime":1777111200},"SBPS":{"icaoId":"SBPS","flightCategory":"VFR","rawOb":"METAR SBPS 251000Z 26004KT 9999 VCSH SCT017 SCT070 23/22 Q1015","temp":23,"dewp":22,"wdir":260,"wspd":4,"visib":"6+","altim":1015,"clouds":[{"cover":"SCT","base":1700},{"cover":"SCT","base":7000}],"obsTime":1777111200},"SBKG":{"icaoId":"SBKG","flightCategory":"VFR","rawOb":"METAR SBKG 251000Z 18003KT 9999 SCT010 BKN070 22/21 Q1014","temp":22,"dewp":21,"wdir":180,"wspd":3,"visib":"6+","altim":1014,"clouds":[{"cover":"SCT","base":1000},{"cover":"BKN","base":7000}],"obsTime":1777111200},"SBPL":{"icaoId":"SBPL","flightCategory":"MVFR","rawOb":"METAR SBPL 251000Z 13004KT 9999 FEW006 BKN022 24/22 Q1015","temp":24,"dewp":22,"wdir":130,"wspd":4,"visib":"6+","altim":1015,"clouds":[{"cover":"FEW","base":600},{"cover":"BKN","base":2200}],"obsTime":1777111200},"SBOI":{"icaoId":"SBOI","flightCategory":"MVFR","rawOb":"METAR SBOI 251000Z AUTO 16002KT 9999 // SCT001/// BKN016/// BKN027/// 23/23 Q1011","temp":23,"dewp":23,"wdir":160,"wspd":2,"visib":"6+","altim":1011,"clouds":[{"cover":"SCT","base":100},{"cover":"BKN","base":1600},{"cover":"BKN","base":2700}],"obsTime":1777111200},"SBAR":{"icaoId":"SBAR","flightCategory":"VFR","rawOb":"METAR SBAR 251000Z 12009KT 9999 VCSH FEW024 FEW026TCU 28/24 Q1012","temp":28,"dewp":24,"wdir":120,"wspd":9,"visib":"6+","altim":1012,"clouds":[{"cover":"FEW","base":2400},{"cover":"FEW","base":2600}],"obsTime":1777111200},"SBPB":{"icaoId":"SBPB","flightCategory":"MVFR","rawOb":"SPECI SBPB 251015Z 24004KT 9999 BKN010 25/24 Q1012","temp":25,"dewp":24,"wdir":240,"wspd":4,"visib":"6+","altim":1012,"clouds":[{"cover":"BKN","base":1000}],"obsTime":1777112100},"SBIH":{"icaoId":"SBIH","flightCategory":"VFR","rawOb":"METAR SBIH 251100Z 00000KT 9999 FEW010 25/24 Q1012","temp":25,"dewp":24,"wdir":0,"wspd":0,"visib":"6+","altim":1012,"clouds":[{"cover":"FEW","base":1000}],"obsTime":1777114800},"SBLE":{"icaoId":"SBLE","flightCategory":"VFR","rawOb":"METAR SBLE 251000Z AUTO VRB01KT 9999 FEW025 SCT038 ///// Q////","temp":null,"dewp":null,"wdir":"VRB","wspd":1,"visib":"6+","altim":null,"clouds":[{"cover":"FEW","base":2500},{"cover":"SCT","base":3800}],"obsTime":1777111200},"SBJV":{"icaoId":"SBJV","flightCategory":"VFR","rawOb":"METAR SBJV 251000Z 32002KT CAVOK 19/19 Q1012","temp":19,"dewp":19,"wdir":320,"wspd":2,"visib":"6+","altim":1012,"clouds":[],"obsTime":1777111200},"SBPF":{"icaoId":"SBPF","flightCategory":"VFR","rawOb":"METAR SBPF 251100Z 32002KT CAVOK 17/15 Q1016","temp":17,"dewp":15,"wdir":320,"wspd":2,"visib":"6+","altim":1016,"clouds":[],"obsTime":1777114800},"SBAF":{"icaoId":"SBAF","flightCategory":"VFR","rawOb":"METAR SBAF 251000Z 00000KT CAVOK 19/19 Q1014","temp":19,"dewp":19,"wdir":0,"wspd":0,"visib":"6+","altim":1014,"clouds":[],"obsTime":1777111200},"SBGW":{"icaoId":"SBGW","flightCategory":"VFR","rawOb":"METAR SBGW 251000Z 36003KT CAVOK 16/13 Q1017","temp":16,"dewp":13,"wdir":360,"wspd":3,"visib":"6+","altim":1017,"clouds":[],"obsTime":1777111200},"SBJR":{"icaoId":"SBJR","flightCategory":"VFR","rawOb":"METAR SBJR 251000Z 01005KT 9000 NSC 23/21 Q1013","temp":23,"dewp":21,"wdir":10,"wspd":5,"visib":5.59,"altim":1013,"clouds":[],"obsTime":1777111200},"SBLS":{"icaoId":"SBLS","flightCategory":"VFR","rawOb":"METAR SBLS 251000Z 16006KT CAVOK 18/16 Q1019","temp":18,"dewp":16,"wdir":160,"wspd":6,"visib":"6+","altim":1019,"clouds":[],"obsTime":1777111200},"SBMT":{"icaoId":"SBMT","flightCategory":"VFR","rawOb":"METAR SBMT 251000Z 10003KT CAVOK 17/16 Q1017","temp":17,"dewp":16,"wdir":100,"wspd":3,"visib":"6+","altim":1017,"clouds":[],"obsTime":1777111200},"SBST":{"icaoId":"SBST","flightCategory":"VFR","rawOb":"METAR SBST 251100Z 00000KT CAVOK 21/21 Q1013","temp":21,"dewp":21,"wdir":0,"wspd":0,"visib":"6+","altim":1013,"clouds":[],"obsTime":1777114800},"SBTA":{"icaoId":"SBTA","flightCategory":"VFR","rawOb":"METAR SBTA 251000Z VRB01KT CAVOK 15/15 Q1016","temp":15,"dewp":15,"wdir":"VRB","wspd":1,"visib":"6+","altim":1016,"clouds":[],"obsTime":1777111200},"SBJP":{"icaoId":"SBJP","flightCategory":"VFR","rawOb":"METAR SBJP 251000Z 18007KT 9999 SCT020 25/24 Q1012","temp":25,"dewp":24,"wdir":180,"wspd":7,"visib":"6+","altim":1012,"clouds":[{"cover":"SCT","base":2000}],"obsTime":1777111200},"SBAN":{"icaoId":"SBAN","flightCategory":"VFR","rawOb":"METAR SBAN 251000Z 13005KT CAVOK 18/16 Q1020","temp":18,"dewp":16,"wdir":130,"wspd":5,"visib":"6+","altim":1020,"clouds":[],"obsTime":1777111200}}}