{"updated":1776287435,"count":83,"data":{"SBMA":{"icaoId":"SBMA","flightCategory":"VFR","rawOb":"METAR SBMA 152000Z 02003KT 9999 FEW020 FEW023TCU BKN100 29/25 Q1007","temp":29,"dewp":25,"wdir":20,"wspd":3,"visib":"6+","altim":1007,"clouds":[{"cover":"FEW","base":2000},{"cover":"FEW","base":2300},{"cover":"BKN","base":10000}],"obsTime":1776283200},"SBFL":{"icaoId":"SBFL","flightCategory":"VFR","rawOb":"METAR SBFL 152000Z 05008KT 9999 FEW040 26/20 Q1014","temp":26,"dewp":20,"wdir":50,"wspd":8,"visib":"6+","altim":1014,"clouds":[{"cover":"FEW","base":4000}],"obsTime":1776283200},"SBCB":{"icaoId":"SBCB","flightCategory":"VFR","rawOb":"METAR SBCB 152000Z 23009KT CAVOK 25/22 Q1014","temp":25,"dewp":22,"wdir":230,"wspd":9,"visib":"6+","altim":1014,"clouds":[],"obsTime":1776283200},"SBMO":{"icaoId":"SBMO","flightCategory":"VFR","rawOb":"METAR SBMO 152000Z 13006KT 9999 VCSH SCT030 FEW032TCU 27/23 Q1010","temp":27,"dewp":23,"wdir":130,"wspd":6,"visib":"6+","altim":1010,"clouds":[{"cover":"SCT","base":3000},{"cover":"FEW","base":3200}],"obsTime":1776283200},"SBCP":{"icaoId":"SBCP","flightCategory":"VFR","rawOb":"METAR SBCP 152000Z 19011KT CAVOK 26/21 Q1013","temp":26,"dewp":21,"wdir":190,"wspd":11,"visib":"6+","altim":1013,"clouds":[],"obsTime":1776283200},"SBFZ":{"icaoId":"SBFZ","flightCategory":"VFR","rawOb":"METAR SBFZ 152000Z 14006KT 9999 SCT013 BKN100 27/24 Q1008","temp":27,"dewp":24,"wdir":140,"wspd":6,"visib":"6+","altim":1008,"clouds":[{"cover":"SCT","base":1300},{"cover":"BKN","base":10000}],"obsTime":1776283200},"SBMQ":{"icaoId":"SBMQ","flightCategory":"MVFR","rawOb":"METAR SBMQ 152000Z 08004KT 9999 BKN017 FEW025TCU OVC100 26/24 Q1007","temp":26,"dewp":24,"wdir":80,"wspd":4,"visib":"6+","altim":1007,"clouds":[{"cover":"BKN","base":1700},{"cover":"FEW","base":2500},{"cover":"OVC","base":10000}],"obsTime":1776283200},"SBGL":{"icaoId":"SBGL","flightCategory":"VFR","rawOb":"METAR SBGL 152000Z 13008KT 9999 FEW030 26/19 Q1013","temp":26,"dewp":19,"wdir":130,"wspd":8,"visib":"6+","altim":1013,"clouds":[{"cover":"FEW","base":3000}],"obsTime":1776283200},"SBNT":{"icaoId":"SBNT","flightCategory":"MVFR","rawOb":"METAR SBNT 152000Z 13010KT 090V160 9999 BKN020 FEW025TCU 27/23 Q1009","temp":27,"dewp":23,"wdir":130,"wspd":10,"visib":"6+","altim":1009,"clouds":[{"cover":"BKN","base":2000},{"cover":"FEW","base":2500}],"obsTime":1776283200},"SBPA":{"icaoId":"SBPA","flightCategory":"VFR","rawOb":"METAR SBPA 152000Z 10015KT CAVOK 27/20 Q1010","temp":27,"dewp":20,"wdir":100,"wspd":15,"visib":"6+","altim":1010,"clouds":[],"obsTime":1776283200},"SBBE":{"icaoId":"SBBE","flightCategory":"MVFR","rawOb":"METAR SBBE 152000Z 35005KT 9999 BKN030 FEW035TCU 29/24 Q1007","temp":29,"dewp":24,"wdir":350,"wspd":5,"visib":"6+","altim":1007,"clouds":[{"cover":"BKN","base":3000},{"cover":"FEW","base":3500}],"obsTime":1776283200},"SBCR":{"icaoId":"SBCR","flightCategory":"VFR","rawOb":"METAR SBCR 152000Z 08008KT 9999 FEW035 28/24 Q1007","temp":28,"dewp":24,"wdir":80,"wspd":8,"visib":"6+","altim":1007,"clouds":[{"cover":"FEW","base":3500}],"obsTime":1776283200},"SBPJ":{"icaoId":"SBPJ","flightCategory":"VFR","rawOb":"METAR SBPJ 152000Z 25004KT 220V280 9999 FEW043 FEW048TCU 32/24 Q1008","temp":32,"dewp":24,"wdir":250,"wspd":4,"visib":"6+","altim":1008,"clouds":[{"cover":"FEW","base":4300},{"cover":"FEW","base":4800}],"obsTime":1776283200},"SBPV":{"icaoId":"SBPV","flightCategory":"VFR","rawOb":"METAR SBPV 152000Z 03005KT 9999 FEW045 32/24 Q1005","temp":32,"dewp":24,"wdir":30,"wspd":5,"visib":"6+","altim":1005,"clouds":[{"cover":"FEW","base":4500}],"obsTime":1776283200},"SBGO":{"icaoId":"SBGO","flightCategory":"VFR","rawOb":"METAR SBGO 152000Z 02007KT 9999 FEW048TCU SCT100 27/19 Q1014","temp":27,"dewp":19,"wdir":20,"wspd":7,"visib":"6+","altim":1014,"clouds":[{"cover":"FEW","base":4800},{"cover":"SCT","base":10000}],"obsTime":1776283200},"SBRB":{"icaoId":"SBRB","flightCategory":"VFR","rawOb":"METAR SBRB 152000Z 36009KT 9999 VCSH SCT025 FEW030TCU SCT100 31/26 Q1005","temp":31,"dewp":26,"wdir":360,"wspd":9,"visib":"6+","altim":1005,"clouds":[{"cover":"SCT","base":2500},{"cover":"FEW","base":3000},{"cover":"SCT","base":10000}],"obsTime":1776283200},"SBGR":{"icaoId":"SBGR","flightCategory":"VFR","rawOb":"METAR SBGR 152000Z 10006KT CAVOK 26/13 Q1016","temp":26,"dewp":13,"wdir":100,"wspd":6,"visib":"6+","altim":1016,"clouds":[],"obsTime":1776283200},"SBRF":{"icaoId":"SBRF","flightCategory":"VFR","rawOb":"METAR SBRF 152000Z 13007KT 9999 SCT025 28/23 Q1009","temp":28,"dewp":23,"wdir":130,"wspd":7,"visib":"6+","altim":1009,"clouds":[{"cover":"SCT","base":2500}],"obsTime":1776283200},"SBCT":{"icaoId":"SBCT","flightCategory":"VFR","rawOb":"METAR SBCT 152000Z 09008KT 050V130 9999 FEW030 21/16 Q1018","temp":21,"dewp":16,"wdir":90,"wspd":8,"visib":"6+","altim":1018,"clouds":[{"cover":"FEW","base":3000}],"obsTime":1776283200},"SBSG":{"icaoId":"SBSG","flightCategory":"MVFR","rawOb":"METAR SBSG 152000Z 14006KT 100V200 9999 BKN023 FEW026TCU 26/24 Q1009","temp":26,"dewp":24,"wdir":140,"wspd":6,"visib":"6+","altim":1009,"clouds":[{"cover":"BKN","base":2300},{"cover":"FEW","base":2600}],"obsTime":1776283200},"SBBR":{"icaoId":"SBBR","flightCategory":"VFR","rawOb":"METAR SBBR 152000Z 13003KT 9999 FEW040 FEW050TCU BKN070 23/18 Q1016","temp":23,"dewp":18,"wdir":130,"wspd":3,"visib":"6+","altim":1016,"clouds":[{"cover":"FEW","base":4000},{"cover":"FEW","base":5000},{"cover":"BKN","base":7000}],"obsTime":1776283200},"SBVT":{"icaoId":"SBVT","flightCategory":"VFR","rawOb":"METAR SBVT 152000Z 18012KT 9999 FEW030 26/21 Q1012","temp":26,"dewp":21,"wdir":180,"wspd":12,"visib":"6+","altim":1012,"clouds":[{"cover":"FEW","base":3000}],"obsTime":1776283200},"SBBV":{"icaoId":"SBBV","flightCategory":"VFR","rawOb":"METAR SBBV 152000Z 09006KT 9999 SCT040 FEW045TCU 34/20 Q1005","temp":34,"dewp":20,"wdir":90,"wspd":6,"visib":"6+","altim":1005,"clouds":[{"cover":"SCT","base":4000},{"cover":"FEW","base":4500}],"obsTime":1776283200},"SBSL":{"icaoId":"SBSL","flightCategory":"MVFR","rawOb":"METAR SBSL 152000Z 07011KT 030V100 9999 VCSH FEW012 BKN020 FEW025TCU 28/25 Q1007","temp":28,"dewp":25,"wdir":70,"wspd":11,"visib":"6+","altim":1007,"clouds":[{"cover":"FEW","base":1200},{"cover":"BKN","base":2000},{"cover":"FEW","base":2500}],"obsTime":1776283200},"SBCF":{"icaoId":"SBCF","flightCategory":"VFR","rawOb":"METAR SBCF 152000Z 22005KT 9999 FEW040 26/15 Q1016","temp":26,"dewp":15,"wdir":220,"wspd":5,"visib":"6+","altim":1016,"clouds":[{"cover":"FEW","base":4000}],"obsTime":1776283200},"SBCZ":{"icaoId":"SBCZ","flightCategory":"MVFR","rawOb":"METAR SBCZ 152000Z 23004KT 9999 BKN030 FEW030TCU 32/25 Q1004","temp":32,"dewp":25,"wdir":230,"wspd":4,"visib":"6+","altim":1004,"clouds":[{"cover":"BKN","base":3000},{"cover":"FEW","base":3000}],"obsTime":1776283200},"SBSN":{"icaoId":"SBSN","flightCategory":"VFR","rawOb":"METAR SBSN 152000Z 12008KT 9999 VCSH SCT021 FEW025TCU SCT080 28/24 Q1006","temp":28,"dewp":24,"wdir":120,"wspd":8,"visib":"6+","altim":1006,"clouds":[{"cover":"SCT","base":2100},{"cover":"FEW","base":2500},{"cover":"SCT","base":8000}],"obsTime":1776283200},"SBCG":{"icaoId":"SBCG","flightCategory":"VFR","rawOb":"METAR SBCG 152000Z 36006KT 9999 VCSH BKN045 FEW050TCU SCT100 29/20 Q1011","temp":29,"dewp":20,"wdir":360,"wspd":6,"visib":"6+","altim":1011,"clouds":[{"cover":"BKN","base":4500},{"cover":"FEW","base":5000},{"cover":"SCT","base":10000}],"obsTime":1776283200},"SBSP":{"icaoId":"SBSP","flightCategory":"VFR","rawOb":"METAR SBSP 152000Z 16011KT CAVOK 24/18 Q1018","temp":24,"dewp":18,"wdir":160,"wspd":11,"visib":"6+","altim":1018,"clouds":[],"obsTime":1776283200},"SBSV":{"icaoId":"SBSV","flightCategory":"VFR","rawOb":"METAR SBSV 152000Z 18009KT 9999 SCT025 28/21 Q1011","temp":28,"dewp":21,"wdir":180,"wspd":9,"visib":"6+","altim":1011,"clouds":[{"cover":"SCT","base":2500}],"obsTime":1776283200},"SBKP":{"icaoId":"SBKP","flightCategory":"VFR","rawOb":"METAR SBKP 152000Z 13008KT CAVOK 28/14 Q1015","temp":28,"dewp":14,"wdir":130,"wspd":8,"visib":"6+","altim":1015,"clouds":[],"obsTime":1776283200},"SBEG":{"icaoId":"SBEG","flightCategory":"VFR","rawOb":"METAR SBEG 152000Z 03003KT 350V070 9999 VCSH SCT030 FEW035TCU 26/24 Q1007","temp":26,"dewp":24,"wdir":30,"wspd":3,"visib":"6+","altim":1007,"clouds":[{"cover":"SCT","base":3000},{"cover":"FEW","base":3500}],"obsTime":1776283200},"SBTE":{"icaoId":"SBTE","flightCategory":"VFR","rawOb":"METAR SBTE 152000Z 16006KT 9999 SCT020 BKN080 27/24 Q1007","temp":27,"dewp":24,"wdir":160,"wspd":6,"visib":"6+","altim":1007,"clouds":[{"cover":"SCT","base":2000},{"cover":"BKN","base":8000}],"obsTime":1776283200},"SBLO":{"icaoId":"SBLO","flightCategory":"VFR","rawOb":"METAR SBLO 152000Z 09008KT CAVOK 28/17 Q1014","temp":28,"dewp":17,"wdir":90,"wspd":8,"visib":"6+","altim":1014,"clouds":[],"obsTime":1776283200},"SBFI":{"icaoId":"SBFI","flightCategory":"VFR","rawOb":"METAR SBFI 152000Z 02006KT 9999 FEW030 BKN100 25/22 Q1010","temp":25,"dewp":22,"wdir":20,"wspd":6,"visib":"6+","altim":1010,"clouds":[{"cover":"FEW","base":3000},{"cover":"BKN","base":10000}],"obsTime":1776283200},"SBUL":{"icaoId":"SBUL","flightCategory":"VFR","rawOb":"METAR SBUL 152000Z 08004KT 030V120 9999 FEW049 26/16 Q1016","temp":26,"dewp":16,"wdir":80,"wspd":4,"visib":"6+","altim":1016,"clouds":[{"cover":"FEW","base":4900}],"obsTime":1776283200},"SBUR":{"icaoId":"SBUR","flightCategory":"VFR","rawOb":"METAR SBUR 152000Z 20004KT CAVOK 29/15 Q1014","temp":29,"dewp":15,"wdir":200,"wspd":4,"visib":"6+","altim":1014,"clouds":[],"obsTime":1776283200},"SBAT":{"icaoId":"SBAT","flightCategory":"VFR","rawOb":"METAR SBAT 152000Z 24004KT 9999 FEW035 FEW040TCU 27/26 Q1008 RETS","temp":27,"dewp":26,"wdir":240,"wspd":4,"visib":"6+","altim":1008,"clouds":[{"cover":"FEW","base":3500},{"cover":"FEW","base":4000}],"obsTime":1776283200},"SBHT":{"icaoId":"SBHT","flightCategory":"MVFR","rawOb":"METAR SBHT 152000Z 00000KT 9999 BKN015 BKN100 26/24 Q1007","temp":26,"dewp":24,"wdir":0,"wspd":0,"visib":"6+","altim":1007,"clouds":[{"cover":"BKN","base":1500},{"cover":"BKN","base":10000}],"obsTime":1776283200},"SBIL":{"icaoId":"SBIL","flightCategory":"VFR","rawOb":"METAR SBIL 152000Z 17007KT 140V200 CAVOK 28/23 Q1012","temp":28,"dewp":23,"wdir":170,"wspd":7,"visib":"6+","altim":1012,"clouds":[],"obsTime":1776283200},"SBJU":{"icaoId":"SBJU","flightCategory":"VFR","rawOb":"METAR SBJU 152000Z 09005KT 9999 FEW020 27/22 Q1010","temp":27,"dewp":22,"wdir":90,"wspd":5,"visib":"6+","altim":1010,"clouds":[{"cover":"FEW","base":2000}],"obsTime":1776283200},"SBME":{"icaoId":"SBME","flightCategory":"VFR","rawOb":"METAR SBME 152000Z 19007KT 9999 FEW025 26/20 Q1013","temp":26,"dewp":20,"wdir":190,"wspd":7,"visib":"6+","altim":1013,"clouds":[{"cover":"FEW","base":2500}],"obsTime":1776283200},"SBMG":{"icaoId":"SBMG","flightCategory":"VFR","rawOb":"METAR SBMG 152000Z 03006KT 9999 FEW045 28/17 Q1012","temp":28,"dewp":17,"wdir":30,"wspd":6,"visib":"6+","altim":1012,"clouds":[{"cover":"FEW","base":4500}],"obsTime":1776283200},"SBMK":{"icaoId":"SBMK","flightCategory":"VFR","rawOb":"METAR SBMK 152000Z 16004KT 9999 FEW046 BKN080 27/18 Q1014","temp":27,"dewp":18,"wdir":160,"wspd":4,"visib":"6+","altim":1014,"clouds":[{"cover":"FEW","base":4600},{"cover":"BKN","base":8000}],"obsTime":1776283200},"SBPB":{"icaoId":"SBPB","flightCategory":"MVFR","rawOb":"METAR SBPB 152000Z 16008KT 9999 -RA SCT013 BKN016 BKN080 25/23 Q1008","temp":25,"dewp":23,"wdir":160,"wspd":8,"visib":"6+","altim":1008,"clouds":[{"cover":"SCT","base":1300},{"cover":"BKN","base":1600},{"cover":"BKN","base":8000}],"obsTime":1776283200},"SBSJ":{"icaoId":"SBSJ","flightCategory":"VFR","rawOb":"METAR SBSJ 152000Z 04004KT 360V060 CAVOK 26/12 Q1016","temp":26,"dewp":12,"wdir":40,"wspd":4,"visib":"6+","altim":1016,"clouds":[],"obsTime":1776283200},"SBAR":{"icaoId":"SBAR","flightCategory":"VFR","rawOb":"METAR SBAR 152000Z 11009KT 9999 SCT025 BKN100 28/23 Q1010","temp":28,"dewp":23,"wdir":110,"wspd":9,"visib":"6+","altim":1010,"clouds":[{"cover":"SCT","base":2500},{"cover":"BKN","base":10000}],"obsTime":1776283200},"SBPL":{"icaoId":"SBPL","flightCategory":"VFR","rawOb":"METAR SBPL 152000Z 10008KT 9999 FEW030 SCT070 31/20 Q1010","temp":31,"dewp":20,"wdir":100,"wspd":8,"visib":"6+","altim":1010,"clouds":[{"cover":"FEW","base":3000},{"cover":"SCT","base":7000}],"obsTime":1776283200},"SBPP":{"icaoId":"SBPP","flightCategory":"MVFR","rawOb":"SPECI SBPP 151920Z 14009KT 5000 BR SCT010 OVC070 ///// Q1013","temp":null,"dewp":null,"wdir":140,"wspd":9,"visib":3.11,"altim":1013,"clouds":[{"cover":"SCT","base":1000},{"cover":"OVC","base":7000}],"obsTime":1776280800},"SBTF":{"icaoId":"SBTF","flightCategory":"VFR","rawOb":"METAR SBTF 152000Z 15002KT 9999 SCT020 33/26 Q1005","temp":33,"dewp":26,"wdir":150,"wspd":2,"visib":"6+","altim":1005,"clouds":[{"cover":"SCT","base":2000}],"obsTime":1776283200},"SBVH":{"icaoId":"SBVH","flightCategory":"VFR","rawOb":"METAR SBVH 152000Z 20005KT 9999 SCT030 FEW040TCU BKN100 25/22 Q1009","temp":25,"dewp":22,"wdir":200,"wspd":5,"visib":"6+","altim":1009,"clouds":[{"cover":"SCT","base":3000},{"cover":"FEW","base":4000},{"cover":"BKN","base":10000}],"obsTime":1776283200},"SBOI":{"icaoId":"SBOI","flightCategory":"VFR","rawOb":"METAR SBOI 152000Z AUTO 07006KT 010V130 CAVOK 29/25 Q1008","temp":29,"dewp":25,"wdir":70,"wspd":6,"visib":"6+","altim":1008,"clouds":[],"obsTime":1776283200},"SBTT":{"icaoId":"SBTT","flightCategory":"VFR","rawOb":"METAR SBTT 152000Z 33005KT 9999 VCSH SCT035 FEW040TCU 30/24 Q1005","temp":30,"dewp":24,"wdir":330,"wspd":5,"visib":"6+","altim":1005,"clouds":[{"cover":"SCT","base":3500},{"cover":"FEW","base":4000}],"obsTime":1776283200},"SBUY":{"icaoId":"SBUY","flightCategory":"VFR","rawOb":"METAR SBUY 152000Z 01004KT 9999 VCSH FEW025 FEW030TCU 30/24 Q1005","temp":30,"dewp":24,"wdir":10,"wspd":4,"visib":"6+","altim":1005,"clouds":[{"cover":"FEW","base":2500},{"cover":"FEW","base":3000}],"obsTime":1776283200},"SBPS":{"icaoId":"SBPS","flightCategory":"VFR","rawOb":"METAR SBPS 152000Z 14004KT 9999 SCT025 26/22 Q1013","temp":26,"dewp":22,"wdir":140,"wspd":4,"visib":"6+","altim":1013,"clouds":[{"cover":"SCT","base":2500}],"obsTime":1776283200},"SBCJ":{"icaoId":"SBCJ","flightCategory":"VFR","rawOb":"METAR SBCJ 152000Z 00000KT 9999 FEW017 26/23 Q1011","temp":26,"dewp":23,"wdir":0,"wspd":0,"visib":"6+","altim":1011,"clouds":[{"cover":"FEW","base":1700}],"obsTime":1776283200},"SBKG":{"icaoId":"SBKG","flightCategory":"VFR","rawOb":"METAR SBKG 152000Z 08008KT 9999 FEW022 BKN080 25/22 Q1012","temp":25,"dewp":22,"wdir":80,"wspd":8,"visib":"6+","altim":1012,"clouds":[{"cover":"FEW","base":2200},{"cover":"BKN","base":8000}],"obsTime":1776283200},"SBSC":{"icaoId":"SBSC","flightCategory":"VFR","rawOb":"METAR SBSC 152000Z 17007KT CAVOK 25/21 Q1014","temp":25,"dewp":21,"wdir":170,"wspd":7,"visib":"6+","altim":1014,"clouds":[],"obsTime":1776283200},"SBSM":{"icaoId":"SBSM","flightCategory":"VFR","rawOb":"METAR SBSM 152000Z 10004KT 070V140 9999 -RA FEW040 SCT070 OVC100 26/21 Q1009","temp":26,"dewp":21,"wdir":100,"wspd":4,"visib":"6+","altim":1009,"clouds":[{"cover":"FEW","base":4000},{"cover":"SCT","base":7000},{"cover":"OVC","base":10000}],"obsTime":1776283200},"SBSR":{"icaoId":"SBSR","flightCategory":"VFR","rawOb":"METAR SBSR 152000Z 10007KT 9999 SCT025 FEW035TCU 30/16 Q1012","temp":30,"dewp":16,"wdir":100,"wspd":7,"visib":"6+","altim":1012,"clouds":[{"cover":"SCT","base":2500},{"cover":"FEW","base":3500}],"obsTime":1776283200},"SBAX":{"icaoId":"SBAX","flightCategory":"VFR","rawOb":"METAR SBAX 152000Z 14007KT 9999 SCT045 26/15 Q1016","temp":26,"dewp":15,"wdir":140,"wspd":7,"visib":"6+","altim":1016,"clouds":[{"cover":"SCT","base":4500}],"obsTime":1776283200},"SBBH":{"icaoId":"SBBH","flightCategory":"VFR","rawOb":"METAR SBBH 152000Z 00000KT 9999 FEW045 26/15 Q1016","temp":26,"dewp":15,"wdir":0,"wspd":0,"visib":"6+","altim":1016,"clouds":[{"cover":"FEW","base":4500}],"obsTime":1776283200},"SBBQ":{"icaoId":"SBBQ","flightCategory":"VFR","rawOb":"METAR SBBQ 152000Z 09006KT CAVOK 21/13 Q1020","temp":21,"dewp":13,"wdir":90,"wspd":6,"visib":"6+","altim":1020,"clouds":[],"obsTime":1776283200},"SBBU":{"icaoId":"SBBU","flightCategory":"VFR","rawOb":"METAR SBBU 152000Z 10004KT 9999 SCT040 29/18 Q1014","temp":29,"dewp":18,"wdir":100,"wspd":4,"visib":"6+","altim":1014,"clouds":[{"cover":"SCT","base":4000}],"obsTime":1776283200},"SBCA":{"icaoId":"SBCA","flightCategory":"VFR","rawOb":"METAR SBCA 152000Z 03013KT 9999 FEW030 BKN100 23/18 Q1014","temp":23,"dewp":18,"wdir":30,"wspd":13,"visib":"6+","altim":1014,"clouds":[{"cover":"FEW","base":3000},{"cover":"BKN","base":10000}],"obsTime":1776283200},"SBCC":{"icaoId":"SBCC","flightCategory":"VFR","rawOb":"METAR SBCC 152000Z 25003KT 9999 SCT025 SCT100 27/23 Q1009","temp":27,"dewp":23,"wdir":250,"wspd":3,"visib":"6+","altim":1009,"clouds":[{"cover":"SCT","base":2500},{"cover":"SCT","base":10000}],"obsTime":1776283200},"SBCO":{"icaoId":"SBCO","flightCategory":"VFR","rawOb":"METAR SBCO 152000Z 11014KT CAVOK 26/20 Q1011","temp":26,"dewp":20,"wdir":110,"wspd":14,"visib":"6+","altim":1011,"clouds":[],"obsTime":1776283200},"SBDN":{"icaoId":"SBDN","flightCategory":"VFR","rawOb":"METAR SBDN 152000Z 08003KT 9999 FEW049 30/19 Q1012","temp":30,"dewp":19,"wdir":80,"wspd":3,"visib":"6+","altim":1012,"clouds":[{"cover":"FEW","base":4900}],"obsTime":1776283200},"SBES":{"icaoId":"SBES","flightCategory":"VFR","rawOb":"METAR SBES 152000Z 23008KT 140V260 9999 FEW030 23/// Q1014","temp":null,"dewp":null,"wdir":230,"wspd":8,"visib":"6+","altim":1014,"clouds":[{"cover":"FEW","base":3000}],"obsTime":1776283200},"SBIP":{"icaoId":"SBIP","flightCategory":"VFR","rawOb":"METAR SBIP 152000Z AUTO 20003KT 160V240 CAVOK 28/18 Q1013","temp":28,"dewp":18,"wdir":200,"wspd":3,"visib":"6+","altim":1013,"clouds":[],"obsTime":1776283200},"SBIH":{"icaoId":"SBIH","flightCategory":"VFR","rawOb":"METAR SBIH 152000Z 35004KT 9999 SCT020 FEW025TCU 30/26 Q1005","temp":30,"dewp":26,"wdir":350,"wspd":4,"visib":"6+","altim":1005,"clouds":[{"cover":"SCT","base":2000},{"cover":"FEW","base":2500}],"obsTime":1776283200},"SBJP":{"icaoId":"SBJP","flightCategory":"VFR","rawOb":"METAR SBJP 152000Z 13010KT 9999 FEW030 28/24 Q1009","temp":28,"dewp":24,"wdir":130,"wspd":10,"visib":"6+","altim":1009,"clouds":[{"cover":"FEW","base":3000}],"obsTime":1776283200},"SBLE":{"icaoId":"SBLE","flightCategory":"VFR","rawOb":"METAR SBLE 152000Z AUTO 15005KT 110V170 CAVOK 27/19 Q1014","temp":27,"dewp":19,"wdir":150,"wspd":5,"visib":"6+","altim":1014,"clouds":[],"obsTime":1776283200},"SBJV":{"icaoId":"SBJV","flightCategory":"VFR","rawOb":"METAR SBJV 152000Z 08005KT 9999 FEW025 26/20 Q1014","temp":26,"dewp":20,"wdir":80,"wspd":5,"visib":"6+","altim":1014,"clouds":[{"cover":"FEW","base":2500}],"obsTime":1776283200},"SBAN":{"icaoId":"SBAN","flightCategory":"VFR","rawOb":"METAR SBAN 152000Z 18005KT 9999 FEW025 FEW030TCU BKN100 22/18 Q1017","temp":22,"dewp":18,"wdir":180,"wspd":5,"visib":"6+","altim":1017,"clouds":[{"cover":"FEW","base":2500},{"cover":"FEW","base":3000},{"cover":"BKN","base":10000}],"obsTime":1776283200},"SBPF":{"icaoId":"SBPF","flightCategory":"VFR","rawOb":"METAR SBPF 152000Z 03010KT CAVOK 24/15 Q1014","temp":24,"dewp":15,"wdir":30,"wspd":10,"visib":"6+","altim":1014,"clouds":[],"obsTime":1776283200},"SBJR":{"icaoId":"SBJR","flightCategory":"VFR","rawOb":"METAR SBJR 152000Z 21004KT 9999 FEW025 25/21 Q1014","temp":25,"dewp":21,"wdir":210,"wspd":4,"visib":"6+","altim":1014,"clouds":[{"cover":"FEW","base":2500}],"obsTime":1776283200},"SBLS":{"icaoId":"SBLS","flightCategory":"VFR","rawOb":"METAR SBLS 152000Z 18003KT 9999 SCT040 26/14 Q1016","temp":26,"dewp":14,"wdir":180,"wspd":3,"visib":"6+","altim":1016,"clouds":[{"cover":"SCT","base":4000}],"obsTime":1776283200},"SBST":{"icaoId":"SBST","flightCategory":"VFR","rawOb":"METAR SBST 152000Z 17007KT 9999 FEW040 25/19 Q1014","temp":25,"dewp":19,"wdir":170,"wspd":7,"visib":"6+","altim":1014,"clouds":[{"cover":"FEW","base":4000}],"obsTime":1776283200},"SBTA":{"icaoId":"SBTA","flightCategory":"VFR","rawOb":"METAR SBTA 152000Z 03004KT 360V060 9999 FEW030 26/11 Q1015","temp":26,"dewp":11,"wdir":30,"wspd":4,"visib":"6+","altim":1015,"clouds":[{"cover":"FEW","base":3000}],"obsTime":1776283200},"SBMT":{"icaoId":"SBMT","flightCategory":"VFR","rawOb":"METAR SBMT 152000Z 09005KT CAVOK 25/08 Q1016","temp":25,"dewp":8,"wdir":90,"wspd":5,"visib":"6+","altim":1016,"clouds":[],"obsTime":1776283200},"SBAF":{"icaoId":"SBAF","flightCategory":"VFR","rawOb":"METAR SBAF 152000Z 18009KT 9999 FEW030 26/20 Q1014","temp":26,"dewp":20,"wdir":180,"wspd":9,"visib":"6+","altim":1014,"clouds":[{"cover":"FEW","base":3000}],"obsTime":1776283200},"SBGW":{"icaoId":"SBGW","flightCategory":"VFR","rawOb":"METAR SBGW 152000Z 01005KT 340V060 9999 SCT030 27/13 Q1015","temp":27,"dewp":13,"wdir":10,"wspd":5,"visib":"6+","altim":1015,"clouds":[{"cover":"SCT","base":3000}],"obsTime":1776283200}}}