{"updated":1774815482,"count":85,"data":{"SBMO":{"icaoId":"SBMO","flightCategory":"VFR","rawOb":"METAR SBMO 291900Z 14008KT 9999 VCSH SCT013 FEW020TCU BKN060 26/24 Q1010","temp":26,"dewp":24,"wdir":140,"wspd":8,"visib":"6+","altim":1010,"clouds":[{"cover":"SCT","base":1300},{"cover":"FEW","base":2000},{"cover":"BKN","base":6000}],"obsTime":1774810800},"SBPV":{"icaoId":"SBPV","flightCategory":"IFR","rawOb":"METAR SBPV 291900Z 34003KT 2000 +RA BKN010 BKN030 24/23 Q1011","temp":24,"dewp":23,"wdir":340,"wspd":3,"visib":1.24,"altim":1011,"clouds":[{"cover":"BKN","base":1000},{"cover":"BKN","base":3000}],"obsTime":1774810800},"SBMG":{"icaoId":"SBMG","flightCategory":"VFR","rawOb":"METAR SBMG 291900Z 21010KT 180V240 CAVOK 31/18 Q1016","temp":31,"dewp":18,"wdir":210,"wspd":10,"visib":"6+","altim":1016,"clouds":[],"obsTime":1774810800},"SBFI":{"icaoId":"SBFI","flightCategory":"VFR","rawOb":"METAR SBFI 291900Z 24004KT 9999 FEW030 35/19 Q1014","temp":35,"dewp":19,"wdir":240,"wspd":4,"visib":"6+","altim":1014,"clouds":[{"cover":"FEW","base":3000}],"obsTime":1774810800},"SBMK":{"icaoId":"SBMK","flightCategory":"VFR","rawOb":"METAR SBMK 291900Z 12004KT 9999 SCT036 29/17 Q1016","temp":29,"dewp":17,"wdir":120,"wspd":4,"visib":"6+","altim":1016,"clouds":[{"cover":"SCT","base":3600}],"obsTime":1774810800},"SBFL":{"icaoId":"SBFL","flightCategory":"VFR","rawOb":"METAR SBFL 291900Z 35010KT CAVOK 32/22 Q1013","temp":32,"dewp":22,"wdir":350,"wspd":10,"visib":"6+","altim":1013,"clouds":[],"obsTime":1774810800},"SBCG":{"icaoId":"SBCG","flightCategory":"VFR","rawOb":"METAR SBCG 291900Z 05006KT CAVOK 32/16 Q1015","temp":32,"dewp":16,"wdir":50,"wspd":6,"visib":"6+","altim":1015,"clouds":[],"obsTime":1774810800},"SBAT":{"icaoId":"SBAT","flightCategory":"VFR","rawOb":"METAR SBAT 291900Z 13005KT 9999 SCT030 32/21 Q1011","temp":32,"dewp":21,"wdir":130,"wspd":5,"visib":"6+","altim":1011,"clouds":[{"cover":"SCT","base":3000}],"obsTime":1774810800},"SBMQ":{"icaoId":"SBMQ","flightCategory":"VFR","rawOb":"METAR SBMQ 291900Z 09005KT 030V130 9999 4600N VCSH SCT025 FEW028TCU 28/25 Q1009","temp":28,"dewp":25,"wdir":90,"wspd":5,"visib":"6+","altim":1009,"clouds":[{"cover":"SCT","base":2500},{"cover":"FEW","base":2800}],"obsTime":1774810800},"SBFZ":{"icaoId":"SBFZ","flightCategory":"VFR","rawOb":"METAR SBFZ 291900Z 08004KT 9999 FEW030 BKN100 29/24 Q1009","temp":29,"dewp":24,"wdir":80,"wspd":4,"visib":"6+","altim":1009,"clouds":[{"cover":"FEW","base":3000},{"cover":"BKN","base":10000}],"obsTime":1774810800},"SBNT":{"icaoId":"SBNT","flightCategory":"VFR","rawOb":"METAR SBNT 291900Z 11010KT 9999 FEW026 29/23 Q1009","temp":29,"dewp":23,"wdir":110,"wspd":10,"visib":"6+","altim":1009,"clouds":[{"cover":"FEW","base":2600}],"obsTime":1774810800},"SBCP":{"icaoId":"SBCP","flightCategory":"MVFR","rawOb":"METAR SBCP 291900Z 02003KT 9999 BKN020 28/24 Q1015","temp":28,"dewp":24,"wdir":20,"wspd":3,"visib":"6+","altim":1015,"clouds":[{"cover":"BKN","base":2000}],"obsTime":1774810800},"SBPA":{"icaoId":"SBPA","flightCategory":"VFR","rawOb":"METAR SBPA 291900Z 16011KT 9999 VCSH VCTS FEW030 FEW037CB 31/22 Q1014","temp":31,"dewp":22,"wdir":160,"wspd":11,"visib":"6+","altim":1014,"clouds":[{"cover":"FEW","base":3000},{"cover":"FEW","base":3700}],"obsTime":1774810800},"SBPJ":{"icaoId":"SBPJ","flightCategory":"VFR","rawOb":"METAR SBPJ 291900Z 23004KT 9999 SCT030 33/24 Q1010","temp":33,"dewp":24,"wdir":230,"wspd":4,"visib":"6+","altim":1010,"clouds":[{"cover":"SCT","base":3000}],"obsTime":1774810800},"SBGL":{"icaoId":"SBGL","flightCategory":"VFR","rawOb":"METAR SBGL 291900Z 14012KT 9999 FEW040 28/21 Q1015","temp":28,"dewp":21,"wdir":140,"wspd":12,"visib":"6+","altim":1015,"clouds":[{"cover":"FEW","base":4000}],"obsTime":1774810800},"SBGO":{"icaoId":"SBGO","flightCategory":"VFR","rawOb":"METAR SBGO 291900Z 09009KT 9999 SCT050 FEW053TCU 31/17 Q1016","temp":31,"dewp":17,"wdir":90,"wspd":9,"visib":"6+","altim":1016,"clouds":[{"cover":"SCT","base":5000},{"cover":"FEW","base":5300}],"obsTime":1774810800},"SBMA":{"icaoId":"SBMA","flightCategory":"VFR","rawOb":"METAR SBMA 291900Z 14002KT 9999 FEW025TCU 33/24 Q1008","temp":33,"dewp":24,"wdir":140,"wspd":2,"visib":"6+","altim":1008,"clouds":[{"cover":"FEW","base":2500}],"obsTime":1774810800},"SBBV":{"icaoId":"SBBV","flightCategory":"VFR","rawOb":"METAR SBBV 291900Z 35004KT 9999 BKN040 FEW045TCU BKN070 33/22 Q1008","temp":33,"dewp":22,"wdir":350,"wspd":4,"visib":"6+","altim":1008,"clouds":[{"cover":"BKN","base":4000},{"cover":"FEW","base":4500},{"cover":"BKN","base":7000}],"obsTime":1774810800},"SBCF":{"icaoId":"SBCF","flightCategory":"VFR","rawOb":"METAR SBCF 291900Z 12009KT 9999 SCT040 27/16 Q1018","temp":27,"dewp":16,"wdir":120,"wspd":9,"visib":"6+","altim":1018,"clouds":[{"cover":"SCT","base":4000}],"obsTime":1774810800},"SBME":{"icaoId":"SBME","flightCategory":"VFR","rawOb":"METAR SBME 291900Z 15004KT 9999 FEW030 29/23 Q1015","temp":29,"dewp":23,"wdir":150,"wspd":4,"visib":"6+","altim":1015,"clouds":[{"cover":"FEW","base":3000}],"obsTime":1774810800},"SBCR":{"icaoId":"SBCR","flightCategory":"VFR","rawOb":"METAR SBCR 291900Z 36006KT 310V030 9999 SCT040 34/20 Q1012","temp":34,"dewp":20,"wdir":360,"wspd":6,"visib":"6+","altim":1012,"clouds":[{"cover":"SCT","base":4000}],"obsTime":1774810800},"SBRB":{"icaoId":"SBRB","flightCategory":"MVFR","rawOb":"METAR SBRB 291900Z 07005KT 9999 BKN030 29/23 Q1011","temp":29,"dewp":23,"wdir":70,"wspd":5,"visib":"6+","altim":1011,"clouds":[{"cover":"BKN","base":3000}],"obsTime":1774810800},"SBCB":{"icaoId":"SBCB","flightCategory":"VFR","rawOb":"METAR SBCB 291900Z 12011KT CAVOK 28/21 Q1015","temp":28,"dewp":21,"wdir":120,"wspd":11,"visib":"6+","altim":1015,"clouds":[],"obsTime":1774810800},"SBRF":{"icaoId":"SBRF","flightCategory":"VFR","rawOb":"METAR SBRF 291900Z 12007KT 070V150 9999 FEW022 29/24 Q1009","temp":29,"dewp":24,"wdir":120,"wspd":7,"visib":"6+","altim":1009,"clouds":[{"cover":"FEW","base":2200}],"obsTime":1774810800},"SBSG":{"icaoId":"SBSG","flightCategory":"VFR","rawOb":"METAR SBSG 291900Z 11008KT 090V150 9999 SCT030 SCT100 29/24 Q1009","temp":29,"dewp":24,"wdir":110,"wspd":8,"visib":"6+","altim":1009,"clouds":[{"cover":"SCT","base":3000},{"cover":"SCT","base":10000}],"obsTime":1774810800},"SBGR":{"icaoId":"SBGR","flightCategory":"VFR","rawOb":"METAR SBGR 291900Z 06007KT CAVOK 30/12 Q1018","temp":30,"dewp":12,"wdir":60,"wspd":7,"visib":"6+","altim":1018,"clouds":[],"obsTime":1774810800},"SBSL":{"icaoId":"SBSL","flightCategory":"VFR","rawOb":"METAR SBSL 291900Z 07004KT 9999 SCT021 FEW025TCU BKN080 27/24 Q1009","temp":27,"dewp":24,"wdir":70,"wspd":4,"visib":"6+","altim":1009,"clouds":[{"cover":"SCT","base":2100},{"cover":"FEW","base":2500},{"cover":"BKN","base":8000}],"obsTime":1774810800},"SBHT":{"icaoId":"SBHT","flightCategory":"VFR","rawOb":"METAR SBHT 291900Z 34004KT 9999 TS SCT025 FEW030CB BKN090 30/26 Q1008","temp":30,"dewp":26,"wdir":340,"wspd":4,"visib":"6+","altim":1008,"clouds":[{"cover":"SCT","base":2500},{"cover":"FEW","base":3000},{"cover":"BKN","base":9000}],"obsTime":1774810800},"SBSN":{"icaoId":"SBSN","flightCategory":"VFR","rawOb":"METAR SBSN 291900Z 09003KT 9999 SCT017 SCT100 30/25 Q1009","temp":30,"dewp":25,"wdir":90,"wspd":3,"visib":"6+","altim":1009,"clouds":[{"cover":"SCT","base":1700},{"cover":"SCT","base":10000}],"obsTime":1774810800},"SBCT":{"icaoId":"SBCT","flightCategory":"VFR","rawOb":"METAR SBCT 291900Z 13003KT 070V170 CAVOK 29/13 Q1019","temp":29,"dewp":13,"wdir":130,"wspd":3,"visib":"6+","altim":1019,"clouds":[],"obsTime":1774810800},"SBIL":{"icaoId":"SBIL","flightCategory":"VFR","rawOb":"METAR SBIL 291900Z 18007KT 9999 VCSH SCT020 FEW025TCU SCT045 29/24 Q1012","temp":29,"dewp":24,"wdir":180,"wspd":7,"visib":"6+","altim":1012,"clouds":[{"cover":"SCT","base":2000},{"cover":"FEW","base":2500},{"cover":"SCT","base":4500}],"obsTime":1774810800},"SBSP":{"icaoId":"SBSP","flightCategory":"VFR","rawOb":"METAR SBSP 291900Z 17011KT CAVOK 27/20 Q1019","temp":27,"dewp":20,"wdir":170,"wspd":11,"visib":"6+","altim":1019,"clouds":[],"obsTime":1774810800},"SBBR":{"icaoId":"SBBR","flightCategory":"VFR","rawOb":"METAR SBBR 291900Z 15010KT 9999 BKN040 FEW045TCU 27/16 Q1018","temp":27,"dewp":16,"wdir":150,"wspd":10,"visib":"6+","altim":1018,"clouds":[{"cover":"BKN","base":4000},{"cover":"FEW","base":4500}],"obsTime":1774810800},"SBSV":{"icaoId":"SBSV","flightCategory":"VFR","rawOb":"METAR SBSV 291900Z 17008KT 140V200 9999 VCSH SCT021 FEW023TCU BKN060 29/23 Q1011","temp":29,"dewp":23,"wdir":170,"wspd":8,"visib":"6+","altim":1011,"clouds":[{"cover":"SCT","base":2100},{"cover":"FEW","base":2300},{"cover":"BKN","base":6000}],"obsTime":1774810800},"SBVT":{"icaoId":"SBVT","flightCategory":"VFR","rawOb":"METAR SBVT 291900Z 15012KT 9999 FEW025 FEW030TCU SCT070 28/24 Q1014","temp":28,"dewp":24,"wdir":150,"wspd":12,"visib":"6+","altim":1014,"clouds":[{"cover":"FEW","base":2500},{"cover":"FEW","base":3000},{"cover":"SCT","base":7000}],"obsTime":1774810800},"SBJU":{"icaoId":"SBJU","flightCategory":"VFR","rawOb":"METAR SBJU 291900Z 12006KT 9999 SCT022 31/21 Q1010","temp":31,"dewp":21,"wdir":120,"wspd":6,"visib":"6+","altim":1010,"clouds":[{"cover":"SCT","base":2200}],"obsTime":1774810800},"SBTE":{"icaoId":"SBTE","flightCategory":"VFR","rawOb":"SPECI SBTE 291823Z 26004KT 9999 SCT020 FEW025TCU BKN090 28/25 Q1008 RETS","temp":28,"dewp":25,"wdir":260,"wspd":4,"visib":"6+","altim":1008,"clouds":[{"cover":"SCT","base":2000},{"cover":"FEW","base":2500},{"cover":"BKN","base":9000}],"obsTime":1774808580},"SBUL":{"icaoId":"SBUL","flightCategory":"VFR","rawOb":"METAR SBUL 291900Z 00000KT 9999 SCT049 28/15 Q1018","temp":28,"dewp":15,"wdir":0,"wspd":0,"visib":"6+","altim":1018,"clouds":[{"cover":"SCT","base":4900}],"obsTime":1774810800},"SBCZ":{"icaoId":"SBCZ","flightCategory":"MVFR","rawOb":"METAR SBCZ 291900Z 18008KT 9999 VCSH BKN025 FEW025TCU SCT100 29/24 Q1012","temp":29,"dewp":24,"wdir":180,"wspd":8,"visib":"6+","altim":1012,"clouds":[{"cover":"BKN","base":2500},{"cover":"FEW","base":2500},{"cover":"SCT","base":10000}],"obsTime":1774810800},"SBBE":{"icaoId":"SBBE","flightCategory":"VFR","rawOb":"METAR SBBE 291900Z 05004KT 9999 FEW033TCU BKN041 31/23 Q1009","temp":31,"dewp":23,"wdir":50,"wspd":4,"visib":"6+","altim":1009,"clouds":[{"cover":"FEW","base":3300},{"cover":"BKN","base":4100}],"obsTime":1774810800},"SBUR":{"icaoId":"SBUR","flightCategory":"VFR","rawOb":"METAR SBUR 291900Z 18007KT 9999 BKN049 29/16 Q1017","temp":29,"dewp":16,"wdir":180,"wspd":7,"visib":"6+","altim":1017,"clouds":[{"cover":"BKN","base":4900}],"obsTime":1774810800},"SBKP":{"icaoId":"SBKP","flightCategory":"VFR","rawOb":"METAR SBKP 291900Z 20004KT 130V290 9999 SCT045 31/16 Q1017","temp":31,"dewp":16,"wdir":200,"wspd":4,"visib":"6+","altim":1017,"clouds":[{"cover":"SCT","base":4500}],"obsTime":1774810800},"SBLO":{"icaoId":"SBLO","flightCategory":"VFR","rawOb":"METAR SBLO 291900Z 11004KT 9999 FEW030 32/16 Q1016","temp":32,"dewp":16,"wdir":110,"wspd":4,"visib":"6+","altim":1016,"clouds":[{"cover":"FEW","base":3000}],"obsTime":1774810800},"SBEG":{"icaoId":"SBEG","flightCategory":"MVFR","rawOb":"METAR SBEG 291900Z 14006KT 9999 BKN020 BKN100 26/24 Q1010","temp":26,"dewp":24,"wdir":140,"wspd":6,"visib":"6+","altim":1010,"clouds":[{"cover":"BKN","base":2000},{"cover":"BKN","base":10000}],"obsTime":1774810800},"SBAX":{"icaoId":"SBAX","flightCategory":"VFR","rawOb":"METAR SBAX 291900Z AUTO 12005KT 080V160 CAVOK 28/14 Q1018","temp":28,"dewp":14,"wdir":120,"wspd":5,"visib":"6+","altim":1018,"clouds":[],"obsTime":1774810800},"SBPB":{"icaoId":"SBPB","flightCategory":"VFR","rawOb":"METAR SBPB 291900Z 04008KT 9999 FEW020 BKN100 29/25 Q1009","temp":29,"dewp":25,"wdir":40,"wspd":8,"visib":"6+","altim":1009,"clouds":[{"cover":"FEW","base":2000},{"cover":"BKN","base":10000}],"obsTime":1774810800},"SBBU":{"icaoId":"SBBU","flightCategory":"VFR","rawOb":"METAR SBBU 291900Z /////KT 9999 FEW040 32/16 Q1017","temp":32,"dewp":16,"wdir":null,"wspd":null,"visib":"6+","altim":1017,"clouds":[{"cover":"FEW","base":4000}],"obsTime":1774810800},"SBPL":{"icaoId":"SBPL","flightCategory":"VFR","rawOb":"METAR SBPL 291900Z 15005KT 9999 FEW030 BKN070 33/19 Q1010","temp":33,"dewp":19,"wdir":150,"wspd":5,"visib":"6+","altim":1010,"clouds":[{"cover":"FEW","base":3000},{"cover":"BKN","base":7000}],"obsTime":1774810800},"SBCO":{"icaoId":"SBCO","flightCategory":"VFR","rawOb":"METAR SBCO 291900Z 16008KT 9999 FEW030TCU 32/23 Q1015","temp":32,"dewp":23,"wdir":160,"wspd":8,"visib":"6+","altim":1015,"clouds":[{"cover":"FEW","base":3000}],"obsTime":1774810800},"SBDN":{"icaoId":"SBDN","flightCategory":"VFR","rawOb":"METAR SBDN 291900Z 03004KT CAVOK 34/18 Q1015","temp":34,"dewp":18,"wdir":30,"wspd":4,"visib":"6+","altim":1015,"clouds":[],"obsTime":1774810800},"SBPP":{"icaoId":"SBPP","flightCategory":"VFR","rawOb":"METAR SBPP 291900Z 11006KT 9999 SCT025 31/18 Q1017","temp":31,"dewp":18,"wdir":110,"wspd":6,"visib":"6+","altim":1017,"clouds":[{"cover":"SCT","base":2500}],"obsTime":1774810800},"SBOI":{"icaoId":"SBOI","flightCategory":"MVFR","rawOb":"METAR SBOI 291900Z AUTO 11004KT 030V160 9999 FEW024 BKN029 27/25 Q1009 RERA","temp":27,"dewp":25,"wdir":110,"wspd":4,"visib":"6+","altim":1009,"clouds":[{"cover":"FEW","base":2400},{"cover":"BKN","base":2900}],"obsTime":1774810800},"SBPS":{"icaoId":"SBPS","flightCategory":"VFR","rawOb":"METAR SBPS 291900Z VRB04KT 9999 FEW012 SCT053 26/24 Q1013","temp":26,"dewp":24,"wdir":"VRB","wspd":4,"visib":"6+","altim":1013,"clouds":[{"cover":"FEW","base":1200},{"cover":"SCT","base":5300}],"obsTime":1774810800},"SBBH":{"icaoId":"SBBH","flightCategory":"VFR","rawOb":"METAR SBBH 291900Z 00000KT 9999 SCT040 28/16 Q1017","temp":28,"dewp":16,"wdir":0,"wspd":0,"visib":"6+","altim":1017,"clouds":[{"cover":"SCT","base":4000}],"obsTime":1774810800},"SBSC":{"icaoId":"SBSC","flightCategory":"VFR","rawOb":"METAR SBSC 291900Z 18007KT CAVOK 30/20 Q1015","temp":30,"dewp":20,"wdir":180,"wspd":7,"visib":"6+","altim":1015,"clouds":[],"obsTime":1774810800},"SBES":{"icaoId":"SBES","flightCategory":"VFR","rawOb":"METAR SBES 291900Z 11008KT 060V140 9999 FEW020 28/// Q1015","temp":null,"dewp":null,"wdir":110,"wspd":8,"visib":"6+","altim":1015,"clouds":[{"cover":"FEW","base":2000}],"obsTime":1774810800},"SBSJ":{"icaoId":"SBSJ","flightCategory":"VFR","rawOb":"METAR SBSJ 291900Z 16004KT 050V210 CAVOK 30/17 Q1017","temp":30,"dewp":17,"wdir":160,"wspd":4,"visib":"6+","altim":1017,"clouds":[],"obsTime":1774810800},"SBAR":{"icaoId":"SBAR","flightCategory":"VFR","rawOb":"METAR SBAR 291900Z 10011KT 9999 VCSH SCT023 FEW026TCU BKN100 29/23 Q1010","temp":29,"dewp":23,"wdir":100,"wspd":11,"visib":"6+","altim":1010,"clouds":[{"cover":"SCT","base":2300},{"cover":"FEW","base":2600},{"cover":"BKN","base":10000}],"obsTime":1774810800},"SBSM":{"icaoId":"SBSM","flightCategory":"VFR","rawOb":"METAR SBSM 291900Z 24004KT 150V280 9999 SCT040 FEW045TCU 35/23 Q1014","temp":35,"dewp":23,"wdir":240,"wspd":4,"visib":"6+","altim":1014,"clouds":[{"cover":"SCT","base":4000},{"cover":"FEW","base":4500}],"obsTime":1774810800},"SBIP":{"icaoId":"SBIP","flightCategory":"VFR","rawOb":"METAR SBIP 291900Z AUTO 04004KT 350V060 CAVOK 27/20 Q1015","temp":27,"dewp":20,"wdir":40,"wspd":4,"visib":"6+","altim":1015,"clouds":[],"obsTime":1774810800},"SBSR":{"icaoId":"SBSR","flightCategory":"VFR","rawOb":"METAR SBSR 291900Z 14006KT 9999 SCT030 31/13 Q1016","temp":31,"dewp":13,"wdir":140,"wspd":6,"visib":"6+","altim":1016,"clouds":[{"cover":"SCT","base":3000}],"obsTime":1774810800},"SBTF":{"icaoId":"SBTF","flightCategory":"VFR","rawOb":"METAR SBTF 291900Z 09005KT 9999 SCT015 SCT090 30/25 Q1008","temp":30,"dewp":25,"wdir":90,"wspd":5,"visib":"6+","altim":1008,"clouds":[{"cover":"SCT","base":1500},{"cover":"SCT","base":9000}],"obsTime":1774810800},"SBCC":{"icaoId":"SBCC","flightCategory":"VFR","rawOb":"METAR SBCC 291900Z 08008KT 9999 FEW020 31/19 Q1011","temp":31,"dewp":19,"wdir":80,"wspd":8,"visib":"6+","altim":1011,"clouds":[{"cover":"FEW","base":2000}],"obsTime":1774810800},"SBTT":{"icaoId":"SBTT","flightCategory":"VFR","rawOb":"METAR SBTT 291900Z 24006KT 9999 SCT020 30/23 Q1010","temp":30,"dewp":23,"wdir":240,"wspd":6,"visib":"6+","altim":1010,"clouds":[{"cover":"SCT","base":2000}],"obsTime":1774810800},"SBKG":{"icaoId":"SBKG","flightCategory":"VFR","rawOb":"METAR SBKG 291900Z 06010KT 9999 FEW030 29/17 Q1011","temp":29,"dewp":17,"wdir":60,"wspd":10,"visib":"6+","altim":1011,"clouds":[{"cover":"FEW","base":3000}],"obsTime":1774810800},"SBUY":{"icaoId":"SBUY","flightCategory":"VFR","rawOb":"METAR SBUY 291900Z 20002KT 9999 -RA SCT025 FEW030TCU BKN090 25/24 Q1009","temp":25,"dewp":24,"wdir":200,"wspd":2,"visib":"6+","altim":1009,"clouds":[{"cover":"SCT","base":2500},{"cover":"FEW","base":3000},{"cover":"BKN","base":9000}],"obsTime":1774810800},"SBCJ":{"icaoId":"SBCJ","flightCategory":"VFR","rawOb":"METAR SBCJ 291900Z 00000KT 9999 SCT023 28/21 Q1013","temp":28,"dewp":21,"wdir":0,"wspd":0,"visib":"6+","altim":1013,"clouds":[{"cover":"SCT","base":2300}],"obsTime":1774810800},"SBVH":{"icaoId":"SBVH","flightCategory":"VFR","rawOb":"METAR SBVH 291900Z 09012KT 9999 SCT030 27/21 Q1014","temp":27,"dewp":21,"wdir":90,"wspd":12,"visib":"6+","altim":1014,"clouds":[{"cover":"SCT","base":3000}],"obsTime":1774810800},"SBBQ":{"icaoId":"SBBQ","flightCategory":"VFR","rawOb":"METAR SBBQ 291900Z 08005KT CAVOK 24/16 Q1022","temp":24,"dewp":16,"wdir":80,"wspd":5,"visib":"6+","altim":1022,"clouds":[],"obsTime":1774810800},"SBCA":{"icaoId":"SBCA","flightCategory":"VFR","rawOb":"METAR SBCA 291900Z 20005KT CAVOK 29/17 Q1019","temp":29,"dewp":17,"wdir":200,"wspd":5,"visib":"6+","altim":1019,"clouds":[],"obsTime":1774810800},"SBGM":{"icaoId":"SBGM","flightCategory":"MVFR","rawOb":"METAR SBGM 291900Z 04004KT 8000 -DZ SCT010 BKN030 OVC043 25/24 Q1011","temp":25,"dewp":24,"wdir":40,"wspd":4,"visib":4.97,"altim":1011,"clouds":[{"cover":"SCT","base":1000},{"cover":"BKN","base":3000},{"cover":"OVC","base":4300}],"obsTime":1774810800},"SBJP":{"icaoId":"SBJP","flightCategory":"VFR","rawOb":"METAR SBJP 291900Z 10010KT 9999 FEW035 29/22 Q1009","temp":29,"dewp":22,"wdir":100,"wspd":10,"visib":"6+","altim":1009,"clouds":[{"cover":"FEW","base":3500}],"obsTime":1774810800},"SBIH":{"icaoId":"SBIH","flightCategory":"VFR","rawOb":"METAR SBIH 291900Z 10002KT 9999 SCT020 FEW023TCU 32/23 Q1008","temp":32,"dewp":23,"wdir":100,"wspd":2,"visib":"6+","altim":1008,"clouds":[{"cover":"SCT","base":2000},{"cover":"FEW","base":2300}],"obsTime":1774810800},"SBLE":{"icaoId":"SBLE","flightCategory":"VFR","rawOb":"METAR SBLE 291900Z AUTO 15006KT 110V170 9999 FEW037 27/20 Q1014","temp":27,"dewp":20,"wdir":150,"wspd":6,"visib":"6+","altim":1014,"clouds":[{"cover":"FEW","base":3700}],"obsTime":1774810800},"SBTC":{"icaoId":"SBTC","flightCategory":"VFR","rawOb":"METAR SBTC 291900Z 16007KT 9999 VCTS SCT020 FEW025CB BKN050 27/23 Q1012","temp":27,"dewp":23,"wdir":160,"wspd":7,"visib":"6+","altim":1012,"clouds":[{"cover":"SCT","base":2000},{"cover":"FEW","base":2500},{"cover":"BKN","base":5000}],"obsTime":1774810800},"SBJV":{"icaoId":"SBJV","flightCategory":"VFR","rawOb":"METAR SBJV 291900Z 06008KT 9999 FEW030 32/24 Q1014","temp":32,"dewp":24,"wdir":60,"wspd":8,"visib":"6+","altim":1014,"clouds":[{"cover":"FEW","base":3000}],"obsTime":1774810800},"SBPF":{"icaoId":"SBPF","flightCategory":"VFR","rawOb":"METAR SBPF 292000Z 22007KT CAVOK 30/18 Q1018","temp":30,"dewp":18,"wdir":220,"wspd":7,"visib":"6+","altim":1018,"clouds":[],"obsTime":1774814400},"SBAN":{"icaoId":"SBAN","flightCategory":"VFR","rawOb":"METAR SBAN 291900Z 16008KT 9999 VCSH SCT040 FEW045TCU 27/15 Q1019","temp":27,"dewp":15,"wdir":160,"wspd":8,"visib":"6+","altim":1019,"clouds":[{"cover":"SCT","base":4000},{"cover":"FEW","base":4500}],"obsTime":1774810800},"SBAF":{"icaoId":"SBAF","flightCategory":"VFR","rawOb":"METAR SBAF 291900Z 20011KT 9999 FEW030 30/21 Q1015","temp":30,"dewp":21,"wdir":200,"wspd":11,"visib":"6+","altim":1015,"clouds":[{"cover":"FEW","base":3000}],"obsTime":1774810800},"SBGW":{"icaoId":"SBGW","flightCategory":"VFR","rawOb":"METAR SBGW 291900Z 36006KT 340V040 9999 FEW035 31/14 Q1016","temp":31,"dewp":14,"wdir":360,"wspd":6,"visib":"6+","altim":1016,"clouds":[{"cover":"FEW","base":3500}],"obsTime":1774810800},"SBJR":{"icaoId":"SBJR","flightCategory":"VFR","rawOb":"METAR SBJR 291900Z 15010KT 9999 FEW025 29/21 Q1015","temp":29,"dewp":21,"wdir":150,"wspd":10,"visib":"6+","altim":1015,"clouds":[{"cover":"FEW","base":2500}],"obsTime":1774810800},"SBLS":{"icaoId":"SBLS","flightCategory":"VFR","rawOb":"METAR SBLS 291900Z 12006KT 050V140 9999 SCT040 FEW050TCU 27/17 Q1018","temp":27,"dewp":17,"wdir":120,"wspd":6,"visib":"6+","altim":1018,"clouds":[{"cover":"SCT","base":4000},{"cover":"FEW","base":5000}],"obsTime":1774810800},"SBMT":{"icaoId":"SBMT","flightCategory":"VFR","rawOb":"METAR SBMT 291900Z 17008KT 110V200 CAVOK 28/19 Q1018","temp":28,"dewp":19,"wdir":170,"wspd":8,"visib":"6+","altim":1018,"clouds":[],"obsTime":1774810800},"SBST":{"icaoId":"SBST","flightCategory":"VFR","rawOb":"METAR SBST 291900Z 10004KT 9999 BKN031 28/22 Q1015","temp":28,"dewp":22,"wdir":100,"wspd":4,"visib":"6+","altim":1015,"clouds":[{"cover":"BKN","base":3100}],"obsTime":1774810800},"SBTA":{"icaoId":"SBTA","flightCategory":"VFR","rawOb":"METAR SBTA 291900Z 01004KT 330V060 9999 FEW030 28/24 Q1016","temp":28,"dewp":24,"wdir":10,"wspd":4,"visib":"6+","altim":1016,"clouds":[{"cover":"FEW","base":3000}],"obsTime":1774810800}}}