{"updated":1783169567,"count":86,"data":{"SBGO":{"icaoId":"SBGO","flightCategory":"VFR","rawOb":"METAR SBGO 041100Z VRB02KT CAVOK 15/13 Q1022","temp":15,"dewp":13,"wdir":"VRB","wspd":2,"visib":"6+","altim":1022,"clouds":[],"obsTime":1783162800},"SBCZ":{"icaoId":"SBCZ","flightCategory":"VFR","rawOb":"METAR SBCZ 041100Z 15002KT CAVOK 20/20 Q1016","temp":20,"dewp":20,"wdir":150,"wspd":2,"visib":"6+","altim":1016,"clouds":[],"obsTime":1783162800},"SBNT":{"icaoId":"SBNT","flightCategory":"VFR","rawOb":"METAR SBNT 041100Z 18009KT 9999 SCT013 SCT021 BKN070 25/22 Q1015","temp":25,"dewp":22,"wdir":180,"wspd":9,"visib":"6+","altim":1015,"clouds":[{"cover":"SCT","base":1300},{"cover":"SCT","base":2100},{"cover":"BKN","base":7000}],"obsTime":1783162800},"SBSV":{"icaoId":"SBSV","flightCategory":"MVFR","rawOb":"METAR SBSV 041100Z 17007KT 9999 BKN025 OVC050 25/20 Q1018","temp":25,"dewp":20,"wdir":170,"wspd":7,"visib":"6+","altim":1018,"clouds":[{"cover":"BKN","base":2500},{"cover":"OVC","base":5000}],"obsTime":1783162800},"SBCG":{"icaoId":"SBCG","flightCategory":"VFR","rawOb":"METAR SBCG 041100Z 17004KT 130V190 CAVOK 12/11 Q1021","temp":12,"dewp":11,"wdir":170,"wspd":4,"visib":"6+","altim":1021,"clouds":[],"obsTime":1783162800},"SBVT":{"icaoId":"SBVT","flightCategory":"VFR","rawOb":"METAR SBVT 041100Z 30001KT 9999 FEW015 SCT020 19/19 Q1020","temp":19,"dewp":19,"wdir":300,"wspd":1,"visib":"6+","altim":1020,"clouds":[{"cover":"FEW","base":1500},{"cover":"SCT","base":2000}],"obsTime":1783162800},"SBBE":{"icaoId":"SBBE","flightCategory":"VFR","rawOb":"METAR SBBE 041100Z 07007KT CAVOK 27/24 Q1013","temp":27,"dewp":24,"wdir":70,"wspd":7,"visib":"6+","altim":1013,"clouds":[],"obsTime":1783162800},"SBMO":{"icaoId":"SBMO","flightCategory":"VFR","rawOb":"METAR SBMO 041100Z 28003KT 9999 FEW025 24/22 Q1017","temp":24,"dewp":22,"wdir":280,"wspd":3,"visib":"6+","altim":1017,"clouds":[{"cover":"FEW","base":2500}],"obsTime":1783162800},"SBAT":{"icaoId":"SBAT","flightCategory":"VFR","rawOb":"METAR SBAT 041100Z 18003KT CAVOK 20/17 Q1017","temp":20,"dewp":17,"wdir":180,"wspd":3,"visib":"6+","altim":1017,"clouds":[],"obsTime":1783162800},"SBHT":{"icaoId":"SBHT","flightCategory":"VFR","rawOb":"METAR SBHT 041100Z 25003KT CAVOK 23/22 Q1013","temp":23,"dewp":22,"wdir":250,"wspd":3,"visib":"6+","altim":1013,"clouds":[],"obsTime":1783162800},"SBMG":{"icaoId":"SBMG","flightCategory":"VFR","rawOb":"METAR SBMG 041100Z 18004KT CAVOK 13/12 Q1021","temp":13,"dewp":12,"wdir":180,"wspd":4,"visib":"6+","altim":1021,"clouds":[],"obsTime":1783162800},"SBIL":{"icaoId":"SBIL","flightCategory":"VFR","rawOb":"METAR SBIL 041100Z 31005KT CAVOK 21/20 Q1019","temp":21,"dewp":20,"wdir":310,"wspd":5,"visib":"6+","altim":1019,"clouds":[],"obsTime":1783162800},"SBJU":{"icaoId":"SBJU","flightCategory":"VFR","rawOb":"METAR SBJU 041100Z 17008KT 9999 FEW020 24/15 Q1018","temp":24,"dewp":15,"wdir":170,"wspd":8,"visib":"6+","altim":1018,"clouds":[{"cover":"FEW","base":2000}],"obsTime":1783162800},"SBBR":{"icaoId":"SBBR","flightCategory":"VFR","rawOb":"METAR SBBR 041100Z 00000KT CAVOK 14/11 Q1023","temp":14,"dewp":11,"wdir":0,"wspd":0,"visib":"6+","altim":1023,"clouds":[],"obsTime":1783162800},"SBME":{"icaoId":"SBME","flightCategory":"MVFR","rawOb":"METAR SBME 041100Z 29002KT 8000 BKN040 21/19 Q1021","temp":21,"dewp":19,"wdir":290,"wspd":2,"visib":4.97,"altim":1021,"clouds":[{"cover":"BKN","base":4000}],"obsTime":1783162800},"SBEG":{"icaoId":"SBEG","flightCategory":"VFR","rawOb":"METAR SBEG 041100Z 14004KT CAVOK 27/23 Q1013","temp":27,"dewp":23,"wdir":140,"wspd":4,"visib":"6+","altim":1013,"clouds":[],"obsTime":1783162800},"SBMK":{"icaoId":"SBMK","flightCategory":"VFR","rawOb":"METAR SBMK 041100Z 18003KT CAVOK 18/16 Q1022","temp":18,"dewp":16,"wdir":180,"wspd":3,"visib":"6+","altim":1022,"clouds":[],"obsTime":1783162800},"SBUL":{"icaoId":"SBUL","flightCategory":"VFR","rawOb":"METAR SBUL 041100Z 14005KT CAVOK 18/11 Q1023","temp":18,"dewp":11,"wdir":140,"wspd":5,"visib":"6+","altim":1023,"clouds":[],"obsTime":1783162800},"SBUR":{"icaoId":"SBUR","flightCategory":"VFR","rawOb":"METAR SBUR 041100Z 08003KT CAVOK 19/13 Q1022","temp":19,"dewp":13,"wdir":80,"wspd":3,"visib":"6+","altim":1022,"clouds":[],"obsTime":1783162800},"SBCR":{"icaoId":"SBCR","flightCategory":"MVFR","rawOb":"METAR SBCR 041100Z 22005KT 170V280 7000 SCT004 OVC011 12/12 Q1021","temp":12,"dewp":12,"wdir":220,"wspd":5,"visib":4.35,"altim":1021,"clouds":[{"cover":"SCT","base":400},{"cover":"OVC","base":1100}],"obsTime":1783162800},"SBPV":{"icaoId":"SBPV","flightCategory":"VFR","rawOb":"METAR SBPV 041100Z 17007KT CAVOK 21/18 Q1015","temp":21,"dewp":18,"wdir":170,"wspd":7,"visib":"6+","altim":1015,"clouds":[],"obsTime":1783162800},"SBMA":{"icaoId":"SBMA","flightCategory":"VFR","rawOb":"METAR SBMA 041100Z 20004KT CAVOK 23/19 Q1013","temp":23,"dewp":19,"wdir":200,"wspd":4,"visib":"6+","altim":1013,"clouds":[],"obsTime":1783162800},"SBPA":{"icaoId":"SBPA","flightCategory":"MVFR","rawOb":"METAR SBPA 041100Z 31004KT 270V360 9999 SCT013 OVC022 08/06 Q1026","temp":8,"dewp":6,"wdir":310,"wspd":4,"visib":"6+","altim":1026,"clouds":[{"cover":"SCT","base":1300},{"cover":"OVC","base":2200}],"obsTime":1783162800},"SBCB":{"icaoId":"SBCB","flightCategory":"VFR","rawOb":"METAR SBCB 041100Z 30006KT CAVOK 23/20 Q1021","temp":23,"dewp":20,"wdir":300,"wspd":6,"visib":"6+","altim":1021,"clouds":[],"obsTime":1783162800},"SBTE":{"icaoId":"SBTE","flightCategory":"VFR","rawOb":"METAR SBTE 041100Z 17004KT CAVOK 26/19 Q1014","temp":26,"dewp":19,"wdir":170,"wspd":4,"visib":"6+","altim":1014,"clouds":[],"obsTime":1783162800},"SBSG":{"icaoId":"SBSG","flightCategory":"MVFR","rawOb":"METAR SBSG 041100Z 17007KT 120V210 9999 BKN013 BKN050 25/23 Q1016","temp":25,"dewp":23,"wdir":170,"wspd":7,"visib":"6+","altim":1016,"clouds":[{"cover":"BKN","base":1300},{"cover":"BKN","base":5000}],"obsTime":1783162800},"SBGL":{"icaoId":"SBGL","flightCategory":"MVFR","rawOb":"METAR SBGL 041100Z 30007KT 9999 BKN030 BKN040 22/19 Q1021","temp":22,"dewp":19,"wdir":300,"wspd":7,"visib":"6+","altim":1021,"clouds":[{"cover":"BKN","base":3000},{"cover":"BKN","base":4000}],"obsTime":1783162800},"SBPJ":{"icaoId":"SBPJ","flightCategory":"VFR","rawOb":"METAR SBPJ 041100Z 15003KT 100V200 CAVOK 24/16 Q1016","temp":24,"dewp":16,"wdir":150,"wspd":3,"visib":"6+","altim":1016,"clouds":[],"obsTime":1783162800},"SBGR":{"icaoId":"SBGR","flightCategory":"MVFR","rawOb":"METAR SBGR 041100Z 14005KT 9999 BKN010 BKN020 16/14 Q1024","temp":16,"dewp":14,"wdir":140,"wspd":5,"visib":"6+","altim":1024,"clouds":[{"cover":"BKN","base":1000},{"cover":"BKN","base":2000}],"obsTime":1783162800},"SBSP":{"icaoId":"SBSP","flightCategory":"IFR","rawOb":"METAR SBSP 041100Z 16009KT 9999 SCT007 BKN008 15/14 Q1025","temp":15,"dewp":14,"wdir":160,"wspd":9,"visib":"6+","altim":1025,"clouds":[{"cover":"SCT","base":700},{"cover":"BKN","base":800}],"obsTime":1783162800},"SBSN":{"icaoId":"SBSN","flightCategory":"VFR","rawOb":"METAR SBSN 041100Z 17003KT 9999 FEW018 26/25 Q1012","temp":26,"dewp":25,"wdir":170,"wspd":3,"visib":"6+","altim":1012,"clouds":[{"cover":"FEW","base":1800}],"obsTime":1783162800},"SBFI":{"icaoId":"SBFI","flightCategory":"VFR","rawOb":"METAR SBFI 041100Z 21002KT 9999 FEW020 BKN080 07/07 Q1022","temp":7,"dewp":7,"wdir":210,"wspd":2,"visib":"6+","altim":1022,"clouds":[{"cover":"FEW","base":2000},{"cover":"BKN","base":8000}],"obsTime":1783162800},"SBCP":{"icaoId":"SBCP","flightCategory":"MVFR","rawOb":"METAR SBCP 041100Z 27006KT 9999 BKN025 22/19 Q1021","temp":22,"dewp":19,"wdir":270,"wspd":6,"visib":"6+","altim":1021,"clouds":[{"cover":"BKN","base":2500}],"obsTime":1783162800},"SBBV":{"icaoId":"SBBV","flightCategory":"VFR","rawOb":"METAR SBBV 041100Z 29004KT 9999 FEW040 FEW045TCU BKN100 25/24 Q1014","temp":25,"dewp":24,"wdir":290,"wspd":4,"visib":"6+","altim":1014,"clouds":[{"cover":"FEW","base":4000},{"cover":"FEW","base":4500},{"cover":"BKN","base":10000}],"obsTime":1783162800},"SBSL":{"icaoId":"SBSL","flightCategory":"VFR","rawOb":"METAR SBSL 041100Z 08008KT 9999 SCT020 28/25 Q1013","temp":28,"dewp":25,"wdir":80,"wspd":8,"visib":"6+","altim":1013,"clouds":[{"cover":"SCT","base":2000}],"obsTime":1783162800},"SBCF":{"icaoId":"SBCF","flightCategory":"VFR","rawOb":"METAR SBCF 041100Z 19003KT CAVOK 16/13 Q1023","temp":16,"dewp":13,"wdir":190,"wspd":3,"visib":"6+","altim":1023,"clouds":[],"obsTime":1783162800},"SBMQ":{"icaoId":"SBMQ","flightCategory":"MVFR","rawOb":"METAR SBMQ 041100Z 29002KT 9999 BKN017 SCT070 26/25 Q1013","temp":26,"dewp":25,"wdir":290,"wspd":2,"visib":"6+","altim":1013,"clouds":[{"cover":"BKN","base":1700},{"cover":"SCT","base":7000}],"obsTime":1783162800},"SBFZ":{"icaoId":"SBFZ","flightCategory":"MVFR","rawOb":"METAR SBFZ 041100Z 14009KT 8000 -RA FEW007 BKN030 OVC060 24/23 Q1015","temp":24,"dewp":23,"wdir":140,"wspd":9,"visib":4.97,"altim":1015,"clouds":[{"cover":"FEW","base":700},{"cover":"BKN","base":3000},{"cover":"OVC","base":6000}],"obsTime":1783162800},"SBRB":{"icaoId":"SBRB","flightCategory":"VFR","rawOb":"METAR SBRB 041100Z 17004KT 9999 FEW005 16/15 Q1017","temp":16,"dewp":15,"wdir":170,"wspd":4,"visib":"6+","altim":1017,"clouds":[{"cover":"FEW","base":500}],"obsTime":1783162800},"SBCT":{"icaoId":"SBCT","flightCategory":"LIFR","rawOb":"METAR SBCT 041100Z 05004KT 6000 BKN003 OVC005 11/11 Q1023","temp":11,"dewp":11,"wdir":50,"wspd":4,"visib":3.73,"altim":1023,"clouds":[{"cover":"BKN","base":300},{"cover":"OVC","base":500}],"obsTime":1783162800},"SBRF":{"icaoId":"SBRF","flightCategory":"MVFR","rawOb":"METAR SBRF 041100Z 16012KT 9999 BKN020 26/21 Q1016","temp":26,"dewp":21,"wdir":160,"wspd":12,"visib":"6+","altim":1016,"clouds":[{"cover":"BKN","base":2000}],"obsTime":1783162800},"SBLO":{"icaoId":"SBLO","flightCategory":"VFR","rawOb":"METAR SBLO 041100Z VRB02KT CAVOK 17/16 Q1021","temp":17,"dewp":16,"wdir":"VRB","wspd":2,"visib":"6+","altim":1021,"clouds":[],"obsTime":1783162800},"SBKP":{"icaoId":"SBKP","flightCategory":"VFR","rawOb":"METAR SBKP 041100Z 12011KT CAVOK 17/14 Q1022","temp":17,"dewp":14,"wdir":120,"wspd":11,"visib":"6+","altim":1022,"clouds":[],"obsTime":1783162800},"SBFL":{"icaoId":"SBFL","flightCategory":"VFR","rawOb":"METAR SBFL 041100Z VRB02KT CAVOK 09/08 Q1024","temp":9,"dewp":8,"wdir":"VRB","wspd":2,"visib":"6+","altim":1024,"clouds":[],"obsTime":1783162800},"SBSJ":{"icaoId":"SBSJ","flightCategory":"IFR","rawOb":"METAR SBSJ 041100Z 15003KT 3000 -DZ BR BKN007 OVC012 16/15 Q1023","temp":16,"dewp":15,"wdir":150,"wspd":3,"visib":1.86,"altim":1023,"clouds":[{"cover":"BKN","base":700},{"cover":"OVC","base":1200}],"obsTime":1783162800},"SBOI":{"icaoId":"SBOI","flightCategory":"VFR","rawOb":"METAR SBOI 041100Z AUTO 32003KT 9999 FEW004 25/24 Q1013","temp":25,"dewp":24,"wdir":320,"wspd":3,"visib":"6+","altim":1013,"clouds":[{"cover":"FEW","base":400}],"obsTime":1783162800},"SBSR":{"icaoId":"SBSR","flightCategory":"VFR","rawOb":"METAR SBSR 041100Z 17002KT CAVOK 19/15 Q1021","temp":19,"dewp":15,"wdir":170,"wspd":2,"visib":"6+","altim":1021,"clouds":[],"obsTime":1783162800},"SBES":{"icaoId":"SBES","flightCategory":"VFR","rawOb":"METAR SBES 041100Z 00000KT 9999 FEW040 SCT080 20/// Q1021","temp":null,"dewp":null,"wdir":0,"wspd":0,"visib":"6+","altim":1021,"clouds":[{"cover":"FEW","base":4000},{"cover":"SCT","base":8000}],"obsTime":1783162800},"SBTF":{"icaoId":"SBTF","flightCategory":"VFR","rawOb":"SPECI SBTF 041115Z 00000KT 9999 FEW006 SCT090 26/24 Q1013","temp":26,"dewp":24,"wdir":0,"wspd":0,"visib":"6+","altim":1013,"clouds":[{"cover":"FEW","base":600},{"cover":"SCT","base":9000}],"obsTime":1783163700},"SBSC":{"icaoId":"SBSC","flightCategory":"MVFR","rawOb":"METAR SBSC 041100Z 21003KT 9999 SCT008 BKN010 OVC025 21/20 Q1021","temp":21,"dewp":20,"wdir":210,"wspd":3,"visib":"6+","altim":1021,"clouds":[{"cover":"SCT","base":800},{"cover":"BKN","base":1000},{"cover":"OVC","base":2500}],"obsTime":1783162800},"SBCC":{"icaoId":"SBCC","flightCategory":"VFR","rawOb":"METAR SBCC 041100Z 07007KT CAVOK 22/14 Q1017","temp":22,"dewp":14,"wdir":70,"wspd":7,"visib":"6+","altim":1017,"clouds":[],"obsTime":1783162800},"SBGM":{"icaoId":"SBGM","flightCategory":"VFR","rawOb":"METAR SBGM 041200Z 12008KT 9999 SCT006 18/16 Q1018","temp":18,"dewp":16,"wdir":120,"wspd":8,"visib":"6+","altim":1018,"clouds":[{"cover":"SCT","base":600}],"obsTime":1783166400},"SBVH":{"icaoId":"SBVH","flightCategory":"LIFR","rawOb":"METAR SBVH 041100Z 16007KT 0700 FG VV002 13/13 Q1020","temp":13,"dewp":13,"wdir":160,"wspd":7,"visib":0.43,"altim":1020,"clouds":[{"cover":"OVX","base":200}],"obsTime":1783162800},"SBCA":{"icaoId":"SBCA","flightCategory":"VFR","rawOb":"METAR SBCA 041100Z 14005KT CAVOK 12/05 Q1023","temp":12,"dewp":5,"wdir":140,"wspd":5,"visib":"6+","altim":1023,"clouds":[],"obsTime":1783162800},"SBCO":{"icaoId":"SBCO","flightCategory":"MVFR","rawOb":"METAR SBCO 041100Z 32003KT 9999 OVC025 08/06 Q1027","temp":8,"dewp":6,"wdir":320,"wspd":3,"visib":"6+","altim":1027,"clouds":[{"cover":"OVC","base":2500}],"obsTime":1783162800},"SBSM":{"icaoId":"SBSM","flightCategory":"MVFR","rawOb":"METAR SBSM 041100Z VRB02KT 9999 OVC017 07/07 Q1027","temp":7,"dewp":7,"wdir":"VRB","wspd":2,"visib":"6+","altim":1027,"clouds":[{"cover":"OVC","base":1700}],"obsTime":1783162800},"SBKG":{"icaoId":"SBKG","flightCategory":"MVFR","rawOb":"METAR SBKG 041100Z 14007KT 100V170 8000 BKN012 BKN070 21/19 Q1019","temp":21,"dewp":19,"wdir":140,"wspd":7,"visib":4.97,"altim":1019,"clouds":[{"cover":"BKN","base":1200},{"cover":"BKN","base":7000}],"obsTime":1783162800},"SBAX":{"icaoId":"SBAX","flightCategory":"VFR","rawOb":"METAR SBAX 041100Z AUTO 04003KT CAVOK 15/13 Q1023","temp":15,"dewp":13,"wdir":40,"wspd":3,"visib":"6+","altim":1023,"clouds":[],"obsTime":1783162800},"SBBH":{"icaoId":"SBBH","flightCategory":"VFR","rawOb":"METAR SBBH 041100Z 10004KT CAVOK 17/13 Q1023","temp":17,"dewp":13,"wdir":100,"wspd":4,"visib":"6+","altim":1023,"clouds":[],"obsTime":1783162800},"SBBQ":{"icaoId":"SBBQ","flightCategory":"MVFR","rawOb":"METAR SBBQ 041200Z 10005KT 070V140 5000 BR SCT007 OVC015 16/14 Q1027","temp":16,"dewp":14,"wdir":100,"wspd":5,"visib":3.11,"altim":1027,"clouds":[{"cover":"SCT","base":700},{"cover":"OVC","base":1500}],"obsTime":1783166400},"SBBU":{"icaoId":"SBBU","flightCategory":"IFR","rawOb":"METAR SBBU 041100Z 12011KT 5000 BR OVC005 16/16 Q1021","temp":16,"dewp":16,"wdir":120,"wspd":11,"visib":3.11,"altim":1021,"clouds":[{"cover":"OVC","base":500}],"obsTime":1783162800},"SBIP":{"icaoId":"SBIP","flightCategory":"VFR","rawOb":"METAR SBIP 041100Z AUTO VRB01KT 9999 FEW002 16/16 Q1022","temp":16,"dewp":16,"wdir":"VRB","wspd":1,"visib":"6+","altim":1022,"clouds":[{"cover":"FEW","base":200}],"obsTime":1783162800},"SBDN":{"icaoId":"SBDN","flightCategory":"LIFR","rawOb":"METAR SBDN 041100Z 16004KT 1600 BR NSC 13/13 Q1021","temp":13,"dewp":13,"wdir":160,"wspd":4,"visib":0.99,"altim":1021,"clouds":[],"obsTime":1783162800},"SBPL":{"icaoId":"SBPL","flightCategory":"VFR","rawOb":"METAR SBPL 041100Z 11010KT 9999 SCT015 22/18 Q1019","temp":22,"dewp":18,"wdir":110,"wspd":10,"visib":"6+","altim":1019,"clouds":[{"cover":"SCT","base":1500}],"obsTime":1783162800},"SBCJ":{"icaoId":"SBCJ","flightCategory":"VFR","rawOb":"METAR SBCJ 041100Z 00000KT CAVOK 23/18 Q1017","temp":23,"dewp":18,"wdir":0,"wspd":0,"visib":"6+","altim":1017,"clouds":[],"obsTime":1783162800},"SBPP":{"icaoId":"SBPP","flightCategory":"VFR","rawOb":"SPECI SBPP 041115Z 06005KT CAVOK 10/08 Q1022","temp":10,"dewp":8,"wdir":60,"wspd":5,"visib":"6+","altim":1022,"clouds":[],"obsTime":1783163700},"SBTU":{"icaoId":"SBTU","flightCategory":"VFR","rawOb":"METAR SBTU 041100Z AUTO 26004KT 9999 // NCD 26/18 Q1015","temp":26,"dewp":18,"wdir":260,"wspd":4,"visib":"6+","altim":1015,"clouds":[],"obsTime":1783162800},"SBTT":{"icaoId":"SBTT","flightCategory":"IFR","rawOb":"METAR SBTT 041100Z 20007KT 9999 BKN009 24/22 Q1015","temp":24,"dewp":22,"wdir":200,"wspd":7,"visib":"6+","altim":1015,"clouds":[{"cover":"BKN","base":900}],"obsTime":1783162800},"SBPS":{"icaoId":"SBPS","flightCategory":"VFR","rawOb":"METAR SBPS 041100Z 26005KT 9999 SCT025 21/20 Q1020","temp":21,"dewp":20,"wdir":260,"wspd":5,"visib":"6+","altim":1020,"clouds":[{"cover":"SCT","base":2500}],"obsTime":1783162800},"SBPB":{"icaoId":"SBPB","flightCategory":"VFR","rawOb":"METAR SBPB 041100Z 09012KT 9999 FEW016 28/23 Q1013","temp":28,"dewp":23,"wdir":90,"wspd":12,"visib":"6+","altim":1013,"clouds":[{"cover":"FEW","base":1600}],"obsTime":1783162800},"SBAR":{"icaoId":"SBAR","flightCategory":"MVFR","rawOb":"METAR SBAR 041100Z 21002KT 9999 -RA BKN026 BKN046 23/22 Q1017","temp":23,"dewp":22,"wdir":210,"wspd":2,"visib":"6+","altim":1017,"clouds":[{"cover":"BKN","base":2600},{"cover":"BKN","base":4600}],"obsTime":1783162800},"SBUY":{"icaoId":"SBUY","flightCategory":"IFR","rawOb":"METAR SBUY 041100Z 16003KT 9999 BKN007 BKN070 23/22 Q1013","temp":23,"dewp":22,"wdir":160,"wspd":3,"visib":"6+","altim":1013,"clouds":[{"cover":"BKN","base":700},{"cover":"BKN","base":7000}],"obsTime":1783162800},"SBJP":{"icaoId":"SBJP","flightCategory":"MVFR","rawOb":"METAR SBJP 041100Z 17008KT 5000 -RA FEW010 BKN020 BKN070 24/23 Q1016","temp":24,"dewp":23,"wdir":170,"wspd":8,"visib":3.11,"altim":1016,"clouds":[{"cover":"FEW","base":1000},{"cover":"BKN","base":2000},{"cover":"BKN","base":7000}],"obsTime":1783162800},"SBIH":{"icaoId":"SBIH","flightCategory":"VFR","rawOb":"METAR SBIH 041100Z 00000KT 9000 NSC 24/23 Q1013","temp":24,"dewp":23,"wdir":0,"wspd":0,"visib":5.59,"altim":1013,"clouds":[],"obsTime":1783162800},"SBJV":{"icaoId":"SBJV","flightCategory":"MVFR","rawOb":"METAR SBJV 041100Z 18002KT 9999 FEW010 OVC025 12/08 Q1024","temp":12,"dewp":8,"wdir":180,"wspd":2,"visib":"6+","altim":1024,"clouds":[{"cover":"FEW","base":1000},{"cover":"OVC","base":2500}],"obsTime":1783162800},"SBNM":{"icaoId":"SBNM","flightCategory":"IFR","rawOb":"METAR SBNM 041100Z AUTO 07006KT 9999 BKN009 02/01 Q1025","temp":2,"dewp":1,"wdir":70,"wspd":6,"visib":"6+","altim":1025,"clouds":[{"cover":"BKN","base":900}],"obsTime":1783162800},"SBPF":{"icaoId":"SBPF","flightCategory":"IFR","rawOb":"METAR SBPF 041100Z 12008KT 9999 BKN005 03/02 Q1025","temp":3,"dewp":2,"wdir":120,"wspd":8,"visib":"6+","altim":1025,"clouds":[{"cover":"BKN","base":500}],"obsTime":1783162800},"SBAN":{"icaoId":"SBAN","flightCategory":"VFR","rawOb":"METAR SBAN 041100Z 07003KT CAVOK 19/10 Q1023","temp":19,"dewp":10,"wdir":70,"wspd":3,"visib":"6+","altim":1023,"clouds":[],"obsTime":1783162800},"SBLE":{"icaoId":"SBLE","flightCategory":"LIFR","rawOb":"METAR SBLE 041100Z AUTO 22005KT 160V250 9999 BKN004 BKN030 BKN039 ///// Q1022","temp":null,"dewp":null,"wdir":220,"wspd":5,"visib":"6+","altim":1022,"clouds":[{"cover":"BKN","base":400},{"cover":"BKN","base":3000},{"cover":"BKN","base":3900}],"obsTime":1783162800},"SBAF":{"icaoId":"SBAF","flightCategory":"MVFR","rawOb":"METAR SBAF 041100Z 26003KT 9999 BKN025 OVC045 21/21 Q1021","temp":21,"dewp":21,"wdir":260,"wspd":3,"visib":"6+","altim":1021,"clouds":[{"cover":"BKN","base":2500},{"cover":"OVC","base":4500}],"obsTime":1783162800},"SBGW":{"icaoId":"SBGW","flightCategory":"IFR","rawOb":"METAR SBGW 041100Z 24003KT 210V280 3000 HZ OVC012 18/13 Q1023","temp":18,"dewp":13,"wdir":240,"wspd":3,"visib":1.86,"altim":1023,"clouds":[{"cover":"OVC","base":1200}],"obsTime":1783162800},"SBJR":{"icaoId":"SBJR","flightCategory":"MVFR","rawOb":"METAR SBJR 041100Z 28001KT 8000 BKN025 OVC042 22/20 Q1021","temp":22,"dewp":20,"wdir":280,"wspd":1,"visib":4.97,"altim":1021,"clouds":[{"cover":"BKN","base":2500},{"cover":"OVC","base":4200}],"obsTime":1783162800},"SBLS":{"icaoId":"SBLS","flightCategory":"VFR","rawOb":"METAR SBLS 041100Z 17005KT CAVOK 17/14 Q1022","temp":17,"dewp":14,"wdir":170,"wspd":5,"visib":"6+","altim":1022,"clouds":[],"obsTime":1783162800},"SBMT":{"icaoId":"SBMT","flightCategory":"MVFR","rawOb":"METAR SBMT 041100Z 16007KT 9999 SCT012 BKN020 16/14 Q1023","temp":16,"dewp":14,"wdir":160,"wspd":7,"visib":"6+","altim":1023,"clouds":[{"cover":"SCT","base":1200},{"cover":"BKN","base":2000}],"obsTime":1783162800},"SBST":{"icaoId":"SBST","flightCategory":"LIFR","rawOb":"METAR SBST 041100Z 21002KT 1500 -RA BKN007 16/16 Q1023","temp":16,"dewp":16,"wdir":210,"wspd":2,"visib":0.93,"altim":1023,"clouds":[{"cover":"BKN","base":700}],"obsTime":1783162800},"SBTA":{"icaoId":"SBTA","flightCategory":"MVFR","rawOb":"METAR SBTA 041100Z 22002KT 5000 BR OVC010 17/16 Q1022","temp":17,"dewp":16,"wdir":220,"wspd":2,"visib":3.11,"altim":1022,"clouds":[{"cover":"OVC","base":1000}],"obsTime":1783162800}}}