{"updated":1775534865,"count":52,"data":{"SBFL":{"icaoId":"SBFL","flightCategory":"MVFR","rawOb":"METAR SBFL 070300Z 07009KT 9000 SCT017 BKN030 OVC050 25/23 Q1017","temp":25,"dewp":23,"wdir":70,"wspd":9,"visib":5.59,"altim":1017,"clouds":[{"cover":"SCT","base":1700},{"cover":"BKN","base":3000},{"cover":"OVC","base":5000}],"obsTime":1775530800},"SBBR":{"icaoId":"SBBR","flightCategory":"VFR","rawOb":"METAR SBBR 070300Z VRB02KT 9999 SCT020 21/18 Q1020","temp":21,"dewp":18,"wdir":"VRB","wspd":2,"visib":"6+","altim":1020,"clouds":[{"cover":"SCT","base":2000}],"obsTime":1775530800},"SBBV":{"icaoId":"SBBV","flightCategory":"VFR","rawOb":"METAR SBBV 070300Z 10006KT 9999 FEW040 SCT100 28/22 Q1011","temp":28,"dewp":22,"wdir":100,"wspd":6,"visib":"6+","altim":1011,"clouds":[{"cover":"FEW","base":4000},{"cover":"SCT","base":10000}],"obsTime":1775530800},"SBCF":{"icaoId":"SBCF","flightCategory":"VFR","rawOb":"METAR SBCF 070300Z 12009KT CAVOK 22/18 Q1021","temp":22,"dewp":18,"wdir":120,"wspd":9,"visib":"6+","altim":1021,"clouds":[],"obsTime":1775530800},"SBCG":{"icaoId":"SBCG","flightCategory":"VFR","rawOb":"METAR SBCG 070300Z 03005KT CAVOK 24/21 Q1015","temp":24,"dewp":21,"wdir":30,"wspd":5,"visib":"6+","altim":1015,"clouds":[],"obsTime":1775530800},"SBCT":{"icaoId":"SBCT","flightCategory":"IFR","rawOb":"METAR SBCT 070300Z 08005KT 9999 OVC008 20/19 Q1021","temp":20,"dewp":19,"wdir":80,"wspd":5,"visib":"6+","altim":1021,"clouds":[{"cover":"OVC","base":800}],"obsTime":1775530800},"SBEG":{"icaoId":"SBEG","flightCategory":"VFR","rawOb":"METAR SBEG 070300Z 08004KT CAVOK 26/24 Q1012","temp":26,"dewp":24,"wdir":80,"wspd":4,"visib":"6+","altim":1012,"clouds":[],"obsTime":1775530800},"SBFI":{"icaoId":"SBFI","flightCategory":"VFR","rawOb":"METAR SBFI 070300Z 04003KT 9999 FEW030TCU BKN100 26/23 Q1012","temp":26,"dewp":23,"wdir":40,"wspd":3,"visib":"6+","altim":1012,"clouds":[{"cover":"FEW","base":3000},{"cover":"BKN","base":10000}],"obsTime":1775530800},"SBBE":{"icaoId":"SBBE","flightCategory":"VFR","rawOb":"METAR SBBE 070300Z 02003KT CAVOK 25/25 Q1013","temp":25,"dewp":25,"wdir":20,"wspd":3,"visib":"6+","altim":1013,"clouds":[],"obsTime":1775530800},"SBFZ":{"icaoId":"SBFZ","flightCategory":"VFR","rawOb":"METAR SBFZ 070300Z 22003KT CAVOK 26/24 Q1013","temp":26,"dewp":24,"wdir":220,"wspd":3,"visib":"6+","altim":1013,"clouds":[],"obsTime":1775530800},"SBGL":{"icaoId":"SBGL","flightCategory":"VFR","rawOb":"METAR SBGL 070300Z 13005KT 9999 FEW025 24/22 Q1017","temp":24,"dewp":22,"wdir":130,"wspd":5,"visib":"6+","altim":1017,"clouds":[{"cover":"FEW","base":2500}],"obsTime":1775530800},"SBGO":{"icaoId":"SBGO","flightCategory":"VFR","rawOb":"METAR SBGO 070300Z 33002KT 9999 FEW046 23/20 Q1019","temp":23,"dewp":20,"wdir":330,"wspd":2,"visib":"6+","altim":1019,"clouds":[{"cover":"FEW","base":4600}],"obsTime":1775530800},"SBGR":{"icaoId":"SBGR","flightCategory":"MVFR","rawOb":"METAR SBGR 070300Z 10003KT 9999 BKN015 22/19 Q1021","temp":22,"dewp":19,"wdir":100,"wspd":3,"visib":"6+","altim":1021,"clouds":[{"cover":"BKN","base":1500}],"obsTime":1775530800},"SBKP":{"icaoId":"SBKP","flightCategory":"VFR","rawOb":"METAR SBKP 070300Z COR 13005KT 9999 -TSRA SCT030 FEW040CB OVC100 20/20 Q1020 RETS","temp":20,"dewp":20,"wdir":130,"wspd":5,"visib":"6+","altim":1020,"clouds":[{"cover":"SCT","base":3000},{"cover":"FEW","base":4000},{"cover":"OVC","base":10000}],"obsTime":1775530800},"SBLO":{"icaoId":"SBLO","flightCategory":"VFR","rawOb":"METAR SBLO 070300Z 09006KT CAVOK 22/20 Q1017","temp":22,"dewp":20,"wdir":90,"wspd":6,"visib":"6+","altim":1017,"clouds":[],"obsTime":1775530800},"SBMA":{"icaoId":"SBMA","flightCategory":"VFR","rawOb":"METAR SBMA 070300Z 22004KT CAVOK 27/24 Q1013","temp":27,"dewp":24,"wdir":220,"wspd":4,"visib":"6+","altim":1013,"clouds":[],"obsTime":1775530800},"SBMO":{"icaoId":"SBMO","flightCategory":"MVFR","rawOb":"METAR SBMO 070300Z 07008KT 5000 -RA SCT007 BKN015 BKN080 23/23 Q1016 RERA","temp":23,"dewp":23,"wdir":70,"wspd":8,"visib":3.11,"altim":1016,"clouds":[{"cover":"SCT","base":700},{"cover":"BKN","base":1500},{"cover":"BKN","base":8000}],"obsTime":1775530800},"SBMQ":{"icaoId":"SBMQ","flightCategory":"MVFR","rawOb":"METAR SBMQ 070300Z 03003KT 9999 BKN012 BKN020 27/26 Q1012","temp":27,"dewp":26,"wdir":30,"wspd":3,"visib":"6+","altim":1012,"clouds":[{"cover":"BKN","base":1200},{"cover":"BKN","base":2000}],"obsTime":1775530800},"SBNT":{"icaoId":"SBNT","flightCategory":"VFR","rawOb":"METAR SBNT 070300Z 19008KT 9999 VCSH FEW011 SCT023 BKN050 24/23 Q1013","temp":24,"dewp":23,"wdir":190,"wspd":8,"visib":"6+","altim":1013,"clouds":[{"cover":"FEW","base":1100},{"cover":"SCT","base":2300},{"cover":"BKN","base":5000}],"obsTime":1775530800},"SBPA":{"icaoId":"SBPA","flightCategory":"MVFR","rawOb":"METAR SBPA 070300Z 10010KT 8000 -RA FEW010 SCT040 BKN100 22/21 Q1014","temp":22,"dewp":21,"wdir":100,"wspd":10,"visib":4.97,"altim":1014,"clouds":[{"cover":"FEW","base":1000},{"cover":"SCT","base":4000},{"cover":"BKN","base":10000}],"obsTime":1775530800},"SBPJ":{"icaoId":"SBPJ","flightCategory":"VFR","rawOb":"METAR SBPJ 070300Z 11002KT 9999 FEW018 SCT023 26/25 Q1014","temp":26,"dewp":25,"wdir":110,"wspd":2,"visib":"6+","altim":1014,"clouds":[{"cover":"FEW","base":1800},{"cover":"SCT","base":2300}],"obsTime":1775530800},"SBPV":{"icaoId":"SBPV","flightCategory":"VFR","rawOb":"METAR SBPV 070300Z 19001KT 9999 FEW035 26/24 Q1011","temp":26,"dewp":24,"wdir":190,"wspd":1,"visib":"6+","altim":1011,"clouds":[{"cover":"FEW","base":3500}],"obsTime":1775530800},"SBRB":{"icaoId":"SBRB","flightCategory":"MVFR","rawOb":"METAR SBRB 070300Z 28001KT 8000 FEW011 SCT080 24/23 Q1012","temp":24,"dewp":23,"wdir":280,"wspd":1,"visib":4.97,"altim":1012,"clouds":[{"cover":"FEW","base":1100},{"cover":"SCT","base":8000}],"obsTime":1775530800},"SBRF":{"icaoId":"SBRF","flightCategory":"VFR","rawOb":"METAR SBRF 070300Z 24005KT 9999 VCSH SCT020 FEW022TCU BKN070 24/23 Q1014","temp":24,"dewp":23,"wdir":240,"wspd":5,"visib":"6+","altim":1014,"clouds":[{"cover":"SCT","base":2000},{"cover":"FEW","base":2200},{"cover":"BKN","base":7000}],"obsTime":1775530800},"SBSG":{"icaoId":"SBSG","flightCategory":"VFR","rawOb":"METAR SBSG 070300Z 18006KT 140V220 9999 SCT023 24/23 Q1013","temp":24,"dewp":23,"wdir":180,"wspd":6,"visib":"6+","altim":1013,"clouds":[{"cover":"SCT","base":2300}],"obsTime":1775530800},"SBSL":{"icaoId":"SBSL","flightCategory":"VFR","rawOb":"METAR SBSL 070300Z 13004KT CAVOK 25/24 Q1013","temp":25,"dewp":24,"wdir":130,"wspd":4,"visib":"6+","altim":1013,"clouds":[],"obsTime":1775530800},"SBSN":{"icaoId":"SBSN","flightCategory":"VFR","rawOb":"METAR SBSN 070300Z 08008KT CAVOK 28/26 Q1012","temp":28,"dewp":26,"wdir":80,"wspd":8,"visib":"6+","altim":1012,"clouds":[],"obsTime":1775530800},"SBSV":{"icaoId":"SBSV","flightCategory":"VFR","rawOb":"METAR SBSV 070300Z 11005KT 080V150 9999 SCT020 27/23 Q1015","temp":27,"dewp":23,"wdir":110,"wspd":5,"visib":"6+","altim":1015,"clouds":[{"cover":"SCT","base":2000}],"obsTime":1775530800},"SBTE":{"icaoId":"SBTE","flightCategory":"VFR","rawOb":"METAR SBTE 070300Z 04002KT 9999 SCT018 25/24 Q1013","temp":25,"dewp":24,"wdir":40,"wspd":2,"visib":"6+","altim":1013,"clouds":[{"cover":"SCT","base":1800}],"obsTime":1775530800},"SBVT":{"icaoId":"SBVT","flightCategory":"VFR","rawOb":"METAR SBVT 070300Z 36002KT 9999 SCT020 23/23 Q1017","temp":23,"dewp":23,"wdir":360,"wspd":2,"visib":"6+","altim":1017,"clouds":[{"cover":"SCT","base":2000}],"obsTime":1775530800},"SBME":{"icaoId":"SBME","flightCategory":"VFR","rawOb":"METAR SBME 070300Z 30002KT CAVOK 24/22 Q1018","temp":24,"dewp":22,"wdir":300,"wspd":2,"visib":"6+","altim":1018,"clouds":[],"obsTime":1775530800},"SBMG":{"icaoId":"SBMG","flightCategory":"VFR","rawOb":"METAR SBMG 070300Z 04012KT CAVOK 24/19 Q1015","temp":24,"dewp":19,"wdir":40,"wspd":12,"visib":"6+","altim":1015,"clouds":[],"obsTime":1775530800},"SBMK":{"icaoId":"SBMK","flightCategory":"VFR","rawOb":"METAR SBMK 070300Z 00000KT CAVOK 22/19 Q1019","temp":22,"dewp":19,"wdir":0,"wspd":0,"visib":"6+","altim":1019,"clouds":[],"obsTime":1775530800},"SBUL":{"icaoId":"SBUL","flightCategory":"VFR","rawOb":"METAR SBUL 070300Z 14007KT 9999 SCT030 BKN090 22/18 Q1020","temp":22,"dewp":18,"wdir":140,"wspd":7,"visib":"6+","altim":1020,"clouds":[{"cover":"SCT","base":3000},{"cover":"BKN","base":9000}],"obsTime":1775530800},"SBSP":{"icaoId":"SBSP","flightCategory":"VFR","rawOb":"METAR SBSP 070300Z AUTO 14003KT 100V180 9999 FEW015 21/19 Q1021","temp":21,"dewp":19,"wdir":140,"wspd":3,"visib":"6+","altim":1021,"clouds":[{"cover":"FEW","base":1500}],"obsTime":1775530800},"SBJU":{"icaoId":"SBJU","flightCategory":"VFR","rawOb":"METAR SBJU 070300Z 00000KT 9999 SCT020 24/23 Q1016","temp":24,"dewp":23,"wdir":0,"wspd":0,"visib":"6+","altim":1016,"clouds":[{"cover":"SCT","base":2000}],"obsTime":1775530800},"SBUR":{"icaoId":"SBUR","flightCategory":"VFR","rawOb":"METAR SBUR 070300Z 08002KT CAVOK 21/21 Q1019","temp":21,"dewp":21,"wdir":80,"wspd":2,"visib":"6+","altim":1019,"clouds":[],"obsTime":1775530800},"SBPS":{"icaoId":"SBPS","flightCategory":"MVFR","rawOb":"METAR SBPS 070300Z VRB02KT 8000 -RA SCT015 26/24 Q1017","temp":26,"dewp":24,"wdir":"VRB","wspd":2,"visib":4.97,"altim":1017,"clouds":[{"cover":"SCT","base":1500}],"obsTime":1775530800},"SBOI":{"icaoId":"SBOI","flightCategory":"MVFR","rawOb":"METAR SBOI 070300Z AUTO 08002KT 9999 // SCT007/// BKN016/// BKN031/// 25/24 Q1013","temp":25,"dewp":24,"wdir":80,"wspd":2,"visib":"6+","altim":1013,"clouds":[{"cover":"SCT","base":700},{"cover":"BKN","base":1600},{"cover":"BKN","base":3100}],"obsTime":1775530800},"SBAR":{"icaoId":"SBAR","flightCategory":"VFR","rawOb":"METAR SBAR 070300Z 12008KT 9999 SCT023 28/23 Q1015","temp":28,"dewp":23,"wdir":120,"wspd":8,"visib":"6+","altim":1015,"clouds":[{"cover":"SCT","base":2300}],"obsTime":1775530800},"SBPL":{"icaoId":"SBPL","flightCategory":"VFR","rawOb":"METAR SBPL 070300Z 13008KT 9999 SCT030 SCT070 28/21 Q1015","temp":28,"dewp":21,"wdir":130,"wspd":8,"visib":"6+","altim":1015,"clouds":[{"cover":"SCT","base":3000},{"cover":"SCT","base":7000}],"obsTime":1775530800},"SBSC":{"icaoId":"SBSC","flightCategory":"MVFR","rawOb":"METAR SBSC 070300Z 13002KT 7000 BKN020 24/22 Q1017","temp":24,"dewp":22,"wdir":130,"wspd":2,"visib":4.35,"altim":1017,"clouds":[{"cover":"BKN","base":2000}],"obsTime":1775530800},"SBSM":{"icaoId":"SBSM","flightCategory":"VFR","rawOb":"METAR SBSM 070300Z 06008KT 9999 TS SCT025 FEW045CB BKN090 23/21 Q1011 RETS","temp":23,"dewp":21,"wdir":60,"wspd":8,"visib":"6+","altim":1011,"clouds":[{"cover":"SCT","base":2500},{"cover":"FEW","base":4500},{"cover":"BKN","base":9000}],"obsTime":1775530800},"SBSR":{"icaoId":"SBSR","flightCategory":"VFR","rawOb":"METAR SBSR 070300Z VRB03KT 9999 -RA FEW035TCU SCT060 23/18 Q1018","temp":23,"dewp":18,"wdir":"VRB","wspd":3,"visib":"6+","altim":1018,"clouds":[{"cover":"FEW","base":3500},{"cover":"SCT","base":6000}],"obsTime":1775530800},"SBCO":{"icaoId":"SBCO","flightCategory":"MVFR","rawOb":"METAR SBCO 070300Z 10007KT 6000 -RA FEW040 BKN080 21/21 Q1014","temp":21,"dewp":21,"wdir":100,"wspd":7,"visib":3.73,"altim":1014,"clouds":[{"cover":"FEW","base":4000},{"cover":"BKN","base":8000}],"obsTime":1775530800},"SBDN":{"icaoId":"SBDN","flightCategory":"VFR","rawOb":"METAR SBDN 070300Z 06009KT CAVOK 23/19 Q1016","temp":23,"dewp":19,"wdir":60,"wspd":9,"visib":"6+","altim":1016,"clouds":[],"obsTime":1775530800},"SBKG":{"icaoId":"SBKG","flightCategory":"VFR","rawOb":"METAR SBKG 070300Z 24002KT 9999 -RA FEW006 SCT070 21/20 Q1017","temp":21,"dewp":20,"wdir":240,"wspd":2,"visib":"6+","altim":1017,"clouds":[{"cover":"FEW","base":600},{"cover":"SCT","base":7000}],"obsTime":1775530800},"SBSJ":{"icaoId":"SBSJ","flightCategory":"MVFR","rawOb":"SPECI SBSJ 070230Z 10003KT 9999 BKN026 22/19 Q1020","temp":22,"dewp":19,"wdir":100,"wspd":3,"visib":"6+","altim":1020,"clouds":[{"cover":"BKN","base":2600}],"obsTime":1775529000},"SBJP":{"icaoId":"SBJP","flightCategory":"VFR","rawOb":"METAR SBJP 070300Z VRB07KT 9999 -RA FEW006 24/23 Q1014","temp":24,"dewp":23,"wdir":"VRB","wspd":7,"visib":"6+","altim":1014,"clouds":[{"cover":"FEW","base":600}],"obsTime":1775530800},"SBAN":{"icaoId":"SBAN","flightCategory":"VFR","rawOb":"METAR SBAN 070300Z 07003KT 9999 VCTS SCT035 FEW040CB BKN080 21/17 Q1022","temp":21,"dewp":17,"wdir":70,"wspd":3,"visib":"6+","altim":1022,"clouds":[{"cover":"SCT","base":3500},{"cover":"FEW","base":4000},{"cover":"BKN","base":8000}],"obsTime":1775530800},"SBNM":{"icaoId":"SBNM","flightCategory":"VFR","rawOb":"METAR SBNM 070300Z 10002KT 9999 SCT030 FEW030TCU SCT100 23/20 Q1012","temp":23,"dewp":20,"wdir":100,"wspd":2,"visib":"6+","altim":1012,"clouds":[{"cover":"SCT","base":3000},{"cover":"FEW","base":3000},{"cover":"SCT","base":10000}],"obsTime":1775530800},"SBTA":{"icaoId":"SBTA","flightCategory":"VFR","rawOb":"METAR SBTA 070300Z VRB01KT 9999 FEW030 BKN080 21/21 Q1019","temp":21,"dewp":21,"wdir":"VRB","wspd":1,"visib":"6+","altim":1019,"clouds":[{"cover":"FEW","base":3000},{"cover":"BKN","base":8000}],"obsTime":1775530800}}}