{"updated":1775305597,"count":84,"data":{"SBCF":{"icaoId":"SBCF","flightCategory":"VFR","rawOb":"METAR SBCF 041100Z 00000KT CAVOK 23/19 Q1020","temp":23,"dewp":19,"wdir":0,"wspd":0,"visib":"6+","altim":1020,"clouds":[],"obsTime":1775300400},"SBMA":{"icaoId":"SBMA","flightCategory":"VFR","rawOb":"METAR SBMA 041100Z 00000KT 9999 SCT010 FEW020TCU BKN070 26/24 Q1012","temp":26,"dewp":24,"wdir":0,"wspd":0,"visib":"6+","altim":1012,"clouds":[{"cover":"SCT","base":1000},{"cover":"FEW","base":2000},{"cover":"BKN","base":7000}],"obsTime":1775300400},"SBEG":{"icaoId":"SBEG","flightCategory":"IFR","rawOb":"METAR SBEG 041100Z 31002KT 2000 RA SCT005 BKN015 FEW025TCU 22/22 Q1013","temp":22,"dewp":22,"wdir":310,"wspd":2,"visib":1.24,"altim":1013,"clouds":[{"cover":"SCT","base":500},{"cover":"BKN","base":1500},{"cover":"FEW","base":2500}],"obsTime":1775300400},"SBBR":{"icaoId":"SBBR","flightCategory":"IFR","rawOb":"METAR SBBR 041100Z 11006KT 9999 BKN009 21/19 Q1021","temp":21,"dewp":19,"wdir":110,"wspd":6,"visib":"6+","altim":1021,"clouds":[{"cover":"BKN","base":900}],"obsTime":1775300400},"SBME":{"icaoId":"SBME","flightCategory":"VFR","rawOb":"METAR SBME 041100Z 03006KT CAVOK 28/24 Q1014","temp":28,"dewp":24,"wdir":30,"wspd":6,"visib":"6+","altim":1014,"clouds":[],"obsTime":1775300400},"SBFI":{"icaoId":"SBFI","flightCategory":"VFR","rawOb":"METAR SBFI 041100Z 12003KT CAVOK 24/23 Q1015","temp":24,"dewp":23,"wdir":120,"wspd":3,"visib":"6+","altim":1015,"clouds":[],"obsTime":1775300400},"SBMG":{"icaoId":"SBMG","flightCategory":"VFR","rawOb":"METAR SBMG 041100Z 16004KT CAVOK 23/20 Q1016","temp":23,"dewp":20,"wdir":160,"wspd":4,"visib":"6+","altim":1016,"clouds":[],"obsTime":1775300400},"SBBV":{"icaoId":"SBBV","flightCategory":"VFR","rawOb":"METAR SBBV 041100Z 07004KT 9999 VCSH FEW005 SCT030 FEW040TCU BKN070 26/24 Q1012","temp":26,"dewp":24,"wdir":70,"wspd":4,"visib":"6+","altim":1012,"clouds":[{"cover":"FEW","base":500},{"cover":"SCT","base":3000},{"cover":"FEW","base":4000},{"cover":"BKN","base":7000}],"obsTime":1775300400},"SBMK":{"icaoId":"SBMK","flightCategory":"VFR","rawOb":"METAR SBMK 041100Z 10003KT CAVOK 24/19 Q1019","temp":24,"dewp":19,"wdir":100,"wspd":3,"visib":"6+","altim":1019,"clouds":[],"obsTime":1775300400},"SBFL":{"icaoId":"SBFL","flightCategory":"VFR","rawOb":"METAR SBFL 041100Z 24002KT CAVOK 24/22 Q1014","temp":24,"dewp":22,"wdir":240,"wspd":2,"visib":"6+","altim":1014,"clouds":[],"obsTime":1775300400},"SBMO":{"icaoId":"SBMO","flightCategory":"MVFR","rawOb":"METAR SBMO 041100Z 31003KT 250V340 9999 VCSH BKN017 26/25 Q1015","temp":26,"dewp":25,"wdir":310,"wspd":3,"visib":"6+","altim":1015,"clouds":[{"cover":"BKN","base":1700}],"obsTime":1775300400},"SBMQ":{"icaoId":"SBMQ","flightCategory":"IFR","rawOb":"METAR SBMQ 041100Z 02007KT 9999 VCSH BKN007 BKN023 26/25 Q1012","temp":26,"dewp":25,"wdir":20,"wspd":7,"visib":"6+","altim":1012,"clouds":[{"cover":"BKN","base":700},{"cover":"BKN","base":2300}],"obsTime":1775300400},"SBCG":{"icaoId":"SBCG","flightCategory":"VFR","rawOb":"METAR SBCG 041100Z 08003KT CAVOK 25/21 Q1016","temp":25,"dewp":21,"wdir":80,"wspd":3,"visib":"6+","altim":1016,"clouds":[],"obsTime":1775300400},"SBNT":{"icaoId":"SBNT","flightCategory":"MVFR","rawOb":"METAR SBNT 041100Z 17005KT 140V200 9999 BKN020 FEW030TCU BKN080 27/25 Q1013","temp":27,"dewp":25,"wdir":170,"wspd":5,"visib":"6+","altim":1013,"clouds":[{"cover":"BKN","base":2000},{"cover":"FEW","base":3000},{"cover":"BKN","base":8000}],"obsTime":1775300400},"SBFZ":{"icaoId":"SBFZ","flightCategory":"VFR","rawOb":"METAR SBFZ 041100Z 16008KT 9999 SCT018 26/23 Q1012","temp":26,"dewp":23,"wdir":160,"wspd":8,"visib":"6+","altim":1012,"clouds":[{"cover":"SCT","base":1800}],"obsTime":1775300400},"SBBE":{"icaoId":"SBBE","flightCategory":"VFR","rawOb":"METAR SBBE 041100Z 07007KT CAVOK 27/25 Q1012","temp":27,"dewp":25,"wdir":70,"wspd":7,"visib":"6+","altim":1012,"clouds":[],"obsTime":1775300400},"SBPA":{"icaoId":"SBPA","flightCategory":"VFR","rawOb":"METAR SBPA 041100Z 31003KT 260V340 CAVOK 23/21 Q1013","temp":23,"dewp":21,"wdir":310,"wspd":3,"visib":"6+","altim":1013,"clouds":[],"obsTime":1775300400},"SBGL":{"icaoId":"SBGL","flightCategory":"VFR","rawOb":"METAR SBGL 041100Z 33003KT 300V030 9999 FEW020 25/21 Q1014","temp":25,"dewp":21,"wdir":330,"wspd":3,"visib":"6+","altim":1014,"clouds":[{"cover":"FEW","base":2000}],"obsTime":1775300400},"SBPJ":{"icaoId":"SBPJ","flightCategory":"VFR","rawOb":"METAR SBPJ 041100Z 09003KT CAVOK 27/23 Q1014","temp":27,"dewp":23,"wdir":90,"wspd":3,"visib":"6+","altim":1014,"clouds":[],"obsTime":1775300400},"SBCP":{"icaoId":"SBCP","flightCategory":"VFR","rawOb":"METAR SBCP 041100Z 04005KT CAVOK 27/25 Q1015","temp":27,"dewp":25,"wdir":40,"wspd":5,"visib":"6+","altim":1015,"clouds":[],"obsTime":1775300400},"SBPV":{"icaoId":"SBPV","flightCategory":"MVFR","rawOb":"METAR SBPV 041100Z 00000KT 9999 VCTS SCT006 BKN030 FEW035CB 24/23 Q1012","temp":24,"dewp":23,"wdir":0,"wspd":0,"visib":"6+","altim":1012,"clouds":[{"cover":"SCT","base":600},{"cover":"BKN","base":3000},{"cover":"FEW","base":3500}],"obsTime":1775300400},"SBLO":{"icaoId":"SBLO","flightCategory":"VFR","rawOb":"METAR SBLO 041100Z 20003KT CAVOK 22/20 Q1017","temp":22,"dewp":20,"wdir":200,"wspd":3,"visib":"6+","altim":1017,"clouds":[],"obsTime":1775300400},"SBGO":{"icaoId":"SBGO","flightCategory":"VFR","rawOb":"METAR SBGO 041100Z 00000KT CAVOK 23/21 Q1019","temp":23,"dewp":21,"wdir":0,"wspd":0,"visib":"6+","altim":1019,"clouds":[],"obsTime":1775300400},"SBRB":{"icaoId":"SBRB","flightCategory":"LIFR","rawOb":"METAR SBRB 041100Z 32002KT 0500 R07///// R25/P2000D FG VV002 23/23 Q1012","temp":23,"dewp":23,"wdir":320,"wspd":2,"visib":0.31,"altim":1012,"clouds":[{"cover":"OVX","base":200}],"obsTime":1775300400},"SBVT":{"icaoId":"SBVT","flightCategory":"VFR","rawOb":"METAR SBVT 041100Z 32004KT 300V010 9999 FEW020 BKN100 27/24 Q1016","temp":27,"dewp":24,"wdir":320,"wspd":4,"visib":"6+","altim":1016,"clouds":[{"cover":"FEW","base":2000},{"cover":"BKN","base":10000}],"obsTime":1775300400},"SBRF":{"icaoId":"SBRF","flightCategory":"MVFR","rawOb":"METAR SBRF 041100Z VRB02KT 9999 BKN023 BKN080 29/25 Q1014","temp":29,"dewp":25,"wdir":"VRB","wspd":2,"visib":"6+","altim":1014,"clouds":[{"cover":"BKN","base":2300},{"cover":"BKN","base":8000}],"obsTime":1775300400},"SBCR":{"icaoId":"SBCR","flightCategory":"VFR","rawOb":"METAR SBCR 041100Z VRB02KT CAVOK 28/24 Q1013","temp":28,"dewp":24,"wdir":"VRB","wspd":2,"visib":"6+","altim":1013,"clouds":[],"obsTime":1775300400},"SBSG":{"icaoId":"SBSG","flightCategory":"VFR","rawOb":"METAR SBSG 041100Z 19003KT 130V230 9999 SCT020 BKN070 26/25 Q1013","temp":26,"dewp":25,"wdir":190,"wspd":3,"visib":"6+","altim":1013,"clouds":[{"cover":"SCT","base":2000},{"cover":"BKN","base":7000}],"obsTime":1775300400},"SBSL":{"icaoId":"SBSL","flightCategory":"VFR","rawOb":"METAR SBSL 041100Z 10009KT 9999 SCT010 28/26 Q1012","temp":28,"dewp":26,"wdir":100,"wspd":9,"visib":"6+","altim":1012,"clouds":[{"cover":"SCT","base":1000}],"obsTime":1775300400},"SBGR":{"icaoId":"SBGR","flightCategory":"VFR","rawOb":"SPECI SBGR 041035Z 07004KT 9999 FEW004 20/19 Q1019","temp":20,"dewp":19,"wdir":70,"wspd":4,"visib":"6+","altim":1019,"clouds":[{"cover":"FEW","base":400}],"obsTime":1775298900},"SBAT":{"icaoId":"SBAT","flightCategory":"MVFR","rawOb":"METAR SBAT 041100Z 00000KT 5000 BR NSC 25/25 Q1014","temp":25,"dewp":25,"wdir":0,"wspd":0,"visib":3.11,"altim":1014,"clouds":[],"obsTime":1775300400},"SBSN":{"icaoId":"SBSN","flightCategory":"VFR","rawOb":"METAR SBSN 041100Z 16003KT CAVOK 25/23 Q1012","temp":25,"dewp":23,"wdir":160,"wspd":3,"visib":"6+","altim":1012,"clouds":[],"obsTime":1775300400},"SBHT":{"icaoId":"SBHT","flightCategory":"VFR","rawOb":"METAR SBHT 041100Z 00000KT 9999 FEW015 BKN070 25/24 Q1012","temp":25,"dewp":24,"wdir":0,"wspd":0,"visib":"6+","altim":1012,"clouds":[{"cover":"FEW","base":1500},{"cover":"BKN","base":7000}],"obsTime":1775300400},"SBSP":{"icaoId":"SBSP","flightCategory":"VFR","rawOb":"METAR SBSP 041100Z 02003KT 350V080 CAVOK 23/19 Q1020","temp":23,"dewp":19,"wdir":20,"wspd":3,"visib":"6+","altim":1020,"clouds":[],"obsTime":1775300400},"SBCB":{"icaoId":"SBCB","flightCategory":"VFR","rawOb":"METAR SBCB 041100Z 05002KT 9999 FEW015 SCT060 26/23 Q1014","temp":26,"dewp":23,"wdir":50,"wspd":2,"visib":"6+","altim":1014,"clouds":[{"cover":"FEW","base":1500},{"cover":"SCT","base":6000}],"obsTime":1775300400},"SBSV":{"icaoId":"SBSV","flightCategory":"VFR","rawOb":"METAR SBSV 041100Z 09004KT 010V130 9999 VCSH FEW018 SCT022 FEW025TCU 28/24 Q1015","temp":28,"dewp":24,"wdir":90,"wspd":4,"visib":"6+","altim":1015,"clouds":[{"cover":"FEW","base":1800},{"cover":"SCT","base":2200},{"cover":"FEW","base":2500}],"obsTime":1775300400},"SBIL":{"icaoId":"SBIL","flightCategory":"MVFR","rawOb":"METAR SBIL 041100Z 24004KT 200V270 9999 VCSH BKN020 26/25 Q1016","temp":26,"dewp":25,"wdir":240,"wspd":4,"visib":"6+","altim":1016,"clouds":[{"cover":"BKN","base":2000}],"obsTime":1775300400},"SBTE":{"icaoId":"SBTE","flightCategory":"VFR","rawOb":"METAR SBTE 041100Z VRB02KT 9999 SCT013 27/24 Q1012","temp":27,"dewp":24,"wdir":"VRB","wspd":2,"visib":"6+","altim":1012,"clouds":[{"cover":"SCT","base":1300}],"obsTime":1775300400},"SBCT":{"icaoId":"SBCT","flightCategory":"VFR","rawOb":"METAR SBCT 041100Z VRB01KT CAVOK 20/19 Q1019","temp":20,"dewp":19,"wdir":"VRB","wspd":1,"visib":"6+","altim":1019,"clouds":[],"obsTime":1775300400},"SBUL":{"icaoId":"SBUL","flightCategory":"VFR","rawOb":"METAR SBUL 041100Z 11007KT CAVOK 22/19 Q1021","temp":22,"dewp":19,"wdir":110,"wspd":7,"visib":"6+","altim":1021,"clouds":[],"obsTime":1775300400},"SBJU":{"icaoId":"SBJU","flightCategory":"MVFR","rawOb":"METAR SBJU 041100Z 00000KT 9999 BKN020 24/23 Q1016","temp":24,"dewp":23,"wdir":0,"wspd":0,"visib":"6+","altim":1016,"clouds":[{"cover":"BKN","base":2000}],"obsTime":1775300400},"SBUR":{"icaoId":"SBUR","flightCategory":"VFR","rawOb":"METAR SBUR 041100Z 02005KT CAVOK 22/19 Q1019","temp":22,"dewp":19,"wdir":20,"wspd":5,"visib":"6+","altim":1019,"clouds":[],"obsTime":1775300400},"SBCZ":{"icaoId":"SBCZ","flightCategory":"LIFR","rawOb":"METAR SBCZ 041200Z 18004KT 4000 BR OVC004 23/23 Q1013","temp":23,"dewp":23,"wdir":180,"wspd":4,"visib":2.49,"altim":1013,"clouds":[{"cover":"OVC","base":400}],"obsTime":1775304000},"SBKP":{"icaoId":"SBKP","flightCategory":"VFR","rawOb":"METAR SBKP 041100Z 09003KT CAVOK 23/19 Q1019","temp":23,"dewp":19,"wdir":90,"wspd":3,"visib":"6+","altim":1019,"clouds":[],"obsTime":1775300400},"SBSJ":{"icaoId":"SBSJ","flightCategory":"LIFR","rawOb":"METAR SBSJ 041100Z 33003KT 3000 BR OVC004 20/19 Q1019","temp":20,"dewp":19,"wdir":330,"wspd":3,"visib":1.86,"altim":1019,"clouds":[{"cover":"OVC","base":400}],"obsTime":1775300400},"SBAR":{"icaoId":"SBAR","flightCategory":"VFR","rawOb":"SPECI SBAR 041035Z 03005KT 9999 4000W SHRA SCT021 FEW021TCU 25/24 Q1014 RESHRA","temp":25,"dewp":24,"wdir":30,"wspd":5,"visib":"6+","altim":1014,"clouds":[{"cover":"SCT","base":2100},{"cover":"FEW","base":2100}],"obsTime":1775298900},"SBAX":{"icaoId":"SBAX","flightCategory":"VFR","rawOb":"METAR SBAX 041100Z AUTO 09003KT 020V130 CAVOK 22/20 Q1021","temp":22,"dewp":20,"wdir":90,"wspd":3,"visib":"6+","altim":1021,"clouds":[],"obsTime":1775300400},"SBBH":{"icaoId":"SBBH","flightCategory":"VFR","rawOb":"METAR SBBH 041100Z 11008KT CAVOK 23/18 Q1020","temp":23,"dewp":18,"wdir":110,"wspd":8,"visib":"6+","altim":1020,"clouds":[],"obsTime":1775300400},"SBBQ":{"icaoId":"SBBQ","flightCategory":"VFR","rawOb":"METAR SBBQ 041200Z 36005KT 310V050 9999 FEW017 SCT070 21/18 Q1024","temp":21,"dewp":18,"wdir":360,"wspd":5,"visib":"6+","altim":1024,"clouds":[{"cover":"FEW","base":1700},{"cover":"SCT","base":7000}],"obsTime":1775304000},"SBBU":{"icaoId":"SBBU","flightCategory":"VFR","rawOb":"METAR SBBU 041100Z 01007KT CAVOK 25/21 Q1018","temp":25,"dewp":21,"wdir":10,"wspd":7,"visib":"6+","altim":1018,"clouds":[],"obsTime":1775300400},"SBCA":{"icaoId":"SBCA","flightCategory":"VFR","rawOb":"METAR SBCA 041100Z 36005KT CAVOK 24/19 Q1019","temp":24,"dewp":19,"wdir":360,"wspd":5,"visib":"6+","altim":1019,"clouds":[],"obsTime":1775300400},"SBCC":{"icaoId":"SBCC","flightCategory":"VFR","rawOb":"METAR SBCC 041100Z 05003KT CAVOK 25/22 Q1015","temp":25,"dewp":22,"wdir":50,"wspd":3,"visib":"6+","altim":1015,"clouds":[],"obsTime":1775300400},"SBCJ":{"icaoId":"SBCJ","flightCategory":"VFR","rawOb":"METAR SBCJ 041100Z 14004KT 9999 FEW013 24/21 Q1016","temp":24,"dewp":21,"wdir":140,"wspd":4,"visib":"6+","altim":1016,"clouds":[{"cover":"FEW","base":1300}],"obsTime":1775300400},"SBCO":{"icaoId":"SBCO","flightCategory":"MVFR","rawOb":"METAR SBCO 041100Z 28003KT 240V340 8000 NSC 22/21 Q1014","temp":22,"dewp":21,"wdir":280,"wspd":3,"visib":4.97,"altim":1014,"clouds":[],"obsTime":1775300400},"SBDN":{"icaoId":"SBDN","flightCategory":"VFR","rawOb":"METAR SBDN 041100Z 06004KT CAVOK 25/19 Q1016","temp":25,"dewp":19,"wdir":60,"wspd":4,"visib":"6+","altim":1016,"clouds":[],"obsTime":1775300400},"SBES":{"icaoId":"SBES","flightCategory":"VFR","rawOb":"METAR SBES 041100Z 07004KT 030V100 9999 FEW010 SCT090 25/// Q1014","temp":null,"dewp":null,"wdir":70,"wspd":4,"visib":"6+","altim":1014,"clouds":[{"cover":"FEW","base":1000},{"cover":"SCT","base":9000}],"obsTime":1775300400},"SBGM":{"icaoId":"SBGM","flightCategory":"VFR","rawOb":"METAR SBGM 041200Z 09004KT 060V130 9999 BKN043 26/24 Q1013","temp":26,"dewp":24,"wdir":90,"wspd":4,"visib":"6+","altim":1013,"clouds":[{"cover":"BKN","base":4300}],"obsTime":1775304000},"SBIP":{"icaoId":"SBIP","flightCategory":"MVFR","rawOb":"METAR SBIP 041100Z AUTO 01005KT 9999 FEW024 BKN028 25/22 Q1018","temp":25,"dewp":22,"wdir":10,"wspd":5,"visib":"6+","altim":1018,"clouds":[{"cover":"FEW","base":2400},{"cover":"BKN","base":2800}],"obsTime":1775300400},"SBKG":{"icaoId":"SBKG","flightCategory":"VFR","rawOb":"METAR SBKG 041100Z 14006KT 9999 SCT018 BKN100 24/22 Q1017","temp":24,"dewp":22,"wdir":140,"wspd":6,"visib":"6+","altim":1017,"clouds":[{"cover":"SCT","base":1800},{"cover":"BKN","base":10000}],"obsTime":1775300400},"SBOI":{"icaoId":"SBOI","flightCategory":"VFR","rawOb":"METAR SBOI 041100Z AUTO 02003KT 9999 FEW003 25/24 Q1011","temp":25,"dewp":24,"wdir":20,"wspd":3,"visib":"6+","altim":1011,"clouds":[{"cover":"FEW","base":300}],"obsTime":1775300400},"SBPB":{"icaoId":"SBPB","flightCategory":"VFR","rawOb":"METAR SBPB 041100Z 09007KT 9999 FEW020 28/25 Q1012","temp":28,"dewp":25,"wdir":90,"wspd":7,"visib":"6+","altim":1012,"clouds":[{"cover":"FEW","base":2000}],"obsTime":1775300400},"SBPL":{"icaoId":"SBPL","flightCategory":"MVFR","rawOb":"METAR SBPL 041100Z 09007KT 9999 OVC022 26/22 Q1016","temp":26,"dewp":22,"wdir":90,"wspd":7,"visib":"6+","altim":1016,"clouds":[{"cover":"OVC","base":2200}],"obsTime":1775300400},"SBPP":{"icaoId":"SBPP","flightCategory":"VFR","rawOb":"SPECI SBPP 041115Z 05005KT CAVOK 25/19 Q1017","temp":25,"dewp":19,"wdir":50,"wspd":5,"visib":"6+","altim":1017,"clouds":[],"obsTime":1775301300},"SBPS":{"icaoId":"SBPS","flightCategory":"VFR","rawOb":"METAR SBPS 041100Z 26003KT 9999 SCT020 SCT100 25/25 Q1016","temp":25,"dewp":25,"wdir":260,"wspd":3,"visib":"6+","altim":1016,"clouds":[{"cover":"SCT","base":2000},{"cover":"SCT","base":10000}],"obsTime":1775300400},"SBSC":{"icaoId":"SBSC","flightCategory":"MVFR","rawOb":"METAR SBSC 041100Z 01012KT 8000 FEW015 SCT050 26/22 Q1014","temp":26,"dewp":22,"wdir":10,"wspd":12,"visib":4.97,"altim":1014,"clouds":[{"cover":"FEW","base":1500},{"cover":"SCT","base":5000}],"obsTime":1775300400},"SBSM":{"icaoId":"SBSM","flightCategory":"LIFR","rawOb":"METAR SBSM 041100Z VRB02KT 0200 R29///// R11/0450 FG VV001 21/21 Q1013","temp":21,"dewp":21,"wdir":"VRB","wspd":2,"visib":0.12,"altim":1013,"clouds":[{"cover":"OVX","base":100}],"obsTime":1775300400},"SBSR":{"icaoId":"SBSR","flightCategory":"VFR","rawOb":"METAR SBSR 041100Z 07006KT CAVOK 24/19 Q1017","temp":24,"dewp":19,"wdir":70,"wspd":6,"visib":"6+","altim":1017,"clouds":[],"obsTime":1775300400},"SBTF":{"icaoId":"SBTF","flightCategory":"VFR","rawOb":"SPECI SBTF 041115Z 00000KT 9999 SCT040 SCT070 23/23 Q1010","temp":23,"dewp":23,"wdir":0,"wspd":0,"visib":"6+","altim":1010,"clouds":[{"cover":"SCT","base":4000},{"cover":"SCT","base":7000}],"obsTime":1775301300},"SBTT":{"icaoId":"SBTT","flightCategory":"LIFR","rawOb":"METAR SBTT 041100Z 07003KT 3500 BR BKN003 OVC006 23/22 Q1012","temp":23,"dewp":22,"wdir":70,"wspd":3,"visib":2.17,"altim":1012,"clouds":[{"cover":"BKN","base":300},{"cover":"OVC","base":600}],"obsTime":1775300400},"SBUY":{"icaoId":"SBUY","flightCategory":"IFR","rawOb":"METAR SBUY 041100Z 03001KT 4000 BR FEW003 BKN090 21/21 Q1010","temp":21,"dewp":21,"wdir":30,"wspd":1,"visib":2.49,"altim":1010,"clouds":[{"cover":"FEW","base":300},{"cover":"BKN","base":9000}],"obsTime":1775300400},"SBVH":{"icaoId":"SBVH","flightCategory":"VFR","rawOb":"METAR SBVH 041100Z 09007KT CAVOK 23/22 Q1015","temp":23,"dewp":22,"wdir":90,"wspd":7,"visib":"6+","altim":1015,"clouds":[],"obsTime":1775300400},"SBLE":{"icaoId":"SBLE","flightCategory":"IFR","rawOb":"METAR SBLE 041100Z AUTO 16005KT 9999 BKN005 OVC023 ///// Q////","temp":null,"dewp":null,"wdir":160,"wspd":5,"visib":"6+","altim":null,"clouds":[{"cover":"BKN","base":500},{"cover":"OVC","base":2300}],"obsTime":1775300400},"SBJP":{"icaoId":"SBJP","flightCategory":"VFR","rawOb":"METAR SBJP 041100Z 14006KT 9999 SCT020 BKN070 28/24 Q1014","temp":28,"dewp":24,"wdir":140,"wspd":6,"visib":"6+","altim":1014,"clouds":[{"cover":"SCT","base":2000},{"cover":"BKN","base":7000}],"obsTime":1775300400},"SBAF":{"icaoId":"SBAF","flightCategory":"VFR","rawOb":"METAR SBAF 041100Z 30003KT CAVOK 25/23 Q1015","temp":25,"dewp":23,"wdir":300,"wspd":3,"visib":"6+","altim":1015,"clouds":[],"obsTime":1775300400},"SBGW":{"icaoId":"SBGW","flightCategory":"LIFR","rawOb":"METAR SBGW 041100Z 20002KT 3000 BR OVC004 20/16 Q1018","temp":20,"dewp":16,"wdir":200,"wspd":2,"visib":1.86,"altim":1018,"clouds":[{"cover":"OVC","base":400}],"obsTime":1775300400},"SBJR":{"icaoId":"SBJR","flightCategory":"VFR","rawOb":"METAR SBJR 041100Z 32002KT CAVOK 28/22 Q1014","temp":28,"dewp":22,"wdir":320,"wspd":2,"visib":"6+","altim":1014,"clouds":[],"obsTime":1775300400},"SBLS":{"icaoId":"SBLS","flightCategory":"VFR","rawOb":"METAR SBLS 041100Z 14007KT 9999 FEW015 SCT100 22/19 Q1020","temp":22,"dewp":19,"wdir":140,"wspd":7,"visib":"6+","altim":1020,"clouds":[{"cover":"FEW","base":1500},{"cover":"SCT","base":10000}],"obsTime":1775300400},"SBMT":{"icaoId":"SBMT","flightCategory":"VFR","rawOb":"METAR SBMT 041100Z VRB02KT CAVOK 22/19 Q1019","temp":22,"dewp":19,"wdir":"VRB","wspd":2,"visib":"6+","altim":1019,"clouds":[],"obsTime":1775300400},"SBST":{"icaoId":"SBST","flightCategory":"VFR","rawOb":"METAR SBST 041100Z 15002KT CAVOK 25/24 Q1014","temp":25,"dewp":24,"wdir":150,"wspd":2,"visib":"6+","altim":1014,"clouds":[],"obsTime":1775300400},"SBAN":{"icaoId":"SBAN","flightCategory":"VFR","rawOb":"METAR SBAN 041100Z 11008KT 9999 FEW003 21/19 Q1022","temp":21,"dewp":19,"wdir":110,"wspd":8,"visib":"6+","altim":1022,"clouds":[{"cover":"FEW","base":300}],"obsTime":1775300400},"SBJV":{"icaoId":"SBJV","flightCategory":"VFR","rawOb":"METAR SBJV 041100Z 00000KT CAVOK 25/24 Q1014","temp":25,"dewp":24,"wdir":0,"wspd":0,"visib":"6+","altim":1014,"clouds":[],"obsTime":1775300400},"SBIH":{"icaoId":"SBIH","flightCategory":"VFR","rawOb":"METAR SBIH 041100Z 35002KT 9999 FEW008 25/24 Q1012","temp":25,"dewp":24,"wdir":350,"wspd":2,"visib":"6+","altim":1012,"clouds":[{"cover":"FEW","base":800}],"obsTime":1775300400},"SBTA":{"icaoId":"SBTA","flightCategory":"LIFR","rawOb":"METAR SBTA 041100Z 26002KT 5000 BR BKN003 19/19 Q1018","temp":19,"dewp":19,"wdir":260,"wspd":2,"visib":3.11,"altim":1018,"clouds":[{"cover":"BKN","base":300}],"obsTime":1775300400},"SBPF":{"icaoId":"SBPF","flightCategory":"VFR","rawOb":"METAR SBPF 041100Z 34005KT CAVOK 20/18 Q1018","temp":20,"dewp":18,"wdir":340,"wspd":5,"visib":"6+","altim":1018,"clouds":[],"obsTime":1775300400}}}