{"updated":1775571833,"count":85,"data":{"SBMG":{"icaoId":"SBMG","flightCategory":"VFR","rawOb":"METAR SBMG 071300Z 01012KT 340V040 9999 FEW025 26/20 Q1017","temp":26,"dewp":20,"wdir":10,"wspd":12,"visib":"6+","altim":1017,"clouds":[{"cover":"FEW","base":2500}],"obsTime":1775566800},"SBMA":{"icaoId":"SBMA","flightCategory":"MVFR","rawOb":"METAR SBMA 071300Z 22006KT 9999 BKN017 30/24 Q1014","temp":30,"dewp":24,"wdir":220,"wspd":6,"visib":"6+","altim":1014,"clouds":[{"cover":"BKN","base":1700}],"obsTime":1775566800},"SBBV":{"icaoId":"SBBV","flightCategory":"VFR","rawOb":"METAR SBBV 071300Z 09016KT 9999 SCT035 SCT070 27/22 Q1014","temp":27,"dewp":22,"wdir":90,"wspd":16,"visib":"6+","altim":1014,"clouds":[{"cover":"SCT","base":3500},{"cover":"SCT","base":7000}],"obsTime":1775566800},"SBME":{"icaoId":"SBME","flightCategory":"MVFR","rawOb":"METAR SBME 071300Z 15005KT 9999 BKN021 28/23 Q1018","temp":28,"dewp":23,"wdir":150,"wspd":5,"visib":"6+","altim":1018,"clouds":[{"cover":"BKN","base":2100}],"obsTime":1775566800},"SBLO":{"icaoId":"SBLO","flightCategory":"VFR","rawOb":"METAR SBLO 071300Z 09006KT 9999 SCT015 24/21 Q1018","temp":24,"dewp":21,"wdir":90,"wspd":6,"visib":"6+","altim":1018,"clouds":[{"cover":"SCT","base":1500}],"obsTime":1775566800},"SBEG":{"icaoId":"SBEG","flightCategory":"VFR","rawOb":"METAR SBEG 071300Z 04006KT 350V080 9999 FEW015 28/25 Q1013","temp":28,"dewp":25,"wdir":40,"wspd":6,"visib":"6+","altim":1013,"clouds":[{"cover":"FEW","base":1500}],"obsTime":1775566800},"SBCF":{"icaoId":"SBCF","flightCategory":"VFR","rawOb":"METAR SBCF 071300Z 14005KT 100V200 9999 SCT025 25/17 Q1022","temp":25,"dewp":17,"wdir":140,"wspd":5,"visib":"6+","altim":1022,"clouds":[{"cover":"SCT","base":2500}],"obsTime":1775566800},"SBFI":{"icaoId":"SBFI","flightCategory":"VFR","rawOb":"METAR SBFI 071300Z 02016KT 9999 FEW040TCU BKN080 28/23 Q1012","temp":28,"dewp":23,"wdir":20,"wspd":16,"visib":"6+","altim":1012,"clouds":[{"cover":"FEW","base":4000},{"cover":"BKN","base":8000}],"obsTime":1775566800},"SBMK":{"icaoId":"SBMK","flightCategory":"MVFR","rawOb":"METAR SBMK 071300Z 08010KT 9999 BKN030 25/19 Q1020","temp":25,"dewp":19,"wdir":80,"wspd":10,"visib":"6+","altim":1020,"clouds":[{"cover":"BKN","base":3000}],"obsTime":1775566800},"SBMO":{"icaoId":"SBMO","flightCategory":"VFR","rawOb":"METAR SBMO 071300Z 27005KT 9999 FEW009 SCT020 BKN070 27/24 Q1016","temp":27,"dewp":24,"wdir":270,"wspd":5,"visib":"6+","altim":1016,"clouds":[{"cover":"FEW","base":900},{"cover":"SCT","base":2000},{"cover":"BKN","base":7000}],"obsTime":1775566800},"SBFL":{"icaoId":"SBFL","flightCategory":"MVFR","rawOb":"METAR SBFL 071300Z 32004KT 250V020 9999 FEW004 BKN026 26/23 Q1015","temp":26,"dewp":23,"wdir":320,"wspd":4,"visib":"6+","altim":1015,"clouds":[{"cover":"FEW","base":400},{"cover":"BKN","base":2600}],"obsTime":1775566800},"SBMQ":{"icaoId":"SBMQ","flightCategory":"MVFR","rawOb":"METAR SBMQ 071300Z 05008KT 9999 BKN015 28/26 Q1013","temp":28,"dewp":26,"wdir":50,"wspd":8,"visib":"6+","altim":1013,"clouds":[{"cover":"BKN","base":1500}],"obsTime":1775566800},"SBCG":{"icaoId":"SBCG","flightCategory":"VFR","rawOb":"METAR SBCG 071300Z 34011KT 9999 FEW046 27/20 Q1017","temp":27,"dewp":20,"wdir":340,"wspd":11,"visib":"6+","altim":1017,"clouds":[{"cover":"FEW","base":4600}],"obsTime":1775566800},"SBFZ":{"icaoId":"SBFZ","flightCategory":"MVFR","rawOb":"METAR SBFZ 071300Z 12010KT 9999 BKN020 FEW025TCU 29/25 Q1013","temp":29,"dewp":25,"wdir":120,"wspd":10,"visib":"6+","altim":1013,"clouds":[{"cover":"BKN","base":2000},{"cover":"FEW","base":2500}],"obsTime":1775566800},"SBNT":{"icaoId":"SBNT","flightCategory":"VFR","rawOb":"METAR SBNT 071300Z 15004KT 9999 SCT030 FEW035TCU BKN100 26/25 Q1014","temp":26,"dewp":25,"wdir":150,"wspd":4,"visib":"6+","altim":1014,"clouds":[{"cover":"SCT","base":3000},{"cover":"FEW","base":3500},{"cover":"BKN","base":10000}],"obsTime":1775566800},"SBBE":{"icaoId":"SBBE","flightCategory":"VFR","rawOb":"METAR SBBE 071300Z 08009KT 9999 SCT020 29/24 Q1013","temp":29,"dewp":24,"wdir":80,"wspd":9,"visib":"6+","altim":1013,"clouds":[{"cover":"SCT","base":2000}],"obsTime":1775566800},"SBPA":{"icaoId":"SBPA","flightCategory":"IFR","rawOb":"METAR SBPA 071300Z 28008KT 7000 -RA BKN006 FEW045TCU BKN050 22/21 Q1012","temp":22,"dewp":21,"wdir":280,"wspd":8,"visib":4.35,"altim":1012,"clouds":[{"cover":"BKN","base":600},{"cover":"FEW","base":4500},{"cover":"BKN","base":5000}],"obsTime":1775566800},"SBCP":{"icaoId":"SBCP","flightCategory":"MVFR","rawOb":"METAR SBCP 071300Z 10010KT 9999 BKN015 24/20 Q1018","temp":24,"dewp":20,"wdir":100,"wspd":10,"visib":"6+","altim":1018,"clouds":[{"cover":"BKN","base":1500}],"obsTime":1775566800},"SBPJ":{"icaoId":"SBPJ","flightCategory":"VFR","rawOb":"METAR SBPJ 071300Z 27005KT 9999 SCT027 28/25 Q1016","temp":28,"dewp":25,"wdir":270,"wspd":5,"visib":"6+","altim":1016,"clouds":[{"cover":"SCT","base":2700}],"obsTime":1775566800},"SBPV":{"icaoId":"SBPV","flightCategory":"VFR","rawOb":"METAR SBPV 071300Z VRB01KT 9999 SCT030 BKN070 27/23 Q1013","temp":27,"dewp":23,"wdir":"VRB","wspd":1,"visib":"6+","altim":1013,"clouds":[{"cover":"SCT","base":3000},{"cover":"BKN","base":7000}],"obsTime":1775566800},"SBGL":{"icaoId":"SBGL","flightCategory":"VFR","rawOb":"METAR SBGL 071300Z VRB03KT 9999 FEW015 SCT100 29/23 Q1017","temp":29,"dewp":23,"wdir":"VRB","wspd":3,"visib":"6+","altim":1017,"clouds":[{"cover":"FEW","base":1500},{"cover":"SCT","base":10000}],"obsTime":1775566800},"SBRB":{"icaoId":"SBRB","flightCategory":"VFR","rawOb":"METAR SBRB 071300Z 00000KT CAVOK 28/24 Q1014","temp":28,"dewp":24,"wdir":0,"wspd":0,"visib":"6+","altim":1014,"clouds":[],"obsTime":1775566800},"SBGO":{"icaoId":"SBGO","flightCategory":"VFR","rawOb":"METAR SBGO 071300Z 01006KT 340V050 9999 FEW035 BKN100 26/21 Q1020","temp":26,"dewp":21,"wdir":10,"wspd":6,"visib":"6+","altim":1020,"clouds":[{"cover":"FEW","base":3500},{"cover":"BKN","base":10000}],"obsTime":1775566800},"SBRF":{"icaoId":"SBRF","flightCategory":"VFR","rawOb":"METAR SBRF 071300Z 18004KT 9999 SCT012 SCT017 FEW023TCU OVC070 27/25 Q1015","temp":27,"dewp":25,"wdir":180,"wspd":4,"visib":"6+","altim":1015,"clouds":[{"cover":"SCT","base":1200},{"cover":"SCT","base":1700},{"cover":"FEW","base":2300},{"cover":"OVC","base":7000}],"obsTime":1775566800},"SBCR":{"icaoId":"SBCR","flightCategory":"VFR","rawOb":"METAR SBCR 071300Z 34004KT 290V020 9999 FEW030 BKN100 29/23 Q1014","temp":29,"dewp":23,"wdir":340,"wspd":4,"visib":"6+","altim":1014,"clouds":[{"cover":"FEW","base":3000},{"cover":"BKN","base":10000}],"obsTime":1775566800},"SBSG":{"icaoId":"SBSG","flightCategory":"MVFR","rawOb":"METAR SBSG 071300Z 15004KT 090V190 9999 VCSH BKN018 FEW023TCU BKN100 26/24 Q1015","temp":26,"dewp":24,"wdir":150,"wspd":4,"visib":"6+","altim":1015,"clouds":[{"cover":"BKN","base":1800},{"cover":"FEW","base":2300},{"cover":"BKN","base":10000}],"obsTime":1775566800},"SBGR":{"icaoId":"SBGR","flightCategory":"VFR","rawOb":"METAR SBGR 071300Z 04005KT 350V070 9999 SCT045 BKN100 25/20 Q1021","temp":25,"dewp":20,"wdir":40,"wspd":5,"visib":"6+","altim":1021,"clouds":[{"cover":"SCT","base":4500},{"cover":"BKN","base":10000}],"obsTime":1775566800},"SBAT":{"icaoId":"SBAT","flightCategory":"VFR","rawOb":"METAR SBAT 071300Z 13005KT 9999 SCT025 31/25 Q1015","temp":31,"dewp":25,"wdir":130,"wspd":5,"visib":"6+","altim":1015,"clouds":[{"cover":"SCT","base":2500}],"obsTime":1775566800},"SBSL":{"icaoId":"SBSL","flightCategory":"VFR","rawOb":"METAR SBSL 071300Z 09011KT 9999 SCT025 30/25 Q1013","temp":30,"dewp":25,"wdir":90,"wspd":11,"visib":"6+","altim":1013,"clouds":[{"cover":"SCT","base":2500}],"obsTime":1775566800},"SBCB":{"icaoId":"SBCB","flightCategory":"VFR","rawOb":"METAR SBCB 071300Z 07012KT 9999 SCT025 28/23 Q1018","temp":28,"dewp":23,"wdir":70,"wspd":12,"visib":"6+","altim":1018,"clouds":[{"cover":"SCT","base":2500}],"obsTime":1775566800},"SBSN":{"icaoId":"SBSN","flightCategory":"MVFR","rawOb":"METAR SBSN 071300Z 08008KT 9999 BKN020 28/25 Q1013","temp":28,"dewp":25,"wdir":80,"wspd":8,"visib":"6+","altim":1013,"clouds":[{"cover":"BKN","base":2000}],"obsTime":1775566800},"SBHT":{"icaoId":"SBHT","flightCategory":"MVFR","rawOb":"METAR SBHT 071300Z 10008KT 9999 BKN017 BKN090 27/24 Q1014","temp":27,"dewp":24,"wdir":100,"wspd":8,"visib":"6+","altim":1014,"clouds":[{"cover":"BKN","base":1700},{"cover":"BKN","base":9000}],"obsTime":1775566800},"SBSP":{"icaoId":"SBSP","flightCategory":"VFR","rawOb":"METAR SBSP 071300Z 07003KT 020V120 CAVOK 24/20 Q1022","temp":24,"dewp":20,"wdir":70,"wspd":3,"visib":"6+","altim":1022,"clouds":[],"obsTime":1775566800},"SBCT":{"icaoId":"SBCT","flightCategory":"VFR","rawOb":"METAR SBCT 071300Z 02009KT 9999 SCT020 23/19 Q1020","temp":23,"dewp":19,"wdir":20,"wspd":9,"visib":"6+","altim":1020,"clouds":[{"cover":"SCT","base":2000}],"obsTime":1775566800},"SBSV":{"icaoId":"SBSV","flightCategory":"VFR","rawOb":"METAR SBSV 071300Z 09007KT 9999 SCT020 30/23 Q1016","temp":30,"dewp":23,"wdir":90,"wspd":7,"visib":"6+","altim":1016,"clouds":[{"cover":"SCT","base":2000}],"obsTime":1775566800},"SBTE":{"icaoId":"SBTE","flightCategory":"VFR","rawOb":"METAR SBTE 071300Z 05003KT 9999 SCT020 30/24 Q1013","temp":30,"dewp":24,"wdir":50,"wspd":3,"visib":"6+","altim":1013,"clouds":[{"cover":"SCT","base":2000}],"obsTime":1775566800},"SBIL":{"icaoId":"SBIL","flightCategory":"VFR","rawOb":"METAR SBIL 071300Z 16005KT 130V220 9999 SCT020 30/25 Q1017","temp":30,"dewp":25,"wdir":160,"wspd":5,"visib":"6+","altim":1017,"clouds":[{"cover":"SCT","base":2000}],"obsTime":1775566800},"SBBR":{"icaoId":"SBBR","flightCategory":"VFR","rawOb":"METAR SBBR 071300Z 10014KT 9999 BKN035 FEW040TCU 25/19 Q1022","temp":25,"dewp":19,"wdir":100,"wspd":14,"visib":"6+","altim":1022,"clouds":[{"cover":"BKN","base":3500},{"cover":"FEW","base":4000}],"obsTime":1775566800},"SBUL":{"icaoId":"SBUL","flightCategory":"VFR","rawOb":"METAR SBUL 071300Z 12008KT 9999 FEW020 SCT100 25/20 Q1022","temp":25,"dewp":20,"wdir":120,"wspd":8,"visib":"6+","altim":1022,"clouds":[{"cover":"FEW","base":2000},{"cover":"SCT","base":10000}],"obsTime":1775566800},"SBJU":{"icaoId":"SBJU","flightCategory":"VFR","rawOb":"METAR SBJU 071300Z 12008KT 9999 FEW021 29/22 Q1017","temp":29,"dewp":22,"wdir":120,"wspd":8,"visib":"6+","altim":1017,"clouds":[{"cover":"FEW","base":2100}],"obsTime":1775566800},"SBUR":{"icaoId":"SBUR","flightCategory":"VFR","rawOb":"METAR SBUR 071300Z 07005KT 9999 FEW023 23/20 Q1020","temp":23,"dewp":20,"wdir":70,"wspd":5,"visib":"6+","altim":1020,"clouds":[{"cover":"FEW","base":2300}],"obsTime":1775566800},"SBKP":{"icaoId":"SBKP","flightCategory":"VFR","rawOb":"METAR SBKP 071300Z 01003KT 330V090 9999 FEW025 SCT080 25/21 Q1020","temp":25,"dewp":21,"wdir":10,"wspd":3,"visib":"6+","altim":1020,"clouds":[{"cover":"FEW","base":2500},{"cover":"SCT","base":8000}],"obsTime":1775566800},"SBVT":{"icaoId":"SBVT","flightCategory":"VFR","rawOb":"METAR SBVT 071300Z 15005KT 9999 SCT020 BKN040 25/23 Q1018","temp":25,"dewp":23,"wdir":150,"wspd":5,"visib":"6+","altim":1018,"clouds":[{"cover":"SCT","base":2000},{"cover":"BKN","base":4000}],"obsTime":1775566800},"SBCZ":{"icaoId":"SBCZ","flightCategory":"IFR","rawOb":"METAR SBCZ 071300Z 24003KT 140V300 9999 BKN005 25/24 Q1013","temp":25,"dewp":24,"wdir":240,"wspd":3,"visib":"6+","altim":1013,"clouds":[{"cover":"BKN","base":500}],"obsTime":1775566800},"SBOI":{"icaoId":"SBOI","flightCategory":"MVFR","rawOb":"METAR SBOI 071300Z AUTO 05008KT 9999 BKN019 29/25 Q1014","temp":29,"dewp":25,"wdir":50,"wspd":8,"visib":"6+","altim":1014,"clouds":[{"cover":"BKN","base":1900}],"obsTime":1775566800},"SBPB":{"icaoId":"SBPB","flightCategory":"VFR","rawOb":"METAR SBPB 071300Z 07013KT 9999 SCT020 30/22 Q1013","temp":30,"dewp":22,"wdir":70,"wspd":13,"visib":"6+","altim":1013,"clouds":[{"cover":"SCT","base":2000}],"obsTime":1775566800},"SBCJ":{"icaoId":"SBCJ","flightCategory":"VFR","rawOb":"METAR SBCJ 071300Z 08006KT 9999 SCT013 SCT018 24/21 Q1018","temp":24,"dewp":21,"wdir":80,"wspd":6,"visib":"6+","altim":1018,"clouds":[{"cover":"SCT","base":1300},{"cover":"SCT","base":1800}],"obsTime":1775566800},"SBPL":{"icaoId":"SBPL","flightCategory":"VFR","rawOb":"METAR SBPL 071300Z 10009KT 9999 SCT025 28/22 Q1017","temp":28,"dewp":22,"wdir":100,"wspd":9,"visib":"6+","altim":1017,"clouds":[{"cover":"SCT","base":2500}],"obsTime":1775566800},"SBBQ":{"icaoId":"SBBQ","flightCategory":"MVFR","rawOb":"METAR SBBQ 071300Z 06004KT 320V110 9999 BKN012 21/18 Q1025","temp":21,"dewp":18,"wdir":60,"wspd":4,"visib":"6+","altim":1025,"clouds":[{"cover":"BKN","base":1200}],"obsTime":1775566800},"SBPP":{"icaoId":"SBPP","flightCategory":"VFR","rawOb":"METAR SBPP 071300Z 33013KT CAVOK 27/20 Q1016","temp":27,"dewp":20,"wdir":330,"wspd":13,"visib":"6+","altim":1016,"clouds":[],"obsTime":1775566800},"SBAU":{"icaoId":"SBAU","flightCategory":"VFR","rawOb":"METAR SBAU 071300Z 03010KT CAVOK 28/22 Q1018","temp":28,"dewp":22,"wdir":30,"wspd":10,"visib":"6+","altim":1018,"clouds":[],"obsTime":1775566800},"SBCO":{"icaoId":"SBCO","flightCategory":"VFR","rawOb":"METAR SBCO 071300Z 29007KT 260V330 9999 -DZ SCT007 FEW030TCU OVC045 22/21 Q1013","temp":22,"dewp":21,"wdir":290,"wspd":7,"visib":"6+","altim":1013,"clouds":[{"cover":"SCT","base":700},{"cover":"FEW","base":3000},{"cover":"OVC","base":4500}],"obsTime":1775566800},"SBPS":{"icaoId":"SBPS","flightCategory":"MVFR","rawOb":"METAR SBPS 071300Z 15004KT 110V180 9999 BKN015 29/25 Q1018","temp":29,"dewp":25,"wdir":150,"wspd":4,"visib":"6+","altim":1018,"clouds":[{"cover":"BKN","base":1500}],"obsTime":1775566800},"SBBU":{"icaoId":"SBBU","flightCategory":"VFR","rawOb":"METAR SBBU 071300Z 04008KT 9999 FEW007 26/22 Q1019","temp":26,"dewp":22,"wdir":40,"wspd":8,"visib":"6+","altim":1019,"clouds":[{"cover":"FEW","base":700}],"obsTime":1775566800},"SBSC":{"icaoId":"SBSC","flightCategory":"VFR","rawOb":"METAR SBSC 071300Z 01009KT CAVOK 30/22 Q1017","temp":30,"dewp":22,"wdir":10,"wspd":9,"visib":"6+","altim":1017,"clouds":[],"obsTime":1775566800},"SBDN":{"icaoId":"SBDN","flightCategory":"VFR","rawOb":"METAR SBDN 071300Z 03007KT CAVOK 27/20 Q1017","temp":27,"dewp":20,"wdir":30,"wspd":7,"visib":"6+","altim":1017,"clouds":[],"obsTime":1775566800},"SBSJ":{"icaoId":"SBSJ","flightCategory":"MVFR","rawOb":"METAR SBSJ 071300Z 05004KT 360V100 7000 BKN019 25/21 Q1020","temp":25,"dewp":21,"wdir":50,"wspd":4,"visib":4.35,"altim":1020,"clouds":[{"cover":"BKN","base":1900}],"obsTime":1775566800},"SBBH":{"icaoId":"SBBH","flightCategory":"MVFR","rawOb":"METAR SBBH 071300Z 11009KT 9999 BKN026 25/18 Q1022","temp":25,"dewp":18,"wdir":110,"wspd":9,"visib":"6+","altim":1022,"clouds":[{"cover":"BKN","base":2600}],"obsTime":1775566800},"SBSM":{"icaoId":"SBSM","flightCategory":"IFR","rawOb":"METAR SBSM 071300Z 33006KT 280V010 2000 +RA BR VCTS SCT040 FEW045CB OVC100 21/21 Q1011 RERA","temp":21,"dewp":21,"wdir":330,"wspd":6,"visib":1.24,"altim":1011,"clouds":[{"cover":"SCT","base":4000},{"cover":"FEW","base":4500},{"cover":"OVC","base":10000}],"obsTime":1775566800},"SBES":{"icaoId":"SBES","flightCategory":"VFR","rawOb":"METAR SBES 071300Z 05012KT 310V080 9999 SCT015 27/// Q1018","temp":null,"dewp":null,"wdir":50,"wspd":12,"visib":"6+","altim":1018,"clouds":[{"cover":"SCT","base":1500}],"obsTime":1775566800},"SBSR":{"icaoId":"SBSR","flightCategory":"VFR","rawOb":"METAR SBSR 071300Z 06005KT CAVOK 26/19 Q1019","temp":26,"dewp":19,"wdir":60,"wspd":5,"visib":"6+","altim":1019,"clouds":[],"obsTime":1775566800},"SBCA":{"icaoId":"SBCA","flightCategory":"VFR","rawOb":"METAR SBCA 071300Z 03017G27KT 9999 SCT010 SCT100 24/20 Q1017","temp":24,"dewp":20,"wdir":30,"wspd":17,"visib":"6+","altim":1017,"clouds":[{"cover":"SCT","base":1000},{"cover":"SCT","base":10000}],"obsTime":1775566800},"SBTD":{"icaoId":"SBTD","flightCategory":"VFR","rawOb":"METAR SBTD 071300Z /////KT 9999 SCT012 25/19 Q1016","temp":25,"dewp":19,"wdir":null,"wspd":null,"visib":"6+","altim":1016,"clouds":[{"cover":"SCT","base":1200}],"obsTime":1775566800},"SBGM":{"icaoId":"SBGM","flightCategory":"VFR","rawOb":"METAR SBGM 071300Z 36005KT 9999 SCT043 28/22 Q1013","temp":28,"dewp":22,"wdir":360,"wspd":5,"visib":"6+","altim":1013,"clouds":[{"cover":"SCT","base":4300}],"obsTime":1775566800},"SBTF":{"icaoId":"SBTF","flightCategory":"VFR","rawOb":"METAR SBTF 071300Z 25005KT 9999 SCT008 OVC100 26/25 Q1013","temp":26,"dewp":25,"wdir":250,"wspd":5,"visib":"6+","altim":1013,"clouds":[{"cover":"SCT","base":800},{"cover":"OVC","base":10000}],"obsTime":1775566800},"SBAX":{"icaoId":"SBAX","flightCategory":"VFR","rawOb":"METAR SBAX 071300Z 08005KT 9999 FEW025 SCT100 23/21 Q1022","temp":23,"dewp":21,"wdir":80,"wspd":5,"visib":"6+","altim":1022,"clouds":[{"cover":"FEW","base":2500},{"cover":"SCT","base":10000}],"obsTime":1775566800},"SBTT":{"icaoId":"SBTT","flightCategory":"MVFR","rawOb":"METAR SBTT 071300Z 06002KT 8000 SCT008 27/22 Q1013","temp":27,"dewp":22,"wdir":60,"wspd":2,"visib":4.97,"altim":1013,"clouds":[{"cover":"SCT","base":800}],"obsTime":1775566800},"SBKG":{"icaoId":"SBKG","flightCategory":"VFR","rawOb":"METAR SBKG 071300Z 11012KT 9999 SCT012 BKN090 25/22 Q1017","temp":25,"dewp":22,"wdir":110,"wspd":12,"visib":"6+","altim":1017,"clouds":[{"cover":"SCT","base":1200},{"cover":"BKN","base":9000}],"obsTime":1775566800},"SBUY":{"icaoId":"SBUY","flightCategory":"IFR","rawOb":"METAR SBUY 071300Z 16003KT 1800 RA SCT005 BKN007 BKN080 24/24 Q1014","temp":24,"dewp":24,"wdir":160,"wspd":3,"visib":1.12,"altim":1014,"clouds":[{"cover":"SCT","base":500},{"cover":"BKN","base":700},{"cover":"BKN","base":8000}],"obsTime":1775566800},"SBAR":{"icaoId":"SBAR","flightCategory":"VFR","rawOb":"METAR SBAR 071300Z 09014KT 9999 SCT025 BKN060 29/25 Q1016","temp":29,"dewp":25,"wdir":90,"wspd":14,"visib":"6+","altim":1016,"clouds":[{"cover":"SCT","base":2500},{"cover":"BKN","base":6000}],"obsTime":1775566800},"SBVH":{"icaoId":"SBVH","flightCategory":"VFR","rawOb":"METAR SBVH 071300Z 01007KT 9999 SCT020 27/23 Q1017","temp":27,"dewp":23,"wdir":10,"wspd":7,"visib":"6+","altim":1017,"clouds":[{"cover":"SCT","base":2000}],"obsTime":1775566800},"SBCC":{"icaoId":"SBCC","flightCategory":"VFR","rawOb":"METAR SBCC 071300Z 04009KT 9999 SCT012 SCT016 27/22 Q1016","temp":27,"dewp":22,"wdir":40,"wspd":9,"visib":"6+","altim":1016,"clouds":[{"cover":"SCT","base":1200},{"cover":"SCT","base":1600}],"obsTime":1775566800},"SBAN":{"icaoId":"SBAN","flightCategory":"VFR","rawOb":"METAR SBAN 071300Z 07011KT 9999 FEW025 25/19 Q1023","temp":25,"dewp":19,"wdir":70,"wspd":11,"visib":"6+","altim":1023,"clouds":[{"cover":"FEW","base":2500}],"obsTime":1775566800},"SBIH":{"icaoId":"SBIH","flightCategory":"VFR","rawOb":"METAR SBIH 071300Z 04007KT 9999 SCT016 28/25 Q1013","temp":28,"dewp":25,"wdir":40,"wspd":7,"visib":"6+","altim":1013,"clouds":[{"cover":"SCT","base":1600}],"obsTime":1775566800},"SBJV":{"icaoId":"SBJV","flightCategory":"MVFR","rawOb":"METAR SBJV 071300Z 00000KT 9999 SCT010 BKN015 25/23 Q1016","temp":25,"dewp":23,"wdir":0,"wspd":0,"visib":"6+","altim":1016,"clouds":[{"cover":"SCT","base":1000},{"cover":"BKN","base":1500}],"obsTime":1775566800},"SBNM":{"icaoId":"SBNM","flightCategory":"MVFR","rawOb":"METAR SBNM 071300Z 10010KT 7000 -RA SCT006 BKN015 FEW035TCU BKN060 20/20 Q1011 RETS","temp":20,"dewp":20,"wdir":100,"wspd":10,"visib":4.35,"altim":1011,"clouds":[{"cover":"SCT","base":600},{"cover":"BKN","base":1500},{"cover":"FEW","base":3500},{"cover":"BKN","base":6000}],"obsTime":1775566800},"SBPF":{"icaoId":"SBPF","flightCategory":"MVFR","rawOb":"SPECI SBPF 071305Z 10008KT 9999 BKN020 23/18 Q1015","temp":23,"dewp":18,"wdir":100,"wspd":8,"visib":"6+","altim":1015,"clouds":[{"cover":"BKN","base":2000}],"obsTime":1775567100},"SBAF":{"icaoId":"SBAF","flightCategory":"VFR","rawOb":"METAR SBAF 071300Z 08004KT 9999 FEW025 28/24 Q1017","temp":28,"dewp":24,"wdir":80,"wspd":4,"visib":"6+","altim":1017,"clouds":[{"cover":"FEW","base":2500}],"obsTime":1775566800},"SBGW":{"icaoId":"SBGW","flightCategory":"MVFR","rawOb":"METAR SBGW 071300Z 04006KT 350V080 7000 SCT020 27/18 Q1019","temp":27,"dewp":18,"wdir":40,"wspd":6,"visib":4.35,"altim":1019,"clouds":[{"cover":"SCT","base":2000}],"obsTime":1775566800},"SBJR":{"icaoId":"SBJR","flightCategory":"VFR","rawOb":"METAR SBJR 071300Z 02004KT CAVOK 32/23 Q1017","temp":32,"dewp":23,"wdir":20,"wspd":4,"visib":"6+","altim":1017,"clouds":[],"obsTime":1775566800},"SBLS":{"icaoId":"SBLS","flightCategory":"VFR","rawOb":"METAR SBLS 071300Z VRB04KT 9999 SCT023 24/18 Q1022","temp":24,"dewp":18,"wdir":"VRB","wspd":4,"visib":"6+","altim":1022,"clouds":[{"cover":"SCT","base":2300}],"obsTime":1775566800},"SBMT":{"icaoId":"SBMT","flightCategory":"VFR","rawOb":"METAR SBMT 071300Z VRB02KT 9999 SCT020 BKN070 24/20 Q1021","temp":24,"dewp":20,"wdir":"VRB","wspd":2,"visib":"6+","altim":1021,"clouds":[{"cover":"SCT","base":2000},{"cover":"BKN","base":7000}],"obsTime":1775566800},"SBST":{"icaoId":"SBST","flightCategory":"VFR","rawOb":"METAR SBST 071300Z 31003KT 9999 SCT040 26/25 Q1016","temp":26,"dewp":25,"wdir":310,"wspd":3,"visib":"6+","altim":1016,"clouds":[{"cover":"SCT","base":4000}],"obsTime":1775566800},"SBTA":{"icaoId":"SBTA","flightCategory":"VFR","rawOb":"METAR SBTA 071300Z 04005KT 010V070 9999 FEW018 SCT021 25/21 Q1019","temp":25,"dewp":21,"wdir":40,"wspd":5,"visib":"6+","altim":1019,"clouds":[{"cover":"FEW","base":1800},{"cover":"SCT","base":2100}],"obsTime":1775566800},"SBJP":{"icaoId":"SBJP","flightCategory":"VFR","rawOb":"METAR SBJP 071300Z 14008KT 9999 SCT020 OVC070 25/24 Q1015","temp":25,"dewp":24,"wdir":140,"wspd":8,"visib":"6+","altim":1015,"clouds":[{"cover":"SCT","base":2000},{"cover":"OVC","base":7000}],"obsTime":1775566800}}}