{"updated":1775139242,"count":87,"data":{"SBRB":{"icaoId":"SBRB","flightCategory":"VFR","rawOb":"METAR SBRB 021300Z 05005KT 9999 SCT006 27/25 Q1013","temp":27,"dewp":25,"wdir":50,"wspd":5,"visib":"6+","altim":1013,"clouds":[{"cover":"SCT","base":600}],"obsTime":1775134800},"SBAT":{"icaoId":"SBAT","flightCategory":"VFR","rawOb":"METAR SBAT 021300Z 00000KT 9999 SCT015 SCT100 27/23 Q1015","temp":27,"dewp":23,"wdir":0,"wspd":0,"visib":"6+","altim":1015,"clouds":[{"cover":"SCT","base":1500},{"cover":"SCT","base":10000}],"obsTime":1775134800},"SBBE":{"icaoId":"SBBE","flightCategory":"VFR","rawOb":"METAR SBBE 021300Z 02002KT 9999 SCT015 BKN100 28/26 Q1014","temp":28,"dewp":26,"wdir":20,"wspd":2,"visib":"6+","altim":1014,"clouds":[{"cover":"SCT","base":1500},{"cover":"BKN","base":10000}],"obsTime":1775134800},"SBBR":{"icaoId":"SBBR","flightCategory":"VFR","rawOb":"METAR SBBR 021300Z 10008KT 9999 SCT015 SCT100 23/19 Q1020","temp":23,"dewp":19,"wdir":100,"wspd":8,"visib":"6+","altim":1020,"clouds":[{"cover":"SCT","base":1500},{"cover":"SCT","base":10000}],"obsTime":1775134800},"SBBV":{"icaoId":"SBBV","flightCategory":"VFR","rawOb":"METAR SBBV 021300Z 10010KT 9999 FEW030 27/21 Q1013","temp":27,"dewp":21,"wdir":100,"wspd":10,"visib":"6+","altim":1013,"clouds":[{"cover":"FEW","base":3000}],"obsTime":1775134800},"SBCB":{"icaoId":"SBCB","flightCategory":"VFR","rawOb":"METAR SBCB 021300Z 04016KT CAVOK 29/22 Q1014","temp":29,"dewp":22,"wdir":40,"wspd":16,"visib":"6+","altim":1014,"clouds":[],"obsTime":1775134800},"SBCF":{"icaoId":"SBCF","flightCategory":"MVFR","rawOb":"METAR SBCF 021300Z 11007KT 9999 BKN020 25/19 Q1020","temp":25,"dewp":19,"wdir":110,"wspd":7,"visib":"6+","altim":1020,"clouds":[{"cover":"BKN","base":2000}],"obsTime":1775134800},"SBCG":{"icaoId":"SBCG","flightCategory":"VFR","rawOb":"METAR SBCG 021300Z 02010KT 340V050 CAVOK 29/19 Q1015","temp":29,"dewp":19,"wdir":20,"wspd":10,"visib":"6+","altim":1015,"clouds":[],"obsTime":1775134800},"SBCP":{"icaoId":"SBCP","flightCategory":"VFR","rawOb":"METAR SBCP 021300Z 06008KT 9999 FEW030 SCT090 30/24 Q1015","temp":30,"dewp":24,"wdir":60,"wspd":8,"visib":"6+","altim":1015,"clouds":[{"cover":"FEW","base":3000},{"cover":"SCT","base":9000}],"obsTime":1775134800},"SBCR":{"icaoId":"SBCR","flightCategory":"VFR","rawOb":"METAR SBCR 021300Z VRB04KT CAVOK 30/23 Q1012","temp":30,"dewp":23,"wdir":"VRB","wspd":4,"visib":"6+","altim":1012,"clouds":[],"obsTime":1775134800},"SBCT":{"icaoId":"SBCT","flightCategory":"MVFR","rawOb":"SPECI SBCT 021235Z 33005KT 270V010 9999 BKN017 BKN100 22/18 Q1018","temp":22,"dewp":18,"wdir":330,"wspd":5,"visib":"6+","altim":1018,"clouds":[{"cover":"BKN","base":1700},{"cover":"BKN","base":10000}],"obsTime":1775133300},"SBCZ":{"icaoId":"SBCZ","flightCategory":"IFR","rawOb":"METAR SBCZ 021300Z 10003KT 070V140 9999 BKN005 SCT040 BKN080 25/24 Q1012","temp":25,"dewp":24,"wdir":100,"wspd":3,"visib":"6+","altim":1012,"clouds":[{"cover":"BKN","base":500},{"cover":"SCT","base":4000},{"cover":"BKN","base":8000}],"obsTime":1775134800},"SBEG":{"icaoId":"SBEG","flightCategory":"VFR","rawOb":"METAR SBEG 021300Z 06005KT 9999 SCT010 SCT100 26/23 Q1013","temp":26,"dewp":23,"wdir":60,"wspd":5,"visib":"6+","altim":1013,"clouds":[{"cover":"SCT","base":1000},{"cover":"SCT","base":10000}],"obsTime":1775134800},"SBFI":{"icaoId":"SBFI","flightCategory":"VFR","rawOb":"METAR SBFI 021300Z 02008KT CAVOK 27/22 Q1013","temp":27,"dewp":22,"wdir":20,"wspd":8,"visib":"6+","altim":1013,"clouds":[],"obsTime":1775134800},"SBFL":{"icaoId":"SBFL","flightCategory":"VFR","rawOb":"METAR SBFL 021300Z 34010KT CAVOK 27/22 Q1012","temp":27,"dewp":22,"wdir":340,"wspd":10,"visib":"6+","altim":1012,"clouds":[],"obsTime":1775134800},"SBFZ":{"icaoId":"SBFZ","flightCategory":"MVFR","rawOb":"SPECI SBFZ 021220Z 17004KT 9999 FEW006 BKN023 26/25 Q1013 RERA","temp":26,"dewp":25,"wdir":170,"wspd":4,"visib":"6+","altim":1013,"clouds":[{"cover":"FEW","base":600},{"cover":"BKN","base":2300}],"obsTime":1775132400},"SBGL":{"icaoId":"SBGL","flightCategory":"VFR","rawOb":"METAR SBGL 021300Z 22006KT 9999 FEW040 SCT100 30/23 Q1014","temp":30,"dewp":23,"wdir":220,"wspd":6,"visib":"6+","altim":1014,"clouds":[{"cover":"FEW","base":4000},{"cover":"SCT","base":10000}],"obsTime":1775134800},"SBGO":{"icaoId":"SBGO","flightCategory":"VFR","rawOb":"METAR SBGO 021300Z 04004KT 010V090 CAVOK 25/20 Q1019","temp":25,"dewp":20,"wdir":40,"wspd":4,"visib":"6+","altim":1019,"clouds":[],"obsTime":1775134800},"SBGR":{"icaoId":"SBGR","flightCategory":"VFR","rawOb":"METAR SBGR 021300Z 34007KT 9999 FEW030 27/19 Q1018","temp":27,"dewp":19,"wdir":340,"wspd":7,"visib":"6+","altim":1018,"clouds":[{"cover":"FEW","base":3000}],"obsTime":1775134800},"SBHT":{"icaoId":"SBHT","flightCategory":"MVFR","rawOb":"METAR SBHT 021300Z 00000KT 9999 FEW010 BKN015 BKN090 27/24 Q1014","temp":27,"dewp":24,"wdir":0,"wspd":0,"visib":"6+","altim":1014,"clouds":[{"cover":"FEW","base":1000},{"cover":"BKN","base":1500},{"cover":"BKN","base":9000}],"obsTime":1775134800},"SBIL":{"icaoId":"SBIL","flightCategory":"MVFR","rawOb":"METAR SBIL 021300Z 19004KT 150V250 8000 -RA SCT020 FEW023TCU SCT100 29/25 Q1015","temp":29,"dewp":25,"wdir":190,"wspd":4,"visib":4.97,"altim":1015,"clouds":[{"cover":"SCT","base":2000},{"cover":"FEW","base":2300},{"cover":"SCT","base":10000}],"obsTime":1775134800},"SBJU":{"icaoId":"SBJU","flightCategory":"MVFR","rawOb":"METAR SBJU 021300Z 05004KT 9999 BKN011 BKN015 24/24 Q1015","temp":24,"dewp":24,"wdir":50,"wspd":4,"visib":"6+","altim":1015,"clouds":[{"cover":"BKN","base":1100},{"cover":"BKN","base":1500}],"obsTime":1775134800},"SBKP":{"icaoId":"SBKP","flightCategory":"VFR","rawOb":"METAR SBKP 021300Z 01009KT 9999 FEW030 26/20 Q1018","temp":26,"dewp":20,"wdir":10,"wspd":9,"visib":"6+","altim":1018,"clouds":[{"cover":"FEW","base":3000}],"obsTime":1775134800},"SBLO":{"icaoId":"SBLO","flightCategory":"MVFR","rawOb":"SPECI SBLO 021240Z 12002KT 8000 SCT004 22/20 Q1016","temp":22,"dewp":20,"wdir":120,"wspd":2,"visib":4.97,"altim":1016,"clouds":[{"cover":"SCT","base":400}],"obsTime":1775133600},"SBMA":{"icaoId":"SBMA","flightCategory":"LIFR","rawOb":"METAR SBMA 021300Z 19006KT 1600 -RA BR BKN007 OVC100 23/22 Q1016","temp":23,"dewp":22,"wdir":190,"wspd":6,"visib":0.99,"altim":1016,"clouds":[{"cover":"BKN","base":700},{"cover":"OVC","base":10000}],"obsTime":1775134800},"SBME":{"icaoId":"SBME","flightCategory":"VFR","rawOb":"METAR SBME 021300Z 07012KT 9999 FEW030 31/22 Q1014","temp":31,"dewp":22,"wdir":70,"wspd":12,"visib":"6+","altim":1014,"clouds":[{"cover":"FEW","base":3000}],"obsTime":1775134800},"SBMG":{"icaoId":"SBMG","flightCategory":"VFR","rawOb":"METAR SBMG 021300Z 02010KT CAVOK 25/19 Q1015","temp":25,"dewp":19,"wdir":20,"wspd":10,"visib":"6+","altim":1015,"clouds":[],"obsTime":1775134800},"SBMK":{"icaoId":"SBMK","flightCategory":"MVFR","rawOb":"METAR SBMK 021300Z 09008KT 9999 BKN020 SCT070 25/20 Q1019","temp":25,"dewp":20,"wdir":90,"wspd":8,"visib":"6+","altim":1019,"clouds":[{"cover":"BKN","base":2000},{"cover":"SCT","base":7000}],"obsTime":1775134800},"SBMO":{"icaoId":"SBMO","flightCategory":"MVFR","rawOb":"METAR SBMO 021300Z 09007KT 060V120 9999 BKN026 29/24 Q1013","temp":29,"dewp":24,"wdir":90,"wspd":7,"visib":"6+","altim":1013,"clouds":[{"cover":"BKN","base":2600}],"obsTime":1775134800},"SBMQ":{"icaoId":"SBMQ","flightCategory":"MVFR","rawOb":"METAR SBMQ 021300Z 02002KT 8000 -RA SCT015 OVC090 25/24 Q1014","temp":25,"dewp":24,"wdir":20,"wspd":2,"visib":4.97,"altim":1014,"clouds":[{"cover":"SCT","base":1500},{"cover":"OVC","base":9000}],"obsTime":1775134800},"SBNT":{"icaoId":"SBNT","flightCategory":"MVFR","rawOb":"METAR SBNT 021300Z 13008KT 090V160 9999 BKN023 30/24 Q1012","temp":30,"dewp":24,"wdir":130,"wspd":8,"visib":"6+","altim":1012,"clouds":[{"cover":"BKN","base":2300}],"obsTime":1775134800},"SBPA":{"icaoId":"SBPA","flightCategory":"VFR","rawOb":"METAR SBPA 021300Z 31003KT 270V040 9999 FEW020 27/20 Q1011","temp":27,"dewp":20,"wdir":310,"wspd":3,"visib":"6+","altim":1011,"clouds":[{"cover":"FEW","base":2000}],"obsTime":1775134800},"SBPJ":{"icaoId":"SBPJ","flightCategory":"VFR","rawOb":"METAR SBPJ 021300Z 12006KT 090V150 9999 -RA FEW007 SCT015 BKN080 25/23 Q1016","temp":25,"dewp":23,"wdir":120,"wspd":6,"visib":"6+","altim":1016,"clouds":[{"cover":"FEW","base":700},{"cover":"SCT","base":1500},{"cover":"BKN","base":8000}],"obsTime":1775134800},"SBPV":{"icaoId":"SBPV","flightCategory":"VFR","rawOb":"METAR SBPV 021300Z 08006KT 9999 SCT015 27/24 Q1013","temp":27,"dewp":24,"wdir":80,"wspd":6,"visib":"6+","altim":1013,"clouds":[{"cover":"SCT","base":1500}],"obsTime":1775134800},"SBRF":{"icaoId":"SBRF","flightCategory":"VFR","rawOb":"METAR SBRF 021300Z 15002KT 9999 SCT017 BKN060 28/25 Q1013","temp":28,"dewp":25,"wdir":150,"wspd":2,"visib":"6+","altim":1013,"clouds":[{"cover":"SCT","base":1700},{"cover":"BKN","base":6000}],"obsTime":1775134800},"SBSG":{"icaoId":"SBSG","flightCategory":"VFR","rawOb":"METAR SBSG 021300Z 12006KT 090V180 9999 SCT020 29/25 Q1013","temp":29,"dewp":25,"wdir":120,"wspd":6,"visib":"6+","altim":1013,"clouds":[{"cover":"SCT","base":2000}],"obsTime":1775134800},"SBSL":{"icaoId":"SBSL","flightCategory":"MVFR","rawOb":"METAR SBSL 021300Z 08008KT 5000 -RA BR SCT010 BKN015 OVC080 24/23 Q1014","temp":24,"dewp":23,"wdir":80,"wspd":8,"visib":3.11,"altim":1014,"clouds":[{"cover":"SCT","base":1000},{"cover":"BKN","base":1500},{"cover":"OVC","base":8000}],"obsTime":1775134800},"SBSN":{"icaoId":"SBSN","flightCategory":"VFR","rawOb":"METAR SBSN 021300Z 19003KT 9999 FEW020 SCT100 28/22 Q1013","temp":28,"dewp":22,"wdir":190,"wspd":3,"visib":"6+","altim":1013,"clouds":[{"cover":"FEW","base":2000},{"cover":"SCT","base":10000}],"obsTime":1775134800},"SBSP":{"icaoId":"SBSP","flightCategory":"VFR","rawOb":"METAR SBSP 021300Z 32010KT 280V010 9999 FEW032 26/18 Q1019","temp":26,"dewp":18,"wdir":320,"wspd":10,"visib":"6+","altim":1019,"clouds":[{"cover":"FEW","base":3200}],"obsTime":1775134800},"SBSV":{"icaoId":"SBSV","flightCategory":"VFR","rawOb":"METAR SBSV 021300Z 09011KT 9999 SCT023 FEW025TCU SCT100 30/21 Q1014","temp":30,"dewp":21,"wdir":90,"wspd":11,"visib":"6+","altim":1014,"clouds":[{"cover":"SCT","base":2300},{"cover":"FEW","base":2500},{"cover":"SCT","base":10000}],"obsTime":1775134800},"SBTE":{"icaoId":"SBTE","flightCategory":"VFR","rawOb":"METAR SBTE 021300Z 31001KT 9999 SCT015 BKN080 27/25 Q1013","temp":27,"dewp":25,"wdir":310,"wspd":1,"visib":"6+","altim":1013,"clouds":[{"cover":"SCT","base":1500},{"cover":"BKN","base":8000}],"obsTime":1775134800},"SBUL":{"icaoId":"SBUL","flightCategory":"VFR","rawOb":"METAR SBUL 021300Z 07012KT 9999 FEW015 24/19 Q1020","temp":24,"dewp":19,"wdir":70,"wspd":12,"visib":"6+","altim":1020,"clouds":[{"cover":"FEW","base":1500}],"obsTime":1775134800},"SBUR":{"icaoId":"SBUR","flightCategory":"VFR","rawOb":"METAR SBUR 021300Z 02010KT CAVOK 26/18 Q1018","temp":26,"dewp":18,"wdir":20,"wspd":10,"visib":"6+","altim":1018,"clouds":[],"obsTime":1775134800},"SBVT":{"icaoId":"SBVT","flightCategory":"VFR","rawOb":"METAR SBVT 021300Z 36003KT 9999 SCT025 28/23 Q1016","temp":28,"dewp":23,"wdir":360,"wspd":3,"visib":"6+","altim":1016,"clouds":[{"cover":"SCT","base":2500}],"obsTime":1775134800},"SBSM":{"icaoId":"SBSM","flightCategory":"VFR","rawOb":"METAR SBSM 021300Z VRB02KT 9999 FEW020 26/21 Q1011","temp":26,"dewp":21,"wdir":"VRB","wspd":2,"visib":"6+","altim":1011,"clouds":[{"cover":"FEW","base":2000}],"obsTime":1775134800},"SBAR":{"icaoId":"SBAR","flightCategory":"IFR","rawOb":"SPECI SBAR 021242Z 13006KT 4000 -RA BR SCT007 SCT017 OVC035 26/24 Q1014","temp":26,"dewp":24,"wdir":130,"wspd":6,"visib":2.49,"altim":1014,"clouds":[{"cover":"SCT","base":700},{"cover":"SCT","base":1700},{"cover":"OVC","base":3500}],"obsTime":1775133720},"SBAU":{"icaoId":"SBAU","flightCategory":"VFR","rawOb":"METAR SBAU 021300Z 36008KT CAVOK 27/21 Q1015","temp":27,"dewp":21,"wdir":360,"wspd":8,"visib":"6+","altim":1015,"clouds":[],"obsTime":1775134800},"SBBH":{"icaoId":"SBBH","flightCategory":"VFR","rawOb":"METAR SBBH 021300Z 08006KT 9999 SCT023 25/19 Q1020","temp":25,"dewp":19,"wdir":80,"wspd":6,"visib":"6+","altim":1020,"clouds":[{"cover":"SCT","base":2300}],"obsTime":1775134800},"SBBQ":{"icaoId":"SBBQ","flightCategory":"VFR","rawOb":"METAR SBBQ 021300Z 03005KT 9999 SCT015 23/18 Q1023","temp":23,"dewp":18,"wdir":30,"wspd":5,"visib":"6+","altim":1023,"clouds":[{"cover":"SCT","base":1500}],"obsTime":1775134800},"SBBU":{"icaoId":"SBBU","flightCategory":"VFR","rawOb":"METAR SBBU 021300Z 04005KT CAVOK 25/21 Q1017","temp":25,"dewp":21,"wdir":40,"wspd":5,"visib":"6+","altim":1017,"clouds":[],"obsTime":1775134800},"SBCA":{"icaoId":"SBCA","flightCategory":"VFR","rawOb":"METAR SBCA 021300Z 05015KT 9999 SCT005 22/19 Q1016","temp":22,"dewp":19,"wdir":50,"wspd":15,"visib":"6+","altim":1016,"clouds":[{"cover":"SCT","base":500}],"obsTime":1775134800},"SBCC":{"icaoId":"SBCC","flightCategory":"LIFR","rawOb":"METAR SBCC 021300Z 36004KT 6000 -RA BKN003 OVC100 21/20 Q1016","temp":21,"dewp":20,"wdir":360,"wspd":4,"visib":3.73,"altim":1016,"clouds":[{"cover":"BKN","base":300},{"cover":"OVC","base":10000}],"obsTime":1775134800},"SBCJ":{"icaoId":"SBCJ","flightCategory":"VFR","rawOb":"METAR SBCJ 021300Z 25003KT 9999 FEW010 SCT090 24/21 Q1018","temp":24,"dewp":21,"wdir":250,"wspd":3,"visib":"6+","altim":1018,"clouds":[{"cover":"FEW","base":1000},{"cover":"SCT","base":9000}],"obsTime":1775134800},"SBCO":{"icaoId":"SBCO","flightCategory":"VFR","rawOb":"METAR SBCO 021300Z VRB04KT CAVOK 28/20 Q1011","temp":28,"dewp":20,"wdir":"VRB","wspd":4,"visib":"6+","altim":1011,"clouds":[],"obsTime":1775134800},"SBDN":{"icaoId":"SBDN","flightCategory":"VFR","rawOb":"METAR SBDN 021300Z 00000KT CAVOK 25/19 Q1015","temp":25,"dewp":19,"wdir":0,"wspd":0,"visib":"6+","altim":1015,"clouds":[],"obsTime":1775134800},"SBES":{"icaoId":"SBES","flightCategory":"VFR","rawOb":"METAR SBES 021300Z 05013G23KT 010V080 CAVOK 28/// Q1015","temp":null,"dewp":null,"wdir":50,"wspd":13,"visib":"6+","altim":1015,"clouds":[],"obsTime":1775134800},"SBGM":{"icaoId":"SBGM","flightCategory":"VFR","rawOb":"METAR SBGM 021300Z 34005KT CAVOK 28/21 Q1012","temp":28,"dewp":21,"wdir":340,"wspd":5,"visib":"6+","altim":1012,"clouds":[],"obsTime":1775134800},"SBIP":{"icaoId":"SBIP","flightCategory":"VFR","rawOb":"METAR SBIP 021300Z AUTO 03009KT 9999 FEW024 BKN049 27/20 Q1017","temp":27,"dewp":20,"wdir":30,"wspd":9,"visib":"6+","altim":1017,"clouds":[{"cover":"FEW","base":2400},{"cover":"BKN","base":4900}],"obsTime":1775134800},"SBKG":{"icaoId":"SBKG","flightCategory":"MVFR","rawOb":"METAR SBKG 021300Z 12011KT 9999 BKN020 27/22 Q1015","temp":27,"dewp":22,"wdir":120,"wspd":11,"visib":"6+","altim":1015,"clouds":[{"cover":"BKN","base":2000}],"obsTime":1775134800},"SBOI":{"icaoId":"SBOI","flightCategory":"VFR","rawOb":"METAR SBOI 021300Z AUTO 10003KT 040V190 9999 FEW013 SCT015 29/25 Q1013","temp":29,"dewp":25,"wdir":100,"wspd":3,"visib":"6+","altim":1013,"clouds":[{"cover":"FEW","base":1300},{"cover":"SCT","base":1500}],"obsTime":1775134800},"SBPB":{"icaoId":"SBPB","flightCategory":"MVFR","rawOb":"METAR SBPB 021300Z 01006KT 9999 BKN016 BKN080 28/25 Q1013","temp":28,"dewp":25,"wdir":10,"wspd":6,"visib":"6+","altim":1013,"clouds":[{"cover":"BKN","base":1600},{"cover":"BKN","base":8000}],"obsTime":1775134800},"SBPL":{"icaoId":"SBPL","flightCategory":"MVFR","rawOb":"METAR SBPL 021300Z 09008KT 9999 BKN020 OVC070 27/22 Q1015","temp":27,"dewp":22,"wdir":90,"wspd":8,"visib":"6+","altim":1015,"clouds":[{"cover":"BKN","base":2000},{"cover":"OVC","base":7000}],"obsTime":1775134800},"SBPP":{"icaoId":"SBPP","flightCategory":"MVFR","rawOb":"METAR SBPP 021300Z 02007KT 9999 BKN025 OVC070 22/20 Q1016","temp":22,"dewp":20,"wdir":20,"wspd":7,"visib":"6+","altim":1016,"clouds":[{"cover":"BKN","base":2500},{"cover":"OVC","base":7000}],"obsTime":1775134800},"SBPS":{"icaoId":"SBPS","flightCategory":"VFR","rawOb":"METAR SBPS 021300Z 14007KT 090V180 9999 SCT020 SCT070 29/24 Q1016","temp":29,"dewp":24,"wdir":140,"wspd":7,"visib":"6+","altim":1016,"clouds":[{"cover":"SCT","base":2000},{"cover":"SCT","base":7000}],"obsTime":1775134800},"SBSC":{"icaoId":"SBSC","flightCategory":"VFR","rawOb":"METAR SBSC 021300Z 01010KT CAVOK 31/22 Q1013","temp":31,"dewp":22,"wdir":10,"wspd":10,"visib":"6+","altim":1013,"clouds":[],"obsTime":1775134800},"SBSJ":{"icaoId":"SBSJ","flightCategory":"VFR","rawOb":"METAR SBSJ 021300Z 02004KT CAVOK 25/21 Q1018","temp":25,"dewp":21,"wdir":20,"wspd":4,"visib":"6+","altim":1018,"clouds":[],"obsTime":1775134800},"SBSR":{"icaoId":"SBSR","flightCategory":"VFR","rawOb":"METAR SBSR 021300Z 03010KT 9999 FEW035 SCT070 26/20 Q1016","temp":26,"dewp":20,"wdir":30,"wspd":10,"visib":"6+","altim":1016,"clouds":[{"cover":"FEW","base":3500},{"cover":"SCT","base":7000}],"obsTime":1775134800},"SBTD":{"icaoId":"SBTD","flightCategory":"IFR","rawOb":"METAR SBTD 021300Z /////KT 9999 BKN007 23/22 Q1015","temp":23,"dewp":22,"wdir":null,"wspd":null,"visib":"6+","altim":1015,"clouds":[{"cover":"BKN","base":700}],"obsTime":1775134800},"SBTF":{"icaoId":"SBTF","flightCategory":"VFR","rawOb":"METAR SBTF 021300Z 10010KT 9999 FEW013 28/25 Q1012","temp":28,"dewp":25,"wdir":100,"wspd":10,"visib":"6+","altim":1012,"clouds":[{"cover":"FEW","base":1300}],"obsTime":1775134800},"SBTT":{"icaoId":"SBTT","flightCategory":"IFR","rawOb":"SPECI SBTT 021220Z VRB02KT 7000 -RA VCSH BKN009 BKN033 FEW040TCU BKN070 25/22 Q1011","temp":25,"dewp":22,"wdir":"VRB","wspd":2,"visib":4.35,"altim":1011,"clouds":[{"cover":"BKN","base":900},{"cover":"BKN","base":3300},{"cover":"FEW","base":4000},{"cover":"BKN","base":7000}],"obsTime":1775132400},"SBUY":{"icaoId":"SBUY","flightCategory":"VFR","rawOb":"METAR SBUY 021300Z 14005KT CAVOK 27/24 Q1011","temp":27,"dewp":24,"wdir":140,"wspd":5,"visib":"6+","altim":1011,"clouds":[],"obsTime":1775134800},"SBVH":{"icaoId":"SBVH","flightCategory":"VFR","rawOb":"METAR SBVH 021300Z 36007KT 9999 SCT010 SCT014 25/22 Q1017","temp":25,"dewp":22,"wdir":360,"wspd":7,"visib":"6+","altim":1017,"clouds":[{"cover":"SCT","base":1000},{"cover":"SCT","base":1400}],"obsTime":1775134800},"SBAX":{"icaoId":"SBAX","flightCategory":"VFR","rawOb":"METAR SBAX 021300Z 04006KT 9999 SCT018 24/19 Q1020","temp":24,"dewp":19,"wdir":40,"wspd":6,"visib":"6+","altim":1020,"clouds":[{"cover":"SCT","base":1800}],"obsTime":1775134800},"SBNM":{"icaoId":"SBNM","flightCategory":"VFR","rawOb":"METAR SBNM 021300Z 35004KT 9999 FEW010 27/18 Q1013","temp":27,"dewp":18,"wdir":350,"wspd":4,"visib":"6+","altim":1013,"clouds":[{"cover":"FEW","base":1000}],"obsTime":1775134800},"SBLE":{"icaoId":"SBLE","flightCategory":"VFR","rawOb":"METAR SBLE 021300Z AUTO 15005KT 090V210 9999 FEW018 SCT033 BKN038 25/22 Q1018","temp":25,"dewp":22,"wdir":150,"wspd":5,"visib":"6+","altim":1018,"clouds":[{"cover":"FEW","base":1800},{"cover":"SCT","base":3300},{"cover":"BKN","base":3800}],"obsTime":1775134800},"SBJP":{"icaoId":"SBJP","flightCategory":"IFR","rawOb":"SPECI SBJP 021239Z 11008KT 3000 -RA BKN014 BKN070 26/25 Q1013","temp":26,"dewp":25,"wdir":110,"wspd":8,"visib":1.86,"altim":1013,"clouds":[{"cover":"BKN","base":1400},{"cover":"BKN","base":7000}],"obsTime":1775133540},"SBLS":{"icaoId":"SBLS","flightCategory":"MVFR","rawOb":"METAR SBLS 021300Z VRB03KT 9999 BKN020 25/19 Q1020","temp":25,"dewp":19,"wdir":"VRB","wspd":3,"visib":"6+","altim":1020,"clouds":[{"cover":"BKN","base":2000}],"obsTime":1775134800},"SBAF":{"icaoId":"SBAF","flightCategory":"VFR","rawOb":"METAR SBAF 021300Z 05006KT 9999 FEW040 30/24 Q1014","temp":30,"dewp":24,"wdir":50,"wspd":6,"visib":"6+","altim":1014,"clouds":[{"cover":"FEW","base":4000}],"obsTime":1775134800},"SBAN":{"icaoId":"SBAN","flightCategory":"VFR","rawOb":"METAR SBAN 021300Z 09004KT 040V130 9999 FEW010 BKN100 22/18 Q1021","temp":22,"dewp":18,"wdir":90,"wspd":4,"visib":"6+","altim":1021,"clouds":[{"cover":"FEW","base":1000},{"cover":"BKN","base":10000}],"obsTime":1775134800},"SBPF":{"icaoId":"SBPF","flightCategory":"VFR","rawOb":"METAR SBPF 021300Z 35008KT CAVOK 23/17 Q1015","temp":23,"dewp":17,"wdir":350,"wspd":8,"visib":"6+","altim":1015,"clouds":[],"obsTime":1775134800},"SBJV":{"icaoId":"SBJV","flightCategory":"VFR","rawOb":"METAR SBJV 021300Z 12004KT 9999 FEW030 27/22 Q1013","temp":27,"dewp":22,"wdir":120,"wspd":4,"visib":"6+","altim":1013,"clouds":[{"cover":"FEW","base":3000}],"obsTime":1775134800},"SBGW":{"icaoId":"SBGW","flightCategory":"VFR","rawOb":"METAR SBGW 021300Z 02003KT 9999 FEW020 BKN100 26/17 Q1017","temp":26,"dewp":17,"wdir":20,"wspd":3,"visib":"6+","altim":1017,"clouds":[{"cover":"FEW","base":2000},{"cover":"BKN","base":10000}],"obsTime":1775134800},"SBMT":{"icaoId":"SBMT","flightCategory":"VFR","rawOb":"METAR SBMT 021300Z 35005KT 9999 FEW030 26/19 Q1018","temp":26,"dewp":19,"wdir":350,"wspd":5,"visib":"6+","altim":1018,"clouds":[{"cover":"FEW","base":3000}],"obsTime":1775134800},"SBJR":{"icaoId":"SBJR","flightCategory":"VFR","rawOb":"METAR SBJR 021300Z 01006KT 9999 FEW045 32/23 Q1013","temp":32,"dewp":23,"wdir":10,"wspd":6,"visib":"6+","altim":1013,"clouds":[{"cover":"FEW","base":4500}],"obsTime":1775134800},"SBST":{"icaoId":"SBST","flightCategory":"VFR","rawOb":"METAR SBST 021300Z 18003KT 9999 SCT040 26/23 Q1013","temp":26,"dewp":23,"wdir":180,"wspd":3,"visib":"6+","altim":1013,"clouds":[{"cover":"SCT","base":4000}],"obsTime":1775134800},"SBTA":{"icaoId":"SBTA","flightCategory":"VFR","rawOb":"METAR SBTA 021300Z VRB02KT 9999 FEW020 SCT100 24/24 Q1016","temp":24,"dewp":24,"wdir":"VRB","wspd":2,"visib":"6+","altim":1016,"clouds":[{"cover":"FEW","base":2000},{"cover":"SCT","base":10000}],"obsTime":1775134800},"SBIH":{"icaoId":"SBIH","flightCategory":"VFR","rawOb":"METAR SBIH 021300Z 17005KT 9999 FEW012 SCT100 27/23 Q1013","temp":27,"dewp":23,"wdir":170,"wspd":5,"visib":"6+","altim":1013,"clouds":[{"cover":"FEW","base":1200},{"cover":"SCT","base":10000}],"obsTime":1775134800}}}