{"updated":1774797844,"count":87,"data":{"SBRB":{"icaoId":"SBRB","flightCategory":"IFR","rawOb":"METAR SBRB 291400Z 12003KT 9999 BKN007 24/23 Q1015","temp":24,"dewp":23,"wdir":120,"wspd":3,"visib":"6+","altim":1015,"clouds":[{"cover":"BKN","base":700}],"obsTime":1774792800},"SBMO":{"icaoId":"SBMO","flightCategory":"IFR","rawOb":"SPECI SBMO 291340Z 02006KT 4200 2000E SHRA BR SCT011 BKN014 FEW025TCU BKN060 26/24 Q1013","temp":26,"dewp":24,"wdir":20,"wspd":6,"visib":2.61,"altim":1013,"clouds":[{"cover":"SCT","base":1100},{"cover":"BKN","base":1400},{"cover":"FEW","base":2500},{"cover":"BKN","base":6000}],"obsTime":1774791600},"SBBR":{"icaoId":"SBBR","flightCategory":"VFR","rawOb":"METAR SBBR 291400Z 11009KT 060V150 9999 FEW030 25/17 Q1022","temp":25,"dewp":17,"wdir":110,"wspd":9,"visib":"6+","altim":1022,"clouds":[{"cover":"FEW","base":3000}],"obsTime":1774792800},"SBEG":{"icaoId":"SBEG","flightCategory":"MVFR","rawOb":"METAR SBEG 291400Z 21003KT 9999 BKN015 BKN100 27/24 Q1015","temp":27,"dewp":24,"wdir":210,"wspd":3,"visib":"6+","altim":1015,"clouds":[{"cover":"BKN","base":1500},{"cover":"BKN","base":10000}],"obsTime":1774792800},"SBBE":{"icaoId":"SBBE","flightCategory":"VFR","rawOb":"METAR SBBE 291400Z 12008KT 9999 FEW018 SCT024 30/24 Q1013","temp":30,"dewp":24,"wdir":120,"wspd":8,"visib":"6+","altim":1013,"clouds":[{"cover":"FEW","base":1800},{"cover":"SCT","base":2400}],"obsTime":1774792800},"SBBV":{"icaoId":"SBBV","flightCategory":"MVFR","rawOb":"METAR SBBV 291400Z 12007KT 9999 BKN020 FEW030TCU SCT100 27/22 Q1014","temp":27,"dewp":22,"wdir":120,"wspd":7,"visib":"6+","altim":1014,"clouds":[{"cover":"BKN","base":2000},{"cover":"FEW","base":3000},{"cover":"SCT","base":10000}],"obsTime":1774792800},"SBCB":{"icaoId":"SBCB","flightCategory":"VFR","rawOb":"METAR SBCB 291400Z 11002KT 9999 FEW025 27/22 Q1018","temp":27,"dewp":22,"wdir":110,"wspd":2,"visib":"6+","altim":1018,"clouds":[{"cover":"FEW","base":2500}],"obsTime":1774792800},"SBCF":{"icaoId":"SBCF","flightCategory":"VFR","rawOb":"METAR SBCF 291400Z 10008KT 9999 SCT036 24/17 Q1022","temp":24,"dewp":17,"wdir":100,"wspd":8,"visib":"6+","altim":1022,"clouds":[{"cover":"SCT","base":3600}],"obsTime":1774792800},"SBCG":{"icaoId":"SBCG","flightCategory":"VFR","rawOb":"METAR SBCG 291400Z 07010KT 040V110 CAVOK 30/17 Q1018","temp":30,"dewp":17,"wdir":70,"wspd":10,"visib":"6+","altim":1018,"clouds":[],"obsTime":1774792800},"SBCP":{"icaoId":"SBCP","flightCategory":"MVFR","rawOb":"METAR SBCP 291400Z 20003KT 9999 BKN015 26/22 Q1018","temp":26,"dewp":22,"wdir":200,"wspd":3,"visib":"6+","altim":1018,"clouds":[{"cover":"BKN","base":1500}],"obsTime":1774792800},"SBCR":{"icaoId":"SBCR","flightCategory":"VFR","rawOb":"METAR SBCR 291400Z 09007KT 050V130 9999 FEW035 31/24 Q1015","temp":31,"dewp":24,"wdir":90,"wspd":7,"visib":"6+","altim":1015,"clouds":[{"cover":"FEW","base":3500}],"obsTime":1774792800},"SBCT":{"icaoId":"SBCT","flightCategory":"VFR","rawOb":"METAR SBCT 291400Z VRB04KT 9999 FEW020 23/18 Q1023","temp":23,"dewp":18,"wdir":"VRB","wspd":4,"visib":"6+","altim":1023,"clouds":[{"cover":"FEW","base":2000}],"obsTime":1774792800},"SBCZ":{"icaoId":"SBCZ","flightCategory":"VFR","rawOb":"METAR SBCZ 291400Z 06005KT 9999 SCT012 BKN100 25/23 Q1015","temp":25,"dewp":23,"wdir":60,"wspd":5,"visib":"6+","altim":1015,"clouds":[{"cover":"SCT","base":1200},{"cover":"BKN","base":10000}],"obsTime":1774792800},"SBAT":{"icaoId":"SBAT","flightCategory":"MVFR","rawOb":"METAR SBAT 291400Z 15004KT 9999 BKN025 30/24 Q1015","temp":30,"dewp":24,"wdir":150,"wspd":4,"visib":"6+","altim":1015,"clouds":[{"cover":"BKN","base":2500}],"obsTime":1774792800},"SBFI":{"icaoId":"SBFI","flightCategory":"VFR","rawOb":"METAR SBFI 291400Z 12003KT CAVOK 31/23 Q1018","temp":31,"dewp":23,"wdir":120,"wspd":3,"visib":"6+","altim":1018,"clouds":[],"obsTime":1774792800},"SBFL":{"icaoId":"SBFL","flightCategory":"VFR","rawOb":"METAR SBFL 291400Z 34012KT CAVOK 30/21 Q1017","temp":30,"dewp":21,"wdir":340,"wspd":12,"visib":"6+","altim":1017,"clouds":[],"obsTime":1774792800},"SBFZ":{"icaoId":"SBFZ","flightCategory":"VFR","rawOb":"METAR SBFZ 291400Z 08010KT 9999 SCT020 BKN080 30/25 Q1012","temp":30,"dewp":25,"wdir":80,"wspd":10,"visib":"6+","altim":1012,"clouds":[{"cover":"SCT","base":2000},{"cover":"BKN","base":8000}],"obsTime":1774792800},"SBGL":{"icaoId":"SBGL","flightCategory":"VFR","rawOb":"METAR SBGL 291400Z 16005KT 100V240 9999 FEW020 29/19 Q1018","temp":29,"dewp":19,"wdir":160,"wspd":5,"visib":"6+","altim":1018,"clouds":[{"cover":"FEW","base":2000}],"obsTime":1774792800},"SBGO":{"icaoId":"SBGO","flightCategory":"VFR","rawOb":"METAR SBGO 291400Z 08011KT 9999 FEW036 28/19 Q1020","temp":28,"dewp":19,"wdir":80,"wspd":11,"visib":"6+","altim":1020,"clouds":[{"cover":"FEW","base":3600}],"obsTime":1774792800},"SBGR":{"icaoId":"SBGR","flightCategory":"VFR","rawOb":"METAR SBGR 291400Z 06010KT CAVOK 26/19 Q1022","temp":26,"dewp":19,"wdir":60,"wspd":10,"visib":"6+","altim":1022,"clouds":[],"obsTime":1774792800},"SBHT":{"icaoId":"SBHT","flightCategory":"MVFR","rawOb":"METAR SBHT 291400Z 06006KT 9999 SCT012 BKN015 BKN080 28/24 Q1013","temp":28,"dewp":24,"wdir":60,"wspd":6,"visib":"6+","altim":1013,"clouds":[{"cover":"SCT","base":1200},{"cover":"BKN","base":1500},{"cover":"BKN","base":8000}],"obsTime":1774792800},"SBIL":{"icaoId":"SBIL","flightCategory":"VFR","rawOb":"METAR SBIL 291400Z 21008KT 9999 VCSH SCT020 FEW025TCU BKN050 29/25 Q1015","temp":29,"dewp":25,"wdir":210,"wspd":8,"visib":"6+","altim":1015,"clouds":[{"cover":"SCT","base":2000},{"cover":"FEW","base":2500},{"cover":"BKN","base":5000}],"obsTime":1774792800},"SBJU":{"icaoId":"SBJU","flightCategory":"MVFR","rawOb":"METAR SBJU 291400Z 15007KT 9999 BKN020 28/21 Q1014","temp":28,"dewp":21,"wdir":150,"wspd":7,"visib":"6+","altim":1014,"clouds":[{"cover":"BKN","base":2000}],"obsTime":1774792800},"SBKP":{"icaoId":"SBKP","flightCategory":"VFR","rawOb":"METAR SBKP 291400Z 02002KT 9999 FEW040 28/18 Q1021","temp":28,"dewp":18,"wdir":20,"wspd":2,"visib":"6+","altim":1021,"clouds":[{"cover":"FEW","base":4000}],"obsTime":1774792800},"SBLO":{"icaoId":"SBLO","flightCategory":"VFR","rawOb":"METAR SBLO 291400Z 11004KT CAVOK 27/19 Q1021","temp":27,"dewp":19,"wdir":110,"wspd":4,"visib":"6+","altim":1021,"clouds":[],"obsTime":1774792800},"SBMA":{"icaoId":"SBMA","flightCategory":"MVFR","rawOb":"METAR SBMA 291400Z 16005KT 9999 SCT015 BKN020 BKN100 28/25 Q1013","temp":28,"dewp":25,"wdir":160,"wspd":5,"visib":"6+","altim":1013,"clouds":[{"cover":"SCT","base":1500},{"cover":"BKN","base":2000},{"cover":"BKN","base":10000}],"obsTime":1774792800},"SBME":{"icaoId":"SBME","flightCategory":"VFR","rawOb":"METAR SBME 291400Z 15006KT 9999 SCT025 30/21 Q1018","temp":30,"dewp":21,"wdir":150,"wspd":6,"visib":"6+","altim":1018,"clouds":[{"cover":"SCT","base":2500}],"obsTime":1774792800},"SBMG":{"icaoId":"SBMG","flightCategory":"VFR","rawOb":"METAR SBMG 291400Z 10005KT 050V170 CAVOK 29/19 Q1019","temp":29,"dewp":19,"wdir":100,"wspd":5,"visib":"6+","altim":1019,"clouds":[],"obsTime":1774792800},"SBMK":{"icaoId":"SBMK","flightCategory":"VFR","rawOb":"METAR SBMK 291400Z 10007KT 9999 BKN032 27/17 Q1020","temp":27,"dewp":17,"wdir":100,"wspd":7,"visib":"6+","altim":1020,"clouds":[{"cover":"BKN","base":3200}],"obsTime":1774792800},"SBMQ":{"icaoId":"SBMQ","flightCategory":"MVFR","rawOb":"METAR SBMQ 291400Z 03008KT 9999 BKN021 FEW028TCU BKN070 30/25 Q1012","temp":30,"dewp":25,"wdir":30,"wspd":8,"visib":"6+","altim":1012,"clouds":[{"cover":"BKN","base":2100},{"cover":"FEW","base":2800},{"cover":"BKN","base":7000}],"obsTime":1774792800},"SBNT":{"icaoId":"SBNT","flightCategory":"VFR","rawOb":"METAR SBNT 291400Z 18007KT 130V230 9999 BKN035 31/22 Q1011","temp":31,"dewp":22,"wdir":180,"wspd":7,"visib":"6+","altim":1011,"clouds":[{"cover":"BKN","base":3500}],"obsTime":1774792800},"SBPA":{"icaoId":"SBPA","flightCategory":"VFR","rawOb":"METAR SBPA 291400Z 30003KT 220V350 9999 FEW015 30/23 Q1016","temp":30,"dewp":23,"wdir":300,"wspd":3,"visib":"6+","altim":1016,"clouds":[{"cover":"FEW","base":1500}],"obsTime":1774792800},"SBPJ":{"icaoId":"SBPJ","flightCategory":"VFR","rawOb":"METAR SBPJ 291400Z 09004KT 9999 SCT020 SCT090 31/23 Q1014","temp":31,"dewp":23,"wdir":90,"wspd":4,"visib":"6+","altim":1014,"clouds":[{"cover":"SCT","base":2000},{"cover":"SCT","base":9000}],"obsTime":1774792800},"SBPV":{"icaoId":"SBPV","flightCategory":"IFR","rawOb":"SPECI SBPV 291345Z 14004KT 9999 -RA BKN007 26/22 Q1014","temp":26,"dewp":22,"wdir":140,"wspd":4,"visib":"6+","altim":1014,"clouds":[{"cover":"BKN","base":700}],"obsTime":1774791900},"SBRF":{"icaoId":"SBRF","flightCategory":"VFR","rawOb":"METAR SBRF 291400Z 12006KT 9999 SCT023 FEW026TCU 30/24 Q1012","temp":30,"dewp":24,"wdir":120,"wspd":6,"visib":"6+","altim":1012,"clouds":[{"cover":"SCT","base":2300},{"cover":"FEW","base":2600}],"obsTime":1774792800},"SBSG":{"icaoId":"SBSG","flightCategory":"MVFR","rawOb":"METAR SBSG 291400Z 16005KT 100V220 9999 BKN030 30/23 Q1012","temp":30,"dewp":23,"wdir":160,"wspd":5,"visib":"6+","altim":1012,"clouds":[{"cover":"BKN","base":3000}],"obsTime":1774792800},"SBSL":{"icaoId":"SBSL","flightCategory":"VFR","rawOb":"METAR SBSL 291400Z 10007KT 9999 SCT015 BKN035 BKN080 27/24 Q1013","temp":27,"dewp":24,"wdir":100,"wspd":7,"visib":"6+","altim":1013,"clouds":[{"cover":"SCT","base":1500},{"cover":"BKN","base":3500},{"cover":"BKN","base":8000}],"obsTime":1774792800},"SBSN":{"icaoId":"SBSN","flightCategory":"VFR","rawOb":"METAR SBSN 291400Z 08005KT 9999 FEW016 BKN100 29/25 Q1013","temp":29,"dewp":25,"wdir":80,"wspd":5,"visib":"6+","altim":1013,"clouds":[{"cover":"FEW","base":1600},{"cover":"BKN","base":10000}],"obsTime":1774792800},"SBSP":{"icaoId":"SBSP","flightCategory":"VFR","rawOb":"METAR SBSP 291400Z 13005KT 070V170 CAVOK 26/18 Q1023","temp":26,"dewp":18,"wdir":130,"wspd":5,"visib":"6+","altim":1023,"clouds":[],"obsTime":1774792800},"SBSV":{"icaoId":"SBSV","flightCategory":"VFR","rawOb":"METAR SBSV 291400Z 16003KT 9999 VCSH SCT020 FEW025TCU BKN050 26/23 Q1014","temp":26,"dewp":23,"wdir":160,"wspd":3,"visib":"6+","altim":1014,"clouds":[{"cover":"SCT","base":2000},{"cover":"FEW","base":2500},{"cover":"BKN","base":5000}],"obsTime":1774792800},"SBTE":{"icaoId":"SBTE","flightCategory":"MVFR","rawOb":"METAR SBTE 291400Z 00000KT 9999 BKN018 29/25 Q1012","temp":29,"dewp":25,"wdir":0,"wspd":0,"visib":"6+","altim":1012,"clouds":[{"cover":"BKN","base":1800}],"obsTime":1774792800},"SBUL":{"icaoId":"SBUL","flightCategory":"VFR","rawOb":"METAR SBUL 291400Z 11009KT 050V140 9999 FEW030 26/16 Q1022","temp":26,"dewp":16,"wdir":110,"wspd":9,"visib":"6+","altim":1022,"clouds":[{"cover":"FEW","base":3000}],"obsTime":1774792800},"SBUR":{"icaoId":"SBUR","flightCategory":"VFR","rawOb":"METAR SBUR 291400Z 05007KT 9999 FEW035 28/18 Q1021","temp":28,"dewp":18,"wdir":50,"wspd":7,"visib":"6+","altim":1021,"clouds":[{"cover":"FEW","base":3500}],"obsTime":1774792800},"SBVT":{"icaoId":"SBVT","flightCategory":"VFR","rawOb":"METAR SBVT 291400Z 16004KT 9999 SCT028 FEW035TCU 26/23 Q1017","temp":26,"dewp":23,"wdir":160,"wspd":4,"visib":"6+","altim":1017,"clouds":[{"cover":"SCT","base":2800},{"cover":"FEW","base":3500}],"obsTime":1774792800},"SBAR":{"icaoId":"SBAR","flightCategory":"VFR","rawOb":"METAR SBAR 291400Z 11009KT 9999 SCT020 FEW023TCU SCT100 30/24 Q1013","temp":30,"dewp":24,"wdir":110,"wspd":9,"visib":"6+","altim":1013,"clouds":[{"cover":"SCT","base":2000},{"cover":"FEW","base":2300},{"cover":"SCT","base":10000}],"obsTime":1774792800},"SBAX":{"icaoId":"SBAX","flightCategory":"VFR","rawOb":"METAR SBAX 291400Z AUTO 07007KT 030V110 9999 SCT029 24/17 Q1022","temp":24,"dewp":17,"wdir":70,"wspd":7,"visib":"6+","altim":1022,"clouds":[{"cover":"SCT","base":2900}],"obsTime":1774792800},"SBBH":{"icaoId":"SBBH","flightCategory":"MVFR","rawOb":"METAR SBBH 291400Z 00000KT 9999 BKN030 25/17 Q1021","temp":25,"dewp":17,"wdir":0,"wspd":0,"visib":"6+","altim":1021,"clouds":[{"cover":"BKN","base":3000}],"obsTime":1774792800},"SBBQ":{"icaoId":"SBBQ","flightCategory":"VFR","rawOb":"METAR SBBQ 291400Z 09007KT 9999 FEW030 23/14 Q1025","temp":23,"dewp":14,"wdir":90,"wspd":7,"visib":"6+","altim":1025,"clouds":[{"cover":"FEW","base":3000}],"obsTime":1774792800},"SBBU":{"icaoId":"SBBU","flightCategory":"VFR","rawOb":"METAR SBBU 291400Z 05006KT CAVOK 29/19 Q1020","temp":29,"dewp":19,"wdir":50,"wspd":6,"visib":"6+","altim":1020,"clouds":[],"obsTime":1774792800},"SBCA":{"icaoId":"SBCA","flightCategory":"VFR","rawOb":"METAR SBCA 291400Z 02008KT CAVOK 28/16 Q1022","temp":28,"dewp":16,"wdir":20,"wspd":8,"visib":"6+","altim":1022,"clouds":[],"obsTime":1774792800},"SBCC":{"icaoId":"SBCC","flightCategory":"VFR","rawOb":"METAR SBCC 291400Z 09008KT 9999 FEW020 BKN100 28/21 Q1016","temp":28,"dewp":21,"wdir":90,"wspd":8,"visib":"6+","altim":1016,"clouds":[{"cover":"FEW","base":2000},{"cover":"BKN","base":10000}],"obsTime":1774792800},"SBCJ":{"icaoId":"SBCJ","flightCategory":"VFR","rawOb":"METAR SBCJ 291400Z 11006KT 9999 SCT015 SCT090 26/22 Q1017","temp":26,"dewp":22,"wdir":110,"wspd":6,"visib":"6+","altim":1017,"clouds":[{"cover":"SCT","base":1500},{"cover":"SCT","base":9000}],"obsTime":1774792800},"SBCO":{"icaoId":"SBCO","flightCategory":"VFR","rawOb":"METAR SBCO 291400Z 31003KT CAVOK 30/24 Q1017","temp":30,"dewp":24,"wdir":310,"wspd":3,"visib":"6+","altim":1017,"clouds":[],"obsTime":1774792800},"SBDN":{"icaoId":"SBDN","flightCategory":"VFR","rawOb":"METAR SBDN 291400Z 09008KT CAVOK 30/20 Q1019","temp":30,"dewp":20,"wdir":90,"wspd":8,"visib":"6+","altim":1019,"clouds":[],"obsTime":1774792800},"SBES":{"icaoId":"SBES","flightCategory":"VFR","rawOb":"METAR SBES 291400Z VRB04KT 9999 SCT030 27/// Q1018","temp":null,"dewp":null,"wdir":"VRB","wspd":4,"visib":"6+","altim":1018,"clouds":[{"cover":"SCT","base":3000}],"obsTime":1774792800},"SBGM":{"icaoId":"SBGM","flightCategory":"VFR","rawOb":"METAR SBGM 291400Z 07005KT 9999 SCT010 BKN050 27/23 Q1015","temp":27,"dewp":23,"wdir":70,"wspd":5,"visib":"6+","altim":1015,"clouds":[{"cover":"SCT","base":1000},{"cover":"BKN","base":5000}],"obsTime":1774792800},"SBIP":{"icaoId":"SBIP","flightCategory":"VFR","rawOb":"METAR SBIP 291400Z AUTO VRB03KT 9999 FEW031 28/20 Q1019","temp":28,"dewp":20,"wdir":"VRB","wspd":3,"visib":"6+","altim":1019,"clouds":[{"cover":"FEW","base":3100}],"obsTime":1774792800},"SBKG":{"icaoId":"SBKG","flightCategory":"VFR","rawOb":"METAR SBKG 291400Z 12010KT 9999 SCT022 29/19 Q1014","temp":29,"dewp":19,"wdir":120,"wspd":10,"visib":"6+","altim":1014,"clouds":[{"cover":"SCT","base":2200}],"obsTime":1774792800},"SBOI":{"icaoId":"SBOI","flightCategory":"VFR","rawOb":"METAR SBOI 291400Z AUTO 04007KT 350V080 9999 FEW009 SCT011 27/25 Q1014","temp":27,"dewp":25,"wdir":40,"wspd":7,"visib":"6+","altim":1014,"clouds":[{"cover":"FEW","base":900},{"cover":"SCT","base":1100}],"obsTime":1774792800},"SBPB":{"icaoId":"SBPB","flightCategory":"VFR","rawOb":"METAR SBPB 291400Z 07009KT 9999 SCT020 BKN100 30/23 Q1012","temp":30,"dewp":23,"wdir":70,"wspd":9,"visib":"6+","altim":1012,"clouds":[{"cover":"SCT","base":2000},{"cover":"BKN","base":10000}],"obsTime":1774792800},"SBPL":{"icaoId":"SBPL","flightCategory":"MVFR","rawOb":"METAR SBPL 291400Z 10008KT 9999 BKN030 30/21 Q1014","temp":30,"dewp":21,"wdir":100,"wspd":8,"visib":"6+","altim":1014,"clouds":[{"cover":"BKN","base":3000}],"obsTime":1774792800},"SBPP":{"icaoId":"SBPP","flightCategory":"VFR","rawOb":"METAR SBPP 291400Z 02009KT CAVOK 30/20 Q1020","temp":30,"dewp":20,"wdir":20,"wspd":9,"visib":"6+","altim":1020,"clouds":[],"obsTime":1774792800},"SBPS":{"icaoId":"SBPS","flightCategory":"MVFR","rawOb":"METAR SBPS 291400Z 16006KT 9999 SCT015 BKN030 28/24 Q1016","temp":28,"dewp":24,"wdir":160,"wspd":6,"visib":"6+","altim":1016,"clouds":[{"cover":"SCT","base":1500},{"cover":"BKN","base":3000}],"obsTime":1774792800},"SBSC":{"icaoId":"SBSC","flightCategory":"VFR","rawOb":"METAR SBSC 291400Z 05004KT 9999 FEW030 31/18 Q1018","temp":31,"dewp":18,"wdir":50,"wspd":4,"visib":"6+","altim":1018,"clouds":[{"cover":"FEW","base":3000}],"obsTime":1774792800},"SBSJ":{"icaoId":"SBSJ","flightCategory":"MVFR","rawOb":"METAR SBSJ 291400Z 36005KT 8000 SCT027 26/19 Q1022","temp":26,"dewp":19,"wdir":360,"wspd":5,"visib":4.97,"altim":1022,"clouds":[{"cover":"SCT","base":2700}],"obsTime":1774792800},"SBSM":{"icaoId":"SBSM","flightCategory":"VFR","rawOb":"METAR SBSM 291400Z 11005KT CAVOK 30/26 Q1017","temp":30,"dewp":26,"wdir":110,"wspd":5,"visib":"6+","altim":1017,"clouds":[],"obsTime":1774792800},"SBSR":{"icaoId":"SBSR","flightCategory":"VFR","rawOb":"METAR SBSR 291400Z 06007KT 010V100 CAVOK 29/17 Q1019","temp":29,"dewp":17,"wdir":60,"wspd":7,"visib":"6+","altim":1019,"clouds":[],"obsTime":1774792800},"SBTF":{"icaoId":"SBTF","flightCategory":"IFR","rawOb":"METAR SBTF 291400Z 18005KT 9999 OVC007 27/25 Q1014","temp":27,"dewp":25,"wdir":180,"wspd":5,"visib":"6+","altim":1014,"clouds":[{"cover":"OVC","base":700}],"obsTime":1774792800},"SBTT":{"icaoId":"SBTT","flightCategory":"VFR","rawOb":"METAR SBTT 291400Z 19006KT 9999 SCT010 27/22 Q1014","temp":27,"dewp":22,"wdir":190,"wspd":6,"visib":"6+","altim":1014,"clouds":[{"cover":"SCT","base":1000}],"obsTime":1774792800},"SBUY":{"icaoId":"SBUY","flightCategory":"VFR","rawOb":"METAR SBUY 291400Z 17004KT 9999 FEW015 BKN100 26/24 Q1013","temp":26,"dewp":24,"wdir":170,"wspd":4,"visib":"6+","altim":1013,"clouds":[{"cover":"FEW","base":1500},{"cover":"BKN","base":10000}],"obsTime":1774792800},"SBVH":{"icaoId":"SBVH","flightCategory":"VFR","rawOb":"METAR SBVH 291400Z 08010KT 9999 FEW015 SCT100 25/22 Q1018","temp":25,"dewp":22,"wdir":80,"wspd":10,"visib":"6+","altim":1018,"clouds":[{"cover":"FEW","base":1500},{"cover":"SCT","base":10000}],"obsTime":1774792800},"SBAU":{"icaoId":"SBAU","flightCategory":"VFR","rawOb":"METAR SBAU 291400Z 09006KT CAVOK 31/18 Q1018","temp":31,"dewp":18,"wdir":90,"wspd":6,"visib":"6+","altim":1018,"clouds":[],"obsTime":1774792800},"SBAN":{"icaoId":"SBAN","flightCategory":"VFR","rawOb":"METAR SBAN 291400Z 14013KT 9999 FEW035 25/17 Q1022","temp":25,"dewp":17,"wdir":140,"wspd":13,"visib":"6+","altim":1022,"clouds":[{"cover":"FEW","base":3500}],"obsTime":1774792800},"SBTA":{"icaoId":"SBTA","flightCategory":"VFR","rawOb":"METAR SBTA 291400Z 03006KT 330V100 9999 FEW020 25/23 Q1020","temp":25,"dewp":23,"wdir":30,"wspd":6,"visib":"6+","altim":1020,"clouds":[{"cover":"FEW","base":2000}],"obsTime":1774792800},"SBJV":{"icaoId":"SBJV","flightCategory":"VFR","rawOb":"METAR SBJV 291400Z 34005KT 9999 FEW028 30/21 Q1018","temp":30,"dewp":21,"wdir":340,"wspd":5,"visib":"6+","altim":1018,"clouds":[{"cover":"FEW","base":2800}],"obsTime":1774792800},"SBLE":{"icaoId":"SBLE","flightCategory":"VFR","rawOb":"METAR SBLE 291400Z AUTO 13006KT 080V200 9999 SCT026 SCT044 26/23 Q1018","temp":26,"dewp":23,"wdir":130,"wspd":6,"visib":"6+","altim":1018,"clouds":[{"cover":"SCT","base":2600},{"cover":"SCT","base":4400}],"obsTime":1774792800},"SBNM":{"icaoId":"SBNM","flightCategory":"VFR","rawOb":"METAR SBNM 291400Z 32002KT CAVOK 33/22 Q1019","temp":33,"dewp":22,"wdir":320,"wspd":2,"visib":"6+","altim":1019,"clouds":[],"obsTime":1774792800},"SBAF":{"icaoId":"SBAF","flightCategory":"VFR","rawOb":"METAR SBAF 291400Z 15005KT 9999 FEW025 30/19 Q1018","temp":30,"dewp":19,"wdir":150,"wspd":5,"visib":"6+","altim":1018,"clouds":[{"cover":"FEW","base":2500}],"obsTime":1774792800},"SBTC":{"icaoId":"SBTC","flightCategory":"VFR","rawOb":"METAR SBTC 291400Z 16009KT 9999 VCSH SCT020 BKN070 26/23 Q1016","temp":26,"dewp":23,"wdir":160,"wspd":9,"visib":"6+","altim":1016,"clouds":[{"cover":"SCT","base":2000},{"cover":"BKN","base":7000}],"obsTime":1774792800},"SBGW":{"icaoId":"SBGW","flightCategory":"VFR","rawOb":"METAR SBGW 291400Z 02004KT 340V070 9999 FEW027 26/17 Q1020","temp":26,"dewp":17,"wdir":20,"wspd":4,"visib":"6+","altim":1020,"clouds":[{"cover":"FEW","base":2700}],"obsTime":1774792800},"SBJR":{"icaoId":"SBJR","flightCategory":"VFR","rawOb":"METAR SBJR 291400Z 16006KT 9999 FEW020 31/20 Q1018","temp":31,"dewp":20,"wdir":160,"wspd":6,"visib":"6+","altim":1018,"clouds":[{"cover":"FEW","base":2000}],"obsTime":1774792800},"SBLS":{"icaoId":"SBLS","flightCategory":"MVFR","rawOb":"METAR SBLS 291400Z 11007KT 010V130 9999 BKN030 24/17 Q1022","temp":24,"dewp":17,"wdir":110,"wspd":7,"visib":"6+","altim":1022,"clouds":[{"cover":"BKN","base":3000}],"obsTime":1774792800},"SBMT":{"icaoId":"SBMT","flightCategory":"VFR","rawOb":"METAR SBMT 291400Z 10007KT 030V160 CAVOK 26/18 Q1021","temp":26,"dewp":18,"wdir":100,"wspd":7,"visib":"6+","altim":1021,"clouds":[],"obsTime":1774792800},"SBIH":{"icaoId":"SBIH","flightCategory":"VFR","rawOb":"METAR SBIH 291400Z 17003KT 9999 -RA SCT015 FEW025TCU BKN080 27/25 Q1014","temp":27,"dewp":25,"wdir":170,"wspd":3,"visib":"6+","altim":1014,"clouds":[{"cover":"SCT","base":1500},{"cover":"FEW","base":2500},{"cover":"BKN","base":8000}],"obsTime":1774792800},"SBJP":{"icaoId":"SBJP","flightCategory":"VFR","rawOb":"METAR SBJP 291400Z 12007KT 070V170 9999 SCT035 31/22 Q1012","temp":31,"dewp":22,"wdir":120,"wspd":7,"visib":"6+","altim":1012,"clouds":[{"cover":"SCT","base":3500}],"obsTime":1774792800},"SBST":{"icaoId":"SBST","flightCategory":"VFR","rawOb":"METAR SBST 291400Z 27002KT 9999 FEW028 SCT032 27/22 Q1018","temp":27,"dewp":22,"wdir":270,"wspd":2,"visib":"6+","altim":1018,"clouds":[{"cover":"FEW","base":2800},{"cover":"SCT","base":3200}],"obsTime":1774792800},"SBPF":{"icaoId":"SBPF","flightCategory":"VFR","rawOb":"METAR SBPF 291400Z 01007KT CAVOK 28/19 Q1022","temp":28,"dewp":19,"wdir":10,"wspd":7,"visib":"6+","altim":1022,"clouds":[],"obsTime":1774792800}}}