{"updated":1778884867,"count":83,"data":{"SBVT":{"icaoId":"SBVT","flightCategory":"VFR","rawOb":"METAR SBVT 152100Z 05007KT 9999 FEW017 BKN048 BKN090 26/23 Q1015","temp":26,"dewp":23,"wdir":50,"wspd":7,"visib":"6+","altim":1015,"clouds":[{"cover":"FEW","base":1700},{"cover":"BKN","base":4800},{"cover":"BKN","base":9000}],"obsTime":1778878800},"SBME":{"icaoId":"SBME","flightCategory":"MVFR","rawOb":"METAR SBME 152100Z 22007KT 7000 SCT040 SCT070 25/21 Q1015","temp":25,"dewp":21,"wdir":220,"wspd":7,"visib":4.35,"altim":1015,"clouds":[{"cover":"SCT","base":4000},{"cover":"SCT","base":7000}],"obsTime":1778878800},"SBFZ":{"icaoId":"SBFZ","flightCategory":"VFR","rawOb":"METAR SBFZ 152100Z 03006KT 360V060 9999 SCT020 28/24 Q1012","temp":28,"dewp":24,"wdir":30,"wspd":6,"visib":"6+","altim":1012,"clouds":[{"cover":"SCT","base":2000}],"obsTime":1778878800},"SBMG":{"icaoId":"SBMG","flightCategory":"MVFR","rawOb":"METAR SBMG 152100Z 36010KT 9999 VCSH FEW013 BKN030 BKN058 20/19 Q1015","temp":20,"dewp":19,"wdir":360,"wspd":10,"visib":"6+","altim":1015,"clouds":[{"cover":"FEW","base":1300},{"cover":"BKN","base":3000},{"cover":"BKN","base":5800}],"obsTime":1778878800},"SBMK":{"icaoId":"SBMK","flightCategory":"VFR","rawOb":"METAR SBMK 152100Z 04004KT 9999 FEW030 SCT080 26/16 Q1017","temp":26,"dewp":16,"wdir":40,"wspd":4,"visib":"6+","altim":1017,"clouds":[{"cover":"FEW","base":3000},{"cover":"SCT","base":8000}],"obsTime":1778878800},"SBCF":{"icaoId":"SBCF","flightCategory":"VFR","rawOb":"METAR SBCF 152100Z 05003KT CAVOK 25/16 Q1019","temp":25,"dewp":16,"wdir":50,"wspd":3,"visib":"6+","altim":1019,"clouds":[],"obsTime":1778878800},"SBGL":{"icaoId":"SBGL","flightCategory":"MVFR","rawOb":"METAR SBGL 152100Z 23006KT 9999 BKN030 BKN036 24/20 Q1016","temp":24,"dewp":20,"wdir":230,"wspd":6,"visib":"6+","altim":1016,"clouds":[{"cover":"BKN","base":3000},{"cover":"BKN","base":3600}],"obsTime":1778878800},"SBMO":{"icaoId":"SBMO","flightCategory":"VFR","rawOb":"METAR SBMO 152100Z 15007KT 9999 FEW030 26/22 Q1014","temp":26,"dewp":22,"wdir":150,"wspd":7,"visib":"6+","altim":1014,"clouds":[{"cover":"FEW","base":3000}],"obsTime":1778878800},"SBMQ":{"icaoId":"SBMQ","flightCategory":"VFR","rawOb":"METAR SBMQ 152100Z 01006KT 9999 FEW020 FEW030TCU 28/24 Q1011","temp":28,"dewp":24,"wdir":10,"wspd":6,"visib":"6+","altim":1011,"clouds":[{"cover":"FEW","base":2000},{"cover":"FEW","base":3000}],"obsTime":1778878800},"SBCT":{"icaoId":"SBCT","flightCategory":"LIFR","rawOb":"METAR SBCT 152100Z 05007KT 8000 -RA BKN003 BKN050 BKN083 14/14 Q1018","temp":14,"dewp":14,"wdir":50,"wspd":7,"visib":4.97,"altim":1018,"clouds":[{"cover":"BKN","base":300},{"cover":"BKN","base":5000},{"cover":"BKN","base":8300}],"obsTime":1778878800},"SBBR":{"icaoId":"SBBR","flightCategory":"VFR","rawOb":"METAR SBBR 152100Z 23007KT 200V260 9999 VCSH SCT045 FEW050TCU BKN060 24/16 Q1019","temp":24,"dewp":16,"wdir":230,"wspd":7,"visib":"6+","altim":1019,"clouds":[{"cover":"SCT","base":4500},{"cover":"FEW","base":5000},{"cover":"BKN","base":6000}],"obsTime":1778878800},"SBNT":{"icaoId":"SBNT","flightCategory":"VFR","rawOb":"METAR SBNT 152100Z 14010KT 9999 FEW014 BKN080 26/24 Q1010","temp":26,"dewp":24,"wdir":140,"wspd":10,"visib":"6+","altim":1010,"clouds":[{"cover":"FEW","base":1400},{"cover":"BKN","base":8000}],"obsTime":1778878800},"SBGO":{"icaoId":"SBGO","flightCategory":"VFR","rawOb":"METAR SBGO 152100Z 33004KT 9999 FEW040 FEW045TCU 28/18 Q1017","temp":28,"dewp":18,"wdir":330,"wspd":4,"visib":"6+","altim":1017,"clouds":[{"cover":"FEW","base":4000},{"cover":"FEW","base":4500}],"obsTime":1778878800},"SBPA":{"icaoId":"SBPA","flightCategory":"VFR","rawOb":"METAR SBPA 152100Z 14007KT CAVOK 16/10 Q1017","temp":16,"dewp":10,"wdir":140,"wspd":7,"visib":"6+","altim":1017,"clouds":[],"obsTime":1778878800},"SBBV":{"icaoId":"SBBV","flightCategory":"VFR","rawOb":"METAR SBBV 152100Z 13007KT 9999 SCT035 FEW040TCU BKN100 32/22 Q1010","temp":32,"dewp":22,"wdir":130,"wspd":7,"visib":"6+","altim":1010,"clouds":[{"cover":"SCT","base":3500},{"cover":"FEW","base":4000},{"cover":"BKN","base":10000}],"obsTime":1778878800},"SBPJ":{"icaoId":"SBPJ","flightCategory":"VFR","rawOb":"METAR SBPJ 152100Z 19003KT CAVOK 31/23 Q1012","temp":31,"dewp":23,"wdir":190,"wspd":3,"visib":"6+","altim":1012,"clouds":[],"obsTime":1778878800},"SBGR":{"icaoId":"SBGR","flightCategory":"VFR","rawOb":"METAR SBGR 152100Z 33003KT 9999 -RA SCT040 OVC090 18/16 Q1020","temp":18,"dewp":16,"wdir":330,"wspd":3,"visib":"6+","altim":1020,"clouds":[{"cover":"SCT","base":4000},{"cover":"OVC","base":9000}],"obsTime":1778878800},"SBPV":{"icaoId":"SBPV","flightCategory":"VFR","rawOb":"METAR SBPV 152100Z 22004KT 9999 FEW030 FEW040TCU SCT070 29/24 Q1010","temp":29,"dewp":24,"wdir":220,"wspd":4,"visib":"6+","altim":1010,"clouds":[{"cover":"FEW","base":3000},{"cover":"FEW","base":4000},{"cover":"SCT","base":7000}],"obsTime":1778878800},"SBRB":{"icaoId":"SBRB","flightCategory":"VFR","rawOb":"METAR SBRB 152100Z 22005KT 9999 SCT035 30/20 Q1011","temp":30,"dewp":20,"wdir":220,"wspd":5,"visib":"6+","altim":1011,"clouds":[{"cover":"SCT","base":3500}],"obsTime":1778878800},"SBCZ":{"icaoId":"SBCZ","flightCategory":"VFR","rawOb":"METAR SBCZ 152100Z 12002KT 9999 SCT030 32/21 Q1011","temp":32,"dewp":21,"wdir":120,"wspd":2,"visib":"6+","altim":1011,"clouds":[{"cover":"SCT","base":3000}],"obsTime":1778878800},"SBIL":{"icaoId":"SBIL","flightCategory":"VFR","rawOb":"METAR SBIL 152100Z 13004KT 9999 FEW020 27/23 Q1015","temp":27,"dewp":23,"wdir":130,"wspd":4,"visib":"6+","altim":1015,"clouds":[{"cover":"FEW","base":2000}],"obsTime":1778878800},"SBBE":{"icaoId":"SBBE","flightCategory":"VFR","rawOb":"METAR SBBE 152100Z 06006KT 9999 FEW045 SCT100 27/25 Q1011","temp":27,"dewp":25,"wdir":60,"wspd":6,"visib":"6+","altim":1011,"clouds":[{"cover":"FEW","base":4500},{"cover":"SCT","base":10000}],"obsTime":1778878800},"SBRF":{"icaoId":"SBRF","flightCategory":"MVFR","rawOb":"METAR SBRF 152100Z 14012KT 7000 -RA SCT010 BKN020 OVC050 24/23 Q1014","temp":24,"dewp":23,"wdir":140,"wspd":12,"visib":4.35,"altim":1014,"clouds":[{"cover":"SCT","base":1000},{"cover":"BKN","base":2000},{"cover":"OVC","base":5000}],"obsTime":1778878800},"SBSG":{"icaoId":"SBSG","flightCategory":"VFR","rawOb":"METAR SBSG 152100Z 13006KT 9999 SCT023 BKN090 26/24 Q1013","temp":26,"dewp":24,"wdir":130,"wspd":6,"visib":"6+","altim":1013,"clouds":[{"cover":"SCT","base":2300},{"cover":"BKN","base":9000}],"obsTime":1778878800},"SBEG":{"icaoId":"SBEG","flightCategory":"VFR","rawOb":"METAR SBEG 152100Z VRB02KT 9999 SCT012 FEW025TCU 25/24 Q1010","temp":25,"dewp":24,"wdir":"VRB","wspd":2,"visib":"6+","altim":1010,"clouds":[{"cover":"SCT","base":1200},{"cover":"FEW","base":2500}],"obsTime":1778878800},"SBSL":{"icaoId":"SBSL","flightCategory":"VFR","rawOb":"METAR SBSL 152100Z 36004KT 9999 SCT020 SCT100 26/24 Q1011","temp":26,"dewp":24,"wdir":360,"wspd":4,"visib":"6+","altim":1011,"clouds":[{"cover":"SCT","base":2000},{"cover":"SCT","base":10000}],"obsTime":1778878800},"SBJU":{"icaoId":"SBJU","flightCategory":"VFR","rawOb":"METAR SBJU 152100Z 04002KT 9999 FEW022 28/21 Q1014","temp":28,"dewp":21,"wdir":40,"wspd":2,"visib":"6+","altim":1014,"clouds":[{"cover":"FEW","base":2200}],"obsTime":1778878800},"SBCG":{"icaoId":"SBCG","flightCategory":"VFR","rawOb":"METAR SBCG 152100Z 34003KT 9999 FEW025 OVC100 23/19 Q1015","temp":23,"dewp":19,"wdir":340,"wspd":3,"visib":"6+","altim":1015,"clouds":[{"cover":"FEW","base":2500},{"cover":"OVC","base":10000}],"obsTime":1778878800},"SBSN":{"icaoId":"SBSN","flightCategory":"VFR","rawOb":"METAR SBSN 152100Z 06004KT 9999 FEW020 FEW025TCU 29/24 Q1009","temp":29,"dewp":24,"wdir":60,"wspd":4,"visib":"6+","altim":1009,"clouds":[{"cover":"FEW","base":2000},{"cover":"FEW","base":2500}],"obsTime":1778878800},"SBSP":{"icaoId":"SBSP","flightCategory":"MVFR","rawOb":"METAR SBSP 152100Z 01004KT 7000 -RA SCT008 OVC100 18/17 Q1020","temp":18,"dewp":17,"wdir":10,"wspd":4,"visib":4.35,"altim":1020,"clouds":[{"cover":"SCT","base":800},{"cover":"OVC","base":10000}],"obsTime":1778878800},"SBKP":{"icaoId":"SBKP","flightCategory":"IFR","rawOb":"METAR SBKP 152100Z 00000KT 4000 BR FEW048 BKN090 18/17 Q1019","temp":18,"dewp":17,"wdir":0,"wspd":0,"visib":2.49,"altim":1019,"clouds":[{"cover":"FEW","base":4800},{"cover":"BKN","base":9000}],"obsTime":1778878800},"SBSV":{"icaoId":"SBSV","flightCategory":"VFR","rawOb":"METAR SBSV 152100Z 15008KT 9999 SCT023 28/22 Q1014","temp":28,"dewp":22,"wdir":150,"wspd":8,"visib":"6+","altim":1014,"clouds":[{"cover":"SCT","base":2300}],"obsTime":1778878800},"SBFI":{"icaoId":"SBFI","flightCategory":"MVFR","rawOb":"METAR SBFI 152100Z 15004KT 9999 BKN020 SCT040 19/18 Q1014","temp":19,"dewp":18,"wdir":150,"wspd":4,"visib":"6+","altim":1014,"clouds":[{"cover":"BKN","base":2000},{"cover":"SCT","base":4000}],"obsTime":1778878800},"SBCP":{"icaoId":"SBCP","flightCategory":"VFR","rawOb":"METAR SBCP 152100Z 17010KT 9999 SCT020 BKN090 24/22 Q1016","temp":24,"dewp":22,"wdir":170,"wspd":10,"visib":"6+","altim":1016,"clouds":[{"cover":"SCT","base":2000},{"cover":"BKN","base":9000}],"obsTime":1778878800},"SBTE":{"icaoId":"SBTE","flightCategory":"VFR","rawOb":"METAR SBTE 152100Z 31003KT 9999 SCT020 BKN100 30/25 Q1011","temp":30,"dewp":25,"wdir":310,"wspd":3,"visib":"6+","altim":1011,"clouds":[{"cover":"SCT","base":2000},{"cover":"BKN","base":10000}],"obsTime":1778878800},"SBUL":{"icaoId":"SBUL","flightCategory":"VFR","rawOb":"METAR SBUL 152100Z 23009KT 9999 SCT040 FEW048TCU BKN100 21/18 Q1020","temp":21,"dewp":18,"wdir":230,"wspd":9,"visib":"6+","altim":1020,"clouds":[{"cover":"SCT","base":4000},{"cover":"FEW","base":4800},{"cover":"BKN","base":10000}],"obsTime":1778878800},"SBLO":{"icaoId":"SBLO","flightCategory":"MVFR","rawOb":"METAR SBLO 152100Z 05004KT 8000 SCT003 BKN012 BKN015 19/19 Q1017","temp":19,"dewp":19,"wdir":50,"wspd":4,"visib":4.97,"altim":1017,"clouds":[{"cover":"SCT","base":300},{"cover":"BKN","base":1200},{"cover":"BKN","base":1500}],"obsTime":1778878800},"SBUR":{"icaoId":"SBUR","flightCategory":"VFR","rawOb":"METAR SBUR 152100Z 17010KT 9000 NSC 20/15 Q1019","temp":20,"dewp":15,"wdir":170,"wspd":10,"visib":5.59,"altim":1019,"clouds":[],"obsTime":1778878800},"SBFL":{"icaoId":"SBFL","flightCategory":"VFR","rawOb":"METAR SBFL 152100Z 19007KT 140V220 9999 SCT025 OVC066 17/16 Q1017","temp":17,"dewp":16,"wdir":190,"wspd":7,"visib":"6+","altim":1017,"clouds":[{"cover":"SCT","base":2500},{"cover":"OVC","base":6600}],"obsTime":1778878800},"SBMA":{"icaoId":"SBMA","flightCategory":"VFR","rawOb":"METAR SBMA 152100Z 00000KT 9999 FEW020TCU 29/24 Q1010","temp":29,"dewp":24,"wdir":0,"wspd":0,"visib":"6+","altim":1010,"clouds":[{"cover":"FEW","base":2000}],"obsTime":1778878800},"SBCB":{"icaoId":"SBCB","flightCategory":"MVFR","rawOb":"METAR SBCB 152100Z 25013KT 8000 SCT008 BKN025 23/21 Q1016","temp":23,"dewp":21,"wdir":250,"wspd":13,"visib":4.97,"altim":1016,"clouds":[{"cover":"SCT","base":800},{"cover":"BKN","base":2500}],"obsTime":1778878800},"SBCR":{"icaoId":"SBCR","flightCategory":"IFR","rawOb":"METAR SBCR 152100Z 23004KT 200V280 9999 BKN009 BKN100 22/21 Q1013","temp":22,"dewp":21,"wdir":230,"wspd":4,"visib":"6+","altim":1013,"clouds":[{"cover":"BKN","base":900},{"cover":"BKN","base":10000}],"obsTime":1778878800},"SBHT":{"icaoId":"SBHT","flightCategory":"VFR","rawOb":"METAR SBHT 152100Z 14003KT 9999 SCT030 30/24 Q1010","temp":30,"dewp":24,"wdir":140,"wspd":3,"visib":"6+","altim":1010,"clouds":[{"cover":"SCT","base":3000}],"obsTime":1778878800},"SBAT":{"icaoId":"SBAT","flightCategory":"VFR","rawOb":"METAR SBAT 152100Z 33002KT 9999 FEW030TCU SCT080 OVC100 24/24 Q1013","temp":24,"dewp":24,"wdir":330,"wspd":2,"visib":"6+","altim":1013,"clouds":[{"cover":"FEW","base":3000},{"cover":"SCT","base":8000},{"cover":"OVC","base":10000}],"obsTime":1778878800},"SBVH":{"icaoId":"SBVH","flightCategory":"VFR","rawOb":"METAR SBVH 152100Z 32002KT 9999 FEW035 SCT100 23/22 Q1015","temp":23,"dewp":22,"wdir":320,"wspd":2,"visib":"6+","altim":1015,"clouds":[{"cover":"FEW","base":3500},{"cover":"SCT","base":10000}],"obsTime":1778878800},"SBCO":{"icaoId":"SBCO","flightCategory":"VFR","rawOb":"METAR SBCO 152100Z 12007KT 9999 FEW033 15/10 Q1018","temp":15,"dewp":10,"wdir":120,"wspd":7,"visib":"6+","altim":1018,"clouds":[{"cover":"FEW","base":3300}],"obsTime":1778878800},"SBPL":{"icaoId":"SBPL","flightCategory":"VFR","rawOb":"METAR SBPL 152100Z 13005KT CAVOK 30/16 Q1013","temp":30,"dewp":16,"wdir":130,"wspd":5,"visib":"6+","altim":1013,"clouds":[],"obsTime":1778878800},"SBDN":{"icaoId":"SBDN","flightCategory":"VFR","rawOb":"METAR SBDN 152100Z 05004KT CAVOK 21/18 Q1016","temp":21,"dewp":18,"wdir":50,"wspd":4,"visib":"6+","altim":1016,"clouds":[],"obsTime":1778878800},"SBBU":{"icaoId":"SBBU","flightCategory":"LIFR","rawOb":"METAR SBBU 152100Z 05005KT 8000 BKN004 BKN015 OVC070 19/19 Q1018","temp":19,"dewp":19,"wdir":50,"wspd":5,"visib":4.97,"altim":1018,"clouds":[{"cover":"BKN","base":400},{"cover":"BKN","base":1500},{"cover":"OVC","base":7000}],"obsTime":1778878800},"SBPS":{"icaoId":"SBPS","flightCategory":"VFR","rawOb":"METAR SBPS 152100Z 09005KT 9999 FEW030 26/23 Q1015","temp":26,"dewp":23,"wdir":90,"wspd":5,"visib":"6+","altim":1015,"clouds":[{"cover":"FEW","base":3000}],"obsTime":1778878800},"SBCA":{"icaoId":"SBCA","flightCategory":"LIFR","rawOb":"METAR SBCA 152100Z 03004KT 3000 -DZ BR BKN002 OVC020 16/16 Q1016","temp":16,"dewp":16,"wdir":30,"wspd":4,"visib":1.86,"altim":1016,"clouds":[{"cover":"BKN","base":200},{"cover":"OVC","base":2000}],"obsTime":1778878800},"SBSC":{"icaoId":"SBSC","flightCategory":"VFR","rawOb":"METAR SBSC 152100Z 21006KT 9999 SCT013 BKN050 BKN070 23/20 Q1017","temp":23,"dewp":20,"wdir":210,"wspd":6,"visib":"6+","altim":1017,"clouds":[{"cover":"SCT","base":1300},{"cover":"BKN","base":5000},{"cover":"BKN","base":7000}],"obsTime":1778878800},"SBES":{"icaoId":"SBES","flightCategory":"MVFR","rawOb":"METAR SBES 152100Z VRB07KT 9000 FEW010 BKN030 23/// Q1016","temp":null,"dewp":null,"wdir":"VRB","wspd":7,"visib":5.59,"altim":1016,"clouds":[{"cover":"FEW","base":1000},{"cover":"BKN","base":3000}],"obsTime":1778878800},"SBSJ":{"icaoId":"SBSJ","flightCategory":"IFR","rawOb":"METAR SBSJ 152100Z 16003KT 4000 BR NSC 17/16 Q1020","temp":17,"dewp":16,"wdir":160,"wspd":3,"visib":2.49,"altim":1020,"clouds":[],"obsTime":1778878800},"SBSM":{"icaoId":"SBSM","flightCategory":"VFR","rawOb":"METAR SBSM 152100Z 11005KT CAVOK 14/11 Q1016","temp":14,"dewp":11,"wdir":110,"wspd":5,"visib":"6+","altim":1016,"clouds":[],"obsTime":1778878800},"SBBH":{"icaoId":"SBBH","flightCategory":"VFR","rawOb":"METAR SBBH 152100Z 35002KT CAVOK 23/18 Q1018","temp":23,"dewp":18,"wdir":350,"wspd":2,"visib":"6+","altim":1018,"clouds":[],"obsTime":1778878800},"SBIP":{"icaoId":"SBIP","flightCategory":"VFR","rawOb":"METAR SBIP 152100Z AUTO 00000KT CAVOK 22/22 Q1015","temp":22,"dewp":22,"wdir":0,"wspd":0,"visib":"6+","altim":1015,"clouds":[],"obsTime":1778878800},"SBSR":{"icaoId":"SBSR","flightCategory":"VFR","rawOb":"METAR SBSR 152100Z 12005KT 9999 SCT040 BKN060 20/18 Q1017","temp":20,"dewp":18,"wdir":120,"wspd":5,"visib":"6+","altim":1017,"clouds":[{"cover":"SCT","base":4000},{"cover":"BKN","base":6000}],"obsTime":1778878800},"SBKG":{"icaoId":"SBKG","flightCategory":"VFR","rawOb":"METAR SBKG 152100Z 11006KT 9999 FEW015 BKN070 24/22 Q1015","temp":24,"dewp":22,"wdir":110,"wspd":6,"visib":"6+","altim":1015,"clouds":[{"cover":"FEW","base":1500},{"cover":"BKN","base":7000}],"obsTime":1778878800},"SBTF":{"icaoId":"SBTF","flightCategory":"VFR","rawOb":"METAR SBTF 152100Z 05002KT 9999 FEW015 BKN090 26/25 Q1010","temp":26,"dewp":25,"wdir":50,"wspd":2,"visib":"6+","altim":1010,"clouds":[{"cover":"FEW","base":1500},{"cover":"BKN","base":9000}],"obsTime":1778878800},"SBTT":{"icaoId":"SBTT","flightCategory":"VFR","rawOb":"METAR SBTT 152100Z 24004KT 9999 SCT017 FEW027TCU 31/21 Q1010","temp":31,"dewp":21,"wdir":240,"wspd":4,"visib":"6+","altim":1010,"clouds":[{"cover":"SCT","base":1700},{"cover":"FEW","base":2700}],"obsTime":1778878800},"SBAX":{"icaoId":"SBAX","flightCategory":"MVFR","rawOb":"METAR SBAX 152100Z 23006KT 9999 TS VCSH FEW020CB BKN025 BKN040 22/17 Q1019","temp":22,"dewp":17,"wdir":230,"wspd":6,"visib":"6+","altim":1019,"clouds":[{"cover":"FEW","base":2000},{"cover":"BKN","base":2500},{"cover":"BKN","base":4000}],"obsTime":1778878800},"SBTU":{"icaoId":"SBTU","flightCategory":"VFR","rawOb":"METAR SBTU 152100Z AUTO 19004KT 9999 // FEW031/// SCT039/// ///// Q1012","temp":null,"dewp":null,"wdir":190,"wspd":4,"visib":"6+","altim":1012,"clouds":[{"cover":"FEW","base":3100},{"cover":"SCT","base":3900}],"obsTime":1778878800},"SBOI":{"icaoId":"SBOI","flightCategory":"VFR","rawOb":"METAR SBOI 152100Z AUTO 01004KT 340V060 9999 SCT029 BKN047 27/24 Q1012","temp":27,"dewp":24,"wdir":10,"wspd":4,"visib":"6+","altim":1012,"clouds":[{"cover":"SCT","base":2900},{"cover":"BKN","base":4700}],"obsTime":1778878800},"SBAR":{"icaoId":"SBAR","flightCategory":"VFR","rawOb":"METAR SBAR 152100Z 14007KT 9999 FEW026 27/22 Q1013","temp":27,"dewp":22,"wdir":140,"wspd":7,"visib":"6+","altim":1013,"clouds":[{"cover":"FEW","base":2600}],"obsTime":1778878800},"SBUY":{"icaoId":"SBUY","flightCategory":"VFR","rawOb":"METAR SBUY 152100Z 22002KT 9999 FEW030 BKN100 25/25 Q1010","temp":25,"dewp":25,"wdir":220,"wspd":2,"visib":"6+","altim":1010,"clouds":[{"cover":"FEW","base":3000},{"cover":"BKN","base":10000}],"obsTime":1778878800},"SBPB":{"icaoId":"SBPB","flightCategory":"VFR","rawOb":"METAR SBPB 152100Z 06010KT 9999 SCT016 BKN080 28/24 Q1012","temp":28,"dewp":24,"wdir":60,"wspd":10,"visib":"6+","altim":1012,"clouds":[{"cover":"SCT","base":1600},{"cover":"BKN","base":8000}],"obsTime":1778878800},"SBCJ":{"icaoId":"SBCJ","flightCategory":"VFR","rawOb":"METAR SBCJ 152100Z 00000KT 9999 FEW023 FEW025TCU 25/22 Q1015","temp":25,"dewp":22,"wdir":0,"wspd":0,"visib":"6+","altim":1015,"clouds":[{"cover":"FEW","base":2300},{"cover":"FEW","base":2500}],"obsTime":1778878800},"SBPP":{"icaoId":"SBPP","flightCategory":"MVFR","rawOb":"METAR SBPP 152100Z 29006KT 9999 OVC015 19/17 Q1016","temp":19,"dewp":17,"wdir":290,"wspd":6,"visib":"6+","altim":1016,"clouds":[{"cover":"OVC","base":1500}],"obsTime":1778878800},"SBJP":{"icaoId":"SBJP","flightCategory":"VFR","rawOb":"METAR SBJP 152100Z 13008KT 9999 SCT020 OVC070 24/22 Q1014","temp":24,"dewp":22,"wdir":130,"wspd":8,"visib":"6+","altim":1014,"clouds":[{"cover":"SCT","base":2000},{"cover":"OVC","base":7000}],"obsTime":1778878800},"SBAN":{"icaoId":"SBAN","flightCategory":"VFR","rawOb":"METAR SBAN 152100Z 00000KT 9999 FEW030 22/17 Q1020","temp":22,"dewp":17,"wdir":0,"wspd":0,"visib":"6+","altim":1020,"clouds":[{"cover":"FEW","base":3000}],"obsTime":1778878800},"SBJV":{"icaoId":"SBJV","flightCategory":"IFR","rawOb":"METAR SBJV 152100Z 28003KT 250V310 3000 -RA BR BKN008 BKN012 16/16 Q1017","temp":16,"dewp":16,"wdir":280,"wspd":3,"visib":1.86,"altim":1017,"clouds":[{"cover":"BKN","base":800},{"cover":"BKN","base":1200}],"obsTime":1778878800},"SBNM":{"icaoId":"SBNM","flightCategory":"VFR","rawOb":"METAR SBNM 152100Z AUTO 16008KT CAVOK 19/12 Q1015","temp":19,"dewp":12,"wdir":160,"wspd":8,"visib":"6+","altim":1015,"clouds":[],"obsTime":1778878800},"SBPF":{"icaoId":"SBPF","flightCategory":"VFR","rawOb":"METAR SBPF 152100Z 17009KT CAVOK 19/09 Q1016","temp":19,"dewp":9,"wdir":170,"wspd":9,"visib":"6+","altim":1016,"clouds":[],"obsTime":1778878800},"SBLE":{"icaoId":"SBLE","flightCategory":"VFR","rawOb":"METAR SBLE 152100Z AUTO 21002KT CAVOK 24/18 Q1016","temp":24,"dewp":18,"wdir":210,"wspd":2,"visib":"6+","altim":1016,"clouds":[],"obsTime":1778878800},"SBAF":{"icaoId":"SBAF","flightCategory":"MVFR","rawOb":"METAR SBAF 152100Z 19005KT 8000 BKN026 BKN030 23/23 Q1017","temp":23,"dewp":23,"wdir":190,"wspd":5,"visib":4.97,"altim":1017,"clouds":[{"cover":"BKN","base":2600},{"cover":"BKN","base":3000}],"obsTime":1778878800},"SBGW":{"icaoId":"SBGW","flightCategory":"MVFR","rawOb":"METAR SBGW 152100Z 24006KT 210V270 6000 SCT025 BKN100 21/14 Q1019","temp":21,"dewp":14,"wdir":240,"wspd":6,"visib":3.73,"altim":1019,"clouds":[{"cover":"SCT","base":2500},{"cover":"BKN","base":10000}],"obsTime":1778878800},"SBJR":{"icaoId":"SBJR","flightCategory":"MVFR","rawOb":"METAR SBJR 152100Z 23004KT 6000 BKN015 OVC035 23/21 Q1017","temp":23,"dewp":21,"wdir":230,"wspd":4,"visib":3.73,"altim":1017,"clouds":[{"cover":"BKN","base":1500},{"cover":"OVC","base":3500}],"obsTime":1778878800},"SBLS":{"icaoId":"SBLS","flightCategory":"VFR","rawOb":"METAR SBLS 152100Z 03002KT 9999 FEW045 24/17 Q1018","temp":24,"dewp":17,"wdir":30,"wspd":2,"visib":"6+","altim":1018,"clouds":[{"cover":"FEW","base":4500}],"obsTime":1778878800},"SBMT":{"icaoId":"SBMT","flightCategory":"MVFR","rawOb":"METAR SBMT 152100Z 01003KT 6000 -RA BKN025 17/16 Q1020","temp":17,"dewp":16,"wdir":10,"wspd":3,"visib":3.73,"altim":1020,"clouds":[{"cover":"BKN","base":2500}],"obsTime":1778878800},"SBTA":{"icaoId":"SBTA","flightCategory":"MVFR","rawOb":"METAR SBTA 152100Z 24004KT 8000 FEW030 SCT070 BKN100 19/15 Q1019","temp":19,"dewp":15,"wdir":240,"wspd":4,"visib":4.97,"altim":1019,"clouds":[{"cover":"FEW","base":3000},{"cover":"SCT","base":7000},{"cover":"BKN","base":10000}],"obsTime":1778878800},"SBST":{"icaoId":"SBST","flightCategory":"IFR","rawOb":"METAR SBST 152100Z 14001KT 2000 -DZ BR FEW013 OVC017 20/19 Q1017 REDZ","temp":20,"dewp":19,"wdir":140,"wspd":1,"visib":1.24,"altim":1017,"clouds":[{"cover":"FEW","base":1300},{"cover":"OVC","base":1700}],"obsTime":1778878800},"SBIH":{"icaoId":"SBIH","flightCategory":"VFR","rawOb":"METAR SBIH 152100Z 12002KT 9999 SCT020 31/25 Q1009","temp":31,"dewp":25,"wdir":120,"wspd":2,"visib":"6+","altim":1009,"clouds":[{"cover":"SCT","base":2000}],"obsTime":1778878800}}}