{"updated":1783266086,"count":88,"data":{"SBPV":{"icaoId":"SBPV","flightCategory":"VFR","rawOb":"METAR SBPV 051400Z 00000KT CAVOK 27/20 Q1016","temp":27,"dewp":20,"wdir":0,"wspd":0,"visib":"6+","altim":1016,"clouds":[],"obsTime":1783260000},"SBJU":{"icaoId":"SBJU","flightCategory":"VFR","rawOb":"METAR SBJU 051400Z 18003KT CAVOK 30/16 Q1018","temp":30,"dewp":16,"wdir":180,"wspd":3,"visib":"6+","altim":1018,"clouds":[],"obsTime":1783260000},"SBRB":{"icaoId":"SBRB","flightCategory":"VFR","rawOb":"METAR SBRB 051400Z 16004KT CAVOK 24/19 Q1018","temp":24,"dewp":19,"wdir":160,"wspd":4,"visib":"6+","altim":1018,"clouds":[],"obsTime":1783260000},"SBME":{"icaoId":"SBME","flightCategory":"MVFR","rawOb":"METAR SBME 051400Z 24007KT 9999 BKN015 22/18 Q1021","temp":22,"dewp":18,"wdir":240,"wspd":7,"visib":"6+","altim":1021,"clouds":[{"cover":"BKN","base":1500}],"obsTime":1783260000},"SBMK":{"icaoId":"SBMK","flightCategory":"VFR","rawOb":"METAR SBMK 051400Z 09006KT CAVOK 25/13 Q1022","temp":25,"dewp":13,"wdir":90,"wspd":6,"visib":"6+","altim":1022,"clouds":[],"obsTime":1783260000},"SBUL":{"icaoId":"SBUL","flightCategory":"VFR","rawOb":"METAR SBUL 051400Z VRB03KT 9999 FEW035 25/12 Q1023","temp":25,"dewp":12,"wdir":"VRB","wspd":3,"visib":"6+","altim":1023,"clouds":[{"cover":"FEW","base":3500}],"obsTime":1783260000},"SBUR":{"icaoId":"SBUR","flightCategory":"VFR","rawOb":"METAR SBUR 051400Z 13004KT CAVOK 24/15 Q1022","temp":24,"dewp":15,"wdir":130,"wspd":4,"visib":"6+","altim":1022,"clouds":[],"obsTime":1783260000},"SBLO":{"icaoId":"SBLO","flightCategory":"VFR","rawOb":"METAR SBLO 051400Z 06003KT 010V110 9999 FEW010 19/18 Q1022","temp":19,"dewp":18,"wdir":60,"wspd":3,"visib":"6+","altim":1022,"clouds":[{"cover":"FEW","base":1000}],"obsTime":1783260000},"SBMG":{"icaoId":"SBMG","flightCategory":"VFR","rawOb":"METAR SBMG 051400Z 16005KT 9999 FEW015 20/18 Q1021","temp":20,"dewp":18,"wdir":160,"wspd":5,"visib":"6+","altim":1021,"clouds":[{"cover":"FEW","base":1500}],"obsTime":1783260000},"SBSN":{"icaoId":"SBSN","flightCategory":"VFR","rawOb":"METAR SBSN 051400Z 07008KT 9999 SCT017 30/26 Q1014","temp":30,"dewp":26,"wdir":70,"wspd":8,"visib":"6+","altim":1014,"clouds":[{"cover":"SCT","base":1700}],"obsTime":1783260000},"SBVT":{"icaoId":"SBVT","flightCategory":"VFR","rawOb":"METAR SBVT 051400Z 17009KT 9999 SCT020 BKN048 24/20 Q1020","temp":24,"dewp":20,"wdir":170,"wspd":9,"visib":"6+","altim":1020,"clouds":[{"cover":"SCT","base":2000},{"cover":"BKN","base":4800}],"obsTime":1783260000},"SBTE":{"icaoId":"SBTE","flightCategory":"VFR","rawOb":"METAR SBTE 051400Z 10007KT 9999 SCT030 32/21 Q1014","temp":32,"dewp":21,"wdir":100,"wspd":7,"visib":"6+","altim":1014,"clouds":[{"cover":"SCT","base":3000}],"obsTime":1783260000},"SBCZ":{"icaoId":"SBCZ","flightCategory":"VFR","rawOb":"METAR SBCZ 051400Z 02002KT CAVOK 26/22 Q1017","temp":26,"dewp":22,"wdir":20,"wspd":2,"visib":"6+","altim":1017,"clouds":[],"obsTime":1783260000},"SBCP":{"icaoId":"SBCP","flightCategory":"MVFR","rawOb":"METAR SBCP 051400Z 23010KT 9999 BKN015 24/18 Q1021","temp":24,"dewp":18,"wdir":230,"wspd":10,"visib":"6+","altim":1021,"clouds":[{"cover":"BKN","base":1500}],"obsTime":1783260000},"SBFZ":{"icaoId":"SBFZ","flightCategory":"VFR","rawOb":"METAR SBFZ 051400Z 14011KT 9999 SCT020 29/22 Q1015","temp":29,"dewp":22,"wdir":140,"wspd":11,"visib":"6+","altim":1015,"clouds":[{"cover":"SCT","base":2000}],"obsTime":1783260000},"SBMQ":{"icaoId":"SBMQ","flightCategory":"VFR","rawOb":"METAR SBMQ 051400Z 07008KT 9999 SCT017 29/25 Q1014","temp":29,"dewp":25,"wdir":70,"wspd":8,"visib":"6+","altim":1014,"clouds":[{"cover":"SCT","base":1700}],"obsTime":1783260000},"SBCF":{"icaoId":"SBCF","flightCategory":"VFR","rawOb":"METAR SBCF 051400Z 21004KT CAVOK 22/14 Q1023","temp":22,"dewp":14,"wdir":210,"wspd":4,"visib":"6+","altim":1023,"clouds":[],"obsTime":1783260000},"SBPA":{"icaoId":"SBPA","flightCategory":"IFR","rawOb":"METAR SBPA 051400Z VRB02KT 6000 OVC007 12/12 Q1022","temp":12,"dewp":12,"wdir":"VRB","wspd":2,"visib":3.73,"altim":1022,"clouds":[{"cover":"OVC","base":700}],"obsTime":1783260000},"SBSL":{"icaoId":"SBSL","flightCategory":"MVFR","rawOb":"METAR SBSL 051400Z 09007KT 9999 BKN020 30/23 Q1014","temp":30,"dewp":23,"wdir":90,"wspd":7,"visib":"6+","altim":1014,"clouds":[{"cover":"BKN","base":2000}],"obsTime":1783260000},"SBCB":{"icaoId":"SBCB","flightCategory":"MVFR","rawOb":"METAR SBCB 051400Z 25008KT 9999 BKN010 OVC030 21/17 Q1022","temp":21,"dewp":17,"wdir":250,"wspd":8,"visib":"6+","altim":1022,"clouds":[{"cover":"BKN","base":1000},{"cover":"OVC","base":3000}],"obsTime":1783260000},"SBCR":{"icaoId":"SBCR","flightCategory":"LIFR","rawOb":"METAR SBCR 051400Z 07005KT 030V090 3000 BR BKN002 OVC006 17/16 Q1019","temp":17,"dewp":16,"wdir":70,"wspd":5,"visib":1.86,"altim":1019,"clouds":[{"cover":"BKN","base":200},{"cover":"OVC","base":600}],"obsTime":1783260000},"SBSG":{"icaoId":"SBSG","flightCategory":"MVFR","rawOb":"METAR SBSG 051400Z 12004KT 080V160 9999 VCSH BKN019 BKN040 27/23 Q1016","temp":27,"dewp":23,"wdir":120,"wspd":4,"visib":"6+","altim":1016,"clouds":[{"cover":"BKN","base":1900},{"cover":"BKN","base":4000}],"obsTime":1783260000},"SBEG":{"icaoId":"SBEG","flightCategory":"VFR","rawOb":"METAR SBEG 051400Z 27006KT 9999 FEW016 29/24 Q1015","temp":29,"dewp":24,"wdir":270,"wspd":6,"visib":"6+","altim":1015,"clouds":[{"cover":"FEW","base":1600}],"obsTime":1783260000},"SBBV":{"icaoId":"SBBV","flightCategory":"IFR","rawOb":"METAR SBBV 051400Z 36005KT 9999 VCSH BKN009 BKN015 FEW030TCU BKN100 25/23 Q1016","temp":25,"dewp":23,"wdir":360,"wspd":5,"visib":"6+","altim":1016,"clouds":[{"cover":"BKN","base":900},{"cover":"BKN","base":1500},{"cover":"FEW","base":3000},{"cover":"BKN","base":10000}],"obsTime":1783260000},"SBMO":{"icaoId":"SBMO","flightCategory":"MVFR","rawOb":"METAR SBMO 051400Z 20007KT 9999 BKN024 BKN034 27/21 Q1017","temp":27,"dewp":21,"wdir":200,"wspd":7,"visib":"6+","altim":1017,"clouds":[{"cover":"BKN","base":2400},{"cover":"BKN","base":3400}],"obsTime":1783260000},"SBFI":{"icaoId":"SBFI","flightCategory":"VFR","rawOb":"METAR SBFI 051400Z 06003KT CAVOK 22/15 Q1019","temp":22,"dewp":15,"wdir":60,"wspd":3,"visib":"6+","altim":1019,"clouds":[],"obsTime":1783260000},"SBSP":{"icaoId":"SBSP","flightCategory":"VFR","rawOb":"METAR SBSP 051400Z COR AUTO 03006KT 350V080 CAVOK 17/12 Q1024","temp":17,"dewp":12,"wdir":30,"wspd":6,"visib":"6+","altim":1024,"clouds":[],"obsTime":1783260000},"SBMA":{"icaoId":"SBMA","flightCategory":"VFR","rawOb":"METAR SBMA 051400Z 05005KT CAVOK 32/19 Q1014","temp":32,"dewp":19,"wdir":50,"wspd":5,"visib":"6+","altim":1014,"clouds":[],"obsTime":1783260000},"SBRF":{"icaoId":"SBRF","flightCategory":"MVFR","rawOb":"SPECI SBRF 051348Z 17007KT 8000 VCSH SCT013 BKN023 OVC050 25/24 Q1016","temp":25,"dewp":24,"wdir":170,"wspd":7,"visib":4.97,"altim":1016,"clouds":[{"cover":"SCT","base":1300},{"cover":"BKN","base":2300},{"cover":"OVC","base":5000}],"obsTime":1783259280},"SBSV":{"icaoId":"SBSV","flightCategory":"MVFR","rawOb":"METAR SBSV 051400Z 12010KT 9000 VCSH FEW007 BKN015 BKN027 24/22 Q1018 RERA","temp":24,"dewp":22,"wdir":120,"wspd":10,"visib":5.59,"altim":1018,"clouds":[{"cover":"FEW","base":700},{"cover":"BKN","base":1500},{"cover":"BKN","base":2700}],"obsTime":1783260000},"SBIL":{"icaoId":"SBIL","flightCategory":"VFR","rawOb":"METAR SBIL 051400Z 19006KT 170V230 9999 SCT025 SCT050 BKN070 25/23 Q1019","temp":25,"dewp":23,"wdir":190,"wspd":6,"visib":"6+","altim":1019,"clouds":[{"cover":"SCT","base":2500},{"cover":"SCT","base":5000},{"cover":"BKN","base":7000}],"obsTime":1783260000},"SBGL":{"icaoId":"SBGL","flightCategory":"VFR","rawOb":"METAR SBGL 051400Z 29004KT 9999 SCT018 OVC034 21/17 Q1022","temp":21,"dewp":17,"wdir":290,"wspd":4,"visib":"6+","altim":1022,"clouds":[{"cover":"SCT","base":1800},{"cover":"OVC","base":3400}],"obsTime":1783260000},"SBCT":{"icaoId":"SBCT","flightCategory":"IFR","rawOb":"METAR SBCT 051400Z VRB02KT 5000 BR BKN005 14/12 Q1024","temp":14,"dewp":12,"wdir":"VRB","wspd":2,"visib":3.11,"altim":1024,"clouds":[{"cover":"BKN","base":500}],"obsTime":1783260000},"SBKP":{"icaoId":"SBKP","flightCategory":"VFR","rawOb":"METAR SBKP 051400Z 13009KT 080V150 CAVOK 17/13 Q1023","temp":17,"dewp":13,"wdir":130,"wspd":9,"visib":"6+","altim":1023,"clouds":[],"obsTime":1783260000},"SBFL":{"icaoId":"SBFL","flightCategory":"VFR","rawOb":"METAR SBFL 051400Z VRB02KT CAVOK 16/12 Q1023","temp":16,"dewp":12,"wdir":"VRB","wspd":2,"visib":"6+","altim":1023,"clouds":[],"obsTime":1783260000},"SBGR":{"icaoId":"SBGR","flightCategory":"MVFR","rawOb":"METAR SBGR 051400Z 07010KT 9999 SCT009 OVC011 16/13 Q1024","temp":16,"dewp":13,"wdir":70,"wspd":10,"visib":"6+","altim":1024,"clouds":[{"cover":"SCT","base":900},{"cover":"OVC","base":1100}],"obsTime":1783260000},"SBCG":{"icaoId":"SBCG","flightCategory":"VFR","rawOb":"METAR SBCG 051400Z 06009KT CAVOK 25/16 Q1021","temp":25,"dewp":16,"wdir":60,"wspd":9,"visib":"6+","altim":1021,"clouds":[],"obsTime":1783260000},"SBBE":{"icaoId":"SBBE","flightCategory":"VFR","rawOb":"METAR SBBE 051400Z 09009KT 9999 FEW027 BKN080 30/24 Q1014","temp":30,"dewp":24,"wdir":90,"wspd":9,"visib":"6+","altim":1014,"clouds":[{"cover":"FEW","base":2700},{"cover":"BKN","base":8000}],"obsTime":1783260000},"SBBR":{"icaoId":"SBBR","flightCategory":"VFR","rawOb":"METAR SBBR 051400Z 09007KT 040V120 9999 FEW025 24/11 Q1023","temp":24,"dewp":11,"wdir":90,"wspd":7,"visib":"6+","altim":1023,"clouds":[{"cover":"FEW","base":2500}],"obsTime":1783260000},"SBAT":{"icaoId":"SBAT","flightCategory":"VFR","rawOb":"METAR SBAT 051400Z 15007KT CAVOK 31/18 Q1017","temp":31,"dewp":18,"wdir":150,"wspd":7,"visib":"6+","altim":1017,"clouds":[],"obsTime":1783260000},"SBPJ":{"icaoId":"SBPJ","flightCategory":"VFR","rawOb":"METAR SBPJ 051400Z 24007KT CAVOK 29/21 Q1016","temp":29,"dewp":21,"wdir":240,"wspd":7,"visib":"6+","altim":1016,"clouds":[],"obsTime":1783260000},"SBNT":{"icaoId":"SBNT","flightCategory":"MVFR","rawOb":"METAR SBNT 051400Z 17007KT 9999 BKN018 27/23 Q1016","temp":27,"dewp":23,"wdir":170,"wspd":7,"visib":"6+","altim":1016,"clouds":[{"cover":"BKN","base":1800}],"obsTime":1783260000},"SBHT":{"icaoId":"SBHT","flightCategory":"MVFR","rawOb":"METAR SBHT 051400Z 10010KT 9999 BKN025 29/24 Q1015","temp":29,"dewp":24,"wdir":100,"wspd":10,"visib":"6+","altim":1015,"clouds":[{"cover":"BKN","base":2500}],"obsTime":1783260000},"SBGO":{"icaoId":"SBGO","flightCategory":"VFR","rawOb":"METAR SBGO 051400Z VRB01KT CAVOK 27/15 Q1021","temp":27,"dewp":15,"wdir":"VRB","wspd":1,"visib":"6+","altim":1021,"clouds":[],"obsTime":1783260000},"SBSJ":{"icaoId":"SBSJ","flightCategory":"IFR","rawOb":"METAR SBSJ 051400Z 34003KT 8000 OVC009 16/13 Q1024","temp":16,"dewp":13,"wdir":340,"wspd":3,"visib":4.97,"altim":1024,"clouds":[{"cover":"OVC","base":900}],"obsTime":1783260000},"SBOI":{"icaoId":"SBOI","flightCategory":"VFR","rawOb":"METAR SBOI 051400Z AUTO 13006KT 070V160 9999 SCT033 30/24 Q1015","temp":30,"dewp":24,"wdir":130,"wspd":6,"visib":"6+","altim":1015,"clouds":[{"cover":"SCT","base":3300}],"obsTime":1783260000},"SBTU":{"icaoId":"SBTU","flightCategory":"VFR","rawOb":"METAR SBTU 051400Z AUTO 23006KT 200V260 9999 // OVC092/// ///// Q1016","temp":null,"dewp":null,"wdir":230,"wspd":6,"visib":"6+","altim":1016,"clouds":[{"cover":"OVC","base":9200}],"obsTime":1783260000},"SBTT":{"icaoId":"SBTT","flightCategory":"VFR","rawOb":"METAR SBTT 051400Z 23006KT 200V260 9999 FEW017 26/22 Q1016","temp":26,"dewp":22,"wdir":230,"wspd":6,"visib":"6+","altim":1016,"clouds":[{"cover":"FEW","base":1700}],"obsTime":1783260000},"SBUY":{"icaoId":"SBUY","flightCategory":"VFR","rawOb":"METAR SBUY 051400Z 27004KT 9999 FEW025 28/23 Q1014","temp":28,"dewp":23,"wdir":270,"wspd":4,"visib":"6+","altim":1014,"clouds":[{"cover":"FEW","base":2500}],"obsTime":1783260000},"SBCJ":{"icaoId":"SBCJ","flightCategory":"VFR","rawOb":"METAR SBCJ 051400Z 10006KT CAVOK 28/17 Q1018","temp":28,"dewp":17,"wdir":100,"wspd":6,"visib":"6+","altim":1018,"clouds":[],"obsTime":1783260000},"SBCC":{"icaoId":"SBCC","flightCategory":"VFR","rawOb":"METAR SBCC 051400Z 08010KT 030V110 CAVOK 30/15 Q1017","temp":30,"dewp":15,"wdir":80,"wspd":10,"visib":"6+","altim":1017,"clouds":[],"obsTime":1783260000},"SBGM":{"icaoId":"SBGM","flightCategory":"VFR","rawOb":"METAR SBGM 051400Z 08005KT CAVOK 25/18 Q1017","temp":25,"dewp":18,"wdir":80,"wspd":5,"visib":"6+","altim":1017,"clouds":[],"obsTime":1783260000},"SBVH":{"icaoId":"SBVH","flightCategory":"VFR","rawOb":"METAR SBVH 051400Z 11007KT CAVOK 25/16 Q1019","temp":25,"dewp":16,"wdir":110,"wspd":7,"visib":"6+","altim":1019,"clouds":[],"obsTime":1783260000},"SBKG":{"icaoId":"SBKG","flightCategory":"VFR","rawOb":"METAR SBKG 051400Z 15004KT 050V220 9999 SCT018 BKN070 25/20 Q1019","temp":25,"dewp":20,"wdir":150,"wspd":4,"visib":"6+","altim":1019,"clouds":[{"cover":"SCT","base":1800},{"cover":"BKN","base":7000}],"obsTime":1783260000},"SBAX":{"icaoId":"SBAX","flightCategory":"VFR","rawOb":"METAR SBAX 051400Z AUTO VRB03KT CAVOK 24/13 Q1023","temp":24,"dewp":13,"wdir":"VRB","wspd":3,"visib":"6+","altim":1023,"clouds":[],"obsTime":1783260000},"SBBH":{"icaoId":"SBBH","flightCategory":"VFR","rawOb":"METAR SBBH 051400Z 08004KT CAVOK 23/15 Q1023","temp":23,"dewp":15,"wdir":80,"wspd":4,"visib":"6+","altim":1023,"clouds":[],"obsTime":1783260000},"SBBQ":{"icaoId":"SBBQ","flightCategory":"MVFR","rawOb":"METAR SBBQ 051400Z 07005KT 350V130 5000 HZ BKN012 18/12 Q1027","temp":18,"dewp":12,"wdir":70,"wspd":5,"visib":3.11,"altim":1027,"clouds":[{"cover":"BKN","base":1200}],"obsTime":1783260000},"SBBU":{"icaoId":"SBBU","flightCategory":"MVFR","rawOb":"METAR SBBU 051400Z 10007KT 5000 BR FEW005 19/16 Q1022","temp":19,"dewp":16,"wdir":100,"wspd":7,"visib":3.11,"altim":1022,"clouds":[{"cover":"FEW","base":500}],"obsTime":1783260000},"SBDN":{"icaoId":"SBDN","flightCategory":"VFR","rawOb":"METAR SBDN 051400Z 03005KT CAVOK 22/16 Q1021","temp":22,"dewp":16,"wdir":30,"wspd":5,"visib":"6+","altim":1021,"clouds":[],"obsTime":1783260000},"SBIP":{"icaoId":"SBIP","flightCategory":"VFR","rawOb":"METAR SBIP 051400Z AUTO VRB02KT 9999 FEW031 OVC037 23/17 Q1022","temp":23,"dewp":17,"wdir":"VRB","wspd":2,"visib":"6+","altim":1022,"clouds":[{"cover":"FEW","base":3100},{"cover":"OVC","base":3700}],"obsTime":1783260000},"SBSC":{"icaoId":"SBSC","flightCategory":"MVFR","rawOb":"METAR SBSC 051400Z 22006KT 9999 FEW020 BKN023 20/17 Q1023","temp":20,"dewp":17,"wdir":220,"wspd":6,"visib":"6+","altim":1023,"clouds":[{"cover":"FEW","base":2000},{"cover":"BKN","base":2300}],"obsTime":1783260000},"SBSR":{"icaoId":"SBSR","flightCategory":"VFR","rawOb":"METAR SBSR 051400Z 15007KT CAVOK 25/13 Q1021","temp":25,"dewp":13,"wdir":150,"wspd":7,"visib":"6+","altim":1021,"clouds":[],"obsTime":1783260000},"SBCA":{"icaoId":"SBCA","flightCategory":"VFR","rawOb":"METAR SBCA 051400Z 03008KT CAVOK 21/14 Q1022","temp":21,"dewp":14,"wdir":30,"wspd":8,"visib":"6+","altim":1022,"clouds":[],"obsTime":1783260000},"SBCO":{"icaoId":"SBCO","flightCategory":"IFR","rawOb":"METAR SBCO 051400Z 12005KT 090V160 6000 OVC005 12/11 Q1023","temp":12,"dewp":11,"wdir":120,"wspd":5,"visib":3.73,"altim":1023,"clouds":[{"cover":"OVC","base":500}],"obsTime":1783260000},"SBSM":{"icaoId":"SBSM","flightCategory":"VFR","rawOb":"METAR SBSM 051400Z 11006KT 080V150 9999 SCT009 BKN050 OVC070 11/09 Q1022","temp":11,"dewp":9,"wdir":110,"wspd":6,"visib":"6+","altim":1022,"clouds":[{"cover":"SCT","base":900},{"cover":"BKN","base":5000},{"cover":"OVC","base":7000}],"obsTime":1783260000},"SBPS":{"icaoId":"SBPS","flightCategory":"VFR","rawOb":"METAR SBPS 051400Z 13005KT 090V200 9999 SCT025 BKN050 26/21 Q1019","temp":26,"dewp":21,"wdir":130,"wspd":5,"visib":"6+","altim":1019,"clouds":[{"cover":"SCT","base":2500},{"cover":"BKN","base":5000}],"obsTime":1783260000},"SBES":{"icaoId":"SBES","flightCategory":"MVFR","rawOb":"METAR SBES 051400Z 25008KT 170V300 9999 VCSH BKN012 19/// Q1022","temp":null,"dewp":null,"wdir":250,"wspd":8,"visib":"6+","altim":1022,"clouds":[{"cover":"BKN","base":1200}],"obsTime":1783260000},"SBAR":{"icaoId":"SBAR","flightCategory":"VFR","rawOb":"METAR SBAR 051400Z 12006KT 9999 FEW020 27/22 Q1017","temp":27,"dewp":22,"wdir":120,"wspd":6,"visib":"6+","altim":1017,"clouds":[{"cover":"FEW","base":2000}],"obsTime":1783260000},"SBTF":{"icaoId":"SBTF","flightCategory":"VFR","rawOb":"METAR SBTF 051400Z 20005KT CAVOK 30/23 Q1015","temp":30,"dewp":23,"wdir":200,"wspd":5,"visib":"6+","altim":1015,"clouds":[],"obsTime":1783260000},"SBPL":{"icaoId":"SBPL","flightCategory":"MVFR","rawOb":"METAR SBPL 051400Z 09009KT 9999 BKN025 25/18 Q1019","temp":25,"dewp":18,"wdir":90,"wspd":9,"visib":"6+","altim":1019,"clouds":[{"cover":"BKN","base":2500}],"obsTime":1783260000},"SBPB":{"icaoId":"SBPB","flightCategory":"VFR","rawOb":"METAR SBPB 051400Z 09012KT 9999 SCT020 30/24 Q1014","temp":30,"dewp":24,"wdir":90,"wspd":12,"visib":"6+","altim":1014,"clouds":[{"cover":"SCT","base":2000}],"obsTime":1783260000},"SBPP":{"icaoId":"SBPP","flightCategory":"VFR","rawOb":"METAR SBPP 051400Z 03010KT CAVOK 22/16 Q1021","temp":22,"dewp":16,"wdir":30,"wspd":10,"visib":"6+","altim":1021,"clouds":[],"obsTime":1783260000},"SBAU":{"icaoId":"SBAU","flightCategory":"VFR","rawOb":"METAR SBAU 051400Z 10008KT CAVOK 25/17 Q1020","temp":25,"dewp":17,"wdir":100,"wspd":8,"visib":"6+","altim":1020,"clouds":[],"obsTime":1783260000},"SBJP":{"icaoId":"SBJP","flightCategory":"MVFR","rawOb":"METAR SBJP 051400Z 16007KT 9999 BKN010 27/24 Q1016","temp":27,"dewp":24,"wdir":160,"wspd":7,"visib":"6+","altim":1016,"clouds":[{"cover":"BKN","base":1000}],"obsTime":1783260000},"SBIH":{"icaoId":"SBIH","flightCategory":"VFR","rawOb":"METAR SBIH 051400Z 00000KT CAVOK 31/21 Q1014","temp":31,"dewp":21,"wdir":0,"wspd":0,"visib":"6+","altim":1014,"clouds":[],"obsTime":1783260000},"SBLE":{"icaoId":"SBLE","flightCategory":"VFR","rawOb":"METAR SBLE 051400Z AUTO VRB02KT 9999 SCT022 BKN034 ///// Q1021","temp":null,"dewp":null,"wdir":"VRB","wspd":2,"visib":"6+","altim":1021,"clouds":[{"cover":"SCT","base":2200},{"cover":"BKN","base":3400}],"obsTime":1783260000},"SBTC":{"icaoId":"SBTC","flightCategory":"MVFR","rawOb":"METAR SBTC 051400Z 19009KT 9999 VCSH BKN020 BKN060 23/21 Q1020","temp":23,"dewp":21,"wdir":190,"wspd":9,"visib":"6+","altim":1020,"clouds":[{"cover":"BKN","base":2000},{"cover":"BKN","base":6000}],"obsTime":1783260000},"SBAN":{"icaoId":"SBAN","flightCategory":"VFR","rawOb":"METAR SBAN 051400Z 07005KT CAVOK 24/10 Q1024","temp":24,"dewp":10,"wdir":70,"wspd":5,"visib":"6+","altim":1024,"clouds":[],"obsTime":1783260000},"SBAF":{"icaoId":"SBAF","flightCategory":"MVFR","rawOb":"METAR SBAF 051400Z 29002KT 9999 BKN016 OVC040 21/19 Q1022","temp":21,"dewp":19,"wdir":290,"wspd":2,"visib":"6+","altim":1022,"clouds":[{"cover":"BKN","base":1600},{"cover":"OVC","base":4000}],"obsTime":1783260000},"SBGW":{"icaoId":"SBGW","flightCategory":"IFR","rawOb":"METAR SBGW 051400Z 25002KT 4000 HZ BKN008 BKN015 18/12 Q1024","temp":18,"dewp":12,"wdir":250,"wspd":2,"visib":2.49,"altim":1024,"clouds":[{"cover":"BKN","base":800},{"cover":"BKN","base":1500}],"obsTime":1783260000},"SBJR":{"icaoId":"SBJR","flightCategory":"MVFR","rawOb":"METAR SBJR 051400Z 24003KT 9000 BKN015 BKN040 22/18 Q1022","temp":22,"dewp":18,"wdir":240,"wspd":3,"visib":5.59,"altim":1022,"clouds":[{"cover":"BKN","base":1500},{"cover":"BKN","base":4000}],"obsTime":1783260000},"SBLS":{"icaoId":"SBLS","flightCategory":"VFR","rawOb":"METAR SBLS 051400Z VRB04KT CAVOK 23/14 Q1023","temp":23,"dewp":14,"wdir":"VRB","wspd":4,"visib":"6+","altim":1023,"clouds":[],"obsTime":1783260000},"SBMT":{"icaoId":"SBMT","flightCategory":"VFR","rawOb":"METAR SBMT 051400Z 06005KT 9999 SCT013 16/11 Q1023","temp":16,"dewp":11,"wdir":60,"wspd":5,"visib":"6+","altim":1023,"clouds":[{"cover":"SCT","base":1300}],"obsTime":1783260000},"SBST":{"icaoId":"SBST","flightCategory":"MVFR","rawOb":"METAR SBST 051400Z 25002KT 9000 SCT014 BKN016 BKN036 18/15 Q1022","temp":18,"dewp":15,"wdir":250,"wspd":2,"visib":5.59,"altim":1022,"clouds":[{"cover":"SCT","base":1400},{"cover":"BKN","base":1600},{"cover":"BKN","base":3600}],"obsTime":1783260000},"SBTA":{"icaoId":"SBTA","flightCategory":"IFR","rawOb":"METAR SBTA 051400Z VRB01KT 5000 BR BKN007 17/15 Q1023","temp":17,"dewp":15,"wdir":"VRB","wspd":1,"visib":3.11,"altim":1023,"clouds":[{"cover":"BKN","base":700}],"obsTime":1783260000},"SBJV":{"icaoId":"SBJV","flightCategory":"MVFR","rawOb":"METAR SBJV 051400Z 13003KT 9999 SCT009 OVC020 15/13 Q1024","temp":15,"dewp":13,"wdir":130,"wspd":3,"visib":"6+","altim":1024,"clouds":[{"cover":"SCT","base":900},{"cover":"OVC","base":2000}],"obsTime":1783260000},"SBNM":{"icaoId":"SBNM","flightCategory":"VFR","rawOb":"METAR SBNM 051400Z 10003KT 9999 BKN035 11/09 Q1021","temp":11,"dewp":9,"wdir":100,"wspd":3,"visib":"6+","altim":1021,"clouds":[{"cover":"BKN","base":3500}],"obsTime":1783260000},"SBPF":{"icaoId":"SBPF","flightCategory":"VFR","rawOb":"METAR SBPF 051400Z 03010KT CAVOK 14/09 Q1022","temp":14,"dewp":9,"wdir":30,"wspd":10,"visib":"6+","altim":1022,"clouds":[],"obsTime":1783260000}}}