{"updated":1773650561,"count":51,"data":{"SBBE":{"icaoId":"SBBE","flightCategory":"VFR","rawOb":"METAR SBBE 160700Z 03005KT 9999 SCT015 SCT030 BKN080 25/25 Q1011","temp":25,"dewp":25,"wdir":30,"wspd":5,"visib":"6+","altim":1011,"clouds":[{"cover":"SCT","base":1500},{"cover":"SCT","base":3000},{"cover":"BKN","base":8000}],"obsTime":1773644400},"SBBR":{"icaoId":"SBBR","flightCategory":"IFR","rawOb":"METAR SBBR 160700Z 10005KT 9999 -RA BKN005 BKN060 19/19 Q1017 RERA","temp":19,"dewp":19,"wdir":100,"wspd":5,"visib":"6+","altim":1017,"clouds":[{"cover":"BKN","base":500},{"cover":"BKN","base":6000}],"obsTime":1773644400},"SBBV":{"icaoId":"SBBV","flightCategory":"VFR","rawOb":"METAR SBBV 160700Z 08010KT 9999 FEW040 BKN100 26/22 Q1009","temp":26,"dewp":22,"wdir":80,"wspd":10,"visib":"6+","altim":1009,"clouds":[{"cover":"FEW","base":4000},{"cover":"BKN","base":10000}],"obsTime":1773644400},"SBCF":{"icaoId":"SBCF","flightCategory":"VFR","rawOb":"METAR SBCF 160700Z 15006KT CAVOK 21/20 Q1016","temp":21,"dewp":20,"wdir":150,"wspd":6,"visib":"6+","altim":1016,"clouds":[],"obsTime":1773644400},"SBCG":{"icaoId":"SBCG","flightCategory":"VFR","rawOb":"METAR SBCG 160700Z 02010KT CAVOK 25/22 Q1010","temp":25,"dewp":22,"wdir":20,"wspd":10,"visib":"6+","altim":1010,"clouds":[],"obsTime":1773644400},"SBCT":{"icaoId":"SBCT","flightCategory":"VFR","rawOb":"METAR SBCT 160700Z 10003KT 9999 FEW012 19/19 Q1016","temp":19,"dewp":19,"wdir":100,"wspd":3,"visib":"6+","altim":1016,"clouds":[{"cover":"FEW","base":1200}],"obsTime":1773644400},"SBEG":{"icaoId":"SBEG","flightCategory":"VFR","rawOb":"METAR SBEG 160700Z 12003KT CAVOK 26/24 Q1009","temp":26,"dewp":24,"wdir":120,"wspd":3,"visib":"6+","altim":1009,"clouds":[],"obsTime":1773644400},"SBFI":{"icaoId":"SBFI","flightCategory":"VFR","rawOb":"METAR SBFI 160700Z 09004KT 9999 FEW030 FEW040TCU OVC100 24/21 Q1008","temp":24,"dewp":21,"wdir":90,"wspd":4,"visib":"6+","altim":1008,"clouds":[{"cover":"FEW","base":3000},{"cover":"FEW","base":4000},{"cover":"OVC","base":10000}],"obsTime":1773644400},"SBFL":{"icaoId":"SBFL","flightCategory":"VFR","rawOb":"METAR SBFL 160700Z 31007KT 9999 FEW015 SCT020 25/24 Q1011","temp":25,"dewp":24,"wdir":310,"wspd":7,"visib":"6+","altim":1011,"clouds":[{"cover":"FEW","base":1500},{"cover":"SCT","base":2000}],"obsTime":1773644400},"SBFZ":{"icaoId":"SBFZ","flightCategory":"VFR","rawOb":"METAR SBFZ 160700Z 14008KT 9999 SCT013 BKN035 25/23 Q1009","temp":25,"dewp":23,"wdir":140,"wspd":8,"visib":"6+","altim":1009,"clouds":[{"cover":"SCT","base":1300},{"cover":"BKN","base":3500}],"obsTime":1773644400},"SBGL":{"icaoId":"SBGL","flightCategory":"VFR","rawOb":"METAR SBGL 160700Z 08004KT 9999 SCT009 23/22 Q1011","temp":23,"dewp":22,"wdir":80,"wspd":4,"visib":"6+","altim":1011,"clouds":[{"cover":"SCT","base":900}],"obsTime":1773644400},"SBGO":{"icaoId":"SBGO","flightCategory":"VFR","rawOb":"METAR SBGO 160700Z 13005KT 9999 FEW040 FEW050TCU BKN080 22/20 Q1015","temp":22,"dewp":20,"wdir":130,"wspd":5,"visib":"6+","altim":1015,"clouds":[{"cover":"FEW","base":4000},{"cover":"FEW","base":5000},{"cover":"BKN","base":8000}],"obsTime":1773644400},"SBGR":{"icaoId":"SBGR","flightCategory":"MVFR","rawOb":"METAR SBGR 160700Z 08002KT 8000 NSC 18/17 Q1015","temp":18,"dewp":17,"wdir":80,"wspd":2,"visib":4.97,"altim":1015,"clouds":[],"obsTime":1773644400},"SBJU":{"icaoId":"SBJU","flightCategory":"VFR","rawOb":"METAR SBJU 160700Z 00000KT 9999 SCT020 24/23 Q1012","temp":24,"dewp":23,"wdir":0,"wspd":0,"visib":"6+","altim":1012,"clouds":[{"cover":"SCT","base":2000}],"obsTime":1773644400},"SBKP":{"icaoId":"SBKP","flightCategory":"VFR","rawOb":"METAR SBKP 160700Z 12010KT CAVOK 22/18 Q1013","temp":22,"dewp":18,"wdir":120,"wspd":10,"visib":"6+","altim":1013,"clouds":[],"obsTime":1773644400},"SBLO":{"icaoId":"SBLO","flightCategory":"VFR","rawOb":"METAR SBLO 160700Z 10003KT CAVOK 21/19 Q1012","temp":21,"dewp":19,"wdir":100,"wspd":3,"visib":"6+","altim":1012,"clouds":[],"obsTime":1773644400},"SBMA":{"icaoId":"SBMA","flightCategory":"VFR","rawOb":"METAR SBMA 160700Z 02006KT 9999 FEW016 SCT090 23/23 Q1010","temp":23,"dewp":23,"wdir":20,"wspd":6,"visib":"6+","altim":1010,"clouds":[{"cover":"FEW","base":1600},{"cover":"SCT","base":9000}],"obsTime":1773644400},"SBME":{"icaoId":"SBME","flightCategory":"VFR","rawOb":"METAR SBME 160700Z 05003KT CAVOK 23/22 Q1011","temp":23,"dewp":22,"wdir":50,"wspd":3,"visib":"6+","altim":1011,"clouds":[],"obsTime":1773644400},"SBMG":{"icaoId":"SBMG","flightCategory":"VFR","rawOb":"METAR SBMG 160700Z AUTO 03010KT CAVOK 23/18 Q1010","temp":23,"dewp":18,"wdir":30,"wspd":10,"visib":"6+","altim":1010,"clouds":[],"obsTime":1773644400},"SBMK":{"icaoId":"SBMK","flightCategory":"VFR","rawOb":"METAR SBMK 160800Z 00000KT CAVOK 21/21 Q1014","temp":21,"dewp":21,"wdir":0,"wspd":0,"visib":"6+","altim":1014,"clouds":[],"obsTime":1773648000},"SBMO":{"icaoId":"SBMO","flightCategory":"VFR","rawOb":"METAR SBMO 160700Z 30004KT 9999 FEW030 24/23 Q1011","temp":24,"dewp":23,"wdir":300,"wspd":4,"visib":"6+","altim":1011,"clouds":[{"cover":"FEW","base":3000}],"obsTime":1773644400},"SBMQ":{"icaoId":"SBMQ","flightCategory":"VFR","rawOb":"METAR SBMQ 160700Z 01004KT 9999 SCT028 BKN060 26/25 Q1010","temp":26,"dewp":25,"wdir":10,"wspd":4,"visib":"6+","altim":1010,"clouds":[{"cover":"SCT","base":2800},{"cover":"BKN","base":6000}],"obsTime":1773644400},"SBNT":{"icaoId":"SBNT","flightCategory":"VFR","rawOb":"METAR SBNT 160700Z 24003KT 9999 SCT018 25/24 Q1010","temp":25,"dewp":24,"wdir":240,"wspd":3,"visib":"6+","altim":1010,"clouds":[{"cover":"SCT","base":1800}],"obsTime":1773644400},"SBPA":{"icaoId":"SBPA","flightCategory":"VFR","rawOb":"METAR SBPA 160700Z 10006KT CAVOK 23/22 Q1009","temp":23,"dewp":22,"wdir":100,"wspd":6,"visib":"6+","altim":1009,"clouds":[],"obsTime":1773644400},"SBPJ":{"icaoId":"SBPJ","flightCategory":"VFR","rawOb":"METAR SBPJ 160700Z 10003KT 9999 FEW010 24/23 Q1011","temp":24,"dewp":23,"wdir":100,"wspd":3,"visib":"6+","altim":1011,"clouds":[{"cover":"FEW","base":1000}],"obsTime":1773644400},"SBPV":{"icaoId":"SBPV","flightCategory":"VFR","rawOb":"METAR SBPV 160700Z 00000KT 9999 FEW035 FEW040TCU BKN066 23/22 Q1011","temp":23,"dewp":22,"wdir":0,"wspd":0,"visib":"6+","altim":1011,"clouds":[{"cover":"FEW","base":3500},{"cover":"FEW","base":4000},{"cover":"BKN","base":6600}],"obsTime":1773644400},"SBRB":{"icaoId":"SBRB","flightCategory":"MVFR","rawOb":"METAR SBRB 160700Z 35003KT 7000 NSC 23/22 Q1009","temp":23,"dewp":22,"wdir":350,"wspd":3,"visib":4.35,"altim":1009,"clouds":[],"obsTime":1773644400},"SBRF":{"icaoId":"SBRF","flightCategory":"VFR","rawOb":"METAR SBRF 160700Z 31003KT 270V330 9999 SCT021 26/24 Q1010","temp":26,"dewp":24,"wdir":310,"wspd":3,"visib":"6+","altim":1010,"clouds":[{"cover":"SCT","base":2100}],"obsTime":1773644400},"SBSG":{"icaoId":"SBSG","flightCategory":"VFR","rawOb":"METAR SBSG 160700Z 22004KT 190V250 9999 FEW020 24/23 Q1010","temp":24,"dewp":23,"wdir":220,"wspd":4,"visib":"6+","altim":1010,"clouds":[{"cover":"FEW","base":2000}],"obsTime":1773644400},"SBSL":{"icaoId":"SBSL","flightCategory":"VFR","rawOb":"METAR SBSL 160700Z 06003KT 9999 SCT018 BKN080 26/25 Q1009","temp":26,"dewp":25,"wdir":60,"wspd":3,"visib":"6+","altim":1009,"clouds":[{"cover":"SCT","base":1800},{"cover":"BKN","base":8000}],"obsTime":1773644400},"SBSN":{"icaoId":"SBSN","flightCategory":"VFR","rawOb":"METAR SBSN 160700Z 08011KT 9999 SCT014 27/24 Q1009","temp":27,"dewp":24,"wdir":80,"wspd":11,"visib":"6+","altim":1009,"clouds":[{"cover":"SCT","base":1400}],"obsTime":1773644400},"SBSP":{"icaoId":"SBSP","flightCategory":"VFR","rawOb":"METAR SBSP 160700Z AUTO 15003KT CAVOK 19/17 Q1016","temp":19,"dewp":17,"wdir":150,"wspd":3,"visib":"6+","altim":1016,"clouds":[],"obsTime":1773644400},"SBSV":{"icaoId":"SBSV","flightCategory":"VFR","rawOb":"METAR SBSV 160700Z 06008KT 9999 FEW025 26/21 Q1011","temp":26,"dewp":21,"wdir":60,"wspd":8,"visib":"6+","altim":1011,"clouds":[{"cover":"FEW","base":2500}],"obsTime":1773644400},"SBTE":{"icaoId":"SBTE","flightCategory":"IFR","rawOb":"METAR SBTE 160700Z 34002KT 9999 BKN006 24/23 Q1010","temp":24,"dewp":23,"wdir":340,"wspd":2,"visib":"6+","altim":1010,"clouds":[{"cover":"BKN","base":600}],"obsTime":1773644400},"SBUL":{"icaoId":"SBUL","flightCategory":"VFR","rawOb":"METAR SBUL 160700Z 03005KT CAVOK 21/19 Q1016","temp":21,"dewp":19,"wdir":30,"wspd":5,"visib":"6+","altim":1016,"clouds":[],"obsTime":1773644400},"SBUR":{"icaoId":"SBUR","flightCategory":"VFR","rawOb":"METAR SBUR 160700Z 02005KT CAVOK 22/18 Q1014","temp":22,"dewp":18,"wdir":20,"wspd":5,"visib":"6+","altim":1014,"clouds":[],"obsTime":1773644400},"SBVT":{"icaoId":"SBVT","flightCategory":"VFR","rawOb":"METAR SBVT 160700Z 29002KT 9999 FEW020 21/21 Q1012","temp":21,"dewp":21,"wdir":290,"wspd":2,"visib":"6+","altim":1012,"clouds":[{"cover":"FEW","base":2000}],"obsTime":1773644400},"SBPS":{"icaoId":"SBPS","flightCategory":"VFR","rawOb":"METAR SBPS 160700Z 28001KT 9999 SCT020 24/24 Q1012","temp":24,"dewp":24,"wdir":280,"wspd":1,"visib":"6+","altim":1012,"clouds":[{"cover":"SCT","base":2000}],"obsTime":1773644400},"SBSJ":{"icaoId":"SBSJ","flightCategory":"LIFR","rawOb":"SPECI SBSJ 160830Z 00000KT 3500 BR BKN003 18/18 Q1015","temp":18,"dewp":18,"wdir":0,"wspd":0,"visib":2.17,"altim":1015,"clouds":[{"cover":"BKN","base":300}],"obsTime":1773649800},"SBIP":{"icaoId":"SBIP","flightCategory":"VFR","rawOb":"METAR SBIP 160700Z AUTO 22003KT 9000 FEW024 22/22 Q1013","temp":22,"dewp":22,"wdir":220,"wspd":3,"visib":5.59,"altim":1013,"clouds":[{"cover":"FEW","base":2400}],"obsTime":1773644400},"SBAX":{"icaoId":"SBAX","flightCategory":"VFR","rawOb":"METAR SBAX 160700Z AUTO VRB02KT CAVOK ///// Q1016","temp":null,"dewp":null,"wdir":"VRB","wspd":2,"visib":"6+","altim":1016,"clouds":[],"obsTime":1773644400},"SBDN":{"icaoId":"SBDN","flightCategory":"VFR","rawOb":"METAR SBDN 160700Z 06005KT CAVOK 24/17 Q1010","temp":24,"dewp":17,"wdir":60,"wspd":5,"visib":"6+","altim":1010,"clouds":[],"obsTime":1773644400},"SBPL":{"icaoId":"SBPL","flightCategory":"VFR","rawOb":"METAR SBPL 160700Z 16001KT 9999 TS SCT020 FEW025CB SCT070 25/23 Q1012","temp":25,"dewp":23,"wdir":160,"wspd":1,"visib":"6+","altim":1012,"clouds":[{"cover":"SCT","base":2000},{"cover":"FEW","base":2500},{"cover":"SCT","base":7000}],"obsTime":1773644400},"SBKG":{"icaoId":"SBKG","flightCategory":"VFR","rawOb":"METAR SBKG 160700Z 07006KT 9999 SCT008 23/22 Q1013","temp":23,"dewp":22,"wdir":70,"wspd":6,"visib":"6+","altim":1013,"clouds":[{"cover":"SCT","base":800}],"obsTime":1773644400},"SBSC":{"icaoId":"SBSC","flightCategory":"VFR","rawOb":"METAR SBSC 160700Z 34001KT CAVOK 22/20 Q1011","temp":22,"dewp":20,"wdir":340,"wspd":1,"visib":"6+","altim":1011,"clouds":[],"obsTime":1773644400},"SBAR":{"icaoId":"SBAR","flightCategory":"VFR","rawOb":"METAR SBAR 160700Z 07005KT 9999 FEW020 26/21 Q1011","temp":26,"dewp":21,"wdir":70,"wspd":5,"visib":"6+","altim":1011,"clouds":[{"cover":"FEW","base":2000}],"obsTime":1773644400},"SBSR":{"icaoId":"SBSR","flightCategory":"VFR","rawOb":"METAR SBSR 160700Z 05002KT CAVOK 23/18 Q1012","temp":23,"dewp":18,"wdir":50,"wspd":2,"visib":"6+","altim":1012,"clouds":[],"obsTime":1773644400},"SBOI":{"icaoId":"SBOI","flightCategory":"IFR","rawOb":"METAR SBOI 160700Z AUTO 03004KT 9999 // BKN006/// OVC031/// 24/23 Q1011","temp":24,"dewp":23,"wdir":30,"wspd":4,"visib":"6+","altim":1011,"clouds":[{"cover":"BKN","base":600},{"cover":"OVC","base":3100}],"obsTime":1773644400},"SBJP":{"icaoId":"SBJP","flightCategory":"VFR","rawOb":"METAR SBJP 160700Z 23002KT 9999 FEW020 25/24 Q1010","temp":25,"dewp":24,"wdir":230,"wspd":2,"visib":"6+","altim":1010,"clouds":[{"cover":"FEW","base":2000}],"obsTime":1773644400},"SBAN":{"icaoId":"SBAN","flightCategory":"LIFR","rawOb":"METAR SBAN 160700Z 12004KT 3000 BR BKN004 19/19 Q1017","temp":19,"dewp":19,"wdir":120,"wspd":4,"visib":1.86,"altim":1017,"clouds":[{"cover":"BKN","base":400}],"obsTime":1773644400},"SBLE":{"icaoId":"SBLE","flightCategory":"MVFR","rawOb":"METAR SBLE 160700Z AUTO 07003KT 9999 FEW013 OVC016 ///// Q////","temp":null,"dewp":null,"wdir":70,"wspd":3,"visib":"6+","altim":null,"clouds":[{"cover":"FEW","base":1300},{"cover":"OVC","base":1600}],"obsTime":1773644400}}}