{"updated":1775606248,"count":70,"data":{"SBFL":{"icaoId":"SBFL","flightCategory":"MVFR","rawOb":"METAR SBFL 072200Z 35009KT 320V020 9999 SCT013 BKN030 26/24 Q1010","temp":26,"dewp":24,"wdir":350,"wspd":9,"visib":"6+","altim":1010,"clouds":[{"cover":"SCT","base":1300},{"cover":"BKN","base":3000}],"obsTime":1775599200},"SBMK":{"icaoId":"SBMK","flightCategory":"VFR","rawOb":"METAR SBMK 072200Z 08008KT CAVOK 26/18 Q1017","temp":26,"dewp":18,"wdir":80,"wspd":8,"visib":"6+","altim":1017,"clouds":[],"obsTime":1775599200},"SBFZ":{"icaoId":"SBFZ","flightCategory":"VFR","rawOb":"METAR SBFZ 072200Z 08003KT 9999 FEW016 27/24 Q1012","temp":27,"dewp":24,"wdir":80,"wspd":3,"visib":"6+","altim":1012,"clouds":[{"cover":"FEW","base":1600}],"obsTime":1775599200},"SBBE":{"icaoId":"SBBE","flightCategory":"VFR","rawOb":"METAR SBBE 072200Z 06004KT CAVOK 27/25 Q1011","temp":27,"dewp":25,"wdir":60,"wspd":4,"visib":"6+","altim":1011,"clouds":[],"obsTime":1775599200},"SBMO":{"icaoId":"SBMO","flightCategory":"VFR","rawOb":"METAR SBMO 072200Z 36002KT 9999 VCSH SCT020 FEW025TCU SCT080 25/24 Q1014","temp":25,"dewp":24,"wdir":360,"wspd":2,"visib":"6+","altim":1014,"clouds":[{"cover":"SCT","base":2000},{"cover":"FEW","base":2500},{"cover":"SCT","base":8000}],"obsTime":1775599200},"SBME":{"icaoId":"SBME","flightCategory":"VFR","rawOb":"METAR SBME 072200Z 09008KT 9999 FEW030 26/23 Q1014","temp":26,"dewp":23,"wdir":90,"wspd":8,"visib":"6+","altim":1014,"clouds":[{"cover":"FEW","base":3000}],"obsTime":1775599200},"SBBR":{"icaoId":"SBBR","flightCategory":"VFR","rawOb":"METAR SBBR 072200Z 09005KT 9999 VCTS FEW040 FEW045CB SCT100 25/19 Q1019","temp":25,"dewp":19,"wdir":90,"wspd":5,"visib":"6+","altim":1019,"clouds":[{"cover":"FEW","base":4000},{"cover":"FEW","base":4500},{"cover":"SCT","base":10000}],"obsTime":1775599200},"SBMG":{"icaoId":"SBMG","flightCategory":"VFR","rawOb":"METAR SBMG 072200Z 35008KT 9999 VCTS FEW040 FEW050CB 28/21 Q1012","temp":28,"dewp":21,"wdir":350,"wspd":8,"visib":"6+","altim":1012,"clouds":[{"cover":"FEW","base":4000},{"cover":"FEW","base":5000}],"obsTime":1775599200},"SBGL":{"icaoId":"SBGL","flightCategory":"VFR","rawOb":"METAR SBGL 072200Z 10006KT CAVOK 28/23 Q1012","temp":28,"dewp":23,"wdir":100,"wspd":6,"visib":"6+","altim":1012,"clouds":[],"obsTime":1775599200},"SBMQ":{"icaoId":"SBMQ","flightCategory":"VFR","rawOb":"METAR SBMQ 072200Z 04004KT 9999 4900E -TSRA FEW015 FEW030CB BKN067 28/26 Q1011","temp":28,"dewp":26,"wdir":40,"wspd":4,"visib":"6+","altim":1011,"clouds":[{"cover":"FEW","base":1500},{"cover":"FEW","base":3000},{"cover":"BKN","base":6700}],"obsTime":1775599200},"SBNT":{"icaoId":"SBNT","flightCategory":"VFR","rawOb":"METAR SBNT 072200Z 17004KT 9999 SCT020 FEW025TCU 26/24 Q1013","temp":26,"dewp":24,"wdir":170,"wspd":4,"visib":"6+","altim":1013,"clouds":[{"cover":"SCT","base":2000},{"cover":"FEW","base":2500}],"obsTime":1775599200},"SBCT":{"icaoId":"SBCT","flightCategory":"VFR","rawOb":"METAR SBCT 072200Z 02004KT 9999 FEW010 24/20 Q1015","temp":24,"dewp":20,"wdir":20,"wspd":4,"visib":"6+","altim":1015,"clouds":[{"cover":"FEW","base":1000}],"obsTime":1775599200},"SBPA":{"icaoId":"SBPA","flightCategory":"MVFR","rawOb":"METAR SBPA 072200Z 06008KT 8000 -RA BKN025 FEW040TCU BKN070 22/21 Q1004","temp":22,"dewp":21,"wdir":60,"wspd":8,"visib":4.97,"altim":1004,"clouds":[{"cover":"BKN","base":2500},{"cover":"FEW","base":4000},{"cover":"BKN","base":7000}],"obsTime":1775599200},"SBCZ":{"icaoId":"SBCZ","flightCategory":"VFR","rawOb":"METAR SBCZ 072200Z 18004KT 9999 FEW030 FEW035TCU 28/25 Q1008","temp":28,"dewp":25,"wdir":180,"wspd":4,"visib":"6+","altim":1008,"clouds":[{"cover":"FEW","base":3000},{"cover":"FEW","base":3500}],"obsTime":1775599200},"SBPJ":{"icaoId":"SBPJ","flightCategory":"VFR","rawOb":"METAR SBPJ 072200Z VRB02KT 9999 VCTS SCT030 FEW035CB 26/24 Q1012 RETSRA","temp":26,"dewp":24,"wdir":"VRB","wspd":2,"visib":"6+","altim":1012,"clouds":[{"cover":"SCT","base":3000},{"cover":"FEW","base":3500}],"obsTime":1775599200},"SBPV":{"icaoId":"SBPV","flightCategory":"VFR","rawOb":"METAR SBPV 072200Z 21001KT 9999 FEW030 FEW035TCU 29/25 Q1008","temp":29,"dewp":25,"wdir":210,"wspd":1,"visib":"6+","altim":1008,"clouds":[{"cover":"FEW","base":3000},{"cover":"FEW","base":3500}],"obsTime":1775599200},"SBGO":{"icaoId":"SBGO","flightCategory":"VFR","rawOb":"METAR SBGO 072200Z 15005KT 9999 -TSRA FEW015 FEW050CB OVC100 22/20 Q1017","temp":22,"dewp":20,"wdir":150,"wspd":5,"visib":"6+","altim":1017,"clouds":[{"cover":"FEW","base":1500},{"cover":"FEW","base":5000},{"cover":"OVC","base":10000}],"obsTime":1775599200},"SBRB":{"icaoId":"SBRB","flightCategory":"MVFR","rawOb":"METAR SBRB 072200Z 15003KT 8000 TS VCSH FEW020 FEW036CB BKN100 25/24 Q1010","temp":25,"dewp":24,"wdir":150,"wspd":3,"visib":4.97,"altim":1010,"clouds":[{"cover":"FEW","base":2000},{"cover":"FEW","base":3600},{"cover":"BKN","base":10000}],"obsTime":1775599200},"SBCF":{"icaoId":"SBCF","flightCategory":"VFR","rawOb":"METAR SBCF 072200Z 09005KT 060V120 CAVOK 25/18 Q1019","temp":25,"dewp":18,"wdir":90,"wspd":5,"visib":"6+","altim":1019,"clouds":[],"obsTime":1775599200},"SBRF":{"icaoId":"SBRF","flightCategory":"MVFR","rawOb":"METAR SBRF 072200Z 11005KT 9999 BKN015 BKN050 27/25 Q1013","temp":27,"dewp":25,"wdir":110,"wspd":5,"visib":"6+","altim":1013,"clouds":[{"cover":"BKN","base":1500},{"cover":"BKN","base":5000}],"obsTime":1775599200},"SBGR":{"icaoId":"SBGR","flightCategory":"VFR","rawOb":"METAR SBGR 072200Z 09004KT CAVOK 22/20 Q1017","temp":22,"dewp":20,"wdir":90,"wspd":4,"visib":"6+","altim":1017,"clouds":[],"obsTime":1775599200},"SBSG":{"icaoId":"SBSG","flightCategory":"VFR","rawOb":"METAR SBSG 072200Z 15003KT 9999 SCT020 FEW027TCU 26/25 Q1013","temp":26,"dewp":25,"wdir":150,"wspd":3,"visib":"6+","altim":1013,"clouds":[{"cover":"SCT","base":2000},{"cover":"FEW","base":2700}],"obsTime":1775599200},"SBIL":{"icaoId":"SBIL","flightCategory":"VFR","rawOb":"METAR SBIL 072200Z 15005KT 9999 FEW020 28/25 Q1015","temp":28,"dewp":25,"wdir":150,"wspd":5,"visib":"6+","altim":1015,"clouds":[{"cover":"FEW","base":2000}],"obsTime":1775599200},"SBSL":{"icaoId":"SBSL","flightCategory":"VFR","rawOb":"METAR SBSL 072200Z 06011KT 020V090 9999 TS VCSH SCT030 FEW035CB BKN080 28/24 Q1011","temp":28,"dewp":24,"wdir":60,"wspd":11,"visib":"6+","altim":1011,"clouds":[{"cover":"SCT","base":3000},{"cover":"FEW","base":3500},{"cover":"BKN","base":8000}],"obsTime":1775599200},"SBEG":{"icaoId":"SBEG","flightCategory":"VFR","rawOb":"METAR SBEG 072200Z 36001KT 9999 SCT020 FEW025TCU SCT080 26/25 Q1009","temp":26,"dewp":25,"wdir":360,"wspd":1,"visib":"6+","altim":1009,"clouds":[{"cover":"SCT","base":2000},{"cover":"FEW","base":2500},{"cover":"SCT","base":8000}],"obsTime":1775599200},"SBSN":{"icaoId":"SBSN","flightCategory":"VFR","rawOb":"METAR SBSN 072200Z 12006KT 9999 FEW020 FEW025TCU 28/25 Q1010","temp":28,"dewp":25,"wdir":120,"wspd":6,"visib":"6+","altim":1010,"clouds":[{"cover":"FEW","base":2000},{"cover":"FEW","base":2500}],"obsTime":1775599200},"SBJU":{"icaoId":"SBJU","flightCategory":"MVFR","rawOb":"METAR SBJU 072200Z 11005KT 9999 TS BKN020 FEW022CB 26/22 Q1015","temp":26,"dewp":22,"wdir":110,"wspd":5,"visib":"6+","altim":1015,"clouds":[{"cover":"BKN","base":2000},{"cover":"FEW","base":2200}],"obsTime":1775599200},"SBSP":{"icaoId":"SBSP","flightCategory":"VFR","rawOb":"METAR SBSP 072200Z 05005KT CAVOK 23/19 Q1017","temp":23,"dewp":19,"wdir":50,"wspd":5,"visib":"6+","altim":1017,"clouds":[],"obsTime":1775599200},"SBCG":{"icaoId":"SBCG","flightCategory":"MVFR","rawOb":"METAR SBCG 072200Z 12004KT 5000 TSRA FEW005 SCT035 FEW040CB BKN080 20/20 Q1016","temp":20,"dewp":20,"wdir":120,"wspd":4,"visib":3.11,"altim":1016,"clouds":[{"cover":"FEW","base":500},{"cover":"SCT","base":3500},{"cover":"FEW","base":4000},{"cover":"BKN","base":8000}],"obsTime":1775599200},"SBKP":{"icaoId":"SBKP","flightCategory":"VFR","rawOb":"METAR SBKP 072200Z 07005KT 040V100 CAVOK 25/19 Q1016","temp":25,"dewp":19,"wdir":70,"wspd":5,"visib":"6+","altim":1016,"clouds":[],"obsTime":1775599200},"SBSV":{"icaoId":"SBSV","flightCategory":"VFR","rawOb":"METAR SBSV 072200Z 10005KT 9999 SCT020 28/23 Q1014","temp":28,"dewp":23,"wdir":100,"wspd":5,"visib":"6+","altim":1014,"clouds":[{"cover":"SCT","base":2000}],"obsTime":1775599200},"SBTE":{"icaoId":"SBTE","flightCategory":"VFR","rawOb":"METAR SBTE 072200Z 30003KT 230V330 9999 VCTS FEW030CB BKN070 27/24 Q1011","temp":27,"dewp":24,"wdir":300,"wspd":3,"visib":"6+","altim":1011,"clouds":[{"cover":"FEW","base":3000},{"cover":"BKN","base":7000}],"obsTime":1775599200},"SBBV":{"icaoId":"SBBV","flightCategory":"VFR","rawOb":"METAR SBBV 072200Z 03003KT 9999 FEW040 FEW045TCU 31/22 Q1008","temp":31,"dewp":22,"wdir":30,"wspd":3,"visib":"6+","altim":1008,"clouds":[{"cover":"FEW","base":4000},{"cover":"FEW","base":4500}],"obsTime":1775599200},"SBUL":{"icaoId":"SBUL","flightCategory":"VFR","rawOb":"METAR SBUL 072200Z 29008KT 9999 4000SW -TSRA SCT025 FEW035CB BKN080 23/20 Q1019","temp":23,"dewp":20,"wdir":290,"wspd":8,"visib":"6+","altim":1019,"clouds":[{"cover":"SCT","base":2500},{"cover":"FEW","base":3500},{"cover":"BKN","base":8000}],"obsTime":1775599200},"SBFI":{"icaoId":"SBFI","flightCategory":"VFR","rawOb":"METAR SBFI 072200Z 36002KT 9999 VCTS SCT030 FEW035CB BKN080 22/22 Q1011","temp":22,"dewp":22,"wdir":360,"wspd":2,"visib":"6+","altim":1011,"clouds":[{"cover":"SCT","base":3000},{"cover":"FEW","base":3500},{"cover":"BKN","base":8000}],"obsTime":1775599200},"SBUR":{"icaoId":"SBUR","flightCategory":"VFR","rawOb":"METAR SBUR 072200Z 33004KT 9999 VCSH VCTS FEW025CB BKN080 24/20 Q1017","temp":24,"dewp":20,"wdir":330,"wspd":4,"visib":"6+","altim":1017,"clouds":[{"cover":"FEW","base":2500},{"cover":"BKN","base":8000}],"obsTime":1775599200},"SBLO":{"icaoId":"SBLO","flightCategory":"VFR","rawOb":"METAR SBLO 072200Z 02006KT 9999 FEW040 28/21 Q1013","temp":28,"dewp":21,"wdir":20,"wspd":6,"visib":"6+","altim":1013,"clouds":[{"cover":"FEW","base":4000}],"obsTime":1775599200},"SBMA":{"icaoId":"SBMA","flightCategory":"VFR","rawOb":"METAR SBMA 072200Z 18003KT 9999 FEW020 SCT023TCU 30/24 Q1010","temp":30,"dewp":24,"wdir":180,"wspd":3,"visib":"6+","altim":1010,"clouds":[{"cover":"FEW","base":2000},{"cover":"SCT","base":2300}],"obsTime":1775599200},"SBVT":{"icaoId":"SBVT","flightCategory":"VFR","rawOb":"METAR SBVT 072200Z 05006KT CAVOK 26/23 Q1015","temp":26,"dewp":23,"wdir":50,"wspd":6,"visib":"6+","altim":1015,"clouds":[],"obsTime":1775599200},"SBCP":{"icaoId":"SBCP","flightCategory":"VFR","rawOb":"METAR SBCP 072200Z /////KT 9999 FEW020 ///// Q1015","temp":null,"dewp":null,"wdir":null,"wspd":null,"visib":"6+","altim":1015,"clouds":[{"cover":"FEW","base":2000}],"obsTime":1775599200},"SBSM":{"icaoId":"SBSM","flightCategory":"VFR","rawOb":"METAR SBSM 072200Z 31012KT 280V350 9999 SCT020 22/19 Q1005","temp":22,"dewp":19,"wdir":310,"wspd":12,"visib":"6+","altim":1005,"clouds":[{"cover":"SCT","base":2000}],"obsTime":1775599200},"SBAR":{"icaoId":"SBAR","flightCategory":"MVFR","rawOb":"METAR SBAR 072200Z 11014KT 9999 VCSH FEW010 BKN021 27/24 Q1014","temp":27,"dewp":24,"wdir":110,"wspd":14,"visib":"6+","altim":1014,"clouds":[{"cover":"FEW","base":1000},{"cover":"BKN","base":2100}],"obsTime":1775599200},"SBAX":{"icaoId":"SBAX","flightCategory":"VFR","rawOb":"METAR SBAX 072200Z 25007KT 9999 -RA SCT025 BKN040 21/21 Q1019","temp":21,"dewp":21,"wdir":250,"wspd":7,"visib":"6+","altim":1019,"clouds":[{"cover":"SCT","base":2500},{"cover":"BKN","base":4000}],"obsTime":1775599200},"SBBH":{"icaoId":"SBBH","flightCategory":"VFR","rawOb":"METAR SBBH 072200Z 08004KT CAVOK 25/17 Q1019","temp":25,"dewp":17,"wdir":80,"wspd":4,"visib":"6+","altim":1019,"clouds":[],"obsTime":1775599200},"SBBU":{"icaoId":"SBBU","flightCategory":"VFR","rawOb":"METAR SBBU 072200Z /////KT 9999 FEW030 29/22 Q1015","temp":29,"dewp":22,"wdir":null,"wspd":null,"visib":"6+","altim":1015,"clouds":[{"cover":"FEW","base":3000}],"obsTime":1775599200},"SBCO":{"icaoId":"SBCO","flightCategory":"VFR","rawOb":"METAR SBCO 072200Z 04006KT 010V070 9999 FEW009 FEW030TCU BKN100 22/20 Q1005","temp":22,"dewp":20,"wdir":40,"wspd":6,"visib":"6+","altim":1005,"clouds":[{"cover":"FEW","base":900},{"cover":"FEW","base":3000},{"cover":"BKN","base":10000}],"obsTime":1775599200},"SBDN":{"icaoId":"SBDN","flightCategory":"VFR","rawOb":"METAR SBDN 072200Z 03005KT 9999 VCTS FEW040 FEW060CB 29/20 Q1012","temp":29,"dewp":20,"wdir":30,"wspd":5,"visib":"6+","altim":1012,"clouds":[{"cover":"FEW","base":4000},{"cover":"FEW","base":6000}],"obsTime":1775599200},"SBES":{"icaoId":"SBES","flightCategory":"VFR","rawOb":"METAR SBES 072200Z 06010KT 020V080 CAVOK 24/// Q1014","temp":null,"dewp":null,"wdir":60,"wspd":10,"visib":"6+","altim":1014,"clouds":[],"obsTime":1775599200},"SBIP":{"icaoId":"SBIP","flightCategory":"VFR","rawOb":"METAR SBIP 072200Z AUTO 00000KT CAVOK 22/20 Q1016","temp":22,"dewp":20,"wdir":0,"wspd":0,"visib":"6+","altim":1016,"clouds":[],"obsTime":1775599200},"SBKG":{"icaoId":"SBKG","flightCategory":"MVFR","rawOb":"METAR SBKG 072200Z 06004KT 8000 -RA SCT014 SCT070 23/22 Q1016","temp":23,"dewp":22,"wdir":60,"wspd":4,"visib":4.97,"altim":1016,"clouds":[{"cover":"SCT","base":1400},{"cover":"SCT","base":7000}],"obsTime":1775599200},"SBOI":{"icaoId":"SBOI","flightCategory":"MVFR","rawOb":"METAR SBOI 072300Z AUTO 06003KT 9999 FEW019 BKN028 OVC042 26/25 Q1012","temp":26,"dewp":25,"wdir":60,"wspd":3,"visib":"6+","altim":1012,"clouds":[{"cover":"FEW","base":1900},{"cover":"BKN","base":2800},{"cover":"OVC","base":4200}],"obsTime":1775602800},"SBPL":{"icaoId":"SBPL","flightCategory":"VFR","rawOb":"METAR SBPL 072200Z 10002KT 9999 FEW025 SCT070 31/20 Q1013","temp":31,"dewp":20,"wdir":100,"wspd":2,"visib":"6+","altim":1013,"clouds":[{"cover":"FEW","base":2500},{"cover":"SCT","base":7000}],"obsTime":1775599200},"SBPS":{"icaoId":"SBPS","flightCategory":"VFR","rawOb":"METAR SBPS 072200Z 08010KT 9999 SCT015 26/24 Q1015","temp":26,"dewp":24,"wdir":80,"wspd":10,"visib":"6+","altim":1015,"clouds":[{"cover":"SCT","base":1500}],"obsTime":1775599200},"SBSC":{"icaoId":"SBSC","flightCategory":"VFR","rawOb":"METAR SBSC 072200Z 26002KT CAVOK 26/24 Q1012","temp":26,"dewp":24,"wdir":260,"wspd":2,"visib":"6+","altim":1012,"clouds":[],"obsTime":1775599200},"SBSJ":{"icaoId":"SBSJ","flightCategory":"MVFR","rawOb":"METAR SBSJ 072200Z 16004KT 130V200 6000 -TSRA FEW040CB SCT070 21/20 Q1016 RETS","temp":21,"dewp":20,"wdir":160,"wspd":4,"visib":3.73,"altim":1016,"clouds":[{"cover":"FEW","base":4000},{"cover":"SCT","base":7000}],"obsTime":1775599200},"SBSR":{"icaoId":"SBSR","flightCategory":"VFR","rawOb":"METAR SBSR 072200Z 01004KT 9999 SCT030 FEW035TCU SCT070 29/18 Q1015","temp":29,"dewp":18,"wdir":10,"wspd":4,"visib":"6+","altim":1015,"clouds":[{"cover":"SCT","base":3000},{"cover":"FEW","base":3500},{"cover":"SCT","base":7000}],"obsTime":1775599200},"SBTF":{"icaoId":"SBTF","flightCategory":"VFR","rawOb":"METAR SBTF 072200Z 18004KT 9999 FEW004 25/25 Q1009","temp":25,"dewp":25,"wdir":180,"wspd":4,"visib":"6+","altim":1009,"clouds":[{"cover":"FEW","base":400}],"obsTime":1775599200},"SBTT":{"icaoId":"SBTT","flightCategory":"VFR","rawOb":"METAR SBTT 072200Z 14005KT 9999 VCSH FEW030 FEW035TCU SCT090 30/21 Q1008","temp":30,"dewp":21,"wdir":140,"wspd":5,"visib":"6+","altim":1008,"clouds":[{"cover":"FEW","base":3000},{"cover":"FEW","base":3500},{"cover":"SCT","base":9000}],"obsTime":1775599200},"SBVH":{"icaoId":"SBVH","flightCategory":"VFR","rawOb":"METAR SBVH 072200Z 02006KT 9999 FEW040 BKN090 25/23 Q1013","temp":25,"dewp":23,"wdir":20,"wspd":6,"visib":"6+","altim":1013,"clouds":[{"cover":"FEW","base":4000},{"cover":"BKN","base":9000}],"obsTime":1775599200},"SBUY":{"icaoId":"SBUY","flightCategory":"VFR","rawOb":"METAR SBUY 072200Z 21002KT 9999 FEW020 FEW030TCU SCT100 26/25 Q1007","temp":26,"dewp":25,"wdir":210,"wspd":2,"visib":"6+","altim":1007,"clouds":[{"cover":"FEW","base":2000},{"cover":"FEW","base":3000},{"cover":"SCT","base":10000}],"obsTime":1775599200},"SBCA":{"icaoId":"SBCA","flightCategory":"VFR","rawOb":"METAR SBCA 072200Z 30011KT 9999 -TSRA SCT004 SCT030 FEW040CB 19/19 Q1015 RERA","temp":19,"dewp":19,"wdir":300,"wspd":11,"visib":"6+","altim":1015,"clouds":[{"cover":"SCT","base":400},{"cover":"SCT","base":3000},{"cover":"FEW","base":4000}],"obsTime":1775599200},"SBJP":{"icaoId":"SBJP","flightCategory":"VFR","rawOb":"METAR SBJP 072200Z 00000KT 9999 SCT020 26/25 Q1014","temp":26,"dewp":25,"wdir":0,"wspd":0,"visib":"6+","altim":1014,"clouds":[{"cover":"SCT","base":2000}],"obsTime":1775599200},"SBJV":{"icaoId":"SBJV","flightCategory":"MVFR","rawOb":"METAR SBJV 072200Z 02004KT 9999 FEW010 BKN025 27/24 Q1010","temp":27,"dewp":24,"wdir":20,"wspd":4,"visib":"6+","altim":1010,"clouds":[{"cover":"FEW","base":1000},{"cover":"BKN","base":2500}],"obsTime":1775599200},"SBAN":{"icaoId":"SBAN","flightCategory":"VFR","rawOb":"METAR SBAN 072200Z 15004KT 9999 -RA VCTS SCT035 FEW040CB SCT100 20/18 Q1020","temp":20,"dewp":18,"wdir":150,"wspd":4,"visib":"6+","altim":1020,"clouds":[{"cover":"SCT","base":3500},{"cover":"FEW","base":4000},{"cover":"SCT","base":10000}],"obsTime":1775599200},"SBAF":{"icaoId":"SBAF","flightCategory":"VFR","rawOb":"METAR SBAF 072200Z 09007KT CAVOK 30/24 Q1013","temp":30,"dewp":24,"wdir":90,"wspd":7,"visib":"6+","altim":1013,"clouds":[],"obsTime":1775599200},"SBJR":{"icaoId":"SBJR","flightCategory":"VFR","rawOb":"METAR SBJR 072200Z 27001KT CAVOK 26/24 Q1012","temp":26,"dewp":24,"wdir":270,"wspd":1,"visib":"6+","altim":1012,"clouds":[],"obsTime":1775599200},"SBLS":{"icaoId":"SBLS","flightCategory":"VFR","rawOb":"METAR SBLS 072200Z 11005KT CAVOK 24/18 Q1019","temp":24,"dewp":18,"wdir":110,"wspd":5,"visib":"6+","altim":1019,"clouds":[],"obsTime":1775599200},"SBMT":{"icaoId":"SBMT","flightCategory":"VFR","rawOb":"METAR SBMT 072200Z 06001KT CAVOK 22/20 Q1016","temp":22,"dewp":20,"wdir":60,"wspd":1,"visib":"6+","altim":1016,"clouds":[],"obsTime":1775599200},"SBTA":{"icaoId":"SBTA","flightCategory":"VFR","rawOb":"METAR SBTA 072200Z 25006KT 210V270 9999 VCTS SCT035 FEW040CB BKN050 23/18 Q1015 RETS","temp":23,"dewp":18,"wdir":250,"wspd":6,"visib":"6+","altim":1015,"clouds":[{"cover":"SCT","base":3500},{"cover":"FEW","base":4000},{"cover":"BKN","base":5000}],"obsTime":1775599200},"SBGW":{"icaoId":"SBGW","flightCategory":"VFR","rawOb":"METAR SBGW 072200Z VRB02KT 9999 VCSH SCT030 FEW035TCU 25/19 Q1015","temp":25,"dewp":19,"wdir":"VRB","wspd":2,"visib":"6+","altim":1015,"clouds":[{"cover":"SCT","base":3000},{"cover":"FEW","base":3500}],"obsTime":1775599200}}}