{"updated":1776659602,"count":52,"data":{"SBMK":{"icaoId":"SBMK","flightCategory":"VFR","rawOb":"METAR SBMK 200300Z 25002KT CAVOK 21/16 Q1015","temp":21,"dewp":16,"wdir":250,"wspd":2,"visib":"6+","altim":1015,"clouds":[],"obsTime":1776654000},"SBMO":{"icaoId":"SBMO","flightCategory":"VFR","rawOb":"METAR SBMO 200300Z 02003KT 9999 FEW023 24/23 Q1012","temp":24,"dewp":23,"wdir":20,"wspd":3,"visib":"6+","altim":1012,"clouds":[{"cover":"FEW","base":2300}],"obsTime":1776654000},"SBBE":{"icaoId":"SBBE","flightCategory":"VFR","rawOb":"METAR SBBE 200300Z 18004KT 9999 FEW004 SCT100 24/24 Q1013","temp":24,"dewp":24,"wdir":180,"wspd":4,"visib":"6+","altim":1013,"clouds":[{"cover":"FEW","base":400},{"cover":"SCT","base":10000}],"obsTime":1776654000},"SBMQ":{"icaoId":"SBMQ","flightCategory":"MVFR","rawOb":"METAR SBMQ 200300Z 08006KT 8000 -RA SCT011 FEW029TCU 26/25 Q1012","temp":26,"dewp":25,"wdir":80,"wspd":6,"visib":4.97,"altim":1012,"clouds":[{"cover":"SCT","base":1100},{"cover":"FEW","base":2900}],"obsTime":1776654000},"SBGL":{"icaoId":"SBGL","flightCategory":"VFR","rawOb":"METAR SBGL 200300Z 30004KT CAVOK 23/19 Q1015","temp":23,"dewp":19,"wdir":300,"wspd":4,"visib":"6+","altim":1015,"clouds":[],"obsTime":1776654000},"SBNT":{"icaoId":"SBNT","flightCategory":"VFR","rawOb":"METAR SBNT 200300Z 17006KT 9999 FEW020 25/24 Q1011","temp":25,"dewp":24,"wdir":170,"wspd":6,"visib":"6+","altim":1011,"clouds":[{"cover":"FEW","base":2000}],"obsTime":1776654000},"SBGO":{"icaoId":"SBGO","flightCategory":"VFR","rawOb":"METAR SBGO 200300Z 32002KT CAVOK 21/20 Q1016","temp":21,"dewp":20,"wdir":320,"wspd":2,"visib":"6+","altim":1016,"clouds":[],"obsTime":1776654000},"SBCT":{"icaoId":"SBCT","flightCategory":"IFR","rawOb":"METAR SBCT 200300Z 10005KT 9999 BKN009 17/17 Q1020","temp":17,"dewp":17,"wdir":100,"wspd":5,"visib":"6+","altim":1020,"clouds":[{"cover":"BKN","base":900}],"obsTime":1776654000},"SBPA":{"icaoId":"SBPA","flightCategory":"VFR","rawOb":"METAR SBPA 200300Z 08003KT CAVOK 19/16 Q1015","temp":19,"dewp":16,"wdir":80,"wspd":3,"visib":"6+","altim":1015,"clouds":[],"obsTime":1776654000},"SBVT":{"icaoId":"SBVT","flightCategory":"VFR","rawOb":"METAR SBVT 200300Z 20003KT CAVOK 23/20 Q1013","temp":23,"dewp":20,"wdir":200,"wspd":3,"visib":"6+","altim":1013,"clouds":[],"obsTime":1776654000},"SBPJ":{"icaoId":"SBPJ","flightCategory":"VFR","rawOb":"METAR SBPJ 200300Z 36005KT 330V040 9999 FEW010 SCT080 26/24 Q1013","temp":26,"dewp":24,"wdir":360,"wspd":5,"visib":"6+","altim":1013,"clouds":[{"cover":"FEW","base":1000},{"cover":"SCT","base":8000}],"obsTime":1776654000},"SBPV":{"icaoId":"SBPV","flightCategory":"VFR","rawOb":"METAR SBPV 200300Z VRB02KT 9999 SCT004 24/22 Q1011","temp":24,"dewp":22,"wdir":"VRB","wspd":2,"visib":"6+","altim":1011,"clouds":[{"cover":"SCT","base":400}],"obsTime":1776654000},"SBGR":{"icaoId":"SBGR","flightCategory":"MVFR","rawOb":"SPECI SBGR 200240Z 12004KT 9999 BKN013 19/16 Q1019","temp":19,"dewp":16,"wdir":120,"wspd":4,"visib":"6+","altim":1019,"clouds":[{"cover":"BKN","base":1300}],"obsTime":1776652800},"SBRB":{"icaoId":"SBRB","flightCategory":"LIFR","rawOb":"METAR SBRB 200300Z 04005KT 7000 BKN004 BKN100 24/24 Q1011","temp":24,"dewp":24,"wdir":40,"wspd":5,"visib":4.35,"altim":1011,"clouds":[{"cover":"BKN","base":400},{"cover":"BKN","base":10000}],"obsTime":1776654000},"SBEG":{"icaoId":"SBEG","flightCategory":"VFR","rawOb":"METAR SBEG 200300Z 12002KT 9999 FEW010 26/24 Q1011","temp":26,"dewp":24,"wdir":120,"wspd":2,"visib":"6+","altim":1011,"clouds":[{"cover":"FEW","base":1000}],"obsTime":1776654000},"SBJU":{"icaoId":"SBJU","flightCategory":"VFR","rawOb":"METAR SBJU 200300Z 00000KT 9999 SCT020 24/23 Q1013","temp":24,"dewp":23,"wdir":0,"wspd":0,"visib":"6+","altim":1013,"clouds":[{"cover":"SCT","base":2000}],"obsTime":1776654000},"SBRF":{"icaoId":"SBRF","flightCategory":"VFR","rawOb":"METAR SBRF 200300Z 10004KT 9999 SCT020 SCT060 28/24 Q1011","temp":28,"dewp":24,"wdir":100,"wspd":4,"visib":"6+","altim":1011,"clouds":[{"cover":"SCT","base":2000},{"cover":"SCT","base":6000}],"obsTime":1776654000},"SBCF":{"icaoId":"SBCF","flightCategory":"VFR","rawOb":"METAR SBCF 200300Z 18004KT CAVOK 19/16 Q1017","temp":19,"dewp":16,"wdir":180,"wspd":4,"visib":"6+","altim":1017,"clouds":[],"obsTime":1776654000},"SBSG":{"icaoId":"SBSG","flightCategory":"VFR","rawOb":"METAR SBSG 200300Z 16003KT 9999 FEW017 25/24 Q1011","temp":25,"dewp":24,"wdir":160,"wspd":3,"visib":"6+","altim":1011,"clouds":[{"cover":"FEW","base":1700}],"obsTime":1776654000},"SBSL":{"icaoId":"SBSL","flightCategory":"VFR","rawOb":"METAR SBSL 200300Z 21001KT 9999 FEW020 SCT080 25/24 Q1011","temp":25,"dewp":24,"wdir":210,"wspd":1,"visib":"6+","altim":1011,"clouds":[{"cover":"FEW","base":2000},{"cover":"SCT","base":8000}],"obsTime":1776654000},"SBFI":{"icaoId":"SBFI","flightCategory":"VFR","rawOb":"METAR SBFI 200300Z 09005KT CAVOK 21/21 Q1011","temp":21,"dewp":21,"wdir":90,"wspd":5,"visib":"6+","altim":1011,"clouds":[],"obsTime":1776654000},"SBKP":{"icaoId":"SBKP","flightCategory":"VFR","rawOb":"METAR SBKP 200300Z 12009KT CAVOK 20/17 Q1017","temp":20,"dewp":17,"wdir":120,"wspd":9,"visib":"6+","altim":1017,"clouds":[],"obsTime":1776654000},"SBSN":{"icaoId":"SBSN","flightCategory":"VFR","rawOb":"METAR SBSN 200300Z 17004KT 9999 -RA FEW016 SCT073 25/24 Q1012","temp":25,"dewp":24,"wdir":170,"wspd":4,"visib":"6+","altim":1012,"clouds":[{"cover":"FEW","base":1600},{"cover":"SCT","base":7300}],"obsTime":1776654000},"SBMG":{"icaoId":"SBMG","flightCategory":"VFR","rawOb":"METAR SBMG 200300Z 09008KT CAVOK 24/18 Q1014","temp":24,"dewp":18,"wdir":90,"wspd":8,"visib":"6+","altim":1014,"clouds":[],"obsTime":1776654000},"SBBV":{"icaoId":"SBBV","flightCategory":"VFR","rawOb":"METAR SBBV 200300Z 30003KT 9999 FEW040 FEW045TCU SCT070 27/23 Q1011","temp":27,"dewp":23,"wdir":300,"wspd":3,"visib":"6+","altim":1011,"clouds":[{"cover":"FEW","base":4000},{"cover":"FEW","base":4500},{"cover":"SCT","base":7000}],"obsTime":1776654000},"SBFZ":{"icaoId":"SBFZ","flightCategory":"VFR","rawOb":"METAR SBFZ 200300Z 16003KT 9999 FEW010 SCT100 26/24 Q1010","temp":26,"dewp":24,"wdir":160,"wspd":3,"visib":"6+","altim":1010,"clouds":[{"cover":"FEW","base":1000},{"cover":"SCT","base":10000}],"obsTime":1776654000},"SBSP":{"icaoId":"SBSP","flightCategory":"MVFR","rawOb":"SPECI SBSP 200306Z AUTO 14007KT 9999 BKN014 18/16 Q1019","temp":18,"dewp":16,"wdir":140,"wspd":7,"visib":"6+","altim":1019,"clouds":[{"cover":"BKN","base":1400}],"obsTime":1776654360},"SBLO":{"icaoId":"SBLO","flightCategory":"VFR","rawOb":"METAR SBLO 200300Z 27001KT CAVOK 23/19 Q1015","temp":23,"dewp":19,"wdir":270,"wspd":1,"visib":"6+","altim":1015,"clouds":[],"obsTime":1776654000},"SBSV":{"icaoId":"SBSV","flightCategory":"MVFR","rawOb":"METAR SBSV 200300Z 10007KT 9999 BKN019 28/24 Q1012","temp":28,"dewp":24,"wdir":100,"wspd":7,"visib":"6+","altim":1012,"clouds":[{"cover":"BKN","base":1900}],"obsTime":1776654000},"SBBR":{"icaoId":"SBBR","flightCategory":"VFR","rawOb":"METAR SBBR 200300Z 00000KT CAVOK 20/15 Q1018","temp":20,"dewp":15,"wdir":0,"wspd":0,"visib":"6+","altim":1018,"clouds":[],"obsTime":1776654000},"SBTE":{"icaoId":"SBTE","flightCategory":"VFR","rawOb":"METAR SBTE 200300Z 00000KT 9999 SCT016 BKN090 25/24 Q1010","temp":25,"dewp":24,"wdir":0,"wspd":0,"visib":"6+","altim":1010,"clouds":[{"cover":"SCT","base":1600},{"cover":"BKN","base":9000}],"obsTime":1776654000},"SBUL":{"icaoId":"SBUL","flightCategory":"VFR","rawOb":"METAR SBUL 200300Z 17004KT CAVOK 23/18 Q1017","temp":23,"dewp":18,"wdir":170,"wspd":4,"visib":"6+","altim":1017,"clouds":[],"obsTime":1776654000},"SBCG":{"icaoId":"SBCG","flightCategory":"VFR","rawOb":"METAR SBCG 200300Z 09004KT CAVOK 25/21 Q1013","temp":25,"dewp":21,"wdir":90,"wspd":4,"visib":"6+","altim":1013,"clouds":[],"obsTime":1776654000},"SBUR":{"icaoId":"SBUR","flightCategory":"VFR","rawOb":"METAR SBUR 200300Z 09004KT CAVOK 24/18 Q1016","temp":24,"dewp":18,"wdir":90,"wspd":4,"visib":"6+","altim":1016,"clouds":[],"obsTime":1776654000},"SBMA":{"icaoId":"SBMA","flightCategory":"VFR","rawOb":"METAR SBMA 200300Z 00000KT 9999 FEW016 SCT090 26/25 Q1012","temp":26,"dewp":25,"wdir":0,"wspd":0,"visib":"6+","altim":1012,"clouds":[{"cover":"FEW","base":1600},{"cover":"SCT","base":9000}],"obsTime":1776654000},"SBME":{"icaoId":"SBME","flightCategory":"VFR","rawOb":"METAR SBME 200300Z 29004KT CAVOK 22/19 Q1014","temp":22,"dewp":19,"wdir":290,"wspd":4,"visib":"6+","altim":1014,"clouds":[],"obsTime":1776654000},"SBFL":{"icaoId":"SBFL","flightCategory":"VFR","rawOb":"METAR SBFL 200300Z 24006KT CAVOK 19/17 Q1016","temp":19,"dewp":17,"wdir":240,"wspd":6,"visib":"6+","altim":1016,"clouds":[],"obsTime":1776654000},"SBOI":{"icaoId":"SBOI","flightCategory":"MVFR","rawOb":"METAR SBOI 200400Z AUTO 20001KT 9999 // FEW002/// BKN011/// 24/24 Q1012","temp":24,"dewp":24,"wdir":200,"wspd":1,"visib":"6+","altim":1012,"clouds":[{"cover":"FEW","base":200},{"cover":"BKN","base":1100}],"obsTime":1776657600},"SBDN":{"icaoId":"SBDN","flightCategory":"VFR","rawOb":"METAR SBDN 200300Z 10006KT CAVOK 25/18 Q1014","temp":25,"dewp":18,"wdir":100,"wspd":6,"visib":"6+","altim":1014,"clouds":[],"obsTime":1776654000},"SBPL":{"icaoId":"SBPL","flightCategory":"VFR","rawOb":"METAR SBPL 200300Z 04002KT 9999 FEW020 26/22 Q1012","temp":26,"dewp":22,"wdir":40,"wspd":2,"visib":"6+","altim":1012,"clouds":[{"cover":"FEW","base":2000}],"obsTime":1776654000},"SBIP":{"icaoId":"SBIP","flightCategory":"VFR","rawOb":"METAR SBIP 200300Z AUTO VRB02KT CAVOK 24/21 Q1014","temp":24,"dewp":21,"wdir":"VRB","wspd":2,"visib":"6+","altim":1014,"clouds":[],"obsTime":1776654000},"SBPS":{"icaoId":"SBPS","flightCategory":"VFR","rawOb":"METAR SBPS 200300Z 00000KT 9999 SCT017 24/23 Q1013","temp":24,"dewp":23,"wdir":0,"wspd":0,"visib":"6+","altim":1013,"clouds":[{"cover":"SCT","base":1700}],"obsTime":1776654000},"SBSC":{"icaoId":"SBSC","flightCategory":"VFR","rawOb":"METAR SBSC 200300Z 31003KT 9999 FEW020 21/20 Q1014","temp":21,"dewp":20,"wdir":310,"wspd":3,"visib":"6+","altim":1014,"clouds":[{"cover":"FEW","base":2000}],"obsTime":1776654000},"SBAX":{"icaoId":"SBAX","flightCategory":"VFR","rawOb":"METAR SBAX 200300Z AUTO 11001KT CAVOK 22/16 Q1018","temp":22,"dewp":16,"wdir":110,"wspd":1,"visib":"6+","altim":1018,"clouds":[],"obsTime":1776654000},"SBKG":{"icaoId":"SBKG","flightCategory":"IFR","rawOb":"METAR SBKG 200300Z 08008KT 9999 BKN007 23/22 Q1014","temp":23,"dewp":22,"wdir":80,"wspd":8,"visib":"6+","altim":1014,"clouds":[{"cover":"BKN","base":700}],"obsTime":1776654000},"SBSR":{"icaoId":"SBSR","flightCategory":"VFR","rawOb":"METAR SBSR 200300Z 18004KT CAVOK 25/18 Q1014","temp":25,"dewp":18,"wdir":180,"wspd":4,"visib":"6+","altim":1014,"clouds":[],"obsTime":1776654000},"SBAR":{"icaoId":"SBAR","flightCategory":"VFR","rawOb":"METAR SBAR 200300Z 10008KT 9999 SCT020 28/23 Q1012","temp":28,"dewp":23,"wdir":100,"wspd":8,"visib":"6+","altim":1012,"clouds":[{"cover":"SCT","base":2000}],"obsTime":1776654000},"SBCO":{"icaoId":"SBCO","flightCategory":"VFR","rawOb":"METAR SBCO 200300Z 10003KT CAVOK 16/14 Q1016","temp":16,"dewp":14,"wdir":100,"wspd":3,"visib":"6+","altim":1016,"clouds":[],"obsTime":1776654000},"SBSM":{"icaoId":"SBSM","flightCategory":"VFR","rawOb":"METAR SBSM 200300Z 10006KT CAVOK 16/15 Q1014","temp":16,"dewp":15,"wdir":100,"wspd":6,"visib":"6+","altim":1014,"clouds":[],"obsTime":1776654000},"SBLE":{"icaoId":"SBLE","flightCategory":"VFR","rawOb":"METAR SBLE 200300Z AUTO VRB02KT CAVOK ///// Q////","temp":null,"dewp":null,"wdir":"VRB","wspd":2,"visib":"6+","altim":null,"clouds":[],"obsTime":1776654000},"SBJP":{"icaoId":"SBJP","flightCategory":"VFR","rawOb":"METAR SBJP 200300Z 10003KT 9999 SCT010 SCT070 25/24 Q1011","temp":25,"dewp":24,"wdir":100,"wspd":3,"visib":"6+","altim":1011,"clouds":[{"cover":"SCT","base":1000},{"cover":"SCT","base":7000}],"obsTime":1776654000},"SBAN":{"icaoId":"SBAN","flightCategory":"VFR","rawOb":"METAR SBAN 200300Z VRB01KT CAVOK 18/15 Q1019","temp":18,"dewp":15,"wdir":"VRB","wspd":1,"visib":"6+","altim":1019,"clouds":[],"obsTime":1776654000}}}