{"updated":1774306565,"count":81,"data":{"SBCT":{"icaoId":"SBCT","flightCategory":"VFR","rawOb":"METAR SBCT 232100Z 07008KT 9999 FEW020 23/20 Q1014","temp":23,"dewp":20,"wdir":70,"wspd":8,"visib":"6+","altim":1014,"clouds":[{"cover":"FEW","base":2000}],"obsTime":1774299600},"SBFI":{"icaoId":"SBFI","flightCategory":"VFR","rawOb":"METAR SBFI 232100Z 01016G30KT 9999 VCSH SCT030 FEW035TCU 25/22 Q1008","temp":25,"dewp":22,"wdir":10,"wspd":16,"visib":"6+","altim":1008,"clouds":[{"cover":"SCT","base":3000},{"cover":"FEW","base":3500}],"obsTime":1774299600},"SBME":{"icaoId":"SBME","flightCategory":"MVFR","rawOb":"METAR SBME 232100Z 01006KT 8000 -RA SCT017 BKN080 23/21 Q1011 RERA","temp":23,"dewp":21,"wdir":10,"wspd":6,"visib":4.97,"altim":1011,"clouds":[{"cover":"SCT","base":1700},{"cover":"BKN","base":8000}],"obsTime":1774299600},"SBCP":{"icaoId":"SBCP","flightCategory":"VFR","rawOb":"METAR SBCP 232100Z 17004KT 9999 SCT020 BKN080 23/21 Q1011","temp":23,"dewp":21,"wdir":170,"wspd":4,"visib":"6+","altim":1011,"clouds":[{"cover":"SCT","base":2000},{"cover":"BKN","base":8000}],"obsTime":1774299600},"SBMG":{"icaoId":"SBMG","flightCategory":"VFR","rawOb":"METAR SBMG 232100Z 32002KT 9999 FEW042 30/22 Q1010","temp":30,"dewp":22,"wdir":320,"wspd":2,"visib":"6+","altim":1010,"clouds":[{"cover":"FEW","base":4200}],"obsTime":1774299600},"SBFL":{"icaoId":"SBFL","flightCategory":"VFR","rawOb":"METAR SBFL 232100Z 36013KT 9999 FEW030 28/22 Q1008","temp":28,"dewp":22,"wdir":360,"wspd":13,"visib":"6+","altim":1008,"clouds":[{"cover":"FEW","base":3000}],"obsTime":1774299600},"SBMK":{"icaoId":"SBMK","flightCategory":"VFR","rawOb":"METAR SBMK 232100Z 02004KT 9999 FEW045 28/20 Q1011","temp":28,"dewp":20,"wdir":20,"wspd":4,"visib":"6+","altim":1011,"clouds":[{"cover":"FEW","base":4500}],"obsTime":1774299600},"SBBR":{"icaoId":"SBBR","flightCategory":"VFR","rawOb":"METAR SBBR 232100Z 24003KT 190V340 9999 SCT040 FEW045TCU SCT090 29/17 Q1013","temp":29,"dewp":17,"wdir":240,"wspd":3,"visib":"6+","altim":1013,"clouds":[{"cover":"SCT","base":4000},{"cover":"FEW","base":4500},{"cover":"SCT","base":9000}],"obsTime":1774299600},"SBBE":{"icaoId":"SBBE","flightCategory":"VFR","rawOb":"METAR SBBE 232100Z 01008KT 9999 SCT017 29/25 Q1007","temp":29,"dewp":25,"wdir":10,"wspd":8,"visib":"6+","altim":1007,"clouds":[{"cover":"SCT","base":1700}],"obsTime":1774299600},"SBMO":{"icaoId":"SBMO","flightCategory":"VFR","rawOb":"METAR SBMO 232100Z 27012KT 9999 SCT030 27/23 Q1010","temp":27,"dewp":23,"wdir":270,"wspd":12,"visib":"6+","altim":1010,"clouds":[{"cover":"SCT","base":3000}],"obsTime":1774299600},"SBFZ":{"icaoId":"SBFZ","flightCategory":"VFR","rawOb":"METAR SBFZ 232100Z 10010KT 9999 FEW020 28/23 Q1008","temp":28,"dewp":23,"wdir":100,"wspd":10,"visib":"6+","altim":1008,"clouds":[{"cover":"FEW","base":2000}],"obsTime":1774299600},"SBMQ":{"icaoId":"SBMQ","flightCategory":"VFR","rawOb":"METAR SBMQ 232100Z 06010KT 9999 SCT023 SCT035 30/25 Q1007","temp":30,"dewp":25,"wdir":60,"wspd":10,"visib":"6+","altim":1007,"clouds":[{"cover":"SCT","base":2300},{"cover":"SCT","base":3500}],"obsTime":1774299600},"SBNT":{"icaoId":"SBNT","flightCategory":"VFR","rawOb":"METAR SBNT 232100Z 11009KT 9999 FEW021 28/23 Q1009","temp":28,"dewp":23,"wdir":110,"wspd":9,"visib":"6+","altim":1009,"clouds":[{"cover":"FEW","base":2100}],"obsTime":1774299600},"SBGL":{"icaoId":"SBGL","flightCategory":"VFR","rawOb":"METAR SBGL 232100Z 08006KT 9999 FEW020 BKN060 24/21 Q1010","temp":24,"dewp":21,"wdir":80,"wspd":6,"visib":"6+","altim":1010,"clouds":[{"cover":"FEW","base":2000},{"cover":"BKN","base":6000}],"obsTime":1774299600},"SBPA":{"icaoId":"SBPA","flightCategory":"IFR","rawOb":"METAR SBPA 232100Z 30006KT 4500 -TSRA SCT008 BKN035 FEW040CB OVC100 23/23 Q1008","temp":23,"dewp":23,"wdir":300,"wspd":6,"visib":2.8,"altim":1008,"clouds":[{"cover":"SCT","base":800},{"cover":"BKN","base":3500},{"cover":"FEW","base":4000},{"cover":"OVC","base":10000}],"obsTime":1774299600},"SBCF":{"icaoId":"SBCF","flightCategory":"VFR","rawOb":"METAR SBCF 232100Z 07004KT 9999 FEW045 27/19 Q1012","temp":27,"dewp":19,"wdir":70,"wspd":4,"visib":"6+","altim":1012,"clouds":[{"cover":"FEW","base":4500}],"obsTime":1774299600},"SBPJ":{"icaoId":"SBPJ","flightCategory":"VFR","rawOb":"METAR SBPJ 232100Z 11005KT 9999 SCT025 FEW030TCU BKN090 26/23 Q1008 RETS","temp":26,"dewp":23,"wdir":110,"wspd":5,"visib":"6+","altim":1008,"clouds":[{"cover":"SCT","base":2500},{"cover":"FEW","base":3000},{"cover":"BKN","base":9000}],"obsTime":1774299600},"SBGO":{"icaoId":"SBGO","flightCategory":"VFR","rawOb":"METAR SBGO 232100Z 21002KT 9999 FEW050 FEW060TCU 32/18 Q1011","temp":32,"dewp":18,"wdir":210,"wspd":2,"visib":"6+","altim":1011,"clouds":[{"cover":"FEW","base":5000},{"cover":"FEW","base":6000}],"obsTime":1774299600},"SBPV":{"icaoId":"SBPV","flightCategory":"VFR","rawOb":"METAR SBPV 232100Z 04007KT CAVOK 27/23 Q1006","temp":27,"dewp":23,"wdir":40,"wspd":7,"visib":"6+","altim":1006,"clouds":[],"obsTime":1774299600},"SBRB":{"icaoId":"SBRB","flightCategory":"VFR","rawOb":"METAR SBRB 232100Z 30007G18KT 9999 TS VCSH SCT030 FEW035CB 29/25 Q1006","temp":29,"dewp":25,"wdir":300,"wspd":7,"visib":"6+","altim":1006,"clouds":[{"cover":"SCT","base":3000},{"cover":"FEW","base":3500}],"obsTime":1774299600},"SBGR":{"icaoId":"SBGR","flightCategory":"VFR","rawOb":"METAR SBGR 232100Z 16008KT CAVOK 24/19 Q1013","temp":24,"dewp":19,"wdir":160,"wspd":8,"visib":"6+","altim":1013,"clouds":[],"obsTime":1774299600},"SBRF":{"icaoId":"SBRF","flightCategory":"VFR","rawOb":"METAR SBRF 232100Z 11008KT 9999 SCT023 29/23 Q1010","temp":29,"dewp":23,"wdir":110,"wspd":8,"visib":"6+","altim":1010,"clouds":[{"cover":"SCT","base":2300}],"obsTime":1774299600},"SBCZ":{"icaoId":"SBCZ","flightCategory":"MVFR","rawOb":"METAR SBCZ 232100Z 36006KT 9999 VCSH BKN025 FEW025TCU BKN100 29/24 Q1006","temp":29,"dewp":24,"wdir":360,"wspd":6,"visib":"6+","altim":1006,"clouds":[{"cover":"BKN","base":2500},{"cover":"FEW","base":2500},{"cover":"BKN","base":10000}],"obsTime":1774299600},"SBSG":{"icaoId":"SBSG","flightCategory":"VFR","rawOb":"METAR SBSG 232100Z 11008KT 9999 FEW026 FEW030TCU 28/23 Q1009","temp":28,"dewp":23,"wdir":110,"wspd":8,"visib":"6+","altim":1009,"clouds":[{"cover":"FEW","base":2600},{"cover":"FEW","base":3000}],"obsTime":1774299600},"SBIL":{"icaoId":"SBIL","flightCategory":"VFR","rawOb":"METAR SBIL 232100Z 15004KT 9999 FEW020 SCT100 28/24 Q1010","temp":28,"dewp":24,"wdir":150,"wspd":4,"visib":"6+","altim":1010,"clouds":[{"cover":"FEW","base":2000},{"cover":"SCT","base":10000}],"obsTime":1774299600},"SBSL":{"icaoId":"SBSL","flightCategory":"VFR","rawOb":"METAR SBSL 232100Z 04012KT 9999 FEW020 SCT080 28/24 Q1007","temp":28,"dewp":24,"wdir":40,"wspd":12,"visib":"6+","altim":1007,"clouds":[{"cover":"FEW","base":2000},{"cover":"SCT","base":8000}],"obsTime":1774299600},"SBBV":{"icaoId":"SBBV","flightCategory":"VFR","rawOb":"METAR SBBV 232100Z 15010KT 9999 SCT040 FEW045TCU 31/23 Q1006","temp":31,"dewp":23,"wdir":150,"wspd":10,"visib":"6+","altim":1006,"clouds":[{"cover":"SCT","base":4000},{"cover":"FEW","base":4500}],"obsTime":1774299600},"SBSN":{"icaoId":"SBSN","flightCategory":"VFR","rawOb":"METAR SBSN 232100Z 09008KT 9999 FEW017TCU 31/25 Q1005","temp":31,"dewp":25,"wdir":90,"wspd":8,"visib":"6+","altim":1005,"clouds":[{"cover":"FEW","base":1700}],"obsTime":1774299600},"SBSP":{"icaoId":"SBSP","flightCategory":"VFR","rawOb":"METAR SBSP 232100Z 17012KT 9999 FEW019 22/18 Q1015","temp":22,"dewp":18,"wdir":170,"wspd":12,"visib":"6+","altim":1015,"clouds":[{"cover":"FEW","base":1900}],"obsTime":1774299600},"SBEG":{"icaoId":"SBEG","flightCategory":"VFR","rawOb":"METAR SBEG 232100Z 08003KT 9999 FEW020 FEW025TCU 29/24 Q1006","temp":29,"dewp":24,"wdir":80,"wspd":3,"visib":"6+","altim":1006,"clouds":[{"cover":"FEW","base":2000},{"cover":"FEW","base":2500}],"obsTime":1774299600},"SBJU":{"icaoId":"SBJU","flightCategory":"VFR","rawOb":"METAR SBJU 232100Z 25004KT 9999 SCT020 FEW020TCU 25/21 Q1011","temp":25,"dewp":21,"wdir":250,"wspd":4,"visib":"6+","altim":1011,"clouds":[{"cover":"SCT","base":2000},{"cover":"FEW","base":2000}],"obsTime":1774299600},"SBSV":{"icaoId":"SBSV","flightCategory":"VFR","rawOb":"METAR SBSV 232100Z 08009KT 9999 FEW023 28/21 Q1010","temp":28,"dewp":21,"wdir":80,"wspd":9,"visib":"6+","altim":1010,"clouds":[{"cover":"FEW","base":2300}],"obsTime":1774299600},"SBTE":{"icaoId":"SBTE","flightCategory":"VFR","rawOb":"METAR SBTE 232100Z 04004KT 9999 SCT035 33/23 Q1007","temp":33,"dewp":23,"wdir":40,"wspd":4,"visib":"6+","altim":1007,"clouds":[{"cover":"SCT","base":3500}],"obsTime":1774299600},"SBKP":{"icaoId":"SBKP","flightCategory":"VFR","rawOb":"METAR SBKP 232100Z 17007KT CAVOK 29/13 Q1011","temp":29,"dewp":13,"wdir":170,"wspd":7,"visib":"6+","altim":1011,"clouds":[],"obsTime":1774299600},"SBUL":{"icaoId":"SBUL","flightCategory":"VFR","rawOb":"METAR SBUL 232100Z 02004KT 340V060 9999 FEW030 SCT090 29/13 Q1013","temp":29,"dewp":13,"wdir":20,"wspd":4,"visib":"6+","altim":1013,"clouds":[{"cover":"FEW","base":3000},{"cover":"SCT","base":9000}],"obsTime":1774299600},"SBCG":{"icaoId":"SBCG","flightCategory":"VFR","rawOb":"METAR SBCG 232100Z 31007KT 9999 SCT045 FEW050TCU 32/21 Q1009","temp":32,"dewp":21,"wdir":310,"wspd":7,"visib":"6+","altim":1009,"clouds":[{"cover":"SCT","base":4500},{"cover":"FEW","base":5000}],"obsTime":1774299600},"SBUR":{"icaoId":"SBUR","flightCategory":"VFR","rawOb":"METAR SBUR 232100Z 18005KT CAVOK 29/15 Q1012","temp":29,"dewp":15,"wdir":180,"wspd":5,"visib":"6+","altim":1012,"clouds":[],"obsTime":1774299600},"SBVT":{"icaoId":"SBVT","flightCategory":"VFR","rawOb":"METAR SBVT 232100Z 02008KT 9999 FEW025 25/21 Q1011","temp":25,"dewp":21,"wdir":20,"wspd":8,"visib":"6+","altim":1011,"clouds":[{"cover":"FEW","base":2500}],"obsTime":1774299600},"SBMA":{"icaoId":"SBMA","flightCategory":"VFR","rawOb":"METAR SBMA 232100Z 30002KT 9999 FEW020 BKN100 26/25 Q1007 RETS","temp":26,"dewp":25,"wdir":300,"wspd":2,"visib":"6+","altim":1007,"clouds":[{"cover":"FEW","base":2000},{"cover":"BKN","base":10000}],"obsTime":1774299600},"SBLO":{"icaoId":"SBLO","flightCategory":"VFR","rawOb":"METAR SBLO 232100Z VRB02KT 9999 TS FEW030 FEW040CB SCT100 25/21 Q1011","temp":25,"dewp":21,"wdir":"VRB","wspd":2,"visib":"6+","altim":1011,"clouds":[{"cover":"FEW","base":3000},{"cover":"FEW","base":4000},{"cover":"SCT","base":10000}],"obsTime":1774299600},"SBCB":{"icaoId":"SBCB","flightCategory":"VFR","rawOb":"METAR SBCB 232100Z 02004KT 9999 FEW020 BKN070 23/21 Q1011","temp":23,"dewp":21,"wdir":20,"wspd":4,"visib":"6+","altim":1011,"clouds":[{"cover":"FEW","base":2000},{"cover":"BKN","base":7000}],"obsTime":1774299600},"SBCR":{"icaoId":"SBCR","flightCategory":"VFR","rawOb":"METAR SBCR 232100Z 20004KT 160V270 9999 FEW023 SCT035 BKN090 26/25 Q1007","temp":26,"dewp":25,"wdir":200,"wspd":4,"visib":"6+","altim":1007,"clouds":[{"cover":"FEW","base":2300},{"cover":"SCT","base":3500},{"cover":"BKN","base":9000}],"obsTime":1774299600},"SBHT":{"icaoId":"SBHT","flightCategory":"VFR","rawOb":"METAR SBHT 232100Z 30002KT 9999 SCT030 32/25 Q1006","temp":32,"dewp":25,"wdir":300,"wspd":2,"visib":"6+","altim":1006,"clouds":[{"cover":"SCT","base":3000}],"obsTime":1774299600},"SBTF":{"icaoId":"SBTF","flightCategory":"VFR","rawOb":"METAR SBTF 232100Z 12004KT 9999 FEW020 36/24 Q1004","temp":36,"dewp":24,"wdir":120,"wspd":4,"visib":"6+","altim":1004,"clouds":[{"cover":"FEW","base":2000}],"obsTime":1774299600},"SBAX":{"icaoId":"SBAX","flightCategory":"VFR","rawOb":"METAR SBAX 232100Z 17003KT CAVOK 27/13 Q1013","temp":27,"dewp":13,"wdir":170,"wspd":3,"visib":"6+","altim":1013,"clouds":[],"obsTime":1774299600},"SBCO":{"icaoId":"SBCO","flightCategory":"IFR","rawOb":"METAR SBCO 232100Z 31005KT 9000 -TSRA FEW003 BKN008 FEW035CB 23/22 Q1008 RERA","temp":23,"dewp":22,"wdir":310,"wspd":5,"visib":5.59,"altim":1008,"clouds":[{"cover":"FEW","base":300},{"cover":"BKN","base":800},{"cover":"FEW","base":3500}],"obsTime":1774299600},"SBBH":{"icaoId":"SBBH","flightCategory":"VFR","rawOb":"METAR SBBH 232100Z 29004KT 9999 FEW040 FEW045TCU 27/18 Q1012","temp":27,"dewp":18,"wdir":290,"wspd":4,"visib":"6+","altim":1012,"clouds":[{"cover":"FEW","base":4000},{"cover":"FEW","base":4500}],"obsTime":1774299600},"SBBU":{"icaoId":"SBBU","flightCategory":"VFR","rawOb":"METAR SBBU 232100Z 25007KT 9999 SCT035 31/21 Q1011","temp":31,"dewp":21,"wdir":250,"wspd":7,"visib":"6+","altim":1011,"clouds":[{"cover":"SCT","base":3500}],"obsTime":1774299600},"SBCA":{"icaoId":"SBCA","flightCategory":"VFR","rawOb":"METAR SBCA 232100Z 35008KT 9999 VCSH FEW030 FEW040TCU BKN070 28/22 Q1012","temp":28,"dewp":22,"wdir":350,"wspd":8,"visib":"6+","altim":1012,"clouds":[{"cover":"FEW","base":3000},{"cover":"FEW","base":4000},{"cover":"BKN","base":7000}],"obsTime":1774299600},"SBAR":{"icaoId":"SBAR","flightCategory":"VFR","rawOb":"METAR SBAR 232100Z 09012KT 9999 FEW022 29/24 Q1010","temp":29,"dewp":24,"wdir":90,"wspd":12,"visib":"6+","altim":1010,"clouds":[{"cover":"FEW","base":2200}],"obsTime":1774299600},"SBDN":{"icaoId":"SBDN","flightCategory":"VFR","rawOb":"METAR SBDN 232100Z 33005KT 9999 VCTS FEW050CB 26/20 Q1010","temp":26,"dewp":20,"wdir":330,"wspd":5,"visib":"6+","altim":1010,"clouds":[{"cover":"FEW","base":5000}],"obsTime":1774299600},"SBES":{"icaoId":"SBES","flightCategory":"VFR","rawOb":"METAR SBES 232100Z 05004KT 9999 VCSH FEW025 SCT030 BKN080 21/// Q1011","temp":null,"dewp":null,"wdir":50,"wspd":4,"visib":"6+","altim":1011,"clouds":[{"cover":"FEW","base":2500},{"cover":"SCT","base":3000},{"cover":"BKN","base":8000}],"obsTime":1774299600},"SBIP":{"icaoId":"SBIP","flightCategory":"VFR","rawOb":"METAR SBIP 232100Z AUTO 05011KT 9999 SCT033 28/20 Q1010","temp":28,"dewp":20,"wdir":50,"wspd":11,"visib":"6+","altim":1010,"clouds":[{"cover":"SCT","base":3300}],"obsTime":1774299600},"SBKG":{"icaoId":"SBKG","flightCategory":"VFR","rawOb":"METAR SBKG 232100Z 08012KT 9999 SCT023 26/22 Q1012","temp":26,"dewp":22,"wdir":80,"wspd":12,"visib":"6+","altim":1012,"clouds":[{"cover":"SCT","base":2300}],"obsTime":1774299600},"SBOI":{"icaoId":"SBOI","flightCategory":"VFR","rawOb":"METAR SBOI 232100Z AUTO 05004KT 020V080 9999 FEW044 27/24 Q1009","temp":27,"dewp":24,"wdir":50,"wspd":4,"visib":"6+","altim":1009,"clouds":[{"cover":"FEW","base":4400}],"obsTime":1774299600},"SBPL":{"icaoId":"SBPL","flightCategory":"VFR","rawOb":"METAR SBPL 232100Z 01002KT 9999 FEW030 FEW035TCU 30/22 Q1009","temp":30,"dewp":22,"wdir":10,"wspd":2,"visib":"6+","altim":1009,"clouds":[{"cover":"FEW","base":3000},{"cover":"FEW","base":3500}],"obsTime":1774299600},"SBPS":{"icaoId":"SBPS","flightCategory":"VFR","rawOb":"METAR SBPS 232100Z 10007KT 9999 FEW020 BKN100 25/23 Q1011","temp":25,"dewp":23,"wdir":100,"wspd":7,"visib":"6+","altim":1011,"clouds":[{"cover":"FEW","base":2000},{"cover":"BKN","base":10000}],"obsTime":1774299600},"SBSC":{"icaoId":"SBSC","flightCategory":"VFR","rawOb":"METAR SBSC 232100Z 04005KT 9999 FEW030TCU BKN040 26/20 Q1010","temp":26,"dewp":20,"wdir":40,"wspd":5,"visib":"6+","altim":1010,"clouds":[{"cover":"FEW","base":3000},{"cover":"BKN","base":4000}],"obsTime":1774299600},"SBSJ":{"icaoId":"SBSJ","flightCategory":"VFR","rawOb":"METAR SBSJ 232100Z 13010KT 9999 FEW045 23/18 Q1012","temp":23,"dewp":18,"wdir":130,"wspd":10,"visib":"6+","altim":1012,"clouds":[{"cover":"FEW","base":4500}],"obsTime":1774299600},"SBSM":{"icaoId":"SBSM","flightCategory":"VFR","rawOb":"METAR SBSM 232100Z 36004KT 9999 -RA FEW007 SCT040 FEW045TCU BKN080 24/23 Q1008 RERA","temp":24,"dewp":23,"wdir":360,"wspd":4,"visib":"6+","altim":1008,"clouds":[{"cover":"FEW","base":700},{"cover":"SCT","base":4000},{"cover":"FEW","base":4500},{"cover":"BKN","base":8000}],"obsTime":1774299600},"SBSR":{"icaoId":"SBSR","flightCategory":"VFR","rawOb":"METAR SBSR 232100Z 20015KT 9999 VCSH SCT040 FEW045TCU SCT100 27/19 Q1011","temp":27,"dewp":19,"wdir":200,"wspd":15,"visib":"6+","altim":1011,"clouds":[{"cover":"SCT","base":4000},{"cover":"FEW","base":4500},{"cover":"SCT","base":10000}],"obsTime":1774299600},"SBTT":{"icaoId":"SBTT","flightCategory":"VFR","rawOb":"METAR SBTT 232100Z 33004KT 9999 FEW040 28/21 Q1006","temp":28,"dewp":21,"wdir":330,"wspd":4,"visib":"6+","altim":1006,"clouds":[{"cover":"FEW","base":4000}],"obsTime":1774299600},"SBUY":{"icaoId":"SBUY","flightCategory":"VFR","rawOb":"METAR SBUY 232100Z 19003KT 9999 SCT025 BKN090 25/24 Q1004 RERA","temp":25,"dewp":24,"wdir":190,"wspd":3,"visib":"6+","altim":1004,"clouds":[{"cover":"SCT","base":2500},{"cover":"BKN","base":9000}],"obsTime":1774299600},"SBVH":{"icaoId":"SBVH","flightCategory":"VFR","rawOb":"METAR SBVH 232100Z 04005KT 9999 TS SCT030 FEW040CB OVC091 25/23 Q1010","temp":25,"dewp":23,"wdir":40,"wspd":5,"visib":"6+","altim":1010,"clouds":[{"cover":"SCT","base":3000},{"cover":"FEW","base":4000},{"cover":"OVC","base":9100}],"obsTime":1774299600},"SBPB":{"icaoId":"SBPB","flightCategory":"MVFR","rawOb":"METAR SBPB 232100Z 05010KT 9999 BKN016 29/25 Q1008","temp":29,"dewp":25,"wdir":50,"wspd":10,"visib":"6+","altim":1008,"clouds":[{"cover":"BKN","base":1600}],"obsTime":1774299600},"SBCJ":{"icaoId":"SBCJ","flightCategory":"VFR","rawOb":"METAR SBCJ 232100Z 00000KT 9999 FEW015 SCT050 27/22 Q1012","temp":27,"dewp":22,"wdir":0,"wspd":0,"visib":"6+","altim":1012,"clouds":[{"cover":"FEW","base":1500},{"cover":"SCT","base":5000}],"obsTime":1774299600},"SBPP":{"icaoId":"SBPP","flightCategory":"VFR","rawOb":"METAR SBPP 232100Z 14002KT 9999 -TSRA FEW020 FEW025CB 26/22 Q1010","temp":26,"dewp":22,"wdir":140,"wspd":2,"visib":"6+","altim":1010,"clouds":[{"cover":"FEW","base":2000},{"cover":"FEW","base":2500}],"obsTime":1774299600},"SBTA":{"icaoId":"SBTA","flightCategory":"VFR","rawOb":"METAR SBTA 232100Z 16010KT 9999 FEW045 25/18 Q1011","temp":25,"dewp":18,"wdir":160,"wspd":10,"visib":"6+","altim":1011,"clouds":[{"cover":"FEW","base":4500}],"obsTime":1774299600},"SBPF":{"icaoId":"SBPF","flightCategory":"VFR","rawOb":"METAR SBPF 232100Z 23010KT 9999 SCT030 BKN050 24/20 Q1011","temp":24,"dewp":20,"wdir":230,"wspd":10,"visib":"6+","altim":1011,"clouds":[{"cover":"SCT","base":3000},{"cover":"BKN","base":5000}],"obsTime":1774299600},"SBAN":{"icaoId":"SBAN","flightCategory":"VFR","rawOb":"METAR SBAN 232100Z 27004KT 9999 FEW030 FEW040TCU 27/17 Q1014","temp":27,"dewp":17,"wdir":270,"wspd":4,"visib":"6+","altim":1014,"clouds":[{"cover":"FEW","base":3000},{"cover":"FEW","base":4000}],"obsTime":1774299600},"SBLE":{"icaoId":"SBLE","flightCategory":"VFR","rawOb":"METAR SBLE 232100Z AUTO VRB02KT CAVOK ///// Q////","temp":null,"dewp":null,"wdir":"VRB","wspd":2,"visib":"6+","altim":null,"clouds":[],"obsTime":1774299600},"SBAF":{"icaoId":"SBAF","flightCategory":"VFR","rawOb":"METAR SBAF 232100Z 09005KT 9999 FEW025 SCT060 25/23 Q1010","temp":25,"dewp":23,"wdir":90,"wspd":5,"visib":"6+","altim":1010,"clouds":[{"cover":"FEW","base":2500},{"cover":"SCT","base":6000}],"obsTime":1774299600},"SBGW":{"icaoId":"SBGW","flightCategory":"VFR","rawOb":"METAR SBGW 232100Z 05004KT 340V080 9999 SCT045 27/13 Q1011","temp":27,"dewp":13,"wdir":50,"wspd":4,"visib":"6+","altim":1011,"clouds":[{"cover":"SCT","base":4500}],"obsTime":1774299600},"SBNM":{"icaoId":"SBNM","flightCategory":"MVFR","rawOb":"METAR SBNM 232100Z 32002KT 9999 -RA SCT003 BKN015 FEW035TCU 24/23 Q1010 RETS","temp":24,"dewp":23,"wdir":320,"wspd":2,"visib":"6+","altim":1010,"clouds":[{"cover":"SCT","base":300},{"cover":"BKN","base":1500},{"cover":"FEW","base":3500}],"obsTime":1774299600},"SBJR":{"icaoId":"SBJR","flightCategory":"VFR","rawOb":"METAR SBJR 232100Z 36009KT 9999 FEW020 FEW030TCU 26/20 Q1010","temp":26,"dewp":20,"wdir":360,"wspd":9,"visib":"6+","altim":1010,"clouds":[{"cover":"FEW","base":2000},{"cover":"FEW","base":3000}],"obsTime":1774299600},"SBJV":{"icaoId":"SBJV","flightCategory":"VFR","rawOb":"METAR SBJV 232100Z 02006KT 9999 FEW030 28/22 Q1009","temp":28,"dewp":22,"wdir":20,"wspd":6,"visib":"6+","altim":1009,"clouds":[{"cover":"FEW","base":3000}],"obsTime":1774299600},"SBLS":{"icaoId":"SBLS","flightCategory":"VFR","rawOb":"METAR SBLS 232100Z 10004KT 9999 SCT048 27/19 Q1012","temp":27,"dewp":19,"wdir":100,"wspd":4,"visib":"6+","altim":1012,"clouds":[{"cover":"SCT","base":4800}],"obsTime":1774299600},"SBJP":{"icaoId":"SBJP","flightCategory":"VFR","rawOb":"METAR SBJP 232100Z 08008KT 9999 SCT030 28/23 Q1010","temp":28,"dewp":23,"wdir":80,"wspd":8,"visib":"6+","altim":1010,"clouds":[{"cover":"SCT","base":3000}],"obsTime":1774299600},"SBMT":{"icaoId":"SBMT","flightCategory":"MVFR","rawOb":"METAR SBMT 232100Z 13010KT 9999 BKN025 23/18 Q1013","temp":23,"dewp":18,"wdir":130,"wspd":10,"visib":"6+","altim":1013,"clouds":[{"cover":"BKN","base":2500}],"obsTime":1774299600},"SBIH":{"icaoId":"SBIH","flightCategory":"MVFR","rawOb":"METAR SBIH 232100Z 35007KT 7000 2000NE TS VCSH SCT020 FEW025CB OVC080 25/24 Q1006","temp":25,"dewp":24,"wdir":350,"wspd":7,"visib":4.35,"altim":1006,"clouds":[{"cover":"SCT","base":2000},{"cover":"FEW","base":2500},{"cover":"OVC","base":8000}],"obsTime":1774299600},"SBST":{"icaoId":"SBST","flightCategory":"VFR","rawOb":"METAR SBST 232100Z 16008KT 9000 SCT030 25/22 Q1010","temp":25,"dewp":22,"wdir":160,"wspd":8,"visib":5.59,"altim":1010,"clouds":[{"cover":"SCT","base":3000}],"obsTime":1774299600}}}