{"updated":1774563294,"count":82,"data":{"SBVT":{"icaoId":"SBVT","flightCategory":"VFR","rawOb":"METAR SBVT 262100Z 08005KT CAVOK 27/23 Q1016","temp":27,"dewp":23,"wdir":80,"wspd":5,"visib":"6+","altim":1016,"clouds":[],"obsTime":1774558800},"SBBE":{"icaoId":"SBBE","flightCategory":"VFR","rawOb":"METAR SBBE 262100Z 05009KT 9999 SCT035 BKN100 26/24 Q1008","temp":26,"dewp":24,"wdir":50,"wspd":9,"visib":"6+","altim":1008,"clouds":[{"cover":"SCT","base":3500},{"cover":"BKN","base":10000}],"obsTime":1774558800},"SBBR":{"icaoId":"SBBR","flightCategory":"VFR","rawOb":"METAR SBBR 262100Z 33004KT 9999 TS SCT040 FEW045CB BKN100 21/18 Q1018","temp":21,"dewp":18,"wdir":330,"wspd":4,"visib":"6+","altim":1018,"clouds":[{"cover":"SCT","base":4000},{"cover":"FEW","base":4500},{"cover":"BKN","base":10000}],"obsTime":1774558800},"SBBV":{"icaoId":"SBBV","flightCategory":"VFR","rawOb":"METAR SBBV 262100Z 01004KT 9999 SCT040 FEW045TCU SCT100 34/21 Q1005","temp":34,"dewp":21,"wdir":10,"wspd":4,"visib":"6+","altim":1005,"clouds":[{"cover":"SCT","base":4000},{"cover":"FEW","base":4500},{"cover":"SCT","base":10000}],"obsTime":1774558800},"SBCF":{"icaoId":"SBCF","flightCategory":"VFR","rawOb":"METAR SBCF 262100Z 12010KT 9999 FEW045 SCT100 25/18 Q1018","temp":25,"dewp":18,"wdir":120,"wspd":10,"visib":"6+","altim":1018,"clouds":[{"cover":"FEW","base":4500},{"cover":"SCT","base":10000}],"obsTime":1774558800},"SBCG":{"icaoId":"SBCG","flightCategory":"VFR","rawOb":"METAR SBCG 262100Z 33004KT 9999 SCT040 FEW045TCU 28/21 Q1012","temp":28,"dewp":21,"wdir":330,"wspd":4,"visib":"6+","altim":1012,"clouds":[{"cover":"SCT","base":4000},{"cover":"FEW","base":4500}],"obsTime":1774558800},"SBCP":{"icaoId":"SBCP","flightCategory":"VFR","rawOb":"METAR SBCP 262100Z 11006KT 9999 FEW020 25/23 Q1016","temp":25,"dewp":23,"wdir":110,"wspd":6,"visib":"6+","altim":1016,"clouds":[{"cover":"FEW","base":2000}],"obsTime":1774558800},"SBCT":{"icaoId":"SBCT","flightCategory":"VFR","rawOb":"METAR SBCT 262100Z 09007KT 9999 FEW040 24/21 Q1019","temp":24,"dewp":21,"wdir":90,"wspd":7,"visib":"6+","altim":1019,"clouds":[{"cover":"FEW","base":4000}],"obsTime":1774558800},"SBCZ":{"icaoId":"SBCZ","flightCategory":"LIFR","rawOb":"METAR SBCZ 262100Z 20004KT 6000 -RA BKN004 OVC100 23/22 Q1009 RETS","temp":23,"dewp":22,"wdir":200,"wspd":4,"visib":3.73,"altim":1009,"clouds":[{"cover":"BKN","base":400},{"cover":"OVC","base":10000}],"obsTime":1774558800},"SBEG":{"icaoId":"SBEG","flightCategory":"VFR","rawOb":"METAR SBEG 262100Z 12007KT 9999 VCSH FEW030 FEW035TCU 31/24 Q1006","temp":31,"dewp":24,"wdir":120,"wspd":7,"visib":"6+","altim":1006,"clouds":[{"cover":"FEW","base":3000},{"cover":"FEW","base":3500}],"obsTime":1774558800},"SBFI":{"icaoId":"SBFI","flightCategory":"VFR","rawOb":"METAR SBFI 262100Z 36004KT 9999 FEW040TCU 32/23 Q1011","temp":32,"dewp":23,"wdir":360,"wspd":4,"visib":"6+","altim":1011,"clouds":[{"cover":"FEW","base":4000}],"obsTime":1774558800},"SBFL":{"icaoId":"SBFL","flightCategory":"VFR","rawOb":"METAR SBFL 262100Z 09008KT 9999 FEW025 28/24 Q1014","temp":28,"dewp":24,"wdir":90,"wspd":8,"visib":"6+","altim":1014,"clouds":[{"cover":"FEW","base":2500}],"obsTime":1774558800},"SBFZ":{"icaoId":"SBFZ","flightCategory":"VFR","rawOb":"METAR SBFZ 262100Z 09008KT CAVOK 29/23 Q1008","temp":29,"dewp":23,"wdir":90,"wspd":8,"visib":"6+","altim":1008,"clouds":[],"obsTime":1774558800},"SBGL":{"icaoId":"SBGL","flightCategory":"VFR","rawOb":"METAR SBGL 262100Z 14008KT 9999 SCT040 29/22 Q1014","temp":29,"dewp":22,"wdir":140,"wspd":8,"visib":"6+","altim":1014,"clouds":[{"cover":"SCT","base":4000}],"obsTime":1774558800},"SBGO":{"icaoId":"SBGO","flightCategory":"VFR","rawOb":"METAR SBGO 262100Z 08017KT 9999 VCSH SCT040 FEW045TCU 26/19 Q1015","temp":26,"dewp":19,"wdir":80,"wspd":17,"visib":"6+","altim":1015,"clouds":[{"cover":"SCT","base":4000},{"cover":"FEW","base":4500}],"obsTime":1774558800},"SBGR":{"icaoId":"SBGR","flightCategory":"VFR","rawOb":"METAR SBGR 262100Z 17006KT 9999 SCT046 24/21 Q1019","temp":24,"dewp":21,"wdir":170,"wspd":6,"visib":"6+","altim":1019,"clouds":[{"cover":"SCT","base":4600}],"obsTime":1774558800},"SBIL":{"icaoId":"SBIL","flightCategory":"VFR","rawOb":"METAR SBIL 262100Z 16006KT 9999 SCT025 29/24 Q1013","temp":29,"dewp":24,"wdir":160,"wspd":6,"visib":"6+","altim":1013,"clouds":[{"cover":"SCT","base":2500}],"obsTime":1774558800},"SBJU":{"icaoId":"SBJU","flightCategory":"VFR","rawOb":"METAR SBJU 262100Z 18003KT 9999 FEW022 28/22 Q1011","temp":28,"dewp":22,"wdir":180,"wspd":3,"visib":"6+","altim":1011,"clouds":[{"cover":"FEW","base":2200}],"obsTime":1774558800},"SBKP":{"icaoId":"SBKP","flightCategory":"VFR","rawOb":"METAR SBKP 262100Z 18005KT 9999 FEW050TCU 30/18 Q1016","temp":30,"dewp":18,"wdir":180,"wspd":5,"visib":"6+","altim":1016,"clouds":[{"cover":"FEW","base":5000}],"obsTime":1774558800},"SBLO":{"icaoId":"SBLO","flightCategory":"VFR","rawOb":"METAR SBLO 262100Z 08007KT 9999 SCT042 29/18 Q1014","temp":29,"dewp":18,"wdir":80,"wspd":7,"visib":"6+","altim":1014,"clouds":[{"cover":"SCT","base":4200}],"obsTime":1774558800},"SBMA":{"icaoId":"SBMA","flightCategory":"VFR","rawOb":"METAR SBMA 262100Z 23002KT 9999 FEW023 FEW025TCU SCT100 31/24 Q1007","temp":31,"dewp":24,"wdir":230,"wspd":2,"visib":"6+","altim":1007,"clouds":[{"cover":"FEW","base":2300},{"cover":"FEW","base":2500},{"cover":"SCT","base":10000}],"obsTime":1774558800},"SBME":{"icaoId":"SBME","flightCategory":"VFR","rawOb":"METAR SBME 262100Z 09009KT 9999 FEW025 26/22 Q1015","temp":26,"dewp":22,"wdir":90,"wspd":9,"visib":"6+","altim":1015,"clouds":[{"cover":"FEW","base":2500}],"obsTime":1774558800},"SBMG":{"icaoId":"SBMG","flightCategory":"VFR","rawOb":"METAR SBMG 262100Z 02007KT 9999 FEW045 FEW045TCU 29/19 Q1013","temp":29,"dewp":19,"wdir":20,"wspd":7,"visib":"6+","altim":1013,"clouds":[{"cover":"FEW","base":4500},{"cover":"FEW","base":4500}],"obsTime":1774558800},"SBMK":{"icaoId":"SBMK","flightCategory":"VFR","rawOb":"METAR SBMK 262100Z 05005KT 9999 FEW040 26/18 Q1016","temp":26,"dewp":18,"wdir":50,"wspd":5,"visib":"6+","altim":1016,"clouds":[{"cover":"FEW","base":4000}],"obsTime":1774558800},"SBMO":{"icaoId":"SBMO","flightCategory":"VFR","rawOb":"METAR SBMO 262100Z 19003KT 9999 VCSH SCT025 SCT090 26/23 Q1012","temp":26,"dewp":23,"wdir":190,"wspd":3,"visib":"6+","altim":1012,"clouds":[{"cover":"SCT","base":2500},{"cover":"SCT","base":9000}],"obsTime":1774558800},"SBMQ":{"icaoId":"SBMQ","flightCategory":"VFR","rawOb":"METAR SBMQ 262100Z 05011KT 9999 VCSH FEW024 FEW030TCU SCT078 28/25 Q1008","temp":28,"dewp":25,"wdir":50,"wspd":11,"visib":"6+","altim":1008,"clouds":[{"cover":"FEW","base":2400},{"cover":"FEW","base":3000},{"cover":"SCT","base":7800}],"obsTime":1774558800},"SBNT":{"icaoId":"SBNT","flightCategory":"VFR","rawOb":"METAR SBNT 262100Z 13010KT 9999 SCT025 28/23 Q1010","temp":28,"dewp":23,"wdir":130,"wspd":10,"visib":"6+","altim":1010,"clouds":[{"cover":"SCT","base":2500}],"obsTime":1774558800},"SBPA":{"icaoId":"SBPA","flightCategory":"MVFR","rawOb":"METAR SBPA 262100Z 15008KT 9999 BKN020 27/23 Q1013","temp":27,"dewp":23,"wdir":150,"wspd":8,"visib":"6+","altim":1013,"clouds":[{"cover":"BKN","base":2000}],"obsTime":1774558800},"SBPJ":{"icaoId":"SBPJ","flightCategory":"VFR","rawOb":"METAR SBPJ 262100Z 04005KT 9999 FEW027 OVC080 25/23 Q1010","temp":25,"dewp":23,"wdir":40,"wspd":5,"visib":"6+","altim":1010,"clouds":[{"cover":"FEW","base":2700},{"cover":"OVC","base":8000}],"obsTime":1774558800},"SBPV":{"icaoId":"SBPV","flightCategory":"VFR","rawOb":"METAR SBPV 262100Z 20003KT 9999 FEW045 28/23 Q1007","temp":28,"dewp":23,"wdir":200,"wspd":3,"visib":"6+","altim":1007,"clouds":[{"cover":"FEW","base":4500}],"obsTime":1774558800},"SBRB":{"icaoId":"SBRB","flightCategory":"VFR","rawOb":"METAR SBRB 262100Z 20002KT 9999 FEW020 BKN100 27/23 Q1008","temp":27,"dewp":23,"wdir":200,"wspd":2,"visib":"6+","altim":1008,"clouds":[{"cover":"FEW","base":2000},{"cover":"BKN","base":10000}],"obsTime":1774558800},"SBRF":{"icaoId":"SBRF","flightCategory":"VFR","rawOb":"METAR SBRF 262100Z 18006KT 9999 FEW025 BKN070 28/23 Q1011","temp":28,"dewp":23,"wdir":180,"wspd":6,"visib":"6+","altim":1011,"clouds":[{"cover":"FEW","base":2500},{"cover":"BKN","base":7000}],"obsTime":1774558800},"SBSG":{"icaoId":"SBSG","flightCategory":"VFR","rawOb":"METAR SBSG 262100Z 11008KT 9999 FEW023 28/23 Q1010","temp":28,"dewp":23,"wdir":110,"wspd":8,"visib":"6+","altim":1010,"clouds":[{"cover":"FEW","base":2300}],"obsTime":1774558800},"SBSL":{"icaoId":"SBSL","flightCategory":"MVFR","rawOb":"METAR SBSL 262100Z 11004KT 9999 TS BKN020 FEW025CB SCT060 27/25 Q1008","temp":27,"dewp":25,"wdir":110,"wspd":4,"visib":"6+","altim":1008,"clouds":[{"cover":"BKN","base":2000},{"cover":"FEW","base":2500},{"cover":"SCT","base":6000}],"obsTime":1774558800},"SBSN":{"icaoId":"SBSN","flightCategory":"VFR","rawOb":"METAR SBSN 262100Z 08009KT 9999 FEW020 FEW026TCU 31/25 Q1006","temp":31,"dewp":25,"wdir":80,"wspd":9,"visib":"6+","altim":1006,"clouds":[{"cover":"FEW","base":2000},{"cover":"FEW","base":2600}],"obsTime":1774558800},"SBSP":{"icaoId":"SBSP","flightCategory":"VFR","rawOb":"METAR SBSP 262100Z 15007KT 9999 -RA FEW046 22/21 Q1020","temp":22,"dewp":21,"wdir":150,"wspd":7,"visib":"6+","altim":1020,"clouds":[{"cover":"FEW","base":4600}],"obsTime":1774558800},"SBSV":{"icaoId":"SBSV","flightCategory":"VFR","rawOb":"METAR SBSV 262100Z 13007KT 9999 SCT023 28/22 Q1012","temp":28,"dewp":22,"wdir":130,"wspd":7,"visib":"6+","altim":1012,"clouds":[{"cover":"SCT","base":2300}],"obsTime":1774558800},"SBTE":{"icaoId":"SBTE","flightCategory":"VFR","rawOb":"METAR SBTE 262100Z 33003KT 9999 FEW020 30/25 Q1007","temp":30,"dewp":25,"wdir":330,"wspd":3,"visib":"6+","altim":1007,"clouds":[{"cover":"FEW","base":2000}],"obsTime":1774558800},"SBUL":{"icaoId":"SBUL","flightCategory":"VFR","rawOb":"METAR SBUL 262100Z 15007KT 9999 FEW030 FEW030TCU BKN080 22/19 Q1018","temp":22,"dewp":19,"wdir":150,"wspd":7,"visib":"6+","altim":1018,"clouds":[{"cover":"FEW","base":3000},{"cover":"FEW","base":3000},{"cover":"BKN","base":8000}],"obsTime":1774558800},"SBUR":{"icaoId":"SBUR","flightCategory":"MVFR","rawOb":"METAR SBUR 262100Z 29003KT 5000 -RA BR SCT011 OVC100 21/20 Q1018 RETS","temp":21,"dewp":20,"wdir":290,"wspd":3,"visib":3.11,"altim":1018,"clouds":[{"cover":"SCT","base":1100},{"cover":"OVC","base":10000}],"obsTime":1774558800},"SBAT":{"icaoId":"SBAT","flightCategory":"VFR","rawOb":"METAR SBAT 262100Z 17003KT 9999 FEW030 SCT100 25/23 Q1010","temp":25,"dewp":23,"wdir":170,"wspd":3,"visib":"6+","altim":1010,"clouds":[{"cover":"FEW","base":3000},{"cover":"SCT","base":10000}],"obsTime":1774558800},"SBCB":{"icaoId":"SBCB","flightCategory":"VFR","rawOb":"METAR SBCB 262100Z 08014KT CAVOK 26/22 Q1015","temp":26,"dewp":22,"wdir":80,"wspd":14,"visib":"6+","altim":1015,"clouds":[],"obsTime":1774558800},"SBCR":{"icaoId":"SBCR","flightCategory":"VFR","rawOb":"METAR SBCR 262100Z 03006KT 360V090 9999 FEW023 FEW033TCU 31/23 Q1008","temp":31,"dewp":23,"wdir":30,"wspd":6,"visib":"6+","altim":1008,"clouds":[{"cover":"FEW","base":2300},{"cover":"FEW","base":3300}],"obsTime":1774558800},"SBHT":{"icaoId":"SBHT","flightCategory":"VFR","rawOb":"METAR SBHT 262100Z 00000KT CAVOK 30/25 Q1007","temp":30,"dewp":25,"wdir":0,"wspd":0,"visib":"6+","altim":1007,"clouds":[],"obsTime":1774558800},"SBOI":{"icaoId":"SBOI","flightCategory":"VFR","rawOb":"METAR SBOI 262100Z AUTO 03004KT 9999 SCT021 BKN031 26/25 Q1009","temp":26,"dewp":25,"wdir":30,"wspd":4,"visib":"6+","altim":1009,"clouds":[{"cover":"SCT","base":2100},{"cover":"BKN","base":3100}],"obsTime":1774558800},"SBSJ":{"icaoId":"SBSJ","flightCategory":"VFR","rawOb":"METAR SBSJ 262100Z 15010KT 9999 SCT036 FEW048TCU 27/// Q1017","temp":null,"dewp":null,"wdir":150,"wspd":10,"visib":"6+","altim":1017,"clouds":[{"cover":"SCT","base":3600},{"cover":"FEW","base":4800}],"obsTime":1774558800},"SBAX":{"icaoId":"SBAX","flightCategory":"VFR","rawOb":"METAR SBAX 262100Z COR 01002KT 9999 FEW025 SCT042 23/23 Q1019","temp":23,"dewp":23,"wdir":10,"wspd":2,"visib":"6+","altim":1019,"clouds":[{"cover":"FEW","base":2500},{"cover":"SCT","base":4200}],"obsTime":1774558800},"SBBH":{"icaoId":"SBBH","flightCategory":"VFR","rawOb":"METAR SBBH 262100Z 10010KT 9999 FEW048 25/18 Q1018","temp":25,"dewp":18,"wdir":100,"wspd":10,"visib":"6+","altim":1018,"clouds":[{"cover":"FEW","base":4800}],"obsTime":1774558800},"SBBU":{"icaoId":"SBBU","flightCategory":"VFR","rawOb":"METAR SBBU 262100Z 08004KT CAVOK 30/19 Q1015","temp":30,"dewp":19,"wdir":80,"wspd":4,"visib":"6+","altim":1015,"clouds":[],"obsTime":1774558800},"SBCA":{"icaoId":"SBCA","flightCategory":"VFR","rawOb":"METAR SBCA 262100Z 07008KT 9999 FEW040 28/19 Q1016","temp":28,"dewp":19,"wdir":70,"wspd":8,"visib":"6+","altim":1016,"clouds":[{"cover":"FEW","base":4000}],"obsTime":1774558800},"SBCO":{"icaoId":"SBCO","flightCategory":"MVFR","rawOb":"METAR SBCO 262100Z 16005KT 9999 BKN018 BKN030 27/24 Q1014","temp":27,"dewp":24,"wdir":160,"wspd":5,"visib":"6+","altim":1014,"clouds":[{"cover":"BKN","base":1800},{"cover":"BKN","base":3000}],"obsTime":1774558800},"SBDN":{"icaoId":"SBDN","flightCategory":"VFR","rawOb":"METAR SBDN 262100Z 08006KT 9999 VCSH SCT045 FEW049TCU 30/20 Q1013","temp":30,"dewp":20,"wdir":80,"wspd":6,"visib":"6+","altim":1013,"clouds":[{"cover":"SCT","base":4500},{"cover":"FEW","base":4900}],"obsTime":1774558800},"SBES":{"icaoId":"SBES","flightCategory":"VFR","rawOb":"METAR SBES 262100Z 06011KT CAVOK 25/// Q1015","temp":null,"dewp":null,"wdir":60,"wspd":11,"visib":"6+","altim":1015,"clouds":[],"obsTime":1774558800},"SBIP":{"icaoId":"SBIP","flightCategory":"MVFR","rawOb":"METAR SBIP 262100Z AUTO 30005KT 270V350 9999 -RA OVC028 23/23 Q1016","temp":23,"dewp":23,"wdir":300,"wspd":5,"visib":"6+","altim":1016,"clouds":[{"cover":"OVC","base":2800}],"obsTime":1774558800},"SBKG":{"icaoId":"SBKG","flightCategory":"MVFR","rawOb":"METAR SBKG 262100Z 10008KT 9999 BKN022 SCT080 24/22 Q1013","temp":24,"dewp":22,"wdir":100,"wspd":8,"visib":"6+","altim":1013,"clouds":[{"cover":"BKN","base":2200},{"cover":"SCT","base":8000}],"obsTime":1774558800},"SBPL":{"icaoId":"SBPL","flightCategory":"VFR","rawOb":"METAR SBPL 262100Z 13008KT 9999 SCT030 SCT070 31/20 Q1010","temp":31,"dewp":20,"wdir":130,"wspd":8,"visib":"6+","altim":1010,"clouds":[{"cover":"SCT","base":3000},{"cover":"SCT","base":7000}],"obsTime":1774558800},"SBPS":{"icaoId":"SBPS","flightCategory":"VFR","rawOb":"METAR SBPS 262100Z 14003KT 9999 SCT020 27/24 Q1014","temp":27,"dewp":24,"wdir":140,"wspd":3,"visib":"6+","altim":1014,"clouds":[{"cover":"SCT","base":2000}],"obsTime":1774558800},"SBSC":{"icaoId":"SBSC","flightCategory":"VFR","rawOb":"METAR SBSC 262100Z 23005KT 9999 FEW040 26/23 Q1014","temp":26,"dewp":23,"wdir":230,"wspd":5,"visib":"6+","altim":1014,"clouds":[{"cover":"FEW","base":4000}],"obsTime":1774558800},"SBAR":{"icaoId":"SBAR","flightCategory":"VFR","rawOb":"METAR SBAR 262100Z 15008KT 9999 FEW030 29/22 Q1012","temp":29,"dewp":22,"wdir":150,"wspd":8,"visib":"6+","altim":1012,"clouds":[{"cover":"FEW","base":3000}],"obsTime":1774558800},"SBSM":{"icaoId":"SBSM","flightCategory":"MVFR","rawOb":"METAR SBSM 262100Z 11006KT 9999 BKN013 OVC015 24/22 Q1014","temp":24,"dewp":22,"wdir":110,"wspd":6,"visib":"6+","altim":1014,"clouds":[{"cover":"BKN","base":1300},{"cover":"OVC","base":1500}],"obsTime":1774558800},"SBSR":{"icaoId":"SBSR","flightCategory":"VFR","rawOb":"METAR SBSR 262100Z 04005KT 9999 FEW030 SCT080 28/19 Q1015","temp":28,"dewp":19,"wdir":40,"wspd":5,"visib":"6+","altim":1015,"clouds":[{"cover":"FEW","base":3000},{"cover":"SCT","base":8000}],"obsTime":1774558800},"SBTF":{"icaoId":"SBTF","flightCategory":"VFR","rawOb":"METAR SBTF 262100Z 11006KT 9999 FEW020 33/25 Q1005","temp":33,"dewp":25,"wdir":110,"wspd":6,"visib":"6+","altim":1005,"clouds":[{"cover":"FEW","base":2000}],"obsTime":1774558800},"SBTT":{"icaoId":"SBTT","flightCategory":"MVFR","rawOb":"METAR SBTT 262100Z 22006KT 9999 BKN027 FEW030TCU BKN100 27/23 Q1007","temp":27,"dewp":23,"wdir":220,"wspd":6,"visib":"6+","altim":1007,"clouds":[{"cover":"BKN","base":2700},{"cover":"FEW","base":3000},{"cover":"BKN","base":10000}],"obsTime":1774558800},"SBUY":{"icaoId":"SBUY","flightCategory":"VFR","rawOb":"METAR SBUY 262100Z 17004KT 9999 FEW025 31/22 Q1004","temp":31,"dewp":22,"wdir":170,"wspd":4,"visib":"6+","altim":1004,"clouds":[{"cover":"FEW","base":2500}],"obsTime":1774558800},"SBVH":{"icaoId":"SBVH","flightCategory":"VFR","rawOb":"METAR SBVH 262100Z 10008KT 9999 SCT015 SCT030 FEW035TCU 24/22 Q1011","temp":24,"dewp":22,"wdir":100,"wspd":8,"visib":"6+","altim":1011,"clouds":[{"cover":"SCT","base":1500},{"cover":"SCT","base":3000},{"cover":"FEW","base":3500}],"obsTime":1774558800},"SBPB":{"icaoId":"SBPB","flightCategory":"VFR","rawOb":"METAR SBPB 262100Z 05010KT 9999 SCT020 29/24 Q1008","temp":29,"dewp":24,"wdir":50,"wspd":10,"visib":"6+","altim":1008,"clouds":[{"cover":"SCT","base":2000}],"obsTime":1774558800},"SBCJ":{"icaoId":"SBCJ","flightCategory":"VFR","rawOb":"METAR SBCJ 262100Z 00000KT 9999 FEW025TCU SCT070 24/22 Q1013","temp":24,"dewp":22,"wdir":0,"wspd":0,"visib":"6+","altim":1013,"clouds":[{"cover":"FEW","base":2500},{"cover":"SCT","base":7000}],"obsTime":1774558800},"SBPP":{"icaoId":"SBPP","flightCategory":"VFR","rawOb":"METAR SBPP 262100Z 10004KT 9999 SCT025 28/21 Q1012","temp":28,"dewp":21,"wdir":100,"wspd":4,"visib":"6+","altim":1012,"clouds":[{"cover":"SCT","base":2500}],"obsTime":1774558800},"SBJP":{"icaoId":"SBJP","flightCategory":"VFR","rawOb":"METAR SBJP 262100Z 12009KT 9999 SCT030 SCT070 28/23 Q1011","temp":28,"dewp":23,"wdir":120,"wspd":9,"visib":"6+","altim":1011,"clouds":[{"cover":"SCT","base":3000},{"cover":"SCT","base":7000}],"obsTime":1774558800},"SBAF":{"icaoId":"SBAF","flightCategory":"VFR","rawOb":"METAR SBAF 262100Z 21005KT 180V250 9999 FEW030 29/22 Q1014","temp":29,"dewp":22,"wdir":210,"wspd":5,"visib":"6+","altim":1014,"clouds":[{"cover":"FEW","base":3000}],"obsTime":1774558800},"SBGW":{"icaoId":"SBGW","flightCategory":"VFR","rawOb":"METAR SBGW 262100Z 02005KT 9999 FEW030 28/18 Q1016","temp":28,"dewp":18,"wdir":20,"wspd":5,"visib":"6+","altim":1016,"clouds":[{"cover":"FEW","base":3000}],"obsTime":1774558800},"SBJR":{"icaoId":"SBJR","flightCategory":"VFR","rawOb":"METAR SBJR 262100Z 13001KT 9999 FEW030 30/21 Q1014","temp":30,"dewp":21,"wdir":130,"wspd":1,"visib":"6+","altim":1014,"clouds":[{"cover":"FEW","base":3000}],"obsTime":1774558800},"SBLS":{"icaoId":"SBLS","flightCategory":"VFR","rawOb":"METAR SBLS 262100Z 12007KT 9999 FEW040 24/18 Q1018","temp":24,"dewp":18,"wdir":120,"wspd":7,"visib":"6+","altim":1018,"clouds":[{"cover":"FEW","base":4000}],"obsTime":1774558800},"SBMT":{"icaoId":"SBMT","flightCategory":"MVFR","rawOb":"METAR SBMT 262100Z 15003KT 8000 SCT015 SCT040 23/19 Q1018","temp":23,"dewp":19,"wdir":150,"wspd":3,"visib":4.97,"altim":1018,"clouds":[{"cover":"SCT","base":1500},{"cover":"SCT","base":4000}],"obsTime":1774558800},"SBTA":{"icaoId":"SBTA","flightCategory":"VFR","rawOb":"METAR SBTA 262100Z 17010KT 9999 SCT040 FEW045TCU SCT100 28/18 Q1016","temp":28,"dewp":18,"wdir":170,"wspd":10,"visib":"6+","altim":1016,"clouds":[{"cover":"SCT","base":4000},{"cover":"FEW","base":4500},{"cover":"SCT","base":10000}],"obsTime":1774558800},"SBAN":{"icaoId":"SBAN","flightCategory":"VFR","rawOb":"METAR SBAN 262100Z 16003KT 100V190 9999 VCSH SCT020 BKN035 FEW040TCU BKN070 24/17 Q1018","temp":24,"dewp":17,"wdir":160,"wspd":3,"visib":"6+","altim":1018,"clouds":[{"cover":"SCT","base":2000},{"cover":"BKN","base":3500},{"cover":"FEW","base":4000},{"cover":"BKN","base":7000}],"obsTime":1774558800},"SBPF":{"icaoId":"SBPF","flightCategory":"VFR","rawOb":"METAR SBPF 262100Z 00000KT 9999 SCT040 29/18 Q1016","temp":29,"dewp":18,"wdir":0,"wspd":0,"visib":"6+","altim":1016,"clouds":[{"cover":"SCT","base":4000}],"obsTime":1774558800},"SBLE":{"icaoId":"SBLE","flightCategory":"VFR","rawOb":"METAR SBLE 262100Z AUTO 00000KT CAVOK ///// Q////","temp":null,"dewp":null,"wdir":0,"wspd":0,"visib":"6+","altim":null,"clouds":[],"obsTime":1774558800},"SBJV":{"icaoId":"SBJV","flightCategory":"VFR","rawOb":"METAR SBJV 262100Z 06005KT 020V090 9999 SCT015 SCT030 28/24 Q1014","temp":28,"dewp":24,"wdir":60,"wspd":5,"visib":"6+","altim":1014,"clouds":[{"cover":"SCT","base":1500},{"cover":"SCT","base":3000}],"obsTime":1774558800},"SBST":{"icaoId":"SBST","flightCategory":"VFR","rawOb":"METAR SBST 262100Z 16005KT 9999 FEW040 25/24 Q1014","temp":25,"dewp":24,"wdir":160,"wspd":5,"visib":"6+","altim":1014,"clouds":[{"cover":"FEW","base":4000}],"obsTime":1774558800},"SBIH":{"icaoId":"SBIH","flightCategory":"VFR","rawOb":"METAR SBIH 262100Z 20002KT 9999 FEW020 FEW025TCU BKN100 30/25 Q1006","temp":30,"dewp":25,"wdir":200,"wspd":2,"visib":"6+","altim":1006,"clouds":[{"cover":"FEW","base":2000},{"cover":"FEW","base":2500},{"cover":"BKN","base":10000}],"obsTime":1774558800},"SBTC":{"icaoId":"SBTC","flightCategory":"VFR","rawOb":"METAR SBTC 262100Z 17005KT 9999 SCT020 27/24 Q1014","temp":27,"dewp":24,"wdir":170,"wspd":5,"visib":"6+","altim":1014,"clouds":[{"cover":"SCT","base":2000}],"obsTime":1774558800}}}