{"updated":1779973078,"count":87,"data":{"SBMQ":{"icaoId":"SBMQ","flightCategory":"IFR","rawOb":"METAR SBMQ 281100Z 35004KT 9999 -RA BKN006 BKN090 26/25 Q1012","temp":26,"dewp":25,"wdir":350,"wspd":4,"visib":"6+","altim":1012,"clouds":[{"cover":"BKN","base":600},{"cover":"BKN","base":9000}],"obsTime":1779966000},"SBCT":{"icaoId":"SBCT","flightCategory":"LIFR","rawOb":"METAR SBCT 281100Z 04002KT 0500 R15/0400 R33/0800 FG OVC002 09/09 Q1024","temp":9,"dewp":9,"wdir":40,"wspd":2,"visib":0.31,"altim":1024,"clouds":[{"cover":"OVC","base":200}],"obsTime":1779966000},"SBMG":{"icaoId":"SBMG","flightCategory":"VFR","rawOb":"METAR SBMG 281100Z 12004KT 9000 1200SW BCFG FEW003 17/16 Q1020","temp":17,"dewp":16,"wdir":120,"wspd":4,"visib":5.59,"altim":1020,"clouds":[{"cover":"FEW","base":300}],"obsTime":1779966000},"SBFI":{"icaoId":"SBFI","flightCategory":"VFR","rawOb":"METAR SBFI 281100Z 12004KT CAVOK 16/15 Q1019","temp":16,"dewp":15,"wdir":120,"wspd":4,"visib":"6+","altim":1019,"clouds":[],"obsTime":1779966000},"SBAT":{"icaoId":"SBAT","flightCategory":"VFR","rawOb":"METAR SBAT 281100Z 00000KT CAVOK 24/21 Q1014","temp":24,"dewp":21,"wdir":0,"wspd":0,"visib":"6+","altim":1014,"clouds":[],"obsTime":1779966000},"SBMK":{"icaoId":"SBMK","flightCategory":"VFR","rawOb":"METAR SBMK 281100Z 00000KT CAVOK 19/16 Q1020","temp":19,"dewp":16,"wdir":0,"wspd":0,"visib":"6+","altim":1020,"clouds":[],"obsTime":1779966000},"SBCG":{"icaoId":"SBCG","flightCategory":"VFR","rawOb":"METAR SBCG 281100Z 11008KT CAVOK 21/18 Q1019","temp":21,"dewp":18,"wdir":110,"wspd":8,"visib":"6+","altim":1019,"clouds":[],"obsTime":1779966000},"SBMO":{"icaoId":"SBMO","flightCategory":"VFR","rawOb":"METAR SBMO 281100Z 25005KT 9999 FEW009 SCT020 BKN070 24/24 Q1016","temp":24,"dewp":24,"wdir":250,"wspd":5,"visib":"6+","altim":1016,"clouds":[{"cover":"FEW","base":900},{"cover":"SCT","base":2000},{"cover":"BKN","base":7000}],"obsTime":1779966000},"SBFL":{"icaoId":"SBFL","flightCategory":"VFR","rawOb":"METAR SBFL 281100Z 30005KT 9999 SCT049 16/14 Q1022","temp":16,"dewp":14,"wdir":300,"wspd":5,"visib":"6+","altim":1022,"clouds":[{"cover":"SCT","base":4900}],"obsTime":1779966000},"SBBV":{"icaoId":"SBBV","flightCategory":"IFR","rawOb":"METAR SBBV 281100Z 27004KT 9999 -RA BKN007 SCT020 FEW030TCU BKN070 24/24 Q1013","temp":24,"dewp":24,"wdir":270,"wspd":4,"visib":"6+","altim":1013,"clouds":[{"cover":"BKN","base":700},{"cover":"SCT","base":2000},{"cover":"FEW","base":3000},{"cover":"BKN","base":7000}],"obsTime":1779966000},"SBNT":{"icaoId":"SBNT","flightCategory":"VFR","rawOb":"METAR SBNT 281100Z 16008KT 9999 VCSH FEW012 SCT030 FEW033TCU BKN040 26/24 Q1014","temp":26,"dewp":24,"wdir":160,"wspd":8,"visib":"6+","altim":1014,"clouds":[{"cover":"FEW","base":1200},{"cover":"SCT","base":3000},{"cover":"FEW","base":3300},{"cover":"BKN","base":4000}],"obsTime":1779966000},"SBPA":{"icaoId":"SBPA","flightCategory":"MVFR","rawOb":"METAR SBPA 281100Z 11006KT 9999 OVC010 15/13 Q1023","temp":15,"dewp":13,"wdir":110,"wspd":6,"visib":"6+","altim":1023,"clouds":[{"cover":"OVC","base":1000}],"obsTime":1779966000},"SBFZ":{"icaoId":"SBFZ","flightCategory":"VFR","rawOb":"METAR SBFZ 281100Z 15011KT 9999 SCT018 27/23 Q1013","temp":27,"dewp":23,"wdir":150,"wspd":11,"visib":"6+","altim":1013,"clouds":[{"cover":"SCT","base":1800}],"obsTime":1779966000},"SBCP":{"icaoId":"SBCP","flightCategory":"VFR","rawOb":"METAR SBCP 281100Z 22010KT CAVOK 22/17 Q1019","temp":22,"dewp":17,"wdir":220,"wspd":10,"visib":"6+","altim":1019,"clouds":[],"obsTime":1779966000},"SBPJ":{"icaoId":"SBPJ","flightCategory":"VFR","rawOb":"METAR SBPJ 281100Z 20003KT CAVOK 25/18 Q1015","temp":25,"dewp":18,"wdir":200,"wspd":3,"visib":"6+","altim":1015,"clouds":[],"obsTime":1779966000},"SBGL":{"icaoId":"SBGL","flightCategory":"VFR","rawOb":"METAR SBGL 281100Z 29006KT 9999 SCT033 22/16 Q1021","temp":22,"dewp":16,"wdir":290,"wspd":6,"visib":"6+","altim":1021,"clouds":[{"cover":"SCT","base":3300}],"obsTime":1779966000},"SBPV":{"icaoId":"SBPV","flightCategory":"VFR","rawOb":"METAR SBPV 281100Z 14004KT 9999 FEW030 25/22 Q1012","temp":25,"dewp":22,"wdir":140,"wspd":4,"visib":"6+","altim":1012,"clouds":[{"cover":"FEW","base":3000}],"obsTime":1779966000},"SBRB":{"icaoId":"SBRB","flightCategory":"VFR","rawOb":"METAR SBRB 281100Z 14003KT CAVOK 21/20 Q1014","temp":21,"dewp":20,"wdir":140,"wspd":3,"visib":"6+","altim":1014,"clouds":[],"obsTime":1779966000},"SBGO":{"icaoId":"SBGO","flightCategory":"VFR","rawOb":"METAR SBGO 281100Z 14004KT CAVOK 19/16 Q1020","temp":19,"dewp":16,"wdir":140,"wspd":4,"visib":"6+","altim":1020,"clouds":[],"obsTime":1779966000},"SBBE":{"icaoId":"SBBE","flightCategory":"VFR","rawOb":"METAR SBBE 281100Z 10004KT CAVOK 26/24 Q1012","temp":26,"dewp":24,"wdir":100,"wspd":4,"visib":"6+","altim":1012,"clouds":[],"obsTime":1779966000},"SBRF":{"icaoId":"SBRF","flightCategory":"MVFR","rawOb":"METAR SBRF 281100Z 22006KT 8000 VCSH BKN023 BKN050 25/23 Q1015","temp":25,"dewp":23,"wdir":220,"wspd":6,"visib":4.97,"altim":1015,"clouds":[{"cover":"BKN","base":2300},{"cover":"BKN","base":5000}],"obsTime":1779966000},"SBCR":{"icaoId":"SBCR","flightCategory":"VFR","rawOb":"METAR SBCR 281100Z 00000KT CAVOK 22/21 Q1015","temp":22,"dewp":21,"wdir":0,"wspd":0,"visib":"6+","altim":1015,"clouds":[],"obsTime":1779966000},"SBSG":{"icaoId":"SBSG","flightCategory":"VFR","rawOb":"METAR SBSG 281100Z 17007KT 120V210 9999 SCT010 25/23 Q1014","temp":25,"dewp":23,"wdir":170,"wspd":7,"visib":"6+","altim":1014,"clouds":[{"cover":"SCT","base":1000}],"obsTime":1779966000},"SBGR":{"icaoId":"SBGR","flightCategory":"MVFR","rawOb":"METAR SBGR 281100Z 13003KT 9999 BKN023 15/10 Q1024","temp":15,"dewp":10,"wdir":130,"wspd":3,"visib":"6+","altim":1024,"clouds":[{"cover":"BKN","base":2300}],"obsTime":1779966000},"SBSL":{"icaoId":"SBSL","flightCategory":"VFR","rawOb":"METAR SBSL 281100Z 13006KT 9999 SCT018 27/26 Q1012","temp":27,"dewp":26,"wdir":130,"wspd":6,"visib":"6+","altim":1012,"clouds":[{"cover":"SCT","base":1800}],"obsTime":1779966000},"SBSN":{"icaoId":"SBSN","flightCategory":"VFR","rawOb":"METAR SBSN 281100Z 17004KT 9999 SCT020 BKN100 26/25 Q1012","temp":26,"dewp":25,"wdir":170,"wspd":4,"visib":"6+","altim":1012,"clouds":[{"cover":"SCT","base":2000},{"cover":"BKN","base":10000}],"obsTime":1779966000},"SBCB":{"icaoId":"SBCB","flightCategory":"VFR","rawOb":"METAR SBCB 281100Z /////KT 9999 SCT020 22/18 Q1020","temp":22,"dewp":18,"wdir":null,"wspd":null,"visib":"6+","altim":1020,"clouds":[{"cover":"SCT","base":2000}],"obsTime":1779966000},"SBHT":{"icaoId":"SBHT","flightCategory":"LIFR","rawOb":"METAR SBHT 281100Z 25003KT 0300 FG FEW012 26/26 Q1013","temp":26,"dewp":26,"wdir":250,"wspd":3,"visib":0.19,"altim":1013,"clouds":[{"cover":"FEW","base":1200}],"obsTime":1779966000},"SBSP":{"icaoId":"SBSP","flightCategory":"MVFR","rawOb":"METAR SBSP 281100Z 14005KT 9999 BKN021 15/12 Q1025","temp":15,"dewp":12,"wdir":140,"wspd":5,"visib":"6+","altim":1025,"clouds":[{"cover":"BKN","base":2100}],"obsTime":1779966000},"SBBR":{"icaoId":"SBBR","flightCategory":"VFR","rawOb":"METAR SBBR 281100Z VRB01KT CAVOK 18/15 Q1022","temp":18,"dewp":15,"wdir":"VRB","wspd":1,"visib":"6+","altim":1022,"clouds":[],"obsTime":1779966000},"SBSV":{"icaoId":"SBSV","flightCategory":"MVFR","rawOb":"METAR SBSV 281100Z 36005KT 300V050 5000 -RA BR BKN015 BKN022 FEW023TCU BKN070 23/22 Q1017","temp":23,"dewp":22,"wdir":360,"wspd":5,"visib":3.11,"altim":1017,"clouds":[{"cover":"BKN","base":1500},{"cover":"BKN","base":2200},{"cover":"FEW","base":2300},{"cover":"BKN","base":7000}],"obsTime":1779966000},"SBIL":{"icaoId":"SBIL","flightCategory":"VFR","rawOb":"METAR SBIL 281100Z 28006KT 9999 FEW020 24/23 Q1018","temp":24,"dewp":23,"wdir":280,"wspd":6,"visib":"6+","altim":1018,"clouds":[{"cover":"FEW","base":2000}],"obsTime":1779966000},"SBTE":{"icaoId":"SBTE","flightCategory":"VFR","rawOb":"METAR SBTE 281100Z 15007KT CAVOK 27/22 Q1012","temp":27,"dewp":22,"wdir":150,"wspd":7,"visib":"6+","altim":1012,"clouds":[],"obsTime":1779966000},"SBUL":{"icaoId":"SBUL","flightCategory":"VFR","rawOb":"METAR SBUL 281100Z 13007KT 9999 FEW001 19/15 Q1022","temp":19,"dewp":15,"wdir":130,"wspd":7,"visib":"6+","altim":1022,"clouds":[{"cover":"FEW","base":100}],"obsTime":1779966000},"SBJU":{"icaoId":"SBJU","flightCategory":"VFR","rawOb":"METAR SBJU 281100Z 17010KT 9999 FEW020 25/19 Q1016","temp":25,"dewp":19,"wdir":170,"wspd":10,"visib":"6+","altim":1016,"clouds":[{"cover":"FEW","base":2000}],"obsTime":1779966000},"SBUR":{"icaoId":"SBUR","flightCategory":"VFR","rawOb":"METAR SBUR 281100Z 14003KT CAVOK 21/16 Q1021","temp":21,"dewp":16,"wdir":140,"wspd":3,"visib":"6+","altim":1021,"clouds":[],"obsTime":1779966000},"SBVT":{"icaoId":"SBVT","flightCategory":"VFR","rawOb":"METAR SBVT 281100Z 21012KT 9999 SCT023 SCT050 23/19 Q1019","temp":23,"dewp":19,"wdir":210,"wspd":12,"visib":"6+","altim":1019,"clouds":[{"cover":"SCT","base":2300},{"cover":"SCT","base":5000}],"obsTime":1779966000},"SBKP":{"icaoId":"SBKP","flightCategory":"VFR","rawOb":"METAR SBKP 281100Z 13017KT CAVOK 15/11 Q1022","temp":15,"dewp":11,"wdir":130,"wspd":17,"visib":"6+","altim":1022,"clouds":[],"obsTime":1779966000},"SBLO":{"icaoId":"SBLO","flightCategory":"IFR","rawOb":"METAR SBLO 281100Z 13005KT 110V170 9000 3000W -DZ BKN005 16/16 Q1021","temp":16,"dewp":16,"wdir":130,"wspd":5,"visib":5.59,"altim":1021,"clouds":[{"cover":"BKN","base":500}],"obsTime":1779966000},"SBCZ":{"icaoId":"SBCZ","flightCategory":"MVFR","rawOb":"METAR SBCZ 281200Z 24002KT 8000 NSC 23/22 Q1014","temp":23,"dewp":22,"wdir":240,"wspd":2,"visib":4.97,"altim":1014,"clouds":[],"obsTime":1779969600},"SBMA":{"icaoId":"SBMA","flightCategory":"VFR","rawOb":"METAR SBMA 281100Z 18002KT CAVOK 26/23 Q1013","temp":26,"dewp":23,"wdir":180,"wspd":2,"visib":"6+","altim":1013,"clouds":[],"obsTime":1779966000},"SBCF":{"icaoId":"SBCF","flightCategory":"VFR","rawOb":"METAR SBCF 281100Z 17004KT 9000 NSC 18/17 Q1022","temp":18,"dewp":17,"wdir":170,"wspd":4,"visib":5.59,"altim":1022,"clouds":[],"obsTime":1779966000},"SBEG":{"icaoId":"SBEG","flightCategory":"VFR","rawOb":"METAR SBEG 281100Z 36001KT CAVOK 25/25 Q1012","temp":25,"dewp":25,"wdir":360,"wspd":1,"visib":"6+","altim":1012,"clouds":[],"obsTime":1779966000},"SBME":{"icaoId":"SBME","flightCategory":"VFR","rawOb":"METAR SBME 281100Z 24010KT CAVOK 23/16 Q1019","temp":23,"dewp":16,"wdir":240,"wspd":10,"visib":"6+","altim":1019,"clouds":[],"obsTime":1779966000},"SBSM":{"icaoId":"SBSM","flightCategory":"IFR","rawOb":"METAR SBSM 281100Z 06003KT 8000 FEW005 OVC007 13/13 Q1022","temp":13,"dewp":13,"wdir":60,"wspd":3,"visib":4.97,"altim":1022,"clouds":[{"cover":"FEW","base":500},{"cover":"OVC","base":700}],"obsTime":1779966000},"SBAX":{"icaoId":"SBAX","flightCategory":"VFR","rawOb":"METAR SBAX 281100Z 05001KT CAVOK 20/16 Q0102","temp":20,"dewp":16,"wdir":50,"wspd":1,"visib":"6+","altim":102,"clouds":[],"obsTime":1779966000},"SBBH":{"icaoId":"SBBH","flightCategory":"VFR","rawOb":"METAR SBBH 281100Z 11007KT CAVOK 19/17 Q1022","temp":19,"dewp":17,"wdir":110,"wspd":7,"visib":"6+","altim":1022,"clouds":[],"obsTime":1779966000},"SBBQ":{"icaoId":"SBBQ","flightCategory":"LIFR","rawOb":"METAR SBBQ 281200Z 10004KT 060V150 3000 BR OVC004 16/15 Q1026","temp":16,"dewp":15,"wdir":100,"wspd":4,"visib":1.86,"altim":1026,"clouds":[{"cover":"OVC","base":400}],"obsTime":1779969600},"SBBU":{"icaoId":"SBBU","flightCategory":"MVFR","rawOb":"METAR SBBU 281100Z 12011KT 9999 SCT006 BKN010 16/15 Q1022","temp":16,"dewp":15,"wdir":120,"wspd":11,"visib":"6+","altim":1022,"clouds":[{"cover":"SCT","base":600},{"cover":"BKN","base":1000}],"obsTime":1779966000},"SBCA":{"icaoId":"SBCA","flightCategory":"VFR","rawOb":"METAR SBCA 281100Z 06005KT CAVOK 17/15 Q1021","temp":17,"dewp":15,"wdir":60,"wspd":5,"visib":"6+","altim":1021,"clouds":[],"obsTime":1779966000},"SBCC":{"icaoId":"SBCC","flightCategory":"VFR","rawOb":"METAR SBCC 281100Z 06007KT CAVOK 23/17 Q1015","temp":23,"dewp":17,"wdir":60,"wspd":7,"visib":"6+","altim":1015,"clouds":[],"obsTime":1779966000},"SBCJ":{"icaoId":"SBCJ","flightCategory":"VFR","rawOb":"METAR SBCJ 281100Z 00000KT CAVOK 26/20 Q1017","temp":26,"dewp":20,"wdir":0,"wspd":0,"visib":"6+","altim":1017,"clouds":[],"obsTime":1779966000},"SBCO":{"icaoId":"SBCO","flightCategory":"IFR","rawOb":"METAR SBCO 281100Z 10005KT 9999 OVC008 14/13 Q1023","temp":14,"dewp":13,"wdir":100,"wspd":5,"visib":"6+","altim":1023,"clouds":[{"cover":"OVC","base":800}],"obsTime":1779966000},"SBDN":{"icaoId":"SBDN","flightCategory":"LIFR","rawOb":"METAR SBDN 281100Z 11010KT 5000 BR OVC004 17/16 Q1020","temp":17,"dewp":16,"wdir":110,"wspd":10,"visib":3.11,"altim":1020,"clouds":[{"cover":"OVC","base":400}],"obsTime":1779966000},"SBES":{"icaoId":"SBES","flightCategory":"VFR","rawOb":"METAR SBES 281100Z VRB06KT 9999 SCT015 21/// Q1020","temp":null,"dewp":null,"wdir":"VRB","wspd":6,"visib":"6+","altim":1020,"clouds":[{"cover":"SCT","base":1500}],"obsTime":1779966000},"SBGM":{"icaoId":"SBGM","flightCategory":"LIFR","rawOb":"METAR SBGM 281200Z 11008KT 5000 BR BKN003 22/21 Q1014","temp":22,"dewp":21,"wdir":110,"wspd":8,"visib":3.11,"altim":1014,"clouds":[{"cover":"BKN","base":300}],"obsTime":1779969600},"SBIP":{"icaoId":"SBIP","flightCategory":"VFR","rawOb":"METAR SBIP 281100Z AUTO 19003KT 150V220 CAVOK 20/20 Q1020","temp":20,"dewp":20,"wdir":190,"wspd":3,"visib":"6+","altim":1020,"clouds":[],"obsTime":1779966000},"SBKG":{"icaoId":"SBKG","flightCategory":"MVFR","rawOb":"METAR SBKG 281100Z 16005KT 8000 BKN010 22/21 Q1017","temp":22,"dewp":21,"wdir":160,"wspd":5,"visib":4.97,"altim":1017,"clouds":[{"cover":"BKN","base":1000}],"obsTime":1779966000},"SBOI":{"icaoId":"SBOI","flightCategory":"LIFR","rawOb":"METAR SBOI 281100Z AUTO 20003KT 9999 -RA BKN004 OVC017 25/24 Q1013","temp":25,"dewp":24,"wdir":200,"wspd":3,"visib":"6+","altim":1013,"clouds":[{"cover":"BKN","base":400},{"cover":"OVC","base":1700}],"obsTime":1779966000},"SBPB":{"icaoId":"SBPB","flightCategory":"VFR","rawOb":"METAR SBPB 281100Z 11008KT 9999 FEW020 29/24 Q1012","temp":29,"dewp":24,"wdir":110,"wspd":8,"visib":"6+","altim":1012,"clouds":[{"cover":"FEW","base":2000}],"obsTime":1779966000},"SBPL":{"icaoId":"SBPL","flightCategory":"VFR","rawOb":"METAR SBPL 281100Z 13009KT 9999 FEW025 24/18 Q1018","temp":24,"dewp":18,"wdir":130,"wspd":9,"visib":"6+","altim":1018,"clouds":[{"cover":"FEW","base":2500}],"obsTime":1779966000},"SBPP":{"icaoId":"SBPP","flightCategory":"MVFR","rawOb":"SPECI SBPP 281115Z 06004KT 5000 BR FEW005 BKN070 17/16 Q1020","temp":17,"dewp":16,"wdir":60,"wspd":4,"visib":3.11,"altim":1020,"clouds":[{"cover":"FEW","base":500},{"cover":"BKN","base":7000}],"obsTime":1779966900},"SBPS":{"icaoId":"SBPS","flightCategory":"VFR","rawOb":"METAR SBPS 281100Z 26005KT 9999 SCT020 BKN050 23/22 Q1018","temp":23,"dewp":22,"wdir":260,"wspd":5,"visib":"6+","altim":1018,"clouds":[{"cover":"SCT","base":2000},{"cover":"BKN","base":5000}],"obsTime":1779966000},"SBSC":{"icaoId":"SBSC","flightCategory":"VFR","rawOb":"METAR SBSC 281100Z 25007KT CAVOK 22/17 Q1021","temp":22,"dewp":17,"wdir":250,"wspd":7,"visib":"6+","altim":1021,"clouds":[],"obsTime":1779966000},"SBSJ":{"icaoId":"SBSJ","flightCategory":"VFR","rawOb":"METAR SBSJ 281100Z 02002KT CAVOK 15/11 Q1024","temp":15,"dewp":11,"wdir":20,"wspd":2,"visib":"6+","altim":1024,"clouds":[],"obsTime":1779966000},"SBAR":{"icaoId":"SBAR","flightCategory":"VFR","rawOb":"METAR SBAR 281100Z 26003KT 9999 SCT030 25/21 Q1016","temp":25,"dewp":21,"wdir":260,"wspd":3,"visib":"6+","altim":1016,"clouds":[{"cover":"SCT","base":3000}],"obsTime":1779966000},"SBSR":{"icaoId":"SBSR","flightCategory":"MVFR","rawOb":"METAR SBSR 281100Z 15007KT 8000 FEW010 18/16 Q1020","temp":18,"dewp":16,"wdir":150,"wspd":7,"visib":4.97,"altim":1020,"clouds":[{"cover":"FEW","base":1000}],"obsTime":1779966000},"SBTF":{"icaoId":"SBTF","flightCategory":"VFR","rawOb":"SPECI SBTF 281115Z 30003KT 9999 -RA SCT006 OVC070 25/25 Q1012","temp":25,"dewp":25,"wdir":300,"wspd":3,"visib":"6+","altim":1012,"clouds":[{"cover":"SCT","base":600},{"cover":"OVC","base":7000}],"obsTime":1779966900},"SBTT":{"icaoId":"SBTT","flightCategory":"LIFR","rawOb":"METAR SBTT 281100Z 32003KT 9999 BKN004 BKN060 24/23 Q1013","temp":24,"dewp":23,"wdir":320,"wspd":3,"visib":"6+","altim":1013,"clouds":[{"cover":"BKN","base":400},{"cover":"BKN","base":6000}],"obsTime":1779966000},"SBTU":{"icaoId":"SBTU","flightCategory":"VFR","rawOb":"METAR SBTU 281100Z AUTO 11003KT 060V160 9999 // SCT059/// BKN068/// 27/24 Q1014","temp":27,"dewp":24,"wdir":110,"wspd":3,"visib":"6+","altim":1014,"clouds":[{"cover":"SCT","base":5900},{"cover":"BKN","base":6800}],"obsTime":1779966000},"SBUY":{"icaoId":"SBUY","flightCategory":"MVFR","rawOb":"METAR SBUY 281100Z 00000KT 5000 BR NSC 23/22 Q1011","temp":23,"dewp":22,"wdir":0,"wspd":0,"visib":3.11,"altim":1011,"clouds":[],"obsTime":1779966000},"SBVH":{"icaoId":"SBVH","flightCategory":"VFR","rawOb":"METAR SBVH 281100Z 10006KT CAVOK 20/19 Q1017","temp":20,"dewp":19,"wdir":100,"wspd":6,"visib":"6+","altim":1017,"clouds":[],"obsTime":1779966000},"SBTD":{"icaoId":"SBTD","flightCategory":"VFR","rawOb":"METAR SBTD 281100Z /////KT CAVOK 15/13 Q1020","temp":15,"dewp":13,"wdir":null,"wspd":null,"visib":"6+","altim":1020,"clouds":[],"obsTime":1779966000},"SBJP":{"icaoId":"SBJP","flightCategory":"VFR","rawOb":"METAR SBJP 281100Z 15009KT 9999 SCT020 SCT070 26/24 Q1015","temp":26,"dewp":24,"wdir":150,"wspd":9,"visib":"6+","altim":1015,"clouds":[{"cover":"SCT","base":2000},{"cover":"SCT","base":7000}],"obsTime":1779966000},"SBAN":{"icaoId":"SBAN","flightCategory":"VFR","rawOb":"METAR SBAN 281100Z 17006KT CAVOK 18/15 Q1022","temp":18,"dewp":15,"wdir":170,"wspd":6,"visib":"6+","altim":1022,"clouds":[],"obsTime":1779966000},"SBJV":{"icaoId":"SBJV","flightCategory":"VFR","rawOb":"METAR SBJV 281100Z 28002KT 9999 SCT040 15/15 Q1023","temp":15,"dewp":15,"wdir":280,"wspd":2,"visib":"6+","altim":1023,"clouds":[{"cover":"SCT","base":4000}],"obsTime":1779966000},"SBNM":{"icaoId":"SBNM","flightCategory":"VFR","rawOb":"METAR SBNM 281100Z AUTO 11005KT CAVOK 10/09 Q1020","temp":10,"dewp":9,"wdir":110,"wspd":5,"visib":"6+","altim":1020,"clouds":[],"obsTime":1779966000},"SBPF":{"icaoId":"SBPF","flightCategory":"LIFR","rawOb":"METAR SBPF 281100Z 07008KT 0200 FG VV002 10/09 Q1022","temp":10,"dewp":9,"wdir":70,"wspd":8,"visib":0.12,"altim":1022,"clouds":[{"cover":"OVX","base":200}],"obsTime":1779966000},"SBAF":{"icaoId":"SBAF","flightCategory":"VFR","rawOb":"METAR SBAF 281100Z 33004KT 9999 FEW020 SCT050 22/19 Q1021","temp":22,"dewp":19,"wdir":330,"wspd":4,"visib":"6+","altim":1021,"clouds":[{"cover":"FEW","base":2000},{"cover":"SCT","base":5000}],"obsTime":1779966000},"SBGW":{"icaoId":"SBGW","flightCategory":"MVFR","rawOb":"METAR SBGW 281100Z 26004KT 8000 SCT010 SCT035 15/10 Q1023","temp":15,"dewp":10,"wdir":260,"wspd":4,"visib":4.97,"altim":1023,"clouds":[{"cover":"SCT","base":1000},{"cover":"SCT","base":3500}],"obsTime":1779966000},"SBJR":{"icaoId":"SBJR","flightCategory":"VFR","rawOb":"METAR SBJR 281100Z 00000KT 9999 FEW018 SCT040 23/17 Q1021","temp":23,"dewp":17,"wdir":0,"wspd":0,"visib":"6+","altim":1021,"clouds":[{"cover":"FEW","base":1800},{"cover":"SCT","base":4000}],"obsTime":1779966000},"SBLS":{"icaoId":"SBLS","flightCategory":"VFR","rawOb":"METAR SBLS 281100Z 17009KT CAVOK 19/17 Q1021","temp":19,"dewp":17,"wdir":170,"wspd":9,"visib":"6+","altim":1021,"clouds":[],"obsTime":1779966000},"SBMT":{"icaoId":"SBMT","flightCategory":"MVFR","rawOb":"METAR SBMT 281100Z 11005KT 9999 FEW010 BKN017 14/10 Q1024","temp":14,"dewp":10,"wdir":110,"wspd":5,"visib":"6+","altim":1024,"clouds":[{"cover":"FEW","base":1000},{"cover":"BKN","base":1700}],"obsTime":1779966000},"SBST":{"icaoId":"SBST","flightCategory":"MVFR","rawOb":"METAR SBST 281100Z 33003KT 8000 FEW016 BKN040 18/16 Q1022","temp":18,"dewp":16,"wdir":330,"wspd":3,"visib":4.97,"altim":1022,"clouds":[{"cover":"FEW","base":1600},{"cover":"BKN","base":4000}],"obsTime":1779966000},"SBTA":{"icaoId":"SBTA","flightCategory":"VFR","rawOb":"METAR SBTA 281100Z 24004KT 210V270 9999 FEW015 14/14 Q1023","temp":14,"dewp":14,"wdir":240,"wspd":4,"visib":"6+","altim":1023,"clouds":[{"cover":"FEW","base":1500}],"obsTime":1779966000},"SBLE":{"icaoId":"SBLE","flightCategory":"VFR","rawOb":"METAR SBLE 281100Z AUTO VRB02KT 9999 FEW006 ///// Q////","temp":null,"dewp":null,"wdir":"VRB","wspd":2,"visib":"6+","altim":null,"clouds":[{"cover":"FEW","base":600}],"obsTime":1779966000},"SBIH":{"icaoId":"SBIH","flightCategory":"VFR","rawOb":"METAR SBIH 281100Z 00000KT CAVOK 27/25 Q1012","temp":27,"dewp":25,"wdir":0,"wspd":0,"visib":"6+","altim":1012,"clouds":[],"obsTime":1779966000}}}