{"updated":1778652891,"count":51,"data":{"SBMG":{"icaoId":"SBMG","flightCategory":"VFR","rawOb":"METAR SBMG 130500Z AUTO 03005KT CAVOK 15/11 Q1018","temp":15,"dewp":11,"wdir":30,"wspd":5,"visib":"6+","altim":1018,"clouds":[],"obsTime":1778648400},"SBCF":{"icaoId":"SBCF","flightCategory":"VFR","rawOb":"METAR SBCF 130500Z 13005KT CAVOK 18/17 Q1020","temp":18,"dewp":17,"wdir":130,"wspd":5,"visib":"6+","altim":1020,"clouds":[],"obsTime":1778648400},"SBGL":{"icaoId":"SBGL","flightCategory":"VFR","rawOb":"METAR SBGL 130500Z 32005KT CAVOK 18/15 Q1017","temp":18,"dewp":15,"wdir":320,"wspd":5,"visib":"6+","altim":1017,"clouds":[],"obsTime":1778648400},"SBMO":{"icaoId":"SBMO","flightCategory":"MVFR","rawOb":"METAR SBMO 130500Z 09003KT 040V160 8000 -RA FEW015 BKN020 BKN060 24/23 Q1014","temp":24,"dewp":23,"wdir":90,"wspd":3,"visib":4.97,"altim":1014,"clouds":[{"cover":"FEW","base":1500},{"cover":"BKN","base":2000},{"cover":"BKN","base":6000}],"obsTime":1778648400},"SBMQ":{"icaoId":"SBMQ","flightCategory":"LIFR","rawOb":"METAR SBMQ 130500Z 27005KT 9999 OVC004 24/24 Q1012","temp":24,"dewp":24,"wdir":270,"wspd":5,"visib":"6+","altim":1012,"clouds":[{"cover":"OVC","base":400}],"obsTime":1778648400},"SBCT":{"icaoId":"SBCT","flightCategory":"VFR","rawOb":"METAR SBCT 130500Z 10001KT CAVOK 06/05 Q1020","temp":6,"dewp":5,"wdir":100,"wspd":1,"visib":"6+","altim":1020,"clouds":[],"obsTime":1778648400},"SBEG":{"icaoId":"SBEG","flightCategory":"VFR","rawOb":"METAR SBEG 130500Z 00000KT 9999 SCT008 BKN100 24/24 Q1016","temp":24,"dewp":24,"wdir":0,"wspd":0,"visib":"6+","altim":1016,"clouds":[{"cover":"SCT","base":800},{"cover":"BKN","base":10000}],"obsTime":1778648400},"SBNT":{"icaoId":"SBNT","flightCategory":"IFR","rawOb":"METAR SBNT 130500Z 20013KT 5000 -RA BR BKN007 BKN021 OVC027 23/22 Q1012","temp":23,"dewp":22,"wdir":200,"wspd":13,"visib":3.11,"altim":1012,"clouds":[{"cover":"BKN","base":700},{"cover":"BKN","base":2100},{"cover":"OVC","base":2700}],"obsTime":1778648400},"SBPA":{"icaoId":"SBPA","flightCategory":"VFR","rawOb":"METAR SBPA 130500Z 28006KT CAVOK 11/09 Q1017","temp":11,"dewp":9,"wdir":280,"wspd":6,"visib":"6+","altim":1017,"clouds":[],"obsTime":1778648400},"SBGO":{"icaoId":"SBGO","flightCategory":"VFR","rawOb":"METAR SBGO 130500Z 13003KT CAVOK 21/17 Q1018","temp":21,"dewp":17,"wdir":130,"wspd":3,"visib":"6+","altim":1018,"clouds":[],"obsTime":1778648400},"SBBR":{"icaoId":"SBBR","flightCategory":"VFR","rawOb":"METAR SBBR 130500Z VRB01KT CAVOK 18/15 Q1020","temp":18,"dewp":15,"wdir":"VRB","wspd":1,"visib":"6+","altim":1020,"clouds":[],"obsTime":1778648400},"SBPJ":{"icaoId":"SBPJ","flightCategory":"VFR","rawOb":"METAR SBPJ 130500Z 11003KT CAVOK 24/21 Q1014","temp":24,"dewp":21,"wdir":110,"wspd":3,"visib":"6+","altim":1014,"clouds":[],"obsTime":1778648400},"SBPV":{"icaoId":"SBPV","flightCategory":"VFR","rawOb":"METAR SBPV 130500Z 00000KT CAVOK 23/19 Q1015","temp":23,"dewp":19,"wdir":0,"wspd":0,"visib":"6+","altim":1015,"clouds":[],"obsTime":1778648400},"SBGR":{"icaoId":"SBGR","flightCategory":"MVFR","rawOb":"METAR SBGR 130500Z 08002KT 7000 NSC 10/08 Q1019","temp":10,"dewp":8,"wdir":80,"wspd":2,"visib":4.35,"altim":1019,"clouds":[],"obsTime":1778648400},"SBJU":{"icaoId":"SBJU","flightCategory":"VFR","rawOb":"METAR SBJU 130500Z 11006KT 9999 SCT019 25/19 Q1015","temp":25,"dewp":19,"wdir":110,"wspd":6,"visib":"6+","altim":1015,"clouds":[{"cover":"SCT","base":1900}],"obsTime":1778648400},"SBRB":{"icaoId":"SBRB","flightCategory":"VFR","rawOb":"METAR SBRB 130500Z 22003KT CAVOK 20/19 Q1016","temp":20,"dewp":19,"wdir":220,"wspd":3,"visib":"6+","altim":1016,"clouds":[],"obsTime":1778648400},"SBRF":{"icaoId":"SBRF","flightCategory":"MVFR","rawOb":"METAR SBRF 130500Z 14011KT 9999 BKN021 BKN060 27/24 Q1012","temp":27,"dewp":24,"wdir":140,"wspd":11,"visib":"6+","altim":1012,"clouds":[{"cover":"BKN","base":2100},{"cover":"BKN","base":6000}],"obsTime":1778648400},"SBBV":{"icaoId":"SBBV","flightCategory":"IFR","rawOb":"METAR SBBV 130500Z 16002KT 8000 -SHRA BKN005 BKN015 FEW030TCU OVC100 24/23 Q1015","temp":24,"dewp":23,"wdir":160,"wspd":2,"visib":4.97,"altim":1015,"clouds":[{"cover":"BKN","base":500},{"cover":"BKN","base":1500},{"cover":"FEW","base":3000},{"cover":"OVC","base":10000}],"obsTime":1778648400},"SBSG":{"icaoId":"SBSG","flightCategory":"IFR","rawOb":"METAR SBSG 130500Z 18008KT 6000 -SHRA BKN005 23/23 Q1012 RESHRA","temp":23,"dewp":23,"wdir":180,"wspd":8,"visib":3.73,"altim":1012,"clouds":[{"cover":"BKN","base":500}],"obsTime":1778648400},"SBKP":{"icaoId":"SBKP","flightCategory":"VFR","rawOb":"METAR SBKP 130500Z 11006KT CAVOK 12/10 Q1019","temp":12,"dewp":10,"wdir":110,"wspd":6,"visib":"6+","altim":1019,"clouds":[],"obsTime":1778648400},"SBSL":{"icaoId":"SBSL","flightCategory":"VFR","rawOb":"METAR SBSL 130500Z 31002KT 9999 SCT020 FEW025TCU BKN100 24/23 Q1011","temp":24,"dewp":23,"wdir":310,"wspd":2,"visib":"6+","altim":1011,"clouds":[{"cover":"SCT","base":2000},{"cover":"FEW","base":2500},{"cover":"BKN","base":10000}],"obsTime":1778648400},"SBFI":{"icaoId":"SBFI","flightCategory":"VFR","rawOb":"METAR SBFI 130500Z 12002KT CAVOK 08/08 Q1018","temp":8,"dewp":8,"wdir":120,"wspd":2,"visib":"6+","altim":1018,"clouds":[],"obsTime":1778648400},"SBSN":{"icaoId":"SBSN","flightCategory":"VFR","rawOb":"METAR SBSN 130500Z 35003KT 9999 SCT011 26/24 Q1013","temp":26,"dewp":24,"wdir":350,"wspd":3,"visib":"6+","altim":1013,"clouds":[{"cover":"SCT","base":1100}],"obsTime":1778648400},"SBCG":{"icaoId":"SBCG","flightCategory":"VFR","rawOb":"METAR SBCG 130500Z 15004KT CAVOK 13/11 Q1018","temp":13,"dewp":11,"wdir":150,"wspd":4,"visib":"6+","altim":1018,"clouds":[],"obsTime":1778648400},"SBLO":{"icaoId":"SBLO","flightCategory":"VFR","rawOb":"METAR SBLO 130500Z 18003KT CAVOK 12/09 Q1019","temp":12,"dewp":9,"wdir":180,"wspd":3,"visib":"6+","altim":1019,"clouds":[],"obsTime":1778648400},"SBSP":{"icaoId":"SBSP","flightCategory":"MVFR","rawOb":"METAR SBSP 130500Z AUTO VRB01KT 6000 NCD 13/12 Q1020","temp":13,"dewp":12,"wdir":"VRB","wspd":1,"visib":3.73,"altim":1020,"clouds":[],"obsTime":1778648400},"SBSV":{"icaoId":"SBSV","flightCategory":"VFR","rawOb":"METAR SBSV 130500Z 14007KT 9999 SCT023 SCT070 27/21 Q1015","temp":27,"dewp":21,"wdir":140,"wspd":7,"visib":"6+","altim":1015,"clouds":[{"cover":"SCT","base":2300},{"cover":"SCT","base":7000}],"obsTime":1778648400},"SBFL":{"icaoId":"SBFL","flightCategory":"VFR","rawOb":"METAR SBFL 130500Z 23004KT CAVOK 12/10 Q1015","temp":12,"dewp":10,"wdir":230,"wspd":4,"visib":"6+","altim":1015,"clouds":[],"obsTime":1778648400},"SBTE":{"icaoId":"SBTE","flightCategory":"VFR","rawOb":"METAR SBTE 130500Z 03003KT 9999 FEW020 SCT080 26/25 Q1011","temp":26,"dewp":25,"wdir":30,"wspd":3,"visib":"6+","altim":1011,"clouds":[{"cover":"FEW","base":2000},{"cover":"SCT","base":8000}],"obsTime":1778648400},"SBMA":{"icaoId":"SBMA","flightCategory":"VFR","rawOb":"METAR SBMA 130500Z 21003KT 9999 FEW010 SCT080 26/25 Q1012","temp":26,"dewp":25,"wdir":210,"wspd":3,"visib":"6+","altim":1012,"clouds":[{"cover":"FEW","base":1000},{"cover":"SCT","base":8000}],"obsTime":1778648400},"SBUL":{"icaoId":"SBUL","flightCategory":"VFR","rawOb":"METAR SBUL 130500Z 21006KT CAVOK 18/11 Q1020","temp":18,"dewp":11,"wdir":210,"wspd":6,"visib":"6+","altim":1020,"clouds":[],"obsTime":1778648400},"SBME":{"icaoId":"SBME","flightCategory":"VFR","rawOb":"METAR SBME 130500Z 01002KT CAVOK 18/16 Q1017","temp":18,"dewp":16,"wdir":10,"wspd":2,"visib":"6+","altim":1017,"clouds":[],"obsTime":1778648400},"SBUR":{"icaoId":"SBUR","flightCategory":"VFR","rawOb":"METAR SBUR 130500Z 20002KT CAVOK 19/07 Q1019","temp":19,"dewp":7,"wdir":200,"wspd":2,"visib":"6+","altim":1019,"clouds":[],"obsTime":1778648400},"SBFZ":{"icaoId":"SBFZ","flightCategory":"MVFR","rawOb":"METAR SBFZ 130500Z 17006KT 9999 BKN017 26/25 Q1010","temp":26,"dewp":25,"wdir":170,"wspd":6,"visib":"6+","altim":1010,"clouds":[{"cover":"BKN","base":1700}],"obsTime":1778648400},"SBVT":{"icaoId":"SBVT","flightCategory":"VFR","rawOb":"METAR SBVT 130500Z 29003KT 9999 BKN040 21/18 Q1017","temp":21,"dewp":18,"wdir":290,"wspd":3,"visib":"6+","altim":1017,"clouds":[{"cover":"BKN","base":4000}],"obsTime":1778648400},"SBBE":{"icaoId":"SBBE","flightCategory":"MVFR","rawOb":"METAR SBBE 130500Z 35002KT 8000 -RA SCT005 BKN015 BKN030 24/24 Q1012","temp":24,"dewp":24,"wdir":350,"wspd":2,"visib":4.97,"altim":1012,"clouds":[{"cover":"SCT","base":500},{"cover":"BKN","base":1500},{"cover":"BKN","base":3000}],"obsTime":1778648400},"SBOI":{"icaoId":"SBOI","flightCategory":"VFR","rawOb":"METAR SBOI 130500Z AUTO 33002KT 9000 // SCT026/// 24/24 Q1013","temp":24,"dewp":24,"wdir":330,"wspd":2,"visib":5.59,"altim":1013,"clouds":[{"cover":"SCT","base":2600}],"obsTime":1778648400},"SBTU":{"icaoId":"SBTU","flightCategory":"VFR","rawOb":"METAR SBTU 130500Z AUTO 09006KT 9999 // ///////// ///// Q1013","temp":null,"dewp":null,"wdir":90,"wspd":6,"visib":"6+","altim":1013,"clouds":[],"obsTime":1778648400},"SBAX":{"icaoId":"SBAX","flightCategory":"VFR","rawOb":"METAR SBAX 130500Z AUTO VRB01KT CAVOK 19/15 Q1020","temp":19,"dewp":15,"wdir":"VRB","wspd":1,"visib":"6+","altim":1020,"clouds":[],"obsTime":1778648400},"SBDN":{"icaoId":"SBDN","flightCategory":"VFR","rawOb":"METAR SBDN 130500Z 12006KT CAVOK 12/08 Q1018","temp":12,"dewp":8,"wdir":120,"wspd":6,"visib":"6+","altim":1018,"clouds":[],"obsTime":1778648400},"SBIP":{"icaoId":"SBIP","flightCategory":"VFR","rawOb":"METAR SBIP 130500Z AUTO 03002KT 9999 FEW027 OVC039 22/21 Q1018","temp":22,"dewp":21,"wdir":30,"wspd":2,"visib":"6+","altim":1018,"clouds":[{"cover":"FEW","base":2700},{"cover":"OVC","base":3900}],"obsTime":1778648400},"SBKG":{"icaoId":"SBKG","flightCategory":"IFR","rawOb":"METAR SBKG 130500Z 16005KT 6000 -RA BKN005 BKN008 BKN070 21/20 Q1015","temp":21,"dewp":20,"wdir":160,"wspd":5,"visib":3.73,"altim":1015,"clouds":[{"cover":"BKN","base":500},{"cover":"BKN","base":800},{"cover":"BKN","base":7000}],"obsTime":1778648400},"SBPL":{"icaoId":"SBPL","flightCategory":"VFR","rawOb":"METAR SBPL 130500Z 12006KT 9999 FEW022 25/21 Q1015","temp":25,"dewp":21,"wdir":120,"wspd":6,"visib":"6+","altim":1015,"clouds":[{"cover":"FEW","base":2200}],"obsTime":1778648400},"SBPS":{"icaoId":"SBPS","flightCategory":"MVFR","rawOb":"METAR SBPS 130500Z 11005KT 9000 SCT006 BKN015 OVC070 23/22 Q1016","temp":23,"dewp":22,"wdir":110,"wspd":5,"visib":5.59,"altim":1016,"clouds":[{"cover":"SCT","base":600},{"cover":"BKN","base":1500},{"cover":"OVC","base":7000}],"obsTime":1778648400},"SBSC":{"icaoId":"SBSC","flightCategory":"VFR","rawOb":"METAR SBSC 130500Z 04004KT 9999 FEW020 SCT030 17/16 Q1018","temp":17,"dewp":16,"wdir":40,"wspd":4,"visib":"6+","altim":1018,"clouds":[{"cover":"FEW","base":2000},{"cover":"SCT","base":3000}],"obsTime":1778648400},"SBSR":{"icaoId":"SBSR","flightCategory":"VFR","rawOb":"METAR SBSR 130500Z 20003KT CAVOK 17/05 Q1018","temp":17,"dewp":5,"wdir":200,"wspd":3,"visib":"6+","altim":1018,"clouds":[],"obsTime":1778648400},"SBAR":{"icaoId":"SBAR","flightCategory":"VFR","rawOb":"METAR SBAR 130500Z 14006KT 9999 SCT020 SCT050 27/23 Q1014","temp":27,"dewp":23,"wdir":140,"wspd":6,"visib":"6+","altim":1014,"clouds":[{"cover":"SCT","base":2000},{"cover":"SCT","base":5000}],"obsTime":1778648400},"SBNM":{"icaoId":"SBNM","flightCategory":"VFR","rawOb":"METAR SBNM 130500Z AUTO 12003KT CAVOK 07/04 Q1018","temp":7,"dewp":4,"wdir":120,"wspd":3,"visib":"6+","altim":1018,"clouds":[],"obsTime":1778648400},"SBAN":{"icaoId":"SBAN","flightCategory":"VFR","rawOb":"METAR SBAN 130500Z 20006KT CAVOK 20/17 Q1022","temp":20,"dewp":17,"wdir":200,"wspd":6,"visib":"6+","altim":1022,"clouds":[],"obsTime":1778648400},"SBLE":{"icaoId":"SBLE","flightCategory":"VFR","rawOb":"METAR SBLE 130500Z AUTO 09004KT 9999 FEW045 ///// Q////","temp":null,"dewp":null,"wdir":90,"wspd":4,"visib":"6+","altim":null,"clouds":[{"cover":"FEW","base":4500}],"obsTime":1778648400},"SBJP":{"icaoId":"SBJP","flightCategory":"IFR","rawOb":"METAR SBJP 130500Z 15009KT 4000 -RA BKN006 BKN025 BKN070 23/23 Q1013","temp":23,"dewp":23,"wdir":150,"wspd":9,"visib":2.49,"altim":1013,"clouds":[{"cover":"BKN","base":600},{"cover":"BKN","base":2500},{"cover":"BKN","base":7000}],"obsTime":1778648400}}}