{"updated":1775375368,"count":49,"data":{"SBGR":{"icaoId":"SBGR","flightCategory":"VFR","rawOb":"METAR SBGR 050600Z 05001KT 9999 SCT006 20/19 Q1018","temp":20,"dewp":19,"wdir":50,"wspd":1,"visib":"6+","altim":1018,"clouds":[{"cover":"SCT","base":600}],"obsTime":1775368800},"SBRB":{"icaoId":"SBRB","flightCategory":"VFR","rawOb":"METAR SBRB 050600Z 13004KT 9999 FEW011 BKN100 23/23 Q1012","temp":23,"dewp":23,"wdir":130,"wspd":4,"visib":"6+","altim":1012,"clouds":[{"cover":"FEW","base":1100},{"cover":"BKN","base":10000}],"obsTime":1775368800},"SBBV":{"icaoId":"SBBV","flightCategory":"MVFR","rawOb":"METAR SBBV 050600Z 09004KT 9999 BKN013 BKN020 FEW025TCU BKN100 24/23 Q1013","temp":24,"dewp":23,"wdir":90,"wspd":4,"visib":"6+","altim":1013,"clouds":[{"cover":"BKN","base":1300},{"cover":"BKN","base":2000},{"cover":"FEW","base":2500},{"cover":"BKN","base":10000}],"obsTime":1775368800},"SBFZ":{"icaoId":"SBFZ","flightCategory":"VFR","rawOb":"METAR SBFZ 050600Z 18005KT 130V200 9999 SCT022 26/24 Q1009","temp":26,"dewp":24,"wdir":180,"wspd":5,"visib":"6+","altim":1009,"clouds":[{"cover":"SCT","base":2200}],"obsTime":1775368800},"SBBR":{"icaoId":"SBBR","flightCategory":"VFR","rawOb":"METAR SBBR 050600Z 30002KT CAVOK 19/17 Q1019","temp":19,"dewp":17,"wdir":300,"wspd":2,"visib":"6+","altim":1019,"clouds":[],"obsTime":1775368800},"SBCF":{"icaoId":"SBCF","flightCategory":"VFR","rawOb":"METAR SBCF 050600Z 15004KT CAVOK 21/19 Q1018","temp":21,"dewp":19,"wdir":150,"wspd":4,"visib":"6+","altim":1018,"clouds":[],"obsTime":1775368800},"SBCG":{"icaoId":"SBCG","flightCategory":"VFR","rawOb":"METAR SBCG 050600Z 34006KT 9999 TS FEW035CB SCT090 22/21 Q1016","temp":22,"dewp":21,"wdir":340,"wspd":6,"visib":"6+","altim":1016,"clouds":[{"cover":"FEW","base":3500},{"cover":"SCT","base":9000}],"obsTime":1775368800},"SBCT":{"icaoId":"SBCT","flightCategory":"IFR","rawOb":"METAR SBCT 050600Z 13003KT 3000 BR BKN005 19/19 Q1019","temp":19,"dewp":19,"wdir":130,"wspd":3,"visib":1.86,"altim":1019,"clouds":[{"cover":"BKN","base":500}],"obsTime":1775368800},"SBEG":{"icaoId":"SBEG","flightCategory":"MVFR","rawOb":"METAR SBEG 050600Z 33002KT 9999 BKN012 22/22 Q1011","temp":22,"dewp":22,"wdir":330,"wspd":2,"visib":"6+","altim":1011,"clouds":[{"cover":"BKN","base":1200}],"obsTime":1775368800},"SBFI":{"icaoId":"SBFI","flightCategory":"VFR","rawOb":"METAR SBFI 050600Z 18004KT CAVOK 22/22 Q1014","temp":22,"dewp":22,"wdir":180,"wspd":4,"visib":"6+","altim":1014,"clouds":[],"obsTime":1775368800},"SBFL":{"icaoId":"SBFL","flightCategory":"VFR","rawOb":"METAR SBFL 050600Z 26002KT 9999 FEW025 SCT070 23/23 Q1015","temp":23,"dewp":23,"wdir":260,"wspd":2,"visib":"6+","altim":1015,"clouds":[{"cover":"FEW","base":2500},{"cover":"SCT","base":7000}],"obsTime":1775368800},"SBBE":{"icaoId":"SBBE","flightCategory":"VFR","rawOb":"METAR SBBE 050600Z 08003KT CAVOK 25/25 Q1010","temp":25,"dewp":25,"wdir":80,"wspd":3,"visib":"6+","altim":1010,"clouds":[],"obsTime":1775368800},"SBGL":{"icaoId":"SBGL","flightCategory":"VFR","rawOb":"METAR SBGL 050600Z 06003KT CAVOK 23/22 Q1013","temp":23,"dewp":22,"wdir":60,"wspd":3,"visib":"6+","altim":1013,"clouds":[],"obsTime":1775368800},"SBGO":{"icaoId":"SBGO","flightCategory":"VFR","rawOb":"METAR SBGO 050600Z 29002KT CAVOK 21/20 Q1017","temp":21,"dewp":20,"wdir":290,"wspd":2,"visib":"6+","altim":1017,"clouds":[],"obsTime":1775368800},"SBJU":{"icaoId":"SBJU","flightCategory":"MVFR","rawOb":"METAR SBJU 050600Z 00000KT 9999 BKN020 24/22 Q1013","temp":24,"dewp":22,"wdir":0,"wspd":0,"visib":"6+","altim":1013,"clouds":[{"cover":"BKN","base":2000}],"obsTime":1775368800},"SBKP":{"icaoId":"SBKP","flightCategory":"VFR","rawOb":"METAR SBKP 050600Z 15003KT CAVOK 21/19 Q1017","temp":21,"dewp":19,"wdir":150,"wspd":3,"visib":"6+","altim":1017,"clouds":[],"obsTime":1775368800},"SBLO":{"icaoId":"SBLO","flightCategory":"VFR","rawOb":"METAR SBLO 050600Z 22002KT CAVOK 22/20 Q1015","temp":22,"dewp":20,"wdir":220,"wspd":2,"visib":"6+","altim":1015,"clouds":[],"obsTime":1775368800},"SBMA":{"icaoId":"SBMA","flightCategory":"VFR","rawOb":"METAR SBMA 050600Z 00000KT 9999 SCT015 26/25 Q1010","temp":26,"dewp":25,"wdir":0,"wspd":0,"visib":"6+","altim":1010,"clouds":[{"cover":"SCT","base":1500}],"obsTime":1775368800},"SBME":{"icaoId":"SBME","flightCategory":"VFR","rawOb":"METAR SBME 050600Z 11001KT CAVOK 23/22 Q1013","temp":23,"dewp":22,"wdir":110,"wspd":1,"visib":"6+","altim":1013,"clouds":[],"obsTime":1775368800},"SBMG":{"icaoId":"SBMG","flightCategory":"VFR","rawOb":"METAR SBMG 050600Z AUTO 16005KT CAVOK 23/18 Q1014","temp":23,"dewp":18,"wdir":160,"wspd":5,"visib":"6+","altim":1014,"clouds":[],"obsTime":1775368800},"SBMO":{"icaoId":"SBMO","flightCategory":"VFR","rawOb":"METAR SBMO 050600Z 20001KT 9999 VCSH SCT017 SCT070 24/24 Q1012","temp":24,"dewp":24,"wdir":200,"wspd":1,"visib":"6+","altim":1012,"clouds":[{"cover":"SCT","base":1700},{"cover":"SCT","base":7000}],"obsTime":1775368800},"SBMQ":{"icaoId":"SBMQ","flightCategory":"IFR","rawOb":"METAR SBMQ 050600Z 02006KT 3000 -RA BR BKN005 BKN035 OVC060 24/24 Q1011","temp":24,"dewp":24,"wdir":20,"wspd":6,"visib":1.86,"altim":1011,"clouds":[{"cover":"BKN","base":500},{"cover":"BKN","base":3500},{"cover":"OVC","base":6000}],"obsTime":1775368800},"SBNT":{"icaoId":"SBNT","flightCategory":"VFR","rawOb":"METAR SBNT 050600Z 18004KT 9999 SCT020 25/24 Q1010","temp":25,"dewp":24,"wdir":180,"wspd":4,"visib":"6+","altim":1010,"clouds":[{"cover":"SCT","base":2000}],"obsTime":1775368800},"SBPA":{"icaoId":"SBPA","flightCategory":"IFR","rawOb":"METAR SBPA 050600Z 16008KT 4000 -RA BR BKN008 BKN013 OVC030 21/20 Q1017","temp":21,"dewp":20,"wdir":160,"wspd":8,"visib":2.49,"altim":1017,"clouds":[{"cover":"BKN","base":800},{"cover":"BKN","base":1300},{"cover":"OVC","base":3000}],"obsTime":1775368800},"SBPJ":{"icaoId":"SBPJ","flightCategory":"VFR","rawOb":"METAR SBPJ 050600Z 17004KT 9999 VCTS FEW025 FEW030CB BKN080 26/24 Q1012 RETS","temp":26,"dewp":24,"wdir":170,"wspd":4,"visib":"6+","altim":1012,"clouds":[{"cover":"FEW","base":2500},{"cover":"FEW","base":3000},{"cover":"BKN","base":8000}],"obsTime":1775368800},"SBPV":{"icaoId":"SBPV","flightCategory":"VFR","rawOb":"METAR SBPV 050600Z 16002KT 9999 SCT004 23/22 Q1011","temp":23,"dewp":22,"wdir":160,"wspd":2,"visib":"6+","altim":1011,"clouds":[{"cover":"SCT","base":400}],"obsTime":1775368800},"SBRF":{"icaoId":"SBRF","flightCategory":"VFR","rawOb":"METAR SBRF 050600Z 34001KT 9999 SCT021 25/23 Q1011","temp":25,"dewp":23,"wdir":340,"wspd":1,"visib":"6+","altim":1011,"clouds":[{"cover":"SCT","base":2100}],"obsTime":1775368800},"SBSG":{"icaoId":"SBSG","flightCategory":"VFR","rawOb":"METAR SBSG 050600Z 19004KT 9999 SCT020 24/23 Q1011","temp":24,"dewp":23,"wdir":190,"wspd":4,"visib":"6+","altim":1011,"clouds":[{"cover":"SCT","base":2000}],"obsTime":1775368800},"SBSL":{"icaoId":"SBSL","flightCategory":"VFR","rawOb":"METAR SBSL 050600Z 13003KT 9999 FEW030 SCT100 25/25 Q1010","temp":25,"dewp":25,"wdir":130,"wspd":3,"visib":"6+","altim":1010,"clouds":[{"cover":"FEW","base":3000},{"cover":"SCT","base":10000}],"obsTime":1775368800},"SBSN":{"icaoId":"SBSN","flightCategory":"VFR","rawOb":"METAR SBSN 050600Z 07003KT 9999 SCT010 SCT020 BKN100 24/23 Q1010","temp":24,"dewp":23,"wdir":70,"wspd":3,"visib":"6+","altim":1010,"clouds":[{"cover":"SCT","base":1000},{"cover":"SCT","base":2000},{"cover":"BKN","base":10000}],"obsTime":1775368800},"SBSV":{"icaoId":"SBSV","flightCategory":"MVFR","rawOb":"METAR SBSV 050600Z 35003KT 9999 SCT018 BKN030 BKN100 24/23 Q1012","temp":24,"dewp":23,"wdir":350,"wspd":3,"visib":"6+","altim":1012,"clouds":[{"cover":"SCT","base":1800},{"cover":"BKN","base":3000},{"cover":"BKN","base":10000}],"obsTime":1775368800},"SBTE":{"icaoId":"SBTE","flightCategory":"VFR","rawOb":"METAR SBTE 050600Z 33003KT 270V360 9999 -RA VCTS SCT015 FEW030CB BKN090 26/24 Q1010","temp":26,"dewp":24,"wdir":330,"wspd":3,"visib":"6+","altim":1010,"clouds":[{"cover":"SCT","base":1500},{"cover":"FEW","base":3000},{"cover":"BKN","base":9000}],"obsTime":1775368800},"SBUL":{"icaoId":"SBUL","flightCategory":"VFR","rawOb":"METAR SBUL 050600Z 12006KT CAVOK 21/17 Q1019","temp":21,"dewp":17,"wdir":120,"wspd":6,"visib":"6+","altim":1019,"clouds":[],"obsTime":1775368800},"SBUR":{"icaoId":"SBUR","flightCategory":"VFR","rawOb":"METAR SBUR 050600Z 02005KT CAVOK 21/18 Q1018","temp":21,"dewp":18,"wdir":20,"wspd":5,"visib":"6+","altim":1018,"clouds":[],"obsTime":1775368800},"SBVT":{"icaoId":"SBVT","flightCategory":"VFR","rawOb":"METAR SBVT 050600Z 33002KT CAVOK 23/23 Q1014","temp":23,"dewp":23,"wdir":330,"wspd":2,"visib":"6+","altim":1014,"clouds":[],"obsTime":1775368800},"SBSP":{"icaoId":"SBSP","flightCategory":"VFR","rawOb":"METAR SBSP 050600Z AUTO 05003KT 020V100 CAVOK 21/18 Q1019","temp":21,"dewp":18,"wdir":50,"wspd":3,"visib":"6+","altim":1019,"clouds":[],"obsTime":1775368800},"SBSR":{"icaoId":"SBSR","flightCategory":"VFR","rawOb":"METAR SBSR 050600Z 07002KT 9999 FEW030 SCT070 24/20 Q1016","temp":24,"dewp":20,"wdir":70,"wspd":2,"visib":"6+","altim":1016,"clouds":[{"cover":"FEW","base":3000},{"cover":"SCT","base":7000}],"obsTime":1775368800},"SBAR":{"icaoId":"SBAR","flightCategory":"VFR","rawOb":"METAR SBAR 050600Z VRB01KT 9999 FEW021 24/23 Q1011","temp":24,"dewp":23,"wdir":"VRB","wspd":1,"visib":"6+","altim":1011,"clouds":[{"cover":"FEW","base":2100}],"obsTime":1775368800},"SBAX":{"icaoId":"SBAX","flightCategory":"VFR","rawOb":"METAR SBAX 050600Z AUTO 16004KT 130V190 CAVOK ///// Q1019","temp":null,"dewp":null,"wdir":160,"wspd":4,"visib":"6+","altim":1019,"clouds":[],"obsTime":1775368800},"SBDN":{"icaoId":"SBDN","flightCategory":"VFR","rawOb":"METAR SBDN 050600Z 04002KT CAVOK 23/19 Q1014","temp":23,"dewp":19,"wdir":40,"wspd":2,"visib":"6+","altim":1014,"clouds":[],"obsTime":1775368800},"SBIP":{"icaoId":"SBIP","flightCategory":"MVFR","rawOb":"METAR SBIP 050600Z AUTO VRB02KT 9999 BKN028 BKN037 24/23 Q1016","temp":24,"dewp":23,"wdir":"VRB","wspd":2,"visib":"6+","altim":1016,"clouds":[{"cover":"BKN","base":2800},{"cover":"BKN","base":3700}],"obsTime":1775368800},"SBKG":{"icaoId":"SBKG","flightCategory":"VFR","rawOb":"METAR SBKG 050600Z 08003KT 9999 FEW009 22/21 Q1014","temp":22,"dewp":21,"wdir":80,"wspd":3,"visib":"6+","altim":1014,"clouds":[{"cover":"FEW","base":900}],"obsTime":1775368800},"SBOI":{"icaoId":"SBOI","flightCategory":"VFR","rawOb":"METAR SBOI 050700Z AUTO 00000KT 9999 // SCT025/// 24/23 Q1011","temp":24,"dewp":23,"wdir":0,"wspd":0,"visib":"6+","altim":1011,"clouds":[{"cover":"SCT","base":2500}],"obsTime":1775372400},"SBPL":{"icaoId":"SBPL","flightCategory":"VFR","rawOb":"METAR SBPL 050600Z 10009KT 9999 FEW020 SCT070 26/21 Q1013","temp":26,"dewp":21,"wdir":100,"wspd":9,"visib":"6+","altim":1013,"clouds":[{"cover":"FEW","base":2000},{"cover":"SCT","base":7000}],"obsTime":1775368800},"SBPS":{"icaoId":"SBPS","flightCategory":"MVFR","rawOb":"METAR SBPS 050600Z 28003KT 220V300 9999 BKN016 24/23 Q1014","temp":24,"dewp":23,"wdir":280,"wspd":3,"visib":"6+","altim":1014,"clouds":[{"cover":"BKN","base":1600}],"obsTime":1775368800},"SBSC":{"icaoId":"SBSC","flightCategory":"VFR","rawOb":"METAR SBSC 050600Z 05003KT CAVOK 22/21 Q1013","temp":22,"dewp":21,"wdir":50,"wspd":3,"visib":"6+","altim":1013,"clouds":[],"obsTime":1775368800},"SBJP":{"icaoId":"SBJP","flightCategory":"VFR","rawOb":"METAR SBJP 050600Z 18003KT 9999 FEW025 24/23 Q1011","temp":24,"dewp":23,"wdir":180,"wspd":3,"visib":"6+","altim":1011,"clouds":[{"cover":"FEW","base":2500}],"obsTime":1775368800},"SBAN":{"icaoId":"SBAN","flightCategory":"VFR","rawOb":"METAR SBAN 050600Z 12004KT 9999 FEW030 19/18 Q1021","temp":19,"dewp":18,"wdir":120,"wspd":4,"visib":"6+","altim":1021,"clouds":[{"cover":"FEW","base":3000}],"obsTime":1775368800},"SBLE":{"icaoId":"SBLE","flightCategory":"MVFR","rawOb":"METAR SBLE 050600Z AUTO 17003KT 9999 FEW016 OVC019 ///// Q////","temp":null,"dewp":null,"wdir":170,"wspd":3,"visib":"6+","altim":null,"clouds":[{"cover":"FEW","base":1600},{"cover":"OVC","base":1900}],"obsTime":1775368800}}}