{"updated":1783720418,"count":85,"data":{"SBFL":{"icaoId":"SBFL","flightCategory":"VFR","rawOb":"METAR SBFL 102000Z 32003KT 280V010 9999 FEW040 OVC080 17/15 Q1014","temp":17,"dewp":15,"wdir":320,"wspd":3,"visib":"6+","altim":1014,"clouds":[{"cover":"FEW","base":4000},{"cover":"OVC","base":8000}],"obsTime":1783713600},"SBBE":{"icaoId":"SBBE","flightCategory":"VFR","rawOb":"METAR SBBE 102000Z 05014KT 9999 BKN040 FEW045TCU BKN090 30/23 Q1011","temp":30,"dewp":23,"wdir":50,"wspd":14,"visib":"6+","altim":1011,"clouds":[{"cover":"BKN","base":4000},{"cover":"FEW","base":4500},{"cover":"BKN","base":9000}],"obsTime":1783713600},"SBMO":{"icaoId":"SBMO","flightCategory":"VFR","rawOb":"METAR SBMO 102000Z 12008KT 9999 SCT023 26/21 Q1015","temp":26,"dewp":21,"wdir":120,"wspd":8,"visib":"6+","altim":1015,"clouds":[{"cover":"SCT","base":2300}],"obsTime":1783713600},"SBCZ":{"icaoId":"SBCZ","flightCategory":"VFR","rawOb":"METAR SBCZ 102000Z 27005KT 9000 -TSRA SCT025 BKN035 FEW035CB 28/25 Q1011 RESHRA","temp":28,"dewp":25,"wdir":270,"wspd":5,"visib":5.59,"altim":1011,"clouds":[{"cover":"SCT","base":2500},{"cover":"BKN","base":3500},{"cover":"FEW","base":3500}],"obsTime":1783713600},"SBNT":{"icaoId":"SBNT","flightCategory":"VFR","rawOb":"METAR SBNT 102000Z 15014KT 9999 SCT028 27/23 Q1014","temp":27,"dewp":23,"wdir":150,"wspd":14,"visib":"6+","altim":1014,"clouds":[{"cover":"SCT","base":2800}],"obsTime":1783713600},"SBFZ":{"icaoId":"SBFZ","flightCategory":"VFR","rawOb":"METAR SBFZ 102000Z 10012KT CAVOK 28/23 Q1012","temp":28,"dewp":23,"wdir":100,"wspd":12,"visib":"6+","altim":1012,"clouds":[],"obsTime":1783713600},"SBSL":{"icaoId":"SBSL","flightCategory":"VFR","rawOb":"METAR SBSL 102000Z 06015KT CAVOK 30/22 Q1011","temp":30,"dewp":22,"wdir":60,"wspd":15,"visib":"6+","altim":1011,"clouds":[],"obsTime":1783713600},"SBRB":{"icaoId":"SBRB","flightCategory":"VFR","rawOb":"METAR SBRB 102000Z 00000KT 9999 VCSH SCT020 SCT100 32/22 Q1010","temp":32,"dewp":22,"wdir":0,"wspd":0,"visib":"6+","altim":1010,"clouds":[{"cover":"SCT","base":2000},{"cover":"SCT","base":10000}],"obsTime":1783713600},"SBCT":{"icaoId":"SBCT","flightCategory":"MVFR","rawOb":"METAR SBCT 102000Z 19003KT 130V230 5000 -RA BR SCT045 FEW050TCU BKN090 15/14 Q1018","temp":15,"dewp":14,"wdir":190,"wspd":3,"visib":3.11,"altim":1018,"clouds":[{"cover":"SCT","base":4500},{"cover":"FEW","base":5000},{"cover":"BKN","base":9000}],"obsTime":1783713600},"SBPJ":{"icaoId":"SBPJ","flightCategory":"VFR","rawOb":"METAR SBPJ 102000Z 25003KT 9999 FEW033 SCT050 32/20 Q1012","temp":32,"dewp":20,"wdir":250,"wspd":3,"visib":"6+","altim":1012,"clouds":[{"cover":"FEW","base":3300},{"cover":"SCT","base":5000}],"obsTime":1783713600},"SBSG":{"icaoId":"SBSG","flightCategory":"VFR","rawOb":"METAR SBSG 102000Z 13007KT 090V230 9999 FEW030 SCT050 27/23 Q1014","temp":27,"dewp":23,"wdir":130,"wspd":7,"visib":"6+","altim":1014,"clouds":[{"cover":"FEW","base":3000},{"cover":"SCT","base":5000}],"obsTime":1783713600},"SBEG":{"icaoId":"SBEG","flightCategory":"VFR","rawOb":"METAR SBEG 102000Z 04002KT 9999 FEW030 FEW035TCU 26/23 Q1009","temp":26,"dewp":23,"wdir":40,"wspd":2,"visib":"6+","altim":1009,"clouds":[{"cover":"FEW","base":3000},{"cover":"FEW","base":3500}],"obsTime":1783713600},"SBBR":{"icaoId":"SBBR","flightCategory":"VFR","rawOb":"METAR SBBR 102000Z VRB01KT 9999 FEW045 SCT070 26/11 Q1019","temp":26,"dewp":11,"wdir":"VRB","wspd":1,"visib":"6+","altim":1019,"clouds":[{"cover":"FEW","base":4500},{"cover":"SCT","base":7000}],"obsTime":1783713600},"SBSP":{"icaoId":"SBSP","flightCategory":"VFR","rawOb":"METAR SBSP 102000Z 31008KT 250V340 CAVOK 24/07 Q1017","temp":24,"dewp":7,"wdir":310,"wspd":8,"visib":"6+","altim":1017,"clouds":[],"obsTime":1783713600},"SBCF":{"icaoId":"SBCF","flightCategory":"VFR","rawOb":"METAR SBCF 102000Z 24004KT CAVOK 26/08 Q1017","temp":26,"dewp":8,"wdir":240,"wspd":4,"visib":"6+","altim":1017,"clouds":[],"obsTime":1783713600},"SBSV":{"icaoId":"SBSV","flightCategory":"VFR","rawOb":"METAR SBSV 102000Z 14006KT 100V190 9999 VCSH SCT024 FEW025TCU BKN080 25/22 Q1016","temp":25,"dewp":22,"wdir":140,"wspd":6,"visib":"6+","altim":1016,"clouds":[{"cover":"SCT","base":2400},{"cover":"FEW","base":2500},{"cover":"BKN","base":8000}],"obsTime":1783713600},"SBGO":{"icaoId":"SBGO","flightCategory":"VFR","rawOb":"METAR SBGO 102000Z 16003KT 100V220 CAVOK 29/13 Q1016","temp":29,"dewp":13,"wdir":160,"wspd":3,"visib":"6+","altim":1016,"clouds":[],"obsTime":1783713600},"SBPV":{"icaoId":"SBPV","flightCategory":"VFR","rawOb":"METAR SBPV 102000Z 19004KT 120V240 9999 FEW045TCU BKN090 30/23 Q1009","temp":30,"dewp":23,"wdir":190,"wspd":4,"visib":"6+","altim":1009,"clouds":[{"cover":"FEW","base":4500},{"cover":"BKN","base":9000}],"obsTime":1783713600},"SBLO":{"icaoId":"SBLO","flightCategory":"VFR","rawOb":"METAR SBLO 102000Z 03004KT CAVOK 25/14 Q1015","temp":25,"dewp":14,"wdir":30,"wspd":4,"visib":"6+","altim":1015,"clouds":[],"obsTime":1783713600},"SBCR":{"icaoId":"SBCR","flightCategory":"VFR","rawOb":"METAR SBCR 102000Z 05008KT 010V070 CAVOK 32/20 Q1009","temp":32,"dewp":20,"wdir":50,"wspd":8,"visib":"6+","altim":1009,"clouds":[],"obsTime":1783713600},"SBTE":{"icaoId":"SBTE","flightCategory":"VFR","rawOb":"METAR SBTE 102000Z 30005KT 9999 FEW033 34/20 Q1010","temp":34,"dewp":20,"wdir":300,"wspd":5,"visib":"6+","altim":1010,"clouds":[{"cover":"FEW","base":3300}],"obsTime":1783713600},"SBCB":{"icaoId":"SBCB","flightCategory":"VFR","rawOb":"METAR SBCB 102000Z 12005KT CAVOK 23/20 Q1013","temp":23,"dewp":20,"wdir":120,"wspd":5,"visib":"6+","altim":1013,"clouds":[],"obsTime":1783713600},"SBMG":{"icaoId":"SBMG","flightCategory":"VFR","rawOb":"METAR SBMG 102000Z 01007KT CAVOK 26/15 Q1013","temp":26,"dewp":15,"wdir":10,"wspd":7,"visib":"6+","altim":1013,"clouds":[],"obsTime":1783713600},"SBIL":{"icaoId":"SBIL","flightCategory":"VFR","rawOb":"METAR SBIL 102000Z 10005KT CAVOK 26/21 Q1016","temp":26,"dewp":21,"wdir":100,"wspd":5,"visib":"6+","altim":1016,"clouds":[],"obsTime":1783713600},"SBJU":{"icaoId":"SBJU","flightCategory":"VFR","rawOb":"METAR SBJU 102000Z 04007KT 9999 SCT022 30/15 Q1015","temp":30,"dewp":15,"wdir":40,"wspd":7,"visib":"6+","altim":1015,"clouds":[{"cover":"SCT","base":2200}],"obsTime":1783713600},"SBAT":{"icaoId":"SBAT","flightCategory":"VFR","rawOb":"METAR SBAT 102000Z 06004KT 9999 SCT040 FEW045TCU 32/21 Q1011","temp":32,"dewp":21,"wdir":60,"wspd":4,"visib":"6+","altim":1011,"clouds":[{"cover":"SCT","base":4000},{"cover":"FEW","base":4500}],"obsTime":1783713600},"SBHT":{"icaoId":"SBHT","flightCategory":"VFR","rawOb":"METAR SBHT 102000Z 13005KT 9999 SCT030 30/24 Q1010","temp":30,"dewp":24,"wdir":130,"wspd":5,"visib":"6+","altim":1010,"clouds":[{"cover":"SCT","base":3000}],"obsTime":1783713600},"SBME":{"icaoId":"SBME","flightCategory":"VFR","rawOb":"METAR SBME 102000Z 12004KT CAVOK 24/21 Q1012","temp":24,"dewp":21,"wdir":120,"wspd":4,"visib":"6+","altim":1012,"clouds":[],"obsTime":1783713600},"SBMK":{"icaoId":"SBMK","flightCategory":"VFR","rawOb":"METAR SBMK 102000Z 13005KT CAVOK 28/14 Q1017","temp":28,"dewp":14,"wdir":130,"wspd":5,"visib":"6+","altim":1017,"clouds":[],"obsTime":1783713600},"SBUL":{"icaoId":"SBUL","flightCategory":"VFR","rawOb":"METAR SBUL 102000Z 02005KT CAVOK 26/07 Q1018","temp":26,"dewp":7,"wdir":20,"wspd":5,"visib":"6+","altim":1018,"clouds":[],"obsTime":1783713600},"SBUR":{"icaoId":"SBUR","flightCategory":"VFR","rawOb":"METAR SBUR 102000Z 29003KT CAVOK 28/05 Q1017","temp":28,"dewp":5,"wdir":290,"wspd":3,"visib":"6+","altim":1017,"clouds":[],"obsTime":1783713600},"SBVT":{"icaoId":"SBVT","flightCategory":"VFR","rawOb":"METAR SBVT 102000Z 06010KT CAVOK 26/19 Q1013","temp":26,"dewp":19,"wdir":60,"wspd":10,"visib":"6+","altim":1013,"clouds":[],"obsTime":1783713600},"SBKP":{"icaoId":"SBKP","flightCategory":"VFR","rawOb":"METAR SBKP 102000Z 26005KT CAVOK 25/11 Q1016","temp":25,"dewp":11,"wdir":260,"wspd":5,"visib":"6+","altim":1016,"clouds":[],"obsTime":1783713600},"SBRF":{"icaoId":"SBRF","flightCategory":"VFR","rawOb":"METAR SBRF 102000Z 16011KT 9999 SCT021 26/23 Q1015","temp":26,"dewp":23,"wdir":160,"wspd":11,"visib":"6+","altim":1015,"clouds":[{"cover":"SCT","base":2100}],"obsTime":1783713600},"SBBV":{"icaoId":"SBBV","flightCategory":"VFR","rawOb":"METAR SBBV 102000Z 12009KT 090V150 9999 FEW035 FEW040TCU SCT080 31/24 Q1010","temp":31,"dewp":24,"wdir":120,"wspd":9,"visib":"6+","altim":1010,"clouds":[{"cover":"FEW","base":3500},{"cover":"FEW","base":4000},{"cover":"SCT","base":8000}],"obsTime":1783713600},"SBGR":{"icaoId":"SBGR","flightCategory":"VFR","rawOb":"METAR SBGR 102000Z 28007KT CAVOK 24/09 Q1016","temp":24,"dewp":9,"wdir":280,"wspd":7,"visib":"6+","altim":1016,"clouds":[],"obsTime":1783713600},"SBGL":{"icaoId":"SBGL","flightCategory":"VFR","rawOb":"METAR SBGL 102000Z 14006KT CAVOK 24/18 Q1012","temp":24,"dewp":18,"wdir":140,"wspd":6,"visib":"6+","altim":1012,"clouds":[],"obsTime":1783713600},"SBPA":{"icaoId":"SBPA","flightCategory":"VFR","rawOb":"METAR SBPA 102000Z 14004KT 110V170 9999 SCT045 BKN100 18/09 Q1014","temp":18,"dewp":9,"wdir":140,"wspd":4,"visib":"6+","altim":1014,"clouds":[{"cover":"SCT","base":4500},{"cover":"BKN","base":10000}],"obsTime":1783713600},"SBMQ":{"icaoId":"SBMQ","flightCategory":"VFR","rawOb":"METAR SBMQ 102000Z 05013KT 9999 FEW025 31/24 Q1011","temp":31,"dewp":24,"wdir":50,"wspd":13,"visib":"6+","altim":1011,"clouds":[{"cover":"FEW","base":2500}],"obsTime":1783713600},"SBSN":{"icaoId":"SBSN","flightCategory":"VFR","rawOb":"METAR SBSN 102000Z 10013KT 9999 FEW026TCU 31/24 Q1009","temp":31,"dewp":24,"wdir":100,"wspd":13,"visib":"6+","altim":1009,"clouds":[{"cover":"FEW","base":2600}],"obsTime":1783713600},"SBCG":{"icaoId":"SBCG","flightCategory":"VFR","rawOb":"METAR SBCG 102000Z 30008KT 9999 SCT049 29/16 Q1014","temp":29,"dewp":16,"wdir":300,"wspd":8,"visib":"6+","altim":1014,"clouds":[{"cover":"SCT","base":4900}],"obsTime":1783713600},"SBMA":{"icaoId":"SBMA","flightCategory":"VFR","rawOb":"METAR SBMA 102000Z 33004KT 9999 SCT025 FEW030TCU 31/23 Q1010","temp":31,"dewp":23,"wdir":330,"wspd":4,"visib":"6+","altim":1010,"clouds":[{"cover":"SCT","base":2500},{"cover":"FEW","base":3000}],"obsTime":1783713600},"SBFI":{"icaoId":"SBFI","flightCategory":"VFR","rawOb":"METAR SBFI 102000Z 11007KT 9999 SCT030 23/20 Q1011","temp":23,"dewp":20,"wdir":110,"wspd":7,"visib":"6+","altim":1011,"clouds":[{"cover":"SCT","base":3000}],"obsTime":1783713600},"SBCP":{"icaoId":"SBCP","flightCategory":"VFR","rawOb":"METAR SBCP 102000Z 08008KT CAVOK 24/20 Q1013","temp":24,"dewp":20,"wdir":80,"wspd":8,"visib":"6+","altim":1013,"clouds":[],"obsTime":1783713600},"SBPB":{"icaoId":"SBPB","flightCategory":"VFR","rawOb":"METAR SBPB 102000Z 07014KT CAVOK 29/24 Q1011","temp":29,"dewp":24,"wdir":70,"wspd":14,"visib":"6+","altim":1011,"clouds":[],"obsTime":1783713600},"SBCJ":{"icaoId":"SBCJ","flightCategory":"LIFR","rawOb":"METAR SBCJ 102000Z 11014KT 1000 RA BR BKN004 BKN013 21/19 Q1015","temp":21,"dewp":19,"wdir":110,"wspd":14,"visib":0.62,"altim":1015,"clouds":[{"cover":"BKN","base":400},{"cover":"BKN","base":1300}],"obsTime":1783713600},"SBPS":{"icaoId":"SBPS","flightCategory":"VFR","rawOb":"METAR SBPS 102000Z 05009KT 9999 FEW025 25/21 Q1016","temp":25,"dewp":21,"wdir":50,"wspd":9,"visib":"6+","altim":1016,"clouds":[{"cover":"FEW","base":2500}],"obsTime":1783713600},"SBSJ":{"icaoId":"SBSJ","flightCategory":"MVFR","rawOb":"METAR SBSJ 102000Z 29001KT 8000 NSC 25/14 Q1015","temp":25,"dewp":14,"wdir":290,"wspd":1,"visib":4.97,"altim":1015,"clouds":[],"obsTime":1783713600},"SBUY":{"icaoId":"SBUY","flightCategory":"VFR","rawOb":"METAR SBUY 102000Z 08002KT 9999 SCT025 FEW030TCU BKN100 32/23 Q1007","temp":32,"dewp":23,"wdir":80,"wspd":2,"visib":"6+","altim":1007,"clouds":[{"cover":"SCT","base":2500},{"cover":"FEW","base":3000},{"cover":"BKN","base":10000}],"obsTime":1783713600},"SBTF":{"icaoId":"SBTF","flightCategory":"VFR","rawOb":"METAR SBTF 102000Z 33004KT 9999 FEW020 FEW025TCU 30/26 Q1008","temp":30,"dewp":26,"wdir":330,"wspd":4,"visib":"6+","altim":1008,"clouds":[{"cover":"FEW","base":2000},{"cover":"FEW","base":2500}],"obsTime":1783713600},"SBPP":{"icaoId":"SBPP","flightCategory":"VFR","rawOb":"METAR SBPP 102000Z 01008KT 9999 FEW025 28/16 Q1013","temp":28,"dewp":16,"wdir":10,"wspd":8,"visib":"6+","altim":1013,"clouds":[{"cover":"FEW","base":2500}],"obsTime":1783713600},"SBOI":{"icaoId":"SBOI","flightCategory":"VFR","rawOb":"METAR SBOI 102000Z AUTO 11005KT 060V170 9999 SCT033 31/24 Q1011","temp":31,"dewp":24,"wdir":110,"wspd":5,"visib":"6+","altim":1011,"clouds":[{"cover":"SCT","base":3300}],"obsTime":1783713600},"SBPL":{"icaoId":"SBPL","flightCategory":"VFR","rawOb":"METAR SBPL 102000Z 11008KT 9999 FEW030 32/14 Q1014","temp":32,"dewp":14,"wdir":110,"wspd":8,"visib":"6+","altim":1014,"clouds":[{"cover":"FEW","base":3000}],"obsTime":1783713600},"SBCA":{"icaoId":"SBCA","flightCategory":"VFR","rawOb":"METAR SBCA 102000Z 34011KT 9999 FEW030 25/15 Q1015","temp":25,"dewp":15,"wdir":340,"wspd":11,"visib":"6+","altim":1015,"clouds":[{"cover":"FEW","base":3000}],"obsTime":1783713600},"SBCO":{"icaoId":"SBCO","flightCategory":"VFR","rawOb":"METAR SBCO 102000Z 12006KT 9999 SCT046 BKN100 18/08 Q1014","temp":18,"dewp":8,"wdir":120,"wspd":6,"visib":"6+","altim":1014,"clouds":[{"cover":"SCT","base":4600},{"cover":"BKN","base":10000}],"obsTime":1783713600},"SBSM":{"icaoId":"SBSM","flightCategory":"VFR","rawOb":"METAR SBSM 102000Z 14005KT 9999 SCT025 BKN080 19/15 Q1013","temp":19,"dewp":15,"wdir":140,"wspd":5,"visib":"6+","altim":1013,"clouds":[{"cover":"SCT","base":2500},{"cover":"BKN","base":8000}],"obsTime":1783713600},"SBKG":{"icaoId":"SBKG","flightCategory":"VFR","rawOb":"METAR SBKG 102000Z 10008KT 9999 SCT020 25/20 Q1016","temp":25,"dewp":20,"wdir":100,"wspd":8,"visib":"6+","altim":1016,"clouds":[{"cover":"SCT","base":2000}],"obsTime":1783713600},"SBVH":{"icaoId":"SBVH","flightCategory":"VFR","rawOb":"METAR SBVH 102000Z 19008KT 150V220 9999 VCSH SCT035 FEW040TCU 27/19 Q1014","temp":27,"dewp":19,"wdir":190,"wspd":8,"visib":"6+","altim":1014,"clouds":[{"cover":"SCT","base":3500},{"cover":"FEW","base":4000}],"obsTime":1783713600},"SBAX":{"icaoId":"SBAX","flightCategory":"VFR","rawOb":"METAR SBAX 102000Z 20004KT CAVOK 26/09 Q1018","temp":26,"dewp":9,"wdir":200,"wspd":4,"visib":"6+","altim":1018,"clouds":[],"obsTime":1783713600},"SBBH":{"icaoId":"SBBH","flightCategory":"VFR","rawOb":"METAR SBBH 102000Z 31003KT CAVOK 26/09 Q1017","temp":26,"dewp":9,"wdir":310,"wspd":3,"visib":"6+","altim":1017,"clouds":[],"obsTime":1783713600},"SBBU":{"icaoId":"SBBU","flightCategory":"VFR","rawOb":"METAR SBBU 102000Z 34005KT CAVOK 27/10 Q1016","temp":27,"dewp":10,"wdir":340,"wspd":5,"visib":"6+","altim":1016,"clouds":[],"obsTime":1783713600},"SBDN":{"icaoId":"SBDN","flightCategory":"VFR","rawOb":"METAR SBDN 102000Z 36004KT CAVOK 28/14 Q1014","temp":28,"dewp":14,"wdir":360,"wspd":4,"visib":"6+","altim":1014,"clouds":[],"obsTime":1783713600},"SBIP":{"icaoId":"SBIP","flightCategory":"VFR","rawOb":"METAR SBIP 102000Z AUTO 34002KT CAVOK 24/18 Q1015","temp":24,"dewp":18,"wdir":340,"wspd":2,"visib":"6+","altim":1015,"clouds":[],"obsTime":1783713600},"SBSC":{"icaoId":"SBSC","flightCategory":"VFR","rawOb":"METAR SBSC 102000Z 22004KT CAVOK 23/18 Q1012","temp":23,"dewp":18,"wdir":220,"wspd":4,"visib":"6+","altim":1012,"clouds":[],"obsTime":1783713600},"SBSR":{"icaoId":"SBSR","flightCategory":"VFR","rawOb":"METAR SBSR 102000Z 33002KT CAVOK 29/09 Q1015","temp":29,"dewp":9,"wdir":330,"wspd":2,"visib":"6+","altim":1015,"clouds":[],"obsTime":1783713600},"SBES":{"icaoId":"SBES","flightCategory":"VFR","rawOb":"METAR SBES 102000Z 04004KT 340V070 CAVOK 23/// Q1013","temp":null,"dewp":null,"wdir":40,"wspd":4,"visib":"6+","altim":1013,"clouds":[],"obsTime":1783713600},"SBTU":{"icaoId":"SBTU","flightCategory":"VFR","rawOb":"METAR SBTU 102000Z AUTO 21007KT 9999 // FEW031/// 28/24 Q1013","temp":28,"dewp":24,"wdir":210,"wspd":7,"visib":"6+","altim":1013,"clouds":[{"cover":"FEW","base":3100}],"obsTime":1783713600},"SBAR":{"icaoId":"SBAR","flightCategory":"VFR","rawOb":"METAR SBAR 102000Z 11008KT 9999 FEW026 26/20 Q1015","temp":26,"dewp":20,"wdir":110,"wspd":8,"visib":"6+","altim":1015,"clouds":[{"cover":"FEW","base":2600}],"obsTime":1783713600},"SBTT":{"icaoId":"SBTT","flightCategory":"VFR","rawOb":"METAR SBTT 102000Z 34003KT 9999 FEW027 FEW027TCU 28/24 Q1009","temp":28,"dewp":24,"wdir":340,"wspd":3,"visib":"6+","altim":1009,"clouds":[{"cover":"FEW","base":2700},{"cover":"FEW","base":2700}],"obsTime":1783713600},"SBCC":{"icaoId":"SBCC","flightCategory":"VFR","rawOb":"METAR SBCC 102000Z 04006KT 9999 VCSH SCT040 FEW045TCU BKN100 25/21 Q1013","temp":25,"dewp":21,"wdir":40,"wspd":6,"visib":"6+","altim":1013,"clouds":[{"cover":"SCT","base":4000},{"cover":"FEW","base":4500},{"cover":"BKN","base":10000}],"obsTime":1783713600},"SBBQ":{"icaoId":"SBBQ","flightCategory":"VFR","rawOb":"METAR SBBQ 102000Z 27004KT 240V300 CAVOK 22/09 Q1020","temp":22,"dewp":9,"wdir":270,"wspd":4,"visib":"6+","altim":1020,"clouds":[],"obsTime":1783713600},"SBMT":{"icaoId":"SBMT","flightCategory":"VFR","rawOb":"METAR SBMT 102000Z 29006KT 270V330 CAVOK 24/08 Q1016","temp":24,"dewp":8,"wdir":290,"wspd":6,"visib":"6+","altim":1016,"clouds":[],"obsTime":1783713600},"SBST":{"icaoId":"SBST","flightCategory":"VFR","rawOb":"METAR SBST 102000Z 29003KT 260V320 CAVOK 23/13 Q1013","temp":23,"dewp":13,"wdir":290,"wspd":3,"visib":"6+","altim":1013,"clouds":[],"obsTime":1783713600},"SBTA":{"icaoId":"SBTA","flightCategory":"VFR","rawOb":"METAR SBTA 102000Z VRB02KT CAVOK 24/16 Q1014","temp":24,"dewp":16,"wdir":"VRB","wspd":2,"visib":"6+","altim":1014,"clouds":[],"obsTime":1783713600},"SBNM":{"icaoId":"SBNM","flightCategory":"VFR","rawOb":"METAR SBNM 102000Z AUTO 06004KT 020V100 9999 FEW014 18/18 Q1012","temp":18,"dewp":18,"wdir":60,"wspd":4,"visib":"6+","altim":1012,"clouds":[{"cover":"FEW","base":1400}],"obsTime":1783713600},"SBJP":{"icaoId":"SBJP","flightCategory":"VFR","rawOb":"METAR SBJP 102000Z 13009KT 9999 SCT030 26/23 Q1015","temp":26,"dewp":23,"wdir":130,"wspd":9,"visib":"6+","altim":1015,"clouds":[{"cover":"SCT","base":3000}],"obsTime":1783713600},"SBPF":{"icaoId":"SBPF","flightCategory":"MVFR","rawOb":"METAR SBPF 102000Z 04007KT 9999 BKN010 17/15 Q1015","temp":17,"dewp":15,"wdir":40,"wspd":7,"visib":"6+","altim":1015,"clouds":[{"cover":"BKN","base":1000}],"obsTime":1783713600},"SBAN":{"icaoId":"SBAN","flightCategory":"VFR","rawOb":"METAR SBAN 102000Z 25003KT CAVOK 27/10 Q1019","temp":27,"dewp":10,"wdir":250,"wspd":3,"visib":"6+","altim":1019,"clouds":[],"obsTime":1783713600},"SBLE":{"icaoId":"SBLE","flightCategory":"VFR","rawOb":"METAR SBLE 102000Z AUTO VRB02KT CAVOK ///// Q1017","temp":null,"dewp":null,"wdir":"VRB","wspd":2,"visib":"6+","altim":1017,"clouds":[],"obsTime":1783713600},"SBIH":{"icaoId":"SBIH","flightCategory":"VFR","rawOb":"METAR SBIH 102100Z 04004KT 9999 FEW020 FEW025TCU 32/24 Q1009","temp":32,"dewp":24,"wdir":40,"wspd":4,"visib":"6+","altim":1009,"clouds":[{"cover":"FEW","base":2000},{"cover":"FEW","base":2500}],"obsTime":1783717200},"SBAF":{"icaoId":"SBAF","flightCategory":"VFR","rawOb":"METAR SBAF 102000Z 17006KT 9000 NSC 25/20 Q1012","temp":25,"dewp":20,"wdir":170,"wspd":6,"visib":5.59,"altim":1012,"clouds":[],"obsTime":1783713600},"SBGW":{"icaoId":"SBGW","flightCategory":"VFR","rawOb":"METAR SBGW 102000Z 24003KT 200V310 CAVOK 25/12 Q1015","temp":25,"dewp":12,"wdir":240,"wspd":3,"visib":"6+","altim":1015,"clouds":[],"obsTime":1783713600},"SBJR":{"icaoId":"SBJR","flightCategory":"VFR","rawOb":"METAR SBJR 102000Z 24003KT 9000 NSC 23/19 Q1012","temp":23,"dewp":19,"wdir":240,"wspd":3,"visib":5.59,"altim":1012,"clouds":[],"obsTime":1783713600},"SBLS":{"icaoId":"SBLS","flightCategory":"VFR","rawOb":"METAR SBLS 102000Z 28005KT CAVOK 26/08 Q1017","temp":26,"dewp":8,"wdir":280,"wspd":5,"visib":"6+","altim":1017,"clouds":[],"obsTime":1783713600},"SBJV":{"icaoId":"SBJV","flightCategory":"MVFR","rawOb":"METAR SBJV 102000Z 31002KT 5000 -RA FEW005 BKN050 17/17 Q1015","temp":17,"dewp":17,"wdir":310,"wspd":2,"visib":3.11,"altim":1015,"clouds":[{"cover":"FEW","base":500},{"cover":"BKN","base":5000}],"obsTime":1783713600}}}