{"updated":1776682805,"count":72,"data":{"SBLO":{"icaoId":"SBLO","flightCategory":"VFR","rawOb":"METAR SBLO 201000Z 09003KT CAVOK 19/17 Q1018","temp":19,"dewp":17,"wdir":90,"wspd":3,"visib":"6+","altim":1018,"clouds":[],"obsTime":1776679200},"SBVT":{"icaoId":"SBVT","flightCategory":"VFR","rawOb":"METAR SBVT 201000Z 21006KT CAVOK 24/20 Q1015","temp":24,"dewp":20,"wdir":210,"wspd":6,"visib":"6+","altim":1015,"clouds":[],"obsTime":1776679200},"SBBR":{"icaoId":"SBBR","flightCategory":"VFR","rawOb":"METAR SBBR 201000Z VRB01KT CAVOK 18/16 Q1018","temp":18,"dewp":16,"wdir":"VRB","wspd":1,"visib":"6+","altim":1018,"clouds":[],"obsTime":1776679200},"SBTE":{"icaoId":"SBTE","flightCategory":"IFR","rawOb":"METAR SBTE 201000Z 36003KT 9999 BKN008 BKN080 25/24 Q1011","temp":25,"dewp":24,"wdir":360,"wspd":3,"visib":"6+","altim":1011,"clouds":[{"cover":"BKN","base":800},{"cover":"BKN","base":8000}],"obsTime":1776679200},"SBBV":{"icaoId":"SBBV","flightCategory":"VFR","rawOb":"METAR SBBV 201000Z 01004KT 9999 -RA SCT020 FEW030TCU BKN100 24/24 Q1011 RERA","temp":24,"dewp":24,"wdir":10,"wspd":4,"visib":"6+","altim":1011,"clouds":[{"cover":"SCT","base":2000},{"cover":"FEW","base":3000},{"cover":"BKN","base":10000}],"obsTime":1776679200},"SBSP":{"icaoId":"SBSP","flightCategory":"VFR","rawOb":"METAR SBSP 201000Z 12003KT CAVOK 17/15 Q1020","temp":17,"dewp":15,"wdir":120,"wspd":3,"visib":"6+","altim":1020,"clouds":[],"obsTime":1776679200},"SBCB":{"icaoId":"SBCB","flightCategory":"VFR","rawOb":"METAR SBCB 201000Z 28012KT 9999 FEW035 24/20 Q1015","temp":24,"dewp":20,"wdir":280,"wspd":12,"visib":"6+","altim":1015,"clouds":[{"cover":"FEW","base":3500}],"obsTime":1776679200},"SBSN":{"icaoId":"SBSN","flightCategory":"VFR","rawOb":"METAR SBSN 201000Z 13004KT 9999 -RA FEW017 25/24 Q1011","temp":25,"dewp":24,"wdir":130,"wspd":4,"visib":"6+","altim":1011,"clouds":[{"cover":"FEW","base":1700}],"obsTime":1776679200},"SBCF":{"icaoId":"SBCF","flightCategory":"VFR","rawOb":"METAR SBCF 201000Z 17003KT 9999 SCT025 19/17 Q1019","temp":19,"dewp":17,"wdir":170,"wspd":3,"visib":"6+","altim":1019,"clouds":[{"cover":"SCT","base":2500}],"obsTime":1776679200},"SBSL":{"icaoId":"SBSL","flightCategory":"MVFR","rawOb":"METAR SBSL 201000Z 35003KT 9999 SCT006 BKN015 BKN080 25/24 Q1011","temp":25,"dewp":24,"wdir":350,"wspd":3,"visib":"6+","altim":1011,"clouds":[{"cover":"SCT","base":600},{"cover":"BKN","base":1500},{"cover":"BKN","base":8000}],"obsTime":1776679200},"SBSG":{"icaoId":"SBSG","flightCategory":"VFR","rawOb":"METAR SBSG 201000Z 18003KT 150V220 9999 FEW021 FEW025TCU 25/24 Q1011","temp":25,"dewp":24,"wdir":180,"wspd":3,"visib":"6+","altim":1011,"clouds":[{"cover":"FEW","base":2100},{"cover":"FEW","base":2500}],"obsTime":1776679200},"SBCG":{"icaoId":"SBCG","flightCategory":"VFR","rawOb":"METAR SBCG 201000Z 06008KT CAVOK 24/20 Q1014","temp":24,"dewp":20,"wdir":60,"wspd":8,"visib":"6+","altim":1014,"clouds":[],"obsTime":1776679200},"SBRF":{"icaoId":"SBRF","flightCategory":"VFR","rawOb":"METAR SBRF 201000Z 23004KT 9999 SCT017 27/24 Q1011","temp":27,"dewp":24,"wdir":230,"wspd":4,"visib":"6+","altim":1011,"clouds":[{"cover":"SCT","base":1700}],"obsTime":1776679200},"SBCP":{"icaoId":"SBCP","flightCategory":"VFR","rawOb":"METAR SBCP 201000Z 31005KT CAVOK 21/20 Q1015","temp":21,"dewp":20,"wdir":310,"wspd":5,"visib":"6+","altim":1015,"clouds":[],"obsTime":1776679200},"SBCR":{"icaoId":"SBCR","flightCategory":"VFR","rawOb":"METAR SBCR 201100Z VRB02KT CAVOK 28/25 Q1011","temp":28,"dewp":25,"wdir":"VRB","wspd":2,"visib":"6+","altim":1011,"clouds":[],"obsTime":1776682800},"SBKP":{"icaoId":"SBKP","flightCategory":"VFR","rawOb":"METAR SBKP 201000Z 13007KT CAVOK 17/15 Q1018","temp":17,"dewp":15,"wdir":130,"wspd":7,"visib":"6+","altim":1018,"clouds":[],"obsTime":1776679200},"SBCT":{"icaoId":"SBCT","flightCategory":"LIFR","rawOb":"METAR SBCT 201000Z 12004KT 0400 R15/0400 R33/0400 FG SCT002 14/14 Q1020","temp":14,"dewp":14,"wdir":120,"wspd":4,"visib":0.25,"altim":1020,"clouds":[{"cover":"SCT","base":200}],"obsTime":1776679200},"SBRB":{"icaoId":"SBRB","flightCategory":"IFR","rawOb":"METAR SBRB 201000Z 01001KT 9999 BKN005 BKN100 23/23 Q1011","temp":23,"dewp":23,"wdir":10,"wspd":1,"visib":"6+","altim":1011,"clouds":[{"cover":"BKN","base":500},{"cover":"BKN","base":10000}],"obsTime":1776679200},"SBBE":{"icaoId":"SBBE","flightCategory":"VFR","rawOb":"METAR SBBE 201000Z 17001KT CAVOK 24/24 Q1009","temp":24,"dewp":24,"wdir":170,"wspd":1,"visib":"6+","altim":1009,"clouds":[],"obsTime":1776679200},"SBEG":{"icaoId":"SBEG","flightCategory":"VFR","rawOb":"METAR SBEG 201000Z 00000KT 9999 SCT007 25/24 Q1011","temp":25,"dewp":24,"wdir":0,"wspd":0,"visib":"6+","altim":1011,"clouds":[{"cover":"SCT","base":700}],"obsTime":1776679200},"SBPV":{"icaoId":"SBPV","flightCategory":"IFR","rawOb":"METAR SBPV 201000Z 03003KT 4000 BR BKN005 23/22 Q1011","temp":23,"dewp":22,"wdir":30,"wspd":3,"visib":2.49,"altim":1011,"clouds":[{"cover":"BKN","base":500}],"obsTime":1776679200},"SBPJ":{"icaoId":"SBPJ","flightCategory":"VFR","rawOb":"METAR SBPJ 201000Z 06003KT 9999 SCT012 BKN080 25/24 Q1014","temp":25,"dewp":24,"wdir":60,"wspd":3,"visib":"6+","altim":1014,"clouds":[{"cover":"SCT","base":1200},{"cover":"BKN","base":8000}],"obsTime":1776679200},"SBFI":{"icaoId":"SBFI","flightCategory":"VFR","rawOb":"METAR SBFI 201000Z 09004KT CAVOK 22/21 Q1013","temp":22,"dewp":21,"wdir":90,"wspd":4,"visib":"6+","altim":1013,"clouds":[],"obsTime":1776679200},"SBFL":{"icaoId":"SBFL","flightCategory":"VFR","rawOb":"METAR SBFL 201000Z 28006KT CAVOK 19/16 Q1016","temp":19,"dewp":16,"wdir":280,"wspd":6,"visib":"6+","altim":1016,"clouds":[],"obsTime":1776679200},"SBPA":{"icaoId":"SBPA","flightCategory":"VFR","rawOb":"METAR SBPA 201000Z 05004KT 020V100 CAVOK 15/14 Q1014","temp":15,"dewp":14,"wdir":50,"wspd":4,"visib":"6+","altim":1014,"clouds":[],"obsTime":1776679200},"SBMQ":{"icaoId":"SBMQ","flightCategory":"VFR","rawOb":"METAR SBMQ 201000Z 24002KT 9999 FEW010 SCT020 BKN100 25/25 Q1011","temp":25,"dewp":25,"wdir":240,"wspd":2,"visib":"6+","altim":1011,"clouds":[{"cover":"FEW","base":1000},{"cover":"SCT","base":2000},{"cover":"BKN","base":10000}],"obsTime":1776679200},"SBMO":{"icaoId":"SBMO","flightCategory":"VFR","rawOb":"METAR SBMO 201000Z 34003KT 9999 VCSH FEW016 SCT043 BKN070 24/24 Q1012","temp":24,"dewp":24,"wdir":340,"wspd":3,"visib":"6+","altim":1012,"clouds":[{"cover":"FEW","base":1600},{"cover":"SCT","base":4300},{"cover":"BKN","base":7000}],"obsTime":1776679200},"SBGL":{"icaoId":"SBGL","flightCategory":"VFR","rawOb":"METAR SBGL 201000Z 33004KT CAVOK 22/19 Q1016","temp":22,"dewp":19,"wdir":330,"wspd":4,"visib":"6+","altim":1016,"clouds":[],"obsTime":1776679200},"SBMA":{"icaoId":"SBMA","flightCategory":"VFR","rawOb":"METAR SBMA 201000Z 20003KT 9999 SCT008 OVC080 23/23 Q1012","temp":23,"dewp":23,"wdir":200,"wspd":3,"visib":"6+","altim":1012,"clouds":[{"cover":"SCT","base":800},{"cover":"OVC","base":8000}],"obsTime":1776679200},"SBGO":{"icaoId":"SBGO","flightCategory":"VFR","rawOb":"METAR SBGO 201000Z 33002KT CAVOK 19/18 Q1016","temp":19,"dewp":18,"wdir":330,"wspd":2,"visib":"6+","altim":1016,"clouds":[],"obsTime":1776679200},"SBGR":{"icaoId":"SBGR","flightCategory":"VFR","rawOb":"METAR SBGR 201000Z 12001KT CAVOK 15/14 Q1020","temp":15,"dewp":14,"wdir":120,"wspd":1,"visib":"6+","altim":1020,"clouds":[],"obsTime":1776679200},"SBIL":{"icaoId":"SBIL","flightCategory":"VFR","rawOb":"METAR SBIL 201000Z 28004KT 9999 FEW020 25/24 Q1014","temp":25,"dewp":24,"wdir":280,"wspd":4,"visib":"6+","altim":1014,"clouds":[{"cover":"FEW","base":2000}],"obsTime":1776679200},"SBJU":{"icaoId":"SBJU","flightCategory":"MVFR","rawOb":"METAR SBJU 201000Z 00000KT 9999 BKN020 25/23 Q1013","temp":25,"dewp":23,"wdir":0,"wspd":0,"visib":"6+","altim":1013,"clouds":[{"cover":"BKN","base":2000}],"obsTime":1776679200},"SBHT":{"icaoId":"SBHT","flightCategory":"IFR","rawOb":"METAR SBHT 201000Z 00000KT 3000 -RA BR BKN010 BKN080 24/24 Q1012","temp":24,"dewp":24,"wdir":0,"wspd":0,"visib":1.86,"altim":1012,"clouds":[{"cover":"BKN","base":1000},{"cover":"BKN","base":8000}],"obsTime":1776679200},"SBME":{"icaoId":"SBME","flightCategory":"VFR","rawOb":"METAR SBME 201000Z 31004KT 290V350 CAVOK 20/18 Q1015","temp":20,"dewp":18,"wdir":310,"wspd":4,"visib":"6+","altim":1015,"clouds":[],"obsTime":1776679200},"SBMG":{"icaoId":"SBMG","flightCategory":"VFR","rawOb":"METAR SBMG 201000Z 06012KT CAVOK 21/17 Q1016","temp":21,"dewp":17,"wdir":60,"wspd":12,"visib":"6+","altim":1016,"clouds":[],"obsTime":1776679200},"SBMK":{"icaoId":"SBMK","flightCategory":"VFR","rawOb":"METAR SBMK 201000Z 00000KT CAVOK 18/16 Q1017","temp":18,"dewp":16,"wdir":0,"wspd":0,"visib":"6+","altim":1017,"clouds":[],"obsTime":1776679200},"SBFZ":{"icaoId":"SBFZ","flightCategory":"VFR","rawOb":"METAR SBFZ 201000Z 21003KT 9999 FEW017 BKN100 26/24 Q1010","temp":26,"dewp":24,"wdir":210,"wspd":3,"visib":"6+","altim":1010,"clouds":[{"cover":"FEW","base":1700},{"cover":"BKN","base":10000}],"obsTime":1776679200},"SBNT":{"icaoId":"SBNT","flightCategory":"VFR","rawOb":"METAR SBNT 201000Z 19003KT 150V230 9999 FEW020 FEW023TCU 25/24 Q1010","temp":25,"dewp":24,"wdir":190,"wspd":3,"visib":"6+","altim":1010,"clouds":[{"cover":"FEW","base":2000},{"cover":"FEW","base":2300}],"obsTime":1776679200},"SBSV":{"icaoId":"SBSV","flightCategory":"VFR","rawOb":"METAR SBSV 201000Z VRB01KT 9999 SCT020 BKN060 28/25 Q1012","temp":28,"dewp":25,"wdir":"VRB","wspd":1,"visib":"6+","altim":1012,"clouds":[{"cover":"SCT","base":2000},{"cover":"BKN","base":6000}],"obsTime":1776679200},"SBUL":{"icaoId":"SBUL","flightCategory":"VFR","rawOb":"METAR SBUL 201000Z 14006KT CAVOK 21/18 Q1018","temp":21,"dewp":18,"wdir":140,"wspd":6,"visib":"6+","altim":1018,"clouds":[],"obsTime":1776679200},"SBUR":{"icaoId":"SBUR","flightCategory":"VFR","rawOb":"METAR SBUR 201000Z 08005KT CAVOK 22/17 Q1017","temp":22,"dewp":17,"wdir":80,"wspd":5,"visib":"6+","altim":1017,"clouds":[],"obsTime":1776679200},"SBAR":{"icaoId":"SBAR","flightCategory":"VFR","rawOb":"METAR SBAR 201000Z 28002KT 9999 SCT024 26/24 Q1011","temp":26,"dewp":24,"wdir":280,"wspd":2,"visib":"6+","altim":1011,"clouds":[{"cover":"SCT","base":2400}],"obsTime":1776679200},"SBOI":{"icaoId":"SBOI","flightCategory":"LIFR","rawOb":"SPECI SBOI 200911Z AUTO 17002KT 5000 // BKN002/// OVC007/// 24/24 Q1011","temp":24,"dewp":24,"wdir":170,"wspd":2,"visib":3.11,"altim":1011,"clouds":[{"cover":"BKN","base":200},{"cover":"OVC","base":700}],"obsTime":1776676260},"SBPL":{"icaoId":"SBPL","flightCategory":"MVFR","rawOb":"METAR SBPL 201000Z 11009KT 9999 BKN025 27/22 Q1013","temp":27,"dewp":22,"wdir":110,"wspd":9,"visib":"6+","altim":1013,"clouds":[{"cover":"BKN","base":2500}],"obsTime":1776679200},"SBPS":{"icaoId":"SBPS","flightCategory":"VFR","rawOb":"METAR SBPS 201000Z 27004KT 9999 FEW017 24/23 Q1014","temp":24,"dewp":23,"wdir":270,"wspd":4,"visib":"6+","altim":1014,"clouds":[{"cover":"FEW","base":1700}],"obsTime":1776679200},"SBSJ":{"icaoId":"SBSJ","flightCategory":"MVFR","rawOb":"METAR SBSJ 201000Z 13003KT 5000 BR NSC 14/13 Q1019","temp":14,"dewp":13,"wdir":130,"wspd":3,"visib":3.11,"altim":1019,"clouds":[],"obsTime":1776679200},"SBTD":{"icaoId":"SBTD","flightCategory":"VFR","rawOb":"METAR SBTD 201100Z /////KT CAVOK 21/18 Q1016","temp":21,"dewp":18,"wdir":null,"wspd":null,"visib":"6+","altim":1016,"clouds":[],"obsTime":1776682800},"SBPB":{"icaoId":"SBPB","flightCategory":"VFR","rawOb":"SPECI SBPB 201015Z 11004KT 9999 FEW020 SCT100 27/25 Q1011","temp":27,"dewp":25,"wdir":110,"wspd":4,"visib":"6+","altim":1011,"clouds":[{"cover":"FEW","base":2000},{"cover":"SCT","base":10000}],"obsTime":1776680100},"SBCJ":{"icaoId":"SBCJ","flightCategory":"LIFR","rawOb":"SPECI SBCJ 201015Z 00000KT 0900 FG VV000 21/20 Q1017","temp":21,"dewp":20,"wdir":0,"wspd":0,"visib":0.56,"altim":1017,"clouds":[{"cover":"OVX","base":0}],"obsTime":1776680100},"SBES":{"icaoId":"SBES","flightCategory":"VFR","rawOb":"METAR SBES 201000Z VRB02KT 9999 FEW025 21/// Q1015","temp":null,"dewp":null,"wdir":"VRB","wspd":2,"visib":"6+","altim":1015,"clouds":[{"cover":"FEW","base":2500}],"obsTime":1776679200},"SBIP":{"icaoId":"SBIP","flightCategory":"VFR","rawOb":"METAR SBIP 201000Z AUTO 21003KT CAVOK 22/22 Q1016","temp":22,"dewp":22,"wdir":210,"wspd":3,"visib":"6+","altim":1016,"clouds":[],"obsTime":1776679200},"SBKG":{"icaoId":"SBKG","flightCategory":"VFR","rawOb":"METAR SBKG 201000Z 12005KT CAVOK 24/22 Q1014","temp":24,"dewp":22,"wdir":120,"wspd":5,"visib":"6+","altim":1014,"clouds":[],"obsTime":1776679200},"SBCO":{"icaoId":"SBCO","flightCategory":"VFR","rawOb":"METAR SBCO 201000Z 07003KT CAVOK 13/13 Q1014","temp":13,"dewp":13,"wdir":70,"wspd":3,"visib":"6+","altim":1014,"clouds":[],"obsTime":1776679200},"SBSM":{"icaoId":"SBSM","flightCategory":"VFR","rawOb":"METAR SBSM 201000Z 12003KT 9999 BCFG FEW006 13/13 Q1014","temp":13,"dewp":13,"wdir":120,"wspd":3,"visib":"6+","altim":1014,"clouds":[{"cover":"FEW","base":600}],"obsTime":1776679200},"SBSC":{"icaoId":"SBSC","flightCategory":"VFR","rawOb":"METAR SBSC 201000Z 03004KT CAVOK 20/18 Q1016","temp":20,"dewp":18,"wdir":30,"wspd":4,"visib":"6+","altim":1016,"clouds":[],"obsTime":1776679200},"SBAX":{"icaoId":"SBAX","flightCategory":"VFR","rawOb":"METAR SBAX 201000Z 11006KT CAVOK 19/18 Q1018","temp":19,"dewp":18,"wdir":110,"wspd":6,"visib":"6+","altim":1018,"clouds":[],"obsTime":1776679200},"SBBH":{"icaoId":"SBBH","flightCategory":"VFR","rawOb":"METAR SBBH 201000Z 09004KT 9999 SCT025 20/17 Q1018","temp":20,"dewp":17,"wdir":90,"wspd":4,"visib":"6+","altim":1018,"clouds":[{"cover":"SCT","base":2500}],"obsTime":1776679200},"SBBU":{"icaoId":"SBBU","flightCategory":"VFR","rawOb":"METAR SBBU 201000Z 12012KT CAVOK 19/17 Q1017","temp":19,"dewp":17,"wdir":120,"wspd":12,"visib":"6+","altim":1017,"clouds":[],"obsTime":1776679200},"SBSR":{"icaoId":"SBSR","flightCategory":"MVFR","rawOb":"METAR SBSR 201000Z 17006KT 8000 NSC 21/16 Q1016","temp":21,"dewp":16,"wdir":170,"wspd":6,"visib":4.97,"altim":1016,"clouds":[],"obsTime":1776679200},"SBDN":{"icaoId":"SBDN","flightCategory":"VFR","rawOb":"METAR SBDN 201000Z 11010KT CAVOK 20/16 Q1016","temp":20,"dewp":16,"wdir":110,"wspd":10,"visib":"6+","altim":1016,"clouds":[],"obsTime":1776679200},"SBJP":{"icaoId":"SBJP","flightCategory":"VFR","rawOb":"METAR SBJP 201000Z 18006KT 9999 FEW020 26/25 Q1011","temp":26,"dewp":25,"wdir":180,"wspd":6,"visib":"6+","altim":1011,"clouds":[{"cover":"FEW","base":2000}],"obsTime":1776679200},"SBPF":{"icaoId":"SBPF","flightCategory":"VFR","rawOb":"METAR SBPF 201000Z 08010KT CAVOK 19/16 Q1016","temp":19,"dewp":16,"wdir":80,"wspd":10,"visib":"6+","altim":1016,"clouds":[],"obsTime":1776679200},"SBLE":{"icaoId":"SBLE","flightCategory":"MVFR","rawOb":"METAR SBLE 201000Z AUTO VRB01KT 9999 BKN024 OVC030 ///// Q////","temp":null,"dewp":null,"wdir":"VRB","wspd":1,"visib":"6+","altim":null,"clouds":[{"cover":"BKN","base":2400},{"cover":"OVC","base":3000}],"obsTime":1776679200},"SBAN":{"icaoId":"SBAN","flightCategory":"VFR","rawOb":"METAR SBAN 201000Z 10005KT CAVOK 18/14 Q1019","temp":18,"dewp":14,"wdir":100,"wspd":5,"visib":"6+","altim":1019,"clouds":[],"obsTime":1776679200},"SBAF":{"icaoId":"SBAF","flightCategory":"VFR","rawOb":"METAR SBAF 201000Z 26002KT 9999 FEW024 19/19 Q1016","temp":19,"dewp":19,"wdir":260,"wspd":2,"visib":"6+","altim":1016,"clouds":[{"cover":"FEW","base":2400}],"obsTime":1776679200},"SBGW":{"icaoId":"SBGW","flightCategory":"MVFR","rawOb":"METAR SBGW 201000Z 21003KT 6000 FEW008 BKN022 19/14 Q1019","temp":19,"dewp":14,"wdir":210,"wspd":3,"visib":3.73,"altim":1019,"clouds":[{"cover":"FEW","base":800},{"cover":"BKN","base":2200}],"obsTime":1776679200},"SBJR":{"icaoId":"SBJR","flightCategory":"VFR","rawOb":"METAR SBJR 201000Z 36002KT 9999 FEW025 21/20 Q1016","temp":21,"dewp":20,"wdir":360,"wspd":2,"visib":"6+","altim":1016,"clouds":[{"cover":"FEW","base":2500}],"obsTime":1776679200},"SBLS":{"icaoId":"SBLS","flightCategory":"VFR","rawOb":"METAR SBLS 201000Z 16008KT 9999 SCT025 19/17 Q1018","temp":19,"dewp":17,"wdir":160,"wspd":8,"visib":"6+","altim":1018,"clouds":[{"cover":"SCT","base":2500}],"obsTime":1776679200},"SBMT":{"icaoId":"SBMT","flightCategory":"VFR","rawOb":"METAR SBMT 201000Z 09004KT CAVOK 17/15 Q1019","temp":17,"dewp":15,"wdir":90,"wspd":4,"visib":"6+","altim":1019,"clouds":[],"obsTime":1776679200},"SBTA":{"icaoId":"SBTA","flightCategory":"VFR","rawOb":"METAR SBTA 201000Z 00000KT 9999 FEW009 15/15 Q1019","temp":15,"dewp":15,"wdir":0,"wspd":0,"visib":"6+","altim":1019,"clouds":[{"cover":"FEW","base":900}],"obsTime":1776679200},"SBJV":{"icaoId":"SBJV","flightCategory":"VFR","rawOb":"METAR SBJV 201000Z 00000KT 9999 FEW020 18/18 Q1017","temp":18,"dewp":18,"wdir":0,"wspd":0,"visib":"6+","altim":1017,"clouds":[{"cover":"FEW","base":2000}],"obsTime":1776679200}}}