{"updated":1777925726,"count":85,"data":{"SBCZ":{"icaoId":"SBCZ","flightCategory":"VFR","rawOb":"METAR SBCZ 041900Z 30004KT 9999 SCT020 BKN100 29/24 Q1012","temp":29,"dewp":24,"wdir":300,"wspd":4,"visib":"6+","altim":1012,"clouds":[{"cover":"SCT","base":2000},{"cover":"BKN","base":10000}],"obsTime":1777921200},"SBBE":{"icaoId":"SBBE","flightCategory":"MVFR","rawOb":"SPECI SBBE 041827Z 36009KT 5000 -RA SCT010 BKN047 FEW048TCU 25/25 Q1009","temp":25,"dewp":25,"wdir":360,"wspd":9,"visib":3.11,"altim":1009,"clouds":[{"cover":"SCT","base":1000},{"cover":"BKN","base":4700},{"cover":"FEW","base":4800}],"obsTime":1777919220},"SBBR":{"icaoId":"SBBR","flightCategory":"VFR","rawOb":"METAR SBBR 041900Z 10011KT 9999 FEW045 BKN100 25/16 Q1020","temp":25,"dewp":16,"wdir":100,"wspd":11,"visib":"6+","altim":1020,"clouds":[{"cover":"FEW","base":4500},{"cover":"BKN","base":10000}],"obsTime":1777921200},"SBBV":{"icaoId":"SBBV","flightCategory":"VFR","rawOb":"METAR SBBV 041900Z 13009KT 9999 BKN040 FEW045TCU SCT080 32/22 Q1010","temp":32,"dewp":22,"wdir":130,"wspd":9,"visib":"6+","altim":1010,"clouds":[{"cover":"BKN","base":4000},{"cover":"FEW","base":4500},{"cover":"SCT","base":8000}],"obsTime":1777921200},"SBCB":{"icaoId":"SBCB","flightCategory":"VFR","rawOb":"METAR SBCB 041900Z 09012KT 9999 FEW020 25/17 Q1019","temp":25,"dewp":17,"wdir":90,"wspd":12,"visib":"6+","altim":1019,"clouds":[{"cover":"FEW","base":2000}],"obsTime":1777921200},"SBCF":{"icaoId":"SBCF","flightCategory":"VFR","rawOb":"METAR SBCF 041900Z 13003KT 090V220 9999 SCT040 24/16 Q1021","temp":24,"dewp":16,"wdir":130,"wspd":3,"visib":"6+","altim":1021,"clouds":[{"cover":"SCT","base":4000}],"obsTime":1777921200},"SBCG":{"icaoId":"SBCG","flightCategory":"VFR","rawOb":"METAR SBCG 041900Z 35009KT CAVOK 31/16 Q1015","temp":31,"dewp":16,"wdir":350,"wspd":9,"visib":"6+","altim":1015,"clouds":[],"obsTime":1777921200},"SBCP":{"icaoId":"SBCP","flightCategory":"VFR","rawOb":"METAR SBCP 041900Z 11007KT 9999 BKN040 25/16 Q1019","temp":25,"dewp":16,"wdir":110,"wspd":7,"visib":"6+","altim":1019,"clouds":[{"cover":"BKN","base":4000}],"obsTime":1777921200},"SBCR":{"icaoId":"SBCR","flightCategory":"VFR","rawOb":"METAR SBCR 041900Z 03006KT 9999 FEW030 33/19 Q1011","temp":33,"dewp":19,"wdir":30,"wspd":6,"visib":"6+","altim":1011,"clouds":[{"cover":"FEW","base":3000}],"obsTime":1777921200},"SBCT":{"icaoId":"SBCT","flightCategory":"VFR","rawOb":"METAR SBCT 041900Z 03005KT 360V070 9999 FEW015 SCT100 20/15 Q1020","temp":20,"dewp":15,"wdir":30,"wspd":5,"visib":"6+","altim":1020,"clouds":[{"cover":"FEW","base":1500},{"cover":"SCT","base":10000}],"obsTime":1777921200},"SBAT":{"icaoId":"SBAT","flightCategory":"MVFR","rawOb":"METAR SBAT 041900Z 04007KT 5000 -RA BKN035 FEW040TCU 25/24 Q1012","temp":25,"dewp":24,"wdir":40,"wspd":7,"visib":3.11,"altim":1012,"clouds":[{"cover":"BKN","base":3500},{"cover":"FEW","base":4000}],"obsTime":1777921200},"SBEG":{"icaoId":"SBEG","flightCategory":"VFR","rawOb":"METAR SBEG 041900Z 33002KT 9999 SCT020 FEW025TCU BKN100 28/24 Q1011","temp":28,"dewp":24,"wdir":330,"wspd":2,"visib":"6+","altim":1011,"clouds":[{"cover":"SCT","base":2000},{"cover":"FEW","base":2500},{"cover":"BKN","base":10000}],"obsTime":1777921200},"SBFI":{"icaoId":"SBFI","flightCategory":"VFR","rawOb":"METAR SBFI 041900Z 01010KT 9999 FEW030 SCT100 27/20 Q1014","temp":27,"dewp":20,"wdir":10,"wspd":10,"visib":"6+","altim":1014,"clouds":[{"cover":"FEW","base":3000},{"cover":"SCT","base":10000}],"obsTime":1777921200},"SBFL":{"icaoId":"SBFL","flightCategory":"VFR","rawOb":"METAR SBFL 041900Z 36011KT 9999 FEW035 23/18 Q1016","temp":23,"dewp":18,"wdir":360,"wspd":11,"visib":"6+","altim":1016,"clouds":[{"cover":"FEW","base":3500}],"obsTime":1777921200},"SBFZ":{"icaoId":"SBFZ","flightCategory":"VFR","rawOb":"METAR SBFZ 041900Z 10010KT 9999 VCSH SCT023 FEW025TCU BKN070 29/23 Q1010","temp":29,"dewp":23,"wdir":100,"wspd":10,"visib":"6+","altim":1010,"clouds":[{"cover":"SCT","base":2300},{"cover":"FEW","base":2500},{"cover":"BKN","base":7000}],"obsTime":1777921200},"SBGL":{"icaoId":"SBGL","flightCategory":"VFR","rawOb":"METAR SBGL 041900Z 13007KT CAVOK 26/18 Q1018","temp":26,"dewp":18,"wdir":130,"wspd":7,"visib":"6+","altim":1018,"clouds":[],"obsTime":1777921200},"SBGO":{"icaoId":"SBGO","flightCategory":"VFR","rawOb":"METAR SBGO 041900Z 03008KT 360V060 CAVOK 30/16 Q1017","temp":30,"dewp":16,"wdir":30,"wspd":8,"visib":"6+","altim":1017,"clouds":[],"obsTime":1777921200},"SBGR":{"icaoId":"SBGR","flightCategory":"VFR","rawOb":"METAR SBGR 041900Z 32005KT 9999 SCT040 27/18 Q1019","temp":27,"dewp":18,"wdir":320,"wspd":5,"visib":"6+","altim":1019,"clouds":[{"cover":"SCT","base":4000}],"obsTime":1777921200},"SBHT":{"icaoId":"SBHT","flightCategory":"MVFR","rawOb":"METAR SBHT 041900Z 15005KT 9999 BKN025 31/23 Q1009","temp":31,"dewp":23,"wdir":150,"wspd":5,"visib":"6+","altim":1009,"clouds":[{"cover":"BKN","base":2500}],"obsTime":1777921200},"SBIL":{"icaoId":"SBIL","flightCategory":"VFR","rawOb":"METAR SBIL 041900Z 17008KT 140V200 CAVOK 29/23 Q1015","temp":29,"dewp":23,"wdir":170,"wspd":8,"visib":"6+","altim":1015,"clouds":[],"obsTime":1777921200},"SBJU":{"icaoId":"SBJU","flightCategory":"VFR","rawOb":"METAR SBJU 041900Z 14010KT 9999 SCT022 31/21 Q1013","temp":31,"dewp":21,"wdir":140,"wspd":10,"visib":"6+","altim":1013,"clouds":[{"cover":"SCT","base":2200}],"obsTime":1777921200},"SBKP":{"icaoId":"SBKP","flightCategory":"VFR","rawOb":"METAR SBKP 041900Z VRB02KT 9999 FEW045 SCT090 27/18 Q1019","temp":27,"dewp":18,"wdir":"VRB","wspd":2,"visib":"6+","altim":1019,"clouds":[{"cover":"FEW","base":4500},{"cover":"SCT","base":9000}],"obsTime":1777921200},"SBLO":{"icaoId":"SBLO","flightCategory":"VFR","rawOb":"METAR SBLO 041900Z 07005KT 030V110 CAVOK 26/19 Q1017","temp":26,"dewp":19,"wdir":70,"wspd":5,"visib":"6+","altim":1017,"clouds":[],"obsTime":1777921200},"SBMA":{"icaoId":"SBMA","flightCategory":"VFR","rawOb":"METAR SBMA 041900Z 05005KT 9999 SCT020 FEW023TCU 31/24 Q1010","temp":31,"dewp":24,"wdir":50,"wspd":5,"visib":"6+","altim":1010,"clouds":[{"cover":"SCT","base":2000},{"cover":"FEW","base":2300}],"obsTime":1777921200},"SBME":{"icaoId":"SBME","flightCategory":"VFR","rawOb":"METAR SBME 041900Z 11010KT 9999 BKN045 25/17 Q1019","temp":25,"dewp":17,"wdir":110,"wspd":10,"visib":"6+","altim":1019,"clouds":[{"cover":"BKN","base":4500}],"obsTime":1777921200},"SBMG":{"icaoId":"SBMG","flightCategory":"VFR","rawOb":"METAR SBMG 041900Z 01007KT CAVOK 27/18 Q1016","temp":27,"dewp":18,"wdir":10,"wspd":7,"visib":"6+","altim":1016,"clouds":[],"obsTime":1777921200},"SBMK":{"icaoId":"SBMK","flightCategory":"VFR","rawOb":"METAR SBMK 041900Z 09008KT 9999 SCT040 27/17 Q1018","temp":27,"dewp":17,"wdir":90,"wspd":8,"visib":"6+","altim":1018,"clouds":[{"cover":"SCT","base":4000}],"obsTime":1777921200},"SBMO":{"icaoId":"SBMO","flightCategory":"VFR","rawOb":"METAR SBMO 041900Z 17011KT 9999 SCT026 29/23 Q1013","temp":29,"dewp":23,"wdir":170,"wspd":11,"visib":"6+","altim":1013,"clouds":[{"cover":"SCT","base":2600}],"obsTime":1777921200},"SBMQ":{"icaoId":"SBMQ","flightCategory":"VFR","rawOb":"METAR SBMQ 041900Z 07010KT 040V100 9999 VCSH VCTS SCT030 FEW050CB 32/24 Q1009","temp":32,"dewp":24,"wdir":70,"wspd":10,"visib":"6+","altim":1009,"clouds":[{"cover":"SCT","base":3000},{"cover":"FEW","base":5000}],"obsTime":1777921200},"SBNT":{"icaoId":"SBNT","flightCategory":"VFR","rawOb":"METAR SBNT 041900Z 14016KT 9999 FEW023 29/23 Q1011","temp":29,"dewp":23,"wdir":140,"wspd":16,"visib":"6+","altim":1011,"clouds":[{"cover":"FEW","base":2300}],"obsTime":1777921200},"SBPA":{"icaoId":"SBPA","flightCategory":"VFR","rawOb":"METAR SBPA 041900Z 29005KT 260V330 9999 FEW040 FEW045TCU SCT080 25/17 Q1013","temp":25,"dewp":17,"wdir":290,"wspd":5,"visib":"6+","altim":1013,"clouds":[{"cover":"FEW","base":4000},{"cover":"FEW","base":4500},{"cover":"SCT","base":8000}],"obsTime":1777921200},"SBPJ":{"icaoId":"SBPJ","flightCategory":"VFR","rawOb":"METAR SBPJ 041900Z 08004KT 030V130 9999 SCT045 33/21 Q1012","temp":33,"dewp":21,"wdir":80,"wspd":4,"visib":"6+","altim":1012,"clouds":[{"cover":"SCT","base":4500}],"obsTime":1777921200},"SBPV":{"icaoId":"SBPV","flightCategory":"MVFR","rawOb":"METAR SBPV 041900Z 33005KT 9999 BKN030 31/26 Q1010","temp":31,"dewp":26,"wdir":330,"wspd":5,"visib":"6+","altim":1010,"clouds":[{"cover":"BKN","base":3000}],"obsTime":1777921200},"SBRB":{"icaoId":"SBRB","flightCategory":"MVFR","rawOb":"METAR SBRB 041900Z 18002KT 9999 BKN025 30/25 Q1012","temp":30,"dewp":25,"wdir":180,"wspd":2,"visib":"6+","altim":1012,"clouds":[{"cover":"BKN","base":2500}],"obsTime":1777921200},"SBRF":{"icaoId":"SBRF","flightCategory":"VFR","rawOb":"METAR SBRF 041900Z 16015KT 9999 SCT021 FEW025TCU 28/24 Q1012","temp":28,"dewp":24,"wdir":160,"wspd":15,"visib":"6+","altim":1012,"clouds":[{"cover":"SCT","base":2100},{"cover":"FEW","base":2500}],"obsTime":1777921200},"SBSG":{"icaoId":"SBSG","flightCategory":"VFR","rawOb":"METAR SBSG 041900Z 13009KT 100V170 9999 SCT030 FEW033TCU 29/24 Q1011","temp":29,"dewp":24,"wdir":130,"wspd":9,"visib":"6+","altim":1011,"clouds":[{"cover":"SCT","base":3000},{"cover":"FEW","base":3300}],"obsTime":1777921200},"SBSL":{"icaoId":"SBSL","flightCategory":"VFR","rawOb":"METAR SBSL 041900Z 05009KT 9999 SCT025 BKN100 30/24 Q1009","temp":30,"dewp":24,"wdir":50,"wspd":9,"visib":"6+","altim":1009,"clouds":[{"cover":"SCT","base":2500},{"cover":"BKN","base":10000}],"obsTime":1777921200},"SBSN":{"icaoId":"SBSN","flightCategory":"VFR","rawOb":"METAR SBSN 041900Z 06006KT 9999 FEW025 SCT030TCU 29/24 Q1008","temp":29,"dewp":24,"wdir":60,"wspd":6,"visib":"6+","altim":1008,"clouds":[{"cover":"FEW","base":2500},{"cover":"SCT","base":3000}],"obsTime":1777921200},"SBSP":{"icaoId":"SBSP","flightCategory":"VFR","rawOb":"METAR SBSP 041900Z 32005KT 9999 SCT030 BKN060 26/16 Q1020","temp":26,"dewp":16,"wdir":320,"wspd":5,"visib":"6+","altim":1020,"clouds":[{"cover":"SCT","base":3000},{"cover":"BKN","base":6000}],"obsTime":1777921200},"SBSV":{"icaoId":"SBSV","flightCategory":"VFR","rawOb":"METAR SBSV 041900Z 16011KT 9999 SCT023 29/22 Q1014","temp":29,"dewp":22,"wdir":160,"wspd":11,"visib":"6+","altim":1014,"clouds":[{"cover":"SCT","base":2300}],"obsTime":1777921200},"SBTE":{"icaoId":"SBTE","flightCategory":"MVFR","rawOb":"METAR SBTE 041900Z 17008KT 9999 BKN025 FEW030TCU 33/23 Q1008","temp":33,"dewp":23,"wdir":170,"wspd":8,"visib":"6+","altim":1008,"clouds":[{"cover":"BKN","base":2500},{"cover":"FEW","base":3000}],"obsTime":1777921200},"SBUL":{"icaoId":"SBUL","flightCategory":"VFR","rawOb":"METAR SBUL 041900Z 09009KT 9999 FEW049 27/15 Q1020","temp":27,"dewp":15,"wdir":90,"wspd":9,"visib":"6+","altim":1020,"clouds":[{"cover":"FEW","base":4900}],"obsTime":1777921200},"SBUR":{"icaoId":"SBUR","flightCategory":"VFR","rawOb":"METAR SBUR 041900Z 06005KT 9999 SCT047 30/14 Q1018","temp":30,"dewp":14,"wdir":60,"wspd":5,"visib":"6+","altim":1018,"clouds":[{"cover":"SCT","base":4700}],"obsTime":1777921200},"SBVT":{"icaoId":"SBVT","flightCategory":"VFR","rawOb":"METAR SBVT 041900Z 18008KT 9999 VCSH SCT035 BKN050 25/18 Q1019","temp":25,"dewp":18,"wdir":180,"wspd":8,"visib":"6+","altim":1019,"clouds":[{"cover":"SCT","base":3500},{"cover":"BKN","base":5000}],"obsTime":1777921200},"SBAR":{"icaoId":"SBAR","flightCategory":"VFR","rawOb":"METAR SBAR 041900Z 16009KT 120V190 9999 VCSH SCT026 SCT050 28/23 Q1013","temp":28,"dewp":23,"wdir":160,"wspd":9,"visib":"6+","altim":1013,"clouds":[{"cover":"SCT","base":2600},{"cover":"SCT","base":5000}],"obsTime":1777921200},"SBBH":{"icaoId":"SBBH","flightCategory":"VFR","rawOb":"METAR SBBH 041900Z 06004KT 9999 FEW040 25/15 Q1021","temp":25,"dewp":15,"wdir":60,"wspd":4,"visib":"6+","altim":1021,"clouds":[{"cover":"FEW","base":4000}],"obsTime":1777921200},"SBAX":{"icaoId":"SBAX","flightCategory":"VFR","rawOb":"METAR SBAX 041900Z 02004KT 9999 SCT023 27/15 Q1020","temp":27,"dewp":15,"wdir":20,"wspd":4,"visib":"6+","altim":1020,"clouds":[{"cover":"SCT","base":2300}],"obsTime":1777921200},"SBBQ":{"icaoId":"SBBQ","flightCategory":"VFR","rawOb":"METAR SBBQ 041900Z 10005KT 9999 SCT030 20/15 Q1025","temp":20,"dewp":15,"wdir":100,"wspd":5,"visib":"6+","altim":1025,"clouds":[{"cover":"SCT","base":3000}],"obsTime":1777921200},"SBBU":{"icaoId":"SBBU","flightCategory":"VFR","rawOb":"METAR SBBU 041900Z 04003KT 9999 FEW040 30/18 Q1017","temp":30,"dewp":18,"wdir":40,"wspd":3,"visib":"6+","altim":1017,"clouds":[{"cover":"FEW","base":4000}],"obsTime":1777921200},"SBCA":{"icaoId":"SBCA","flightCategory":"VFR","rawOb":"METAR SBCA 041900Z 36009G19KT CAVOK 25/18 Q1017","temp":25,"dewp":18,"wdir":360,"wspd":9,"visib":"6+","altim":1017,"clouds":[],"obsTime":1777921200},"SBCC":{"icaoId":"SBCC","flightCategory":"MVFR","rawOb":"METAR SBCC 041900Z /////KT 9999 BKN025 ///// Q1014","temp":null,"dewp":null,"wdir":null,"wspd":null,"visib":"6+","altim":1014,"clouds":[{"cover":"BKN","base":2500}],"obsTime":1777921200},"SBCJ":{"icaoId":"SBCJ","flightCategory":"VFR","rawOb":"METAR SBCJ 041900Z 09005KT 9999 SCT015 SCT023 27/22 Q1015","temp":27,"dewp":22,"wdir":90,"wspd":5,"visib":"6+","altim":1015,"clouds":[{"cover":"SCT","base":1500},{"cover":"SCT","base":2300}],"obsTime":1777921200},"SBCO":{"icaoId":"SBCO","flightCategory":"VFR","rawOb":"METAR SBCO 041900Z 34005KT 310V010 9999 FEW040 BKN090 25/18 Q1014","temp":25,"dewp":18,"wdir":340,"wspd":5,"visib":"6+","altim":1014,"clouds":[{"cover":"FEW","base":4000},{"cover":"BKN","base":9000}],"obsTime":1777921200},"SBDN":{"icaoId":"SBDN","flightCategory":"VFR","rawOb":"METAR SBDN 041900Z 04003KT CAVOK 30/17 Q1016","temp":30,"dewp":17,"wdir":40,"wspd":3,"visib":"6+","altim":1016,"clouds":[],"obsTime":1777921200},"SBES":{"icaoId":"SBES","flightCategory":"VFR","rawOb":"METAR SBES 041900Z 08012KT 040V110 CAVOK 24/// Q1019","temp":null,"dewp":null,"wdir":80,"wspd":12,"visib":"6+","altim":1019,"clouds":[],"obsTime":1777921200},"SBIP":{"icaoId":"SBIP","flightCategory":"VFR","rawOb":"METAR SBIP 041900Z AUTO VRB02KT 9999 FEW047 27/17 Q1019","temp":27,"dewp":17,"wdir":"VRB","wspd":2,"visib":"6+","altim":1019,"clouds":[{"cover":"FEW","base":4700}],"obsTime":1777921200},"SBKG":{"icaoId":"SBKG","flightCategory":"VFR","rawOb":"METAR SBKG 041900Z 13008KT 9999 SCT015 26/21 Q1014","temp":26,"dewp":21,"wdir":130,"wspd":8,"visib":"6+","altim":1014,"clouds":[{"cover":"SCT","base":1500}],"obsTime":1777921200},"SBOI":{"icaoId":"SBOI","flightCategory":"VFR","rawOb":"METAR SBOI 041900Z AUTO 03008KT 360V070 9999 FEW032 31/23 Q1011","temp":31,"dewp":23,"wdir":30,"wspd":8,"visib":"6+","altim":1011,"clouds":[{"cover":"FEW","base":3200}],"obsTime":1777921200},"SBPB":{"icaoId":"SBPB","flightCategory":"VFR","rawOb":"METAR SBPB 041900Z 04008KT CAVOK 30/25 Q1010","temp":30,"dewp":25,"wdir":40,"wspd":8,"visib":"6+","altim":1010,"clouds":[],"obsTime":1777921200},"SBPL":{"icaoId":"SBPL","flightCategory":"VFR","rawOb":"METAR SBPL 041900Z 12012KT 9999 FEW030 31/18 Q1013","temp":31,"dewp":18,"wdir":120,"wspd":12,"visib":"6+","altim":1013,"clouds":[{"cover":"FEW","base":3000}],"obsTime":1777921200},"SBPP":{"icaoId":"SBPP","flightCategory":"VFR","rawOb":"METAR SBPP 041900Z 05010KT 9999 FEW020 27/20 Q1015","temp":27,"dewp":20,"wdir":50,"wspd":10,"visib":"6+","altim":1015,"clouds":[{"cover":"FEW","base":2000}],"obsTime":1777921200},"SBPS":{"icaoId":"SBPS","flightCategory":"MVFR","rawOb":"METAR SBPS 041900Z VRB03KT 7000 -RA FEW007 BKN015 FEW020TCU 24/22 Q1017","temp":24,"dewp":22,"wdir":"VRB","wspd":3,"visib":4.35,"altim":1017,"clouds":[{"cover":"FEW","base":700},{"cover":"BKN","base":1500},{"cover":"FEW","base":2000}],"obsTime":1777921200},"SBSC":{"icaoId":"SBSC","flightCategory":"VFR","rawOb":"METAR SBSC 041900Z 05005KT 9999 FEW040 28/18 Q1018","temp":28,"dewp":18,"wdir":50,"wspd":5,"visib":"6+","altim":1018,"clouds":[{"cover":"FEW","base":4000}],"obsTime":1777921200},"SBSJ":{"icaoId":"SBSJ","flightCategory":"VFR","rawOb":"METAR SBSJ 041900Z 33003KT CAVOK 26/17 Q1019","temp":26,"dewp":17,"wdir":330,"wspd":3,"visib":"6+","altim":1019,"clouds":[],"obsTime":1777921200},"SBSM":{"icaoId":"SBSM","flightCategory":"VFR","rawOb":"METAR SBSM 041900Z VRB01KT 9999 SCT025 BKN050 20/17 Q1013","temp":20,"dewp":17,"wdir":"VRB","wspd":1,"visib":"6+","altim":1013,"clouds":[{"cover":"SCT","base":2500},{"cover":"BKN","base":5000}],"obsTime":1777921200},"SBSR":{"icaoId":"SBSR","flightCategory":"VFR","rawOb":"METAR SBSR 041900Z 28002KT 9999 FEW035 32/13 Q1016","temp":32,"dewp":13,"wdir":280,"wspd":2,"visib":"6+","altim":1016,"clouds":[{"cover":"FEW","base":3500}],"obsTime":1777921200},"SBTF":{"icaoId":"SBTF","flightCategory":"VFR","rawOb":"METAR SBTF 041900Z 00000KT 9999 SCT020 SCT090 30/26 Q1009","temp":30,"dewp":26,"wdir":0,"wspd":0,"visib":"6+","altim":1009,"clouds":[{"cover":"SCT","base":2000},{"cover":"SCT","base":9000}],"obsTime":1777921200},"SBTT":{"icaoId":"SBTT","flightCategory":"VFR","rawOb":"METAR SBTT 041900Z 13002KT 9999 FEW020 SCT025 28/23 Q1012","temp":28,"dewp":23,"wdir":130,"wspd":2,"visib":"6+","altim":1012,"clouds":[{"cover":"FEW","base":2000},{"cover":"SCT","base":2500}],"obsTime":1777921200},"SBUY":{"icaoId":"SBUY","flightCategory":"VFR","rawOb":"METAR SBUY 041900Z 02006KT 9999 FEW025 FEW035TCU 31/24 Q1008","temp":31,"dewp":24,"wdir":20,"wspd":6,"visib":"6+","altim":1008,"clouds":[{"cover":"FEW","base":2500},{"cover":"FEW","base":3500}],"obsTime":1777921200},"SBVH":{"icaoId":"SBVH","flightCategory":"VFR","rawOb":"METAR SBVH 041900Z 34005KT 9999 FEW045 30/19 Q1014","temp":30,"dewp":19,"wdir":340,"wspd":5,"visib":"6+","altim":1014,"clouds":[{"cover":"FEW","base":4500}],"obsTime":1777921200},"SBGM":{"icaoId":"SBGM","flightCategory":"VFR","rawOb":"METAR SBGM 041900Z 04004KT 9999 BKN040 32/21 Q1011","temp":32,"dewp":21,"wdir":40,"wspd":4,"visib":"6+","altim":1011,"clouds":[{"cover":"BKN","base":4000}],"obsTime":1777921200},"SBJP":{"icaoId":"SBJP","flightCategory":"VFR","rawOb":"METAR SBJP 041900Z 14014KT 9999 SCT030 29/23 Q1012","temp":29,"dewp":23,"wdir":140,"wspd":14,"visib":"6+","altim":1012,"clouds":[{"cover":"SCT","base":3000}],"obsTime":1777921200},"SBJV":{"icaoId":"SBJV","flightCategory":"MVFR","rawOb":"METAR SBJV 041900Z 08003KT 060V120 9999 SCT020 BKN030 23/19 Q1017","temp":23,"dewp":19,"wdir":80,"wspd":3,"visib":"6+","altim":1017,"clouds":[{"cover":"SCT","base":2000},{"cover":"BKN","base":3000}],"obsTime":1777921200},"SBNM":{"icaoId":"SBNM","flightCategory":"VFR","rawOb":"METAR SBNM 042000Z 15002KT 9999 SCT030 23/22 Q1014","temp":23,"dewp":22,"wdir":150,"wspd":2,"visib":"6+","altim":1014,"clouds":[{"cover":"SCT","base":3000}],"obsTime":1777924800},"SBPF":{"icaoId":"SBPF","flightCategory":"MVFR","rawOb":"METAR SBPF 042000Z 07010KT 9999 BKN010 BKN070 20/15 Q1017","temp":20,"dewp":15,"wdir":70,"wspd":10,"visib":"6+","altim":1017,"clouds":[{"cover":"BKN","base":1000},{"cover":"BKN","base":7000}],"obsTime":1777924800},"SBAF":{"icaoId":"SBAF","flightCategory":"VFR","rawOb":"METAR SBAF 041900Z 11009KT CAVOK 26/19 Q1018","temp":26,"dewp":19,"wdir":110,"wspd":9,"visib":"6+","altim":1018,"clouds":[],"obsTime":1777921200},"SBGW":{"icaoId":"SBGW","flightCategory":"VFR","rawOb":"METAR SBGW 041900Z 04007KT 010V070 9999 FEW030 26/15 Q1019","temp":26,"dewp":15,"wdir":40,"wspd":7,"visib":"6+","altim":1019,"clouds":[{"cover":"FEW","base":3000}],"obsTime":1777921200},"SBJR":{"icaoId":"SBJR","flightCategory":"VFR","rawOb":"METAR SBJR 041900Z 12010KT 9999 SCT030 27/18 Q1018","temp":27,"dewp":18,"wdir":120,"wspd":10,"visib":"6+","altim":1018,"clouds":[{"cover":"SCT","base":3000}],"obsTime":1777921200},"SBLS":{"icaoId":"SBLS","flightCategory":"VFR","rawOb":"METAR SBLS 041900Z 16007KT 9999 SCT033 24/16 Q1021","temp":24,"dewp":16,"wdir":160,"wspd":7,"visib":"6+","altim":1021,"clouds":[{"cover":"SCT","base":3300}],"obsTime":1777921200},"SBMT":{"icaoId":"SBMT","flightCategory":"VFR","rawOb":"METAR SBMT 041900Z 29007KT 9999 SCT040 26/16 Q1019","temp":26,"dewp":16,"wdir":290,"wspd":7,"visib":"6+","altim":1019,"clouds":[{"cover":"SCT","base":4000}],"obsTime":1777921200},"SBTA":{"icaoId":"SBTA","flightCategory":"VFR","rawOb":"METAR SBTA 041900Z 05006KT 020V090 9999 FEW035 26/15 Q1018","temp":26,"dewp":15,"wdir":50,"wspd":6,"visib":"6+","altim":1018,"clouds":[{"cover":"FEW","base":3500}],"obsTime":1777921200},"SBAN":{"icaoId":"SBAN","flightCategory":"VFR","rawOb":"METAR SBAN 041900Z 16009KT 9999 FEW040 27/16 Q1020","temp":27,"dewp":16,"wdir":160,"wspd":9,"visib":"6+","altim":1020,"clouds":[{"cover":"FEW","base":4000}],"obsTime":1777921200},"SBST":{"icaoId":"SBST","flightCategory":"VFR","rawOb":"METAR SBST 041900Z /////KT 9999 BKN040 ///// Q1017","temp":null,"dewp":null,"wdir":null,"wspd":null,"visib":"6+","altim":1017,"clouds":[{"cover":"BKN","base":4000}],"obsTime":1777921200},"SBLE":{"icaoId":"SBLE","flightCategory":"VFR","rawOb":"METAR SBLE 041900Z AUTO 15006KT 100V200 CAVOK 28/18 Q1017","temp":28,"dewp":18,"wdir":150,"wspd":6,"visib":"6+","altim":1017,"clouds":[],"obsTime":1777921200},"SBIH":{"icaoId":"SBIH","flightCategory":"VFR","rawOb":"METAR SBIH 041900Z 26005KT 9999 SCT018 FEW023TCU 30/25 Q1009","temp":30,"dewp":25,"wdir":260,"wspd":5,"visib":"6+","altim":1009,"clouds":[{"cover":"SCT","base":1800},{"cover":"FEW","base":2300}],"obsTime":1777921200}}}