{"updated":1780790019,"count":75,"data":{"SBEG":{"icaoId":"SBEG","flightCategory":"VFR","rawOb":"METAR SBEG 061400Z 20002KT 9999 VCSH FEW010 SCT040 BKN100 25/23 Q1015","temp":25,"dewp":23,"wdir":200,"wspd":2,"visib":"6+","altim":1015,"clouds":[{"cover":"FEW","base":1000},{"cover":"SCT","base":4000},{"cover":"BKN","base":10000}],"obsTime":1780754400},"SBCF":{"icaoId":"SBCF","flightCategory":"VFR","rawOb":"METAR SBCF 061400Z 05004KT 9999 SCT030 20/10 Q1023","temp":20,"dewp":10,"wdir":50,"wspd":4,"visib":"6+","altim":1023,"clouds":[{"cover":"SCT","base":3000}],"obsTime":1780754400},"SBBR":{"icaoId":"SBBR","flightCategory":"VFR","rawOb":"METAR SBBR 061400Z 10010KT CAVOK 19/09 Q1023","temp":19,"dewp":9,"wdir":100,"wspd":10,"visib":"6+","altim":1023,"clouds":[],"obsTime":1780754400},"SBMA":{"icaoId":"SBMA","flightCategory":"VFR","rawOb":"METAR SBMA 061400Z 08005KT 9999 FEW015 32/22 Q1013","temp":32,"dewp":22,"wdir":80,"wspd":5,"visib":"6+","altim":1013,"clouds":[{"cover":"FEW","base":1500}],"obsTime":1780754400},"SBME":{"icaoId":"SBME","flightCategory":"VFR","rawOb":"METAR SBME 061400Z 14005KT CAVOK 22/15 Q1020","temp":22,"dewp":15,"wdir":140,"wspd":5,"visib":"6+","altim":1020,"clouds":[],"obsTime":1780754400},"SBMG":{"icaoId":"SBMG","flightCategory":"VFR","rawOb":"METAR SBMG 061400Z 14003KT CAVOK 20/15 Q1021","temp":20,"dewp":15,"wdir":140,"wspd":3,"visib":"6+","altim":1021,"clouds":[],"obsTime":1780754400},"SBFI":{"icaoId":"SBFI","flightCategory":"VFR","rawOb":"METAR SBFI 061400Z 04004KT CAVOK 21/16 Q1020","temp":21,"dewp":16,"wdir":40,"wspd":4,"visib":"6+","altim":1020,"clouds":[],"obsTime":1780754400},"SBMK":{"icaoId":"SBMK","flightCategory":"VFR","rawOb":"METAR SBMK 061400Z 07008KT CAVOK 22/10 Q1022","temp":22,"dewp":10,"wdir":70,"wspd":8,"visib":"6+","altim":1022,"clouds":[],"obsTime":1780754400},"SBAT":{"icaoId":"SBAT","flightCategory":"VFR","rawOb":"METAR SBAT 061400Z 13010KT CAVOK 31/19 Q1016","temp":31,"dewp":19,"wdir":130,"wspd":10,"visib":"6+","altim":1016,"clouds":[],"obsTime":1780754400},"SBMO":{"icaoId":"SBMO","flightCategory":"MVFR","rawOb":"METAR SBMO 061400Z 17011KT 140V200 6000 -SHRA BKN015 SCT021 BKN045 25/23 Q1015 RESHRA","temp":25,"dewp":23,"wdir":170,"wspd":11,"visib":3.73,"altim":1015,"clouds":[{"cover":"BKN","base":1500},{"cover":"SCT","base":2100},{"cover":"BKN","base":4500}],"obsTime":1780754400},"SBCG":{"icaoId":"SBCG","flightCategory":"VFR","rawOb":"METAR SBCG 061400Z 06010KT CAVOK 24/13 Q1021","temp":24,"dewp":13,"wdir":60,"wspd":10,"visib":"6+","altim":1021,"clouds":[],"obsTime":1780754400},"SBMQ":{"icaoId":"SBMQ","flightCategory":"VFR","rawOb":"METAR SBMQ 061400Z 05007KT 9999 SCT019 30/26 Q1013","temp":30,"dewp":26,"wdir":50,"wspd":7,"visib":"6+","altim":1013,"clouds":[{"cover":"SCT","base":1900}],"obsTime":1780754400},"SBNT":{"icaoId":"SBNT","flightCategory":"VFR","rawOb":"METAR SBNT 061400Z 14015KT 110V170 9999 SCT020 SCT090 29/22 Q1013","temp":29,"dewp":22,"wdir":140,"wspd":15,"visib":"6+","altim":1013,"clouds":[{"cover":"SCT","base":2000},{"cover":"SCT","base":9000}],"obsTime":1780754400},"SBFL":{"icaoId":"SBFL","flightCategory":"VFR","rawOb":"METAR SBFL 061400Z 31006KT CAVOK 21/15 Q1018","temp":21,"dewp":15,"wdir":310,"wspd":6,"visib":"6+","altim":1018,"clouds":[],"obsTime":1780754400},"SBBV":{"icaoId":"SBBV","flightCategory":"IFR","rawOb":"METAR SBBV 061400Z 09016KT 9999 VCSH BKN009 BKN025 FEW030TCU BKN070 24/23 Q1015","temp":24,"dewp":23,"wdir":90,"wspd":16,"visib":"6+","altim":1015,"clouds":[{"cover":"BKN","base":900},{"cover":"BKN","base":2500},{"cover":"FEW","base":3000},{"cover":"BKN","base":7000}],"obsTime":1780754400},"SBPA":{"icaoId":"SBPA","flightCategory":"VFR","rawOb":"METAR SBPA 061400Z 26005KT 230V290 9999 FEW012 19/16 Q1018","temp":19,"dewp":16,"wdir":260,"wspd":5,"visib":"6+","altim":1018,"clouds":[{"cover":"FEW","base":1200}],"obsTime":1780754400},"SBPJ":{"icaoId":"SBPJ","flightCategory":"VFR","rawOb":"METAR SBPJ 061400Z 12008KT 070V170 CAVOK 30/17 Q1016","temp":30,"dewp":17,"wdir":120,"wspd":8,"visib":"6+","altim":1016,"clouds":[],"obsTime":1780754400},"SBFZ":{"icaoId":"SBFZ","flightCategory":"MVFR","rawOb":"METAR SBFZ 061400Z 15013KT 120V180 9999 BKN027 29/21 Q1012","temp":29,"dewp":21,"wdir":150,"wspd":13,"visib":"6+","altim":1012,"clouds":[{"cover":"BKN","base":2700}],"obsTime":1780754400},"SBGL":{"icaoId":"SBGL","flightCategory":"VFR","rawOb":"METAR SBGL 061400Z 01004KT 9999 FEW020 22/14 Q1020","temp":22,"dewp":14,"wdir":10,"wspd":4,"visib":"6+","altim":1020,"clouds":[{"cover":"FEW","base":2000}],"obsTime":1780754400},"SBPV":{"icaoId":"SBPV","flightCategory":"VFR","rawOb":"METAR SBPV 061400Z 26001KT CAVOK 27/23 Q1014","temp":27,"dewp":23,"wdir":260,"wspd":1,"visib":"6+","altim":1014,"clouds":[],"obsTime":1780754400},"SBRB":{"icaoId":"SBRB","flightCategory":"VFR","rawOb":"METAR SBRB 061400Z 15004KT CAVOK 29/22 Q1016","temp":29,"dewp":22,"wdir":150,"wspd":4,"visib":"6+","altim":1016,"clouds":[],"obsTime":1780754400},"SBCP":{"icaoId":"SBCP","flightCategory":"VFR","rawOb":"METAR SBCP 061400Z 31002KT 9999 SCT020 23/14 Q1020","temp":23,"dewp":14,"wdir":310,"wspd":2,"visib":"6+","altim":1020,"clouds":[{"cover":"SCT","base":2000}],"obsTime":1780754400},"SBRF":{"icaoId":"SBRF","flightCategory":"MVFR","rawOb":"METAR SBRF 061400Z 13009KT 9999 VCSH SCT009 BKN020 BKN040 26/24 Q1014","temp":26,"dewp":24,"wdir":130,"wspd":9,"visib":"6+","altim":1014,"clouds":[{"cover":"SCT","base":900},{"cover":"BKN","base":2000},{"cover":"BKN","base":4000}],"obsTime":1780754400},"SBGO":{"icaoId":"SBGO","flightCategory":"VFR","rawOb":"METAR SBGO 061400Z 08011KT CAVOK 24/11 Q1021","temp":24,"dewp":11,"wdir":80,"wspd":11,"visib":"6+","altim":1021,"clouds":[],"obsTime":1780754400},"SBCB":{"icaoId":"SBCB","flightCategory":"VFR","rawOb":"METAR SBCB 061400Z 05006KT CAVOK 23/14 Q1021","temp":23,"dewp":14,"wdir":50,"wspd":6,"visib":"6+","altim":1021,"clouds":[],"obsTime":1780754400},"SBSG":{"icaoId":"SBSG","flightCategory":"MVFR","rawOb":"METAR SBSG 061400Z 14009KT 100V190 9999 BKN025 FEW027TCU 29/23 Q1013","temp":29,"dewp":23,"wdir":140,"wspd":9,"visib":"6+","altim":1013,"clouds":[{"cover":"BKN","base":2500},{"cover":"FEW","base":2700}],"obsTime":1780754400},"SBCR":{"icaoId":"SBCR","flightCategory":"VFR","rawOb":"METAR SBCR 061400Z 09010KT CAVOK 27/15 Q1018","temp":27,"dewp":15,"wdir":90,"wspd":10,"visib":"6+","altim":1018,"clouds":[],"obsTime":1780754400},"SBSL":{"icaoId":"SBSL","flightCategory":"MVFR","rawOb":"METAR SBSL 061400Z 14007KT 110V180 9999 BKN025 FEW027TCU SCT070 29/24 Q1012","temp":29,"dewp":24,"wdir":140,"wspd":7,"visib":"6+","altim":1012,"clouds":[{"cover":"BKN","base":2500},{"cover":"FEW","base":2700},{"cover":"SCT","base":7000}],"obsTime":1780754400},"SBGR":{"icaoId":"SBGR","flightCategory":"VFR","rawOb":"METAR SBGR 061400Z 35004KT 310V050 CAVOK 19/12 Q1022","temp":19,"dewp":12,"wdir":350,"wspd":4,"visib":"6+","altim":1022,"clouds":[],"obsTime":1780754400},"SBSN":{"icaoId":"SBSN","flightCategory":"VFR","rawOb":"METAR SBSN 061400Z 09007KT 030V090 9999 VCSH SCT013 27/25 Q1013","temp":27,"dewp":25,"wdir":90,"wspd":7,"visib":"6+","altim":1013,"clouds":[{"cover":"SCT","base":1300}],"obsTime":1780754400},"SBBE":{"icaoId":"SBBE","flightCategory":"MVFR","rawOb":"METAR SBBE 061400Z 12008KT 9999 BKN026 30/23 Q1013","temp":30,"dewp":23,"wdir":120,"wspd":8,"visib":"6+","altim":1013,"clouds":[{"cover":"BKN","base":2600}],"obsTime":1780754400},"SBSP":{"icaoId":"SBSP","flightCategory":"VFR","rawOb":"METAR SBSP 061400Z 30006KT 250V060 CAVOK 19/11 Q1023","temp":19,"dewp":11,"wdir":300,"wspd":6,"visib":"6+","altim":1023,"clouds":[],"obsTime":1780754400},"SBHT":{"icaoId":"SBHT","flightCategory":"MVFR","rawOb":"METAR SBHT 061400Z 08006KT 9999 BKN025 30/25 Q1013","temp":30,"dewp":25,"wdir":80,"wspd":6,"visib":"6+","altim":1013,"clouds":[{"cover":"BKN","base":2500}],"obsTime":1780754400},"SBSV":{"icaoId":"SBSV","flightCategory":"MVFR","rawOb":"METAR SBSV 061400Z 15010KT 8000 VCSH SCT023 FEW025TCU SCT030 BKN060 27/20 Q1017","temp":27,"dewp":20,"wdir":150,"wspd":10,"visib":4.97,"altim":1017,"clouds":[{"cover":"SCT","base":2300},{"cover":"FEW","base":2500},{"cover":"SCT","base":3000},{"cover":"BKN","base":6000}],"obsTime":1780754400},"SBTE":{"icaoId":"SBTE","flightCategory":"VFR","rawOb":"METAR SBTE 061400Z 15010KT 9999 FEW025 30/20 Q1013","temp":30,"dewp":20,"wdir":150,"wspd":10,"visib":"6+","altim":1013,"clouds":[{"cover":"FEW","base":2500}],"obsTime":1780754400},"SBCZ":{"icaoId":"SBCZ","flightCategory":"VFR","rawOb":"METAR SBCZ 061400Z 19004KT CAVOK 26/23 Q1016","temp":26,"dewp":23,"wdir":190,"wspd":4,"visib":"6+","altim":1016,"clouds":[],"obsTime":1780754400},"SBLO":{"icaoId":"SBLO","flightCategory":"VFR","rawOb":"METAR SBLO 061400Z 13004KT CAVOK 18/13 Q1023","temp":18,"dewp":13,"wdir":130,"wspd":4,"visib":"6+","altim":1023,"clouds":[],"obsTime":1780754400},"SBIL":{"icaoId":"SBIL","flightCategory":"VFR","rawOb":"METAR SBIL 061400Z 22009KT 9999 SCT023 SCT080 28/19 Q1019","temp":28,"dewp":19,"wdir":220,"wspd":9,"visib":"6+","altim":1019,"clouds":[{"cover":"SCT","base":2300},{"cover":"SCT","base":8000}],"obsTime":1780754400},"SBUL":{"icaoId":"SBUL","flightCategory":"VFR","rawOb":"METAR SBUL 061400Z 08010KT CAVOK 20/09 Q1023","temp":20,"dewp":9,"wdir":80,"wspd":10,"visib":"6+","altim":1023,"clouds":[],"obsTime":1780754400},"SBCT":{"icaoId":"SBCT","flightCategory":"IFR","rawOb":"METAR SBCT 061400Z 27004KT 210V350 5000 BR BKN008 14/13 Q1023","temp":14,"dewp":13,"wdir":270,"wspd":4,"visib":3.11,"altim":1023,"clouds":[{"cover":"BKN","base":800}],"obsTime":1780754400},"SBUR":{"icaoId":"SBUR","flightCategory":"VFR","rawOb":"METAR SBUR 061400Z 36006KT CAVOK 22/09 Q1022","temp":22,"dewp":9,"wdir":360,"wspd":6,"visib":"6+","altim":1022,"clouds":[],"obsTime":1780754400},"SBJU":{"icaoId":"SBJU","flightCategory":"MVFR","rawOb":"METAR SBJU 061400Z 18005KT 9999 BKN021 27/19 Q1017","temp":27,"dewp":19,"wdir":180,"wspd":5,"visib":"6+","altim":1017,"clouds":[{"cover":"BKN","base":2100}],"obsTime":1780754400},"SBVT":{"icaoId":"SBVT","flightCategory":"VFR","rawOb":"METAR SBVT 061400Z 16006KT 120V230 9999 FEW030 23/17 Q1020","temp":23,"dewp":17,"wdir":160,"wspd":6,"visib":"6+","altim":1020,"clouds":[{"cover":"FEW","base":3000}],"obsTime":1780754400},"SBKP":{"icaoId":"SBKP","flightCategory":"VFR","rawOb":"METAR SBKP 061400Z 36005KT 310V050 CAVOK 20/12 Q1022","temp":20,"dewp":12,"wdir":360,"wspd":5,"visib":"6+","altim":1022,"clouds":[],"obsTime":1780754400},"SBAX":{"icaoId":"SBAX","flightCategory":"VFR","rawOb":"METAR SBAX 062200Z AUTO VRB02KT CAVOK 18/06 Q1020","temp":18,"dewp":6,"wdir":"VRB","wspd":2,"visib":"6+","altim":1020,"clouds":[],"obsTime":1780783200},"SBPS":{"icaoId":"SBPS","flightCategory":"VFR","rawOb":"METAR SBPS 062200Z 25004KT 9999 FEW025 BKN070 20/18 Q1018","temp":20,"dewp":18,"wdir":250,"wspd":4,"visib":"6+","altim":1018,"clouds":[{"cover":"FEW","base":2500},{"cover":"BKN","base":7000}],"obsTime":1780783200},"SBCO":{"icaoId":"SBCO","flightCategory":"MVFR","rawOb":"METAR SBCO 062200Z 11005KT 8000 BKN013 BKN034 17/16 Q1017","temp":17,"dewp":16,"wdir":110,"wspd":5,"visib":4.97,"altim":1017,"clouds":[{"cover":"BKN","base":1300},{"cover":"BKN","base":3400}],"obsTime":1780783200},"SBSC":{"icaoId":"SBSC","flightCategory":"VFR","rawOb":"METAR SBSC 062200Z 00000KT CAVOK 18/15 Q1017","temp":18,"dewp":15,"wdir":0,"wspd":0,"visib":"6+","altim":1017,"clouds":[],"obsTime":1780783200},"SBBU":{"icaoId":"SBBU","flightCategory":"VFR","rawOb":"METAR SBBU 062200Z 00000KT CAVOK 21/14 Q1019","temp":21,"dewp":14,"wdir":0,"wspd":0,"visib":"6+","altim":1019,"clouds":[],"obsTime":1780783200},"SBSJ":{"icaoId":"SBSJ","flightCategory":"VFR","rawOb":"METAR SBSJ 062200Z 09002KT CAVOK 16/12 Q1019","temp":16,"dewp":12,"wdir":90,"wspd":2,"visib":"6+","altim":1019,"clouds":[],"obsTime":1780783200},"SBDN":{"icaoId":"SBDN","flightCategory":"VFR","rawOb":"METAR SBDN 062200Z 20002KT CAVOK 21/11 Q1018","temp":21,"dewp":11,"wdir":200,"wspd":2,"visib":"6+","altim":1018,"clouds":[],"obsTime":1780783200},"SBSM":{"icaoId":"SBSM","flightCategory":"VFR","rawOb":"METAR SBSM 062200Z 00000KT 9999 FEW035 BKN100 18/18 Q1016","temp":18,"dewp":18,"wdir":0,"wspd":0,"visib":"6+","altim":1016,"clouds":[{"cover":"FEW","base":3500},{"cover":"BKN","base":10000}],"obsTime":1780783200},"SBAR":{"icaoId":"SBAR","flightCategory":"MVFR","rawOb":"METAR SBAR 062200Z 12007KT 9999 -RA FEW020 BKN030 OVC045 24/21 Q1016","temp":24,"dewp":21,"wdir":120,"wspd":7,"visib":"6+","altim":1016,"clouds":[{"cover":"FEW","base":2000},{"cover":"BKN","base":3000},{"cover":"OVC","base":4500}],"obsTime":1780783200},"SBIP":{"icaoId":"SBIP","flightCategory":"VFR","rawOb":"METAR SBIP 062200Z AUTO 00000KT CAVOK 17/15 Q1019","temp":17,"dewp":15,"wdir":0,"wspd":0,"visib":"6+","altim":1019,"clouds":[],"obsTime":1780783200},"SBSR":{"icaoId":"SBSR","flightCategory":"VFR","rawOb":"METAR SBSR 062200Z 17001KT CAVOK 23/08 Q1018","temp":23,"dewp":8,"wdir":170,"wspd":1,"visib":"6+","altim":1018,"clouds":[],"obsTime":1780783200},"SBBH":{"icaoId":"SBBH","flightCategory":"VFR","rawOb":"METAR SBBH 062200Z 00000KT CAVOK 14/12 Q1020","temp":14,"dewp":12,"wdir":0,"wspd":0,"visib":"6+","altim":1020,"clouds":[],"obsTime":1780783200},"SBPL":{"icaoId":"SBPL","flightCategory":"VFR","rawOb":"METAR SBPL 062200Z 10009KT 9999 FEW020 BKN070 27/17 Q1016","temp":27,"dewp":17,"wdir":100,"wspd":9,"visib":"6+","altim":1016,"clouds":[{"cover":"FEW","base":2000},{"cover":"BKN","base":7000}],"obsTime":1780783200},"SBTT":{"icaoId":"SBTT","flightCategory":"VFR","rawOb":"METAR SBTT 062200Z 20005KT 9999 FEW035 FEW040TCU BKN080 26/23 Q1011","temp":26,"dewp":23,"wdir":200,"wspd":5,"visib":"6+","altim":1011,"clouds":[{"cover":"FEW","base":3500},{"cover":"FEW","base":4000},{"cover":"BKN","base":8000}],"obsTime":1780783200},"SBKG":{"icaoId":"SBKG","flightCategory":"IFR","rawOb":"METAR SBKG 062200Z 13005KT 8000 -RA SCT004 BKN007 21/21 Q1016","temp":21,"dewp":21,"wdir":130,"wspd":5,"visib":4.97,"altim":1016,"clouds":[{"cover":"SCT","base":400},{"cover":"BKN","base":700}],"obsTime":1780783200},"SBTU":{"icaoId":"SBTU","flightCategory":"VFR","rawOb":"METAR SBTU 062200Z AUTO 00000KT 9999 // NCD ///// Q1012","temp":null,"dewp":null,"wdir":0,"wspd":0,"visib":"6+","altim":1012,"clouds":[],"obsTime":1780783200},"SBOI":{"icaoId":"SBOI","flightCategory":"VFR","rawOb":"METAR SBOI 062200Z AUTO 05001KT 9999 FEW049 27/25 Q1012","temp":27,"dewp":25,"wdir":50,"wspd":1,"visib":"6+","altim":1012,"clouds":[{"cover":"FEW","base":4900}],"obsTime":1780783200},"SBCA":{"icaoId":"SBCA","flightCategory":"VFR","rawOb":"METAR SBCA 062200Z 34003KT CAVOK 19/12 Q1019","temp":19,"dewp":12,"wdir":340,"wspd":3,"visib":"6+","altim":1019,"clouds":[],"obsTime":1780783200},"SBVH":{"icaoId":"SBVH","flightCategory":"VFR","rawOb":"METAR SBVH 062200Z 07003KT CAVOK 25/17 Q1015","temp":25,"dewp":17,"wdir":70,"wspd":3,"visib":"6+","altim":1015,"clouds":[],"obsTime":1780783200},"SBTF":{"icaoId":"SBTF","flightCategory":"VFR","rawOb":"METAR SBTF 062200Z 24002KT 9999 FEW018 28/26 Q1010","temp":28,"dewp":26,"wdir":240,"wspd":2,"visib":"6+","altim":1010,"clouds":[{"cover":"FEW","base":1800}],"obsTime":1780783200},"SBUY":{"icaoId":"SBUY","flightCategory":"VFR","rawOb":"METAR SBUY 062200Z 02002KT 9999 FEW006 SCT030 BKN100 23/22 Q1009 RERA","temp":23,"dewp":22,"wdir":20,"wspd":2,"visib":"6+","altim":1009,"clouds":[{"cover":"FEW","base":600},{"cover":"SCT","base":3000},{"cover":"BKN","base":10000}],"obsTime":1780783200},"SBJP":{"icaoId":"SBJP","flightCategory":"IFR","rawOb":"METAR SBJP 062200Z 09003KT 060V130 5000 -RA BKN007 BKN017 OVC070 24/24 Q1014","temp":24,"dewp":24,"wdir":90,"wspd":3,"visib":3.11,"altim":1014,"clouds":[{"cover":"BKN","base":700},{"cover":"BKN","base":1700},{"cover":"OVC","base":7000}],"obsTime":1780783200},"SBLS":{"icaoId":"SBLS","flightCategory":"VFR","rawOb":"METAR SBLS 062200Z 12006KT CAVOK 17/10 Q1020","temp":17,"dewp":10,"wdir":120,"wspd":6,"visib":"6+","altim":1020,"clouds":[],"obsTime":1780783200},"SBMT":{"icaoId":"SBMT","flightCategory":"VFR","rawOb":"METAR SBMT 062200Z 26002KT CAVOK 13/09 Q1019","temp":13,"dewp":9,"wdir":260,"wspd":2,"visib":"6+","altim":1019,"clouds":[],"obsTime":1780783200},"SBNM":{"icaoId":"SBNM","flightCategory":"VFR","rawOb":"METAR SBNM 062200Z AUTO 00000KT CAVOK 20/16 Q1017","temp":20,"dewp":16,"wdir":0,"wspd":0,"visib":"6+","altim":1017,"clouds":[],"obsTime":1780783200},"SBLE":{"icaoId":"SBLE","flightCategory":"VFR","rawOb":"METAR SBLE 062200Z AUTO 03005KT CAVOK 20/17 Q1018","temp":20,"dewp":17,"wdir":30,"wspd":5,"visib":"6+","altim":1018,"clouds":[],"obsTime":1780783200},"SBJV":{"icaoId":"SBJV","flightCategory":"VFR","rawOb":"METAR SBJV 062200Z 31002KT CAVOK 19/18 Q1016","temp":19,"dewp":18,"wdir":310,"wspd":2,"visib":"6+","altim":1016,"clouds":[],"obsTime":1780783200},"SBAN":{"icaoId":"SBAN","flightCategory":"VFR","rawOb":"METAR SBAN 062200Z 12005KT CAVOK 19/08 Q1020","temp":19,"dewp":8,"wdir":120,"wspd":5,"visib":"6+","altim":1020,"clouds":[],"obsTime":1780783200},"SBJR":{"icaoId":"SBJR","flightCategory":"VFR","rawOb":"METAR SBJR 062200Z 00000KT CAVOK 17/16 Q1017","temp":17,"dewp":16,"wdir":0,"wspd":0,"visib":"6+","altim":1017,"clouds":[],"obsTime":1780783200},"SBAF":{"icaoId":"SBAF","flightCategory":"VFR","rawOb":"METAR SBAF 062200Z 26003KT CAVOK 16/16 Q1017","temp":16,"dewp":16,"wdir":260,"wspd":3,"visib":"6+","altim":1017,"clouds":[],"obsTime":1780783200},"SBGW":{"icaoId":"SBGW","flightCategory":"VFR","rawOb":"METAR SBGW 062200Z 01002KT CAVOK 16/10 Q1019","temp":16,"dewp":10,"wdir":10,"wspd":2,"visib":"6+","altim":1019,"clouds":[],"obsTime":1780783200}}}