{"updated":1775734953,"count":82,"data":{"SBFI":{"icaoId":"SBFI","flightCategory":"VFR","rawOb":"METAR SBFI 091000Z 00000KT 9000 2000S BCFG NSC 14/14 Q1017","temp":14,"dewp":14,"wdir":0,"wspd":0,"visib":5.59,"altim":1017,"clouds":[],"obsTime":1775728800},"SBBV":{"icaoId":"SBBV","flightCategory":"VFR","rawOb":"METAR SBBV 091000Z 09004KT 9999 FEW030 SCT100 25/23 Q1012","temp":25,"dewp":23,"wdir":90,"wspd":4,"visib":"6+","altim":1012,"clouds":[{"cover":"FEW","base":3000},{"cover":"SCT","base":10000}],"obsTime":1775728800},"SBCB":{"icaoId":"SBCB","flightCategory":"VFR","rawOb":"METAR SBCB 091000Z 29006KT 9999 FEW025 SCT090 27/22 Q1010","temp":27,"dewp":22,"wdir":290,"wspd":6,"visib":"6+","altim":1010,"clouds":[{"cover":"FEW","base":2500},{"cover":"SCT","base":9000}],"obsTime":1775728800},"SBCF":{"icaoId":"SBCF","flightCategory":"MVFR","rawOb":"METAR SBCF 091000Z 19002KT 8000 NSC 20/19 Q1018","temp":20,"dewp":19,"wdir":190,"wspd":2,"visib":4.97,"altim":1018,"clouds":[],"obsTime":1775728800},"SBCG":{"icaoId":"SBCG","flightCategory":"VFR","rawOb":"METAR SBCG 091000Z 12005KT 9999 SCT008 SCT060 22/21 Q1017","temp":22,"dewp":21,"wdir":120,"wspd":5,"visib":"6+","altim":1017,"clouds":[{"cover":"SCT","base":800},{"cover":"SCT","base":6000}],"obsTime":1775728800},"SBCP":{"icaoId":"SBCP","flightCategory":"VFR","rawOb":"METAR SBCP 091000Z /////KT 9999 SCT020 BKN090 ///// Q1010","temp":null,"dewp":null,"wdir":null,"wspd":null,"visib":"6+","altim":1010,"clouds":[{"cover":"SCT","base":2000},{"cover":"BKN","base":9000}],"obsTime":1775728800},"SBCR":{"icaoId":"SBCR","flightCategory":"VFR","rawOb":"METAR SBCR 091100Z 28002KT 9999 FEW013 BKN035 24/21 Q1014","temp":24,"dewp":21,"wdir":280,"wspd":2,"visib":"6+","altim":1014,"clouds":[{"cover":"FEW","base":1300},{"cover":"BKN","base":3500}],"obsTime":1775732400},"SBCT":{"icaoId":"SBCT","flightCategory":"VFR","rawOb":"METAR SBCT 091000Z 26004KT CAVOK 14/13 Q1017","temp":14,"dewp":13,"wdir":260,"wspd":4,"visib":"6+","altim":1017,"clouds":[],"obsTime":1775728800},"SBEG":{"icaoId":"SBEG","flightCategory":"VFR","rawOb":"METAR SBEG 091000Z 00000KT 9999 FEW004 24/24 Q1011","temp":24,"dewp":24,"wdir":0,"wspd":0,"visib":"6+","altim":1011,"clouds":[{"cover":"FEW","base":400}],"obsTime":1775728800},"SBAT":{"icaoId":"SBAT","flightCategory":"VFR","rawOb":"METAR SBAT 091100Z 36004KT 9999 VCSH SCT020 SCT080 25/25 Q1014","temp":25,"dewp":25,"wdir":360,"wspd":4,"visib":"6+","altim":1014,"clouds":[{"cover":"SCT","base":2000},{"cover":"SCT","base":8000}],"obsTime":1775732400},"SBFL":{"icaoId":"SBFL","flightCategory":"VFR","rawOb":"METAR SBFL 091000Z 27004KT 170V290 CAVOK 19/17 Q1012","temp":19,"dewp":17,"wdir":270,"wspd":4,"visib":"6+","altim":1012,"clouds":[],"obsTime":1775728800},"SBFZ":{"icaoId":"SBFZ","flightCategory":"VFR","rawOb":"METAR SBFZ 091000Z 18004KT 9999 SCT025 26/24 Q1011","temp":26,"dewp":24,"wdir":180,"wspd":4,"visib":"6+","altim":1011,"clouds":[{"cover":"SCT","base":2500}],"obsTime":1775728800},"SBGL":{"icaoId":"SBGL","flightCategory":"VFR","rawOb":"METAR SBGL 091000Z 01004KT 340V060 9999 FEW030 26/21 Q1010","temp":26,"dewp":21,"wdir":10,"wspd":4,"visib":"6+","altim":1010,"clouds":[{"cover":"FEW","base":3000}],"obsTime":1775728800},"SBGO":{"icaoId":"SBGO","flightCategory":"VFR","rawOb":"METAR SBGO 091000Z 14004KT 9999 FEW002 BKN100 21/20 Q1018","temp":21,"dewp":20,"wdir":140,"wspd":4,"visib":"6+","altim":1018,"clouds":[{"cover":"FEW","base":200},{"cover":"BKN","base":10000}],"obsTime":1775728800},"SBGR":{"icaoId":"SBGR","flightCategory":"MVFR","rawOb":"METAR SBGR 091000Z 26005KT 9999 BKN030 22/20 Q1017","temp":22,"dewp":20,"wdir":260,"wspd":5,"visib":"6+","altim":1017,"clouds":[{"cover":"BKN","base":3000}],"obsTime":1775728800},"SBHT":{"icaoId":"SBHT","flightCategory":"VFR","rawOb":"METAR SBHT 091000Z 09002KT 9999 SCT015 BKN080 25/24 Q1012","temp":25,"dewp":24,"wdir":90,"wspd":2,"visib":"6+","altim":1012,"clouds":[{"cover":"SCT","base":1500},{"cover":"BKN","base":8000}],"obsTime":1775728800},"SBIL":{"icaoId":"SBIL","flightCategory":"VFR","rawOb":"METAR SBIL 091000Z 30006KT 9999 FEW020 24/24 Q1014","temp":24,"dewp":24,"wdir":300,"wspd":6,"visib":"6+","altim":1014,"clouds":[{"cover":"FEW","base":2000}],"obsTime":1775728800},"SBJU":{"icaoId":"SBJU","flightCategory":"VFR","rawOb":"METAR SBJU 091000Z 00000KT 9999 SCT018 23/22 Q1015","temp":23,"dewp":22,"wdir":0,"wspd":0,"visib":"6+","altim":1015,"clouds":[{"cover":"SCT","base":1800}],"obsTime":1775728800},"SBKP":{"icaoId":"SBKP","flightCategory":"MVFR","rawOb":"METAR SBKP 091000Z 28002KT 250V350 9999 BKN020 22/21 Q1016","temp":22,"dewp":21,"wdir":280,"wspd":2,"visib":"6+","altim":1016,"clouds":[{"cover":"BKN","base":2000}],"obsTime":1775728800},"SBLO":{"icaoId":"SBLO","flightCategory":"VFR","rawOb":"METAR SBLO 091000Z 25002KT CAVOK 19/18 Q1016","temp":19,"dewp":18,"wdir":250,"wspd":2,"visib":"6+","altim":1016,"clouds":[],"obsTime":1775728800},"SBMA":{"icaoId":"SBMA","flightCategory":"VFR","rawOb":"METAR SBMA 091000Z 00000KT 9999 FEW015 25/24 Q1012","temp":25,"dewp":24,"wdir":0,"wspd":0,"visib":"6+","altim":1012,"clouds":[{"cover":"FEW","base":1500}],"obsTime":1775728800},"SBME":{"icaoId":"SBME","flightCategory":"VFR","rawOb":"METAR SBME 091000Z 23001KT CAVOK 25/21 Q1010","temp":25,"dewp":21,"wdir":230,"wspd":1,"visib":"6+","altim":1010,"clouds":[],"obsTime":1775728800},"SBMG":{"icaoId":"SBMG","flightCategory":"MVFR","rawOb":"METAR SBMG 091000Z 15007KT 7000 2000SE BCFG FEW001 BKN100 18/18 Q1016","temp":18,"dewp":18,"wdir":150,"wspd":7,"visib":4.35,"altim":1016,"clouds":[{"cover":"FEW","base":100},{"cover":"BKN","base":10000}],"obsTime":1775728800},"SBMK":{"icaoId":"SBMK","flightCategory":"VFR","rawOb":"METAR SBMK 091100Z 00000KT CAVOK 24/20 Q1017","temp":24,"dewp":20,"wdir":0,"wspd":0,"visib":"6+","altim":1017,"clouds":[],"obsTime":1775732400},"SBMO":{"icaoId":"SBMO","flightCategory":"VFR","rawOb":"METAR SBMO 091000Z 29003KT 260V350 9999 FEW020 25/24 Q1013","temp":25,"dewp":24,"wdir":290,"wspd":3,"visib":"6+","altim":1013,"clouds":[{"cover":"FEW","base":2000}],"obsTime":1775728800},"SBMQ":{"icaoId":"SBMQ","flightCategory":"VFR","rawOb":"METAR SBMQ 091000Z 36003KT 9999 FEW006 26/25 Q1012","temp":26,"dewp":25,"wdir":360,"wspd":3,"visib":"6+","altim":1012,"clouds":[{"cover":"FEW","base":600}],"obsTime":1775728800},"SBNT":{"icaoId":"SBNT","flightCategory":"VFR","rawOb":"METAR SBNT 091000Z 17006KT 9999 FEW019 BKN090 25/23 Q1012","temp":25,"dewp":23,"wdir":170,"wspd":6,"visib":"6+","altim":1012,"clouds":[{"cover":"FEW","base":1900},{"cover":"BKN","base":9000}],"obsTime":1775728800},"SBPA":{"icaoId":"SBPA","flightCategory":"VFR","rawOb":"METAR SBPA 091000Z 27007KT CAVOK 17/16 Q1015","temp":17,"dewp":16,"wdir":270,"wspd":7,"visib":"6+","altim":1015,"clouds":[],"obsTime":1775728800},"SBPJ":{"icaoId":"SBPJ","flightCategory":"VFR","rawOb":"METAR SBPJ 091000Z 00000KT 9999 SCT045 SCT100 23/23 Q1013","temp":23,"dewp":23,"wdir":0,"wspd":0,"visib":"6+","altim":1013,"clouds":[{"cover":"SCT","base":4500},{"cover":"SCT","base":10000}],"obsTime":1775728800},"SBPV":{"icaoId":"SBPV","flightCategory":"VFR","rawOb":"METAR SBPV 091000Z 00000KT 9999 SCT015 24/23 Q1012","temp":24,"dewp":23,"wdir":0,"wspd":0,"visib":"6+","altim":1012,"clouds":[{"cover":"SCT","base":1500}],"obsTime":1775728800},"SBRB":{"icaoId":"SBRB","flightCategory":"LIFR","rawOb":"METAR SBRB 091000Z 20004KT 5000 BR BKN003 24/23 Q1013","temp":24,"dewp":23,"wdir":200,"wspd":4,"visib":3.11,"altim":1013,"clouds":[{"cover":"BKN","base":300}],"obsTime":1775728800},"SBRF":{"icaoId":"SBRF","flightCategory":"VFR","rawOb":"METAR SBRF 091000Z 20003KT 9999 FEW025 26/23 Q1012","temp":26,"dewp":23,"wdir":200,"wspd":3,"visib":"6+","altim":1012,"clouds":[{"cover":"FEW","base":2500}],"obsTime":1775728800},"SBSG":{"icaoId":"SBSG","flightCategory":"VFR","rawOb":"METAR SBSG 091000Z 18004KT 9999 VCSH SCT020 FEW030TCU SCT100 24/23 Q1012","temp":24,"dewp":23,"wdir":180,"wspd":4,"visib":"6+","altim":1012,"clouds":[{"cover":"SCT","base":2000},{"cover":"FEW","base":3000},{"cover":"SCT","base":10000}],"obsTime":1775728800},"SBSL":{"icaoId":"SBSL","flightCategory":"VFR","rawOb":"METAR SBSL 091000Z 06007KT CAVOK 26/24 Q1012","temp":26,"dewp":24,"wdir":60,"wspd":7,"visib":"6+","altim":1012,"clouds":[],"obsTime":1775728800},"SBSN":{"icaoId":"SBSN","flightCategory":"MVFR","rawOb":"METAR SBSN 091000Z 13005KT 9999 -RA SCT009 BKN015 OVC100 25/24 Q1012","temp":25,"dewp":24,"wdir":130,"wspd":5,"visib":"6+","altim":1012,"clouds":[{"cover":"SCT","base":900},{"cover":"BKN","base":1500},{"cover":"OVC","base":10000}],"obsTime":1775728800},"SBSP":{"icaoId":"SBSP","flightCategory":"MVFR","rawOb":"METAR SBSP 091000Z 29005KT 220V340 9999 BKN019 BKN050 22/19 Q1018","temp":22,"dewp":19,"wdir":290,"wspd":5,"visib":"6+","altim":1018,"clouds":[{"cover":"BKN","base":1900},{"cover":"BKN","base":5000}],"obsTime":1775728800},"SBSV":{"icaoId":"SBSV","flightCategory":"VFR","rawOb":"METAR SBSV 091000Z 00000KT 9999 FEW025 27/22 Q1013","temp":27,"dewp":22,"wdir":0,"wspd":0,"visib":"6+","altim":1013,"clouds":[{"cover":"FEW","base":2500}],"obsTime":1775728800},"SBTE":{"icaoId":"SBTE","flightCategory":"MVFR","rawOb":"METAR SBTE 091000Z 00000KT 9999 BKN012 26/24 Q1013","temp":26,"dewp":24,"wdir":0,"wspd":0,"visib":"6+","altim":1013,"clouds":[{"cover":"BKN","base":1200}],"obsTime":1775728800},"SBUL":{"icaoId":"SBUL","flightCategory":"VFR","rawOb":"METAR SBUL 091000Z 23008KT 9999 FEW008 BKN080 19/18 Q1019","temp":19,"dewp":18,"wdir":230,"wspd":8,"visib":"6+","altim":1019,"clouds":[{"cover":"FEW","base":800},{"cover":"BKN","base":8000}],"obsTime":1775728800},"SBUR":{"icaoId":"SBUR","flightCategory":"VFR","rawOb":"METAR SBUR 091000Z 01006KT CAVOK 20/19 Q1017","temp":20,"dewp":19,"wdir":10,"wspd":6,"visib":"6+","altim":1017,"clouds":[],"obsTime":1775728800},"SBVT":{"icaoId":"SBVT","flightCategory":"VFR","rawOb":"METAR SBVT 091000Z 02008KT CAVOK 26/23 Q1012","temp":26,"dewp":23,"wdir":20,"wspd":8,"visib":"6+","altim":1012,"clouds":[],"obsTime":1775728800},"SBBE":{"icaoId":"SBBE","flightCategory":"MVFR","rawOb":"METAR SBBE 091000Z 09003KT 7000 FEW030 25/25 Q1012","temp":25,"dewp":25,"wdir":90,"wspd":3,"visib":4.35,"altim":1012,"clouds":[{"cover":"FEW","base":3000}],"obsTime":1775728800},"SBBR":{"icaoId":"SBBR","flightCategory":"VFR","rawOb":"METAR SBBR 091000Z 14003KT 9999 FEW030 BKN080 20/19 Q1019","temp":20,"dewp":19,"wdir":140,"wspd":3,"visib":"6+","altim":1019,"clouds":[{"cover":"FEW","base":3000},{"cover":"BKN","base":8000}],"obsTime":1775728800},"SBTT":{"icaoId":"SBTT","flightCategory":"VFR","rawOb":"METAR SBTT 091100Z 04002KT 9999 FEW005 SCT090 24/22 Q1013","temp":24,"dewp":22,"wdir":40,"wspd":2,"visib":"6+","altim":1013,"clouds":[{"cover":"FEW","base":500},{"cover":"SCT","base":9000}],"obsTime":1775732400},"SBTF":{"icaoId":"SBTF","flightCategory":"VFR","rawOb":"SPECI SBTF 091115Z 16002KT 9999 SCT006 SCT009 25/25 Q1012","temp":25,"dewp":25,"wdir":160,"wspd":2,"visib":"6+","altim":1012,"clouds":[{"cover":"SCT","base":600},{"cover":"SCT","base":900}],"obsTime":1775733300},"SBPP":{"icaoId":"SBPP","flightCategory":"IFR","rawOb":"SPECI SBPP 091115Z 15005KT 5000 BR BKN009 OVC070 18/18 Q1018","temp":18,"dewp":18,"wdir":150,"wspd":5,"visib":3.11,"altim":1018,"clouds":[{"cover":"BKN","base":900},{"cover":"OVC","base":7000}],"obsTime":1775733300},"SBBH":{"icaoId":"SBBH","flightCategory":"VFR","rawOb":"METAR SBBH 091000Z 00000KT CAVOK 21/19 Q1018","temp":21,"dewp":19,"wdir":0,"wspd":0,"visib":"6+","altim":1018,"clouds":[],"obsTime":1775728800},"SBBQ":{"icaoId":"SBBQ","flightCategory":"LIFR","rawOb":"METAR SBBQ 091100Z 28003KT 0800 FG VV004 17/17 Q1021","temp":17,"dewp":17,"wdir":280,"wspd":3,"visib":0.5,"altim":1021,"clouds":[{"cover":"OVX","base":400}],"obsTime":1775732400},"SBBU":{"icaoId":"SBBU","flightCategory":"MVFR","rawOb":"METAR SBBU 091000Z 22003KT 9999 BKN025 22/21 Q1016","temp":22,"dewp":21,"wdir":220,"wspd":3,"visib":"6+","altim":1016,"clouds":[{"cover":"BKN","base":2500}],"obsTime":1775728800},"SBCA":{"icaoId":"SBCA","flightCategory":"LIFR","rawOb":"METAR SBCA 091100Z 16009KT 2000 BR BCFG OVC001 15/15 Q1019","temp":15,"dewp":15,"wdir":160,"wspd":9,"visib":1.24,"altim":1019,"clouds":[{"cover":"OVC","base":100}],"obsTime":1775732400},"SBCC":{"icaoId":"SBCC","flightCategory":"VFR","rawOb":"METAR SBCC 091000Z 03006KT 9999 FEW020 SCT100 23/20 Q1015","temp":23,"dewp":20,"wdir":30,"wspd":6,"visib":"6+","altim":1015,"clouds":[{"cover":"FEW","base":2000},{"cover":"SCT","base":10000}],"obsTime":1775728800},"SBVH":{"icaoId":"SBVH","flightCategory":"VFR","rawOb":"METAR SBVH 091100Z 11005KT CAVOK 22/21 Q1015","temp":22,"dewp":21,"wdir":110,"wspd":5,"visib":"6+","altim":1015,"clouds":[],"obsTime":1775732400},"SBAR":{"icaoId":"SBAR","flightCategory":"VFR","rawOb":"METAR SBAR 091000Z 00000KT 9999 FEW015 24/23 Q1013","temp":24,"dewp":23,"wdir":0,"wspd":0,"visib":"6+","altim":1013,"clouds":[{"cover":"FEW","base":1500}],"obsTime":1775728800},"SBAX":{"icaoId":"SBAX","flightCategory":"VFR","rawOb":"SPECI SBAX 091008Z AUTO VRB02KT 9999 FEW002 ///// Q1019","temp":null,"dewp":null,"wdir":"VRB","wspd":2,"visib":"6+","altim":1019,"clouds":[{"cover":"FEW","base":200}],"obsTime":1775729280},"SBCJ":{"icaoId":"SBCJ","flightCategory":"VFR","rawOb":"SPECI SBCJ 091015Z 00000KT 9999 SCT009 SCT030 22/21 Q1017","temp":22,"dewp":21,"wdir":0,"wspd":0,"visib":"6+","altim":1017,"clouds":[{"cover":"SCT","base":900},{"cover":"SCT","base":3000}],"obsTime":1775729700},"SBCO":{"icaoId":"SBCO","flightCategory":"VFR","rawOb":"METAR SBCO 091000Z 29007KT 9999 FEW009 17/16 Q1015","temp":17,"dewp":16,"wdir":290,"wspd":7,"visib":"6+","altim":1015,"clouds":[{"cover":"FEW","base":900}],"obsTime":1775728800},"SBDN":{"icaoId":"SBDN","flightCategory":"VFR","rawOb":"METAR SBDN 091000Z 00000KT 9000 FEW030 BKN082 22/21 Q1016","temp":22,"dewp":21,"wdir":0,"wspd":0,"visib":5.59,"altim":1016,"clouds":[{"cover":"FEW","base":3000},{"cover":"BKN","base":8200}],"obsTime":1775728800},"SBES":{"icaoId":"SBES","flightCategory":"VFR","rawOb":"METAR SBES 091000Z 00000KT CAVOK 24/// Q1010","temp":null,"dewp":null,"wdir":0,"wspd":0,"visib":"6+","altim":1010,"clouds":[],"obsTime":1775728800},"SBIP":{"icaoId":"SBIP","flightCategory":"VFR","rawOb":"METAR SBIP 091000Z AUTO 00000KT CAVOK 23/23 Q1015","temp":23,"dewp":23,"wdir":0,"wspd":0,"visib":"6+","altim":1015,"clouds":[],"obsTime":1775728800},"SBKG":{"icaoId":"SBKG","flightCategory":"IFR","rawOb":"METAR SBKG 091000Z 18004KT 9999 BKN008 BKN070 22/21 Q1015","temp":22,"dewp":21,"wdir":180,"wspd":4,"visib":"6+","altim":1015,"clouds":[{"cover":"BKN","base":800},{"cover":"BKN","base":7000}],"obsTime":1775728800},"SBOI":{"icaoId":"SBOI","flightCategory":"MVFR","rawOb":"METAR SBOI 091000Z AUTO 00000KT 9999 // FEW001/// BKN020/// 24/23 Q1013","temp":24,"dewp":23,"wdir":0,"wspd":0,"visib":"6+","altim":1013,"clouds":[{"cover":"FEW","base":100},{"cover":"BKN","base":2000}],"obsTime":1775728800},"SBPB":{"icaoId":"SBPB","flightCategory":"VFR","rawOb":"SPECI SBPB 091015Z 00000KT 9999 FEW020 27/24 Q1012","temp":27,"dewp":24,"wdir":0,"wspd":0,"visib":"6+","altim":1012,"clouds":[{"cover":"FEW","base":2000}],"obsTime":1775729700},"SBPL":{"icaoId":"SBPL","flightCategory":"MVFR","rawOb":"METAR SBPL 091000Z 12005KT 9999 BKN025 25/22 Q1014","temp":25,"dewp":22,"wdir":120,"wspd":5,"visib":"6+","altim":1014,"clouds":[{"cover":"BKN","base":2500}],"obsTime":1775728800},"SBPS":{"icaoId":"SBPS","flightCategory":"VFR","rawOb":"METAR SBPS 091000Z 27003KT 9999 FEW020 25/23 Q1014","temp":25,"dewp":23,"wdir":270,"wspd":3,"visib":"6+","altim":1014,"clouds":[{"cover":"FEW","base":2000}],"obsTime":1775728800},"SBSC":{"icaoId":"SBSC","flightCategory":"VFR","rawOb":"METAR SBSC 091000Z 05006KT CAVOK 26/21 Q1011","temp":26,"dewp":21,"wdir":50,"wspd":6,"visib":"6+","altim":1011,"clouds":[],"obsTime":1775728800},"SBSJ":{"icaoId":"SBSJ","flightCategory":"VFR","rawOb":"METAR SBSJ 091000Z 16003KT 9999 BKN033 BKN050 20/20 Q1016","temp":20,"dewp":20,"wdir":160,"wspd":3,"visib":"6+","altim":1016,"clouds":[{"cover":"BKN","base":3300},{"cover":"BKN","base":5000}],"obsTime":1775728800},"SBSM":{"icaoId":"SBSM","flightCategory":"MVFR","rawOb":"METAR SBSM 091000Z 25003KT 9999 FEW009 OVC020 17/16 Q1017","temp":17,"dewp":16,"wdir":250,"wspd":3,"visib":"6+","altim":1017,"clouds":[{"cover":"FEW","base":900},{"cover":"OVC","base":2000}],"obsTime":1775728800},"SBSR":{"icaoId":"SBSR","flightCategory":"VFR","rawOb":"METAR SBSR 091000Z 00000KT 9999 FEW035 20/19 Q1016","temp":20,"dewp":19,"wdir":0,"wspd":0,"visib":"6+","altim":1016,"clouds":[{"cover":"FEW","base":3500}],"obsTime":1775728800},"SBTD":{"icaoId":"SBTD","flightCategory":"LIFR","rawOb":"METAR SBTD 091100Z /////KT 2000 BR OVC001 16/16 Q1018","temp":16,"dewp":16,"wdir":null,"wspd":null,"visib":1.24,"altim":1018,"clouds":[{"cover":"OVC","base":100}],"obsTime":1775732400},"SBUY":{"icaoId":"SBUY","flightCategory":"IFR","rawOb":"SPECI SBUY 091030Z 19002KT 5000 BR SCT004 BKN006 BKN070 24/23 Q1011","temp":24,"dewp":23,"wdir":190,"wspd":2,"visib":3.11,"altim":1011,"clouds":[{"cover":"SCT","base":400},{"cover":"BKN","base":600},{"cover":"BKN","base":7000}],"obsTime":1775730600},"SBJR":{"icaoId":"SBJR","flightCategory":"VFR","rawOb":"METAR SBJR 091000Z 01002KT CAVOK 29/21 Q1010","temp":29,"dewp":21,"wdir":10,"wspd":2,"visib":"6+","altim":1010,"clouds":[],"obsTime":1775728800},"SBJV":{"icaoId":"SBJV","flightCategory":"VFR","rawOb":"METAR SBJV 091000Z 20001KT CAVOK 19/16 Q1013","temp":19,"dewp":16,"wdir":200,"wspd":1,"visib":"6+","altim":1013,"clouds":[],"obsTime":1775728800},"SBLS":{"icaoId":"SBLS","flightCategory":"VFR","rawOb":"METAR SBLS 091000Z 17005KT CAVOK 21/18 Q1018","temp":21,"dewp":18,"wdir":170,"wspd":5,"visib":"6+","altim":1018,"clouds":[],"obsTime":1775728800},"SBAF":{"icaoId":"SBAF","flightCategory":"VFR","rawOb":"METAR SBAF 091000Z 31002KT CAVOK 26/23 Q1011","temp":26,"dewp":23,"wdir":310,"wspd":2,"visib":"6+","altim":1011,"clouds":[],"obsTime":1775728800},"SBMT":{"icaoId":"SBMT","flightCategory":"VFR","rawOb":"METAR SBMT 091000Z 29005KT 9999 SCT030 21/19 Q1016","temp":21,"dewp":19,"wdir":290,"wspd":5,"visib":"6+","altim":1016,"clouds":[{"cover":"SCT","base":3000}],"obsTime":1775728800},"SBST":{"icaoId":"SBST","flightCategory":"VFR","rawOb":"METAR SBST 091100Z 27005KT 9999 FEW047 26/19 Q1013","temp":26,"dewp":19,"wdir":270,"wspd":5,"visib":"6+","altim":1013,"clouds":[{"cover":"FEW","base":4700}],"obsTime":1775732400},"SBPF":{"icaoId":"SBPF","flightCategory":"LIFR","rawOb":"METAR SBPF 091000Z 27010KT 9999 -RA BKN004 17/17 Q1018","temp":17,"dewp":17,"wdir":270,"wspd":10,"visib":"6+","altim":1018,"clouds":[{"cover":"BKN","base":400}],"obsTime":1775728800},"SBTA":{"icaoId":"SBTA","flightCategory":"VFR","rawOb":"METAR SBTA 091000Z 00000KT 9999 FEW010 BKN060 20/20 Q1015","temp":20,"dewp":20,"wdir":0,"wspd":0,"visib":"6+","altim":1015,"clouds":[{"cover":"FEW","base":1000},{"cover":"BKN","base":6000}],"obsTime":1775728800},"SBJP":{"icaoId":"SBJP","flightCategory":"VFR","rawOb":"METAR SBJP 091000Z 23004KT 9999 FEW020 BKN070 25/24 Q1012","temp":25,"dewp":24,"wdir":230,"wspd":4,"visib":"6+","altim":1012,"clouds":[{"cover":"FEW","base":2000},{"cover":"BKN","base":7000}],"obsTime":1775728800},"SBAN":{"icaoId":"SBAN","flightCategory":"VFR","rawOb":"METAR SBAN 091000Z 14003KT 9999 FEW030 BKN100 19/18 Q1020","temp":19,"dewp":18,"wdir":140,"wspd":3,"visib":"6+","altim":1020,"clouds":[{"cover":"FEW","base":3000},{"cover":"BKN","base":10000}],"obsTime":1775728800},"SBGW":{"icaoId":"SBGW","flightCategory":"IFR","rawOb":"METAR SBGW 091000Z 18001KT 2000 BCFG SCT002 20/16 Q1015","temp":20,"dewp":16,"wdir":180,"wspd":1,"visib":1.24,"altim":1015,"clouds":[{"cover":"SCT","base":200}],"obsTime":1775728800},"SBIH":{"icaoId":"SBIH","flightCategory":"VFR","rawOb":"METAR SBIH 091100Z 31002KT 9999 FEW007 BKN100 23/23 Q1013","temp":23,"dewp":23,"wdir":310,"wspd":2,"visib":"6+","altim":1013,"clouds":[{"cover":"FEW","base":700},{"cover":"BKN","base":10000}],"obsTime":1775732400}}}