{"updated":1784403435,"count":87,"data":{"SBSV":{"icaoId":"SBSV","flightCategory":"MVFR","rawOb":"METAR SBSV 181800Z 11011G22KT 8000 VCSH FEW009 BKN020 FEW023TCU BKN060 23/21 Q1018 RESHRA","temp":23,"dewp":21,"wdir":110,"wspd":11,"visib":4.97,"altim":1018,"clouds":[{"cover":"FEW","base":900},{"cover":"BKN","base":2000},{"cover":"FEW","base":2300},{"cover":"BKN","base":6000}],"obsTime":1784397600},"SBNT":{"icaoId":"SBNT","flightCategory":"VFR","rawOb":"METAR SBNT 181800Z 16011KT 9999 VCSH SCT009 SCT016 OVC090 26/23 Q1012","temp":26,"dewp":23,"wdir":160,"wspd":11,"visib":"6+","altim":1012,"clouds":[{"cover":"SCT","base":900},{"cover":"SCT","base":1600},{"cover":"OVC","base":9000}],"obsTime":1784397600},"SBBV":{"icaoId":"SBBV","flightCategory":"VFR","rawOb":"METAR SBBV 181800Z 14007KT 9999 BKN040 FEW045TCU 32/22 Q1010","temp":32,"dewp":22,"wdir":140,"wspd":7,"visib":"6+","altim":1010,"clouds":[{"cover":"BKN","base":4000},{"cover":"FEW","base":4500}],"obsTime":1784397600},"SBFZ":{"icaoId":"SBFZ","flightCategory":"MVFR","rawOb":"METAR SBFZ 181800Z 16013KT 9999 BKN030 28/22 Q1011","temp":28,"dewp":22,"wdir":160,"wspd":13,"visib":"6+","altim":1011,"clouds":[{"cover":"BKN","base":3000}],"obsTime":1784397600},"SBPV":{"icaoId":"SBPV","flightCategory":"VFR","rawOb":"METAR SBPV 181800Z 06007KT 9999 SCT030 33/23 Q1010","temp":33,"dewp":23,"wdir":60,"wspd":7,"visib":"6+","altim":1010,"clouds":[{"cover":"SCT","base":3000}],"obsTime":1784397600},"SBCF":{"icaoId":"SBCF","flightCategory":"VFR","rawOb":"METAR SBCF 181800Z 03011KT 9999 FEW030 24/10 Q1022","temp":24,"dewp":10,"wdir":30,"wspd":11,"visib":"6+","altim":1022,"clouds":[{"cover":"FEW","base":3000}],"obsTime":1784397600},"SBEG":{"icaoId":"SBEG","flightCategory":"VFR","rawOb":"METAR SBEG 181800Z 11011KT 9999 SCT025 FEW030TCU 31/23 Q1011","temp":31,"dewp":23,"wdir":110,"wspd":11,"visib":"6+","altim":1011,"clouds":[{"cover":"SCT","base":2500},{"cover":"FEW","base":3000}],"obsTime":1784397600},"SBSL":{"icaoId":"SBSL","flightCategory":"VFR","rawOb":"METAR SBSL 181800Z 17005KT 140V200 9999 FEW030 SCT070 30/23 Q1010","temp":30,"dewp":23,"wdir":170,"wspd":5,"visib":"6+","altim":1010,"clouds":[{"cover":"FEW","base":3000},{"cover":"SCT","base":7000}],"obsTime":1784397600},"SBSG":{"icaoId":"SBSG","flightCategory":"VFR","rawOb":"METAR SBSG 181800Z 16007KT 110V190 9999 SCT015 BKN080 25/23 Q1013","temp":25,"dewp":23,"wdir":160,"wspd":7,"visib":"6+","altim":1013,"clouds":[{"cover":"SCT","base":1500},{"cover":"BKN","base":8000}],"obsTime":1784397600},"SBRB":{"icaoId":"SBRB","flightCategory":"MVFR","rawOb":"METAR SBRB 181800Z 35006KT 9999 BKN030 32/24 Q1012","temp":32,"dewp":24,"wdir":350,"wspd":6,"visib":"6+","altim":1012,"clouds":[{"cover":"BKN","base":3000}],"obsTime":1784397600},"SBPJ":{"icaoId":"SBPJ","flightCategory":"VFR","rawOb":"METAR SBPJ 181800Z 12007KT 070V180 CAVOK 33/15 Q1013","temp":33,"dewp":15,"wdir":120,"wspd":7,"visib":"6+","altim":1013,"clouds":[],"obsTime":1784397600},"SBGL":{"icaoId":"SBGL","flightCategory":"VFR","rawOb":"METAR SBGL 181800Z 36009KT CAVOK 30/13 Q1016","temp":30,"dewp":13,"wdir":360,"wspd":9,"visib":"6+","altim":1016,"clouds":[],"obsTime":1784397600},"SBSN":{"icaoId":"SBSN","flightCategory":"VFR","rawOb":"METAR SBSN 181800Z 07008KT 9999 FEW020 31/25 Q1010","temp":31,"dewp":25,"wdir":70,"wspd":8,"visib":"6+","altim":1010,"clouds":[{"cover":"FEW","base":2000}],"obsTime":1784397600},"SBBE":{"icaoId":"SBBE","flightCategory":"VFR","rawOb":"METAR SBBE 181800Z 11007KT 9999 SCT040 BKN080 32/24 Q1009","temp":32,"dewp":24,"wdir":110,"wspd":7,"visib":"6+","altim":1009,"clouds":[{"cover":"SCT","base":4000},{"cover":"BKN","base":8000}],"obsTime":1784397600},"SBMO":{"icaoId":"SBMO","flightCategory":"MVFR","rawOb":"METAR SBMO 181800Z 13012KT 9999 BKN030 BKN070 26/20 Q1016","temp":26,"dewp":20,"wdir":130,"wspd":12,"visib":"6+","altim":1016,"clouds":[{"cover":"BKN","base":3000},{"cover":"BKN","base":7000}],"obsTime":1784397600},"SBCZ":{"icaoId":"SBCZ","flightCategory":"MVFR","rawOb":"METAR SBCZ 181800Z 18005KT 9999 BKN030 31/23 Q1012","temp":31,"dewp":23,"wdir":180,"wspd":5,"visib":"6+","altim":1012,"clouds":[{"cover":"BKN","base":3000}],"obsTime":1784397600},"SBFI":{"icaoId":"SBFI","flightCategory":"VFR","rawOb":"METAR SBFI 181800Z 02023G36KT CAVOK 30/16 Q1005","temp":30,"dewp":16,"wdir":20,"wspd":23,"visib":"6+","altim":1005,"clouds":[],"obsTime":1784397600},"SBPA":{"icaoId":"SBPA","flightCategory":"VFR","rawOb":"METAR SBPA 181800Z 33019G33KT CAVOK 32/17 Q1003","temp":32,"dewp":17,"wdir":330,"wspd":19,"visib":"6+","altim":1003,"clouds":[],"obsTime":1784397600},"SBCB":{"icaoId":"SBCB","flightCategory":"VFR","rawOb":"METAR SBCB 181800Z 10019KT CAVOK 25/19 Q1017","temp":25,"dewp":19,"wdir":100,"wspd":19,"visib":"6+","altim":1017,"clouds":[],"obsTime":1784397600},"SBMA":{"icaoId":"SBMA","flightCategory":"VFR","rawOb":"METAR SBMA 181800Z 08008KT 9999 FEW020 34/18 Q1011","temp":34,"dewp":18,"wdir":80,"wspd":8,"visib":"6+","altim":1011,"clouds":[{"cover":"FEW","base":2000}],"obsTime":1784397600},"SBFL":{"icaoId":"SBFL","flightCategory":"VFR","rawOb":"METAR SBFL 181800Z 36014KT CAVOK 28/15 Q1009","temp":28,"dewp":15,"wdir":360,"wspd":14,"visib":"6+","altim":1009,"clouds":[],"obsTime":1784397600},"SBBR":{"icaoId":"SBBR","flightCategory":"VFR","rawOb":"METAR SBBR 181800Z 10008KT CAVOK 24/09 Q1021","temp":24,"dewp":9,"wdir":100,"wspd":8,"visib":"6+","altim":1021,"clouds":[],"obsTime":1784397600},"SBMG":{"icaoId":"SBMG","flightCategory":"VFR","rawOb":"METAR SBMG 181800Z 02017KT 350V050 CAVOK 27/11 Q1014","temp":27,"dewp":11,"wdir":20,"wspd":17,"visib":"6+","altim":1014,"clouds":[],"obsTime":1784397600},"SBIL":{"icaoId":"SBIL","flightCategory":"VFR","rawOb":"METAR SBIL 181800Z 05007KT 140V210 9999 SCT025 BKN070 25/22 Q1018","temp":25,"dewp":22,"wdir":50,"wspd":7,"visib":"6+","altim":1018,"clouds":[{"cover":"SCT","base":2500},{"cover":"BKN","base":7000}],"obsTime":1784397600},"SBJU":{"icaoId":"SBJU","flightCategory":"MVFR","rawOb":"METAR SBJU 181800Z 20005KT 9999 BKN020 27/18 Q1015","temp":27,"dewp":18,"wdir":200,"wspd":5,"visib":"6+","altim":1015,"clouds":[{"cover":"BKN","base":2000}],"obsTime":1784397600},"SBAT":{"icaoId":"SBAT","flightCategory":"VFR","rawOb":"METAR SBAT 181800Z 06007KT 9999 SCT035 34/18 Q1012","temp":34,"dewp":18,"wdir":60,"wspd":7,"visib":"6+","altim":1012,"clouds":[{"cover":"SCT","base":3500}],"obsTime":1784397600},"SBHT":{"icaoId":"SBHT","flightCategory":"MVFR","rawOb":"METAR SBHT 181800Z 15005KT 9999 BKN030 33/22 Q1011","temp":33,"dewp":22,"wdir":150,"wspd":5,"visib":"6+","altim":1011,"clouds":[{"cover":"BKN","base":3000}],"obsTime":1784397600},"SBME":{"icaoId":"SBME","flightCategory":"VFR","rawOb":"METAR SBME 181800Z 03019KT CAVOK 29/15 Q1017","temp":29,"dewp":15,"wdir":30,"wspd":19,"visib":"6+","altim":1017,"clouds":[],"obsTime":1784397600},"SBMK":{"icaoId":"SBMK","flightCategory":"VFR","rawOb":"METAR SBMK 181800Z 07006KT CAVOK 25/11 Q1020","temp":25,"dewp":11,"wdir":70,"wspd":6,"visib":"6+","altim":1020,"clouds":[],"obsTime":1784397600},"SBUL":{"icaoId":"SBUL","flightCategory":"VFR","rawOb":"METAR SBUL 181800Z 08009KT CAVOK 23/10 Q1021","temp":23,"dewp":10,"wdir":80,"wspd":9,"visib":"6+","altim":1021,"clouds":[],"obsTime":1784397600},"SBUR":{"icaoId":"SBUR","flightCategory":"VFR","rawOb":"METAR SBUR 181800Z 02006KT CAVOK 25/10 Q1020","temp":25,"dewp":10,"wdir":20,"wspd":6,"visib":"6+","altim":1020,"clouds":[],"obsTime":1784397600},"SBKP":{"icaoId":"SBKP","flightCategory":"VFR","rawOb":"METAR SBKP 181800Z 35012KT 320V020 CAVOK 25/08 Q1019","temp":25,"dewp":8,"wdir":350,"wspd":12,"visib":"6+","altim":1019,"clouds":[],"obsTime":1784397600},"SBCG":{"icaoId":"SBCG","flightCategory":"VFR","rawOb":"METAR SBCG 181800Z 34014KT 9999 SCT049 BKN080 31/14 Q1013","temp":31,"dewp":14,"wdir":340,"wspd":14,"visib":"6+","altim":1013,"clouds":[{"cover":"SCT","base":4900},{"cover":"BKN","base":8000}],"obsTime":1784397600},"SBRF":{"icaoId":"SBRF","flightCategory":"MVFR","rawOb":"METAR SBRF 181800Z 14016KT 9999 VCSH BKN026 BKN050 26/22 Q1014","temp":26,"dewp":22,"wdir":140,"wspd":16,"visib":"6+","altim":1014,"clouds":[{"cover":"BKN","base":2600},{"cover":"BKN","base":5000}],"obsTime":1784397600},"SBCR":{"icaoId":"SBCR","flightCategory":"VFR","rawOb":"METAR SBCR 181800Z 36011G21KT CAVOK 33/20 Q1008","temp":33,"dewp":20,"wdir":360,"wspd":11,"visib":"6+","altim":1008,"clouds":[],"obsTime":1784397600},"SBSP":{"icaoId":"SBSP","flightCategory":"VFR","rawOb":"METAR SBSP 181800Z 35012KT 310V020 CAVOK 23/08 Q1020","temp":23,"dewp":8,"wdir":350,"wspd":12,"visib":"6+","altim":1020,"clouds":[],"obsTime":1784397600},"SBTE":{"icaoId":"SBTE","flightCategory":"VFR","rawOb":"METAR SBTE 181800Z 14011KT 9999 SCT040 BKN100 32/18 Q1010","temp":32,"dewp":18,"wdir":140,"wspd":11,"visib":"6+","altim":1010,"clouds":[{"cover":"SCT","base":4000},{"cover":"BKN","base":10000}],"obsTime":1784397600},"SBGR":{"icaoId":"SBGR","flightCategory":"VFR","rawOb":"METAR SBGR 181800Z COR 34012KT CAVOK 24/08 Q1019","temp":24,"dewp":8,"wdir":340,"wspd":12,"visib":"6+","altim":1019,"clouds":[],"obsTime":1784397600},"SBCT":{"icaoId":"SBCT","flightCategory":"VFR","rawOb":"METAR SBCT 181800Z 33011KT CAVOK 24/11 Q1017","temp":24,"dewp":11,"wdir":330,"wspd":11,"visib":"6+","altim":1017,"clouds":[],"obsTime":1784397600},"SBLO":{"icaoId":"SBLO","flightCategory":"VFR","rawOb":"METAR SBLO 181800Z 04010KT 360V070 CAVOK 26/11 Q1016","temp":26,"dewp":11,"wdir":40,"wspd":10,"visib":"6+","altim":1016,"clouds":[],"obsTime":1784397600},"SBCP":{"icaoId":"SBCP","flightCategory":"VFR","rawOb":"METAR SBCP 181800Z 08018KT CAVOK 26/18 Q1018","temp":26,"dewp":18,"wdir":80,"wspd":18,"visib":"6+","altim":1018,"clouds":[],"obsTime":1784397600},"SBMQ":{"icaoId":"SBMQ","flightCategory":"VFR","rawOb":"METAR SBMQ 181800Z 03008KT 9999 VCSH SCT040 BKN100 28/25 Q1010","temp":28,"dewp":25,"wdir":30,"wspd":8,"visib":"6+","altim":1010,"clouds":[{"cover":"SCT","base":4000},{"cover":"BKN","base":10000}],"obsTime":1784397600},"SBGO":{"icaoId":"SBGO","flightCategory":"VFR","rawOb":"METAR SBGO 181800Z 34007KT 290V030 CAVOK 28/08 Q1018","temp":28,"dewp":8,"wdir":340,"wspd":7,"visib":"6+","altim":1018,"clouds":[],"obsTime":1784397600},"SBVT":{"icaoId":"SBVT","flightCategory":"MVFR","rawOb":"METAR SBVT 181800Z 04010KT 9999 BKN025 24/19 Q1020","temp":24,"dewp":19,"wdir":40,"wspd":10,"visib":"6+","altim":1020,"clouds":[{"cover":"BKN","base":2500}],"obsTime":1784397600},"SBCJ":{"icaoId":"SBCJ","flightCategory":"VFR","rawOb":"METAR SBCJ 181800Z 11005KT 060V230 9999 FEW030 29/16 Q1015","temp":29,"dewp":16,"wdir":110,"wspd":5,"visib":"6+","altim":1015,"clouds":[{"cover":"FEW","base":3000}],"obsTime":1784397600},"SBSJ":{"icaoId":"SBSJ","flightCategory":"VFR","rawOb":"METAR SBSJ 181800Z 28003KT 230V360 CAVOK 24/11 Q1019","temp":24,"dewp":11,"wdir":280,"wspd":3,"visib":"6+","altim":1019,"clouds":[],"obsTime":1784397600},"SBUY":{"icaoId":"SBUY","flightCategory":"VFR","rawOb":"METAR SBUY 181800Z 08009KT 9999 SCT025 33/22 Q1009","temp":33,"dewp":22,"wdir":80,"wspd":9,"visib":"6+","altim":1009,"clouds":[{"cover":"SCT","base":2500}],"obsTime":1784397600},"SBOI":{"icaoId":"SBOI","flightCategory":"VFR","rawOb":"METAR SBOI 181800Z AUTO 11005KT 040V160 9999 FEW049 33/22 Q1010","temp":33,"dewp":22,"wdir":110,"wspd":5,"visib":"6+","altim":1010,"clouds":[{"cover":"FEW","base":4900}],"obsTime":1784397600},"SBPB":{"icaoId":"SBPB","flightCategory":"VFR","rawOb":"METAR SBPB 181800Z 07005KT 9999 FEW016 BKN080 31/24 Q1009","temp":31,"dewp":24,"wdir":70,"wspd":5,"visib":"6+","altim":1009,"clouds":[{"cover":"FEW","base":1600},{"cover":"BKN","base":8000}],"obsTime":1784397600},"SBPP":{"icaoId":"SBPP","flightCategory":"VFR","rawOb":"METAR SBPP 181800Z 34021KT 9999 FEW020 29/17 Q1010","temp":29,"dewp":17,"wdir":340,"wspd":21,"visib":"6+","altim":1010,"clouds":[{"cover":"FEW","base":2000}],"obsTime":1784397600},"SBPL":{"icaoId":"SBPL","flightCategory":"MVFR","rawOb":"METAR SBPL 181800Z 11012KT 9999 BKN030 29/14 Q1015","temp":29,"dewp":14,"wdir":110,"wspd":12,"visib":"6+","altim":1015,"clouds":[{"cover":"BKN","base":3000}],"obsTime":1784397600},"SBPS":{"icaoId":"SBPS","flightCategory":"VFR","rawOb":"METAR SBPS 181800Z 13004KT 9999 SCT020 SCT080 23/20 Q1020","temp":23,"dewp":20,"wdir":130,"wspd":4,"visib":"6+","altim":1020,"clouds":[{"cover":"SCT","base":2000},{"cover":"SCT","base":8000}],"obsTime":1784397600},"SBTT":{"icaoId":"SBTT","flightCategory":"MVFR","rawOb":"METAR SBTT 181800Z 27005KT 220V330 9999 BKN030 SCT080 31/25 Q1011","temp":31,"dewp":25,"wdir":270,"wspd":5,"visib":"6+","altim":1011,"clouds":[{"cover":"BKN","base":3000},{"cover":"SCT","base":8000}],"obsTime":1784397600},"SBSM":{"icaoId":"SBSM","flightCategory":"VFR","rawOb":"METAR SBSM 181800Z 01013G25KT 9999 FEW030 31/19 Q1001 WS ALL RWY","temp":31,"dewp":19,"wdir":10,"wspd":13,"visib":"6+","altim":1001,"clouds":[{"cover":"FEW","base":3000}],"obsTime":1784397600},"SBAR":{"icaoId":"SBAR","flightCategory":"VFR","rawOb":"METAR SBAR 181800Z 14013KT 100V160 9999 FEW026 27/18 Q1016","temp":27,"dewp":18,"wdir":140,"wspd":13,"visib":"6+","altim":1016,"clouds":[{"cover":"FEW","base":2600}],"obsTime":1784397600},"SBCA":{"icaoId":"SBCA","flightCategory":"VFR","rawOb":"METAR SBCA 181900Z 02020G33KT CAVOK 26/13 Q1012","temp":26,"dewp":13,"wdir":20,"wspd":20,"visib":"6+","altim":1012,"clouds":[],"obsTime":1784401200},"SBCO":{"icaoId":"SBCO","flightCategory":"VFR","rawOb":"METAR SBCO 181800Z 32013G23KT CAVOK 33/18 Q1003","temp":33,"dewp":18,"wdir":320,"wspd":13,"visib":"6+","altim":1003,"clouds":[],"obsTime":1784397600},"SBKG":{"icaoId":"SBKG","flightCategory":"MVFR","rawOb":"METAR SBKG 181800Z 11011KT 9999 BKN017 BKN070 23/21 Q1016","temp":23,"dewp":21,"wdir":110,"wspd":11,"visib":"6+","altim":1016,"clouds":[{"cover":"BKN","base":1700},{"cover":"BKN","base":7000}],"obsTime":1784397600},"SBCC":{"icaoId":"SBCC","flightCategory":"VFR","rawOb":"METAR SBCC 181800Z 01007KT CAVOK 31/16 Q1013","temp":31,"dewp":16,"wdir":10,"wspd":7,"visib":"6+","altim":1013,"clouds":[],"obsTime":1784397600},"SBGM":{"icaoId":"SBGM","flightCategory":"VFR","rawOb":"METAR SBGM 181800Z 29006KT 9999 BKN033 32/22 Q1011","temp":32,"dewp":22,"wdir":290,"wspd":6,"visib":"6+","altim":1011,"clouds":[{"cover":"BKN","base":3300}],"obsTime":1784397600},"SBVH":{"icaoId":"SBVH","flightCategory":"VFR","rawOb":"METAR SBVH 181800Z 01008KT 9999 SCT030 BKN065 30/20 Q1014","temp":30,"dewp":20,"wdir":10,"wspd":8,"visib":"6+","altim":1014,"clouds":[{"cover":"SCT","base":3000},{"cover":"BKN","base":6500}],"obsTime":1784397600},"SBAX":{"icaoId":"SBAX","flightCategory":"VFR","rawOb":"METAR SBAX 181800Z AUTO 05007KT 350V080 CAVOK 23/08 Q1021","temp":23,"dewp":8,"wdir":50,"wspd":7,"visib":"6+","altim":1021,"clouds":[],"obsTime":1784397600},"SBBH":{"icaoId":"SBBH","flightCategory":"VFR","rawOb":"METAR SBBH 181800Z 07004KT CAVOK 24/12 Q1022","temp":24,"dewp":12,"wdir":70,"wspd":4,"visib":"6+","altim":1022,"clouds":[],"obsTime":1784397600},"SBBQ":{"icaoId":"SBBQ","flightCategory":"VFR","rawOb":"METAR SBBQ 181800Z 36006KT CAVOK 22/10 Q1024","temp":22,"dewp":10,"wdir":360,"wspd":6,"visib":"6+","altim":1024,"clouds":[],"obsTime":1784397600},"SBBU":{"icaoId":"SBBU","flightCategory":"VFR","rawOb":"METAR SBBU 181800Z 04006KT CAVOK 27/11 Q1018","temp":27,"dewp":11,"wdir":40,"wspd":6,"visib":"6+","altim":1018,"clouds":[],"obsTime":1784397600},"SBDN":{"icaoId":"SBDN","flightCategory":"VFR","rawOb":"METAR SBDN 181800Z 01010KT CAVOK 28/11 Q1015","temp":28,"dewp":11,"wdir":10,"wspd":10,"visib":"6+","altim":1015,"clouds":[],"obsTime":1784397600},"SBIP":{"icaoId":"SBIP","flightCategory":"VFR","rawOb":"METAR SBIP 181800Z AUTO 01006KT 320V050 CAVOK 26/14 Q1020","temp":26,"dewp":14,"wdir":10,"wspd":6,"visib":"6+","altim":1020,"clouds":[],"obsTime":1784397600},"SBSC":{"icaoId":"SBSC","flightCategory":"VFR","rawOb":"METAR SBSC 181800Z COR 01001KT CAVOK 30/12 Q1015","temp":30,"dewp":12,"wdir":10,"wspd":1,"visib":"6+","altim":1015,"clouds":[],"obsTime":1784397600},"SBSR":{"icaoId":"SBSR","flightCategory":"VFR","rawOb":"METAR SBSR 181800Z 04008KT 330V090 CAVOK 23/07 Q1017","temp":23,"dewp":7,"wdir":40,"wspd":8,"visib":"6+","altim":1017,"clouds":[],"obsTime":1784397600},"SBES":{"icaoId":"SBES","flightCategory":"VFR","rawOb":"METAR SBES 181800Z 06016G26KT 020V080 CAVOK 27/// Q1017","temp":null,"dewp":null,"wdir":60,"wspd":16,"visib":"6+","altim":1017,"clouds":[],"obsTime":1784397600},"SBTU":{"icaoId":"SBTU","flightCategory":"VFR","rawOb":"METAR SBTU 181800Z AUTO 31007KT 280V350 9999 // NCD 32/19 Q1012","temp":32,"dewp":19,"wdir":310,"wspd":7,"visib":"6+","altim":1012,"clouds":[],"obsTime":1784397600},"SBTF":{"icaoId":"SBTF","flightCategory":"VFR","rawOb":"METAR SBTF 181800Z 11003KT 9999 SCT020 34/23 Q1009","temp":34,"dewp":23,"wdir":110,"wspd":3,"visib":"6+","altim":1009,"clouds":[{"cover":"SCT","base":2000}],"obsTime":1784397600},"SBST":{"icaoId":"SBST","flightCategory":"VFR","rawOb":"METAR SBST 181800Z 13005KT CAVOK 28/12 Q1014","temp":28,"dewp":12,"wdir":130,"wspd":5,"visib":"6+","altim":1014,"clouds":[],"obsTime":1784397600},"SBJP":{"icaoId":"SBJP","flightCategory":"MVFR","rawOb":"METAR SBJP 181800Z 13018KT 9999 BKN025 28/21 Q1014","temp":28,"dewp":21,"wdir":130,"wspd":18,"visib":"6+","altim":1014,"clouds":[{"cover":"BKN","base":2500}],"obsTime":1784397600},"SBJV":{"icaoId":"SBJV","flightCategory":"VFR","rawOb":"METAR SBJV 181800Z 17003KT CAVOK 27/18 Q1010","temp":27,"dewp":18,"wdir":170,"wspd":3,"visib":"6+","altim":1010,"clouds":[],"obsTime":1784397600},"SBAN":{"icaoId":"SBAN","flightCategory":"VFR","rawOb":"METAR SBAN 181800Z 11005KT CAVOK 25/07 Q1021","temp":25,"dewp":7,"wdir":110,"wspd":5,"visib":"6+","altim":1021,"clouds":[],"obsTime":1784397600},"SBNM":{"icaoId":"SBNM","flightCategory":"VFR","rawOb":"METAR SBNM 181800Z 33012KT 9999 SCT040 BKN080 31/19 Q1004","temp":31,"dewp":19,"wdir":330,"wspd":12,"visib":"6+","altim":1004,"clouds":[{"cover":"SCT","base":4000},{"cover":"BKN","base":8000}],"obsTime":1784397600},"SBTA":{"icaoId":"SBTA","flightCategory":"VFR","rawOb":"METAR SBTA 181800Z 04005KT 350V080 CAVOK 25/10 Q1018","temp":25,"dewp":10,"wdir":40,"wspd":5,"visib":"6+","altim":1018,"clouds":[],"obsTime":1784397600},"SBLE":{"icaoId":"SBLE","flightCategory":"MVFR","rawOb":"METAR SBLE 181800Z AUTO 14006KT 080V170 9999 BKN028 22/20 Q1020","temp":22,"dewp":20,"wdir":140,"wspd":6,"visib":"6+","altim":1020,"clouds":[{"cover":"BKN","base":2800}],"obsTime":1784397600},"SBTC":{"icaoId":"SBTC","flightCategory":"VFR","rawOb":"METAR SBTC 181800Z 12003KT 9999 FEW020 SCT070 24/21 Q1019","temp":24,"dewp":21,"wdir":120,"wspd":3,"visib":"6+","altim":1019,"clouds":[{"cover":"FEW","base":2000},{"cover":"SCT","base":7000}],"obsTime":1784397600},"SBIH":{"icaoId":"SBIH","flightCategory":"VFR","rawOb":"METAR SBIH 181800Z 05005KT 9999 SCT020 33/23 Q1010","temp":33,"dewp":23,"wdir":50,"wspd":5,"visib":"6+","altim":1010,"clouds":[{"cover":"SCT","base":2000}],"obsTime":1784397600},"SBAF":{"icaoId":"SBAF","flightCategory":"VFR","rawOb":"METAR SBAF 181800Z 36007KT 300V040 CAVOK 30/12 Q1016","temp":30,"dewp":12,"wdir":360,"wspd":7,"visib":"6+","altim":1016,"clouds":[],"obsTime":1784397600},"SBGW":{"icaoId":"SBGW","flightCategory":"VFR","rawOb":"METAR SBGW 181800Z 08008KT 020V120 CAVOK 26/10 Q1018","temp":26,"dewp":10,"wdir":80,"wspd":8,"visib":"6+","altim":1018,"clouds":[],"obsTime":1784397600},"SBJR":{"icaoId":"SBJR","flightCategory":"VFR","rawOb":"METAR SBJR 181800Z 35006KT CAVOK 31/12 Q1015","temp":31,"dewp":12,"wdir":350,"wspd":6,"visib":"6+","altim":1015,"clouds":[],"obsTime":1784397600},"SBLS":{"icaoId":"SBLS","flightCategory":"VFR","rawOb":"METAR SBLS 181800Z 06006KT 340V100 9999 FEW048 24/10 Q1022","temp":24,"dewp":10,"wdir":60,"wspd":6,"visib":"6+","altim":1022,"clouds":[{"cover":"FEW","base":4800}],"obsTime":1784397600},"SBMT":{"icaoId":"SBMT","flightCategory":"VFR","rawOb":"METAR SBMT 181800Z 32008KT 280V010 CAVOK 23/07 Q1019","temp":23,"dewp":7,"wdir":320,"wspd":8,"visib":"6+","altim":1019,"clouds":[],"obsTime":1784397600},"SBPF":{"icaoId":"SBPF","flightCategory":"VFR","rawOb":"METAR SBPF 181800Z AUTO 35015G27KT 320V030 9999 NSC 25/15 Q1010","temp":25,"dewp":15,"wdir":350,"wspd":15,"visib":"6+","altim":1010,"clouds":[],"obsTime":1784397600}}}