{"updated":1775714440,"count":48,"data":{"SBRF":{"icaoId":"SBRF","flightCategory":"VFR","rawOb":"METAR SBRF 090500Z 02001KT 9999 FEW025 23/23 Q1011","temp":23,"dewp":23,"wdir":20,"wspd":1,"visib":"6+","altim":1011,"clouds":[{"cover":"FEW","base":2500}],"obsTime":1775710800},"SBBE":{"icaoId":"SBBE","flightCategory":"VFR","rawOb":"METAR SBBE 090500Z 05002KT CAVOK 26/25 Q1011","temp":26,"dewp":25,"wdir":50,"wspd":2,"visib":"6+","altim":1011,"clouds":[],"obsTime":1775710800},"SBBR":{"icaoId":"SBBR","flightCategory":"VFR","rawOb":"METAR SBBR 090500Z 25003KT 9999 FEW030 BKN080 20/19 Q1018","temp":20,"dewp":19,"wdir":250,"wspd":3,"visib":"6+","altim":1018,"clouds":[{"cover":"FEW","base":3000},{"cover":"BKN","base":8000}],"obsTime":1775710800},"SBBV":{"icaoId":"SBBV","flightCategory":"VFR","rawOb":"METAR SBBV 090500Z 05004KT 9999 FEW030 SCT100 25/24 Q1012","temp":25,"dewp":24,"wdir":50,"wspd":4,"visib":"6+","altim":1012,"clouds":[{"cover":"FEW","base":3000},{"cover":"SCT","base":10000}],"obsTime":1775710800},"SBCF":{"icaoId":"SBCF","flightCategory":"VFR","rawOb":"METAR SBCF 090500Z 29001KT 9999 FEW030 SCT090 20/19 Q1017","temp":20,"dewp":19,"wdir":290,"wspd":1,"visib":"6+","altim":1017,"clouds":[{"cover":"FEW","base":3000},{"cover":"SCT","base":9000}],"obsTime":1775710800},"SBCG":{"icaoId":"SBCG","flightCategory":"VFR","rawOb":"METAR SBCG 090500Z 11004KT 9999 SCT008 SCT023 22/21 Q1016","temp":22,"dewp":21,"wdir":110,"wspd":4,"visib":"6+","altim":1016,"clouds":[{"cover":"SCT","base":800},{"cover":"SCT","base":2300}],"obsTime":1775710800},"SBCT":{"icaoId":"SBCT","flightCategory":"VFR","rawOb":"METAR SBCT 090500Z 31004KT 9999 FEW045 16/16 Q1016","temp":16,"dewp":16,"wdir":310,"wspd":4,"visib":"6+","altim":1016,"clouds":[{"cover":"FEW","base":4500}],"obsTime":1775710800},"SBEG":{"icaoId":"SBEG","flightCategory":"VFR","rawOb":"METAR SBEG 090500Z 33002KT CAVOK 25/25 Q1012","temp":25,"dewp":25,"wdir":330,"wspd":2,"visib":"6+","altim":1012,"clouds":[],"obsTime":1775710800},"SBFI":{"icaoId":"SBFI","flightCategory":"VFR","rawOb":"METAR SBFI 090500Z 19006KT CAVOK 17/17 Q1015","temp":17,"dewp":17,"wdir":190,"wspd":6,"visib":"6+","altim":1015,"clouds":[],"obsTime":1775710800},"SBFL":{"icaoId":"SBFL","flightCategory":"VFR","rawOb":"METAR SBFL 090500Z 27007KT CAVOK 21/17 Q1010","temp":21,"dewp":17,"wdir":270,"wspd":7,"visib":"6+","altim":1010,"clouds":[],"obsTime":1775710800},"SBFZ":{"icaoId":"SBFZ","flightCategory":"MVFR","rawOb":"METAR SBFZ 090500Z 16003KT 9999 BKN015 BKN080 26/25 Q1010","temp":26,"dewp":25,"wdir":160,"wspd":3,"visib":"6+","altim":1010,"clouds":[{"cover":"BKN","base":1500},{"cover":"BKN","base":8000}],"obsTime":1775710800},"SBGL":{"icaoId":"SBGL","flightCategory":"VFR","rawOb":"METAR SBGL 090500Z 27003KT 9999 SCT030 BKN100 27/20 Q1009","temp":27,"dewp":20,"wdir":270,"wspd":3,"visib":"6+","altim":1009,"clouds":[{"cover":"SCT","base":3000},{"cover":"BKN","base":10000}],"obsTime":1775710800},"SBGO":{"icaoId":"SBGO","flightCategory":"VFR","rawOb":"METAR SBGO 090500Z 13004KT 9999 FEW045 BKN100 21/20 Q1017","temp":21,"dewp":20,"wdir":130,"wspd":4,"visib":"6+","altim":1017,"clouds":[{"cover":"FEW","base":4500},{"cover":"BKN","base":10000}],"obsTime":1775710800},"SBGR":{"icaoId":"SBGR","flightCategory":"VFR","rawOb":"METAR SBGR 090500Z 27003KT 9999 SCT025 22/19 Q1015","temp":22,"dewp":19,"wdir":270,"wspd":3,"visib":"6+","altim":1015,"clouds":[{"cover":"SCT","base":2500}],"obsTime":1775710800},"SBKP":{"icaoId":"SBKP","flightCategory":"VFR","rawOb":"METAR SBKP 090500Z 00000KT 9999 FEW037 BKN060 22/21 Q1016","temp":22,"dewp":21,"wdir":0,"wspd":0,"visib":"6+","altim":1016,"clouds":[{"cover":"FEW","base":3700},{"cover":"BKN","base":6000}],"obsTime":1775710800},"SBMA":{"icaoId":"SBMA","flightCategory":"VFR","rawOb":"METAR SBMA 090500Z 00000KT 9999 FEW015 SCT100 25/24 Q1012","temp":25,"dewp":24,"wdir":0,"wspd":0,"visib":"6+","altim":1012,"clouds":[{"cover":"FEW","base":1500},{"cover":"SCT","base":10000}],"obsTime":1775710800},"SBMO":{"icaoId":"SBMO","flightCategory":"VFR","rawOb":"METAR SBMO 090500Z 28004KT 9999 SCT023 BKN070 24/23 Q1012","temp":24,"dewp":23,"wdir":280,"wspd":4,"visib":"6+","altim":1012,"clouds":[{"cover":"SCT","base":2300},{"cover":"BKN","base":7000}],"obsTime":1775710800},"SBMQ":{"icaoId":"SBMQ","flightCategory":"VFR","rawOb":"METAR SBMQ 090500Z 03003KT 9999 -RA SCT023 BKN038 BKN067 25/24 Q1011","temp":25,"dewp":24,"wdir":30,"wspd":3,"visib":"6+","altim":1011,"clouds":[{"cover":"SCT","base":2300},{"cover":"BKN","base":3800},{"cover":"BKN","base":6700}],"obsTime":1775710800},"SBPA":{"icaoId":"SBPA","flightCategory":"VFR","rawOb":"SPECI SBPA 090435Z 27006KT 9999 FEW010 19/18 Q1012","temp":19,"dewp":18,"wdir":270,"wspd":6,"visib":"6+","altim":1012,"clouds":[{"cover":"FEW","base":1000}],"obsTime":1775709300},"SBPV":{"icaoId":"SBPV","flightCategory":"VFR","rawOb":"METAR SBPV 090600Z 00000KT 9999 SCT015 24/23 Q1012","temp":24,"dewp":23,"wdir":0,"wspd":0,"visib":"6+","altim":1012,"clouds":[{"cover":"SCT","base":1500}],"obsTime":1775714400},"SBRB":{"icaoId":"SBRB","flightCategory":"IFR","rawOb":"METAR SBRB 090500Z 35003KT 5000 BR SCT002 BKN008 23/23 Q1012","temp":23,"dewp":23,"wdir":350,"wspd":3,"visib":3.11,"altim":1012,"clouds":[{"cover":"SCT","base":200},{"cover":"BKN","base":800}],"obsTime":1775710800},"SBSG":{"icaoId":"SBSG","flightCategory":"VFR","rawOb":"METAR SBSG 090500Z 20003KT 9999 SCT015 24/23 Q1011","temp":24,"dewp":23,"wdir":200,"wspd":3,"visib":"6+","altim":1011,"clouds":[{"cover":"SCT","base":1500}],"obsTime":1775710800},"SBSL":{"icaoId":"SBSL","flightCategory":"VFR","rawOb":"METAR SBSL 090500Z 07005KT 9999 FEW020 SCT080 26/24 Q1011","temp":26,"dewp":24,"wdir":70,"wspd":5,"visib":"6+","altim":1011,"clouds":[{"cover":"FEW","base":2000},{"cover":"SCT","base":8000}],"obsTime":1775710800},"SBSN":{"icaoId":"SBSN","flightCategory":"VFR","rawOb":"METAR SBSN 090500Z 08007KT 9999 FEW011 SCT020 26/25 Q1011 RETSRA","temp":26,"dewp":25,"wdir":80,"wspd":7,"visib":"6+","altim":1011,"clouds":[{"cover":"FEW","base":1100},{"cover":"SCT","base":2000}],"obsTime":1775710800},"SBSP":{"icaoId":"SBSP","flightCategory":"MVFR","rawOb":"METAR SBSP 090600Z AUTO 32008KT 9999 BKN028 BKN034 22/19 Q1016","temp":22,"dewp":19,"wdir":320,"wspd":8,"visib":"6+","altim":1016,"clouds":[{"cover":"BKN","base":2800},{"cover":"BKN","base":3400}],"obsTime":1775714400},"SBSV":{"icaoId":"SBSV","flightCategory":"VFR","rawOb":"METAR SBSV 090500Z 08003KT 9999 SCT025 26/21 Q1013","temp":26,"dewp":21,"wdir":80,"wspd":3,"visib":"6+","altim":1013,"clouds":[{"cover":"SCT","base":2500}],"obsTime":1775710800},"SBTE":{"icaoId":"SBTE","flightCategory":"VFR","rawOb":"METAR SBTE 090500Z 35002KT 9999 SCT018 26/24 Q1011","temp":26,"dewp":24,"wdir":350,"wspd":2,"visib":"6+","altim":1011,"clouds":[{"cover":"SCT","base":1800}],"obsTime":1775710800},"SBVT":{"icaoId":"SBVT","flightCategory":"VFR","rawOb":"METAR SBVT 090500Z 02010KT CAVOK 26/23 Q1011","temp":26,"dewp":23,"wdir":20,"wspd":10,"visib":"6+","altim":1011,"clouds":[],"obsTime":1775710800},"SBPJ":{"icaoId":"SBPJ","flightCategory":"VFR","rawOb":"METAR SBPJ 090500Z 10009KT 9999 TS SCT017 FEW035CB SCT080 27/23 Q1012","temp":27,"dewp":23,"wdir":100,"wspd":9,"visib":"6+","altim":1012,"clouds":[{"cover":"SCT","base":1700},{"cover":"FEW","base":3500},{"cover":"SCT","base":8000}],"obsTime":1775710800},"SBME":{"icaoId":"SBME","flightCategory":"VFR","rawOb":"METAR SBME 090500Z 30003KT CAVOK 25/21 Q1008","temp":25,"dewp":21,"wdir":300,"wspd":3,"visib":"6+","altim":1008,"clouds":[],"obsTime":1775710800},"SBMG":{"icaoId":"SBMG","flightCategory":"VFR","rawOb":"METAR SBMG 090500Z AUTO 27003KT 9999 SCT036 19/19 Q1015","temp":19,"dewp":19,"wdir":270,"wspd":3,"visib":"6+","altim":1015,"clouds":[{"cover":"SCT","base":3600}],"obsTime":1775710800},"SBNT":{"icaoId":"SBNT","flightCategory":"VFR","rawOb":"METAR SBNT 090500Z 18003KT 9999 FEW017 FEW025TCU SCT080 25/23 Q1011","temp":25,"dewp":23,"wdir":180,"wspd":3,"visib":"6+","altim":1011,"clouds":[{"cover":"FEW","base":1700},{"cover":"FEW","base":2500},{"cover":"SCT","base":8000}],"obsTime":1775710800},"SBLO":{"icaoId":"SBLO","flightCategory":"VFR","rawOb":"METAR SBLO 090500Z 26003KT CAVOK 20/19 Q1015","temp":20,"dewp":19,"wdir":260,"wspd":3,"visib":"6+","altim":1015,"clouds":[],"obsTime":1775710800},"SBUL":{"icaoId":"SBUL","flightCategory":"VFR","rawOb":"METAR SBUL 090500Z 35004KT 9999 SCT003 OVC100 20/19 Q1019","temp":20,"dewp":19,"wdir":350,"wspd":4,"visib":"6+","altim":1019,"clouds":[{"cover":"SCT","base":300},{"cover":"OVC","base":10000}],"obsTime":1775710800},"SBUR":{"icaoId":"SBUR","flightCategory":"VFR","rawOb":"METAR SBUR 090500Z 01006KT CAVOK 22/19 Q1017","temp":22,"dewp":19,"wdir":10,"wspd":6,"visib":"6+","altim":1017,"clouds":[],"obsTime":1775710800},"SBJU":{"icaoId":"SBJU","flightCategory":"VFR","rawOb":"METAR SBJU 090500Z 00000KT 9999 FEW018 23/22 Q1013","temp":23,"dewp":22,"wdir":0,"wspd":0,"visib":"6+","altim":1013,"clouds":[{"cover":"FEW","base":1800}],"obsTime":1775710800},"SBAR":{"icaoId":"SBAR","flightCategory":"VFR","rawOb":"METAR SBAR 090500Z 29003KT 9999 SCT029 24/23 Q1012","temp":24,"dewp":23,"wdir":290,"wspd":3,"visib":"6+","altim":1012,"clouds":[{"cover":"SCT","base":2900}],"obsTime":1775710800},"SBOI":{"icaoId":"SBOI","flightCategory":"VFR","rawOb":"METAR SBOI 090500Z AUTO 00000KT 9000 // SCT030/// BKN057/// 25/24 Q1012","temp":25,"dewp":24,"wdir":0,"wspd":0,"visib":5.59,"altim":1012,"clouds":[{"cover":"SCT","base":3000},{"cover":"BKN","base":5700}],"obsTime":1775710800},"SBPS":{"icaoId":"SBPS","flightCategory":"VFR","rawOb":"METAR SBPS 090500Z 36004KT 9999 SCT020 25/23 Q1013","temp":25,"dewp":23,"wdir":360,"wspd":4,"visib":"6+","altim":1013,"clouds":[{"cover":"SCT","base":2000}],"obsTime":1775710800},"SBPL":{"icaoId":"SBPL","flightCategory":"VFR","rawOb":"METAR SBPL 090500Z COR 08006KT CAVOK 25/23 Q1014","temp":25,"dewp":23,"wdir":80,"wspd":6,"visib":"6+","altim":1014,"clouds":[],"obsTime":1775710800},"SBSJ":{"icaoId":"SBSJ","flightCategory":"VFR","rawOb":"METAR SBSJ 090500Z 15002KT 9000 SCT040 SCT050 20/20 Q1015","temp":20,"dewp":20,"wdir":150,"wspd":2,"visib":5.59,"altim":1015,"clouds":[{"cover":"SCT","base":4000},{"cover":"SCT","base":5000}],"obsTime":1775710800},"SBIP":{"icaoId":"SBIP","flightCategory":"IFR","rawOb":"METAR SBIP 090500Z AUTO 21001KT 2600 BR NSC 21/21 Q1013","temp":21,"dewp":21,"wdir":210,"wspd":1,"visib":1.62,"altim":1013,"clouds":[],"obsTime":1775710800},"SBSC":{"icaoId":"SBSC","flightCategory":"MVFR","rawOb":"METAR SBSC 090500Z 03009KT 8000 SCT015 BKN050 25/20 Q1009","temp":25,"dewp":20,"wdir":30,"wspd":9,"visib":4.97,"altim":1009,"clouds":[{"cover":"SCT","base":1500},{"cover":"BKN","base":5000}],"obsTime":1775710800},"SBAX":{"icaoId":"SBAX","flightCategory":"MVFR","rawOb":"METAR SBAX 090500Z AUTO 00000KT 8000 SCT002 ///// Q1018","temp":null,"dewp":null,"wdir":0,"wspd":0,"visib":4.97,"altim":1018,"clouds":[{"cover":"SCT","base":200}],"obsTime":1775710800},"SBDN":{"icaoId":"SBDN","flightCategory":"VFR","rawOb":"METAR SBDN 090500Z 00000KT CAVOK 22/21 Q1015","temp":22,"dewp":21,"wdir":0,"wspd":0,"visib":"6+","altim":1015,"clouds":[],"obsTime":1775710800},"SBKG":{"icaoId":"SBKG","flightCategory":"VFR","rawOb":"METAR SBKG 090500Z 23002KT CAVOK 21/21 Q1014","temp":21,"dewp":21,"wdir":230,"wspd":2,"visib":"6+","altim":1014,"clouds":[],"obsTime":1775710800},"SBJP":{"icaoId":"SBJP","flightCategory":"VFR","rawOb":"METAR SBJP 090500Z 25004KT 9999 FEW020 BKN070 24/23 Q1011","temp":24,"dewp":23,"wdir":250,"wspd":4,"visib":"6+","altim":1011,"clouds":[{"cover":"FEW","base":2000},{"cover":"BKN","base":7000}],"obsTime":1775710800},"SBAN":{"icaoId":"SBAN","flightCategory":"VFR","rawOb":"METAR SBAN 090500Z 11007KT 9999 FEW030 BKN100 19/18 Q1019","temp":19,"dewp":18,"wdir":110,"wspd":7,"visib":"6+","altim":1019,"clouds":[{"cover":"FEW","base":3000},{"cover":"BKN","base":10000}],"obsTime":1775710800}}}