{"updated":1780366276,"count":63,"data":{"SBSP":{"icaoId":"SBSP","flightCategory":"VFR","rawOb":"METAR SBSP 020100Z COR 16006KT 9999 SCT013 14/12 Q1025","temp":14,"dewp":12,"wdir":160,"wspd":6,"visib":"6+","altim":1025,"clouds":[{"cover":"SCT","base":1300}],"obsTime":1780362000},"SBBR":{"icaoId":"SBBR","flightCategory":"VFR","rawOb":"METAR SBBR 020100Z 16004KT 110V230 9999 FEW040 SCT070 18/13 Q1023","temp":18,"dewp":13,"wdir":160,"wspd":4,"visib":"6+","altim":1023,"clouds":[{"cover":"FEW","base":4000},{"cover":"SCT","base":7000}],"obsTime":1780362000},"SBBV":{"icaoId":"SBBV","flightCategory":"VFR","rawOb":"METAR SBBV 020100Z 07003KT 9999 FEW030 SCT100 28/25 Q1014","temp":28,"dewp":25,"wdir":70,"wspd":3,"visib":"6+","altim":1014,"clouds":[{"cover":"FEW","base":3000},{"cover":"SCT","base":10000}],"obsTime":1780362000},"SBCF":{"icaoId":"SBCF","flightCategory":"VFR","rawOb":"METAR SBCF 020100Z 18003KT 9999 VCTS SCT040 FEW045CB BKN070 18/14 Q1022","temp":18,"dewp":14,"wdir":180,"wspd":3,"visib":"6+","altim":1022,"clouds":[{"cover":"SCT","base":4000},{"cover":"FEW","base":4500},{"cover":"BKN","base":7000}],"obsTime":1780362000},"SBSL":{"icaoId":"SBSL","flightCategory":"VFR","rawOb":"METAR SBSL 020100Z 04002KT CAVOK 25/24 Q1015","temp":25,"dewp":24,"wdir":40,"wspd":2,"visib":"6+","altim":1015,"clouds":[],"obsTime":1780362000},"SBBE":{"icaoId":"SBBE","flightCategory":"VFR","rawOb":"METAR SBBE 020100Z 05003KT 9999 SCT040 26/23 Q1015","temp":26,"dewp":23,"wdir":50,"wspd":3,"visib":"6+","altim":1015,"clouds":[{"cover":"SCT","base":4000}],"obsTime":1780362000},"SBCG":{"icaoId":"SBCG","flightCategory":"VFR","rawOb":"METAR SBCG 020100Z 09007KT CAVOK 21/16 Q1020","temp":21,"dewp":16,"wdir":90,"wspd":7,"visib":"6+","altim":1020,"clouds":[],"obsTime":1780362000},"SBCT":{"icaoId":"SBCT","flightCategory":"MVFR","rawOb":"METAR SBCT 020100Z 12004KT 9999 SCT008 BKN017 12/12 Q1025","temp":12,"dewp":12,"wdir":120,"wspd":4,"visib":"6+","altim":1025,"clouds":[{"cover":"SCT","base":800},{"cover":"BKN","base":1700}],"obsTime":1780362000},"SBEG":{"icaoId":"SBEG","flightCategory":"VFR","rawOb":"METAR SBEG 020100Z 10003KT 9999 VCTS FEW020 FEW025CB 26/24 Q1014","temp":26,"dewp":24,"wdir":100,"wspd":3,"visib":"6+","altim":1014,"clouds":[{"cover":"FEW","base":2000},{"cover":"FEW","base":2500}],"obsTime":1780362000},"SBFI":{"icaoId":"SBFI","flightCategory":"VFR","rawOb":"METAR SBFI 020100Z 00000KT CAVOK 15/15 Q1021","temp":15,"dewp":15,"wdir":0,"wspd":0,"visib":"6+","altim":1021,"clouds":[],"obsTime":1780362000},"SBFL":{"icaoId":"SBFL","flightCategory":"VFR","rawOb":"METAR SBFL 020100Z 16008KT 9999 SCT020 OVC033 17/13 Q1024","temp":17,"dewp":13,"wdir":160,"wspd":8,"visib":"6+","altim":1024,"clouds":[{"cover":"SCT","base":2000},{"cover":"OVC","base":3300}],"obsTime":1780362000},"SBFZ":{"icaoId":"SBFZ","flightCategory":"VFR","rawOb":"METAR SBFZ 020100Z 21002KT 9999 FEW017 BKN080 27/24 Q1014","temp":27,"dewp":24,"wdir":210,"wspd":2,"visib":"6+","altim":1014,"clouds":[{"cover":"FEW","base":1700},{"cover":"BKN","base":8000}],"obsTime":1780362000},"SBGL":{"icaoId":"SBGL","flightCategory":"VFR","rawOb":"METAR SBGL 020100Z COR VRB02KT 9999 FEW027 SCT036 BKN070 22/18 Q1020","temp":22,"dewp":18,"wdir":"VRB","wspd":2,"visib":"6+","altim":1020,"clouds":[{"cover":"FEW","base":2700},{"cover":"SCT","base":3600},{"cover":"BKN","base":7000}],"obsTime":1780362000},"SBGO":{"icaoId":"SBGO","flightCategory":"VFR","rawOb":"METAR SBGO 020100Z 10006KT CAVOK 21/11 Q1021","temp":21,"dewp":11,"wdir":100,"wspd":6,"visib":"6+","altim":1021,"clouds":[],"obsTime":1780362000},"SBGR":{"icaoId":"SBGR","flightCategory":"MVFR","rawOb":"METAR SBGR 020100Z 04002KT 9999 BKN013 14/12 Q1024","temp":14,"dewp":12,"wdir":40,"wspd":2,"visib":"6+","altim":1024,"clouds":[{"cover":"BKN","base":1300}],"obsTime":1780362000},"SBJU":{"icaoId":"SBJU","flightCategory":"VFR","rawOb":"METAR SBJU 020100Z 00000KT CAVOK 25/19 Q1017","temp":25,"dewp":19,"wdir":0,"wspd":0,"visib":"6+","altim":1017,"clouds":[],"obsTime":1780362000},"SBKP":{"icaoId":"SBKP","flightCategory":"VFR","rawOb":"METAR SBKP 020100Z 13012KT CAVOK 15/12 Q1023","temp":15,"dewp":12,"wdir":130,"wspd":12,"visib":"6+","altim":1023,"clouds":[],"obsTime":1780362000},"SBLO":{"icaoId":"SBLO","flightCategory":"VFR","rawOb":"METAR SBLO 020100Z 21002KT CAVOK 17/14 Q1022","temp":17,"dewp":14,"wdir":210,"wspd":2,"visib":"6+","altim":1022,"clouds":[],"obsTime":1780362000},"SBMA":{"icaoId":"SBMA","flightCategory":"VFR","rawOb":"METAR SBMA 020100Z 30003KT 9999 FEW025 BKN100 27/25 Q1014","temp":27,"dewp":25,"wdir":300,"wspd":3,"visib":"6+","altim":1014,"clouds":[{"cover":"FEW","base":2500},{"cover":"BKN","base":10000}],"obsTime":1780362000},"SBME":{"icaoId":"SBME","flightCategory":"VFR","rawOb":"METAR SBME 020100Z 25004KT 9999 FEW025 SCT100 ///// Q1020","temp":null,"dewp":null,"wdir":250,"wspd":4,"visib":"6+","altim":1020,"clouds":[{"cover":"FEW","base":2500},{"cover":"SCT","base":10000}],"obsTime":1780362000},"SBMG":{"icaoId":"SBMG","flightCategory":"VFR","rawOb":"METAR SBMG 020100Z 08006KT CAVOK 18/12 Q1021","temp":18,"dewp":12,"wdir":80,"wspd":6,"visib":"6+","altim":1021,"clouds":[],"obsTime":1780362000},"SBMK":{"icaoId":"SBMK","flightCategory":"VFR","rawOb":"METAR SBMK 020100Z 20002KT CAVOK 20/16 Q1020","temp":20,"dewp":16,"wdir":200,"wspd":2,"visib":"6+","altim":1020,"clouds":[],"obsTime":1780362000},"SBMO":{"icaoId":"SBMO","flightCategory":"VFR","rawOb":"METAR SBMO 020100Z VRB01KT 9999 FEW023 23/21 Q1017","temp":23,"dewp":21,"wdir":"VRB","wspd":1,"visib":"6+","altim":1017,"clouds":[{"cover":"FEW","base":2300}],"obsTime":1780362000},"SBMQ":{"icaoId":"SBMQ","flightCategory":"VFR","rawOb":"METAR SBMQ 020100Z 19003KT CAVOK 27/26 Q1014","temp":27,"dewp":26,"wdir":190,"wspd":3,"visib":"6+","altim":1014,"clouds":[],"obsTime":1780362000},"SBNT":{"icaoId":"SBNT","flightCategory":"VFR","rawOb":"METAR SBNT 020100Z 15005KT 9999 FEW030 25/22 Q1015","temp":25,"dewp":22,"wdir":150,"wspd":5,"visib":"6+","altim":1015,"clouds":[{"cover":"FEW","base":3000}],"obsTime":1780362000},"SBPA":{"icaoId":"SBPA","flightCategory":"VFR","rawOb":"METAR SBPA 020100Z 12009KT 9999 FEW011 BKN055 15/12 Q1024","temp":15,"dewp":12,"wdir":120,"wspd":9,"visib":"6+","altim":1024,"clouds":[{"cover":"FEW","base":1100},{"cover":"BKN","base":5500}],"obsTime":1780362000},"SBPJ":{"icaoId":"SBPJ","flightCategory":"VFR","rawOb":"METAR SBPJ 020100Z 14003KT CAVOK 25/21 Q1015","temp":25,"dewp":21,"wdir":140,"wspd":3,"visib":"6+","altim":1015,"clouds":[],"obsTime":1780362000},"SBPV":{"icaoId":"SBPV","flightCategory":"VFR","rawOb":"METAR SBPV 020100Z 00000KT CAVOK 26/23 Q1013","temp":26,"dewp":23,"wdir":0,"wspd":0,"visib":"6+","altim":1013,"clouds":[],"obsTime":1780362000},"SBRB":{"icaoId":"SBRB","flightCategory":"MVFR","rawOb":"METAR SBRB 020100Z 17002KT 8000 FEW035 24/23 Q1014","temp":24,"dewp":23,"wdir":170,"wspd":2,"visib":4.97,"altim":1014,"clouds":[{"cover":"FEW","base":3500}],"obsTime":1780362000},"SBRF":{"icaoId":"SBRF","flightCategory":"VFR","rawOb":"METAR SBRF 020100Z 20005KT 9999 SCT024 SCT080 26/22 Q1016","temp":26,"dewp":22,"wdir":200,"wspd":5,"visib":"6+","altim":1016,"clouds":[{"cover":"SCT","base":2400},{"cover":"SCT","base":8000}],"obsTime":1780362000},"SBSG":{"icaoId":"SBSG","flightCategory":"VFR","rawOb":"METAR SBSG 020100Z 17003KT 9999 FEW020 24/23 Q1015","temp":24,"dewp":23,"wdir":170,"wspd":3,"visib":"6+","altim":1015,"clouds":[{"cover":"FEW","base":2000}],"obsTime":1780362000},"SBSN":{"icaoId":"SBSN","flightCategory":"VFR","rawOb":"METAR SBSN 020100Z 16003KT 9999 FEW017 SCT090 26/25 Q1014","temp":26,"dewp":25,"wdir":160,"wspd":3,"visib":"6+","altim":1014,"clouds":[{"cover":"FEW","base":1700},{"cover":"SCT","base":9000}],"obsTime":1780362000},"SBSV":{"icaoId":"SBSV","flightCategory":"VFR","rawOb":"METAR SBSV 020100Z 28002KT 9999 SCT015 FEW024TCU BKN070 24/23 Q1017","temp":24,"dewp":23,"wdir":280,"wspd":2,"visib":"6+","altim":1017,"clouds":[{"cover":"SCT","base":1500},{"cover":"FEW","base":2400},{"cover":"BKN","base":7000}],"obsTime":1780362000},"SBTE":{"icaoId":"SBTE","flightCategory":"VFR","rawOb":"METAR SBTE 020100Z 33005KT CAVOK 27/25 Q1013","temp":27,"dewp":25,"wdir":330,"wspd":5,"visib":"6+","altim":1013,"clouds":[],"obsTime":1780362000},"SBUL":{"icaoId":"SBUL","flightCategory":"VFR","rawOb":"METAR SBUL 020100Z 24006KT CAVOK 17/08 Q1023","temp":17,"dewp":8,"wdir":240,"wspd":6,"visib":"6+","altim":1023,"clouds":[],"obsTime":1780362000},"SBUR":{"icaoId":"SBUR","flightCategory":"VFR","rawOb":"METAR SBUR 020100Z 25002KT CAVOK 19/11 Q1022","temp":19,"dewp":11,"wdir":250,"wspd":2,"visib":"6+","altim":1022,"clouds":[],"obsTime":1780362000},"SBVT":{"icaoId":"SBVT","flightCategory":"VFR","rawOb":"METAR SBVT 020100Z 00000KT 9999 FEW020 BKN080 22/20 Q1019","temp":22,"dewp":20,"wdir":0,"wspd":0,"visib":"6+","altim":1019,"clouds":[{"cover":"FEW","base":2000},{"cover":"BKN","base":8000}],"obsTime":1780362000},"SBCZ":{"icaoId":"SBCZ","flightCategory":"VFR","rawOb":"METAR SBCZ 020100Z 00000KT CAVOK 25/24 Q1013","temp":25,"dewp":24,"wdir":0,"wspd":0,"visib":"6+","altim":1013,"clouds":[],"obsTime":1780362000},"SBIL":{"icaoId":"SBIL","flightCategory":"VFR","rawOb":"METAR SBIL 020100Z 23007KT 9999 SCT020 BKN060 25/23 Q1018","temp":25,"dewp":23,"wdir":230,"wspd":7,"visib":"6+","altim":1018,"clouds":[{"cover":"SCT","base":2000},{"cover":"BKN","base":6000}],"obsTime":1780362000},"SBTU":{"icaoId":"SBTU","flightCategory":"VFR","rawOb":"METAR SBTU 020200Z AUTO 14004KT 9999 // SCT073/// ///// Q1016","temp":null,"dewp":null,"wdir":140,"wspd":4,"visib":"6+","altim":1016,"clouds":[{"cover":"SCT","base":7300}],"obsTime":1780365600},"SBAX":{"icaoId":"SBAX","flightCategory":"VFR","rawOb":"METAR SBAX 020100Z AUTO 22005KT CAVOK 17/09 Q1022","temp":17,"dewp":9,"wdir":220,"wspd":5,"visib":"6+","altim":1022,"clouds":[],"obsTime":1780362000},"SBBH":{"icaoId":"SBBH","flightCategory":"VFR","rawOb":"METAR SBBH 020100Z 10006KT 9999 BKN045 19/14 Q1022","temp":19,"dewp":14,"wdir":100,"wspd":6,"visib":"6+","altim":1022,"clouds":[{"cover":"BKN","base":4500}],"obsTime":1780362000},"SBBU":{"icaoId":"SBBU","flightCategory":"VFR","rawOb":"METAR SBBU 020100Z 15009KT CAVOK 17/11 Q1022","temp":17,"dewp":11,"wdir":150,"wspd":9,"visib":"6+","altim":1022,"clouds":[],"obsTime":1780362000},"SBCO":{"icaoId":"SBCO","flightCategory":"MVFR","rawOb":"METAR SBCO 020100Z 10007KT 9999 FEW012 BKN020 14/13 Q1025","temp":14,"dewp":13,"wdir":100,"wspd":7,"visib":"6+","altim":1025,"clouds":[{"cover":"FEW","base":1200},{"cover":"BKN","base":2000}],"obsTime":1780362000},"SBDN":{"icaoId":"SBDN","flightCategory":"VFR","rawOb":"METAR SBDN 020100Z 11006KT CAVOK 17/11 Q1020","temp":17,"dewp":11,"wdir":110,"wspd":6,"visib":"6+","altim":1020,"clouds":[],"obsTime":1780362000},"SBIP":{"icaoId":"SBIP","flightCategory":"VFR","rawOb":"METAR SBIP 020100Z AUTO 22003KT CAVOK 17/17 Q1019","temp":17,"dewp":17,"wdir":220,"wspd":3,"visib":"6+","altim":1019,"clouds":[],"obsTime":1780362000},"SBKG":{"icaoId":"SBKG","flightCategory":"VFR","rawOb":"METAR SBKG 020100Z 13004KT 9999 SCT015 BKN070 21/20 Q1018","temp":21,"dewp":20,"wdir":130,"wspd":4,"visib":"6+","altim":1018,"clouds":[{"cover":"SCT","base":1500},{"cover":"BKN","base":7000}],"obsTime":1780362000},"SBOI":{"icaoId":"SBOI","flightCategory":"VFR","rawOb":"METAR SBOI 020100Z AUTO 22003KT 9999 // FEW010/// SCT030/// OVC072/// 25/24 Q1015","temp":25,"dewp":24,"wdir":220,"wspd":3,"visib":"6+","altim":1015,"clouds":[{"cover":"FEW","base":1000},{"cover":"SCT","base":3000},{"cover":"OVC","base":7200}],"obsTime":1780362000},"SBPL":{"icaoId":"SBPL","flightCategory":"VFR","rawOb":"METAR SBPL 020100Z 12008KT CAVOK 26/19 Q1017","temp":26,"dewp":19,"wdir":120,"wspd":8,"visib":"6+","altim":1017,"clouds":[],"obsTime":1780362000},"SBPS":{"icaoId":"SBPS","flightCategory":"VFR","rawOb":"METAR SBPS 020100Z VRB02KT 9999 FEW020 BKN070 23/22 Q1018","temp":23,"dewp":22,"wdir":"VRB","wspd":2,"visib":"6+","altim":1018,"clouds":[{"cover":"FEW","base":2000},{"cover":"BKN","base":7000}],"obsTime":1780362000},"SBSC":{"icaoId":"SBSC","flightCategory":"MVFR","rawOb":"METAR SBSC 020100Z 20002KT 8000 FEW008 BKN020 20/19 Q1021","temp":20,"dewp":19,"wdir":200,"wspd":2,"visib":4.97,"altim":1021,"clouds":[{"cover":"FEW","base":800},{"cover":"BKN","base":2000}],"obsTime":1780362000},"SBSJ":{"icaoId":"SBSJ","flightCategory":"VFR","rawOb":"METAR SBSJ 020100Z 24004KT 9999 OVC035 16/13 Q1024","temp":16,"dewp":13,"wdir":240,"wspd":4,"visib":"6+","altim":1024,"clouds":[{"cover":"OVC","base":3500}],"obsTime":1780362000},"SBSM":{"icaoId":"SBSM","flightCategory":"MVFR","rawOb":"METAR SBSM 020100Z VRB02KT 9999 FEW001 SCT020 BKN030 11/11 Q1023","temp":11,"dewp":11,"wdir":"VRB","wspd":2,"visib":"6+","altim":1023,"clouds":[{"cover":"FEW","base":100},{"cover":"SCT","base":2000},{"cover":"BKN","base":3000}],"obsTime":1780362000},"SBSR":{"icaoId":"SBSR","flightCategory":"VFR","rawOb":"METAR SBSR 020100Z 17005KT CAVOK 19/10 Q1021","temp":19,"dewp":10,"wdir":170,"wspd":5,"visib":"6+","altim":1021,"clouds":[],"obsTime":1780362000},"SBAR":{"icaoId":"SBAR","flightCategory":"VFR","rawOb":"METAR SBAR 020100Z 13004KT 9999 FEW026 26/21 Q1017","temp":26,"dewp":21,"wdir":130,"wspd":4,"visib":"6+","altim":1017,"clouds":[{"cover":"FEW","base":2600}],"obsTime":1780362000},"SBJV":{"icaoId":"SBJV","flightCategory":"MVFR","rawOb":"METAR SBJV 020100Z 14005KT 9999 FEW015 BKN025 18/16 Q1023","temp":18,"dewp":16,"wdir":140,"wspd":5,"visib":"6+","altim":1023,"clouds":[{"cover":"FEW","base":1500},{"cover":"BKN","base":2500}],"obsTime":1780362000},"SBJP":{"icaoId":"SBJP","flightCategory":"VFR","rawOb":"METAR SBJP 020100Z 15007KT 9999 FEW020 BKN070 25/22 Q1016","temp":25,"dewp":22,"wdir":150,"wspd":7,"visib":"6+","altim":1016,"clouds":[{"cover":"FEW","base":2000},{"cover":"BKN","base":7000}],"obsTime":1780362000},"SBNM":{"icaoId":"SBNM","flightCategory":"VFR","rawOb":"METAR SBNM 020100Z AUTO 11008KT CAVOK 12/11 Q1022","temp":12,"dewp":11,"wdir":110,"wspd":8,"visib":"6+","altim":1022,"clouds":[],"obsTime":1780362000},"SBAN":{"icaoId":"SBAN","flightCategory":"VFR","rawOb":"METAR SBAN 020100Z 24004KT 9999 BKN045 BKN080 18/13 Q1023","temp":18,"dewp":13,"wdir":240,"wspd":4,"visib":"6+","altim":1023,"clouds":[{"cover":"BKN","base":4500},{"cover":"BKN","base":8000}],"obsTime":1780362000},"SBMT":{"icaoId":"SBMT","flightCategory":"VFR","rawOb":"METAR SBMT 020100Z 13005KT 100V160 9999 SCT015 14/12 Q1024","temp":14,"dewp":12,"wdir":130,"wspd":5,"visib":"6+","altim":1024,"clouds":[{"cover":"SCT","base":1500}],"obsTime":1780362000},"SBTA":{"icaoId":"SBTA","flightCategory":"VFR","rawOb":"METAR SBTA 020100Z VRB02KT 9999 SCT030 OVC045 17/13 Q1022","temp":17,"dewp":13,"wdir":"VRB","wspd":2,"visib":"6+","altim":1022,"clouds":[{"cover":"SCT","base":3000},{"cover":"OVC","base":4500}],"obsTime":1780362000},"SBLE":{"icaoId":"SBLE","flightCategory":"VFR","rawOb":"METAR SBLE 020100Z AUTO VRB01KT 9999 FEW032 BKN045 ///// Q////","temp":null,"dewp":null,"wdir":"VRB","wspd":1,"visib":"6+","altim":null,"clouds":[{"cover":"FEW","base":3200},{"cover":"BKN","base":4500}],"obsTime":1780362000},"SBLS":{"icaoId":"SBLS","flightCategory":"VFR","rawOb":"METAR SBLS 020100Z 16008KT 9999 VCTS SCT040 FEW045CB BKN070 19/13 Q1021","temp":19,"dewp":13,"wdir":160,"wspd":8,"visib":"6+","altim":1021,"clouds":[{"cover":"SCT","base":4000},{"cover":"FEW","base":4500},{"cover":"BKN","base":7000}],"obsTime":1780362000}}}