{"updated":1776420618,"count":65,"data":{"SBFI":{"icaoId":"SBFI","flightCategory":"MVFR","rawOb":"METAR SBFI 170900Z 19004KT 8000 BCFG SCT030 21/21 Q1010","temp":21,"dewp":21,"wdir":190,"wspd":4,"visib":4.97,"altim":1010,"clouds":[{"cover":"SCT","base":3000}],"obsTime":1776416400},"SBBE":{"icaoId":"SBBE","flightCategory":"VFR","rawOb":"METAR SBBE 170900Z 05003KT CAVOK 25/24 Q1009","temp":25,"dewp":24,"wdir":50,"wspd":3,"visib":"6+","altim":1009,"clouds":[],"obsTime":1776416400},"SBBR":{"icaoId":"SBBR","flightCategory":"VFR","rawOb":"METAR SBBR 170900Z 11002KT CAVOK 21/18 Q1015","temp":21,"dewp":18,"wdir":110,"wspd":2,"visib":"6+","altim":1015,"clouds":[],"obsTime":1776416400},"SBBV":{"icaoId":"SBBV","flightCategory":"VFR","rawOb":"METAR SBBV 170900Z 14006KT 9999 SCT010 FEW045TCU BKN080 25/24 Q1008","temp":25,"dewp":24,"wdir":140,"wspd":6,"visib":"6+","altim":1008,"clouds":[{"cover":"SCT","base":1000},{"cover":"FEW","base":4500},{"cover":"BKN","base":8000}],"obsTime":1776416400},"SBCB":{"icaoId":"SBCB","flightCategory":"VFR","rawOb":"METAR SBCB 170900Z VRB02KT 9999 FEW025 22/21 Q1011","temp":22,"dewp":21,"wdir":"VRB","wspd":2,"visib":"6+","altim":1011,"clouds":[{"cover":"FEW","base":2500}],"obsTime":1776416400},"SBCF":{"icaoId":"SBCF","flightCategory":"VFR","rawOb":"METAR SBCF 170900Z 15002KT CAVOK 16/15 Q1015","temp":16,"dewp":15,"wdir":150,"wspd":2,"visib":"6+","altim":1015,"clouds":[],"obsTime":1776416400},"SBCG":{"icaoId":"SBCG","flightCategory":"VFR","rawOb":"METAR SBCG 170900Z 07004KT CAVOK 22/20 Q1011","temp":22,"dewp":20,"wdir":70,"wspd":4,"visib":"6+","altim":1011,"clouds":[],"obsTime":1776416400},"SBCP":{"icaoId":"SBCP","flightCategory":"VFR","rawOb":"METAR SBCP 171000Z 33003KT 9999 FEW025 SCT090 22/21 Q1011","temp":22,"dewp":21,"wdir":330,"wspd":3,"visib":"6+","altim":1011,"clouds":[{"cover":"FEW","base":2500},{"cover":"SCT","base":9000}],"obsTime":1776420000},"SBCT":{"icaoId":"SBCT","flightCategory":"LIFR","rawOb":"METAR SBCT 170900Z 04002KT 0500 R15/0500 R33/0500 FG VV001 16/16 Q1014","temp":16,"dewp":16,"wdir":40,"wspd":2,"visib":0.31,"altim":1014,"clouds":[{"cover":"OVX","base":100}],"obsTime":1776416400},"SBEG":{"icaoId":"SBEG","flightCategory":"VFR","rawOb":"METAR SBEG 170900Z 07002KT CAVOK 25/24 Q1008","temp":25,"dewp":24,"wdir":70,"wspd":2,"visib":"6+","altim":1008,"clouds":[],"obsTime":1776416400},"SBFL":{"icaoId":"SBFL","flightCategory":"VFR","rawOb":"METAR SBFL 170900Z 31010KT 9999 FEW015 BKN033 24/22 Q1008","temp":24,"dewp":22,"wdir":310,"wspd":10,"visib":"6+","altim":1008,"clouds":[{"cover":"FEW","base":1500},{"cover":"BKN","base":3300}],"obsTime":1776416400},"SBFZ":{"icaoId":"SBFZ","flightCategory":"VFR","rawOb":"SPECI SBFZ 170835Z 16007KT 9999 FEW014 SCT020 FEW025TCU 25/24 Q1007 RESHRA","temp":25,"dewp":24,"wdir":160,"wspd":7,"visib":"6+","altim":1007,"clouds":[{"cover":"FEW","base":1400},{"cover":"SCT","base":2000},{"cover":"FEW","base":2500}],"obsTime":1776414900},"SBGL":{"icaoId":"SBGL","flightCategory":"VFR","rawOb":"METAR SBGL 170900Z 07002KT 9999 FEW008 22/21 Q1010","temp":22,"dewp":21,"wdir":70,"wspd":2,"visib":"6+","altim":1010,"clouds":[{"cover":"FEW","base":800}],"obsTime":1776416400},"SBGO":{"icaoId":"SBGO","flightCategory":"VFR","rawOb":"METAR SBGO 170900Z 15001KT CAVOK 21/20 Q1013","temp":21,"dewp":20,"wdir":150,"wspd":1,"visib":"6+","altim":1013,"clouds":[],"obsTime":1776416400},"SBGR":{"icaoId":"SBGR","flightCategory":"MVFR","rawOb":"METAR SBGR 170900Z 07008KT 7000 NSC 16/15 Q1014","temp":16,"dewp":15,"wdir":70,"wspd":8,"visib":4.35,"altim":1014,"clouds":[],"obsTime":1776416400},"SBKP":{"icaoId":"SBKP","flightCategory":"VFR","rawOb":"METAR SBKP 170900Z 11007KT CAVOK 18/16 Q1013","temp":18,"dewp":16,"wdir":110,"wspd":7,"visib":"6+","altim":1013,"clouds":[],"obsTime":1776416400},"SBLO":{"icaoId":"SBLO","flightCategory":"VFR","rawOb":"METAR SBLO 170900Z 21002KT CAVOK 20/18 Q1011","temp":20,"dewp":18,"wdir":210,"wspd":2,"visib":"6+","altim":1011,"clouds":[],"obsTime":1776416400},"SBMA":{"icaoId":"SBMA","flightCategory":"MVFR","rawOb":"METAR SBMA 170900Z 00000KT 9999 SCT010 BKN020 BKN080 26/25 Q1008","temp":26,"dewp":25,"wdir":0,"wspd":0,"visib":"6+","altim":1008,"clouds":[{"cover":"SCT","base":1000},{"cover":"BKN","base":2000},{"cover":"BKN","base":8000}],"obsTime":1776416400},"SBMO":{"icaoId":"SBMO","flightCategory":"VFR","rawOb":"METAR SBMO 170900Z 34003KT 9999 SCT017 23/23 Q1009","temp":23,"dewp":23,"wdir":340,"wspd":3,"visib":"6+","altim":1009,"clouds":[{"cover":"SCT","base":1700}],"obsTime":1776416400},"SBMQ":{"icaoId":"SBMQ","flightCategory":"VFR","rawOb":"METAR SBMQ 170900Z 31003KT 9999 FEW009 BKN036 FEW039TCU 24/24 Q1007","temp":24,"dewp":24,"wdir":310,"wspd":3,"visib":"6+","altim":1007,"clouds":[{"cover":"FEW","base":900},{"cover":"BKN","base":3600},{"cover":"FEW","base":3900}],"obsTime":1776416400},"SBNT":{"icaoId":"SBNT","flightCategory":"VFR","rawOb":"METAR SBNT 170900Z 19006KT 9999 FEW030 24/23 Q1008","temp":24,"dewp":23,"wdir":190,"wspd":6,"visib":"6+","altim":1008,"clouds":[{"cover":"FEW","base":3000}],"obsTime":1776416400},"SBPA":{"icaoId":"SBPA","flightCategory":"VFR","rawOb":"METAR SBPA 170900Z 31006KT 9999 FEW035 BKN080 22/19 Q1006","temp":22,"dewp":19,"wdir":310,"wspd":6,"visib":"6+","altim":1006,"clouds":[{"cover":"FEW","base":3500},{"cover":"BKN","base":8000}],"obsTime":1776416400},"SBPJ":{"icaoId":"SBPJ","flightCategory":"VFR","rawOb":"METAR SBPJ 170900Z 15005KT 9999 FEW035 FEW040TCU SCT050 25/24 Q1009","temp":25,"dewp":24,"wdir":150,"wspd":5,"visib":"6+","altim":1009,"clouds":[{"cover":"FEW","base":3500},{"cover":"FEW","base":4000},{"cover":"SCT","base":5000}],"obsTime":1776416400},"SBPV":{"icaoId":"SBPV","flightCategory":"VFR","rawOb":"METAR SBPV 170900Z 10001KT 9999 SCT003 25/24 Q1007","temp":25,"dewp":24,"wdir":100,"wspd":1,"visib":"6+","altim":1007,"clouds":[{"cover":"SCT","base":300}],"obsTime":1776416400},"SBRB":{"icaoId":"SBRB","flightCategory":"IFR","rawOb":"METAR SBRB 170900Z 17004KT 6000 BKN006 BKN100 22/21 Q1010","temp":22,"dewp":21,"wdir":170,"wspd":4,"visib":3.73,"altim":1010,"clouds":[{"cover":"BKN","base":600},{"cover":"BKN","base":10000}],"obsTime":1776416400},"SBRF":{"icaoId":"SBRF","flightCategory":"VFR","rawOb":"METAR SBRF 170900Z 20003KT 9999 FEW020 25/24 Q1009","temp":25,"dewp":24,"wdir":200,"wspd":3,"visib":"6+","altim":1009,"clouds":[{"cover":"FEW","base":2000}],"obsTime":1776416400},"SBSG":{"icaoId":"SBSG","flightCategory":"VFR","rawOb":"METAR SBSG 170900Z VRB02KT 9999 FEW023 24/23 Q1008","temp":24,"dewp":23,"wdir":"VRB","wspd":2,"visib":"6+","altim":1008,"clouds":[{"cover":"FEW","base":2300}],"obsTime":1776416400},"SBSL":{"icaoId":"SBSL","flightCategory":"VFR","rawOb":"METAR SBSL 170900Z 12004KT 9999 SCT015 BKN070 25/24 Q1007","temp":25,"dewp":24,"wdir":120,"wspd":4,"visib":"6+","altim":1007,"clouds":[{"cover":"SCT","base":1500},{"cover":"BKN","base":7000}],"obsTime":1776416400},"SBSN":{"icaoId":"SBSN","flightCategory":"VFR","rawOb":"METAR SBSN 170900Z 08011KT 9999 FEW016 BKN080 27/23 Q1007","temp":27,"dewp":23,"wdir":80,"wspd":11,"visib":"6+","altim":1007,"clouds":[{"cover":"FEW","base":1600},{"cover":"BKN","base":8000}],"obsTime":1776416400},"SBSP":{"icaoId":"SBSP","flightCategory":"VFR","rawOb":"METAR SBSP 170900Z 05004KT CAVOK 19/16 Q1014","temp":19,"dewp":16,"wdir":50,"wspd":4,"visib":"6+","altim":1014,"clouds":[],"obsTime":1776416400},"SBSV":{"icaoId":"SBSV","flightCategory":"VFR","rawOb":"METAR SBSV 170900Z VRB01KT 9999 SCT021 FEW023TCU 24/23 Q1010","temp":24,"dewp":23,"wdir":"VRB","wspd":1,"visib":"6+","altim":1010,"clouds":[{"cover":"SCT","base":2100},{"cover":"FEW","base":2300}],"obsTime":1776416400},"SBTE":{"icaoId":"SBTE","flightCategory":"VFR","rawOb":"METAR SBTE 170900Z 13002KT 9999 SCT010 BKN100 24/23 Q1006","temp":24,"dewp":23,"wdir":130,"wspd":2,"visib":"6+","altim":1006,"clouds":[{"cover":"SCT","base":1000},{"cover":"BKN","base":10000}],"obsTime":1776416400},"SBVT":{"icaoId":"SBVT","flightCategory":"VFR","rawOb":"METAR SBVT 170900Z 28004KT 9999 FEW024 BKN040 21/20 Q1011","temp":21,"dewp":20,"wdir":280,"wspd":4,"visib":"6+","altim":1011,"clouds":[{"cover":"FEW","base":2400},{"cover":"BKN","base":4000}],"obsTime":1776416400},"SBME":{"icaoId":"SBME","flightCategory":"VFR","rawOb":"METAR SBME 170900Z 03003KT CAVOK 21/20 Q1010","temp":21,"dewp":20,"wdir":30,"wspd":3,"visib":"6+","altim":1010,"clouds":[],"obsTime":1776416400},"SBMG":{"icaoId":"SBMG","flightCategory":"VFR","rawOb":"METAR SBMG 170900Z AUTO 03008KT CAVOK 22/18 Q1010","temp":22,"dewp":18,"wdir":30,"wspd":8,"visib":"6+","altim":1010,"clouds":[],"obsTime":1776416400},"SBMK":{"icaoId":"SBMK","flightCategory":"VFR","rawOb":"METAR SBMK 170900Z 00000KT CAVOK 16/15 Q1013","temp":16,"dewp":15,"wdir":0,"wspd":0,"visib":"6+","altim":1013,"clouds":[],"obsTime":1776416400},"SBUL":{"icaoId":"SBUL","flightCategory":"VFR","rawOb":"METAR SBUL 170900Z 11007KT CAVOK 19/15 Q1015","temp":19,"dewp":15,"wdir":110,"wspd":7,"visib":"6+","altim":1015,"clouds":[],"obsTime":1776416400},"SBUR":{"icaoId":"SBUR","flightCategory":"VFR","rawOb":"METAR SBUR 170900Z 02005KT CAVOK 20/14 Q1013","temp":20,"dewp":14,"wdir":20,"wspd":5,"visib":"6+","altim":1013,"clouds":[],"obsTime":1776416400},"SBJU":{"icaoId":"SBJU","flightCategory":"VFR","rawOb":"METAR SBJU 170900Z 00000KT CAVOK 21/21 Q1010","temp":21,"dewp":21,"wdir":0,"wspd":0,"visib":"6+","altim":1010,"clouds":[],"obsTime":1776416400},"SBTF":{"icaoId":"SBTF","flightCategory":"IFR","rawOb":"METAR SBTF 171000Z 20002KT 9999 BKN007 BKN090 25/25 Q1008","temp":25,"dewp":25,"wdir":200,"wspd":2,"visib":"6+","altim":1008,"clouds":[{"cover":"BKN","base":700},{"cover":"BKN","base":9000}],"obsTime":1776420000},"SBAR":{"icaoId":"SBAR","flightCategory":"VFR","rawOb":"METAR SBAR 170900Z 33004KT 9999 FEW015 SCT020 23/23 Q1009","temp":23,"dewp":23,"wdir":330,"wspd":4,"visib":"6+","altim":1009,"clouds":[{"cover":"FEW","base":1500},{"cover":"SCT","base":2000}],"obsTime":1776416400},"SBOI":{"icaoId":"SBOI","flightCategory":"VFR","rawOb":"METAR SBOI 170900Z AUTO 05006KT 360V100 9999 // FEW009/// BKN039/// OVC051/// 25/24 Q1008","temp":25,"dewp":24,"wdir":50,"wspd":6,"visib":"6+","altim":1008,"clouds":[{"cover":"FEW","base":900},{"cover":"BKN","base":3900},{"cover":"OVC","base":5100}],"obsTime":1776416400},"SBPL":{"icaoId":"SBPL","flightCategory":"MVFR","rawOb":"METAR SBPL 170900Z 10008KT 9999 BKN020 25/21 Q1011","temp":25,"dewp":21,"wdir":100,"wspd":8,"visib":"6+","altim":1011,"clouds":[{"cover":"BKN","base":2000}],"obsTime":1776416400},"SBPS":{"icaoId":"SBPS","flightCategory":"VFR","rawOb":"METAR SBPS 170900Z 27005KT 9999 SCT015 22/21 Q1011","temp":22,"dewp":21,"wdir":270,"wspd":5,"visib":"6+","altim":1011,"clouds":[{"cover":"SCT","base":1500}],"obsTime":1776416400},"SBSJ":{"icaoId":"SBSJ","flightCategory":"IFR","rawOb":"SPECI SBSJ 170830Z 04001KT 5000 BR OVC008 16/16 Q1013","temp":16,"dewp":16,"wdir":40,"wspd":1,"visib":3.11,"altim":1013,"clouds":[{"cover":"OVC","base":800}],"obsTime":1776414600},"SBIP":{"icaoId":"SBIP","flightCategory":"LIFR","rawOb":"METAR SBIP 170900Z AUTO 00000KT 0800 FG VV002 17/17 Q1012","temp":17,"dewp":17,"wdir":0,"wspd":0,"visib":0.5,"altim":1012,"clouds":[{"cover":"OVX","base":200}],"obsTime":1776416400},"SBKG":{"icaoId":"SBKG","flightCategory":"VFR","rawOb":"METAR SBKG 170900Z 15002KT 9999 SCT008 22/21 Q1011","temp":22,"dewp":21,"wdir":150,"wspd":2,"visib":"6+","altim":1011,"clouds":[{"cover":"SCT","base":800}],"obsTime":1776416400},"SBSM":{"icaoId":"SBSM","flightCategory":"VFR","rawOb":"METAR SBSM 170900Z 30008KT 9999 BKN045 22/19 Q1008","temp":22,"dewp":19,"wdir":300,"wspd":8,"visib":"6+","altim":1008,"clouds":[{"cover":"BKN","base":4500}],"obsTime":1776416400},"SBSR":{"icaoId":"SBSR","flightCategory":"VFR","rawOb":"METAR SBSR 170900Z 09004KT CAVOK 22/15 Q1012","temp":22,"dewp":15,"wdir":90,"wspd":4,"visib":"6+","altim":1012,"clouds":[],"obsTime":1776416400},"SBSC":{"icaoId":"SBSC","flightCategory":"MVFR","rawOb":"METAR SBSC 170900Z 03003KT 7000 FEW020 20/19 Q1011","temp":20,"dewp":19,"wdir":30,"wspd":3,"visib":4.35,"altim":1011,"clouds":[{"cover":"FEW","base":2000}],"obsTime":1776416400},"SBCO":{"icaoId":"SBCO","flightCategory":"VFR","rawOb":"METAR SBCO 170900Z 32005KT 9999 FEW030 BKN060 22/19 Q1007","temp":22,"dewp":19,"wdir":320,"wspd":5,"visib":"6+","altim":1007,"clouds":[{"cover":"FEW","base":3000},{"cover":"BKN","base":6000}],"obsTime":1776416400},"SBES":{"icaoId":"SBES","flightCategory":"VFR","rawOb":"METAR SBES 170900Z 00000KT 9999 FEW030 SCT100 19/// Q1011","temp":null,"dewp":null,"wdir":0,"wspd":0,"visib":"6+","altim":1011,"clouds":[{"cover":"FEW","base":3000},{"cover":"SCT","base":10000}],"obsTime":1776416400},"SBDN":{"icaoId":"SBDN","flightCategory":"VFR","rawOb":"METAR SBDN 170900Z 05003KT CAVOK 22/16 Q1010","temp":22,"dewp":16,"wdir":50,"wspd":3,"visib":"6+","altim":1010,"clouds":[],"obsTime":1776416400},"SBAX":{"icaoId":"SBAX","flightCategory":"VFR","rawOb":"METAR SBAX 170900Z AUTO 12003KT CAVOK 18/13 Q1015","temp":18,"dewp":13,"wdir":120,"wspd":3,"visib":"6+","altim":1015,"clouds":[],"obsTime":1776416400},"SBBH":{"icaoId":"SBBH","flightCategory":"VFR","rawOb":"METAR SBBH 170900Z 10003KT CAVOK 16/15 Q1014","temp":16,"dewp":15,"wdir":100,"wspd":3,"visib":"6+","altim":1014,"clouds":[],"obsTime":1776416400},"SBBU":{"icaoId":"SBBU","flightCategory":"VFR","rawOb":"METAR SBBU 170900Z 07003KT CAVOK 23/16 Q1012","temp":23,"dewp":16,"wdir":70,"wspd":3,"visib":"6+","altim":1012,"clouds":[],"obsTime":1776416400},"SBJP":{"icaoId":"SBJP","flightCategory":"VFR","rawOb":"METAR SBJP 170900Z 21005KT 9999 FEW020 24/23 Q1009","temp":24,"dewp":23,"wdir":210,"wspd":5,"visib":"6+","altim":1009,"clouds":[{"cover":"FEW","base":2000}],"obsTime":1776416400},"SBJV":{"icaoId":"SBJV","flightCategory":"VFR","rawOb":"METAR SBJV 170900Z 31001KT CAVOK 22/21 Q1009","temp":22,"dewp":21,"wdir":310,"wspd":1,"visib":"6+","altim":1009,"clouds":[],"obsTime":1776416400},"SBPF":{"icaoId":"SBPF","flightCategory":"IFR","rawOb":"METAR SBPF 170900Z 28008KT 9999 BKN005 19/16 Q1011","temp":19,"dewp":16,"wdir":280,"wspd":8,"visib":"6+","altim":1011,"clouds":[{"cover":"BKN","base":500}],"obsTime":1776416400},"SBGW":{"icaoId":"SBGW","flightCategory":"IFR","rawOb":"METAR SBGW 170900Z VRB02KT 3000 HZ OVC009 19/15 Q1013","temp":19,"dewp":15,"wdir":"VRB","wspd":2,"visib":1.86,"altim":1013,"clouds":[{"cover":"OVC","base":900}],"obsTime":1776416400},"SBLS":{"icaoId":"SBLS","flightCategory":"VFR","rawOb":"METAR SBLS 170900Z 17006KT CAVOK 17/15 Q1014","temp":17,"dewp":15,"wdir":170,"wspd":6,"visib":"6+","altim":1014,"clouds":[],"obsTime":1776416400},"SBAN":{"icaoId":"SBAN","flightCategory":"VFR","rawOb":"METAR SBAN 170900Z 10004KT CAVOK 19/18 Q1016","temp":19,"dewp":18,"wdir":100,"wspd":4,"visib":"6+","altim":1016,"clouds":[],"obsTime":1776416400},"SBTA":{"icaoId":"SBTA","flightCategory":"IFR","rawOb":"METAR SBTA 170900Z 00000KT 9000 OVC008 17/17 Q1013","temp":17,"dewp":17,"wdir":0,"wspd":0,"visib":5.59,"altim":1013,"clouds":[{"cover":"OVC","base":800}],"obsTime":1776416400},"SBLE":{"icaoId":"SBLE","flightCategory":"VFR","rawOb":"METAR SBLE 170900Z AUTO 00000KT CAVOK ///// Q////","temp":null,"dewp":null,"wdir":0,"wspd":0,"visib":"6+","altim":null,"clouds":[],"obsTime":1776416400},"SBMT":{"icaoId":"SBMT","flightCategory":"VFR","rawOb":"METAR SBMT 170900Z 11003KT 070V140 CAVOK 18/16 Q1013","temp":18,"dewp":16,"wdir":110,"wspd":3,"visib":"6+","altim":1013,"clouds":[],"obsTime":1776416400}}}