{"updated":1777644680,"count":84,"data":{"SBJU":{"icaoId":"SBJU","flightCategory":"VFR","rawOb":"METAR SBJU 011300Z 00000KT 9999 SCT020 27/22 Q1017","temp":27,"dewp":22,"wdir":0,"wspd":0,"visib":"6+","altim":1017,"clouds":[{"cover":"SCT","base":2000}],"obsTime":1777640400},"SBBE":{"icaoId":"SBBE","flightCategory":"VFR","rawOb":"METAR SBBE 011300Z 09009KT 9999 SCT015 SCT090 28/24 Q1012","temp":28,"dewp":24,"wdir":90,"wspd":9,"visib":"6+","altim":1012,"clouds":[{"cover":"SCT","base":1500},{"cover":"SCT","base":9000}],"obsTime":1777640400},"SBCT":{"icaoId":"SBCT","flightCategory":"LIFR","rawOb":"SPECI SBCT 011224Z VRB01KT 0500 R33/0600 R15/0800 FG BKN001 14/14 Q1024","temp":14,"dewp":14,"wdir":"VRB","wspd":1,"visib":0.31,"altim":1024,"clouds":[{"cover":"BKN","base":100}],"obsTime":1777638240},"SBLO":{"icaoId":"SBLO","flightCategory":"VFR","rawOb":"METAR SBLO 011300Z 11006KT 9999 SCT011 21/18 Q1021","temp":21,"dewp":18,"wdir":110,"wspd":6,"visib":"6+","altim":1021,"clouds":[{"cover":"SCT","base":1100}],"obsTime":1777640400},"SBMA":{"icaoId":"SBMA","flightCategory":"VFR","rawOb":"METAR SBMA 011300Z 35004KT 9999 SCT015 28/25 Q1013","temp":28,"dewp":25,"wdir":350,"wspd":4,"visib":"6+","altim":1013,"clouds":[{"cover":"SCT","base":1500}],"obsTime":1777640400},"SBCZ":{"icaoId":"SBCZ","flightCategory":"LIFR","rawOb":"METAR SBCZ 011300Z 21003KT 5000 2000W BR BKN004 OVC100 25/25 Q1014","temp":25,"dewp":25,"wdir":210,"wspd":3,"visib":3.11,"altim":1014,"clouds":[{"cover":"BKN","base":400},{"cover":"OVC","base":10000}],"obsTime":1777640400},"SBCF":{"icaoId":"SBCF","flightCategory":"VFR","rawOb":"METAR SBCF 011300Z 35004KT 9999 FEW025 24/17 Q1022","temp":24,"dewp":17,"wdir":350,"wspd":4,"visib":"6+","altim":1022,"clouds":[{"cover":"FEW","base":2500}],"obsTime":1777640400},"SBME":{"icaoId":"SBME","flightCategory":"VFR","rawOb":"METAR SBME 011300Z 15004KT 9999 SCT023 29/23 Q1019","temp":29,"dewp":23,"wdir":150,"wspd":4,"visib":"6+","altim":1019,"clouds":[{"cover":"SCT","base":2300}],"obsTime":1777640400},"SBEG":{"icaoId":"SBEG","flightCategory":"VFR","rawOb":"METAR SBEG 011300Z 34002KT 9999 SCT004 BKN100 27/25 Q1013","temp":27,"dewp":25,"wdir":340,"wspd":2,"visib":"6+","altim":1013,"clouds":[{"cover":"SCT","base":400},{"cover":"BKN","base":10000}],"obsTime":1777640400},"SBMG":{"icaoId":"SBMG","flightCategory":"VFR","rawOb":"METAR SBMG 011300Z 07008KT 030V090 CAVOK 24/18 Q1019","temp":24,"dewp":18,"wdir":70,"wspd":8,"visib":"6+","altim":1019,"clouds":[],"obsTime":1777640400},"SBBR":{"icaoId":"SBBR","flightCategory":"VFR","rawOb":"METAR SBBR 011300Z 10011KT 9999 SCT030 24/16 Q1022","temp":24,"dewp":16,"wdir":100,"wspd":11,"visib":"6+","altim":1022,"clouds":[{"cover":"SCT","base":3000}],"obsTime":1777640400},"SBMK":{"icaoId":"SBMK","flightCategory":"VFR","rawOb":"METAR SBMK 011300Z 10008KT 9999 SCT030 27/18 Q1021","temp":27,"dewp":18,"wdir":100,"wspd":8,"visib":"6+","altim":1021,"clouds":[{"cover":"SCT","base":3000}],"obsTime":1777640400},"SBBV":{"icaoId":"SBBV","flightCategory":"VFR","rawOb":"METAR SBBV 011300Z 10011KT 9999 SCT015 SCT100 27/23 Q1014","temp":27,"dewp":23,"wdir":100,"wspd":11,"visib":"6+","altim":1014,"clouds":[{"cover":"SCT","base":1500},{"cover":"SCT","base":10000}],"obsTime":1777640400},"SBMO":{"icaoId":"SBMO","flightCategory":"MVFR","rawOb":"METAR SBMO 011300Z 12010KT 090V150 9999 BKN025 BKN100 29/23 Q1015","temp":29,"dewp":23,"wdir":120,"wspd":10,"visib":"6+","altim":1015,"clouds":[{"cover":"BKN","base":2500},{"cover":"BKN","base":10000}],"obsTime":1777640400},"SBFI":{"icaoId":"SBFI","flightCategory":"VFR","rawOb":"METAR SBFI 011300Z 07008KT CAVOK 24/21 Q1016","temp":24,"dewp":21,"wdir":70,"wspd":8,"visib":"6+","altim":1016,"clouds":[],"obsTime":1777640400},"SBMQ":{"icaoId":"SBMQ","flightCategory":"MVFR","rawOb":"METAR SBMQ 011300Z 01005KT 9999 SCT013 BKN017 FEW039TCU 28/25 Q1013","temp":28,"dewp":25,"wdir":10,"wspd":5,"visib":"6+","altim":1013,"clouds":[{"cover":"SCT","base":1300},{"cover":"BKN","base":1700},{"cover":"FEW","base":3900}],"obsTime":1777640400},"SBFL":{"icaoId":"SBFL","flightCategory":"VFR","rawOb":"METAR SBFL 011300Z 34006KT 310V010 CAVOK 24/20 Q1019","temp":24,"dewp":20,"wdir":340,"wspd":6,"visib":"6+","altim":1019,"clouds":[],"obsTime":1777640400},"SBNT":{"icaoId":"SBNT","flightCategory":"VFR","rawOb":"METAR SBNT 011300Z 17006KT 9999 FEW006 SCT020 FEW025TCU BKN070 26/25 Q1014","temp":26,"dewp":25,"wdir":170,"wspd":6,"visib":"6+","altim":1014,"clouds":[{"cover":"FEW","base":600},{"cover":"SCT","base":2000},{"cover":"FEW","base":2500},{"cover":"BKN","base":7000}],"obsTime":1777640400},"SBPA":{"icaoId":"SBPA","flightCategory":"VFR","rawOb":"METAR SBPA 011300Z 08008KT CAVOK 22/16 Q1015","temp":22,"dewp":16,"wdir":80,"wspd":8,"visib":"6+","altim":1015,"clouds":[],"obsTime":1777640400},"SBCG":{"icaoId":"SBCG","flightCategory":"VFR","rawOb":"METAR SBCG 011300Z 05013KT CAVOK 28/20 Q1018","temp":28,"dewp":20,"wdir":50,"wspd":13,"visib":"6+","altim":1018,"clouds":[],"obsTime":1777640400},"SBFZ":{"icaoId":"SBFZ","flightCategory":"VFR","rawOb":"METAR SBFZ 011300Z 16010KT 9999 SCT007 BKN100 26/24 Q1012","temp":26,"dewp":24,"wdir":160,"wspd":10,"visib":"6+","altim":1012,"clouds":[{"cover":"SCT","base":700},{"cover":"BKN","base":10000}],"obsTime":1777640400},"SBPJ":{"icaoId":"SBPJ","flightCategory":"VFR","rawOb":"METAR SBPJ 011300Z 10006KT 060V140 CAVOK 30/21 Q1015","temp":30,"dewp":21,"wdir":100,"wspd":6,"visib":"6+","altim":1015,"clouds":[],"obsTime":1777640400},"SBPV":{"icaoId":"SBPV","flightCategory":"VFR","rawOb":"METAR SBPV 011300Z 13004KT CAVOK 27/25 Q1012","temp":27,"dewp":25,"wdir":130,"wspd":4,"visib":"6+","altim":1012,"clouds":[],"obsTime":1777640400},"SBCP":{"icaoId":"SBCP","flightCategory":"MVFR","rawOb":"METAR SBCP 011300Z 02005KT 9999 BKN020 28/21 Q1019","temp":28,"dewp":21,"wdir":20,"wspd":5,"visib":"6+","altim":1019,"clouds":[{"cover":"BKN","base":2000}],"obsTime":1777640400},"SBRB":{"icaoId":"SBRB","flightCategory":"VFR","rawOb":"METAR SBRB 011300Z 16003KT 9999 SCT025 SCT100 27/25 Q1013","temp":27,"dewp":25,"wdir":160,"wspd":3,"visib":"6+","altim":1013,"clouds":[{"cover":"SCT","base":2500},{"cover":"SCT","base":10000}],"obsTime":1777640400},"SBAT":{"icaoId":"SBAT","flightCategory":"VFR","rawOb":"METAR SBAT 011300Z 12006KT CAVOK 31/25 Q1014","temp":31,"dewp":25,"wdir":120,"wspd":6,"visib":"6+","altim":1014,"clouds":[],"obsTime":1777640400},"SBGL":{"icaoId":"SBGL","flightCategory":"MVFR","rawOb":"METAR SBGL 011300Z VRB02KT 8000 FEW009 SCT014 BKN050 26/23 Q1020","temp":26,"dewp":23,"wdir":"VRB","wspd":2,"visib":4.97,"altim":1020,"clouds":[{"cover":"FEW","base":900},{"cover":"SCT","base":1400},{"cover":"BKN","base":5000}],"obsTime":1777640400},"SBRF":{"icaoId":"SBRF","flightCategory":"LIFR","rawOb":"METAR SBRF 011300Z 24005KT 180V320 1500 R36/1800 R18/P2000 RA BR BKN005 BKN008 FEW020TCU OVC060 23/23 Q1014","temp":23,"dewp":23,"wdir":240,"wspd":5,"visib":0.93,"altim":1014,"clouds":[{"cover":"BKN","base":500},{"cover":"BKN","base":800},{"cover":"FEW","base":2000},{"cover":"OVC","base":6000}],"obsTime":1777640400},"SBSG":{"icaoId":"SBSG","flightCategory":"MVFR","rawOb":"METAR SBSG 011300Z 17005KT 130V220 9999 VCSH BKN010 FEW023TCU 26/25 Q1014","temp":26,"dewp":25,"wdir":170,"wspd":5,"visib":"6+","altim":1014,"clouds":[{"cover":"BKN","base":1000},{"cover":"FEW","base":2300}],"obsTime":1777640400},"SBCB":{"icaoId":"SBCB","flightCategory":"VFR","rawOb":"METAR SBCB 011300Z 09004KT 9999 SCT020 BKN070 28/23 Q1020","temp":28,"dewp":23,"wdir":90,"wspd":4,"visib":"6+","altim":1020,"clouds":[{"cover":"SCT","base":2000},{"cover":"BKN","base":7000}],"obsTime":1777640400},"SBGO":{"icaoId":"SBGO","flightCategory":"VFR","rawOb":"METAR SBGO 011300Z 08012KT 9999 FEW035 27/16 Q1021","temp":27,"dewp":16,"wdir":80,"wspd":12,"visib":"6+","altim":1021,"clouds":[{"cover":"FEW","base":3500}],"obsTime":1777640400},"SBSL":{"icaoId":"SBSL","flightCategory":"VFR","rawOb":"METAR SBSL 011300Z 07009KT 9999 SCT020 29/25 Q1012","temp":29,"dewp":25,"wdir":70,"wspd":9,"visib":"6+","altim":1012,"clouds":[{"cover":"SCT","base":2000}],"obsTime":1777640400},"SBCR":{"icaoId":"SBCR","flightCategory":"VFR","rawOb":"METAR SBCR 011300Z 07009KT 9999 FEW015 30/25 Q1013","temp":30,"dewp":25,"wdir":70,"wspd":9,"visib":"6+","altim":1013,"clouds":[{"cover":"FEW","base":1500}],"obsTime":1777640400},"SBSN":{"icaoId":"SBSN","flightCategory":"VFR","rawOb":"METAR SBSN 011300Z 07006KT 9999 FEW020 BKN100 28/24 Q1013","temp":28,"dewp":24,"wdir":70,"wspd":6,"visib":"6+","altim":1013,"clouds":[{"cover":"FEW","base":2000},{"cover":"BKN","base":10000}],"obsTime":1777640400},"SBSP":{"icaoId":"SBSP","flightCategory":"MVFR","rawOb":"METAR SBSP 011300Z 09005KT 050V160 9999 BKN016 BKN019 23/18 Q1024","temp":23,"dewp":18,"wdir":90,"wspd":5,"visib":"6+","altim":1024,"clouds":[{"cover":"BKN","base":1600},{"cover":"BKN","base":1900}],"obsTime":1777640400},"SBGR":{"icaoId":"SBGR","flightCategory":"MVFR","rawOb":"METAR SBGR 011300Z 07007KT 9999 BKN015 22/19 Q1023","temp":22,"dewp":19,"wdir":70,"wspd":7,"visib":"6+","altim":1023,"clouds":[{"cover":"BKN","base":1500}],"obsTime":1777640400},"SBSV":{"icaoId":"SBSV","flightCategory":"VFR","rawOb":"METAR SBSV 011300Z 11010KT 9999 SCT025 30/23 Q1016","temp":30,"dewp":23,"wdir":110,"wspd":10,"visib":"6+","altim":1016,"clouds":[{"cover":"SCT","base":2500}],"obsTime":1777640400},"SBKP":{"icaoId":"SBKP","flightCategory":"VFR","rawOb":"METAR SBKP 011300Z 09004KT 040V130 CAVOK 25/20 Q1022","temp":25,"dewp":20,"wdir":90,"wspd":4,"visib":"6+","altim":1022,"clouds":[],"obsTime":1777640400},"SBHT":{"icaoId":"SBHT","flightCategory":"MVFR","rawOb":"METAR SBHT 011300Z 10005KT 9999 BKN015 BKN080 27/25 Q1013","temp":27,"dewp":25,"wdir":100,"wspd":5,"visib":"6+","altim":1013,"clouds":[{"cover":"BKN","base":1500},{"cover":"BKN","base":8000}],"obsTime":1777640400},"SBTE":{"icaoId":"SBTE","flightCategory":"VFR","rawOb":"METAR SBTE 011300Z 13005KT 9999 BKN040 30/23 Q1012","temp":30,"dewp":23,"wdir":130,"wspd":5,"visib":"6+","altim":1012,"clouds":[{"cover":"BKN","base":4000}],"obsTime":1777640400},"SBVT":{"icaoId":"SBVT","flightCategory":"VFR","rawOb":"METAR SBVT 011300Z 24001KT 9999 SCT020 28/23 Q1019","temp":28,"dewp":23,"wdir":240,"wspd":1,"visib":"6+","altim":1019,"clouds":[{"cover":"SCT","base":2000}],"obsTime":1777640400},"SBUL":{"icaoId":"SBUL","flightCategory":"VFR","rawOb":"METAR SBUL 011300Z 08013KT 040V110 CAVOK 24/16 Q1023","temp":24,"dewp":16,"wdir":80,"wspd":13,"visib":"6+","altim":1023,"clouds":[],"obsTime":1777640400},"SBIL":{"icaoId":"SBIL","flightCategory":"MVFR","rawOb":"METAR SBIL 011300Z 00000KT 8000 VCSH BKN018 SCT023TCU BKN070 27/25 Q1017 RERA","temp":27,"dewp":25,"wdir":0,"wspd":0,"visib":4.97,"altim":1017,"clouds":[{"cover":"BKN","base":1800},{"cover":"SCT","base":2300},{"cover":"BKN","base":7000}],"obsTime":1777640400},"SBUR":{"icaoId":"SBUR","flightCategory":"VFR","rawOb":"METAR SBUR 011300Z 04009KT CAVOK 26/16 Q1022","temp":26,"dewp":16,"wdir":40,"wspd":9,"visib":"6+","altim":1022,"clouds":[],"obsTime":1777640400},"SBOI":{"icaoId":"SBOI","flightCategory":"MVFR","rawOb":"SPECI SBOI 011313Z AUTO 15005KT 9999 -RA SCT006 BKN029 25/24 Q1014 RERA","temp":25,"dewp":24,"wdir":150,"wspd":5,"visib":"6+","altim":1014,"clouds":[{"cover":"SCT","base":600},{"cover":"BKN","base":2900}],"obsTime":1777641180},"SBPB":{"icaoId":"SBPB","flightCategory":"VFR","rawOb":"METAR SBPB 011300Z 10012KT 9999 FEW020 SCT100 30/24 Q1012","temp":30,"dewp":24,"wdir":100,"wspd":12,"visib":"6+","altim":1012,"clouds":[{"cover":"FEW","base":2000},{"cover":"SCT","base":10000}],"obsTime":1777640400},"SBBH":{"icaoId":"SBBH","flightCategory":"VFR","rawOb":"METAR SBBH 011300Z 08006KT 9999 SCT030 25/18 Q1023","temp":25,"dewp":18,"wdir":80,"wspd":6,"visib":"6+","altim":1023,"clouds":[{"cover":"SCT","base":3000}],"obsTime":1777640400},"SBPL":{"icaoId":"SBPL","flightCategory":"VFR","rawOb":"METAR SBPL 011300Z 08015KT 9999 SCT030 29/21 Q1017","temp":29,"dewp":21,"wdir":80,"wspd":15,"visib":"6+","altim":1017,"clouds":[{"cover":"SCT","base":3000}],"obsTime":1777640400},"SBBU":{"icaoId":"SBBU","flightCategory":"VFR","rawOb":"METAR SBBU 011300Z 08008KT CAVOK 25/20 Q1021","temp":25,"dewp":20,"wdir":80,"wspd":8,"visib":"6+","altim":1021,"clouds":[],"obsTime":1777640400},"SBPP":{"icaoId":"SBPP","flightCategory":"VFR","rawOb":"METAR SBPP 011300Z 05015KT CAVOK 25/22 Q1018","temp":25,"dewp":22,"wdir":50,"wspd":15,"visib":"6+","altim":1018,"clouds":[],"obsTime":1777640400},"SBCO":{"icaoId":"SBCO","flightCategory":"VFR","rawOb":"METAR SBCO 011300Z 10005KT CAVOK 22/16 Q1016","temp":22,"dewp":16,"wdir":100,"wspd":5,"visib":"6+","altim":1016,"clouds":[],"obsTime":1777640400},"SBAX":{"icaoId":"SBAX","flightCategory":"VFR","rawOb":"METAR SBAX 011300Z AUTO 05009KT 010V100 CAVOK 23/16 Q1023","temp":23,"dewp":16,"wdir":50,"wspd":9,"visib":"6+","altim":1023,"clouds":[],"obsTime":1777640400},"SBPS":{"icaoId":"SBPS","flightCategory":"VFR","rawOb":"METAR SBPS 011300Z 12006KT 080V160 9999 VCSH SCT020 FEW025TCU BKN070 28/23 Q1018","temp":28,"dewp":23,"wdir":120,"wspd":6,"visib":"6+","altim":1018,"clouds":[{"cover":"SCT","base":2000},{"cover":"FEW","base":2500},{"cover":"BKN","base":7000}],"obsTime":1777640400},"SBDN":{"icaoId":"SBDN","flightCategory":"VFR","rawOb":"METAR SBDN 011300Z 10010KT CAVOK 25/18 Q1020","temp":25,"dewp":18,"wdir":100,"wspd":10,"visib":"6+","altim":1020,"clouds":[],"obsTime":1777640400},"SBSC":{"icaoId":"SBSC","flightCategory":"MVFR","rawOb":"METAR SBSC 011300Z VRB01KT 9999 FEW008 BKN012 OVC030 25/23 Q1020","temp":25,"dewp":23,"wdir":"VRB","wspd":1,"visib":"6+","altim":1020,"clouds":[{"cover":"FEW","base":800},{"cover":"BKN","base":1200},{"cover":"OVC","base":3000}],"obsTime":1777640400},"SBSJ":{"icaoId":"SBSJ","flightCategory":"MVFR","rawOb":"METAR SBSJ 011300Z VRB02KT 9999 BKN013 23/19 Q1023","temp":23,"dewp":19,"wdir":"VRB","wspd":2,"visib":"6+","altim":1023,"clouds":[{"cover":"BKN","base":1300}],"obsTime":1777640400},"SBCA":{"icaoId":"SBCA","flightCategory":"VFR","rawOb":"METAR SBCA 011300Z 04014KT CAVOK 23/18 Q1020","temp":23,"dewp":18,"wdir":40,"wspd":14,"visib":"6+","altim":1020,"clouds":[],"obsTime":1777640400},"SBES":{"icaoId":"SBES","flightCategory":"VFR","rawOb":"METAR SBES 011300Z VRB02KT 9999 SCT020 27/// Q1020","temp":null,"dewp":null,"wdir":"VRB","wspd":2,"visib":"6+","altim":1020,"clouds":[{"cover":"SCT","base":2000}],"obsTime":1777640400},"SBSM":{"icaoId":"SBSM","flightCategory":"VFR","rawOb":"METAR SBSM 011300Z 14003KT 090V180 9999 VCSH FEW025 BKN070 18/16 Q1015","temp":18,"dewp":16,"wdir":140,"wspd":3,"visib":"6+","altim":1015,"clouds":[{"cover":"FEW","base":2500},{"cover":"BKN","base":7000}],"obsTime":1777640400},"SBBQ":{"icaoId":"SBBQ","flightCategory":"VFR","rawOb":"METAR SBBQ 011300Z 07007KT 010V120 9999 SCT013 BKN035 20/17 Q1027","temp":20,"dewp":17,"wdir":70,"wspd":7,"visib":"6+","altim":1027,"clouds":[{"cover":"SCT","base":1300},{"cover":"BKN","base":3500}],"obsTime":1777640400},"SBSR":{"icaoId":"SBSR","flightCategory":"VFR","rawOb":"METAR SBSR 011300Z 10003KT CAVOK 27/17 Q1020","temp":27,"dewp":17,"wdir":100,"wspd":3,"visib":"6+","altim":1020,"clouds":[],"obsTime":1777640400},"SBTF":{"icaoId":"SBTF","flightCategory":"VFR","rawOb":"METAR SBTF 011300Z 09003KT 9999 FEW011 BKN080 28/25 Q1012","temp":28,"dewp":25,"wdir":90,"wspd":3,"visib":"6+","altim":1012,"clouds":[{"cover":"FEW","base":1100},{"cover":"BKN","base":8000}],"obsTime":1777640400},"SBAR":{"icaoId":"SBAR","flightCategory":"MVFR","rawOb":"METAR SBAR 011300Z 10011KT 9999 BKN025 30/24 Q1015","temp":30,"dewp":24,"wdir":100,"wspd":11,"visib":"6+","altim":1015,"clouds":[{"cover":"BKN","base":2500}],"obsTime":1777640400},"SBTT":{"icaoId":"SBTT","flightCategory":"IFR","rawOb":"METAR SBTT 011300Z 28004KT 9999 BKN007 BKN090 25/23 Q1012","temp":25,"dewp":23,"wdir":280,"wspd":4,"visib":"6+","altim":1012,"clouds":[{"cover":"BKN","base":700},{"cover":"BKN","base":9000}],"obsTime":1777640400},"SBGM":{"icaoId":"SBGM","flightCategory":"VFR","rawOb":"METAR SBGM 011300Z 09003KT 9999 FEW040 28/24 Q1013","temp":28,"dewp":24,"wdir":90,"wspd":3,"visib":"6+","altim":1013,"clouds":[{"cover":"FEW","base":4000}],"obsTime":1777640400},"SBCC":{"icaoId":"SBCC","flightCategory":"VFR","rawOb":"METAR SBCC 011300Z 05009KT 020V090 9999 FEW020 SCT100 29/22 Q1015","temp":29,"dewp":22,"wdir":50,"wspd":9,"visib":"6+","altim":1015,"clouds":[{"cover":"FEW","base":2000},{"cover":"SCT","base":10000}],"obsTime":1777640400},"SBUY":{"icaoId":"SBUY","flightCategory":"VFR","rawOb":"METAR SBUY 011300Z 00000KT 9999 FEW013 SCT090 28/24 Q1012","temp":28,"dewp":24,"wdir":0,"wspd":0,"visib":"6+","altim":1012,"clouds":[{"cover":"FEW","base":1300},{"cover":"SCT","base":9000}],"obsTime":1777640400},"SBIP":{"icaoId":"SBIP","flightCategory":"VFR","rawOb":"METAR SBIP 011300Z AUTO VRB03KT CAVOK 27/19 Q1020","temp":27,"dewp":19,"wdir":"VRB","wspd":3,"visib":"6+","altim":1020,"clouds":[],"obsTime":1777640400},"SBVH":{"icaoId":"SBVH","flightCategory":"VFR","rawOb":"METAR SBVH 011300Z 09006KT CAVOK 27/23 Q1016","temp":27,"dewp":23,"wdir":90,"wspd":6,"visib":"6+","altim":1016,"clouds":[],"obsTime":1777640400},"SBCJ":{"icaoId":"SBCJ","flightCategory":"VFR","rawOb":"METAR SBCJ 011300Z 10005KT 9999 FEW004 26/20 Q1018","temp":26,"dewp":20,"wdir":100,"wspd":5,"visib":"6+","altim":1018,"clouds":[{"cover":"FEW","base":400}],"obsTime":1777640400},"SBKG":{"icaoId":"SBKG","flightCategory":"IFR","rawOb":"METAR SBKG 011300Z 19003KT 4000 -RA BR BKN006 OVC070 22/22 Q1017 RERA","temp":22,"dewp":22,"wdir":190,"wspd":3,"visib":2.49,"altim":1017,"clouds":[{"cover":"BKN","base":600},{"cover":"OVC","base":7000}],"obsTime":1777640400},"SBLE":{"icaoId":"SBLE","flightCategory":"MVFR","rawOb":"METAR SBLE 011300Z AUTO 15006KT 090V190 9999 BKN020 BKN040 25/21 Q1020","temp":25,"dewp":21,"wdir":150,"wspd":6,"visib":"6+","altim":1020,"clouds":[{"cover":"BKN","base":2000},{"cover":"BKN","base":4000}],"obsTime":1777640400},"SBJR":{"icaoId":"SBJR","flightCategory":"VFR","rawOb":"METAR SBJR 011300Z 00000KT 9000 SCT010 BKN060 27/24 Q1020","temp":27,"dewp":24,"wdir":0,"wspd":0,"visib":5.59,"altim":1020,"clouds":[{"cover":"SCT","base":1000},{"cover":"BKN","base":6000}],"obsTime":1777640400},"SBLS":{"icaoId":"SBLS","flightCategory":"VFR","rawOb":"METAR SBLS 011300Z VRB04KT 9999 SCT022 24/17 Q1023","temp":24,"dewp":17,"wdir":"VRB","wspd":4,"visib":"6+","altim":1023,"clouds":[{"cover":"SCT","base":2200}],"obsTime":1777640400},"SBAN":{"icaoId":"SBAN","flightCategory":"VFR","rawOb":"METAR SBAN 011300Z 14016KT 090V170 9999 FEW045 23/15 Q1023","temp":23,"dewp":15,"wdir":140,"wspd":16,"visib":"6+","altim":1023,"clouds":[{"cover":"FEW","base":4500}],"obsTime":1777640400},"SBMT":{"icaoId":"SBMT","flightCategory":"MVFR","rawOb":"METAR SBMT 011300Z 09007KT 050V120 9999 FEW013 BKN017 21/18 Q1023","temp":21,"dewp":18,"wdir":90,"wspd":7,"visib":"6+","altim":1023,"clouds":[{"cover":"FEW","base":1300},{"cover":"BKN","base":1700}],"obsTime":1777640400},"SBAF":{"icaoId":"SBAF","flightCategory":"MVFR","rawOb":"METAR SBAF 011300Z 31003KT 6000 FEW005 SCT015 BKN040 26/26 Q1020","temp":26,"dewp":26,"wdir":310,"wspd":3,"visib":3.73,"altim":1020,"clouds":[{"cover":"FEW","base":500},{"cover":"SCT","base":1500},{"cover":"BKN","base":4000}],"obsTime":1777640400},"SBST":{"icaoId":"SBST","flightCategory":"MVFR","rawOb":"METAR SBST 011300Z /////KT 8000 FEW015 BKN040 ///// Q1020","temp":null,"dewp":null,"wdir":null,"wspd":null,"visib":4.97,"altim":1020,"clouds":[{"cover":"FEW","base":1500},{"cover":"BKN","base":4000}],"obsTime":1777640400},"SBTA":{"icaoId":"SBTA","flightCategory":"VFR","rawOb":"METAR SBTA 011300Z 06007KT 9999 FEW015 SCT035 BKN090 24/19 Q1022","temp":24,"dewp":19,"wdir":60,"wspd":7,"visib":"6+","altim":1022,"clouds":[{"cover":"FEW","base":1500},{"cover":"SCT","base":3500},{"cover":"BKN","base":9000}],"obsTime":1777640400},"SBJV":{"icaoId":"SBJV","flightCategory":"VFR","rawOb":"METAR SBJV 011300Z 00000KT 9999 SCT015 24/20 Q1020","temp":24,"dewp":20,"wdir":0,"wspd":0,"visib":"6+","altim":1020,"clouds":[{"cover":"SCT","base":1500}],"obsTime":1777640400},"SBIH":{"icaoId":"SBIH","flightCategory":"VFR","rawOb":"METAR SBIH 011300Z 01005KT 9999 SCT015 27/24 Q1013","temp":27,"dewp":24,"wdir":10,"wspd":5,"visib":"6+","altim":1013,"clouds":[{"cover":"SCT","base":1500}],"obsTime":1777640400},"SBPF":{"icaoId":"SBPF","flightCategory":"VFR","rawOb":"METAR SBPF 011300Z 04016KT CAVOK 18/13 Q1019","temp":18,"dewp":13,"wdir":40,"wspd":16,"visib":"6+","altim":1019,"clouds":[],"obsTime":1777640400},"SBGW":{"icaoId":"SBGW","flightCategory":"VFR","rawOb":"METAR SBGW 011300Z 03005KT 340V110 9999 SCT020 25/18 Q1022","temp":25,"dewp":18,"wdir":30,"wspd":5,"visib":"6+","altim":1022,"clouds":[{"cover":"SCT","base":2000}],"obsTime":1777640400},"SBJP":{"icaoId":"SBJP","flightCategory":"LIFR","rawOb":"METAR SBJP 011300Z 22008KT 170V230 3000 -RA BKN004 OVC070 24/24 Q1015","temp":24,"dewp":24,"wdir":220,"wspd":8,"visib":1.86,"altim":1015,"clouds":[{"cover":"BKN","base":400},{"cover":"OVC","base":7000}],"obsTime":1777640400}}}