{"updated":1774037917,"count":85,"data":{"SBPV":{"icaoId":"SBPV","flightCategory":"VFR","rawOb":"METAR SBPV 201900Z 02006KT 9999 SCT030 FEW035TCU 31/23 Q1006","temp":31,"dewp":23,"wdir":20,"wspd":6,"visib":"6+","altim":1006,"clouds":[{"cover":"SCT","base":3000},{"cover":"FEW","base":3500}],"obsTime":1774033200},"SBAT":{"icaoId":"SBAT","flightCategory":"VFR","rawOb":"METAR SBAT 201900Z 02006KT 9999 SCT025 FEW030TCU 29/23 Q1008","temp":29,"dewp":23,"wdir":20,"wspd":6,"visib":"6+","altim":1008,"clouds":[{"cover":"SCT","base":2500},{"cover":"FEW","base":3000}],"obsTime":1774033200},"SBBE":{"icaoId":"SBBE","flightCategory":"MVFR","rawOb":"METAR SBBE 201900Z 27016KT 9999 SCT013 BKN016 FEW020TCU BKN049 27/23 Q1009","temp":27,"dewp":23,"wdir":270,"wspd":16,"visib":"6+","altim":1009,"clouds":[{"cover":"SCT","base":1300},{"cover":"BKN","base":1600},{"cover":"FEW","base":2000},{"cover":"BKN","base":4900}],"obsTime":1774033200},"SBBR":{"icaoId":"SBBR","flightCategory":"IFR","rawOb":"METAR SBBR 201900Z 21009KT 3000 TSRA BKN030 FEW045CB BKN100 20/19 Q1014 RERA RETSRA WS R11R","temp":20,"dewp":19,"wdir":210,"wspd":9,"visib":1.86,"altim":1014,"clouds":[{"cover":"BKN","base":3000},{"cover":"FEW","base":4500},{"cover":"BKN","base":10000}],"obsTime":1774033200},"SBBV":{"icaoId":"SBBV","flightCategory":"VFR","rawOb":"METAR SBBV 201900Z 06008KT 9999 SCT040 FEW045TCU SCT070 34/19 Q1007","temp":34,"dewp":19,"wdir":60,"wspd":8,"visib":"6+","altim":1007,"clouds":[{"cover":"SCT","base":4000},{"cover":"FEW","base":4500},{"cover":"SCT","base":7000}],"obsTime":1774033200},"SBCB":{"icaoId":"SBCB","flightCategory":"MVFR","rawOb":"METAR SBCB 201900Z 10007KT 9999 BKN015 BKN030 25/24 Q1008","temp":25,"dewp":24,"wdir":100,"wspd":7,"visib":"6+","altim":1008,"clouds":[{"cover":"BKN","base":1500},{"cover":"BKN","base":3000}],"obsTime":1774033200},"SBCF":{"icaoId":"SBCF","flightCategory":"MVFR","rawOb":"METAR SBCF 201900Z 01007KT 9999 BKN017 BKN060 24/21 Q1012","temp":24,"dewp":21,"wdir":10,"wspd":7,"visib":"6+","altim":1012,"clouds":[{"cover":"BKN","base":1700},{"cover":"BKN","base":6000}],"obsTime":1774033200},"SBCG":{"icaoId":"SBCG","flightCategory":"VFR","rawOb":"METAR SBCG 201900Z 01004KT 340V050 9999 VCSH BKN035 FEW045TCU SCT060 BKN090 29/22 Q1008","temp":29,"dewp":22,"wdir":10,"wspd":4,"visib":"6+","altim":1008,"clouds":[{"cover":"BKN","base":3500},{"cover":"FEW","base":4500},{"cover":"SCT","base":6000},{"cover":"BKN","base":9000}],"obsTime":1774033200},"SBCP":{"icaoId":"SBCP","flightCategory":"MVFR","rawOb":"METAR SBCP 201900Z 12011KT 9999 SCT012 BKN030 BKN100 27/24 Q1007","temp":27,"dewp":24,"wdir":120,"wspd":11,"visib":"6+","altim":1007,"clouds":[{"cover":"SCT","base":1200},{"cover":"BKN","base":3000},{"cover":"BKN","base":10000}],"obsTime":1774033200},"SBCR":{"icaoId":"SBCR","flightCategory":"VFR","rawOb":"METAR SBCR 201900Z VRB01KT 9999 VCSH SCT040 FEW045TCU 30/25 Q1003","temp":30,"dewp":25,"wdir":"VRB","wspd":1,"visib":"6+","altim":1003,"clouds":[{"cover":"SCT","base":4000},{"cover":"FEW","base":4500}],"obsTime":1774033200},"SBCT":{"icaoId":"SBCT","flightCategory":"VFR","rawOb":"METAR SBCT 201900Z 10009KT 9999 SCT040 25/19 Q1013","temp":25,"dewp":19,"wdir":100,"wspd":9,"visib":"6+","altim":1013,"clouds":[{"cover":"SCT","base":4000}],"obsTime":1774033200},"SBCZ":{"icaoId":"SBCZ","flightCategory":"VFR","rawOb":"METAR SBCZ 201900Z 34004KT 9999 SCT025 FEW030TCU BKN100 31/24 Q1005","temp":31,"dewp":24,"wdir":340,"wspd":4,"visib":"6+","altim":1005,"clouds":[{"cover":"SCT","base":2500},{"cover":"FEW","base":3000},{"cover":"BKN","base":10000}],"obsTime":1774033200},"SBEG":{"icaoId":"SBEG","flightCategory":"VFR","rawOb":"METAR SBEG 201900Z 32003KT 9999 SCT030 FEW035TCU SCT100 32/22 Q1007","temp":32,"dewp":22,"wdir":320,"wspd":3,"visib":"6+","altim":1007,"clouds":[{"cover":"SCT","base":3000},{"cover":"FEW","base":3500},{"cover":"SCT","base":10000}],"obsTime":1774033200},"SBFI":{"icaoId":"SBFI","flightCategory":"VFR","rawOb":"METAR SBFI 201900Z 34006KT 9999 SCT040 FEW045TCU 35/23 Q1005","temp":35,"dewp":23,"wdir":340,"wspd":6,"visib":"6+","altim":1005,"clouds":[{"cover":"SCT","base":4000},{"cover":"FEW","base":4500}],"obsTime":1774033200},"SBFL":{"icaoId":"SBFL","flightCategory":"MVFR","rawOb":"METAR SBFL 201900Z 10009KT 9999 BKN025 28/22 Q1009","temp":28,"dewp":22,"wdir":100,"wspd":9,"visib":"6+","altim":1009,"clouds":[{"cover":"BKN","base":2500}],"obsTime":1774033200},"SBFZ":{"icaoId":"SBFZ","flightCategory":"VFR","rawOb":"METAR SBFZ 201900Z 10012KT 9999 FEW025 30/23 Q1006","temp":30,"dewp":23,"wdir":100,"wspd":12,"visib":"6+","altim":1006,"clouds":[{"cover":"FEW","base":2500}],"obsTime":1774033200},"SBGL":{"icaoId":"SBGL","flightCategory":"MVFR","rawOb":"METAR SBGL 201900Z VRB02KT 8000 BKN025 BKN050 BKN066 25/24 Q1008","temp":25,"dewp":24,"wdir":"VRB","wspd":2,"visib":4.97,"altim":1008,"clouds":[{"cover":"BKN","base":2500},{"cover":"BKN","base":5000},{"cover":"BKN","base":6600}],"obsTime":1774033200},"SBGO":{"icaoId":"SBGO","flightCategory":"MVFR","rawOb":"METAR SBGO 201900Z 29013KT 9999 BKN013 FEW030TCU BKN060 OVC080 23/21 Q1013 RERA","temp":23,"dewp":21,"wdir":290,"wspd":13,"visib":"6+","altim":1013,"clouds":[{"cover":"BKN","base":1300},{"cover":"FEW","base":3000},{"cover":"BKN","base":6000},{"cover":"OVC","base":8000}],"obsTime":1774033200},"SBGR":{"icaoId":"SBGR","flightCategory":"VFR","rawOb":"METAR SBGR 201900Z 14007KT 9999 SCT033 26/18 Q1012","temp":26,"dewp":18,"wdir":140,"wspd":7,"visib":"6+","altim":1012,"clouds":[{"cover":"SCT","base":3300}],"obsTime":1774033200},"SBHT":{"icaoId":"SBHT","flightCategory":"VFR","rawOb":"METAR SBHT 201900Z 01003KT 9999 FEW015 OVC090 26/23 Q1009","temp":26,"dewp":23,"wdir":10,"wspd":3,"visib":"6+","altim":1009,"clouds":[{"cover":"FEW","base":1500},{"cover":"OVC","base":9000}],"obsTime":1774033200},"SBIL":{"icaoId":"SBIL","flightCategory":"VFR","rawOb":"METAR SBIL 201900Z 08010KT CAVOK 31/24 Q1008","temp":31,"dewp":24,"wdir":80,"wspd":10,"visib":"6+","altim":1008,"clouds":[],"obsTime":1774033200},"SBJU":{"icaoId":"SBJU","flightCategory":"VFR","rawOb":"METAR SBJU 201900Z 03008KT 9999 SCT022 30/22 Q1009","temp":30,"dewp":22,"wdir":30,"wspd":8,"visib":"6+","altim":1009,"clouds":[{"cover":"SCT","base":2200}],"obsTime":1774033200},"SBKP":{"icaoId":"SBKP","flightCategory":"VFR","rawOb":"METAR SBKP 201900Z 14012KT 9999 SCT040 29/19 Q1010","temp":29,"dewp":19,"wdir":140,"wspd":12,"visib":"6+","altim":1010,"clouds":[{"cover":"SCT","base":4000}],"obsTime":1774033200},"SBLO":{"icaoId":"SBLO","flightCategory":"VFR","rawOb":"METAR SBLO 201900Z 11004KT 9999 FEW025 31/21 Q1008","temp":31,"dewp":21,"wdir":110,"wspd":4,"visib":"6+","altim":1008,"clouds":[{"cover":"FEW","base":2500}],"obsTime":1774033200},"SBMA":{"icaoId":"SBMA","flightCategory":"VFR","rawOb":"METAR SBMA 201900Z 11005KT 9999 SCT020 FEW023TCU BKN100 29/23 Q1007","temp":29,"dewp":23,"wdir":110,"wspd":5,"visib":"6+","altim":1007,"clouds":[{"cover":"SCT","base":2000},{"cover":"FEW","base":2300},{"cover":"BKN","base":10000}],"obsTime":1774033200},"SBME":{"icaoId":"SBME","flightCategory":"IFR","rawOb":"METAR SBME 201900Z 06007KT 4000 -RA BR BKN010 OVC070 25/23 Q1007","temp":25,"dewp":23,"wdir":60,"wspd":7,"visib":2.49,"altim":1007,"clouds":[{"cover":"BKN","base":1000},{"cover":"OVC","base":7000}],"obsTime":1774033200},"SBMG":{"icaoId":"SBMG","flightCategory":"VFR","rawOb":"METAR SBMG 201900Z VRB05KT 9999 VCSH FEW035 FEW040TCU 32/21 Q1007 RETS","temp":32,"dewp":21,"wdir":"VRB","wspd":5,"visib":"6+","altim":1007,"clouds":[{"cover":"FEW","base":3500},{"cover":"FEW","base":4000}],"obsTime":1774033200},"SBMK":{"icaoId":"SBMK","flightCategory":"VFR","rawOb":"METAR SBMK 201900Z 03002KT CAVOK 29/21 Q1011","temp":29,"dewp":21,"wdir":30,"wspd":2,"visib":"6+","altim":1011,"clouds":[],"obsTime":1774033200},"SBMO":{"icaoId":"SBMO","flightCategory":"VFR","rawOb":"METAR SBMO 201900Z 10015KT 9999 SCT030 30/23 Q1008","temp":30,"dewp":23,"wdir":100,"wspd":15,"visib":"6+","altim":1008,"clouds":[{"cover":"SCT","base":3000}],"obsTime":1774033200},"SBMQ":{"icaoId":"SBMQ","flightCategory":"IFR","rawOb":"METAR SBMQ 201900Z 23005KT 4000 -RA SCT005 BKN012 OVC035 24/24 Q1009","temp":24,"dewp":24,"wdir":230,"wspd":5,"visib":2.49,"altim":1009,"clouds":[{"cover":"SCT","base":500},{"cover":"BKN","base":1200},{"cover":"OVC","base":3500}],"obsTime":1774033200},"SBNT":{"icaoId":"SBNT","flightCategory":"VFR","rawOb":"METAR SBNT 201900Z 10012KT 9999 SCT026 30/24 Q1008","temp":30,"dewp":24,"wdir":100,"wspd":12,"visib":"6+","altim":1008,"clouds":[{"cover":"SCT","base":2600}],"obsTime":1774033200},"SBPA":{"icaoId":"SBPA","flightCategory":"VFR","rawOb":"METAR SBPA 201900Z 10016KT 9999 SCT040 29/21 Q1008","temp":29,"dewp":21,"wdir":100,"wspd":16,"visib":"6+","altim":1008,"clouds":[{"cover":"SCT","base":4000}],"obsTime":1774033200},"SBPJ":{"icaoId":"SBPJ","flightCategory":"VFR","rawOb":"METAR SBPJ 201900Z 35003KT 9999 FEW033TCU BKN050 32/24 Q1007","temp":32,"dewp":24,"wdir":350,"wspd":3,"visib":"6+","altim":1007,"clouds":[{"cover":"FEW","base":3300},{"cover":"BKN","base":5000}],"obsTime":1774033200},"SBRB":{"icaoId":"SBRB","flightCategory":"MVFR","rawOb":"METAR SBRB 201900Z 34006KT 9999 BKN030 FEW030TCU BKN100 31/24 Q1006","temp":31,"dewp":24,"wdir":340,"wspd":6,"visib":"6+","altim":1006,"clouds":[{"cover":"BKN","base":3000},{"cover":"FEW","base":3000},{"cover":"BKN","base":10000}],"obsTime":1774033200},"SBRF":{"icaoId":"SBRF","flightCategory":"VFR","rawOb":"METAR SBRF 201900Z 08008KT 9999 FEW025 30/24 Q1008","temp":30,"dewp":24,"wdir":80,"wspd":8,"visib":"6+","altim":1008,"clouds":[{"cover":"FEW","base":2500}],"obsTime":1774033200},"SBSG":{"icaoId":"SBSG","flightCategory":"MVFR","rawOb":"METAR SBSG 201900Z 11012KT 090V150 9999 BKN030 30/23 Q1008","temp":30,"dewp":23,"wdir":110,"wspd":12,"visib":"6+","altim":1008,"clouds":[{"cover":"BKN","base":3000}],"obsTime":1774033200},"SBSL":{"icaoId":"SBSL","flightCategory":"VFR","rawOb":"METAR SBSL 201900Z 03014KT 9999 SCT025 SCT100 29/24 Q1006","temp":29,"dewp":24,"wdir":30,"wspd":14,"visib":"6+","altim":1006,"clouds":[{"cover":"SCT","base":2500},{"cover":"SCT","base":10000}],"obsTime":1774033200},"SBSN":{"icaoId":"SBSN","flightCategory":"VFR","rawOb":"METAR SBSN 201900Z 13006KT 9999 SCT020 SCT090 BKN100 27/23 Q1009","temp":27,"dewp":23,"wdir":130,"wspd":6,"visib":"6+","altim":1009,"clouds":[{"cover":"SCT","base":2000},{"cover":"SCT","base":9000},{"cover":"BKN","base":10000}],"obsTime":1774033200},"SBSP":{"icaoId":"SBSP","flightCategory":"VFR","rawOb":"METAR SBSP 201900Z 15010KT 9999 SCT030 25/18 Q1013","temp":25,"dewp":18,"wdir":150,"wspd":10,"visib":"6+","altim":1013,"clouds":[{"cover":"SCT","base":3000}],"obsTime":1774033200},"SBSV":{"icaoId":"SBSV","flightCategory":"VFR","rawOb":"METAR SBSV 201900Z 08012KT 9999 FEW023 30/23 Q1008","temp":30,"dewp":23,"wdir":80,"wspd":12,"visib":"6+","altim":1008,"clouds":[{"cover":"FEW","base":2300}],"obsTime":1774033200},"SBTE":{"icaoId":"SBTE","flightCategory":"MVFR","rawOb":"METAR SBTE 201900Z 08006KT 9999 BKN025 33/23 Q1005","temp":33,"dewp":23,"wdir":80,"wspd":6,"visib":"6+","altim":1005,"clouds":[{"cover":"BKN","base":2500}],"obsTime":1774033200},"SBUL":{"icaoId":"SBUL","flightCategory":"MVFR","rawOb":"METAR SBUL 201900Z 05002KT 6000 -TSRA SCT025 FEW040CB 20/20 Q1013 RERA","temp":20,"dewp":20,"wdir":50,"wspd":2,"visib":3.73,"altim":1013,"clouds":[{"cover":"SCT","base":2500},{"cover":"FEW","base":4000}],"obsTime":1774033200},"SBUR":{"icaoId":"SBUR","flightCategory":"VFR","rawOb":"METAR SBUR 201900Z 27005KT 9999 SCT030 FEW045TCU BKN080 26/21 Q1011","temp":26,"dewp":21,"wdir":270,"wspd":5,"visib":"6+","altim":1011,"clouds":[{"cover":"SCT","base":3000},{"cover":"FEW","base":4500},{"cover":"BKN","base":8000}],"obsTime":1774033200},"SBVT":{"icaoId":"SBVT","flightCategory":"MVFR","rawOb":"METAR SBVT 201900Z 08002KT 9999 FEW010 BKN025 OVC090 25/24 Q1008 RETS","temp":25,"dewp":24,"wdir":80,"wspd":2,"visib":"6+","altim":1008,"clouds":[{"cover":"FEW","base":1000},{"cover":"BKN","base":2500},{"cover":"OVC","base":9000}],"obsTime":1774033200},"SBVH":{"icaoId":"SBVH","flightCategory":"VFR","rawOb":"METAR SBVH 201900Z 30009KT 9999 FEW013 SCT030 26/23 Q1008","temp":26,"dewp":23,"wdir":300,"wspd":9,"visib":"6+","altim":1008,"clouds":[{"cover":"FEW","base":1300},{"cover":"SCT","base":3000}],"obsTime":1774033200},"SBCJ":{"icaoId":"SBCJ","flightCategory":"VFR","rawOb":"METAR SBCJ 201900Z 33003KT 9999 SCT015 FEW020TCU 23/21 Q1012","temp":23,"dewp":21,"wdir":330,"wspd":3,"visib":"6+","altim":1012,"clouds":[{"cover":"SCT","base":1500},{"cover":"FEW","base":2000}],"obsTime":1774033200},"SBOI":{"icaoId":"SBOI","flightCategory":"IFR","rawOb":"METAR SBOI 201900Z AUTO 02004KT 350V070 3600 +RA FEW006 SCT014 OVC025 24/24 Q1010","temp":24,"dewp":24,"wdir":20,"wspd":4,"visib":2.24,"altim":1010,"clouds":[{"cover":"FEW","base":600},{"cover":"SCT","base":1400},{"cover":"OVC","base":2500}],"obsTime":1774033200},"SBBU":{"icaoId":"SBBU","flightCategory":"VFR","rawOb":"METAR SBBU 201900Z 13003KT 9999 SCT040 32/21 Q1009","temp":32,"dewp":21,"wdir":130,"wspd":3,"visib":"6+","altim":1009,"clouds":[{"cover":"SCT","base":4000}],"obsTime":1774033200},"SBPB":{"icaoId":"SBPB","flightCategory":"VFR","rawOb":"METAR SBPB 201900Z 06012KT 9999 FEW020 31/25 Q1006","temp":31,"dewp":25,"wdir":60,"wspd":12,"visib":"6+","altim":1006,"clouds":[{"cover":"FEW","base":2000}],"obsTime":1774033200},"SBPL":{"icaoId":"SBPL","flightCategory":"VFR","rawOb":"METAR SBPL 201900Z 06004KT 9999 SCT030 34/20 Q1008","temp":34,"dewp":20,"wdir":60,"wspd":4,"visib":"6+","altim":1008,"clouds":[{"cover":"SCT","base":3000}],"obsTime":1774033200},"SBCO":{"icaoId":"SBCO","flightCategory":"VFR","rawOb":"METAR SBCO 201900Z 11016KT 9999 SCT035 29/22 Q1008","temp":29,"dewp":22,"wdir":110,"wspd":16,"visib":"6+","altim":1008,"clouds":[{"cover":"SCT","base":3500}],"obsTime":1774033200},"SBBH":{"icaoId":"SBBH","flightCategory":"MVFR","rawOb":"METAR SBBH 201900Z 00000KT 6000 -RA BKN010 BKN020 BKN035 24/21 Q1011","temp":24,"dewp":21,"wdir":0,"wspd":0,"visib":3.73,"altim":1011,"clouds":[{"cover":"BKN","base":1000},{"cover":"BKN","base":2000},{"cover":"BKN","base":3500}],"obsTime":1774033200},"SBPP":{"icaoId":"SBPP","flightCategory":"MVFR","rawOb":"METAR SBPP 201900Z 17004KT 9999 BKN025 30/21 Q1008","temp":30,"dewp":21,"wdir":170,"wspd":4,"visib":"6+","altim":1008,"clouds":[{"cover":"BKN","base":2500}],"obsTime":1774033200},"SBPS":{"icaoId":"SBPS","flightCategory":"VFR","rawOb":"METAR SBPS 201900Z 04014KT 9999 SCT025 30/23 Q1008","temp":30,"dewp":23,"wdir":40,"wspd":14,"visib":"6+","altim":1008,"clouds":[{"cover":"SCT","base":2500}],"obsTime":1774033200},"SBDN":{"icaoId":"SBDN","flightCategory":"VFR","rawOb":"METAR SBDN 201900Z 17002KT 9999 BKN045 FEW060TCU 32/21 Q1007","temp":32,"dewp":21,"wdir":170,"wspd":2,"visib":"6+","altim":1007,"clouds":[{"cover":"BKN","base":4500},{"cover":"FEW","base":6000}],"obsTime":1774033200},"SBCA":{"icaoId":"SBCA","flightCategory":"VFR","rawOb":"METAR SBCA 201900Z 34010KT 9999 SCT025 FEW030TCU 29/21 Q1010","temp":29,"dewp":21,"wdir":340,"wspd":10,"visib":"6+","altim":1010,"clouds":[{"cover":"SCT","base":2500},{"cover":"FEW","base":3000}],"obsTime":1774033200},"SBSC":{"icaoId":"SBSC","flightCategory":"MVFR","rawOb":"METAR SBSC 201900Z 21007KT 9999 FEW010 BKN015 OVC030 25/23 Q1009","temp":25,"dewp":23,"wdir":210,"wspd":7,"visib":"6+","altim":1009,"clouds":[{"cover":"FEW","base":1000},{"cover":"BKN","base":1500},{"cover":"OVC","base":3000}],"obsTime":1774033200},"SBSJ":{"icaoId":"SBSJ","flightCategory":"VFR","rawOb":"METAR SBSJ 201900Z 15008KT 9999 SCT020 BKN040 27/// Q1011","temp":null,"dewp":null,"wdir":150,"wspd":8,"visib":"6+","altim":1011,"clouds":[{"cover":"SCT","base":2000},{"cover":"BKN","base":4000}],"obsTime":1774033200},"SBES":{"icaoId":"SBES","flightCategory":"MVFR","rawOb":"METAR SBES 201900Z 10006KT 070V130 5000 -TSRA SCT015 FEW025CB BKN040 24/// Q1008 RETS","temp":null,"dewp":null,"wdir":100,"wspd":6,"visib":3.11,"altim":1008,"clouds":[{"cover":"SCT","base":1500},{"cover":"FEW","base":2500},{"cover":"BKN","base":4000}],"obsTime":1774033200},"SBAX":{"icaoId":"SBAX","flightCategory":"VFR","rawOb":"METAR SBAX 201900Z 29007KT 9999 SCT035 BKN090 25/22 Q1012","temp":25,"dewp":22,"wdir":290,"wspd":7,"visib":"6+","altim":1012,"clouds":[{"cover":"SCT","base":3500},{"cover":"BKN","base":9000}],"obsTime":1774033200},"SBSM":{"icaoId":"SBSM","flightCategory":"VFR","rawOb":"METAR SBSM 201900Z 11007KT 9999 FEW030 30/23 Q1007","temp":30,"dewp":23,"wdir":110,"wspd":7,"visib":"6+","altim":1007,"clouds":[{"cover":"FEW","base":3000}],"obsTime":1774033200},"SBCC":{"icaoId":"SBCC","flightCategory":"MVFR","rawOb":"METAR SBCC 201900Z 32005KT 9999 VCSH BKN015 FEW025TCU BKN080 28/21 Q1008","temp":28,"dewp":21,"wdir":320,"wspd":5,"visib":"6+","altim":1008,"clouds":[{"cover":"BKN","base":1500},{"cover":"FEW","base":2500},{"cover":"BKN","base":8000}],"obsTime":1774033200},"SBSR":{"icaoId":"SBSR","flightCategory":"VFR","rawOb":"METAR SBSR 201900Z 17007KT 120V220 9999 FEW030 31/20 Q1008","temp":31,"dewp":20,"wdir":170,"wspd":7,"visib":"6+","altim":1008,"clouds":[{"cover":"FEW","base":3000}],"obsTime":1774033200},"SBIP":{"icaoId":"SBIP","flightCategory":"VFR","rawOb":"METAR SBIP 201900Z AUTO 03005KT 360V060 9999 FEW014 24/22 Q1009","temp":24,"dewp":22,"wdir":30,"wspd":5,"visib":"6+","altim":1009,"clouds":[{"cover":"FEW","base":1400}],"obsTime":1774033200},"SBTF":{"icaoId":"SBTF","flightCategory":"VFR","rawOb":"METAR SBTF 201900Z 06007KT 9999 FEW020 31/24 Q1007","temp":31,"dewp":24,"wdir":60,"wspd":7,"visib":"6+","altim":1007,"clouds":[{"cover":"FEW","base":2000}],"obsTime":1774033200},"SBTT":{"icaoId":"SBTT","flightCategory":"VFR","rawOb":"METAR SBTT 201900Z 34004KT 9999 SCT024 32/23 Q1006","temp":32,"dewp":23,"wdir":340,"wspd":4,"visib":"6+","altim":1006,"clouds":[{"cover":"SCT","base":2400}],"obsTime":1774033200},"SBAR":{"icaoId":"SBAR","flightCategory":"VFR","rawOb":"METAR SBAR 201900Z 09016KT 9999 FEW027 30/24 Q1008","temp":30,"dewp":24,"wdir":90,"wspd":16,"visib":"6+","altim":1008,"clouds":[{"cover":"FEW","base":2700}],"obsTime":1774033200},"SBUY":{"icaoId":"SBUY","flightCategory":"VFR","rawOb":"METAR SBUY 201900Z 12005KT 9999 SCT030 32/22 Q1005","temp":32,"dewp":22,"wdir":120,"wspd":5,"visib":"6+","altim":1005,"clouds":[{"cover":"SCT","base":3000}],"obsTime":1774033200},"SBKG":{"icaoId":"SBKG","flightCategory":"VFR","rawOb":"METAR SBKG 201900Z 10011KT 9999 FEW030 31/19 Q1010","temp":31,"dewp":19,"wdir":100,"wspd":11,"visib":"6+","altim":1010,"clouds":[{"cover":"FEW","base":3000}],"obsTime":1774033200},"SBBQ":{"icaoId":"SBBQ","flightCategory":"IFR","rawOb":"METAR SBBQ 201900Z VRB01KT 3000 -RA BKN007 OVC015 21/20 Q1014","temp":21,"dewp":20,"wdir":"VRB","wspd":1,"visib":1.86,"altim":1014,"clouds":[{"cover":"BKN","base":700},{"cover":"OVC","base":1500}],"obsTime":1774033200},"SBGM":{"icaoId":"SBGM","flightCategory":"VFR","rawOb":"METAR SBGM 201900Z 29004KT 9999 SCT033 33/23 Q1005","temp":33,"dewp":23,"wdir":290,"wspd":4,"visib":"6+","altim":1005,"clouds":[{"cover":"SCT","base":3300}],"obsTime":1774033200},"SBIH":{"icaoId":"SBIH","flightCategory":"MVFR","rawOb":"METAR SBIH 201900Z 29003KT 9999 VCSH BKN018 FEW025TCU 27/24 Q1008","temp":27,"dewp":24,"wdir":290,"wspd":3,"visib":"6+","altim":1008,"clouds":[{"cover":"BKN","base":1800},{"cover":"FEW","base":2500}],"obsTime":1774033200},"SBLE":{"icaoId":"SBLE","flightCategory":"VFR","rawOb":"METAR SBLE 201900Z AUTO 11005KT 050V170 CAVOK 30/20 Q1010","temp":30,"dewp":20,"wdir":110,"wspd":5,"visib":"6+","altim":1010,"clouds":[],"obsTime":1774033200},"SBAF":{"icaoId":"SBAF","flightCategory":"MVFR","rawOb":" SBAF 201900Z 18008KT 7000 BKN019 OVC054 26/25 Q1009","temp":26,"dewp":25,"wdir":180,"wspd":8,"visib":4.35,"altim":1009,"clouds":[{"cover":"BKN","base":1900},{"cover":"OVC","base":5400}],"obsTime":1774033200},"SBLS":{"icaoId":"SBLS","flightCategory":"MVFR","rawOb":"METAR SBLS 201900Z VRB05KT 9999 BKN010 BKN030 BKN066 24/21 Q1011","temp":24,"dewp":21,"wdir":"VRB","wspd":5,"visib":"6+","altim":1011,"clouds":[{"cover":"BKN","base":1000},{"cover":"BKN","base":3000},{"cover":"BKN","base":6600}],"obsTime":1774033200},"SBJP":{"icaoId":"SBJP","flightCategory":"VFR","rawOb":"METAR SBJP 201900Z 09010KT 9999 FEW030 30/23 Q1008","temp":30,"dewp":23,"wdir":90,"wspd":10,"visib":"6+","altim":1008,"clouds":[{"cover":"FEW","base":3000}],"obsTime":1774033200},"SBMT":{"icaoId":"SBMT","flightCategory":"VFR","rawOb":"METAR SBMT 201900Z 13008KT 090V180 9999 SCT040 26/17 Q1012","temp":26,"dewp":17,"wdir":130,"wspd":8,"visib":"6+","altim":1012,"clouds":[{"cover":"SCT","base":4000}],"obsTime":1774033200},"SBGW":{"icaoId":"SBGW","flightCategory":"MVFR","rawOb":"METAR SBGW 201900Z 24006KT 9999 BKN030 SCT070 28/17 Q1010","temp":28,"dewp":17,"wdir":240,"wspd":6,"visib":"6+","altim":1010,"clouds":[{"cover":"BKN","base":3000},{"cover":"SCT","base":7000}],"obsTime":1774033200},"SBNM":{"icaoId":"SBNM","flightCategory":"VFR","rawOb":"METAR SBNM 201900Z 14002KT 9999 FEW015 35/18 Q1006","temp":35,"dewp":18,"wdir":140,"wspd":2,"visib":"6+","altim":1006,"clouds":[{"cover":"FEW","base":1500}],"obsTime":1774033200},"SBJR":{"icaoId":"SBJR","flightCategory":"MVFR","rawOb":"METAR SBJR 201900Z 22011KT 9000 FEW015 BKN020 BKN050 27/23 Q1008","temp":27,"dewp":23,"wdir":220,"wspd":11,"visib":5.59,"altim":1008,"clouds":[{"cover":"FEW","base":1500},{"cover":"BKN","base":2000},{"cover":"BKN","base":5000}],"obsTime":1774033200},"SBPF":{"icaoId":"SBPF","flightCategory":"VFR","rawOb":"METAR SBPF 201900Z 12006KT CAVOK 31/15 Q1010","temp":31,"dewp":15,"wdir":120,"wspd":6,"visib":"6+","altim":1010,"clouds":[],"obsTime":1774033200},"SBAN":{"icaoId":"SBAN","flightCategory":"LIFR","rawOb":"METAR SBAN 201900Z 35005KT 0800 R06L/2000N R24R/2000N -RA OVC005 19/18 Q1016 RERA","temp":19,"dewp":18,"wdir":350,"wspd":5,"visib":0.5,"altim":1016,"clouds":[{"cover":"OVC","base":500}],"obsTime":1774033200},"SBST":{"icaoId":"SBST","flightCategory":"VFR","rawOb":"METAR SBST 201900Z 18006KT 9999 SCT035 27/20 Q1009","temp":27,"dewp":20,"wdir":180,"wspd":6,"visib":"6+","altim":1009,"clouds":[{"cover":"SCT","base":3500}],"obsTime":1774033200},"SBJV":{"icaoId":"SBJV","flightCategory":"VFR","rawOb":"METAR SBJV 201900Z 09011KT 9999 SCT030 29/24 Q1008","temp":29,"dewp":24,"wdir":90,"wspd":11,"visib":"6+","altim":1008,"clouds":[{"cover":"SCT","base":3000}],"obsTime":1774033200},"SBTA":{"icaoId":"SBTA","flightCategory":"VFR","rawOb":"METAR SBTA 201900Z 19006KT 160V220 9999 SCT035 SCT070 26/20 Q1010","temp":26,"dewp":20,"wdir":190,"wspd":6,"visib":"6+","altim":1010,"clouds":[{"cover":"SCT","base":3500},{"cover":"SCT","base":7000}],"obsTime":1774033200}}}