{"updated":1782454188,"count":50,"data":{"SBRB":{"icaoId":"SBRB","flightCategory":"MVFR","rawOb":"METAR SBRB 260500Z 15002KT 8000 BKN015 19/18 Q1018","temp":19,"dewp":18,"wdir":150,"wspd":2,"visib":4.97,"altim":1018,"clouds":[{"cover":"BKN","base":1500}],"obsTime":1782450000},"SBSG":{"icaoId":"SBSG","flightCategory":"VFR","rawOb":"METAR SBSG 260500Z 19004KT 170V230 9999 FEW022 23/22 Q1015","temp":23,"dewp":22,"wdir":190,"wspd":4,"visib":"6+","altim":1015,"clouds":[{"cover":"FEW","base":2200}],"obsTime":1782450000},"SBCT":{"icaoId":"SBCT","flightCategory":"LIFR","rawOb":"METAR SBCT 260500Z 03005KT 6000 OVC003 09/09 Q1026","temp":9,"dewp":9,"wdir":30,"wspd":5,"visib":3.73,"altim":1026,"clouds":[{"cover":"OVC","base":300}],"obsTime":1782450000},"SBPJ":{"icaoId":"SBPJ","flightCategory":"VFR","rawOb":"METAR SBPJ 260500Z VRB02KT CAVOK 21/17 Q1015","temp":21,"dewp":17,"wdir":"VRB","wspd":2,"visib":"6+","altim":1015,"clouds":[],"obsTime":1782450000},"SBEG":{"icaoId":"SBEG","flightCategory":"VFR","rawOb":"METAR SBEG 260500Z VRB02KT CAVOK 25/24 Q1014","temp":25,"dewp":24,"wdir":"VRB","wspd":2,"visib":"6+","altim":1014,"clouds":[],"obsTime":1782450000},"SBNT":{"icaoId":"SBNT","flightCategory":"VFR","rawOb":"METAR SBNT 260500Z 19004KT 9999 FEW040 BKN060 23/22 Q1015","temp":23,"dewp":22,"wdir":190,"wspd":4,"visib":"6+","altim":1015,"clouds":[{"cover":"FEW","base":4000},{"cover":"BKN","base":6000}],"obsTime":1782450000},"SBLO":{"icaoId":"SBLO","flightCategory":"MVFR","rawOb":"METAR SBLO 260500Z 17003KT 9999 FEW013 OVC015 12/10 Q1024","temp":12,"dewp":10,"wdir":170,"wspd":3,"visib":"6+","altim":1024,"clouds":[{"cover":"FEW","base":1300},{"cover":"OVC","base":1500}],"obsTime":1782450000},"SBBV":{"icaoId":"SBBV","flightCategory":"VFR","rawOb":"METAR SBBV 260500Z 05004KT 9999 SCT030 FEW035TCU BKN080 25/23 Q1014","temp":25,"dewp":23,"wdir":50,"wspd":4,"visib":"6+","altim":1014,"clouds":[{"cover":"SCT","base":3000},{"cover":"FEW","base":3500},{"cover":"BKN","base":8000}],"obsTime":1782450000},"SBFZ":{"icaoId":"SBFZ","flightCategory":"VFR","rawOb":"METAR SBFZ 260500Z 10008KT 9999 SCT018 27/24 Q1014","temp":27,"dewp":24,"wdir":100,"wspd":8,"visib":"6+","altim":1014,"clouds":[{"cover":"SCT","base":1800}],"obsTime":1782450000},"SBPV":{"icaoId":"SBPV","flightCategory":"VFR","rawOb":"METAR SBPV 260500Z 00000KT 9999 SCT033 21/20 Q1015","temp":21,"dewp":20,"wdir":0,"wspd":0,"visib":"6+","altim":1015,"clouds":[{"cover":"SCT","base":3300}],"obsTime":1782450000},"SBGL":{"icaoId":"SBGL","flightCategory":"IFR","rawOb":"METAR SBGL 260500Z 30005KT 3000 -RA BR OVC005 19/18 Q1025","temp":19,"dewp":18,"wdir":300,"wspd":5,"visib":1.86,"altim":1025,"clouds":[{"cover":"OVC","base":500}],"obsTime":1782450000},"SBKP":{"icaoId":"SBKP","flightCategory":"VFR","rawOb":"METAR SBKP 260500Z 12006KT CAVOK 13/12 Q1024","temp":13,"dewp":12,"wdir":120,"wspd":6,"visib":"6+","altim":1024,"clouds":[],"obsTime":1782450000},"SBTE":{"icaoId":"SBTE","flightCategory":"VFR","rawOb":"METAR SBTE 260500Z 36003KT CAVOK 26/21 Q1013","temp":26,"dewp":21,"wdir":360,"wspd":3,"visib":"6+","altim":1013,"clouds":[],"obsTime":1782450000},"SBVT":{"icaoId":"SBVT","flightCategory":"MVFR","rawOb":"METAR SBVT 260500Z 32002KT 9999 BKN025 20/19 Q1023","temp":20,"dewp":19,"wdir":320,"wspd":2,"visib":"6+","altim":1023,"clouds":[{"cover":"BKN","base":2500}],"obsTime":1782450000},"SBPA":{"icaoId":"SBPA","flightCategory":"IFR","rawOb":"METAR SBPA 260500Z 25003KT 4000 BR NSC 07/06 Q1024","temp":7,"dewp":6,"wdir":250,"wspd":3,"visib":2.49,"altim":1024,"clouds":[],"obsTime":1782450000},"SBSP":{"icaoId":"SBSP","flightCategory":"LIFR","rawOb":"METAR SBSP 260500Z AUTO 00000KT 3700 BR OVC002 12/12 Q1025","temp":12,"dewp":12,"wdir":0,"wspd":0,"visib":2.3,"altim":1025,"clouds":[{"cover":"OVC","base":200}],"obsTime":1782450000},"SBCF":{"icaoId":"SBCF","flightCategory":"VFR","rawOb":"METAR SBCF 260500Z 13010KT CAVOK 17/15 Q1025","temp":17,"dewp":15,"wdir":130,"wspd":10,"visib":"6+","altim":1025,"clouds":[],"obsTime":1782450000},"SBBR":{"icaoId":"SBBR","flightCategory":"VFR","rawOb":"METAR SBBR 260500Z 09002KT CAVOK 18/14 Q1024","temp":18,"dewp":14,"wdir":90,"wspd":2,"visib":"6+","altim":1024,"clouds":[],"obsTime":1782450000},"SBMQ":{"icaoId":"SBMQ","flightCategory":"VFR","rawOb":"METAR SBMQ 260500Z 11002KT 9999 FEW035 BKN072 26/23 Q1014","temp":26,"dewp":23,"wdir":110,"wspd":2,"visib":"6+","altim":1014,"clouds":[{"cover":"FEW","base":3500},{"cover":"BKN","base":7200}],"obsTime":1782450000},"SBSL":{"icaoId":"SBSL","flightCategory":"VFR","rawOb":"METAR SBSL 260500Z 10007KT 9999 FEW017 BKN080 26/24 Q1013","temp":26,"dewp":24,"wdir":100,"wspd":7,"visib":"6+","altim":1013,"clouds":[{"cover":"FEW","base":1700},{"cover":"BKN","base":8000}],"obsTime":1782450000},"SBBE":{"icaoId":"SBBE","flightCategory":"VFR","rawOb":"METAR SBBE 260500Z 07004KT CAVOK 25/24 Q1014","temp":25,"dewp":24,"wdir":70,"wspd":4,"visib":"6+","altim":1014,"clouds":[],"obsTime":1782450000},"SBCG":{"icaoId":"SBCG","flightCategory":"IFR","rawOb":"METAR SBCG 260500Z 08004KT 050V120 9999 BKN005 13/12 Q1021","temp":13,"dewp":12,"wdir":80,"wspd":4,"visib":"6+","altim":1021,"clouds":[{"cover":"BKN","base":500}],"obsTime":1782450000},"SBFL":{"icaoId":"SBFL","flightCategory":"VFR","rawOb":"METAR SBFL 260500Z 35005KT CAVOK 10/08 Q1026","temp":10,"dewp":8,"wdir":350,"wspd":5,"visib":"6+","altim":1026,"clouds":[],"obsTime":1782450000},"SBSV":{"icaoId":"SBSV","flightCategory":"VFR","rawOb":"METAR SBSV 260500Z 10011KT 9999 FEW020 BKN050 25/22 Q1018","temp":25,"dewp":22,"wdir":100,"wspd":11,"visib":"6+","altim":1018,"clouds":[{"cover":"FEW","base":2000},{"cover":"BKN","base":5000}],"obsTime":1782450000},"SBSN":{"icaoId":"SBSN","flightCategory":"VFR","rawOb":"METAR SBSN 260500Z 19002KT 9999 FEW017 SCT080 23/22 Q1013","temp":23,"dewp":22,"wdir":190,"wspd":2,"visib":"6+","altim":1013,"clouds":[{"cover":"FEW","base":1700},{"cover":"SCT","base":8000}],"obsTime":1782450000},"SBMO":{"icaoId":"SBMO","flightCategory":"IFR","rawOb":"METAR SBMO 260500Z 06003KT 3000 -DZ BKN009 23/23 Q1016","temp":23,"dewp":23,"wdir":60,"wspd":3,"visib":1.86,"altim":1016,"clouds":[{"cover":"BKN","base":900}],"obsTime":1782450000},"SBFI":{"icaoId":"SBFI","flightCategory":"VFR","rawOb":"METAR SBFI 260500Z 10002KT CAVOK 02/02 Q1023","temp":2,"dewp":2,"wdir":100,"wspd":2,"visib":"6+","altim":1023,"clouds":[],"obsTime":1782450000},"SBMA":{"icaoId":"SBMA","flightCategory":"VFR","rawOb":"METAR SBMA 260500Z 33003KT CAVOK 26/23 Q1014","temp":26,"dewp":23,"wdir":330,"wspd":3,"visib":"6+","altim":1014,"clouds":[],"obsTime":1782450000},"SBGO":{"icaoId":"SBGO","flightCategory":"VFR","rawOb":"METAR SBGO 260500Z 13005KT CAVOK 19/16 Q1022","temp":19,"dewp":16,"wdir":130,"wspd":5,"visib":"6+","altim":1022,"clouds":[],"obsTime":1782450000},"SBGR":{"icaoId":"SBGR","flightCategory":"LIFR","rawOb":"METAR SBGR 260500Z 17001KT 0800 R10R/P2000 R10L/P2000 R28R/P2000 R28L/P2000 -DZ FG OVC002 12/12 Q1025","temp":12,"dewp":12,"wdir":170,"wspd":1,"visib":0.5,"altim":1025,"clouds":[{"cover":"OVC","base":200}],"obsTime":1782450000},"SBRF":{"icaoId":"SBRF","flightCategory":"IFR","rawOb":"METAR SBRF 260500Z 13006KT 3000 -RA BR BKN007 BKN013 OVC040 24/23 Q1015","temp":24,"dewp":23,"wdir":130,"wspd":6,"visib":1.86,"altim":1015,"clouds":[{"cover":"BKN","base":700},{"cover":"BKN","base":1300},{"cover":"OVC","base":4000}],"obsTime":1782450000},"SBJU":{"icaoId":"SBJU","flightCategory":"VFR","rawOb":"METAR SBJU 260500Z 21003KT 9999 SCT020 23/19 Q1017","temp":23,"dewp":19,"wdir":210,"wspd":3,"visib":"6+","altim":1017,"clouds":[{"cover":"SCT","base":2000}],"obsTime":1782450000},"SBMG":{"icaoId":"SBMG","flightCategory":"VFR","rawOb":"METAR SBMG 260500Z AUTO 11007KT CAVOK 10/08 Q1022","temp":10,"dewp":8,"wdir":110,"wspd":7,"visib":"6+","altim":1022,"clouds":[],"obsTime":1782450000},"SBME":{"icaoId":"SBME","flightCategory":"LIFR","rawOb":"METAR SBME 260500Z 29003KT 3000 RA BR BKN003 OVC007 20/19 Q1024","temp":20,"dewp":19,"wdir":290,"wspd":3,"visib":1.86,"altim":1024,"clouds":[{"cover":"BKN","base":300},{"cover":"OVC","base":700}],"obsTime":1782450000},"SBUL":{"icaoId":"SBUL","flightCategory":"VFR","rawOb":"METAR SBUL 260500Z 15009KT CAVOK 17/15 Q1024","temp":17,"dewp":15,"wdir":150,"wspd":9,"visib":"6+","altim":1024,"clouds":[],"obsTime":1782450000},"SBUR":{"icaoId":"SBUR","flightCategory":"VFR","rawOb":"METAR SBUR 260500Z 08003KT CAVOK 17/14 Q1023","temp":17,"dewp":14,"wdir":80,"wspd":3,"visib":"6+","altim":1023,"clouds":[],"obsTime":1782450000},"SBPS":{"icaoId":"SBPS","flightCategory":"VFR","rawOb":"METAR SBPS 260500Z 23002KT 9999 SCT020 21/21 Q1021","temp":21,"dewp":21,"wdir":230,"wspd":2,"visib":"6+","altim":1021,"clouds":[{"cover":"SCT","base":2000}],"obsTime":1782450000},"SBAR":{"icaoId":"SBAR","flightCategory":"VFR","rawOb":"METAR SBAR 260500Z 26002KT 9999 SCT020 OVC060 24/23 Q1016","temp":24,"dewp":23,"wdir":260,"wspd":2,"visib":"6+","altim":1016,"clouds":[{"cover":"SCT","base":2000},{"cover":"OVC","base":6000}],"obsTime":1782450000},"SBPL":{"icaoId":"SBPL","flightCategory":"VFR","rawOb":"METAR SBPL 260500Z 13006KT CAVOK 24/18 Q1018","temp":24,"dewp":18,"wdir":130,"wspd":6,"visib":"6+","altim":1018,"clouds":[],"obsTime":1782450000},"SBOI":{"icaoId":"SBOI","flightCategory":"IFR","rawOb":"SPECI SBOI 260410Z AUTO 18002KT 2800 BR VV002 24/23 Q1014","temp":24,"dewp":23,"wdir":180,"wspd":2,"visib":1.74,"altim":1014,"clouds":[{"cover":"OVX","base":200}],"obsTime":1782447000},"SBDN":{"icaoId":"SBDN","flightCategory":"VFR","rawOb":"METAR SBDN 260500Z 12007KT CAVOK 13/11 Q1022","temp":13,"dewp":11,"wdir":120,"wspd":7,"visib":"6+","altim":1022,"clouds":[],"obsTime":1782450000},"SBIP":{"icaoId":"SBIP","flightCategory":"VFR","rawOb":"METAR SBIP 260500Z AUTO 00000KT 9999 SCT031 BKN043 18/18 Q1024","temp":18,"dewp":18,"wdir":0,"wspd":0,"visib":"6+","altim":1024,"clouds":[{"cover":"SCT","base":3100},{"cover":"BKN","base":4300}],"obsTime":1782450000},"SBSC":{"icaoId":"SBSC","flightCategory":"IFR","rawOb":"METAR SBSC 260500Z 01006KT 3000 -RA BR SCT003 BKN008 OVC020 17/16 Q1025","temp":17,"dewp":16,"wdir":10,"wspd":6,"visib":1.86,"altim":1025,"clouds":[{"cover":"SCT","base":300},{"cover":"BKN","base":800},{"cover":"OVC","base":2000}],"obsTime":1782450000},"SBSR":{"icaoId":"SBSR","flightCategory":"LIFR","rawOb":"METAR SBSR 260500Z 15003KT 2000 BR OVC004 15/15 Q1023","temp":15,"dewp":15,"wdir":150,"wspd":3,"visib":1.24,"altim":1023,"clouds":[{"cover":"OVC","base":400}],"obsTime":1782450000},"SBAX":{"icaoId":"SBAX","flightCategory":"VFR","rawOb":"METAR SBAX 260500Z AUTO 12006KT CAVOK ///// Q1024","temp":null,"dewp":null,"wdir":120,"wspd":6,"visib":"6+","altim":1024,"clouds":[],"obsTime":1782450000},"SBKG":{"icaoId":"SBKG","flightCategory":"MVFR","rawOb":"METAR SBKG 260500Z 30002KT 8000 SCT007 20/19 Q1017","temp":20,"dewp":19,"wdir":300,"wspd":2,"visib":4.97,"altim":1017,"clouds":[{"cover":"SCT","base":700}],"obsTime":1782450000},"SBJP":{"icaoId":"SBJP","flightCategory":"MVFR","rawOb":"METAR SBJP 260500Z 17005KT 9999 -RA BKN010 BKN070 23/23 Q1015","temp":23,"dewp":23,"wdir":170,"wspd":5,"visib":"6+","altim":1015,"clouds":[{"cover":"BKN","base":1000},{"cover":"BKN","base":7000}],"obsTime":1782450000},"SBAN":{"icaoId":"SBAN","flightCategory":"VFR","rawOb":"METAR SBAN 260500Z 12005KT 9999 FEW045 17/15 Q1024","temp":17,"dewp":15,"wdir":120,"wspd":5,"visib":"6+","altim":1024,"clouds":[{"cover":"FEW","base":4500}],"obsTime":1782450000},"SBNM":{"icaoId":"SBNM","flightCategory":"VFR","rawOb":"METAR SBNM 260500Z AUTO 08007KT CAVOK 05/03 Q1024","temp":5,"dewp":3,"wdir":80,"wspd":7,"visib":"6+","altim":1024,"clouds":[],"obsTime":1782450000},"SBLE":{"icaoId":"SBLE","flightCategory":"MVFR","rawOb":"METAR SBLE 260500Z AUTO 35002KT 9999 BKN029 OVC034 ///// Q////","temp":null,"dewp":null,"wdir":350,"wspd":2,"visib":"6+","altim":null,"clouds":[{"cover":"BKN","base":2900},{"cover":"OVC","base":3400}],"obsTime":1782450000}}}