{"updated":1784836314,"count":86,"data":{"SBSL":{"icaoId":"SBSL","flightCategory":"VFR","rawOb":"METAR SBSL 231800Z 07010KT 9999 SCT035 30/23 Q1010","temp":30,"dewp":23,"wdir":70,"wspd":10,"visib":"6+","altim":1010,"clouds":[{"cover":"SCT","base":3500}],"obsTime":1784829600},"SBSG":{"icaoId":"SBSG","flightCategory":"MVFR","rawOb":"METAR SBSG 231800Z 13006KT 100V170 9999 VCSH BKN014 FEW020TCU BKN040 27/24 Q1013","temp":27,"dewp":24,"wdir":130,"wspd":6,"visib":"6+","altim":1013,"clouds":[{"cover":"BKN","base":1400},{"cover":"FEW","base":2000},{"cover":"BKN","base":4000}],"obsTime":1784829600},"SBFZ":{"icaoId":"SBFZ","flightCategory":"VFR","rawOb":"METAR SBFZ 231800Z 10016KT 9999 SCT023 29/23 Q1012","temp":29,"dewp":23,"wdir":100,"wspd":16,"visib":"6+","altim":1012,"clouds":[{"cover":"SCT","base":2300}],"obsTime":1784829600},"SBBV":{"icaoId":"SBBV","flightCategory":"VFR","rawOb":"METAR SBBV 231800Z 11008KT 9999 BKN040 34/20 Q1010","temp":34,"dewp":20,"wdir":110,"wspd":8,"visib":"6+","altim":1010,"clouds":[{"cover":"BKN","base":4000}],"obsTime":1784829600},"SBRB":{"icaoId":"SBRB","flightCategory":"MVFR","rawOb":"METAR SBRB 231800Z 06005KT 9999 BKN030 32/22 Q1012","temp":32,"dewp":22,"wdir":60,"wspd":5,"visib":"6+","altim":1012,"clouds":[{"cover":"BKN","base":3000}],"obsTime":1784829600},"SBCB":{"icaoId":"SBCB","flightCategory":"VFR","rawOb":"METAR SBCB 231800Z 21008KT 9999 FEW020 BKN070 24/18 Q1014","temp":24,"dewp":18,"wdir":210,"wspd":8,"visib":"6+","altim":1014,"clouds":[{"cover":"FEW","base":2000},{"cover":"BKN","base":7000}],"obsTime":1784829600},"SBBE":{"icaoId":"SBBE","flightCategory":"VFR","rawOb":"METAR SBBE 231800Z 09005KT 9999 SCT040 33/24 Q1010","temp":33,"dewp":24,"wdir":90,"wspd":5,"visib":"6+","altim":1010,"clouds":[{"cover":"SCT","base":4000}],"obsTime":1784829600},"SBMA":{"icaoId":"SBMA","flightCategory":"VFR","rawOb":"METAR SBMA 231800Z 06007KT 9999 SCT025 36/19 Q1009","temp":36,"dewp":19,"wdir":60,"wspd":7,"visib":"6+","altim":1009,"clouds":[{"cover":"SCT","base":2500}],"obsTime":1784829600},"SBPA":{"icaoId":"SBPA","flightCategory":"MVFR","rawOb":"METAR SBPA 231800Z 14007KT 9999 -RA BKN014 BKN035 18/14 Q1019","temp":18,"dewp":14,"wdir":140,"wspd":7,"visib":"6+","altim":1019,"clouds":[{"cover":"BKN","base":1400},{"cover":"BKN","base":3500}],"obsTime":1784829600},"SBPV":{"icaoId":"SBPV","flightCategory":"VFR","rawOb":"METAR SBPV 231800Z 03005KT CAVOK 34/18 Q1010","temp":34,"dewp":18,"wdir":30,"wspd":5,"visib":"6+","altim":1010,"clouds":[],"obsTime":1784829600},"SBSN":{"icaoId":"SBSN","flightCategory":"VFR","rawOb":"METAR SBSN 231800Z 08010KT 9999 SCT020 32/24 Q1010","temp":32,"dewp":24,"wdir":80,"wspd":10,"visib":"6+","altim":1010,"clouds":[{"cover":"SCT","base":2000}],"obsTime":1784829600},"SBGR":{"icaoId":"SBGR","flightCategory":"VFR","rawOb":"METAR SBGR 231800Z 18009KT 140V220 9999 BKN036 21/15 Q1018","temp":21,"dewp":15,"wdir":180,"wspd":9,"visib":"6+","altim":1018,"clouds":[{"cover":"BKN","base":3600}],"obsTime":1784829600},"SBCP":{"icaoId":"SBCP","flightCategory":"VFR","rawOb":"METAR SBCP 231800Z 21010KT CAVOK 31/20 Q1012","temp":31,"dewp":20,"wdir":210,"wspd":10,"visib":"6+","altim":1012,"clouds":[],"obsTime":1784829600},"SBCZ":{"icaoId":"SBCZ","flightCategory":"VFR","rawOb":"METAR SBCZ 231800Z 21004KT 9999 SCT025 30/25 Q1011","temp":30,"dewp":25,"wdir":210,"wspd":4,"visib":"6+","altim":1011,"clouds":[{"cover":"SCT","base":2500}],"obsTime":1784829600},"SBLO":{"icaoId":"SBLO","flightCategory":"VFR","rawOb":"METAR SBLO 231800Z 09004KT 030V170 9999 SCT040 22/15 Q1016","temp":22,"dewp":15,"wdir":90,"wspd":4,"visib":"6+","altim":1016,"clouds":[{"cover":"SCT","base":4000}],"obsTime":1784829600},"SBAT":{"icaoId":"SBAT","flightCategory":"VFR","rawOb":"METAR SBAT 231800Z 14006KT 9999 SCT040 36/16 Q1011","temp":36,"dewp":16,"wdir":140,"wspd":6,"visib":"6+","altim":1011,"clouds":[{"cover":"SCT","base":4000}],"obsTime":1784829600},"SBCT":{"icaoId":"SBCT","flightCategory":"IFR","rawOb":"METAR SBCT 231800Z 08010KT 9999 BKN009 BKN023 17/15 Q1019","temp":17,"dewp":15,"wdir":80,"wspd":10,"visib":"6+","altim":1019,"clouds":[{"cover":"BKN","base":900},{"cover":"BKN","base":2300}],"obsTime":1784829600},"SBNT":{"icaoId":"SBNT","flightCategory":"MVFR","rawOb":"METAR SBNT 231800Z 15009KT 9999 SCT013 BKN018 OVC100 27/24 Q1013","temp":27,"dewp":24,"wdir":150,"wspd":9,"visib":"6+","altim":1013,"clouds":[{"cover":"SCT","base":1300},{"cover":"BKN","base":1800},{"cover":"OVC","base":10000}],"obsTime":1784829600},"SBHT":{"icaoId":"SBHT","flightCategory":"MVFR","rawOb":"METAR SBHT 231800Z 11006KT 9999 BKN030 33/24 Q1010","temp":33,"dewp":24,"wdir":110,"wspd":6,"visib":"6+","altim":1010,"clouds":[{"cover":"BKN","base":3000}],"obsTime":1784829600},"SBCF":{"icaoId":"SBCF","flightCategory":"VFR","rawOb":"METAR SBCF 231800Z 25003KT CAVOK 29/09 Q1017","temp":29,"dewp":9,"wdir":250,"wspd":3,"visib":"6+","altim":1017,"clouds":[],"obsTime":1784829600},"SBPJ":{"icaoId":"SBPJ","flightCategory":"VFR","rawOb":"METAR SBPJ 231800Z 20004KT 9999 SCT045 35/16 Q1011","temp":35,"dewp":16,"wdir":200,"wspd":4,"visib":"6+","altim":1011,"clouds":[{"cover":"SCT","base":4500}],"obsTime":1784829600},"SBIL":{"icaoId":"SBIL","flightCategory":"VFR","rawOb":"METAR SBIL 231800Z 10008KT 9999 FEW020 27/22 Q1016","temp":27,"dewp":22,"wdir":100,"wspd":8,"visib":"6+","altim":1016,"clouds":[{"cover":"FEW","base":2000}],"obsTime":1784829600},"SBFL":{"icaoId":"SBFL","flightCategory":"VFR","rawOb":"METAR SBFL 231800Z 18013KT 9999 FEW040 22/13 Q1017","temp":22,"dewp":13,"wdir":180,"wspd":13,"visib":"6+","altim":1017,"clouds":[{"cover":"FEW","base":4000}],"obsTime":1784829600},"SBTE":{"icaoId":"SBTE","flightCategory":"VFR","rawOb":"METAR SBTE 231800Z 15006KT 9999 SCT040 34/19 Q1010","temp":34,"dewp":19,"wdir":150,"wspd":6,"visib":"6+","altim":1010,"clouds":[{"cover":"SCT","base":4000}],"obsTime":1784829600},"SBKP":{"icaoId":"SBKP","flightCategory":"VFR","rawOb":"METAR SBKP 231800Z 27005KT 9999 FEW040 OVC050 23/16 Q1017","temp":23,"dewp":16,"wdir":270,"wspd":5,"visib":"6+","altim":1017,"clouds":[{"cover":"FEW","base":4000},{"cover":"OVC","base":5000}],"obsTime":1784829600},"SBVT":{"icaoId":"SBVT","flightCategory":"VFR","rawOb":"METAR SBVT 231800Z 05013KT 9999 FEW030 29/21 Q1012","temp":29,"dewp":21,"wdir":50,"wspd":13,"visib":"6+","altim":1012,"clouds":[{"cover":"FEW","base":3000}],"obsTime":1784829600},"SBMQ":{"icaoId":"SBMQ","flightCategory":"MVFR","rawOb":"METAR SBMQ 231800Z 05011KT 020V080 9999 BKN030 33/25 Q1010","temp":33,"dewp":25,"wdir":50,"wspd":11,"visib":"6+","altim":1010,"clouds":[{"cover":"BKN","base":3000}],"obsTime":1784829600},"SBRF":{"icaoId":"SBRF","flightCategory":"MVFR","rawOb":"METAR SBRF 231800Z 11008KT 6000 -RA SCT015 SCT025 BKN070 27/24 Q1013","temp":27,"dewp":24,"wdir":110,"wspd":8,"visib":3.73,"altim":1013,"clouds":[{"cover":"SCT","base":1500},{"cover":"SCT","base":2500},{"cover":"BKN","base":7000}],"obsTime":1784829600},"SBFI":{"icaoId":"SBFI","flightCategory":"MVFR","rawOb":"METAR SBFI 231800Z 20002KT 9999 BKN030 22/16 Q1015","temp":22,"dewp":16,"wdir":200,"wspd":2,"visib":"6+","altim":1015,"clouds":[{"cover":"BKN","base":3000}],"obsTime":1784829600},"SBCR":{"icaoId":"SBCR","flightCategory":"VFR","rawOb":"METAR SBCR 231800Z 24007KT 190V310 9999 SCT026 23/16 Q1014","temp":23,"dewp":16,"wdir":240,"wspd":7,"visib":"6+","altim":1014,"clouds":[{"cover":"SCT","base":2600}],"obsTime":1784829600},"SBGL":{"icaoId":"SBGL","flightCategory":"VFR","rawOb":"METAR SBGL 231800Z 10008KT 9999 SCT030 BKN100 26/16 Q1013","temp":26,"dewp":16,"wdir":100,"wspd":8,"visib":"6+","altim":1013,"clouds":[{"cover":"SCT","base":3000},{"cover":"BKN","base":10000}],"obsTime":1784829600},"SBJU":{"icaoId":"SBJU","flightCategory":"VFR","rawOb":"METAR SBJU 231800Z 19003KT 9999 SCT020 BKN070 33/16 Q1013","temp":33,"dewp":16,"wdir":190,"wspd":3,"visib":"6+","altim":1013,"clouds":[{"cover":"SCT","base":2000},{"cover":"BKN","base":7000}],"obsTime":1784829600},"SBSV":{"icaoId":"SBSV","flightCategory":"VFR","rawOb":"METAR SBSV 231800Z 10012KT 9999 SCT020 27/22 Q1015","temp":27,"dewp":22,"wdir":100,"wspd":12,"visib":"6+","altim":1015,"clouds":[{"cover":"SCT","base":2000}],"obsTime":1784829600},"SBMO":{"icaoId":"SBMO","flightCategory":"MVFR","rawOb":"METAR SBMO 231800Z 12012KT 9999 BKN017 26/22 Q1015","temp":26,"dewp":22,"wdir":120,"wspd":12,"visib":"6+","altim":1015,"clouds":[{"cover":"BKN","base":1700}],"obsTime":1784829600},"SBMG":{"icaoId":"SBMG","flightCategory":"VFR","rawOb":"METAR SBMG 231800Z 17008KT 9999 TS SCT035 FEW040CB BKN100 21/16 Q1015","temp":21,"dewp":16,"wdir":170,"wspd":8,"visib":"6+","altim":1015,"clouds":[{"cover":"SCT","base":3500},{"cover":"FEW","base":4000},{"cover":"BKN","base":10000}],"obsTime":1784829600},"SBME":{"icaoId":"SBME","flightCategory":"VFR","rawOb":"METAR SBME 231800Z 12007KT CAVOK 23/20 Q1013","temp":23,"dewp":20,"wdir":120,"wspd":7,"visib":"6+","altim":1013,"clouds":[],"obsTime":1784829600},"SBMK":{"icaoId":"SBMK","flightCategory":"VFR","rawOb":"METAR SBMK 231800Z 19009KT 9999 FEW034 30/08 Q1016","temp":30,"dewp":8,"wdir":190,"wspd":9,"visib":"6+","altim":1016,"clouds":[{"cover":"FEW","base":3400}],"obsTime":1784829600},"SBUL":{"icaoId":"SBUL","flightCategory":"VFR","rawOb":"METAR SBUL 231800Z 35003KT CAVOK 28/10 Q1018","temp":28,"dewp":10,"wdir":350,"wspd":3,"visib":"6+","altim":1018,"clouds":[],"obsTime":1784829600},"SBUR":{"icaoId":"SBUR","flightCategory":"VFR","rawOb":"METAR SBUR 231800Z 29005KT CAVOK 29/11 Q1016","temp":29,"dewp":11,"wdir":290,"wspd":5,"visib":"6+","altim":1016,"clouds":[],"obsTime":1784829600},"SBCG":{"icaoId":"SBCG","flightCategory":"VFR","rawOb":"METAR SBCG 231800Z 01005KT 310V060 9999 SCT030 SCT070 27/19 Q1014","temp":27,"dewp":19,"wdir":10,"wspd":5,"visib":"6+","altim":1014,"clouds":[{"cover":"SCT","base":3000},{"cover":"SCT","base":7000}],"obsTime":1784829600},"SBBR":{"icaoId":"SBBR","flightCategory":"VFR","rawOb":"METAR SBBR 231800Z 06009KT 010V110 CAVOK 28/07 Q1018","temp":28,"dewp":7,"wdir":60,"wspd":9,"visib":"6+","altim":1018,"clouds":[],"obsTime":1784829600},"SBSP":{"icaoId":"SBSP","flightCategory":"VFR","rawOb":"METAR SBSP 231800Z 23007KT 180V270 9999 FEW020 BKN045 21/14 Q1019","temp":21,"dewp":14,"wdir":230,"wspd":7,"visib":"6+","altim":1019,"clouds":[{"cover":"FEW","base":2000},{"cover":"BKN","base":4500}],"obsTime":1784829600},"SBEG":{"icaoId":"SBEG","flightCategory":"VFR","rawOb":"METAR SBEG 231800Z 10008KT 050V130 9999 BKN045 33/23 Q1010","temp":33,"dewp":23,"wdir":100,"wspd":8,"visib":"6+","altim":1010,"clouds":[{"cover":"BKN","base":4500}],"obsTime":1784829600},"SBGO":{"icaoId":"SBGO","flightCategory":"VFR","rawOb":"METAR SBGO 231800Z VRB05KT CAVOK 32/10 Q1016","temp":32,"dewp":10,"wdir":"VRB","wspd":5,"visib":"6+","altim":1016,"clouds":[],"obsTime":1784829600},"SBTF":{"icaoId":"SBTF","flightCategory":"VFR","rawOb":"METAR SBTF 231800Z 15007KT 9999 SCT020 33/24 Q1010","temp":33,"dewp":24,"wdir":150,"wspd":7,"visib":"6+","altim":1010,"clouds":[{"cover":"SCT","base":2000}],"obsTime":1784829600},"SBCJ":{"icaoId":"SBCJ","flightCategory":"VFR","rawOb":"METAR SBCJ 231800Z VRB03KT 9999 SCT025 31/19 Q1014","temp":31,"dewp":19,"wdir":"VRB","wspd":3,"visib":"6+","altim":1014,"clouds":[{"cover":"SCT","base":2500}],"obsTime":1784829600},"SBCC":{"icaoId":"SBCC","flightCategory":"VFR","rawOb":"METAR SBCC 231800Z 06010KT CAVOK 33/14 Q1012","temp":33,"dewp":14,"wdir":60,"wspd":10,"visib":"6+","altim":1012,"clouds":[],"obsTime":1784829600},"SBGM":{"icaoId":"SBGM","flightCategory":"VFR","rawOb":"METAR SBGM 231800Z 33003KT CAVOK 35/06 Q1011","temp":35,"dewp":6,"wdir":330,"wspd":3,"visib":"6+","altim":1011,"clouds":[],"obsTime":1784829600},"SBVH":{"icaoId":"SBVH","flightCategory":"VFR","rawOb":"METAR SBVH 231800Z 08009KT 9999 SCT040 31/18 Q1015","temp":31,"dewp":18,"wdir":80,"wspd":9,"visib":"6+","altim":1015,"clouds":[{"cover":"SCT","base":4000}],"obsTime":1784829600},"SBKG":{"icaoId":"SBKG","flightCategory":"VFR","rawOb":"METAR SBKG 231800Z 13005KT 9999 VCSH SCT010 SCT015 BKN070 24/22 Q1016","temp":24,"dewp":22,"wdir":130,"wspd":5,"visib":"6+","altim":1016,"clouds":[{"cover":"SCT","base":1000},{"cover":"SCT","base":1500},{"cover":"BKN","base":7000}],"obsTime":1784829600},"SBCA":{"icaoId":"SBCA","flightCategory":"MVFR","rawOb":"METAR SBCA 231800Z 05008KT 9999 FEW010 BKN020 19/15 Q1017","temp":19,"dewp":15,"wdir":50,"wspd":8,"visib":"6+","altim":1017,"clouds":[{"cover":"FEW","base":1000},{"cover":"BKN","base":2000}],"obsTime":1784829600},"SBCO":{"icaoId":"SBCO","flightCategory":"VFR","rawOb":"METAR SBCO 231800Z 13004KT 100V160 9000 SCT015 BKN040 17/15 Q1019","temp":17,"dewp":15,"wdir":130,"wspd":4,"visib":5.59,"altim":1019,"clouds":[{"cover":"SCT","base":1500},{"cover":"BKN","base":4000}],"obsTime":1784829600},"SBSM":{"icaoId":"SBSM","flightCategory":"MVFR","rawOb":"METAR SBSM 231800Z 10007KT 9999 FEW020 OVC030 17/13 Q1019","temp":17,"dewp":13,"wdir":100,"wspd":7,"visib":"6+","altim":1019,"clouds":[{"cover":"FEW","base":2000},{"cover":"OVC","base":3000}],"obsTime":1784829600},"SBBH":{"icaoId":"SBBH","flightCategory":"VFR","rawOb":"METAR SBBH 231800Z 32006KT CAVOK 29/10 Q1016","temp":29,"dewp":10,"wdir":320,"wspd":6,"visib":"6+","altim":1016,"clouds":[],"obsTime":1784829600},"SBBQ":{"icaoId":"SBBQ","flightCategory":"VFR","rawOb":"METAR SBBQ 231800Z 30007KT CAVOK 27/09 Q1020","temp":27,"dewp":9,"wdir":300,"wspd":7,"visib":"6+","altim":1020,"clouds":[],"obsTime":1784829600},"SBBU":{"icaoId":"SBBU","flightCategory":"VFR","rawOb":"METAR SBBU 231800Z 19002KT 9999 SCT040 26/17 Q1016","temp":26,"dewp":17,"wdir":190,"wspd":2,"visib":"6+","altim":1016,"clouds":[{"cover":"SCT","base":4000}],"obsTime":1784829600},"SBDN":{"icaoId":"SBDN","flightCategory":"VFR","rawOb":"METAR SBDN 231800Z 13004KT 9999 SCT026 24/16 Q1015","temp":24,"dewp":16,"wdir":130,"wspd":4,"visib":"6+","altim":1015,"clouds":[{"cover":"SCT","base":2600}],"obsTime":1784829600},"SBIP":{"icaoId":"SBIP","flightCategory":"VFR","rawOb":"METAR SBIP 231800Z AUTO 04007KT 350V080 CAVOK 30/17 Q1014","temp":30,"dewp":17,"wdir":40,"wspd":7,"visib":"6+","altim":1014,"clouds":[],"obsTime":1784829600},"SBSC":{"icaoId":"SBSC","flightCategory":"VFR","rawOb":"METAR SBSC 231800Z 19013KT CAVOK 23/18 Q1014","temp":23,"dewp":18,"wdir":190,"wspd":13,"visib":"6+","altim":1014,"clouds":[],"obsTime":1784829600},"SBSR":{"icaoId":"SBSR","flightCategory":"VFR","rawOb":"METAR SBSR 231800Z VRB04KT CAVOK 29/14 Q1015","temp":29,"dewp":14,"wdir":"VRB","wspd":4,"visib":"6+","altim":1015,"clouds":[],"obsTime":1784829600},"SBTU":{"icaoId":"SBTU","flightCategory":"VFR","rawOb":"METAR SBTU 231800Z AUTO VRB05KT 9999 // FEW037/// SCT050/// 32/23 Q1012","temp":32,"dewp":23,"wdir":"VRB","wspd":5,"visib":"6+","altim":1012,"clouds":[{"cover":"FEW","base":3700},{"cover":"SCT","base":5000}],"obsTime":1784829600},"SBOI":{"icaoId":"SBOI","flightCategory":"VFR","rawOb":"METAR SBOI 231800Z AUTO 14007KT 080V200 CAVOK 33/21 Q1011","temp":33,"dewp":21,"wdir":140,"wspd":7,"visib":"6+","altim":1011,"clouds":[],"obsTime":1784829600},"SBUY":{"icaoId":"SBUY","flightCategory":"VFR","rawOb":"METAR SBUY 231800Z 09007KT 9999 SCT030 34/22 Q1009","temp":34,"dewp":22,"wdir":90,"wspd":7,"visib":"6+","altim":1009,"clouds":[{"cover":"SCT","base":3000}],"obsTime":1784829600},"SBSJ":{"icaoId":"SBSJ","flightCategory":"VFR","rawOb":"METAR SBSJ 231800Z VRB09KT 9999 SCT049 26/14 Q1016","temp":26,"dewp":14,"wdir":"VRB","wspd":9,"visib":"6+","altim":1016,"clouds":[{"cover":"SCT","base":4900}],"obsTime":1784829600},"SBES":{"icaoId":"SBES","flightCategory":"VFR","rawOb":"METAR SBES 231800Z 21009KT 180V240 9999 FEW020 BKN100 24/// Q1014","temp":null,"dewp":null,"wdir":210,"wspd":9,"visib":"6+","altim":1014,"clouds":[{"cover":"FEW","base":2000},{"cover":"BKN","base":10000}],"obsTime":1784829600},"SBTT":{"icaoId":"SBTT","flightCategory":"MVFR","rawOb":"METAR SBTT 231800Z 12005KT 080V160 9999 BKN020 FEW025TCU 31/25 Q1011","temp":31,"dewp":25,"wdir":120,"wspd":5,"visib":"6+","altim":1011,"clouds":[{"cover":"BKN","base":2000},{"cover":"FEW","base":2500}],"obsTime":1784829600},"SBPL":{"icaoId":"SBPL","flightCategory":"VFR","rawOb":"METAR SBPL 231800Z 10010KT 9999 FEW025 31/16 Q1014","temp":31,"dewp":16,"wdir":100,"wspd":10,"visib":"6+","altim":1014,"clouds":[{"cover":"FEW","base":2500}],"obsTime":1784829600},"SBAR":{"icaoId":"SBAR","flightCategory":"VFR","rawOb":"METAR SBAR 231800Z 11011KT 070V130 9999 SCT023 27/22 Q1015","temp":27,"dewp":22,"wdir":110,"wspd":11,"visib":"6+","altim":1015,"clouds":[{"cover":"SCT","base":2300}],"obsTime":1784829600},"SBPS":{"icaoId":"SBPS","flightCategory":"VFR","rawOb":"METAR SBPS 231800Z 05010KT 9999 SCT025 BKN050 26/21 Q1016","temp":26,"dewp":21,"wdir":50,"wspd":10,"visib":"6+","altim":1016,"clouds":[{"cover":"SCT","base":2500},{"cover":"BKN","base":5000}],"obsTime":1784829600},"SBPB":{"icaoId":"SBPB","flightCategory":"VFR","rawOb":"METAR SBPB 231800Z 05015KT 9999 SCT020 30/24 Q1011","temp":30,"dewp":24,"wdir":50,"wspd":15,"visib":"6+","altim":1011,"clouds":[{"cover":"SCT","base":2000}],"obsTime":1784829600},"SBPP":{"icaoId":"SBPP","flightCategory":"MVFR","rawOb":"METAR SBPP 231800Z 06010KT 8000 OVC010 17/16 Q1015","temp":17,"dewp":16,"wdir":60,"wspd":10,"visib":4.97,"altim":1015,"clouds":[{"cover":"OVC","base":1000}],"obsTime":1784829600},"SBAU":{"icaoId":"SBAU","flightCategory":"VFR","rawOb":"METAR SBAU 231800Z 23005KT 9999 FEW040 29/14 Q1014","temp":29,"dewp":14,"wdir":230,"wspd":5,"visib":"6+","altim":1014,"clouds":[{"cover":"FEW","base":4000}],"obsTime":1784829600},"SBNM":{"icaoId":"SBNM","flightCategory":"MVFR","rawOb":"METAR SBNM 231800Z 07007KT 9999 SCT015 BKN025 17/13 Q1018","temp":17,"dewp":13,"wdir":70,"wspd":7,"visib":"6+","altim":1018,"clouds":[{"cover":"SCT","base":1500},{"cover":"BKN","base":2500}],"obsTime":1784829600},"SBJP":{"icaoId":"SBJP","flightCategory":"MVFR","rawOb":"METAR SBJP 231800Z 11014KT 9999 BKN020 28/24 Q1013","temp":28,"dewp":24,"wdir":110,"wspd":14,"visib":"6+","altim":1013,"clouds":[{"cover":"BKN","base":2000}],"obsTime":1784829600},"SBIH":{"icaoId":"SBIH","flightCategory":"VFR","rawOb":"METAR SBIH 231800Z 09008KT 9999 SCT020 33/24 Q1009","temp":33,"dewp":24,"wdir":90,"wspd":8,"visib":"6+","altim":1009,"clouds":[{"cover":"SCT","base":2000}],"obsTime":1784829600},"SBAN":{"icaoId":"SBAN","flightCategory":"VFR","rawOb":"METAR SBAN 231800Z 13006KT 9999 FEW030 29/09 Q1019","temp":29,"dewp":9,"wdir":130,"wspd":6,"visib":"6+","altim":1019,"clouds":[{"cover":"FEW","base":3000}],"obsTime":1784829600},"SBLE":{"icaoId":"SBLE","flightCategory":"VFR","rawOb":"METAR SBLE 231800Z AUTO 17004KT 120V230 CAVOK 27/17 Q1017","temp":27,"dewp":17,"wdir":170,"wspd":4,"visib":"6+","altim":1017,"clouds":[],"obsTime":1784829600},"SBJV":{"icaoId":"SBJV","flightCategory":"MVFR","rawOb":"METAR SBJV 231800Z 11008KT 9999 BKN030 BKN080 20/15 Q1017","temp":20,"dewp":15,"wdir":110,"wspd":8,"visib":"6+","altim":1017,"clouds":[{"cover":"BKN","base":3000},{"cover":"BKN","base":8000}],"obsTime":1784829600},"SBPF":{"icaoId":"SBPF","flightCategory":"VFR","rawOb":"METAR SBPF 231800Z 12010KT 9999 SCT020 16/11 Q1019","temp":16,"dewp":11,"wdir":120,"wspd":10,"visib":"6+","altim":1019,"clouds":[{"cover":"SCT","base":2000}],"obsTime":1784829600},"SBAF":{"icaoId":"SBAF","flightCategory":"MVFR","rawOb":"METAR SBAF 231800Z 19013KT 8000 FEW020 BKN035 BKN100 24/18 Q1014","temp":24,"dewp":18,"wdir":190,"wspd":13,"visib":4.97,"altim":1014,"clouds":[{"cover":"FEW","base":2000},{"cover":"BKN","base":3500},{"cover":"BKN","base":10000}],"obsTime":1784829600},"SBGW":{"icaoId":"SBGW","flightCategory":"VFR","rawOb":"METAR SBGW 231800Z 25008KT 210V280 9999 SCT030 27/15 Q1015","temp":27,"dewp":15,"wdir":250,"wspd":8,"visib":"6+","altim":1015,"clouds":[{"cover":"SCT","base":3000}],"obsTime":1784829600},"SBJR":{"icaoId":"SBJR","flightCategory":"VFR","rawOb":"METAR SBJR 231800Z 20007KT 9999 FEW020 BKN100 26/19 Q1014","temp":26,"dewp":19,"wdir":200,"wspd":7,"visib":"6+","altim":1014,"clouds":[{"cover":"FEW","base":2000},{"cover":"BKN","base":10000}],"obsTime":1784829600},"SBLS":{"icaoId":"SBLS","flightCategory":"VFR","rawOb":"METAR SBLS 231800Z 33004KT 240V020 9999 FEW048 29/09 Q1017","temp":29,"dewp":9,"wdir":330,"wspd":4,"visib":"6+","altim":1017,"clouds":[{"cover":"FEW","base":4800}],"obsTime":1784829600},"SBMT":{"icaoId":"SBMT","flightCategory":"VFR","rawOb":"METAR SBMT 231800Z 19008KT 160V220 9999 BKN040 21/12 Q1018","temp":21,"dewp":12,"wdir":190,"wspd":8,"visib":"6+","altim":1018,"clouds":[{"cover":"BKN","base":4000}],"obsTime":1784829600},"SBST":{"icaoId":"SBST","flightCategory":"VFR","rawOb":"METAR SBST 231800Z 22007KT CAVOK 22/17 Q1016","temp":22,"dewp":17,"wdir":220,"wspd":7,"visib":"6+","altim":1016,"clouds":[],"obsTime":1784829600},"SBTA":{"icaoId":"SBTA","flightCategory":"VFR","rawOb":"METAR SBTA 231800Z 25008KT 210V280 9999 FEW035 SCT070 26/15 Q1015","temp":26,"dewp":15,"wdir":250,"wspd":8,"visib":"6+","altim":1015,"clouds":[{"cover":"FEW","base":3500},{"cover":"SCT","base":7000}],"obsTime":1784829600}}}