{"updated":1781660723,"count":67,"data":{"SBVT":{"icaoId":"SBVT","flightCategory":"MVFR","rawOb":"METAR SBVT 170000Z 21014KT 190V250 9999 SCT013 BKN020 22/19 Q1017","temp":22,"dewp":19,"wdir":210,"wspd":14,"visib":"6+","altim":1017,"clouds":[{"cover":"SCT","base":1300},{"cover":"BKN","base":2000}],"obsTime":1781654400},"SBBR":{"icaoId":"SBBR","flightCategory":"VFR","rawOb":"METAR SBBR 170000Z 22004KT 200V260 CAVOK 21/16 Q1021","temp":21,"dewp":16,"wdir":220,"wspd":4,"visib":"6+","altim":1021,"clouds":[],"obsTime":1781654400},"SBBV":{"icaoId":"SBBV","flightCategory":"VFR","rawOb":"METAR SBBV 170000Z 13006KT 9999 FEW028 FEW030TCU BKN090 26/24 Q1013","temp":26,"dewp":24,"wdir":130,"wspd":6,"visib":"6+","altim":1013,"clouds":[{"cover":"FEW","base":2800},{"cover":"FEW","base":3000},{"cover":"BKN","base":9000}],"obsTime":1781654400},"SBCF":{"icaoId":"SBCF","flightCategory":"VFR","rawOb":"METAR SBCF 170000Z 22002KT CAVOK 19/15 Q1020","temp":19,"dewp":15,"wdir":220,"wspd":2,"visib":"6+","altim":1020,"clouds":[],"obsTime":1781654400},"SBCG":{"icaoId":"SBCG","flightCategory":"VFR","rawOb":"METAR SBCG 170000Z 11004KT 9999 FEW030 BKN100 19/17 Q1020","temp":19,"dewp":17,"wdir":110,"wspd":4,"visib":"6+","altim":1020,"clouds":[{"cover":"FEW","base":3000},{"cover":"BKN","base":10000}],"obsTime":1781654400},"SBCT":{"icaoId":"SBCT","flightCategory":"VFR","rawOb":"METAR SBCT 170000Z 10003KT CAVOK 10/09 Q1022","temp":10,"dewp":9,"wdir":100,"wspd":3,"visib":"6+","altim":1022,"clouds":[],"obsTime":1781654400},"SBEG":{"icaoId":"SBEG","flightCategory":"VFR","rawOb":"METAR SBEG 170000Z 33002KT 9999 VCTS FEW030CB 27/25 Q1012","temp":27,"dewp":25,"wdir":330,"wspd":2,"visib":"6+","altim":1012,"clouds":[{"cover":"FEW","base":3000}],"obsTime":1781654400},"SBFI":{"icaoId":"SBFI","flightCategory":"VFR","rawOb":"METAR SBFI 170000Z 00000KT CAVOK 10/10 Q1020","temp":10,"dewp":10,"wdir":0,"wspd":0,"visib":"6+","altim":1020,"clouds":[],"obsTime":1781654400},"SBFL":{"icaoId":"SBFL","flightCategory":"VFR","rawOb":"METAR SBFL 170000Z VRB01KT CAVOK 12/11 Q1021","temp":12,"dewp":11,"wdir":"VRB","wspd":1,"visib":"6+","altim":1021,"clouds":[],"obsTime":1781654400},"SBFZ":{"icaoId":"SBFZ","flightCategory":"VFR","rawOb":"METAR SBFZ 170000Z 09005KT CAVOK 27/23 Q1013","temp":27,"dewp":23,"wdir":90,"wspd":5,"visib":"6+","altim":1013,"clouds":[],"obsTime":1781654400},"SBGL":{"icaoId":"SBGL","flightCategory":"IFR","rawOb":"METAR SBGL 170000Z 14005KT 4500 -RA BR SCT006 BKN007 OVC019 19/18 Q1019","temp":19,"dewp":18,"wdir":140,"wspd":5,"visib":2.8,"altim":1019,"clouds":[{"cover":"SCT","base":600},{"cover":"BKN","base":700},{"cover":"OVC","base":1900}],"obsTime":1781654400},"SBGO":{"icaoId":"SBGO","flightCategory":"VFR","rawOb":"METAR SBGO 170000Z 13007KT CAVOK 22/19 Q1020","temp":22,"dewp":19,"wdir":130,"wspd":7,"visib":"6+","altim":1020,"clouds":[],"obsTime":1781654400},"SBGR":{"icaoId":"SBGR","flightCategory":"IFR","rawOb":"METAR SBGR 170000Z 09004KT 9999 OVC008 14/13 Q1022","temp":14,"dewp":13,"wdir":90,"wspd":4,"visib":"6+","altim":1022,"clouds":[{"cover":"OVC","base":800}],"obsTime":1781654400},"SBIL":{"icaoId":"SBIL","flightCategory":"VFR","rawOb":"METAR SBIL 170000Z 04006KT 9999 FEW020 27/24 Q1015","temp":27,"dewp":24,"wdir":40,"wspd":6,"visib":"6+","altim":1015,"clouds":[{"cover":"FEW","base":2000}],"obsTime":1781654400},"SBJU":{"icaoId":"SBJU","flightCategory":"VFR","rawOb":"METAR SBJU 170000Z 00000KT 9999 FEW020 26/20 Q1015","temp":26,"dewp":20,"wdir":0,"wspd":0,"visib":"6+","altim":1015,"clouds":[{"cover":"FEW","base":2000}],"obsTime":1781654400},"SBKP":{"icaoId":"SBKP","flightCategory":"VFR","rawOb":"METAR SBKP 170000Z 20006KT CAVOK 16/14 Q1021","temp":16,"dewp":14,"wdir":200,"wspd":6,"visib":"6+","altim":1021,"clouds":[],"obsTime":1781654400},"SBLO":{"icaoId":"SBLO","flightCategory":"VFR","rawOb":"METAR SBLO 170000Z 25003KT CAVOK 17/14 Q1021","temp":17,"dewp":14,"wdir":250,"wspd":3,"visib":"6+","altim":1021,"clouds":[],"obsTime":1781654400},"SBMA":{"icaoId":"SBMA","flightCategory":"VFR","rawOb":"METAR SBMA 170000Z 00000KT CAVOK 28/24 Q1011","temp":28,"dewp":24,"wdir":0,"wspd":0,"visib":"6+","altim":1011,"clouds":[],"obsTime":1781654400},"SBME":{"icaoId":"SBME","flightCategory":"IFR","rawOb":"METAR SBME 170000Z 26005KT 4000 -RA BR BKN007 OVC070 19/18 Q1019","temp":19,"dewp":18,"wdir":260,"wspd":5,"visib":2.49,"altim":1019,"clouds":[{"cover":"BKN","base":700},{"cover":"OVC","base":7000}],"obsTime":1781654400},"SBMG":{"icaoId":"SBMG","flightCategory":"VFR","rawOb":"METAR SBMG 170000Z 15005KT CAVOK 16/14 Q1020","temp":16,"dewp":14,"wdir":150,"wspd":5,"visib":"6+","altim":1020,"clouds":[],"obsTime":1781654400},"SBMK":{"icaoId":"SBMK","flightCategory":"VFR","rawOb":"METAR SBMK 170000Z 26002KT CAVOK 22/17 Q1017","temp":22,"dewp":17,"wdir":260,"wspd":2,"visib":"6+","altim":1017,"clouds":[],"obsTime":1781654400},"SBMO":{"icaoId":"SBMO","flightCategory":"VFR","rawOb":"METAR SBMO 170000Z 04002KT CAVOK 23/22 Q1015","temp":23,"dewp":22,"wdir":40,"wspd":2,"visib":"6+","altim":1015,"clouds":[],"obsTime":1781654400},"SBMQ":{"icaoId":"SBMQ","flightCategory":"VFR","rawOb":"METAR SBMQ 170000Z 03006KT CAVOK 27/24 Q1013","temp":27,"dewp":24,"wdir":30,"wspd":6,"visib":"6+","altim":1013,"clouds":[],"obsTime":1781654400},"SBNT":{"icaoId":"SBNT","flightCategory":"VFR","rawOb":"METAR SBNT 170000Z 15005KT 9999 FEW020 24/23 Q1014","temp":24,"dewp":23,"wdir":150,"wspd":5,"visib":"6+","altim":1014,"clouds":[{"cover":"FEW","base":2000}],"obsTime":1781654400},"SBPA":{"icaoId":"SBPA","flightCategory":"VFR","rawOb":"METAR SBPA 170000Z 29003KT 9000 NSC 10/08 Q1020","temp":10,"dewp":8,"wdir":290,"wspd":3,"visib":5.59,"altim":1020,"clouds":[],"obsTime":1781654400},"SBPJ":{"icaoId":"SBPJ","flightCategory":"VFR","rawOb":"METAR SBPJ 170000Z 12005KT CAVOK 26/21 Q1013","temp":26,"dewp":21,"wdir":120,"wspd":5,"visib":"6+","altim":1013,"clouds":[],"obsTime":1781654400},"SBPV":{"icaoId":"SBPV","flightCategory":"VFR","rawOb":"METAR SBPV 170000Z 16004KT 9999 VCTS FEW030 FEW035CB 26/22 Q1012","temp":26,"dewp":22,"wdir":160,"wspd":4,"visib":"6+","altim":1012,"clouds":[{"cover":"FEW","base":3000},{"cover":"FEW","base":3500}],"obsTime":1781654400},"SBRB":{"icaoId":"SBRB","flightCategory":"MVFR","rawOb":"METAR SBRB 170000Z 16003KT 7000 SCT008 BKN010 23/23 Q1015","temp":23,"dewp":23,"wdir":160,"wspd":3,"visib":4.35,"altim":1015,"clouds":[{"cover":"SCT","base":800},{"cover":"BKN","base":1000}],"obsTime":1781654400},"SBRF":{"icaoId":"SBRF","flightCategory":"VFR","rawOb":"METAR SBRF 170000Z 12005KT 9999 FEW023 26/22 Q1015","temp":26,"dewp":22,"wdir":120,"wspd":5,"visib":"6+","altim":1015,"clouds":[{"cover":"FEW","base":2300}],"obsTime":1781654400},"SBSG":{"icaoId":"SBSG","flightCategory":"VFR","rawOb":"METAR SBSG 170000Z 15003KT 110V180 9999 FEW030 24/23 Q1015","temp":24,"dewp":23,"wdir":150,"wspd":3,"visib":"6+","altim":1015,"clouds":[{"cover":"FEW","base":3000}],"obsTime":1781654400},"SBSL":{"icaoId":"SBSL","flightCategory":"VFR","rawOb":"METAR SBSL 170000Z 05008KT 9999 FEW017 BKN080 27/24 Q1012","temp":27,"dewp":24,"wdir":50,"wspd":8,"visib":"6+","altim":1012,"clouds":[{"cover":"FEW","base":1700},{"cover":"BKN","base":8000}],"obsTime":1781654400},"SBSN":{"icaoId":"SBSN","flightCategory":"VFR","rawOb":"METAR SBSN 170000Z 16002KT CAVOK 26/25 Q1011","temp":26,"dewp":25,"wdir":160,"wspd":2,"visib":"6+","altim":1011,"clouds":[],"obsTime":1781654400},"SBSP":{"icaoId":"SBSP","flightCategory":"IFR","rawOb":"METAR SBSP 170000Z 15004KT 110V170 9999 BKN009 15/13 Q1023","temp":15,"dewp":13,"wdir":150,"wspd":4,"visib":"6+","altim":1023,"clouds":[{"cover":"BKN","base":900}],"obsTime":1781654400},"SBSV":{"icaoId":"SBSV","flightCategory":"VFR","rawOb":"METAR SBSV 170000Z 02003KT 9999 FEW019 BKN055 25/23 Q1015","temp":25,"dewp":23,"wdir":20,"wspd":3,"visib":"6+","altim":1015,"clouds":[{"cover":"FEW","base":1900},{"cover":"BKN","base":5500}],"obsTime":1781654400},"SBTE":{"icaoId":"SBTE","flightCategory":"VFR","rawOb":"METAR SBTE 170000Z 33003KT 9999 SCT025 SCT090 29/24 Q1011","temp":29,"dewp":24,"wdir":330,"wspd":3,"visib":"6+","altim":1011,"clouds":[{"cover":"SCT","base":2500},{"cover":"SCT","base":9000}],"obsTime":1781654400},"SBUL":{"icaoId":"SBUL","flightCategory":"VFR","rawOb":"METAR SBUL 170000Z 24006KT CAVOK 17/15 Q1022","temp":17,"dewp":15,"wdir":240,"wspd":6,"visib":"6+","altim":1022,"clouds":[],"obsTime":1781654400},"SBUR":{"icaoId":"SBUR","flightCategory":"VFR","rawOb":"METAR SBUR 170000Z 17004KT CAVOK 18/14 Q1021","temp":18,"dewp":14,"wdir":170,"wspd":4,"visib":"6+","altim":1021,"clouds":[],"obsTime":1781654400},"SBBE":{"icaoId":"SBBE","flightCategory":"MVFR","rawOb":"METAR SBBE 170000Z 06003KT 8000 TS SCT015 BKN035 FEW040CB 27/25 Q1013 RERA","temp":27,"dewp":25,"wdir":60,"wspd":3,"visib":4.97,"altim":1013,"clouds":[{"cover":"SCT","base":1500},{"cover":"BKN","base":3500},{"cover":"FEW","base":4000}],"obsTime":1781654400},"SBCZ":{"icaoId":"SBCZ","flightCategory":"VFR","rawOb":"METAR SBCZ 170000Z 32004KT 9999 FEW035TCU 24/23 Q1013","temp":24,"dewp":23,"wdir":320,"wspd":4,"visib":"6+","altim":1013,"clouds":[{"cover":"FEW","base":3500}],"obsTime":1781654400},"SBKG":{"icaoId":"SBKG","flightCategory":"VFR","rawOb":"METAR SBKG 170000Z 09006KT CAVOK 22/20 Q1017","temp":22,"dewp":20,"wdir":90,"wspd":6,"visib":"6+","altim":1017,"clouds":[],"obsTime":1781654400},"SBCC":{"icaoId":"SBCC","flightCategory":"VFR","rawOb":"METAR SBCC 170000Z 03005KT CAVOK 26/19 Q1015","temp":26,"dewp":19,"wdir":30,"wspd":5,"visib":"6+","altim":1015,"clouds":[],"obsTime":1781654400},"SBAX":{"icaoId":"SBAX","flightCategory":"VFR","rawOb":"METAR SBAX 170000Z 35002KT CAVOK 16/16 Q1021","temp":16,"dewp":16,"wdir":350,"wspd":2,"visib":"6+","altim":1021,"clouds":[],"obsTime":1781654400},"SBPL":{"icaoId":"SBPL","flightCategory":"VFR","rawOb":"METAR SBPL 170000Z 08009KT 9999 FEW025 29/20 Q1015","temp":29,"dewp":20,"wdir":80,"wspd":9,"visib":"6+","altim":1015,"clouds":[{"cover":"FEW","base":2500}],"obsTime":1781654400},"SBPS":{"icaoId":"SBPS","flightCategory":"VFR","rawOb":"METAR SBPS 170000Z 00007KT 9999 FEW025 25/23 Q1015","temp":25,"dewp":23,"wdir":"VRB","wspd":7,"visib":"6+","altim":1015,"clouds":[{"cover":"FEW","base":2500}],"obsTime":1781654400},"SBCO":{"icaoId":"SBCO","flightCategory":"VFR","rawOb":"METAR SBCO 170000Z 34003KT CAVOK 08/07 Q1020","temp":8,"dewp":7,"wdir":340,"wspd":3,"visib":"6+","altim":1020,"clouds":[],"obsTime":1781654400},"SBBU":{"icaoId":"SBBU","flightCategory":"VFR","rawOb":"METAR SBBU 170000Z 15004KT CAVOK 17/15 Q1021","temp":17,"dewp":15,"wdir":150,"wspd":4,"visib":"6+","altim":1021,"clouds":[],"obsTime":1781654400},"SBSC":{"icaoId":"SBSC","flightCategory":"MVFR","rawOb":"METAR SBSC 170000Z 07002KT 5000 BR SCT005 BKN015 OVC050 19/18 Q1019","temp":19,"dewp":18,"wdir":70,"wspd":2,"visib":3.11,"altim":1019,"clouds":[{"cover":"SCT","base":500},{"cover":"BKN","base":1500},{"cover":"OVC","base":5000}],"obsTime":1781654400},"SBDN":{"icaoId":"SBDN","flightCategory":"VFR","rawOb":"METAR SBDN 170000Z 14003KT CAVOK 16/13 Q1020","temp":16,"dewp":13,"wdir":140,"wspd":3,"visib":"6+","altim":1020,"clouds":[],"obsTime":1781654400},"SBSJ":{"icaoId":"SBSJ","flightCategory":"VFR","rawOb":"METAR SBSJ 170000Z 25004KT 9999 FEW040 14/13 Q1021","temp":14,"dewp":13,"wdir":250,"wspd":4,"visib":"6+","altim":1021,"clouds":[{"cover":"FEW","base":4000}],"obsTime":1781654400},"SBAR":{"icaoId":"SBAR","flightCategory":"VFR","rawOb":"METAR SBAR 170000Z 09004KT 9999 FEW020 25/23 Q1015","temp":25,"dewp":23,"wdir":90,"wspd":4,"visib":"6+","altim":1015,"clouds":[{"cover":"FEW","base":2000}],"obsTime":1781654400},"SBSM":{"icaoId":"SBSM","flightCategory":"VFR","rawOb":"METAR SBSM 170000Z 36001KT CAVOK 07/06 Q1022","temp":7,"dewp":6,"wdir":360,"wspd":1,"visib":"6+","altim":1022,"clouds":[],"obsTime":1781654400},"SBIP":{"icaoId":"SBIP","flightCategory":"VFR","rawOb":"METAR SBIP 170000Z AUTO VRB01KT CAVOK 20/20 Q1016","temp":20,"dewp":20,"wdir":"VRB","wspd":1,"visib":"6+","altim":1016,"clouds":[],"obsTime":1781654400},"SBSR":{"icaoId":"SBSR","flightCategory":"VFR","rawOb":"METAR SBSR 170000Z 21002KT 9999 FEW035 BKN090 17/15 Q1020","temp":17,"dewp":15,"wdir":210,"wspd":2,"visib":"6+","altim":1020,"clouds":[{"cover":"FEW","base":3500},{"cover":"BKN","base":9000}],"obsTime":1781654400},"SBTU":{"icaoId":"SBTU","flightCategory":"VFR","rawOb":"METAR SBTU 170000Z AUTO 21003KT 9999 // NCD ///// Q1014","temp":null,"dewp":null,"wdir":210,"wspd":3,"visib":"6+","altim":1014,"clouds":[],"obsTime":1781654400},"SBBH":{"icaoId":"SBBH","flightCategory":"VFR","rawOb":"METAR SBBH 170000Z 29004KT CAVOK 19/16 Q1019","temp":19,"dewp":16,"wdir":290,"wspd":4,"visib":"6+","altim":1019,"clouds":[],"obsTime":1781654400},"SBCA":{"icaoId":"SBCA","flightCategory":"VFR","rawOb":"METAR SBCA 170000Z 10003KT CAVOK 13/09 Q1021","temp":13,"dewp":9,"wdir":100,"wspd":3,"visib":"6+","altim":1021,"clouds":[],"obsTime":1781654400},"SBOI":{"icaoId":"SBOI","flightCategory":"IFR","rawOb":"METAR SBOI 170000Z AUTO 34004KT 9999 // OVC008/// 25/24 Q1015","temp":25,"dewp":24,"wdir":340,"wspd":4,"visib":"6+","altim":1015,"clouds":[{"cover":"OVC","base":800}],"obsTime":1781654400},"SBNM":{"icaoId":"SBNM","flightCategory":"VFR","rawOb":"METAR SBNM 170000Z AUTO 36002KT CAVOK 11/09 Q1021","temp":11,"dewp":9,"wdir":360,"wspd":2,"visib":"6+","altim":1021,"clouds":[],"obsTime":1781654400},"SBLE":{"icaoId":"SBLE","flightCategory":"VFR","rawOb":"METAR SBLE 170000Z AUTO 28004KT 260V320 CAVOK ///// Q////","temp":null,"dewp":null,"wdir":280,"wspd":4,"visib":"6+","altim":null,"clouds":[],"obsTime":1781654400},"SBAN":{"icaoId":"SBAN","flightCategory":"VFR","rawOb":"METAR SBAN 170000Z 17007KT CAVOK 20/16 Q1022","temp":20,"dewp":16,"wdir":170,"wspd":7,"visib":"6+","altim":1022,"clouds":[],"obsTime":1781654400},"SBLS":{"icaoId":"SBLS","flightCategory":"VFR","rawOb":"METAR SBLS 170000Z 22003KT CAVOK 20/14 Q1019","temp":20,"dewp":14,"wdir":220,"wspd":3,"visib":"6+","altim":1019,"clouds":[],"obsTime":1781654400},"SBMT":{"icaoId":"SBMT","flightCategory":"MVFR","rawOb":"METAR SBMT 170000Z 12004KT 9999 OVC011 14/13 Q1022","temp":14,"dewp":13,"wdir":120,"wspd":4,"visib":"6+","altim":1022,"clouds":[{"cover":"OVC","base":1100}],"obsTime":1781654400},"SBTA":{"icaoId":"SBTA","flightCategory":"VFR","rawOb":"METAR SBTA 170000Z 23004KT 9999 FEW030 SCT050 17/14 Q1021","temp":17,"dewp":14,"wdir":230,"wspd":4,"visib":"6+","altim":1021,"clouds":[{"cover":"FEW","base":3000},{"cover":"SCT","base":5000}],"obsTime":1781654400},"SBJP":{"icaoId":"SBJP","flightCategory":"VFR","rawOb":"METAR SBJP 170000Z 17003KT CAVOK 24/23 Q1015","temp":24,"dewp":23,"wdir":170,"wspd":3,"visib":"6+","altim":1015,"clouds":[],"obsTime":1781654400},"SBJV":{"icaoId":"SBJV","flightCategory":"VFR","rawOb":"METAR SBJV 170000Z 00000KT 9999 FEW020 14/14 Q1020","temp":14,"dewp":14,"wdir":0,"wspd":0,"visib":"6+","altim":1020,"clouds":[{"cover":"FEW","base":2000}],"obsTime":1781654400},"SBPF":{"icaoId":"SBPF","flightCategory":"VFR","rawOb":"METAR SBPF 170000Z 04008KT CAVOK 08/07 Q1022","temp":8,"dewp":7,"wdir":40,"wspd":8,"visib":"6+","altim":1022,"clouds":[],"obsTime":1781654400},"SBJR":{"icaoId":"SBJR","flightCategory":"IFR","rawOb":"METAR SBJR 170000Z 29002KT 5000 BR BKN005 OVC035 19/19 Q1019","temp":19,"dewp":19,"wdir":290,"wspd":2,"visib":3.11,"altim":1019,"clouds":[{"cover":"BKN","base":500},{"cover":"OVC","base":3500}],"obsTime":1781654400}}}