{"updated":1780750056,"count":86,"data":{"SBRF":{"icaoId":"SBRF","flightCategory":"IFR","rawOb":"METAR SBRF 061100Z 15014KT 2000 +SHRA BR SCT012 BKN020 BKN050 25/23 Q1015","temp":25,"dewp":23,"wdir":150,"wspd":14,"visib":1.24,"altim":1015,"clouds":[{"cover":"SCT","base":1200},{"cover":"BKN","base":2000},{"cover":"BKN","base":5000}],"obsTime":1780743600},"SBMO":{"icaoId":"SBMO","flightCategory":"MVFR","rawOb":"METAR SBMO 061100Z 20007KT 160V220 8000 VCSH BKN015 BKN045 24/22 Q1016","temp":24,"dewp":22,"wdir":200,"wspd":7,"visib":4.97,"altim":1016,"clouds":[{"cover":"BKN","base":1500},{"cover":"BKN","base":4500}],"obsTime":1780743600},"SBBE":{"icaoId":"SBBE","flightCategory":"VFR","rawOb":"METAR SBBE 061100Z 10006KT 9999 FEW017 27/24 Q1013","temp":27,"dewp":24,"wdir":100,"wspd":6,"visib":"6+","altim":1013,"clouds":[{"cover":"FEW","base":1700}],"obsTime":1780743600},"SBBR":{"icaoId":"SBBR","flightCategory":"VFR","rawOb":"METAR SBBR 061100Z VRB03KT CAVOK 13/10 Q1023","temp":13,"dewp":10,"wdir":"VRB","wspd":3,"visib":"6+","altim":1023,"clouds":[],"obsTime":1780743600},"SBVT":{"icaoId":"SBVT","flightCategory":"VFR","rawOb":"METAR SBVT 061100Z 31004KT 280V340 9999 FEW020 17/16 Q1021","temp":17,"dewp":16,"wdir":310,"wspd":4,"visib":"6+","altim":1021,"clouds":[{"cover":"FEW","base":2000}],"obsTime":1780743600},"SBAT":{"icaoId":"SBAT","flightCategory":"VFR","rawOb":"METAR SBAT 061100Z 11003KT CAVOK 24/19 Q1015","temp":24,"dewp":19,"wdir":110,"wspd":3,"visib":"6+","altim":1015,"clouds":[],"obsTime":1780743600},"SBBV":{"icaoId":"SBBV","flightCategory":"MVFR","rawOb":"METAR SBBV 061100Z 06004KT 9999 SCT005 BKN030 FEW035TCU BKN070 25/24 Q1014","temp":25,"dewp":24,"wdir":60,"wspd":4,"visib":"6+","altim":1014,"clouds":[{"cover":"SCT","base":500},{"cover":"BKN","base":3000},{"cover":"FEW","base":3500},{"cover":"BKN","base":7000}],"obsTime":1780743600},"SBCB":{"icaoId":"SBCB","flightCategory":"VFR","rawOb":"METAR SBCB 061100Z 00000KT CAVOK 19/16 Q1021","temp":19,"dewp":16,"wdir":0,"wspd":0,"visib":"6+","altim":1021,"clouds":[],"obsTime":1780743600},"SBCF":{"icaoId":"SBCF","flightCategory":"VFR","rawOb":"METAR SBCF 061100Z 19001KT 9999 FEW020 13/10 Q1024","temp":13,"dewp":10,"wdir":190,"wspd":1,"visib":"6+","altim":1024,"clouds":[{"cover":"FEW","base":2000}],"obsTime":1780743600},"SBCG":{"icaoId":"SBCG","flightCategory":"VFR","rawOb":"METAR SBCG 061100Z 06010KT CAVOK 18/13 Q1020","temp":18,"dewp":13,"wdir":60,"wspd":10,"visib":"6+","altim":1020,"clouds":[],"obsTime":1780743600},"SBCP":{"icaoId":"SBCP","flightCategory":"VFR","rawOb":"METAR SBCP 061100Z 34003KT CAVOK 17/15 Q1021","temp":17,"dewp":15,"wdir":340,"wspd":3,"visib":"6+","altim":1021,"clouds":[],"obsTime":1780743600},"SBCR":{"icaoId":"SBCR","flightCategory":"VFR","rawOb":"METAR SBCR 061100Z 10009KT CAVOK 24/14 Q1017","temp":24,"dewp":14,"wdir":100,"wspd":9,"visib":"6+","altim":1017,"clouds":[],"obsTime":1780743600},"SBCT":{"icaoId":"SBCT","flightCategory":"LIFR","rawOb":"METAR SBCT 061100Z VRB03KT 1100 R15/1600 R33/1900 BR BCFG OVC001 11/11 Q1023","temp":11,"dewp":11,"wdir":"VRB","wspd":3,"visib":0.68,"altim":1023,"clouds":[{"cover":"OVC","base":100}],"obsTime":1780743600},"SBCZ":{"icaoId":"SBCZ","flightCategory":"VFR","rawOb":"METAR SBCZ 061200Z 00000KT CAVOK 21/21 Q1015","temp":21,"dewp":21,"wdir":0,"wspd":0,"visib":"6+","altim":1015,"clouds":[],"obsTime":1780747200},"SBEG":{"icaoId":"SBEG","flightCategory":"VFR","rawOb":"METAR SBEG 061100Z 02002KT 9999 FEW003 SCT100 23/23 Q1013","temp":23,"dewp":23,"wdir":20,"wspd":2,"visib":"6+","altim":1013,"clouds":[{"cover":"FEW","base":300},{"cover":"SCT","base":10000}],"obsTime":1780743600},"SBFI":{"icaoId":"SBFI","flightCategory":"VFR","rawOb":"METAR SBFI 061100Z 09003KT CAVOK 15/15 Q1020","temp":15,"dewp":15,"wdir":90,"wspd":3,"visib":"6+","altim":1020,"clouds":[],"obsTime":1780743600},"SBFL":{"icaoId":"SBFL","flightCategory":"VFR","rawOb":"METAR SBFL 061100Z 26005KT CAVOK 16/15 Q1019","temp":16,"dewp":15,"wdir":260,"wspd":5,"visib":"6+","altim":1019,"clouds":[],"obsTime":1780743600},"SBFZ":{"icaoId":"SBFZ","flightCategory":"VFR","rawOb":"METAR SBFZ 061100Z 16009KT 9999 FEW018 BKN070 27/23 Q1013","temp":27,"dewp":23,"wdir":160,"wspd":9,"visib":"6+","altim":1013,"clouds":[{"cover":"FEW","base":1800},{"cover":"BKN","base":7000}],"obsTime":1780743600},"SBGL":{"icaoId":"SBGL","flightCategory":"MVFR","rawOb":"METAR SBGL 061100Z 03003KT 7000 FEW015 17/15 Q1021","temp":17,"dewp":15,"wdir":30,"wspd":3,"visib":4.35,"altim":1021,"clouds":[{"cover":"FEW","base":1500}],"obsTime":1780743600},"SBGO":{"icaoId":"SBGO","flightCategory":"VFR","rawOb":"METAR SBGO 061100Z 11003KT CAVOK 15/12 Q1022","temp":15,"dewp":12,"wdir":110,"wspd":3,"visib":"6+","altim":1022,"clouds":[],"obsTime":1780743600},"SBGR":{"icaoId":"SBGR","flightCategory":"MVFR","rawOb":"METAR SBGR 061100Z 04007KT 360V070 9999 FEW009 BKN011 14/12 Q1023","temp":14,"dewp":12,"wdir":40,"wspd":7,"visib":"6+","altim":1023,"clouds":[{"cover":"FEW","base":900},{"cover":"BKN","base":1100}],"obsTime":1780743600},"SBHT":{"icaoId":"SBHT","flightCategory":"VFR","rawOb":"METAR SBHT 061100Z 00000KT 9999 SCT012 26/25 Q1013","temp":26,"dewp":25,"wdir":0,"wspd":0,"visib":"6+","altim":1013,"clouds":[{"cover":"SCT","base":1200}],"obsTime":1780743600},"SBIL":{"icaoId":"SBIL","flightCategory":"VFR","rawOb":"METAR SBIL 061100Z 27008KT 9999 FEW020 SCT070 21/18 Q1019","temp":21,"dewp":18,"wdir":270,"wspd":8,"visib":"6+","altim":1019,"clouds":[{"cover":"FEW","base":2000},{"cover":"SCT","base":7000}],"obsTime":1780743600},"SBJU":{"icaoId":"SBJU","flightCategory":"VFR","rawOb":"METAR SBJU 061100Z 18008KT 9999 SCT020 24/18 Q1017","temp":24,"dewp":18,"wdir":180,"wspd":8,"visib":"6+","altim":1017,"clouds":[{"cover":"SCT","base":2000}],"obsTime":1780743600},"SBKP":{"icaoId":"SBKP","flightCategory":"LIFR","rawOb":"METAR SBKP 061100Z 10006KT 2500 BR SCT001 BKN002 11/11 Q1022","temp":11,"dewp":11,"wdir":100,"wspd":6,"visib":1.55,"altim":1022,"clouds":[{"cover":"SCT","base":100},{"cover":"BKN","base":200}],"obsTime":1780743600},"SBLO":{"icaoId":"SBLO","flightCategory":"VFR","rawOb":"METAR SBLO 061100Z 28002KT CAVOK 13/12 Q1022","temp":13,"dewp":12,"wdir":280,"wspd":2,"visib":"6+","altim":1022,"clouds":[],"obsTime":1780743600},"SBMA":{"icaoId":"SBMA","flightCategory":"VFR","rawOb":"METAR SBMA 061100Z 17003KT CAVOK 26/23 Q1013","temp":26,"dewp":23,"wdir":170,"wspd":3,"visib":"6+","altim":1013,"clouds":[],"obsTime":1780743600},"SBME":{"icaoId":"SBME","flightCategory":"VFR","rawOb":"METAR SBME 061100Z 30004KT CAVOK 16/14 Q1021","temp":16,"dewp":14,"wdir":300,"wspd":4,"visib":"6+","altim":1021,"clouds":[],"obsTime":1780743600},"SBMG":{"icaoId":"SBMG","flightCategory":"VFR","rawOb":"METAR SBMG 061100Z 16003KT 9999 BCFG NSC 14/12 Q1021","temp":14,"dewp":12,"wdir":160,"wspd":3,"visib":"6+","altim":1021,"clouds":[],"obsTime":1780743600},"SBMK":{"icaoId":"SBMK","flightCategory":"VFR","rawOb":"METAR SBMK 061100Z 19004KT CAVOK 15/11 Q1023","temp":15,"dewp":11,"wdir":190,"wspd":4,"visib":"6+","altim":1023,"clouds":[],"obsTime":1780743600},"SBMQ":{"icaoId":"SBMQ","flightCategory":"LIFR","rawOb":"METAR SBMQ 061100Z 30004KT 9999 4000SW BKN003 BKN015 25/25 Q1013","temp":25,"dewp":25,"wdir":300,"wspd":4,"visib":"6+","altim":1013,"clouds":[{"cover":"BKN","base":300},{"cover":"BKN","base":1500}],"obsTime":1780743600},"SBNT":{"icaoId":"SBNT","flightCategory":"MVFR","rawOb":"METAR SBNT 061100Z 17007KT 130V200 8000 VCSH BKN017 FEW030TCU BKN080 24/23 Q1014","temp":24,"dewp":23,"wdir":170,"wspd":7,"visib":4.97,"altim":1014,"clouds":[{"cover":"BKN","base":1700},{"cover":"FEW","base":3000},{"cover":"BKN","base":8000}],"obsTime":1780743600},"SBPA":{"icaoId":"SBPA","flightCategory":"MVFR","rawOb":"METAR SBPA 061100Z 27003KT 240V310 6000 1800W R29///// R11/P2000 MIFG FEW002 15/15 Q1018","temp":15,"dewp":15,"wdir":270,"wspd":3,"visib":3.73,"altim":1018,"clouds":[{"cover":"FEW","base":200}],"obsTime":1780743600},"SBPJ":{"icaoId":"SBPJ","flightCategory":"VFR","rawOb":"METAR SBPJ 061100Z 19004KT CAVOK 24/16 Q1016","temp":24,"dewp":16,"wdir":190,"wspd":4,"visib":"6+","altim":1016,"clouds":[],"obsTime":1780743600},"SBPV":{"icaoId":"SBPV","flightCategory":"VFR","rawOb":"METAR SBPV 061100Z 20001KT CAVOK 24/23 Q1013","temp":24,"dewp":23,"wdir":200,"wspd":1,"visib":"6+","altim":1013,"clouds":[],"obsTime":1780743600},"SBRB":{"icaoId":"SBRB","flightCategory":"VFR","rawOb":"METAR SBRB 061100Z 00000KT CAVOK 20/20 Q1015","temp":20,"dewp":20,"wdir":0,"wspd":0,"visib":"6+","altim":1015,"clouds":[],"obsTime":1780743600},"SBSG":{"icaoId":"SBSG","flightCategory":"MVFR","rawOb":"METAR SBSG 061100Z 17007KT 140V200 8000 VCSH BKN010 FEW020TCU 24/23 Q1015","temp":24,"dewp":23,"wdir":170,"wspd":7,"visib":4.97,"altim":1015,"clouds":[{"cover":"BKN","base":1000},{"cover":"FEW","base":2000}],"obsTime":1780743600},"SBSL":{"icaoId":"SBSL","flightCategory":"VFR","rawOb":"METAR SBSL 061100Z 11007KT CAVOK 27/25 Q1012","temp":27,"dewp":25,"wdir":110,"wspd":7,"visib":"6+","altim":1012,"clouds":[],"obsTime":1780743600},"SBSN":{"icaoId":"SBSN","flightCategory":"VFR","rawOb":"METAR SBSN 061100Z 10006KT 9999 FEW009 26/24 Q1012","temp":26,"dewp":24,"wdir":100,"wspd":6,"visib":"6+","altim":1012,"clouds":[{"cover":"FEW","base":900}],"obsTime":1780743600},"SBSP":{"icaoId":"SBSP","flightCategory":"MVFR","rawOb":"METAR SBSP 061100Z 04005KT 7000 BKN011 13/12 Q1023","temp":13,"dewp":12,"wdir":40,"wspd":5,"visib":4.35,"altim":1023,"clouds":[{"cover":"BKN","base":1100}],"obsTime":1780743600},"SBSV":{"icaoId":"SBSV","flightCategory":"MVFR","rawOb":"METAR SBSV 061100Z 12007KT 080V160 8000 VCSH SCT023 FEW025TCU BKN040 BKN060 26/20 Q1017","temp":26,"dewp":20,"wdir":120,"wspd":7,"visib":4.97,"altim":1017,"clouds":[{"cover":"SCT","base":2300},{"cover":"FEW","base":2500},{"cover":"BKN","base":4000},{"cover":"BKN","base":6000}],"obsTime":1780743600},"SBTE":{"icaoId":"SBTE","flightCategory":"VFR","rawOb":"METAR SBTE 061100Z 15013KT CAVOK 26/20 Q1013","temp":26,"dewp":20,"wdir":150,"wspd":13,"visib":"6+","altim":1013,"clouds":[],"obsTime":1780743600},"SBUL":{"icaoId":"SBUL","flightCategory":"VFR","rawOb":"METAR SBUL 061100Z 11008KT CAVOK 14/09 Q1023","temp":14,"dewp":9,"wdir":110,"wspd":8,"visib":"6+","altim":1023,"clouds":[],"obsTime":1780743600},"SBUR":{"icaoId":"SBUR","flightCategory":"VFR","rawOb":"METAR SBUR 061100Z 02007KT CAVOK 15/09 Q1022","temp":15,"dewp":9,"wdir":20,"wspd":7,"visib":"6+","altim":1022,"clouds":[],"obsTime":1780743600},"SBPS":{"icaoId":"SBPS","flightCategory":"LIFR","rawOb":"METAR SBPS 061100Z 25006KT 3000 -RA BR BKN004 BKN020 OVC070 19/18 Q1020","temp":19,"dewp":18,"wdir":250,"wspd":6,"visib":1.86,"altim":1020,"clouds":[{"cover":"BKN","base":400},{"cover":"BKN","base":2000},{"cover":"OVC","base":7000}],"obsTime":1780743600},"SBTF":{"icaoId":"SBTF","flightCategory":"VFR","rawOb":"SPECI SBTF 061115Z 00000KT 9999 FEW005 SCT080 24/24 Q1013","temp":24,"dewp":24,"wdir":0,"wspd":0,"visib":"6+","altim":1013,"clouds":[{"cover":"FEW","base":500},{"cover":"SCT","base":8000}],"obsTime":1780744500},"SBOI":{"icaoId":"SBOI","flightCategory":"VFR","rawOb":"METAR SBOI 061100Z AUTO VRB02KT 9999 // FEW012/// SCT097/// 24/24 Q1013","temp":24,"dewp":24,"wdir":"VRB","wspd":2,"visib":"6+","altim":1013,"clouds":[{"cover":"FEW","base":1200},{"cover":"SCT","base":9700}],"obsTime":1780743600},"SBBH":{"icaoId":"SBBH","flightCategory":"VFR","rawOb":"METAR SBBH 061100Z 12006KT CAVOK 13/10 Q1023","temp":13,"dewp":10,"wdir":120,"wspd":6,"visib":"6+","altim":1023,"clouds":[],"obsTime":1780743600},"SBBQ":{"icaoId":"SBBQ","flightCategory":"MVFR","rawOb":"METAR SBBQ 061200Z 06004KT 9999 OVC010 12/10 Q1026","temp":12,"dewp":10,"wdir":60,"wspd":4,"visib":"6+","altim":1026,"clouds":[{"cover":"OVC","base":1000}],"obsTime":1780747200},"SBBU":{"icaoId":"SBBU","flightCategory":"VFR","rawOb":"METAR SBBU 061100Z 09007KT CAVOK 15/13 Q1022","temp":15,"dewp":13,"wdir":90,"wspd":7,"visib":"6+","altim":1022,"clouds":[],"obsTime":1780743600},"SBVH":{"icaoId":"SBVH","flightCategory":"VFR","rawOb":"METAR SBVH 061100Z 08007KT CAVOK 18/16 Q1017","temp":18,"dewp":16,"wdir":80,"wspd":7,"visib":"6+","altim":1017,"clouds":[],"obsTime":1780743600},"SBAR":{"icaoId":"SBAR","flightCategory":"VFR","rawOb":"METAR SBAR 061100Z 16011KT 110V180 9999 FEW015 SCT025 OVC050 26/19 Q1016","temp":26,"dewp":19,"wdir":160,"wspd":11,"visib":"6+","altim":1016,"clouds":[{"cover":"FEW","base":1500},{"cover":"SCT","base":2500},{"cover":"OVC","base":5000}],"obsTime":1780743600},"SBAX":{"icaoId":"SBAX","flightCategory":"VFR","rawOb":"METAR SBAX 061100Z AUTO VRB02KT CAVOK 13/09 Q1023","temp":13,"dewp":9,"wdir":"VRB","wspd":2,"visib":"6+","altim":1023,"clouds":[],"obsTime":1780743600},"SBCA":{"icaoId":"SBCA","flightCategory":"VFR","rawOb":"METAR SBCA 061100Z 02009KT CAVOK 16/13 Q1022","temp":16,"dewp":13,"wdir":20,"wspd":9,"visib":"6+","altim":1022,"clouds":[],"obsTime":1780743600},"SBCC":{"icaoId":"SBCC","flightCategory":"VFR","rawOb":"METAR SBCC 061100Z 07008KT CAVOK 24/18 Q1016","temp":24,"dewp":18,"wdir":70,"wspd":8,"visib":"6+","altim":1016,"clouds":[],"obsTime":1780743600},"SBCJ":{"icaoId":"SBCJ","flightCategory":"VFR","rawOb":"METAR SBCJ 061100Z 12006KT 9999 FEW025 25/20 Q1018","temp":25,"dewp":20,"wdir":120,"wspd":6,"visib":"6+","altim":1018,"clouds":[{"cover":"FEW","base":2500}],"obsTime":1780743600},"SBCO":{"icaoId":"SBCO","flightCategory":"LIFR","rawOb":"METAR SBCO 061100Z VRB02KT 0200 R13///// R31/0375 FG SCT002 13/13 Q1018","temp":13,"dewp":13,"wdir":"VRB","wspd":2,"visib":0.12,"altim":1018,"clouds":[{"cover":"SCT","base":200}],"obsTime":1780743600},"SBDN":{"icaoId":"SBDN","flightCategory":"VFR","rawOb":"METAR SBDN 061100Z 08003KT CAVOK 16/11 Q1021","temp":16,"dewp":11,"wdir":80,"wspd":3,"visib":"6+","altim":1021,"clouds":[],"obsTime":1780743600},"SBES":{"icaoId":"SBES","flightCategory":"VFR","rawOb":"METAR SBES 061100Z 07002KT CAVOK 16/// Q1021","temp":null,"dewp":null,"wdir":70,"wspd":2,"visib":"6+","altim":1021,"clouds":[],"obsTime":1780743600},"SBGM":{"icaoId":"SBGM","flightCategory":"VFR","rawOb":"METAR SBGM 061200Z 11003KT CAVOK 32/06 Q1014","temp":32,"dewp":6,"wdir":110,"wspd":3,"visib":"6+","altim":1014,"clouds":[],"obsTime":1780747200},"SBIP":{"icaoId":"SBIP","flightCategory":"VFR","rawOb":"METAR SBIP 061100Z AUTO 18003KT 9999 SCT030 OVC037 15/13 Q1023","temp":15,"dewp":13,"wdir":180,"wspd":3,"visib":"6+","altim":1023,"clouds":[{"cover":"SCT","base":3000},{"cover":"OVC","base":3700}],"obsTime":1780743600},"SBKG":{"icaoId":"SBKG","flightCategory":"MVFR","rawOb":"METAR SBKG 061100Z 17007KT 8000 SCT010 BKN015 23/21 Q1017","temp":23,"dewp":21,"wdir":170,"wspd":7,"visib":4.97,"altim":1017,"clouds":[{"cover":"SCT","base":1000},{"cover":"BKN","base":1500}],"obsTime":1780743600},"SBPB":{"icaoId":"SBPB","flightCategory":"VFR","rawOb":"METAR SBPB 061100Z 17003KT 9999 FEW016 28/24 Q1013","temp":28,"dewp":24,"wdir":170,"wspd":3,"visib":"6+","altim":1013,"clouds":[{"cover":"FEW","base":1600}],"obsTime":1780743600},"SBPL":{"icaoId":"SBPL","flightCategory":"VFR","rawOb":"METAR SBPL 061100Z 13010KT 9999 SCT020 23/18 Q1018","temp":23,"dewp":18,"wdir":130,"wspd":10,"visib":"6+","altim":1018,"clouds":[{"cover":"SCT","base":2000}],"obsTime":1780743600},"SBPP":{"icaoId":"SBPP","flightCategory":"VFR","rawOb":"SPECI SBPP 061115Z 05006KT CAVOK 16/13 Q1021","temp":16,"dewp":13,"wdir":50,"wspd":6,"visib":"6+","altim":1021,"clouds":[],"obsTime":1780744500},"SBSC":{"icaoId":"SBSC","flightCategory":"MVFR","rawOb":"METAR SBSC 061100Z 04004KT 8000 FEW015 SCT050 15/14 Q1021","temp":15,"dewp":14,"wdir":40,"wspd":4,"visib":4.97,"altim":1021,"clouds":[{"cover":"FEW","base":1500},{"cover":"SCT","base":5000}],"obsTime":1780743600},"SBSJ":{"icaoId":"SBSJ","flightCategory":"MVFR","rawOb":"METAR SBSJ 061100Z 03004KT 6000 OVC011 14/12 Q1023","temp":14,"dewp":12,"wdir":30,"wspd":4,"visib":3.73,"altim":1023,"clouds":[{"cover":"OVC","base":1100}],"obsTime":1780743600},"SBSM":{"icaoId":"SBSM","flightCategory":"VFR","rawOb":"METAR SBSM 061100Z 00000KT 9999 FEW035 12/12 Q1018","temp":12,"dewp":12,"wdir":0,"wspd":0,"visib":"6+","altim":1018,"clouds":[{"cover":"FEW","base":3500}],"obsTime":1780743600},"SBSR":{"icaoId":"SBSR","flightCategory":"VFR","rawOb":"METAR SBSR 061100Z 12003KT CAVOK 16/11 Q1021","temp":16,"dewp":11,"wdir":120,"wspd":3,"visib":"6+","altim":1021,"clouds":[],"obsTime":1780743600},"SBTT":{"icaoId":"SBTT","flightCategory":"IFR","rawOb":"METAR SBTT 061100Z 22002KT 7000 BKN005 BKN090 23/23 Q1014","temp":23,"dewp":23,"wdir":220,"wspd":2,"visib":4.35,"altim":1014,"clouds":[{"cover":"BKN","base":500},{"cover":"BKN","base":9000}],"obsTime":1780743600},"SBTU":{"icaoId":"SBTU","flightCategory":"VFR","rawOb":"METAR SBTU 061100Z AUTO 19004KT 9999 // NCD ///// Q1015","temp":null,"dewp":null,"wdir":190,"wspd":4,"visib":"6+","altim":1015,"clouds":[],"obsTime":1780743600},"SBUY":{"icaoId":"SBUY","flightCategory":"LIFR","rawOb":"METAR SBUY 061100Z 00000KT 0800 FG BKN003 BKN070 23/22 Q1012","temp":23,"dewp":22,"wdir":0,"wspd":0,"visib":0.5,"altim":1012,"clouds":[{"cover":"BKN","base":300},{"cover":"BKN","base":7000}],"obsTime":1780743600},"SBTA":{"icaoId":"SBTA","flightCategory":"MVFR","rawOb":"METAR SBTA 061100Z 18003KT 150V210 8000 SCT012 BKN020 14/11 Q1022","temp":14,"dewp":11,"wdir":180,"wspd":3,"visib":4.97,"altim":1022,"clouds":[{"cover":"SCT","base":1200},{"cover":"BKN","base":2000}],"obsTime":1780743600},"SBJP":{"icaoId":"SBJP","flightCategory":"IFR","rawOb":"METAR SBJP 061100Z 17009KT 9999 BKN009 25/23 Q1015","temp":25,"dewp":23,"wdir":170,"wspd":9,"visib":"6+","altim":1015,"clouds":[{"cover":"BKN","base":900}],"obsTime":1780743600},"SBAN":{"icaoId":"SBAN","flightCategory":"VFR","rawOb":"METAR SBAN 061100Z 10006KT CAVOK 14/10 Q1023","temp":14,"dewp":10,"wdir":100,"wspd":6,"visib":"6+","altim":1023,"clouds":[],"obsTime":1780743600},"SBJV":{"icaoId":"SBJV","flightCategory":"VFR","rawOb":"METAR SBJV 061100Z 00000KT CAVOK 13/13 Q1021","temp":13,"dewp":13,"wdir":0,"wspd":0,"visib":"6+","altim":1021,"clouds":[],"obsTime":1780743600},"SBNM":{"icaoId":"SBNM","flightCategory":"VFR","rawOb":"METAR SBNM 061200Z AUTO 07005KT CAVOK 15/14 Q1020","temp":15,"dewp":14,"wdir":70,"wspd":5,"visib":"6+","altim":1020,"clouds":[],"obsTime":1780747200},"SBPF":{"icaoId":"SBPF","flightCategory":"VFR","rawOb":"METAR SBPF 061100Z 03009KT CAVOK 13/11 Q1021","temp":13,"dewp":11,"wdir":30,"wspd":9,"visib":"6+","altim":1021,"clouds":[],"obsTime":1780743600},"SBLE":{"icaoId":"SBLE","flightCategory":"VFR","rawOb":"METAR SBLE 061100Z AUTO 16006KT 120V200 CAVOK 20/18 Q1021","temp":20,"dewp":18,"wdir":160,"wspd":6,"visib":"6+","altim":1021,"clouds":[],"obsTime":1780743600},"SBIH":{"icaoId":"SBIH","flightCategory":"MVFR","rawOb":"METAR SBIH 061100Z 00000KT 5000 2000NE BR FEW015 SCT080 24/24 Q1012","temp":24,"dewp":24,"wdir":0,"wspd":0,"visib":3.11,"altim":1012,"clouds":[{"cover":"FEW","base":1500},{"cover":"SCT","base":8000}],"obsTime":1780743600},"SBAF":{"icaoId":"SBAF","flightCategory":"VFR","rawOb":"METAR SBAF 061100Z 00000KT 9999 FEW010 17/17 Q1021","temp":17,"dewp":17,"wdir":0,"wspd":0,"visib":"6+","altim":1021,"clouds":[{"cover":"FEW","base":1000}],"obsTime":1780743600},"SBGW":{"icaoId":"SBGW","flightCategory":"MVFR","rawOb":"METAR SBGW 061100Z VRB01KT 6000 SCT010 BKN015 BKN022 15/10 Q1022","temp":15,"dewp":10,"wdir":"VRB","wspd":1,"visib":3.73,"altim":1022,"clouds":[{"cover":"SCT","base":1000},{"cover":"BKN","base":1500},{"cover":"BKN","base":2200}],"obsTime":1780743600},"SBJR":{"icaoId":"SBJR","flightCategory":"VFR","rawOb":"METAR SBJR 061100Z 36005KT 9000 NSC 18/16 Q1020","temp":18,"dewp":16,"wdir":360,"wspd":5,"visib":5.59,"altim":1020,"clouds":[],"obsTime":1780743600},"SBLS":{"icaoId":"SBLS","flightCategory":"VFR","rawOb":"METAR SBLS 061100Z 13005KT CAVOK 13/10 Q1023","temp":13,"dewp":10,"wdir":130,"wspd":5,"visib":"6+","altim":1023,"clouds":[],"obsTime":1780743600},"SBST":{"icaoId":"SBST","flightCategory":"VFR","rawOb":"METAR SBST 061100Z 30002KT CAVOK 15/15 Q1020","temp":15,"dewp":15,"wdir":300,"wspd":2,"visib":"6+","altim":1020,"clouds":[],"obsTime":1780743600},"SBMT":{"icaoId":"SBMT","flightCategory":"IFR","rawOb":"METAR SBMT 061100Z 05003KT 360V100 4000 BR FEW009 BKN011 13/10 Q1022","temp":13,"dewp":10,"wdir":50,"wspd":3,"visib":2.49,"altim":1022,"clouds":[{"cover":"FEW","base":900},{"cover":"BKN","base":1100}],"obsTime":1780743600}}}