{"updated":1773524750,"count":84,"data":{"SBVT":{"icaoId":"SBVT","flightCategory":"MVFR","rawOb":"METAR SBVT 142000Z 19007KT 7000 -RA SCT020 BKN025 FEW030TCU OVC050 25/24 Q1008","temp":25,"dewp":24,"wdir":190,"wspd":7,"visib":4.35,"altim":1008,"clouds":[{"cover":"SCT","base":2000},{"cover":"BKN","base":2500},{"cover":"FEW","base":3000},{"cover":"OVC","base":5000}],"obsTime":1773518400},"SBME":{"icaoId":"SBME","flightCategory":"MVFR","rawOb":"METAR SBME 142000Z 22006KT 9999 BKN030 BKN070 28/23 Q1008","temp":28,"dewp":23,"wdir":220,"wspd":6,"visib":"6+","altim":1008,"clouds":[{"cover":"BKN","base":3000},{"cover":"BKN","base":7000}],"obsTime":1773518400},"SBFI":{"icaoId":"SBFI","flightCategory":"VFR","rawOb":"METAR SBFI 142000Z 18005KT 9999 FEW040 34/18 Q1006","temp":34,"dewp":18,"wdir":180,"wspd":5,"visib":"6+","altim":1006,"clouds":[{"cover":"FEW","base":4000}],"obsTime":1773518400},"SBCP":{"icaoId":"SBCP","flightCategory":"VFR","rawOb":"METAR SBCP 142000Z 22012KT 9999 FEW020 SCT030 BKN090 27/23 Q1008","temp":27,"dewp":23,"wdir":220,"wspd":12,"visib":"6+","altim":1008,"clouds":[{"cover":"FEW","base":2000},{"cover":"SCT","base":3000},{"cover":"BKN","base":9000}],"obsTime":1773518400},"SBMG":{"icaoId":"SBMG","flightCategory":"VFR","rawOb":"METAR SBMG 142000Z 35008KT 9999 VCSH FEW045 FEW050TCU SCT060 31/18 Q1008","temp":31,"dewp":18,"wdir":350,"wspd":8,"visib":"6+","altim":1008,"clouds":[{"cover":"FEW","base":4500},{"cover":"FEW","base":5000},{"cover":"SCT","base":6000}],"obsTime":1773518400},"SBFL":{"icaoId":"SBFL","flightCategory":"MVFR","rawOb":"METAR SBFL 142000Z 09002KT 9999 -SHRA BKN020 BKN090 24/23 Q1007 RETSRA","temp":24,"dewp":23,"wdir":90,"wspd":2,"visib":"6+","altim":1007,"clouds":[{"cover":"BKN","base":2000},{"cover":"BKN","base":9000}],"obsTime":1773518400},"SBMK":{"icaoId":"SBMK","flightCategory":"VFR","rawOb":"METAR SBMK 142000Z 05006KT CAVOK 25/22 Q1011","temp":25,"dewp":22,"wdir":50,"wspd":6,"visib":"6+","altim":1011,"clouds":[],"obsTime":1773518400},"SBCB":{"icaoId":"SBCB","flightCategory":"VFR","rawOb":"METAR SBCB 142000Z 22010KT 9999 FEW015 27/22 Q1009","temp":27,"dewp":22,"wdir":220,"wspd":10,"visib":"6+","altim":1009,"clouds":[{"cover":"FEW","base":1500}],"obsTime":1773518400},"SBMO":{"icaoId":"SBMO","flightCategory":"VFR","rawOb":"METAR SBMO 142000Z 10014KT 9999 FEW025 30/24 Q1009","temp":30,"dewp":24,"wdir":100,"wspd":14,"visib":"6+","altim":1009,"clouds":[{"cover":"FEW","base":2500}],"obsTime":1773518400},"SBMQ":{"icaoId":"SBMQ","flightCategory":"VFR","rawOb":"METAR SBMQ 142000Z 05006KT 9999 FEW015 27/24 Q1010","temp":27,"dewp":24,"wdir":50,"wspd":6,"visib":"6+","altim":1010,"clouds":[{"cover":"FEW","base":1500}],"obsTime":1773518400},"SBFZ":{"icaoId":"SBFZ","flightCategory":"VFR","rawOb":"METAR SBFZ 142000Z 10004KT 340V040 9999 FEW020 28/23 Q1009 RETS","temp":28,"dewp":23,"wdir":100,"wspd":4,"visib":"6+","altim":1009,"clouds":[{"cover":"FEW","base":2000}],"obsTime":1773518400},"SBCR":{"icaoId":"SBCR","flightCategory":"VFR","rawOb":"METAR SBCR 142000Z 02005KT 340V060 9999 FEW040 33/23 Q1005","temp":33,"dewp":23,"wdir":20,"wspd":5,"visib":"6+","altim":1005,"clouds":[{"cover":"FEW","base":4000}],"obsTime":1773518400},"SBNT":{"icaoId":"SBNT","flightCategory":"VFR","rawOb":"METAR SBNT 142000Z 10011KT 9999 FEW021 29/24 Q1010","temp":29,"dewp":24,"wdir":100,"wspd":11,"visib":"6+","altim":1010,"clouds":[{"cover":"FEW","base":2100}],"obsTime":1773518400},"SBPA":{"icaoId":"SBPA","flightCategory":"VFR","rawOb":"METAR SBPA 142000Z 22004KT 150V280 9999 FEW040 29/17 Q1007","temp":29,"dewp":17,"wdir":220,"wspd":4,"visib":"6+","altim":1007,"clouds":[{"cover":"FEW","base":4000}],"obsTime":1773518400},"SBGL":{"icaoId":"SBGL","flightCategory":"VFR","rawOb":"METAR SBGL 142000Z 21011KT 9999 FEW042 28/19 Q1009","temp":28,"dewp":19,"wdir":210,"wspd":11,"visib":"6+","altim":1009,"clouds":[{"cover":"FEW","base":4200}],"obsTime":1773518400},"SBPJ":{"icaoId":"SBPJ","flightCategory":"VFR","rawOb":"METAR SBPJ 142000Z 34005KT 9999 SCT030 FEW035TCU 32/24 Q1008","temp":32,"dewp":24,"wdir":340,"wspd":5,"visib":"6+","altim":1008,"clouds":[{"cover":"SCT","base":3000},{"cover":"FEW","base":3500}],"obsTime":1773518400},"SBBR":{"icaoId":"SBBR","flightCategory":"VFR","rawOb":"METAR SBBR 142000Z 33009KT 9999 FEW030 FEW040TCU BKN100 24/18 Q1014","temp":24,"dewp":18,"wdir":330,"wspd":9,"visib":"6+","altim":1014,"clouds":[{"cover":"FEW","base":3000},{"cover":"FEW","base":4000},{"cover":"BKN","base":10000}],"obsTime":1773518400},"SBPV":{"icaoId":"SBPV","flightCategory":"VFR","rawOb":"METAR SBPV 142000Z 01003KT 9999 SCT025 FEW040TCU 32/24 Q1006","temp":32,"dewp":24,"wdir":10,"wspd":3,"visib":"6+","altim":1006,"clouds":[{"cover":"SCT","base":2500},{"cover":"FEW","base":4000}],"obsTime":1773518400},"SBGO":{"icaoId":"SBGO","flightCategory":"MVFR","rawOb":"METAR SBGO 142000Z 28008KT 9999 VCSH BKN025 FEW040TCU BKN100 26/22 Q1012","temp":26,"dewp":22,"wdir":280,"wspd":8,"visib":"6+","altim":1012,"clouds":[{"cover":"BKN","base":2500},{"cover":"FEW","base":4000},{"cover":"BKN","base":10000}],"obsTime":1773518400},"SBRB":{"icaoId":"SBRB","flightCategory":"MVFR","rawOb":"METAR SBRB 142000Z 35003KT 8000 VCSH BKN025 FEW030TCU BKN100 29/25 Q1008","temp":29,"dewp":25,"wdir":350,"wspd":3,"visib":4.97,"altim":1008,"clouds":[{"cover":"BKN","base":2500},{"cover":"FEW","base":3000},{"cover":"BKN","base":10000}],"obsTime":1773518400},"SBCF":{"icaoId":"SBCF","flightCategory":"VFR","rawOb":"METAR SBCF 142000Z 34003KT 9999 VCSH BKN035 FEW040TCU BKN080 23/19 Q1013","temp":23,"dewp":19,"wdir":340,"wspd":3,"visib":"6+","altim":1013,"clouds":[{"cover":"BKN","base":3500},{"cover":"FEW","base":4000},{"cover":"BKN","base":8000}],"obsTime":1773518400},"SBGR":{"icaoId":"SBGR","flightCategory":"VFR","rawOb":"METAR SBGR 142000Z 11007KT CAVOK 26/19 Q1012","temp":26,"dewp":19,"wdir":110,"wspd":7,"visib":"6+","altim":1012,"clouds":[],"obsTime":1773518400},"SBRF":{"icaoId":"SBRF","flightCategory":"VFR","rawOb":"METAR SBRF 142000Z 07008KT 9999 FEW025 29/24 Q1009","temp":29,"dewp":24,"wdir":70,"wspd":8,"visib":"6+","altim":1009,"clouds":[{"cover":"FEW","base":2500}],"obsTime":1773518400},"SBSG":{"icaoId":"SBSG","flightCategory":"VFR","rawOb":"METAR SBSG 142000Z 09013KT 9999 SCT027 29/24 Q1010","temp":29,"dewp":24,"wdir":90,"wspd":13,"visib":"6+","altim":1010,"clouds":[{"cover":"SCT","base":2700}],"obsTime":1773518400},"SBCT":{"icaoId":"SBCT","flightCategory":"VFR","rawOb":"METAR SBCT 142000Z 22007KT 170V250 9999 SCT045 27/14 Q1012","temp":27,"dewp":14,"wdir":220,"wspd":7,"visib":"6+","altim":1012,"clouds":[{"cover":"SCT","base":4500}],"obsTime":1773518400},"SBHT":{"icaoId":"SBHT","flightCategory":"MVFR","rawOb":"METAR SBHT 142000Z 09003KT 9999 BKN025 BKN100 29/24 Q1008","temp":29,"dewp":24,"wdir":90,"wspd":3,"visib":"6+","altim":1008,"clouds":[{"cover":"BKN","base":2500},{"cover":"BKN","base":10000}],"obsTime":1773518400},"SBSL":{"icaoId":"SBSL","flightCategory":"VFR","rawOb":"METAR SBSL 142000Z 01008KT 340V040 9000 -RA SCT018 FEW025TCU BKN070 27/25 Q1009 RETS","temp":27,"dewp":25,"wdir":10,"wspd":8,"visib":5.59,"altim":1009,"clouds":[{"cover":"SCT","base":1800},{"cover":"FEW","base":2500},{"cover":"BKN","base":7000}],"obsTime":1773518400},"SBIL":{"icaoId":"SBIL","flightCategory":"VFR","rawOb":"METAR SBIL 142000Z 06007KT CAVOK 30/26 Q1008","temp":30,"dewp":26,"wdir":60,"wspd":7,"visib":"6+","altim":1008,"clouds":[],"obsTime":1773518400},"SBSN":{"icaoId":"SBSN","flightCategory":"VFR","rawOb":"METAR SBSN 142000Z 05004KT 9999 SCT017 FEW023TCU 30/24 Q1007","temp":30,"dewp":24,"wdir":50,"wspd":4,"visib":"6+","altim":1007,"clouds":[{"cover":"SCT","base":1700},{"cover":"FEW","base":2300}],"obsTime":1773518400},"SBSP":{"icaoId":"SBSP","flightCategory":"VFR","rawOb":"METAR SBSP 142000Z 17010KT 9999 FEW040 25/19 Q1013","temp":25,"dewp":19,"wdir":170,"wspd":10,"visib":"6+","altim":1013,"clouds":[{"cover":"FEW","base":4000}],"obsTime":1773518400},"SBBV":{"icaoId":"SBBV","flightCategory":"VFR","rawOb":"METAR SBBV 142000Z 14006KT 9999 SCT040 FEW045TCU BKN100 33/20 Q1008","temp":33,"dewp":20,"wdir":140,"wspd":6,"visib":"6+","altim":1008,"clouds":[{"cover":"SCT","base":4000},{"cover":"FEW","base":4500},{"cover":"BKN","base":10000}],"obsTime":1773518400},"SBCZ":{"icaoId":"SBCZ","flightCategory":"VFR","rawOb":"METAR SBCZ 142000Z 00000KT 9999 SCT030 FEW030TCU 26/24 Q1007 RETS","temp":26,"dewp":24,"wdir":0,"wspd":0,"visib":"6+","altim":1007,"clouds":[{"cover":"SCT","base":3000},{"cover":"FEW","base":3000}],"obsTime":1773518400},"SBSV":{"icaoId":"SBSV","flightCategory":"VFR","rawOb":"METAR SBSV 142000Z 07011KT CAVOK 29/23 Q1008","temp":29,"dewp":23,"wdir":70,"wspd":11,"visib":"6+","altim":1008,"clouds":[],"obsTime":1773518400},"SBJU":{"icaoId":"SBJU","flightCategory":"VFR","rawOb":"METAR SBJU 142000Z 12005KT 9999 SCT020 28/22 Q1011","temp":28,"dewp":22,"wdir":120,"wspd":5,"visib":"6+","altim":1011,"clouds":[{"cover":"SCT","base":2000}],"obsTime":1773518400},"SBTE":{"icaoId":"SBTE","flightCategory":"VFR","rawOb":"METAR SBTE 142000Z 23008KT 9999 FEW025 SCT100 32/25 Q1007","temp":32,"dewp":25,"wdir":230,"wspd":8,"visib":"6+","altim":1007,"clouds":[{"cover":"FEW","base":2500},{"cover":"SCT","base":10000}],"obsTime":1773518400},"SBMA":{"icaoId":"SBMA","flightCategory":"VFR","rawOb":"METAR SBMA 142000Z 15004KT 9999 FEW025TCU SCT080 30/25 Q1008","temp":30,"dewp":25,"wdir":150,"wspd":4,"visib":"6+","altim":1008,"clouds":[{"cover":"FEW","base":2500},{"cover":"SCT","base":8000}],"obsTime":1773518400},"SBUL":{"icaoId":"SBUL","flightCategory":"MVFR","rawOb":"METAR SBUL 142000Z 08004KT 9999 2500N -RA BKN030 FEW050TCU 22/18 Q1013 RERA","temp":22,"dewp":18,"wdir":80,"wspd":4,"visib":"6+","altim":1013,"clouds":[{"cover":"BKN","base":3000},{"cover":"FEW","base":5000}],"obsTime":1773518400},"SBUR":{"icaoId":"SBUR","flightCategory":"VFR","rawOb":"METAR SBUR 142000Z 32010KT 9999 -RA BKN035 FEW037TCU SCT100 23/18 Q1012","temp":23,"dewp":18,"wdir":320,"wspd":10,"visib":"6+","altim":1012,"clouds":[{"cover":"BKN","base":3500},{"cover":"FEW","base":3700},{"cover":"SCT","base":10000}],"obsTime":1773518400},"SBEG":{"icaoId":"SBEG","flightCategory":"VFR","rawOb":"METAR SBEG 142000Z VRB02KT 9999 SCT025 FEW030TCU 33/23 Q1007","temp":33,"dewp":23,"wdir":"VRB","wspd":2,"visib":"6+","altim":1007,"clouds":[{"cover":"SCT","base":2500},{"cover":"FEW","base":3000}],"obsTime":1773518400},"SBKP":{"icaoId":"SBKP","flightCategory":"VFR","rawOb":"METAR SBKP 142000Z 26007KT CAVOK 30/16 Q1011","temp":30,"dewp":16,"wdir":260,"wspd":7,"visib":"6+","altim":1011,"clouds":[],"obsTime":1773518400},"SBBE":{"icaoId":"SBBE","flightCategory":"MVFR","rawOb":"METAR SBBE 142000Z 03008KT 9999 BKN025 FEW030TCU 27/24 Q1010 RETS","temp":27,"dewp":24,"wdir":30,"wspd":8,"visib":"6+","altim":1010,"clouds":[{"cover":"BKN","base":2500},{"cover":"FEW","base":3000}],"obsTime":1773518400},"SBCG":{"icaoId":"SBCG","flightCategory":"VFR","rawOb":"METAR SBCG 142000Z VRB03KT 9999 VCSH FEW045TCU SCT055 33/18 Q1009","temp":33,"dewp":18,"wdir":"VRB","wspd":3,"visib":"6+","altim":1009,"clouds":[{"cover":"FEW","base":4500},{"cover":"SCT","base":5500}],"obsTime":1773518400},"SBLO":{"icaoId":"SBLO","flightCategory":"VFR","rawOb":"METAR SBLO 142000Z 05005KT 360V090 9999 FEW040 FEW050TCU SCT100 28/19 Q1009","temp":28,"dewp":19,"wdir":50,"wspd":5,"visib":"6+","altim":1009,"clouds":[{"cover":"FEW","base":4000},{"cover":"FEW","base":5000},{"cover":"SCT","base":10000}],"obsTime":1773518400},"SBAT":{"icaoId":"SBAT","flightCategory":"VFR","rawOb":"METAR SBAT 142000Z 01003KT 9999 SCT025 29/24 Q1009","temp":29,"dewp":24,"wdir":10,"wspd":3,"visib":"6+","altim":1009,"clouds":[{"cover":"SCT","base":2500}],"obsTime":1773518400},"SBCJ":{"icaoId":"SBCJ","flightCategory":"VFR","rawOb":"METAR SBCJ 142000Z 00000KT 9999 SCT010 SCT030 26/23 Q1013","temp":26,"dewp":23,"wdir":0,"wspd":0,"visib":"6+","altim":1013,"clouds":[{"cover":"SCT","base":1000},{"cover":"SCT","base":3000}],"obsTime":1773518400},"SBAX":{"icaoId":"SBAX","flightCategory":"VFR","rawOb":"METAR SBAX 142000Z AUTO 07006KT 040V100 9999 BKN038 22/20 Q1013","temp":22,"dewp":20,"wdir":70,"wspd":6,"visib":"6+","altim":1013,"clouds":[{"cover":"BKN","base":3800}],"obsTime":1773518400},"SBVH":{"icaoId":"SBVH","flightCategory":"VFR","rawOb":"METAR SBVH 142000Z 33004KT 9999 BKN035 FEW035TCU SCT080 28/23 Q1010","temp":28,"dewp":23,"wdir":330,"wspd":4,"visib":"6+","altim":1010,"clouds":[{"cover":"BKN","base":3500},{"cover":"FEW","base":3500},{"cover":"SCT","base":8000}],"obsTime":1773518400},"SBBH":{"icaoId":"SBBH","flightCategory":"MVFR","rawOb":"METAR SBBH 142000Z 30004KT 9999 BKN030 FEW035TCU SCT090 26/21 Q1012","temp":26,"dewp":21,"wdir":300,"wspd":4,"visib":"6+","altim":1012,"clouds":[{"cover":"BKN","base":3000},{"cover":"FEW","base":3500},{"cover":"SCT","base":9000}],"obsTime":1773518400},"SBBU":{"icaoId":"SBBU","flightCategory":"VFR","rawOb":"METAR SBBU 142000Z 18002KT 9999 FEW040 32/18 Q1010","temp":32,"dewp":18,"wdir":180,"wspd":2,"visib":"6+","altim":1010,"clouds":[{"cover":"FEW","base":4000}],"obsTime":1773518400},"SBCA":{"icaoId":"SBCA","flightCategory":"VFR","rawOb":"METAR SBCA 142000Z 30006KT 9999 FEW030 30/16 Q1011","temp":30,"dewp":16,"wdir":300,"wspd":6,"visib":"6+","altim":1011,"clouds":[{"cover":"FEW","base":3000}],"obsTime":1773518400},"SBCC":{"icaoId":"SBCC","flightCategory":"VFR","rawOb":"METAR SBCC 142000Z 29006KT 9999 SCT020 BKN080 26/21 Q1010","temp":26,"dewp":21,"wdir":290,"wspd":6,"visib":"6+","altim":1010,"clouds":[{"cover":"SCT","base":2000},{"cover":"BKN","base":8000}],"obsTime":1773518400},"SBCO":{"icaoId":"SBCO","flightCategory":"VFR","rawOb":"METAR SBCO 142000Z VRB05KT CAVOK 30/17 Q1007","temp":30,"dewp":17,"wdir":"VRB","wspd":5,"visib":"6+","altim":1007,"clouds":[],"obsTime":1773518400},"SBDN":{"icaoId":"SBDN","flightCategory":"VFR","rawOb":"METAR SBDN 142000Z 33003KT CAVOK 34/17 Q1009","temp":34,"dewp":17,"wdir":330,"wspd":3,"visib":"6+","altim":1009,"clouds":[],"obsTime":1773518400},"SBES":{"icaoId":"SBES","flightCategory":"VFR","rawOb":"METAR SBES 142000Z 22009KT 190V250 9999 SCT015 25/// Q1009","temp":null,"dewp":null,"wdir":220,"wspd":9,"visib":"6+","altim":1009,"clouds":[{"cover":"SCT","base":1500}],"obsTime":1773518400},"SBIP":{"icaoId":"SBIP","flightCategory":"VFR","rawOb":"METAR SBIP 142000Z AUTO 10003KT 060V150 9999 VCTS //////CB 26/24 Q1009","temp":26,"dewp":24,"wdir":100,"wspd":3,"visib":"6+","altim":1009,"clouds":[],"obsTime":1773518400},"SBKG":{"icaoId":"SBKG","flightCategory":"VFR","rawOb":"METAR SBKG 142000Z 09011KT 9999 FEW026 SCT080 29/20 Q1011","temp":29,"dewp":20,"wdir":90,"wspd":11,"visib":"6+","altim":1011,"clouds":[{"cover":"FEW","base":2600},{"cover":"SCT","base":8000}],"obsTime":1773518400},"SBOI":{"icaoId":"SBOI","flightCategory":"VFR","rawOb":"METAR SBOI 142000Z AUTO 02003KT 340V060 9999 -RA FEW029 SCT033 25/24 Q1011","temp":25,"dewp":24,"wdir":20,"wspd":3,"visib":"6+","altim":1011,"clouds":[{"cover":"FEW","base":2900},{"cover":"SCT","base":3300}],"obsTime":1773518400},"SBPB":{"icaoId":"SBPB","flightCategory":"MVFR","rawOb":"METAR SBPB 142000Z 04010KT 9999 BKN016 BKN090 29/25 Q1009","temp":29,"dewp":25,"wdir":40,"wspd":10,"visib":"6+","altim":1009,"clouds":[{"cover":"BKN","base":1600},{"cover":"BKN","base":9000}],"obsTime":1773518400},"SBPL":{"icaoId":"SBPL","flightCategory":"VFR","rawOb":"METAR SBPL 142000Z 09002KT 9999 FEW030 34/19 Q1008","temp":34,"dewp":19,"wdir":90,"wspd":2,"visib":"6+","altim":1008,"clouds":[{"cover":"FEW","base":3000}],"obsTime":1773518400},"SBPP":{"icaoId":"SBPP","flightCategory":"VFR","rawOb":"METAR SBPP 142000Z 26010KT 9999 FEW025 32/15 Q1009","temp":32,"dewp":15,"wdir":260,"wspd":10,"visib":"6+","altim":1009,"clouds":[{"cover":"FEW","base":2500}],"obsTime":1773518400},"SBPS":{"icaoId":"SBPS","flightCategory":"VFR","rawOb":"METAR SBPS 142000Z 03013KT 9999 SCT020 29/25 Q1007","temp":29,"dewp":25,"wdir":30,"wspd":13,"visib":"6+","altim":1007,"clouds":[{"cover":"SCT","base":2000}],"obsTime":1773518400},"SBSC":{"icaoId":"SBSC","flightCategory":"VFR","rawOb":"METAR SBSC 142000Z 20007KT 9999 FEW015 SCT045 26/22 Q1009","temp":26,"dewp":22,"wdir":200,"wspd":7,"visib":"6+","altim":1009,"clouds":[{"cover":"FEW","base":1500},{"cover":"SCT","base":4500}],"obsTime":1773518400},"SBSJ":{"icaoId":"SBSJ","flightCategory":"VFR","rawOb":"METAR SBSJ 142000Z 12010KT 9999 FEW030 27/20 Q1011","temp":27,"dewp":20,"wdir":120,"wspd":10,"visib":"6+","altim":1011,"clouds":[{"cover":"FEW","base":3000}],"obsTime":1773518400},"SBSM":{"icaoId":"SBSM","flightCategory":"VFR","rawOb":"METAR SBSM 142000Z VRB02KT 9999 FEW045 29/16 Q1007","temp":29,"dewp":16,"wdir":"VRB","wspd":2,"visib":"6+","altim":1007,"clouds":[{"cover":"FEW","base":4500}],"obsTime":1773518400},"SBSR":{"icaoId":"SBSR","flightCategory":"VFR","rawOb":"METAR SBSR 142000Z 26007KT 220V360 9999 SCT025 31/17 Q1010","temp":31,"dewp":17,"wdir":260,"wspd":7,"visib":"6+","altim":1010,"clouds":[{"cover":"SCT","base":2500}],"obsTime":1773518400},"SBTF":{"icaoId":"SBTF","flightCategory":"VFR","rawOb":"METAR SBTF 142000Z 05005KT 9999 SCT020 FEW025TCU 34/26 Q1006","temp":34,"dewp":26,"wdir":50,"wspd":5,"visib":"6+","altim":1006,"clouds":[{"cover":"SCT","base":2000},{"cover":"FEW","base":2500}],"obsTime":1773518400},"SBTT":{"icaoId":"SBTT","flightCategory":"VFR","rawOb":"METAR SBTT 142000Z 13005KT 100V220 9999 FEW030 31/23 Q1006","temp":31,"dewp":23,"wdir":130,"wspd":5,"visib":"6+","altim":1006,"clouds":[{"cover":"FEW","base":3000}],"obsTime":1773518400},"SBUY":{"icaoId":"SBUY","flightCategory":"MVFR","rawOb":"METAR SBUY 142000Z 07012KT 9999 BKN025 FEW035TCU BKN100 31/24 Q1006","temp":31,"dewp":24,"wdir":70,"wspd":12,"visib":"6+","altim":1006,"clouds":[{"cover":"BKN","base":2500},{"cover":"FEW","base":3500},{"cover":"BKN","base":10000}],"obsTime":1773518400},"SBAR":{"icaoId":"SBAR","flightCategory":"VFR","rawOb":"METAR SBAR 142000Z 08011KT 9999 FEW025 30/24 Q1008","temp":30,"dewp":24,"wdir":80,"wspd":11,"visib":"6+","altim":1008,"clouds":[{"cover":"FEW","base":2500}],"obsTime":1773518400},"SBBQ":{"icaoId":"SBBQ","flightCategory":"VFR","rawOb":"METAR SBBQ 142000Z 09008KT 9999 -SHRA SCT035 FEW040TCU 22/20 Q1015","temp":22,"dewp":20,"wdir":90,"wspd":8,"visib":"6+","altim":1015,"clouds":[{"cover":"SCT","base":3500},{"cover":"FEW","base":4000}],"obsTime":1773518400},"SBAF":{"icaoId":"SBAF","flightCategory":"VFR","rawOb":"METAR SBAF 142000Z 20011KT 9999 FEW020 SCT050 27/22 Q1009","temp":27,"dewp":22,"wdir":200,"wspd":11,"visib":"6+","altim":1009,"clouds":[{"cover":"FEW","base":2000},{"cover":"SCT","base":5000}],"obsTime":1773518400},"SBAN":{"icaoId":"SBAN","flightCategory":"VFR","rawOb":"METAR SBAN 142000Z 33003KT 9999 SCT020 FEW035TCU SCT100 23/20 Q1016","temp":23,"dewp":20,"wdir":330,"wspd":3,"visib":"6+","altim":1016,"clouds":[{"cover":"SCT","base":2000},{"cover":"FEW","base":3500},{"cover":"SCT","base":10000}],"obsTime":1773518400},"SBGW":{"icaoId":"SBGW","flightCategory":"VFR","rawOb":"METAR SBGW 142000Z 27005KT 230V300 9999 SCT035 29/17 Q1010","temp":29,"dewp":17,"wdir":270,"wspd":5,"visib":"6+","altim":1010,"clouds":[{"cover":"SCT","base":3500}],"obsTime":1773518400},"SBIH":{"icaoId":"SBIH","flightCategory":"VFR","rawOb":"METAR SBIH 142000Z 00000KT 9999 FEW016 FEW025TCU 32/24 Q1006","temp":32,"dewp":24,"wdir":0,"wspd":0,"visib":"6+","altim":1006,"clouds":[{"cover":"FEW","base":1600},{"cover":"FEW","base":2500}],"obsTime":1773518400},"SBJP":{"icaoId":"SBJP","flightCategory":"VFR","rawOb":"METAR SBJP 142000Z 07010KT 9999 FEW030 29/23 Q1010","temp":29,"dewp":23,"wdir":70,"wspd":10,"visib":"6+","altim":1010,"clouds":[{"cover":"FEW","base":3000}],"obsTime":1773518400},"SBJR":{"icaoId":"SBJR","flightCategory":"VFR","rawOb":"METAR SBJR 142000Z 22008KT 9999 FEW020 SCT030 28/23 Q1009","temp":28,"dewp":23,"wdir":220,"wspd":8,"visib":"6+","altim":1009,"clouds":[{"cover":"FEW","base":2000},{"cover":"SCT","base":3000}],"obsTime":1773518400},"SBJV":{"icaoId":"SBJV","flightCategory":"VFR","rawOb":"METAR SBJV 142000Z 04007KT 9999 FEW030 29/23 Q1007","temp":29,"dewp":23,"wdir":40,"wspd":7,"visib":"6+","altim":1007,"clouds":[{"cover":"FEW","base":3000}],"obsTime":1773518400},"SBLE":{"icaoId":"SBLE","flightCategory":"VFR","rawOb":"METAR SBLE 142000Z AUTO 17008G18KT 130V200 CAVOK 30/21 Q1011","temp":30,"dewp":21,"wdir":170,"wspd":8,"visib":"6+","altim":1011,"clouds":[],"obsTime":1773518400},"SBLS":{"icaoId":"SBLS","flightCategory":"VFR","rawOb":"METAR SBLS 142000Z 05003KT 350V080 9999 TS FEW013 SCT024 FEW040CB BKN090 23/21 Q1012 RESHRA","temp":23,"dewp":21,"wdir":50,"wspd":3,"visib":"6+","altim":1012,"clouds":[{"cover":"FEW","base":1300},{"cover":"SCT","base":2400},{"cover":"FEW","base":4000},{"cover":"BKN","base":9000}],"obsTime":1773518400},"SBMT":{"icaoId":"SBMT","flightCategory":"VFR","rawOb":"METAR SBMT 142000Z 14006KT CAVOK 26/19 Q1011","temp":26,"dewp":19,"wdir":140,"wspd":6,"visib":"6+","altim":1011,"clouds":[],"obsTime":1773518400},"SBPF":{"icaoId":"SBPF","flightCategory":"VFR","rawOb":"SPECI SBPF 142005Z 25007KT 9999 FEW045 27/14 Q1011","temp":27,"dewp":14,"wdir":250,"wspd":7,"visib":"6+","altim":1011,"clouds":[{"cover":"FEW","base":4500}],"obsTime":1773518700},"SBST":{"icaoId":"SBST","flightCategory":"VFR","rawOb":"METAR SBST 142000Z 16007KT 9999 FEW027 27/20 Q1009","temp":27,"dewp":20,"wdir":160,"wspd":7,"visib":"6+","altim":1009,"clouds":[{"cover":"FEW","base":2700}],"obsTime":1773518400},"SBTA":{"icaoId":"SBTA","flightCategory":"VFR","rawOb":"METAR SBTA 142000Z 16010KT 9999 FEW035 FEW040TCU 28/18 Q1010","temp":28,"dewp":18,"wdir":160,"wspd":10,"visib":"6+","altim":1010,"clouds":[{"cover":"FEW","base":3500},{"cover":"FEW","base":4000}],"obsTime":1773518400},"SBTC":{"icaoId":"SBTC","flightCategory":"VFR","rawOb":"METAR SBTC 142000Z 03006KT 9999 FEW020 28/24 Q1008","temp":28,"dewp":24,"wdir":30,"wspd":6,"visib":"6+","altim":1008,"clouds":[{"cover":"FEW","base":2000}],"obsTime":1773518400}}}