{"updated":1776880804,"count":84,"data":{"SBLO":{"icaoId":"SBLO","flightCategory":"VFR","rawOb":"METAR SBLO 221700Z 15006KT CAVOK 27/16 Q1017","temp":27,"dewp":16,"wdir":150,"wspd":6,"visib":"6+","altim":1017,"clouds":[],"obsTime":1776877200},"SBMA":{"icaoId":"SBMA","flightCategory":"VFR","rawOb":"METAR SBMA 221700Z 07007KT 9999 SCT023 32/23 Q1010","temp":32,"dewp":23,"wdir":70,"wspd":7,"visib":"6+","altim":1010,"clouds":[{"cover":"SCT","base":2300}],"obsTime":1776877200},"SBCG":{"icaoId":"SBCG","flightCategory":"VFR","rawOb":"METAR SBCG 221700Z 14005KT 100V180 CAVOK 30/16 Q1016","temp":30,"dewp":16,"wdir":140,"wspd":5,"visib":"6+","altim":1016,"clouds":[],"obsTime":1776877200},"SBFI":{"icaoId":"SBFI","flightCategory":"VFR","rawOb":"METAR SBFI 221700Z 20004KT 9999 SCT025 30/21 Q1015","temp":30,"dewp":21,"wdir":200,"wspd":4,"visib":"6+","altim":1015,"clouds":[{"cover":"SCT","base":2500}],"obsTime":1776877200},"SBVT":{"icaoId":"SBVT","flightCategory":"VFR","rawOb":"METAR SBVT 221700Z 15010KT 9999 FEW040 28/22 Q1015","temp":28,"dewp":22,"wdir":150,"wspd":10,"visib":"6+","altim":1015,"clouds":[{"cover":"FEW","base":4000}],"obsTime":1776877200},"SBFL":{"icaoId":"SBFL","flightCategory":"VFR","rawOb":"METAR SBFL 221700Z 35010KT 280V010 9999 FEW025 29/19 Q1014","temp":29,"dewp":19,"wdir":350,"wspd":10,"visib":"6+","altim":1014,"clouds":[{"cover":"FEW","base":2500}],"obsTime":1776877200},"SBCP":{"icaoId":"SBCP","flightCategory":"VFR","rawOb":"METAR SBCP 221700Z 09005KT 9999 SCT025 31/18 Q1015","temp":31,"dewp":18,"wdir":90,"wspd":5,"visib":"6+","altim":1015,"clouds":[{"cover":"SCT","base":2500}],"obsTime":1776877200},"SBMO":{"icaoId":"SBMO","flightCategory":"MVFR","rawOb":"METAR SBMO 221700Z 20007KT 9999 VCSH BKN025 SCT060 28/24 Q1011","temp":28,"dewp":24,"wdir":200,"wspd":7,"visib":"6+","altim":1011,"clouds":[{"cover":"BKN","base":2500},{"cover":"SCT","base":6000}],"obsTime":1776877200},"SBFZ":{"icaoId":"SBFZ","flightCategory":"VFR","rawOb":"METAR SBFZ 221700Z 15007KT 9999 SCT025 FEW030TCU 31/23 Q1009","temp":31,"dewp":23,"wdir":150,"wspd":7,"visib":"6+","altim":1009,"clouds":[{"cover":"SCT","base":2500},{"cover":"FEW","base":3000}],"obsTime":1776877200},"SBGL":{"icaoId":"SBGL","flightCategory":"VFR","rawOb":"METAR SBGL 221700Z 13009KT 9999 FEW030 28/19 Q1015","temp":28,"dewp":19,"wdir":130,"wspd":9,"visib":"6+","altim":1015,"clouds":[{"cover":"FEW","base":3000}],"obsTime":1776877200},"SBBV":{"icaoId":"SBBV","flightCategory":"IFR","rawOb":"SPECI SBBV 221609Z 28007KT 9999 -RA BKN005 BKN025 FEW045TCU BKN100 24/24 Q1014","temp":24,"dewp":24,"wdir":280,"wspd":7,"visib":"6+","altim":1014,"clouds":[{"cover":"BKN","base":500},{"cover":"BKN","base":2500},{"cover":"FEW","base":4500},{"cover":"BKN","base":10000}],"obsTime":1776874140},"SBPA":{"icaoId":"SBPA","flightCategory":"VFR","rawOb":"METAR SBPA 221700Z 27008KT 230V310 9999 FEW030 29/20 Q1014","temp":29,"dewp":20,"wdir":270,"wspd":8,"visib":"6+","altim":1014,"clouds":[{"cover":"FEW","base":3000}],"obsTime":1776877200},"SBBR":{"icaoId":"SBBR","flightCategory":"VFR","rawOb":"METAR SBBR 221700Z 08009KT 060V120 9999 SCT040 28/14 Q1018","temp":28,"dewp":14,"wdir":80,"wspd":9,"visib":"6+","altim":1018,"clouds":[{"cover":"SCT","base":4000}],"obsTime":1776877200},"SBPJ":{"icaoId":"SBPJ","flightCategory":"VFR","rawOb":"METAR SBPJ 221700Z 10006KT 9999 FEW023 SCT045 32/22 Q1012","temp":32,"dewp":22,"wdir":100,"wspd":6,"visib":"6+","altim":1012,"clouds":[{"cover":"FEW","base":2300},{"cover":"SCT","base":4500}],"obsTime":1776877200},"SBPV":{"icaoId":"SBPV","flightCategory":"MVFR","rawOb":"METAR SBPV 221700Z 18005KT 140V240 9999 BKN023 FEW025TCU BKN100 28/26 Q1011","temp":28,"dewp":26,"wdir":180,"wspd":5,"visib":"6+","altim":1011,"clouds":[{"cover":"BKN","base":2300},{"cover":"FEW","base":2500},{"cover":"BKN","base":10000}],"obsTime":1776877200},"SBGO":{"icaoId":"SBGO","flightCategory":"VFR","rawOb":"METAR SBGO 221700Z 31003KT 9999 SCT049 FEW053TCU 31/19 Q1016","temp":31,"dewp":19,"wdir":310,"wspd":3,"visib":"6+","altim":1016,"clouds":[{"cover":"SCT","base":4900},{"cover":"FEW","base":5300}],"obsTime":1776877200},"SBGR":{"icaoId":"SBGR","flightCategory":"VFR","rawOb":"METAR SBGR 221700Z 12006KT 9999 SCT045 26/16 Q1018","temp":26,"dewp":16,"wdir":120,"wspd":6,"visib":"6+","altim":1018,"clouds":[{"cover":"SCT","base":4500}],"obsTime":1776877200},"SBRB":{"icaoId":"SBRB","flightCategory":"VFR","rawOb":"METAR SBRB 221700Z 32003KT 9999 SCT020 31/23 Q1012","temp":31,"dewp":23,"wdir":320,"wspd":3,"visib":"6+","altim":1012,"clouds":[{"cover":"SCT","base":2000}],"obsTime":1776877200},"SBRF":{"icaoId":"SBRF","flightCategory":"VFR","rawOb":"METAR SBRF 221700Z 13009KT 090V160 9999 FEW025 30/22 Q1010","temp":30,"dewp":22,"wdir":130,"wspd":9,"visib":"6+","altim":1010,"clouds":[{"cover":"FEW","base":2500}],"obsTime":1776877200},"SBCR":{"icaoId":"SBCR","flightCategory":"VFR","rawOb":"METAR SBCR 221700Z VRB03KT 9999 FEW030 31/24 Q1012","temp":31,"dewp":24,"wdir":"VRB","wspd":3,"visib":"6+","altim":1012,"clouds":[{"cover":"FEW","base":3000}],"obsTime":1776877200},"SBCB":{"icaoId":"SBCB","flightCategory":"VFR","rawOb":"METAR SBCB 221700Z 08009KT CAVOK 27/18 Q1016","temp":27,"dewp":18,"wdir":80,"wspd":9,"visib":"6+","altim":1016,"clouds":[],"obsTime":1776877200},"SBSG":{"icaoId":"SBSG","flightCategory":"VFR","rawOb":"METAR SBSG 221700Z 12006KT 090V160 9999 BKN036 31/23 Q1009","temp":31,"dewp":23,"wdir":120,"wspd":6,"visib":"6+","altim":1009,"clouds":[{"cover":"BKN","base":3600}],"obsTime":1776877200},"SBCT":{"icaoId":"SBCT","flightCategory":"VFR","rawOb":"METAR SBCT 221700Z 11004KT 030V180 CAVOK 25/12 Q1019","temp":25,"dewp":12,"wdir":110,"wspd":4,"visib":"6+","altim":1019,"clouds":[],"obsTime":1776877200},"SBSL":{"icaoId":"SBSL","flightCategory":"VFR","rawOb":"METAR SBSL 221700Z 06006KT 9999 FEW030 30/24 Q1009","temp":30,"dewp":24,"wdir":60,"wspd":6,"visib":"6+","altim":1009,"clouds":[{"cover":"FEW","base":3000}],"obsTime":1776877200},"SBBE":{"icaoId":"SBBE","flightCategory":"MVFR","rawOb":"METAR SBBE 221700Z 06006KT 9999 BKN030 FEW035TCU 31/24 Q1010","temp":31,"dewp":24,"wdir":60,"wspd":6,"visib":"6+","altim":1010,"clouds":[{"cover":"BKN","base":3000},{"cover":"FEW","base":3500}],"obsTime":1776877200},"SBSN":{"icaoId":"SBSN","flightCategory":"VFR","rawOb":"METAR SBSN 221700Z 08009KT 020V100 9999 SCT023 FEW040TCU 30/25 Q1010","temp":30,"dewp":25,"wdir":80,"wspd":9,"visib":"6+","altim":1010,"clouds":[{"cover":"SCT","base":2300},{"cover":"FEW","base":4000}],"obsTime":1776877200},"SBKP":{"icaoId":"SBKP","flightCategory":"VFR","rawOb":"METAR SBKP 221700Z 26005KT 210V330 9999 FEW035 28/16 Q1017","temp":28,"dewp":16,"wdir":260,"wspd":5,"visib":"6+","altim":1017,"clouds":[{"cover":"FEW","base":3500}],"obsTime":1776877200},"SBSP":{"icaoId":"SBSP","flightCategory":"VFR","rawOb":"METAR SBSP 221700Z 21007KT 150V250 CAVOK 25/17 Q1019","temp":25,"dewp":17,"wdir":210,"wspd":7,"visib":"6+","altim":1019,"clouds":[],"obsTime":1776877200},"SBTE":{"icaoId":"SBTE","flightCategory":"VFR","rawOb":"METAR SBTE 221700Z 13007KT 080V170 9999 SCT020 31/24 Q1009","temp":31,"dewp":24,"wdir":130,"wspd":7,"visib":"6+","altim":1009,"clouds":[{"cover":"SCT","base":2000}],"obsTime":1776877200},"SBCF":{"icaoId":"SBCF","flightCategory":"VFR","rawOb":"METAR SBCF 221700Z VRB05KT 9999 SCT040 27/16 Q1018","temp":27,"dewp":16,"wdir":"VRB","wspd":5,"visib":"6+","altim":1018,"clouds":[{"cover":"SCT","base":4000}],"obsTime":1776877200},"SBSV":{"icaoId":"SBSV","flightCategory":"IFR","rawOb":"SPECI SBSV 221632Z 18010KT 4000 -RA BR BKN008 BKN018 FEW020TCU BKN060 25/24 Q1013","temp":25,"dewp":24,"wdir":180,"wspd":10,"visib":2.49,"altim":1013,"clouds":[{"cover":"BKN","base":800},{"cover":"BKN","base":1800},{"cover":"FEW","base":2000},{"cover":"BKN","base":6000}],"obsTime":1776875520},"SBEG":{"icaoId":"SBEG","flightCategory":"LIFR","rawOb":"METAR SBEG 221700Z 22006KT 190V250 9999 -RA BKN004 SCT030 FEW040TCU BKN070 24/24 Q1012","temp":24,"dewp":24,"wdir":220,"wspd":6,"visib":"6+","altim":1012,"clouds":[{"cover":"BKN","base":400},{"cover":"SCT","base":3000},{"cover":"FEW","base":4000},{"cover":"BKN","base":7000}],"obsTime":1776877200},"SBCZ":{"icaoId":"SBCZ","flightCategory":"MVFR","rawOb":"METAR SBCZ 221700Z 01005KT 310V060 9999 BKN027 30/23 Q1012","temp":30,"dewp":23,"wdir":10,"wspd":5,"visib":"6+","altim":1012,"clouds":[{"cover":"BKN","base":2700}],"obsTime":1776877200},"SBHT":{"icaoId":"SBHT","flightCategory":"MVFR","rawOb":"METAR SBHT 221700Z 14002KT 9999 BKN030 BKN100 31/24 Q1010","temp":31,"dewp":24,"wdir":140,"wspd":2,"visib":"6+","altim":1010,"clouds":[{"cover":"BKN","base":3000},{"cover":"BKN","base":10000}],"obsTime":1776877200},"SBIL":{"icaoId":"SBIL","flightCategory":"VFR","rawOb":"METAR SBIL 221700Z 18010KT 140V210 9999 FEW025 31/23 Q1015","temp":31,"dewp":23,"wdir":180,"wspd":10,"visib":"6+","altim":1015,"clouds":[{"cover":"FEW","base":2500}],"obsTime":1776877200},"SBJU":{"icaoId":"SBJU","flightCategory":"VFR","rawOb":"METAR SBJU 221700Z 36004KT 9999 SCT020 28/23 Q1012","temp":28,"dewp":23,"wdir":360,"wspd":4,"visib":"6+","altim":1012,"clouds":[{"cover":"SCT","base":2000}],"obsTime":1776877200},"SBAT":{"icaoId":"SBAT","flightCategory":"MVFR","rawOb":"METAR SBAT 221700Z 09004KT 9999 VCSH BKN030 FEW033TCU 32/25 Q1011","temp":32,"dewp":25,"wdir":90,"wspd":4,"visib":"6+","altim":1011,"clouds":[{"cover":"BKN","base":3000},{"cover":"FEW","base":3300}],"obsTime":1776877200},"SBME":{"icaoId":"SBME","flightCategory":"VFR","rawOb":"METAR SBME 221700Z 15007KT 9999 FEW025 28/21 Q1015","temp":28,"dewp":21,"wdir":150,"wspd":7,"visib":"6+","altim":1015,"clouds":[{"cover":"FEW","base":2500}],"obsTime":1776877200},"SBMG":{"icaoId":"SBMG","flightCategory":"VFR","rawOb":"METAR SBMG 221700Z 17006KT 120V210 CAVOK 28/17 Q1016","temp":28,"dewp":17,"wdir":170,"wspd":6,"visib":"6+","altim":1016,"clouds":[],"obsTime":1776877200},"SBMK":{"icaoId":"SBMK","flightCategory":"VFR","rawOb":"METAR SBMK 221700Z 12004KT 9999 SCT040 30/16 Q1016","temp":30,"dewp":16,"wdir":120,"wspd":4,"visib":"6+","altim":1016,"clouds":[{"cover":"SCT","base":4000}],"obsTime":1776877200},"SBMQ":{"icaoId":"SBMQ","flightCategory":"MVFR","rawOb":"METAR SBMQ 221700Z 08009KT 9999 TS BKN020 FEW020CB BKN100 29/26 Q1010","temp":29,"dewp":26,"wdir":80,"wspd":9,"visib":"6+","altim":1010,"clouds":[{"cover":"BKN","base":2000},{"cover":"FEW","base":2000},{"cover":"BKN","base":10000}],"obsTime":1776877200},"SBNT":{"icaoId":"SBNT","flightCategory":"VFR","rawOb":"METAR SBNT 221700Z 10012KT 070V130 9999 FEW036 31/23 Q1009","temp":31,"dewp":23,"wdir":100,"wspd":12,"visib":"6+","altim":1009,"clouds":[{"cover":"FEW","base":3600}],"obsTime":1776877200},"SBUR":{"icaoId":"SBUR","flightCategory":"VFR","rawOb":"METAR SBUR 221700Z 33002KT CAVOK 30/17 Q1016","temp":30,"dewp":17,"wdir":330,"wspd":2,"visib":"6+","altim":1016,"clouds":[],"obsTime":1776877200},"SBUL":{"icaoId":"SBUL","flightCategory":"VFR","rawOb":"METAR SBUL 221700Z 07010KT 9999 SCT030 FEW035TCU 27/18 Q1018","temp":27,"dewp":18,"wdir":70,"wspd":10,"visib":"6+","altim":1018,"clouds":[{"cover":"SCT","base":3000},{"cover":"FEW","base":3500}],"obsTime":1776877200},"SBUY":{"icaoId":"SBUY","flightCategory":"VFR","rawOb":"METAR SBUY 221700Z 04002KT 9999 SCT025 BKN100 28/22 Q1011","temp":28,"dewp":22,"wdir":40,"wspd":2,"visib":"6+","altim":1011,"clouds":[{"cover":"SCT","base":2500},{"cover":"BKN","base":10000}],"obsTime":1776877200},"SBAR":{"icaoId":"SBAR","flightCategory":"MVFR","rawOb":"METAR SBAR 221700Z 16011KT 9999 4000NE -SHRA BKN019 FEW023TCU BKN100 29/24 Q1012","temp":29,"dewp":24,"wdir":160,"wspd":11,"visib":"6+","altim":1012,"clouds":[{"cover":"BKN","base":1900},{"cover":"FEW","base":2300},{"cover":"BKN","base":10000}],"obsTime":1776877200},"SBPS":{"icaoId":"SBPS","flightCategory":"VFR","rawOb":"METAR SBPS 221700Z 16007KT 070V210 9999 SCT020 28/22 Q1015","temp":28,"dewp":22,"wdir":160,"wspd":7,"visib":"6+","altim":1015,"clouds":[{"cover":"SCT","base":2000}],"obsTime":1776877200},"SBCJ":{"icaoId":"SBCJ","flightCategory":"VFR","rawOb":"METAR SBCJ 221700Z 12009KT 9999 SCT023 28/22 Q1014","temp":28,"dewp":22,"wdir":120,"wspd":9,"visib":"6+","altim":1014,"clouds":[{"cover":"SCT","base":2300}],"obsTime":1776877200},"SBTT":{"icaoId":"SBTT","flightCategory":"VFR","rawOb":"METAR SBTT 221700Z 25003KT 9999 SCT030 29/23 Q1012","temp":29,"dewp":23,"wdir":250,"wspd":3,"visib":"6+","altim":1012,"clouds":[{"cover":"SCT","base":3000}],"obsTime":1776877200},"SBPL":{"icaoId":"SBPL","flightCategory":"VFR","rawOb":"METAR SBPL 221700Z 10010KT 9999 SCT030 FEW035TCU 31/20 Q1012","temp":31,"dewp":20,"wdir":100,"wspd":10,"visib":"6+","altim":1012,"clouds":[{"cover":"SCT","base":3000},{"cover":"FEW","base":3500}],"obsTime":1776877200},"SBPP":{"icaoId":"SBPP","flightCategory":"VFR","rawOb":"METAR SBPP 221700Z 06006KT CAVOK 27/20 Q1017","temp":27,"dewp":20,"wdir":60,"wspd":6,"visib":"6+","altim":1017,"clouds":[],"obsTime":1776877200},"SBSJ":{"icaoId":"SBSJ","flightCategory":"MVFR","rawOb":"METAR SBSJ 221700Z 19004KT 150V230 8000 SCT033 25/17 Q1018","temp":25,"dewp":17,"wdir":190,"wspd":4,"visib":4.97,"altim":1018,"clouds":[{"cover":"SCT","base":3300}],"obsTime":1776877200},"SBOI":{"icaoId":"SBOI","flightCategory":"VFR","rawOb":"METAR SBOI 221700Z AUTO 07006KT 360V120 9999 FEW026 31/24 Q1010","temp":31,"dewp":24,"wdir":70,"wspd":6,"visib":"6+","altim":1010,"clouds":[{"cover":"FEW","base":2600}],"obsTime":1776877200},"SBTF":{"icaoId":"SBTF","flightCategory":"VFR","rawOb":"METAR SBTF 221700Z 14004KT 9999 FEW009 BKN100 29/25 Q1010","temp":29,"dewp":25,"wdir":140,"wspd":4,"visib":"6+","altim":1010,"clouds":[{"cover":"FEW","base":900},{"cover":"BKN","base":10000}],"obsTime":1776877200},"SBIP":{"icaoId":"SBIP","flightCategory":"VFR","rawOb":"METAR SBIP 221700Z AUTO 05006KT 020V090 CAVOK 30/18 Q1016","temp":30,"dewp":18,"wdir":50,"wspd":6,"visib":"6+","altim":1016,"clouds":[],"obsTime":1776877200},"SBKG":{"icaoId":"SBKG","flightCategory":"VFR","rawOb":"METAR SBKG 221700Z 13005KT 9999 SCT025 30/20 Q1012","temp":30,"dewp":20,"wdir":130,"wspd":5,"visib":"6+","altim":1012,"clouds":[{"cover":"SCT","base":2500}],"obsTime":1776877200},"SBPB":{"icaoId":"SBPB","flightCategory":"VFR","rawOb":"METAR SBPB 221700Z 05009KT 9999 FEW016 FEW025TCU 31/24 Q1009","temp":31,"dewp":24,"wdir":50,"wspd":9,"visib":"6+","altim":1009,"clouds":[{"cover":"FEW","base":1600},{"cover":"FEW","base":2500}],"obsTime":1776877200},"SBSC":{"icaoId":"SBSC","flightCategory":"VFR","rawOb":"METAR SBSC 221700Z 17012KT 9999 FEW030 28/20 Q1015","temp":28,"dewp":20,"wdir":170,"wspd":12,"visib":"6+","altim":1015,"clouds":[{"cover":"FEW","base":3000}],"obsTime":1776877200},"SBSM":{"icaoId":"SBSM","flightCategory":"VFR","rawOb":"METAR SBSM 221700Z VRB03KT 9999 SCT030 29/21 Q1015","temp":29,"dewp":21,"wdir":"VRB","wspd":3,"visib":"6+","altim":1015,"clouds":[{"cover":"SCT","base":3000}],"obsTime":1776877200},"SBSR":{"icaoId":"SBSR","flightCategory":"VFR","rawOb":"METAR SBSR 221700Z VRB04KT 9999 FEW030 31/13 Q1015","temp":31,"dewp":13,"wdir":"VRB","wspd":4,"visib":"6+","altim":1015,"clouds":[{"cover":"FEW","base":3000}],"obsTime":1776877200},"SBVH":{"icaoId":"SBVH","flightCategory":"MVFR","rawOb":"METAR SBVH 221700Z 08008KT 9999 BKN030 29/22 Q1013","temp":29,"dewp":22,"wdir":80,"wspd":8,"visib":"6+","altim":1013,"clouds":[{"cover":"BKN","base":3000}],"obsTime":1776877200},"SBAU":{"icaoId":"SBAU","flightCategory":"VFR","rawOb":"METAR SBAU 221700Z 17006KT CAVOK 31/14 Q1015","temp":31,"dewp":14,"wdir":170,"wspd":6,"visib":"6+","altim":1015,"clouds":[],"obsTime":1776877200},"SBAX":{"icaoId":"SBAX","flightCategory":"VFR","rawOb":"SPECI SBAX 221601Z AUTO 02007KT 340V060 9999 SCT030 26/18 Q1019","temp":26,"dewp":18,"wdir":20,"wspd":7,"visib":"6+","altim":1019,"clouds":[{"cover":"SCT","base":3000}],"obsTime":1776873660},"SBBH":{"icaoId":"SBBH","flightCategory":"VFR","rawOb":"METAR SBBH 221700Z 35005KT 9999 SCT040 28/16 Q1018","temp":28,"dewp":16,"wdir":350,"wspd":5,"visib":"6+","altim":1018,"clouds":[{"cover":"SCT","base":4000}],"obsTime":1776877200},"SBBQ":{"icaoId":"SBBQ","flightCategory":"MVFR","rawOb":"METAR SBBQ 221700Z 29005KT 240V330 9999 BKN030 24/15 Q1021","temp":24,"dewp":15,"wdir":290,"wspd":5,"visib":"6+","altim":1021,"clouds":[{"cover":"BKN","base":3000}],"obsTime":1776877200},"SBBU":{"icaoId":"SBBU","flightCategory":"VFR","rawOb":"METAR SBBU 221700Z 07002KT CAVOK 31/16 Q1016","temp":31,"dewp":16,"wdir":70,"wspd":2,"visib":"6+","altim":1016,"clouds":[],"obsTime":1776877200},"SBCA":{"icaoId":"SBCA","flightCategory":"VFR","rawOb":"METAR SBCA 221700Z 21004KT 170V240 9999 SCT040 26/18 Q1019","temp":26,"dewp":18,"wdir":210,"wspd":4,"visib":"6+","altim":1019,"clouds":[{"cover":"SCT","base":4000}],"obsTime":1776877200},"SBCC":{"icaoId":"SBCC","flightCategory":"VFR","rawOb":"METAR SBCC 221700Z 06010KT 9999 SCT025 32/20 Q1012","temp":32,"dewp":20,"wdir":60,"wspd":10,"visib":"6+","altim":1012,"clouds":[{"cover":"SCT","base":2500}],"obsTime":1776877200},"SBCO":{"icaoId":"SBCO","flightCategory":"VFR","rawOb":"METAR SBCO 221700Z 25008KT 9999 FEW030 30/21 Q1014","temp":30,"dewp":21,"wdir":250,"wspd":8,"visib":"6+","altim":1014,"clouds":[{"cover":"FEW","base":3000}],"obsTime":1776877200},"SBDN":{"icaoId":"SBDN","flightCategory":"VFR","rawOb":"METAR SBDN 221700Z 13006KT CAVOK 31/14 Q1016","temp":31,"dewp":14,"wdir":130,"wspd":6,"visib":"6+","altim":1016,"clouds":[],"obsTime":1776877200},"SBES":{"icaoId":"SBES","flightCategory":"VFR","rawOb":"METAR SBES 221700Z VRB07KT 9999 FEW025 28/// Q1015","temp":null,"dewp":null,"wdir":"VRB","wspd":7,"visib":"6+","altim":1015,"clouds":[{"cover":"FEW","base":2500}],"obsTime":1776877200},"SBGM":{"icaoId":"SBGM","flightCategory":"VFR","rawOb":"METAR SBGM 221700Z 12005KT 9999 SCT016 SCT073 28/24 Q1012","temp":28,"dewp":24,"wdir":120,"wspd":5,"visib":"6+","altim":1012,"clouds":[{"cover":"SCT","base":1600},{"cover":"SCT","base":7300}],"obsTime":1776877200},"SBMT":{"icaoId":"SBMT","flightCategory":"VFR","rawOb":"METAR SBMT 221700Z 28004KT 200V360 9999 FEW025 26/12 Q1017","temp":26,"dewp":12,"wdir":280,"wspd":4,"visib":"6+","altim":1017,"clouds":[{"cover":"FEW","base":2500}],"obsTime":1776877200},"SBST":{"icaoId":"SBST","flightCategory":"MVFR","rawOb":"METAR SBST 221700Z 14006KT 9999 BKN028 BKN033 25/20 Q1015","temp":25,"dewp":20,"wdir":140,"wspd":6,"visib":"6+","altim":1015,"clouds":[{"cover":"BKN","base":2800},{"cover":"BKN","base":3300}],"obsTime":1776877200},"SBTA":{"icaoId":"SBTA","flightCategory":"VFR","rawOb":"METAR SBTA 221700Z 05004KT 350V090 9999 SCT035 27/17 Q1016","temp":27,"dewp":17,"wdir":50,"wspd":4,"visib":"6+","altim":1016,"clouds":[{"cover":"SCT","base":3500}],"obsTime":1776877200},"SBAN":{"icaoId":"SBAN","flightCategory":"VFR","rawOb":"METAR SBAN 221700Z 36004KT 9999 BKN035 FEW040TCU 27/17 Q1019","temp":27,"dewp":17,"wdir":360,"wspd":4,"visib":"6+","altim":1019,"clouds":[{"cover":"BKN","base":3500},{"cover":"FEW","base":4000}],"obsTime":1776877200},"SBIH":{"icaoId":"SBIH","flightCategory":"VFR","rawOb":"METAR SBIH 221700Z 06007KT 9999 SCT018 32/24 Q1009","temp":32,"dewp":24,"wdir":60,"wspd":7,"visib":"6+","altim":1009,"clouds":[{"cover":"SCT","base":1800}],"obsTime":1776877200},"SBJV":{"icaoId":"SBJV","flightCategory":"VFR","rawOb":"METAR SBJV 221700Z 12008KT 9999 FEW030 28/20 Q1015","temp":28,"dewp":20,"wdir":120,"wspd":8,"visib":"6+","altim":1015,"clouds":[{"cover":"FEW","base":3000}],"obsTime":1776877200},"SBLE":{"icaoId":"SBLE","flightCategory":"VFR","rawOb":"METAR SBLE 221700Z AUTO 19006KT 130V230 9999 FEW041 28/19 Q1015","temp":28,"dewp":19,"wdir":190,"wspd":6,"visib":"6+","altim":1015,"clouds":[{"cover":"FEW","base":4100}],"obsTime":1776877200},"SBAF":{"icaoId":"SBAF","flightCategory":"VFR","rawOb":"METAR SBAF 221700Z 19012KT 9999 FEW030 28/20 Q1015","temp":28,"dewp":20,"wdir":190,"wspd":12,"visib":"6+","altim":1015,"clouds":[{"cover":"FEW","base":3000}],"obsTime":1776877200},"SBGW":{"icaoId":"SBGW","flightCategory":"VFR","rawOb":"METAR SBGW 221700Z 04003KT 9999 FEW030 27/15 Q1016","temp":27,"dewp":15,"wdir":40,"wspd":3,"visib":"6+","altim":1016,"clouds":[{"cover":"FEW","base":3000}],"obsTime":1776877200},"SBJR":{"icaoId":"SBJR","flightCategory":"VFR","rawOb":"METAR SBJR 221700Z 17008KT 9999 FEW030 29/20 Q1015","temp":29,"dewp":20,"wdir":170,"wspd":8,"visib":"6+","altim":1015,"clouds":[{"cover":"FEW","base":3000}],"obsTime":1776877200},"SBLS":{"icaoId":"SBLS","flightCategory":"VFR","rawOb":"METAR SBLS 221700Z VRB03KT 9999 SCT035 27/17 Q1018","temp":27,"dewp":17,"wdir":"VRB","wspd":3,"visib":"6+","altim":1018,"clouds":[{"cover":"SCT","base":3500}],"obsTime":1776877200},"SBJP":{"icaoId":"SBJP","flightCategory":"VFR","rawOb":"METAR SBJP 221700Z 11010KT 9999 FEW030 30/22 Q1010","temp":30,"dewp":22,"wdir":110,"wspd":10,"visib":"6+","altim":1010,"clouds":[{"cover":"FEW","base":3000}],"obsTime":1776877200}}}