{"updated":1777578806,"count":85,"data":{"SBPV":{"icaoId":"SBPV","flightCategory":"VFR","rawOb":"METAR SBPV 301800Z 28003KT 9999 VCSH SCT030 FEW035TCU 30/26 Q1008","temp":30,"dewp":26,"wdir":280,"wspd":3,"visib":"6+","altim":1008,"clouds":[{"cover":"SCT","base":3000},{"cover":"FEW","base":3500}],"obsTime":1777572000},"SBFI":{"icaoId":"SBFI","flightCategory":"VFR","rawOb":"METAR SBFI 301800Z 04004KT 9999 SCT020 26/21 Q1013","temp":26,"dewp":21,"wdir":40,"wspd":4,"visib":"6+","altim":1013,"clouds":[{"cover":"SCT","base":2000}],"obsTime":1777572000},"SBME":{"icaoId":"SBME","flightCategory":"VFR","rawOb":"METAR SBME 301800Z 16005KT 9999 FEW040 28/23 Q1013","temp":28,"dewp":23,"wdir":160,"wspd":5,"visib":"6+","altim":1013,"clouds":[{"cover":"FEW","base":4000}],"obsTime":1777572000},"SBBV":{"icaoId":"SBBV","flightCategory":"MVFR","rawOb":"METAR SBBV 301800Z 09007KT 9999 SCT010 BKN020 FEW035TCU BKN100 27/23 Q1010","temp":27,"dewp":23,"wdir":90,"wspd":7,"visib":"6+","altim":1010,"clouds":[{"cover":"SCT","base":1000},{"cover":"BKN","base":2000},{"cover":"FEW","base":3500},{"cover":"BKN","base":10000}],"obsTime":1777572000},"SBMG":{"icaoId":"SBMG","flightCategory":"VFR","rawOb":"METAR SBMG 301800Z 19004KT 160V240 9999 FEW030 27/22 Q1014","temp":27,"dewp":22,"wdir":190,"wspd":4,"visib":"6+","altim":1014,"clouds":[{"cover":"FEW","base":3000}],"obsTime":1777572000},"SBCG":{"icaoId":"SBCG","flightCategory":"VFR","rawOb":"METAR SBCG 301800Z 06008KT 9999 SCT040 30/22 Q1014","temp":30,"dewp":22,"wdir":60,"wspd":8,"visib":"6+","altim":1014,"clouds":[{"cover":"SCT","base":4000}],"obsTime":1777572000},"SBMK":{"icaoId":"SBMK","flightCategory":"VFR","rawOb":"METAR SBMK 301800Z 12010KT CAVOK 29/14 Q1016","temp":29,"dewp":14,"wdir":120,"wspd":10,"visib":"6+","altim":1016,"clouds":[],"obsTime":1777572000},"SBMO":{"icaoId":"SBMO","flightCategory":"VFR","rawOb":"METAR SBMO 301800Z 10010KT 9999 SCT027 29/24 Q1011","temp":29,"dewp":24,"wdir":100,"wspd":10,"visib":"6+","altim":1011,"clouds":[{"cover":"SCT","base":2700}],"obsTime":1777572000},"SBFL":{"icaoId":"SBFL","flightCategory":"VFR","rawOb":"METAR SBFL 301800Z 12009KT 090V150 9999 FEW033 25/18 Q1016","temp":25,"dewp":18,"wdir":120,"wspd":9,"visib":"6+","altim":1016,"clouds":[{"cover":"FEW","base":3300}],"obsTime":1777572000},"SBBE":{"icaoId":"SBBE","flightCategory":"MVFR","rawOb":"METAR SBBE 301800Z 26001KT 8000 -RA VCTS SCT008 FEW020CB OVC100 23/23 Q1008 RETS","temp":23,"dewp":23,"wdir":260,"wspd":1,"visib":4.97,"altim":1008,"clouds":[{"cover":"SCT","base":800},{"cover":"FEW","base":2000},{"cover":"OVC","base":10000}],"obsTime":1777572000},"SBMQ":{"icaoId":"SBMQ","flightCategory":"VFR","rawOb":"METAR SBMQ 301800Z 05005KT 9999 VCSH SCT019 FEW025TCU 31/26 Q1007","temp":31,"dewp":26,"wdir":50,"wspd":5,"visib":"6+","altim":1007,"clouds":[{"cover":"SCT","base":1900},{"cover":"FEW","base":2500}],"obsTime":1777572000},"SBFZ":{"icaoId":"SBFZ","flightCategory":"VFR","rawOb":"METAR SBFZ 301800Z 12012KT 090V150 9999 FEW026 31/21 Q1008","temp":31,"dewp":21,"wdir":120,"wspd":12,"visib":"6+","altim":1008,"clouds":[{"cover":"FEW","base":2600}],"obsTime":1777572000},"SBNT":{"icaoId":"SBNT","flightCategory":"IFR","rawOb":"METAR SBNT 301800Z 12007KT 3500 -RA BR BKN017 FEW025TCU OVC040 25/25 Q1010 RERA","temp":25,"dewp":25,"wdir":120,"wspd":7,"visib":2.17,"altim":1010,"clouds":[{"cover":"BKN","base":1700},{"cover":"FEW","base":2500},{"cover":"OVC","base":4000}],"obsTime":1777572000},"SBCP":{"icaoId":"SBCP","flightCategory":"VFR","rawOb":"METAR SBCP 301800Z 03002KT 9999 SCT020 32/21 Q1013","temp":32,"dewp":21,"wdir":30,"wspd":2,"visib":"6+","altim":1013,"clouds":[{"cover":"SCT","base":2000}],"obsTime":1777572000},"SBPA":{"icaoId":"SBPA","flightCategory":"VFR","rawOb":"METAR SBPA 301800Z 28006KT 240V340 CAVOK 25/13 Q1015","temp":25,"dewp":13,"wdir":280,"wspd":6,"visib":"6+","altim":1015,"clouds":[],"obsTime":1777572000},"SBGL":{"icaoId":"SBGL","flightCategory":"VFR","rawOb":"METAR SBGL 301800Z 14014KT 9999 FEW022 28/21 Q1013","temp":28,"dewp":21,"wdir":140,"wspd":14,"visib":"6+","altim":1013,"clouds":[{"cover":"FEW","base":2200}],"obsTime":1777572000},"SBPJ":{"icaoId":"SBPJ","flightCategory":"VFR","rawOb":"METAR SBPJ 301800Z 11005KT 080V160 9999 SCT040 33/22 Q1010","temp":33,"dewp":22,"wdir":110,"wspd":5,"visib":"6+","altim":1010,"clouds":[{"cover":"SCT","base":4000}],"obsTime":1777572000},"SBGO":{"icaoId":"SBGO","flightCategory":"VFR","rawOb":"METAR SBGO 301800Z 09012KT CAVOK 30/14 Q1015","temp":30,"dewp":14,"wdir":90,"wspd":12,"visib":"6+","altim":1015,"clouds":[],"obsTime":1777572000},"SBBR":{"icaoId":"SBBR","flightCategory":"VFR","rawOb":"METAR SBBR 301800Z 12008G21KT 090V160 CAVOK 27/13 Q1017","temp":27,"dewp":13,"wdir":120,"wspd":8,"visib":"6+","altim":1017,"clouds":[],"obsTime":1777572000},"SBRB":{"icaoId":"SBRB","flightCategory":"MVFR","rawOb":"METAR SBRB 301800Z 30005KT 6000 -RA BKN025 FEW040TCU 27/25 Q1010 RERA","temp":27,"dewp":25,"wdir":300,"wspd":5,"visib":3.73,"altim":1010,"clouds":[{"cover":"BKN","base":2500},{"cover":"FEW","base":4000}],"obsTime":1777572000},"SBCR":{"icaoId":"SBCR","flightCategory":"VFR","rawOb":"METAR SBCR 301800Z 06005KT 030V120 9999 BKN035 FEW040TCU 33/23 Q1010","temp":33,"dewp":23,"wdir":60,"wspd":5,"visib":"6+","altim":1010,"clouds":[{"cover":"BKN","base":3500},{"cover":"FEW","base":4000}],"obsTime":1777572000},"SBRF":{"icaoId":"SBRF","flightCategory":"VFR","rawOb":"METAR SBRF 301800Z 16009KT 130V190 9999 FEW020 FEW025TCU SCT050 29/24 Q1010","temp":29,"dewp":24,"wdir":160,"wspd":9,"visib":"6+","altim":1010,"clouds":[{"cover":"FEW","base":2000},{"cover":"FEW","base":2500},{"cover":"SCT","base":5000}],"obsTime":1777572000},"SBGR":{"icaoId":"SBGR","flightCategory":"MVFR","rawOb":"METAR SBGR 301800Z 14006KT 9000 BKN021 24/19 Q1018","temp":24,"dewp":19,"wdir":140,"wspd":6,"visib":5.59,"altim":1018,"clouds":[{"cover":"BKN","base":2100}],"obsTime":1777572000},"SBSG":{"icaoId":"SBSG","flightCategory":"LIFR","rawOb":"METAR SBSG 301800Z COR 13010KT 100V170 2000 -RA BR BKN004 FEW040TCU 24/24 Q1010 RERA","temp":24,"dewp":24,"wdir":130,"wspd":10,"visib":1.24,"altim":1010,"clouds":[{"cover":"BKN","base":400},{"cover":"FEW","base":4000}],"obsTime":1777572000},"SBCT":{"icaoId":"SBCT","flightCategory":"MVFR","rawOb":"METAR SBCT 301800Z 28003KT 9999 BKN023 21/16 Q1019","temp":21,"dewp":16,"wdir":280,"wspd":3,"visib":"6+","altim":1019,"clouds":[{"cover":"BKN","base":2300}],"obsTime":1777572000},"SBSL":{"icaoId":"SBSL","flightCategory":"VFR","rawOb":"METAR SBSL 301800Z 03009KT 9999 SCT020 FEW025TCU 26/24 Q1008","temp":26,"dewp":24,"wdir":30,"wspd":9,"visib":"6+","altim":1008,"clouds":[{"cover":"SCT","base":2000},{"cover":"FEW","base":2500}],"obsTime":1777572000},"SBHT":{"icaoId":"SBHT","flightCategory":"VFR","rawOb":"METAR SBHT 301800Z 15002KT 9999 SCT025 BKN100 32/24 Q1007","temp":32,"dewp":24,"wdir":150,"wspd":2,"visib":"6+","altim":1007,"clouds":[{"cover":"SCT","base":2500},{"cover":"BKN","base":10000}],"obsTime":1777572000},"SBSN":{"icaoId":"SBSN","flightCategory":"VFR","rawOb":"METAR SBSN 301800Z 14006KT 9999 SCT020 FEW025TCU SCT100 31/25 Q1007","temp":31,"dewp":25,"wdir":140,"wspd":6,"visib":"6+","altim":1007,"clouds":[{"cover":"SCT","base":2000},{"cover":"FEW","base":2500},{"cover":"SCT","base":10000}],"obsTime":1777572000},"SBCB":{"icaoId":"SBCB","flightCategory":"VFR","rawOb":"METAR SBCB 301800Z 17007KT 9999 FEW020 27/23 Q1014","temp":27,"dewp":23,"wdir":170,"wspd":7,"visib":"6+","altim":1014,"clouds":[{"cover":"FEW","base":2000}],"obsTime":1777572000},"SBSP":{"icaoId":"SBSP","flightCategory":"MVFR","rawOb":"METAR SBSP 301800Z 14012KT 9999 BKN025 23/18 Q1019","temp":23,"dewp":18,"wdir":140,"wspd":12,"visib":"6+","altim":1019,"clouds":[{"cover":"BKN","base":2500}],"obsTime":1777572000},"SBIL":{"icaoId":"SBIL","flightCategory":"VFR","rawOb":"METAR SBIL 301800Z 19007KT 160V230 9999 SCT023 FEW027TCU SCT070 29/24 Q1014","temp":29,"dewp":24,"wdir":190,"wspd":7,"visib":"6+","altim":1014,"clouds":[{"cover":"SCT","base":2300},{"cover":"FEW","base":2700},{"cover":"SCT","base":7000}],"obsTime":1777572000},"SBSV":{"icaoId":"SBSV","flightCategory":"VFR","rawOb":"METAR SBSV 301800Z 13009KT 100V170 9999 SCT021 SCT060 30/22 Q1012","temp":30,"dewp":22,"wdir":130,"wspd":9,"visib":"6+","altim":1012,"clouds":[{"cover":"SCT","base":2100},{"cover":"SCT","base":6000}],"obsTime":1777572000},"SBCF":{"icaoId":"SBCF","flightCategory":"VFR","rawOb":"METAR SBCF 301800Z 06004KT 9999 FEW045 28/15 Q1017","temp":28,"dewp":15,"wdir":60,"wspd":4,"visib":"6+","altim":1017,"clouds":[{"cover":"FEW","base":4500}],"obsTime":1777572000},"SBTE":{"icaoId":"SBTE","flightCategory":"VFR","rawOb":"METAR SBTE 301800Z 12010KT 9999 SCT020 32/19 Q1007","temp":32,"dewp":19,"wdir":120,"wspd":10,"visib":"6+","altim":1007,"clouds":[{"cover":"SCT","base":2000}],"obsTime":1777572000},"SBJU":{"icaoId":"SBJU","flightCategory":"VFR","rawOb":"METAR SBJU 301800Z 18010KT 9999 FEW020 31/20 Q1011","temp":31,"dewp":20,"wdir":180,"wspd":10,"visib":"6+","altim":1011,"clouds":[{"cover":"FEW","base":2000}],"obsTime":1777572000},"SBUL":{"icaoId":"SBUL","flightCategory":"VFR","rawOb":"METAR SBUL 301800Z VRB06KT CAVOK 28/15 Q1017","temp":28,"dewp":15,"wdir":"VRB","wspd":6,"visib":"6+","altim":1017,"clouds":[],"obsTime":1777572000},"SBCZ":{"icaoId":"SBCZ","flightCategory":"MVFR","rawOb":"METAR SBCZ 301800Z 16005KT 9999 TS VCSH BKN025 FEW025CB 29/25 Q1010","temp":29,"dewp":25,"wdir":160,"wspd":5,"visib":"6+","altim":1010,"clouds":[{"cover":"BKN","base":2500},{"cover":"FEW","base":2500}],"obsTime":1777572000},"SBUR":{"icaoId":"SBUR","flightCategory":"VFR","rawOb":"METAR SBUR 301800Z 10007KT CAVOK 30/16 Q1016","temp":30,"dewp":16,"wdir":100,"wspd":7,"visib":"6+","altim":1016,"clouds":[],"obsTime":1777572000},"SBKP":{"icaoId":"SBKP","flightCategory":"VFR","rawOb":"METAR SBKP 301800Z 24006KT 190V340 9999 FEW040 29/20 Q1016","temp":29,"dewp":20,"wdir":240,"wspd":6,"visib":"6+","altim":1016,"clouds":[{"cover":"FEW","base":4000}],"obsTime":1777572000},"SBVT":{"icaoId":"SBVT","flightCategory":"VFR","rawOb":"METAR SBVT 301800Z 08010KT 9999 FEW030 29/22 Q1013","temp":29,"dewp":22,"wdir":80,"wspd":10,"visib":"6+","altim":1013,"clouds":[{"cover":"FEW","base":3000}],"obsTime":1777572000},"SBLO":{"icaoId":"SBLO","flightCategory":"VFR","rawOb":"METAR SBLO 301800Z 12004KT 9999 FEW030 26/21 Q1016","temp":26,"dewp":21,"wdir":120,"wspd":4,"visib":"6+","altim":1016,"clouds":[{"cover":"FEW","base":3000}],"obsTime":1777572000},"SBAT":{"icaoId":"SBAT","flightCategory":"MVFR","rawOb":"METAR SBAT 301800Z 04005KT 7000 -RA SCT035 FEW040TCU 28/26 Q1009","temp":28,"dewp":26,"wdir":40,"wspd":5,"visib":4.35,"altim":1009,"clouds":[{"cover":"SCT","base":3500},{"cover":"FEW","base":4000}],"obsTime":1777572000},"SBEG":{"icaoId":"SBEG","flightCategory":"VFR","rawOb":"METAR SBEG 301800Z 13005KT 9999 VCSH VCTS SCT035 FEW040CB 28/24 Q1008","temp":28,"dewp":24,"wdir":130,"wspd":5,"visib":"6+","altim":1008,"clouds":[{"cover":"SCT","base":3500},{"cover":"FEW","base":4000}],"obsTime":1777572000},"SBMA":{"icaoId":"SBMA","flightCategory":"VFR","rawOb":"METAR SBMA 301800Z 21005KT 9999 SCT020 FEW023TCU BKN080 27/25 Q1008 RERA","temp":27,"dewp":25,"wdir":210,"wspd":5,"visib":"6+","altim":1008,"clouds":[{"cover":"SCT","base":2000},{"cover":"FEW","base":2300},{"cover":"BKN","base":8000}],"obsTime":1777572000},"SBTT":{"icaoId":"SBTT","flightCategory":"MVFR","rawOb":"METAR SBTT 301800Z 01004KT 9999 BKN022 BKN060 29/24 Q1009","temp":29,"dewp":24,"wdir":10,"wspd":4,"visib":"6+","altim":1009,"clouds":[{"cover":"BKN","base":2200},{"cover":"BKN","base":6000}],"obsTime":1777572000},"SBAR":{"icaoId":"SBAR","flightCategory":"VFR","rawOb":"METAR SBAR 301800Z 11012KT 9999 FEW025 BKN050 28/24 Q1011","temp":28,"dewp":24,"wdir":110,"wspd":12,"visib":"6+","altim":1011,"clouds":[{"cover":"FEW","base":2500},{"cover":"BKN","base":5000}],"obsTime":1777572000},"SBAX":{"icaoId":"SBAX","flightCategory":"VFR","rawOb":"METAR SBAX 301800Z 11007KT 9999 SCT035 28/14 Q1018","temp":28,"dewp":14,"wdir":110,"wspd":7,"visib":"6+","altim":1018,"clouds":[{"cover":"SCT","base":3500}],"obsTime":1777572000},"SBBH":{"icaoId":"SBBH","flightCategory":"VFR","rawOb":"METAR SBBH 301800Z 07008KT 9999 SCT048 28/16 Q1017","temp":28,"dewp":16,"wdir":70,"wspd":8,"visib":"6+","altim":1017,"clouds":[{"cover":"SCT","base":4800}],"obsTime":1777572000},"SBBQ":{"icaoId":"SBBQ","flightCategory":"VFR","rawOb":"METAR SBBQ 301800Z 36004KT CAVOK 26/13 Q1021","temp":26,"dewp":13,"wdir":360,"wspd":4,"visib":"6+","altim":1021,"clouds":[],"obsTime":1777572000},"SBBU":{"icaoId":"SBBU","flightCategory":"VFR","rawOb":"METAR SBBU 301800Z 18003KT CAVOK 29/19 Q1015","temp":29,"dewp":19,"wdir":180,"wspd":3,"visib":"6+","altim":1015,"clouds":[],"obsTime":1777572000},"SBCA":{"icaoId":"SBCA","flightCategory":"VFR","rawOb":"METAR SBCA 301800Z 02007KT 9999 SCT020 26/19 Q1017","temp":26,"dewp":19,"wdir":20,"wspd":7,"visib":"6+","altim":1017,"clouds":[{"cover":"SCT","base":2000}],"obsTime":1777572000},"SBCC":{"icaoId":"SBCC","flightCategory":"VFR","rawOb":"METAR SBCC 301800Z 08012KT 9999 SCT025 32/20 Q1010","temp":32,"dewp":20,"wdir":80,"wspd":12,"visib":"6+","altim":1010,"clouds":[{"cover":"SCT","base":2500}],"obsTime":1777572000},"SBCJ":{"icaoId":"SBCJ","flightCategory":"VFR","rawOb":"METAR SBCJ 301800Z 14005KT 9999 FEW030TCU SCT040 28/23 Q1012","temp":28,"dewp":23,"wdir":140,"wspd":5,"visib":"6+","altim":1012,"clouds":[{"cover":"FEW","base":3000},{"cover":"SCT","base":4000}],"obsTime":1777572000},"SBCO":{"icaoId":"SBCO","flightCategory":"VFR","rawOb":"METAR SBCO 301800Z 10005KT 060V140 CAVOK 26/08 Q1016","temp":26,"dewp":8,"wdir":100,"wspd":5,"visib":"6+","altim":1016,"clouds":[],"obsTime":1777572000},"SBDN":{"icaoId":"SBDN","flightCategory":"VFR","rawOb":"METAR SBDN 301800Z 07004KT 9999 SCT045 SCT082 31/20 Q1014","temp":31,"dewp":20,"wdir":70,"wspd":4,"visib":"6+","altim":1014,"clouds":[{"cover":"SCT","base":4500},{"cover":"SCT","base":8200}],"obsTime":1777572000},"SBES":{"icaoId":"SBES","flightCategory":"VFR","rawOb":"METAR SBES 301800Z 20009KT 160V240 9999 FEW015 27/// Q1014","temp":null,"dewp":null,"wdir":200,"wspd":9,"visib":"6+","altim":1014,"clouds":[{"cover":"FEW","base":1500}],"obsTime":1777572000},"SBGM":{"icaoId":"SBGM","flightCategory":"VFR","rawOb":"METAR SBGM 301800Z 22004KT CAVOK 33/13 Q1009","temp":33,"dewp":13,"wdir":220,"wspd":4,"visib":"6+","altim":1009,"clouds":[],"obsTime":1777572000},"SBIP":{"icaoId":"SBIP","flightCategory":"VFR","rawOb":"METAR SBIP 301800Z AUTO 03006KT 330V070 CAVOK 32/17 Q1014","temp":32,"dewp":17,"wdir":30,"wspd":6,"visib":"6+","altim":1014,"clouds":[],"obsTime":1777572000},"SBKG":{"icaoId":"SBKG","flightCategory":"VFR","rawOb":"METAR SBKG 301800Z 11008KT 9999 SCT020 BKN080 26/22 Q1012","temp":26,"dewp":22,"wdir":110,"wspd":8,"visib":"6+","altim":1012,"clouds":[{"cover":"SCT","base":2000},{"cover":"BKN","base":8000}],"obsTime":1777572000},"SBOI":{"icaoId":"SBOI","flightCategory":"MVFR","rawOb":"METAR SBOI 301800Z AUTO VRB02KT 7000 RA OVC030 26/25 Q1009 RERA","temp":26,"dewp":25,"wdir":"VRB","wspd":2,"visib":4.35,"altim":1009,"clouds":[{"cover":"OVC","base":3000}],"obsTime":1777572000},"SBPB":{"icaoId":"SBPB","flightCategory":"VFR","rawOb":"METAR SBPB 301800Z 28003KT 9999 SCT016 BKN090 27/24 Q1008","temp":27,"dewp":24,"wdir":280,"wspd":3,"visib":"6+","altim":1008,"clouds":[{"cover":"SCT","base":1600},{"cover":"BKN","base":9000}],"obsTime":1777572000},"SBPL":{"icaoId":"SBPL","flightCategory":"MVFR","rawOb":"METAR SBPL 301800Z 13009KT 9999 BKN030 29/20 Q1012","temp":29,"dewp":20,"wdir":130,"wspd":9,"visib":"6+","altim":1012,"clouds":[{"cover":"BKN","base":3000}],"obsTime":1777572000},"SBPP":{"icaoId":"SBPP","flightCategory":"VFR","rawOb":"METAR SBPP 301800Z 06008KT 9999 SCT025 26/21 Q1015","temp":26,"dewp":21,"wdir":60,"wspd":8,"visib":"6+","altim":1015,"clouds":[{"cover":"SCT","base":2500}],"obsTime":1777572000},"SBPS":{"icaoId":"SBPS","flightCategory":"VFR","rawOb":"METAR SBPS 301800Z 14004KT 9999 SCT020 FEW025TCU BKN070 28/24 Q1014","temp":28,"dewp":24,"wdir":140,"wspd":4,"visib":"6+","altim":1014,"clouds":[{"cover":"SCT","base":2000},{"cover":"FEW","base":2500},{"cover":"BKN","base":7000}],"obsTime":1777572000},"SBSC":{"icaoId":"SBSC","flightCategory":"VFR","rawOb":"METAR SBSC 301800Z COR 19011KT 9999 FEW012 27/22 Q1014","temp":27,"dewp":22,"wdir":190,"wspd":11,"visib":"6+","altim":1014,"clouds":[{"cover":"FEW","base":1200}],"obsTime":1777572000},"SBSJ":{"icaoId":"SBSJ","flightCategory":"VFR","rawOb":"METAR SBSJ 301800Z 18003KT 9999 FEW045 28/19 Q1017","temp":28,"dewp":19,"wdir":180,"wspd":3,"visib":"6+","altim":1017,"clouds":[{"cover":"FEW","base":4500}],"obsTime":1777572000},"SBSM":{"icaoId":"SBSM","flightCategory":"VFR","rawOb":"METAR SBSM 301800Z 11005KT 070V170 CAVOK 25/11 Q1015","temp":25,"dewp":11,"wdir":110,"wspd":5,"visib":"6+","altim":1015,"clouds":[],"obsTime":1777572000},"SBSR":{"icaoId":"SBSR","flightCategory":"VFR","rawOb":"METAR SBSR 301800Z VRB04KT 9999 FEW025 32/15 Q1014","temp":32,"dewp":15,"wdir":"VRB","wspd":4,"visib":"6+","altim":1014,"clouds":[{"cover":"FEW","base":2500}],"obsTime":1777572000},"SBTF":{"icaoId":"SBTF","flightCategory":"VFR","rawOb":"METAR SBTF 301800Z 20006KT 9999 SCT020 FEW030TCU 30/25 Q1008","temp":30,"dewp":25,"wdir":200,"wspd":6,"visib":"6+","altim":1008,"clouds":[{"cover":"SCT","base":2000},{"cover":"FEW","base":3000}],"obsTime":1777572000},"SBUY":{"icaoId":"SBUY","flightCategory":"VFR","rawOb":"METAR SBUY 301800Z COR 27001KT 9999 -RA SCT025 FEW035TCU 31/26 Q1007","temp":31,"dewp":26,"wdir":270,"wspd":1,"visib":"6+","altim":1007,"clouds":[{"cover":"SCT","base":2500},{"cover":"FEW","base":3500}],"obsTime":1777572000},"SBVH":{"icaoId":"SBVH","flightCategory":"VFR","rawOb":"METAR SBVH 301800Z 09007KT 9999 SCT030 30/22 Q1012","temp":30,"dewp":22,"wdir":90,"wspd":7,"visib":"6+","altim":1012,"clouds":[{"cover":"SCT","base":3000}],"obsTime":1777572000},"SBAU":{"icaoId":"SBAU","flightCategory":"VFR","rawOb":"METAR SBAU 301800Z 15007KT CAVOK 32/17 Q1014","temp":32,"dewp":17,"wdir":150,"wspd":7,"visib":"6+","altim":1014,"clouds":[],"obsTime":1777572000},"SBJP":{"icaoId":"SBJP","flightCategory":"MVFR","rawOb":"METAR SBJP 301800Z 14009KT 9999 SCT010 BKN025 OVC070 26/25 Q1010","temp":26,"dewp":25,"wdir":140,"wspd":9,"visib":"6+","altim":1010,"clouds":[{"cover":"SCT","base":1000},{"cover":"BKN","base":2500},{"cover":"OVC","base":7000}],"obsTime":1777572000},"SBAN":{"icaoId":"SBAN","flightCategory":"VFR","rawOb":"METAR SBAN 301800Z 17015KT 130V200 CAVOK 27/13 Q1018","temp":27,"dewp":13,"wdir":170,"wspd":15,"visib":"6+","altim":1018,"clouds":[],"obsTime":1777572000},"SBJV":{"icaoId":"SBJV","flightCategory":"VFR","rawOb":"METAR SBJV 301800Z 13003KT 9999 FEW015 BKN040 24/20 Q1016","temp":24,"dewp":20,"wdir":130,"wspd":3,"visib":"6+","altim":1016,"clouds":[{"cover":"FEW","base":1500},{"cover":"BKN","base":4000}],"obsTime":1777572000},"SBNM":{"icaoId":"SBNM","flightCategory":"VFR","rawOb":"METAR SBNM 301800Z 13002KT CAVOK 27/13 Q1014","temp":27,"dewp":13,"wdir":130,"wspd":2,"visib":"6+","altim":1014,"clouds":[],"obsTime":1777572000},"SBIH":{"icaoId":"SBIH","flightCategory":"VFR","rawOb":"METAR SBIH 301800Z 09004KT 9999 VCSH SCT016 SCT020 FEW023TCU 33/24 Q1006","temp":33,"dewp":24,"wdir":90,"wspd":4,"visib":"6+","altim":1006,"clouds":[{"cover":"SCT","base":1600},{"cover":"SCT","base":2000},{"cover":"FEW","base":2300}],"obsTime":1777572000},"SBLE":{"icaoId":"SBLE","flightCategory":"VFR","rawOb":"METAR SBLE 301800Z AUTO 15008KT 120V190 CAVOK 28/18 Q1015","temp":28,"dewp":18,"wdir":150,"wspd":8,"visib":"6+","altim":1015,"clouds":[],"obsTime":1777572000},"SBAF":{"icaoId":"SBAF","flightCategory":"VFR","rawOb":"METAR SBAF 301800Z 20012KT 9999 FEW025 28/22 Q1013","temp":28,"dewp":22,"wdir":200,"wspd":12,"visib":"6+","altim":1013,"clouds":[{"cover":"FEW","base":2500}],"obsTime":1777572000},"SBGW":{"icaoId":"SBGW","flightCategory":"VFR","rawOb":"METAR SBGW 301800Z 30004KT 9999 SCT030 29/17 Q1015","temp":29,"dewp":17,"wdir":300,"wspd":4,"visib":"6+","altim":1015,"clouds":[{"cover":"SCT","base":3000}],"obsTime":1777572000},"SBJR":{"icaoId":"SBJR","flightCategory":"VFR","rawOb":"METAR SBJR 301800Z 19009KT 9999 FEW025 28/23 Q1014","temp":28,"dewp":23,"wdir":190,"wspd":9,"visib":"6+","altim":1014,"clouds":[{"cover":"FEW","base":2500}],"obsTime":1777572000},"SBLS":{"icaoId":"SBLS","flightCategory":"VFR","rawOb":"METAR SBLS 301800Z 11005KT 360V150 9999 BKN048 28/16 Q1017","temp":28,"dewp":16,"wdir":110,"wspd":5,"visib":"6+","altim":1017,"clouds":[{"cover":"BKN","base":4800}],"obsTime":1777572000},"SBMT":{"icaoId":"SBMT","flightCategory":"VFR","rawOb":"METAR SBMT 301800Z 14009KT 100V180 CAVOK 24/19 Q1018","temp":24,"dewp":19,"wdir":140,"wspd":9,"visib":"6+","altim":1018,"clouds":[],"obsTime":1777572000},"SBTA":{"icaoId":"SBTA","flightCategory":"VFR","rawOb":"METAR SBTA 301800Z 04003KT 350V130 9999 FEW040 29/18 Q1015","temp":29,"dewp":18,"wdir":40,"wspd":3,"visib":"6+","altim":1015,"clouds":[{"cover":"FEW","base":4000}],"obsTime":1777572000},"SBST":{"icaoId":"SBST","flightCategory":"VFR","rawOb":"METAR SBST 301800Z /////KT 9999 FEW020 BKN040 ///// Q1015","temp":null,"dewp":null,"wdir":null,"wspd":null,"visib":"6+","altim":1015,"clouds":[{"cover":"FEW","base":2000},{"cover":"BKN","base":4000}],"obsTime":1777572000}}}