{"updated":1777930459,"count":84,"data":{"SBPA":{"icaoId":"SBPA","flightCategory":"VFR","rawOb":"METAR SBPA 042000Z 34011KT 9999 VCSH SCT035 FEW040TCU BKN070 24/18 Q1013","temp":24,"dewp":18,"wdir":340,"wspd":11,"visib":"6+","altim":1013,"clouds":[{"cover":"SCT","base":3500},{"cover":"FEW","base":4000},{"cover":"BKN","base":7000}],"obsTime":1777924800},"SBAT":{"icaoId":"SBAT","flightCategory":"VFR","rawOb":"METAR SBAT 042000Z 00000KT 9999 FEW035 BKN090 26/24 Q1012","temp":26,"dewp":24,"wdir":0,"wspd":0,"visib":"6+","altim":1012,"clouds":[{"cover":"FEW","base":3500},{"cover":"BKN","base":9000}],"obsTime":1777924800},"SBBE":{"icaoId":"SBBE","flightCategory":"VFR","rawOb":"METAR SBBE 042000Z 33002KT 9999 SCT040 FEW048TCU BKN059 26/25 Q1009","temp":26,"dewp":25,"wdir":330,"wspd":2,"visib":"6+","altim":1009,"clouds":[{"cover":"SCT","base":4000},{"cover":"FEW","base":4800},{"cover":"BKN","base":5900}],"obsTime":1777924800},"SBVT":{"icaoId":"SBVT","flightCategory":"VFR","rawOb":"METAR SBVT 042000Z 19008KT 9999 FEW040 SCT050 24/17 Q1020","temp":24,"dewp":17,"wdir":190,"wspd":8,"visib":"6+","altim":1020,"clouds":[{"cover":"FEW","base":4000},{"cover":"SCT","base":5000}],"obsTime":1777924800},"SBBR":{"icaoId":"SBBR","flightCategory":"VFR","rawOb":"METAR SBBR 042000Z 11012KT 9999 FEW045 BKN100 25/16 Q1020","temp":25,"dewp":16,"wdir":110,"wspd":12,"visib":"6+","altim":1020,"clouds":[{"cover":"FEW","base":4500},{"cover":"BKN","base":10000}],"obsTime":1777924800},"SBBV":{"icaoId":"SBBV","flightCategory":"VFR","rawOb":"METAR SBBV 042000Z 14007KT 9999 SCT040 FEW045TCU SCT080 32/22 Q1009","temp":32,"dewp":22,"wdir":140,"wspd":7,"visib":"6+","altim":1009,"clouds":[{"cover":"SCT","base":4000},{"cover":"FEW","base":4500},{"cover":"SCT","base":8000}],"obsTime":1777924800},"SBCB":{"icaoId":"SBCB","flightCategory":"VFR","rawOb":"METAR SBCB 042000Z 09017KT CAVOK 24/16 Q1020","temp":24,"dewp":16,"wdir":90,"wspd":17,"visib":"6+","altim":1020,"clouds":[],"obsTime":1777924800},"SBCF":{"icaoId":"SBCF","flightCategory":"VFR","rawOb":"METAR SBCF 042000Z 13008KT 9999 FEW045 24/16 Q1022","temp":24,"dewp":16,"wdir":130,"wspd":8,"visib":"6+","altim":1022,"clouds":[{"cover":"FEW","base":4500}],"obsTime":1777924800},"SBCG":{"icaoId":"SBCG","flightCategory":"VFR","rawOb":"METAR SBCG 042000Z 35009KT CAVOK 30/16 Q1015","temp":30,"dewp":16,"wdir":350,"wspd":9,"visib":"6+","altim":1015,"clouds":[],"obsTime":1777924800},"SBCP":{"icaoId":"SBCP","flightCategory":"VFR","rawOb":"METAR SBCP 042000Z 10008KT 9999 BKN040 24/17 Q1020","temp":24,"dewp":17,"wdir":100,"wspd":8,"visib":"6+","altim":1020,"clouds":[{"cover":"BKN","base":4000}],"obsTime":1777924800},"SBCR":{"icaoId":"SBCR","flightCategory":"VFR","rawOb":"METAR SBCR 042000Z 05008KT 010V080 9999 FEW030 32/18 Q1010","temp":32,"dewp":18,"wdir":50,"wspd":8,"visib":"6+","altim":1010,"clouds":[{"cover":"FEW","base":3000}],"obsTime":1777924800},"SBCT":{"icaoId":"SBCT","flightCategory":"VFR","rawOb":"METAR SBCT 042000Z 07003KT 010V120 9999 FEW025 SCT100 20/16 Q1020","temp":20,"dewp":16,"wdir":70,"wspd":3,"visib":"6+","altim":1020,"clouds":[{"cover":"FEW","base":2500},{"cover":"SCT","base":10000}],"obsTime":1777924800},"SBCZ":{"icaoId":"SBCZ","flightCategory":"MVFR","rawOb":"METAR SBCZ 042000Z 30004KT 9999 BKN030 FEW030TCU 29/24 Q1011","temp":29,"dewp":24,"wdir":300,"wspd":4,"visib":"6+","altim":1011,"clouds":[{"cover":"BKN","base":3000},{"cover":"FEW","base":3000}],"obsTime":1777924800},"SBEG":{"icaoId":"SBEG","flightCategory":"VFR","rawOb":"METAR SBEG 042000Z 01001KT 9999 SCT020 FEW025TCU BKN100 28/24 Q1010","temp":28,"dewp":24,"wdir":10,"wspd":1,"visib":"6+","altim":1010,"clouds":[{"cover":"SCT","base":2000},{"cover":"FEW","base":2500},{"cover":"BKN","base":10000}],"obsTime":1777924800},"SBFI":{"icaoId":"SBFI","flightCategory":"VFR","rawOb":"METAR SBFI 042000Z 02009KT 9999 FEW030 26/21 Q1013","temp":26,"dewp":21,"wdir":20,"wspd":9,"visib":"6+","altim":1013,"clouds":[{"cover":"FEW","base":3000}],"obsTime":1777924800},"SBFL":{"icaoId":"SBFL","flightCategory":"VFR","rawOb":"METAR SBFL 042000Z 01012KT 9999 FEW035 BKN070 22/18 Q1017","temp":22,"dewp":18,"wdir":10,"wspd":12,"visib":"6+","altim":1017,"clouds":[{"cover":"FEW","base":3500},{"cover":"BKN","base":7000}],"obsTime":1777924800},"SBFZ":{"icaoId":"SBFZ","flightCategory":"VFR","rawOb":"METAR SBFZ 042000Z 08006KT 9999 VCSH SCT023 FEW025TCU BKN070 28/24 Q1010","temp":28,"dewp":24,"wdir":80,"wspd":6,"visib":"6+","altim":1010,"clouds":[{"cover":"SCT","base":2300},{"cover":"FEW","base":2500},{"cover":"BKN","base":7000}],"obsTime":1777924800},"SBGL":{"icaoId":"SBGL","flightCategory":"VFR","rawOb":"METAR SBGL 042000Z 12005KT CAVOK 26/18 Q1018","temp":26,"dewp":18,"wdir":120,"wspd":5,"visib":"6+","altim":1018,"clouds":[],"obsTime":1777924800},"SBGO":{"icaoId":"SBGO","flightCategory":"VFR","rawOb":"METAR SBGO 042000Z 06009KT 030V090 CAVOK 30/17 Q1017","temp":30,"dewp":17,"wdir":60,"wspd":9,"visib":"6+","altim":1017,"clouds":[],"obsTime":1777924800},"SBGR":{"icaoId":"SBGR","flightCategory":"VFR","rawOb":"METAR SBGR 042000Z 30005KT 9999 SCT040 26/17 Q1020","temp":26,"dewp":17,"wdir":300,"wspd":5,"visib":"6+","altim":1020,"clouds":[{"cover":"SCT","base":4000}],"obsTime":1777924800},"SBHT":{"icaoId":"SBHT","flightCategory":"MVFR","rawOb":"METAR SBHT 042000Z 15003KT 9999 BKN025 31/23 Q1009","temp":31,"dewp":23,"wdir":150,"wspd":3,"visib":"6+","altim":1009,"clouds":[{"cover":"BKN","base":2500}],"obsTime":1777924800},"SBIL":{"icaoId":"SBIL","flightCategory":"VFR","rawOb":"METAR SBIL 042000Z 19011KT 9999 SCT025 29/13 Q1016","temp":29,"dewp":13,"wdir":190,"wspd":11,"visib":"6+","altim":1016,"clouds":[{"cover":"SCT","base":2500}],"obsTime":1777924800},"SBJU":{"icaoId":"SBJU","flightCategory":"VFR","rawOb":"METAR SBJU 042000Z 15004KT 9999 FEW022 30/21 Q1013","temp":30,"dewp":21,"wdir":150,"wspd":4,"visib":"6+","altim":1013,"clouds":[{"cover":"FEW","base":2200}],"obsTime":1777924800},"SBKP":{"icaoId":"SBKP","flightCategory":"VFR","rawOb":"METAR SBKP 042000Z 00000KT 9999 FEW045 28/17 Q1019","temp":28,"dewp":17,"wdir":0,"wspd":0,"visib":"6+","altim":1019,"clouds":[{"cover":"FEW","base":4500}],"obsTime":1777924800},"SBLO":{"icaoId":"SBLO","flightCategory":"VFR","rawOb":"METAR SBLO 042000Z 08006KT CAVOK 26/19 Q1017","temp":26,"dewp":19,"wdir":80,"wspd":6,"visib":"6+","altim":1017,"clouds":[],"obsTime":1777924800},"SBMA":{"icaoId":"SBMA","flightCategory":"VFR","rawOb":"METAR SBMA 042000Z 08005KT 9999 SCT020 FEW023TCU 31/23 Q1010","temp":31,"dewp":23,"wdir":80,"wspd":5,"visib":"6+","altim":1010,"clouds":[{"cover":"SCT","base":2000},{"cover":"FEW","base":2300}],"obsTime":1777924800},"SBME":{"icaoId":"SBME","flightCategory":"VFR","rawOb":"METAR SBME 042000Z 09005KT 9999 BKN045 25/16 Q1020","temp":25,"dewp":16,"wdir":90,"wspd":5,"visib":"6+","altim":1020,"clouds":[{"cover":"BKN","base":4500}],"obsTime":1777924800},"SBMG":{"icaoId":"SBMG","flightCategory":"VFR","rawOb":"METAR SBMG 042000Z 01006KT CAVOK 26/19 Q1016","temp":26,"dewp":19,"wdir":10,"wspd":6,"visib":"6+","altim":1016,"clouds":[],"obsTime":1777924800},"SBMK":{"icaoId":"SBMK","flightCategory":"VFR","rawOb":"METAR SBMK 042000Z 10010KT CAVOK 27/17 Q1019","temp":27,"dewp":17,"wdir":100,"wspd":10,"visib":"6+","altim":1019,"clouds":[],"obsTime":1777924800},"SBMO":{"icaoId":"SBMO","flightCategory":"VFR","rawOb":"METAR SBMO 042000Z 16010KT 9999 SCT026 28/22 Q1013","temp":28,"dewp":22,"wdir":160,"wspd":10,"visib":"6+","altim":1013,"clouds":[{"cover":"SCT","base":2600}],"obsTime":1777924800},"SBMQ":{"icaoId":"SBMQ","flightCategory":"VFR","rawOb":"SPECI SBMQ 041945Z 07014KT 9999 TS SCT025 FEW030CB SCT070 30/25 Q1009","temp":30,"dewp":25,"wdir":70,"wspd":14,"visib":"6+","altim":1009,"clouds":[{"cover":"SCT","base":2500},{"cover":"FEW","base":3000},{"cover":"SCT","base":7000}],"obsTime":1777923900},"SBNT":{"icaoId":"SBNT","flightCategory":"VFR","rawOb":"METAR SBNT 042000Z 15013KT CAVOK 29/23 Q1011","temp":29,"dewp":23,"wdir":150,"wspd":13,"visib":"6+","altim":1011,"clouds":[],"obsTime":1777924800},"SBPJ":{"icaoId":"SBPJ","flightCategory":"VFR","rawOb":"METAR SBPJ 042000Z 11005KT 080V140 9999 FEW045 33/21 Q1012","temp":33,"dewp":21,"wdir":110,"wspd":5,"visib":"6+","altim":1012,"clouds":[{"cover":"FEW","base":4500}],"obsTime":1777924800},"SBPV":{"icaoId":"SBPV","flightCategory":"MVFR","rawOb":"METAR SBPV 042000Z 34003KT 9999 BKN030 30/25 Q1009","temp":30,"dewp":25,"wdir":340,"wspd":3,"visib":"6+","altim":1009,"clouds":[{"cover":"BKN","base":3000}],"obsTime":1777924800},"SBRB":{"icaoId":"SBRB","flightCategory":"VFR","rawOb":"METAR SBRB 042000Z 22003KT 9999 SCT025 30/25 Q1011","temp":30,"dewp":25,"wdir":220,"wspd":3,"visib":"6+","altim":1011,"clouds":[{"cover":"SCT","base":2500}],"obsTime":1777924800},"SBRF":{"icaoId":"SBRF","flightCategory":"VFR","rawOb":"METAR SBRF 042000Z 17012KT 9999 SCT020 FEW025TCU SCT060 28/24 Q1012","temp":28,"dewp":24,"wdir":170,"wspd":12,"visib":"6+","altim":1012,"clouds":[{"cover":"SCT","base":2000},{"cover":"FEW","base":2500},{"cover":"SCT","base":6000}],"obsTime":1777924800},"SBSG":{"icaoId":"SBSG","flightCategory":"VFR","rawOb":"METAR SBSG 042000Z 13006KT 110V180 9999 SCT030 FEW033TCU 28/24 Q1012","temp":28,"dewp":24,"wdir":130,"wspd":6,"visib":"6+","altim":1012,"clouds":[{"cover":"SCT","base":3000},{"cover":"FEW","base":3300}],"obsTime":1777924800},"SBSL":{"icaoId":"SBSL","flightCategory":"VFR","rawOb":"METAR SBSL 042000Z 07007KT 9999 FEW025 BKN080 29/24 Q1010","temp":29,"dewp":24,"wdir":70,"wspd":7,"visib":"6+","altim":1010,"clouds":[{"cover":"FEW","base":2500},{"cover":"BKN","base":8000}],"obsTime":1777924800},"SBSN":{"icaoId":"SBSN","flightCategory":"VFR","rawOb":"METAR SBSN 042000Z 06003KT 9999 FEW025 SCT030TCU 29/25 Q1008","temp":29,"dewp":25,"wdir":60,"wspd":3,"visib":"6+","altim":1008,"clouds":[{"cover":"FEW","base":2500},{"cover":"SCT","base":3000}],"obsTime":1777924800},"SBSP":{"icaoId":"SBSP","flightCategory":"VFR","rawOb":"METAR SBSP 042000Z 18011KT 9999 4900S FEW010 SCT030 BKN060 20/18 Q1021","temp":20,"dewp":18,"wdir":180,"wspd":11,"visib":"6+","altim":1021,"clouds":[{"cover":"FEW","base":1000},{"cover":"SCT","base":3000},{"cover":"BKN","base":6000}],"obsTime":1777924800},"SBSV":{"icaoId":"SBSV","flightCategory":"VFR","rawOb":"METAR SBSV 042000Z 15010KT 9999 SCT023 28/22 Q1014","temp":28,"dewp":22,"wdir":150,"wspd":10,"visib":"6+","altim":1014,"clouds":[{"cover":"SCT","base":2300}],"obsTime":1777924800},"SBTE":{"icaoId":"SBTE","flightCategory":"MVFR","rawOb":"METAR SBTE 042000Z 11009KT 9999 VCSH SCT016 BKN025 SCT030TCU 31/23 Q1009","temp":31,"dewp":23,"wdir":110,"wspd":9,"visib":"6+","altim":1009,"clouds":[{"cover":"SCT","base":1600},{"cover":"BKN","base":2500},{"cover":"SCT","base":3000}],"obsTime":1777924800},"SBUL":{"icaoId":"SBUL","flightCategory":"VFR","rawOb":"METAR SBUL 042000Z 06008KT CAVOK 26/14 Q1020","temp":26,"dewp":14,"wdir":60,"wspd":8,"visib":"6+","altim":1020,"clouds":[],"obsTime":1777924800},"SBUR":{"icaoId":"SBUR","flightCategory":"VFR","rawOb":"METAR SBUR 042000Z 03005KT CAVOK 29/14 Q1019","temp":29,"dewp":14,"wdir":30,"wspd":5,"visib":"6+","altim":1019,"clouds":[],"obsTime":1777924800},"SBCJ":{"icaoId":"SBCJ","flightCategory":"VFR","rawOb":"METAR SBCJ 042000Z 00000KT 9999 SCT023 27/21 Q1014","temp":27,"dewp":21,"wdir":0,"wspd":0,"visib":"6+","altim":1014,"clouds":[{"cover":"SCT","base":2300}],"obsTime":1777924800},"SBAR":{"icaoId":"SBAR","flightCategory":"VFR","rawOb":"METAR SBAR 042000Z 18008KT 150V210 9999 4000NW -SHRA SCT023 FEW026TCU BKN080 26/22 Q1013 RESHRA","temp":26,"dewp":22,"wdir":180,"wspd":8,"visib":"6+","altim":1013,"clouds":[{"cover":"SCT","base":2300},{"cover":"FEW","base":2600},{"cover":"BKN","base":8000}],"obsTime":1777924800},"SBSJ":{"icaoId":"SBSJ","flightCategory":"VFR","rawOb":"METAR SBSJ 042000Z 32002KT CAVOK 25/18 Q1020","temp":25,"dewp":18,"wdir":320,"wspd":2,"visib":"6+","altim":1020,"clouds":[],"obsTime":1777924800},"SBAX":{"icaoId":"SBAX","flightCategory":"VFR","rawOb":"METAR SBAX 042000Z 04003KT 9999 FEW030 25/15 Q1021","temp":25,"dewp":15,"wdir":40,"wspd":3,"visib":"6+","altim":1021,"clouds":[{"cover":"FEW","base":3000}],"obsTime":1777924800},"SBBH":{"icaoId":"SBBH","flightCategory":"VFR","rawOb":"METAR SBBH 042000Z 07004KT CAVOK 24/16 Q1021","temp":24,"dewp":16,"wdir":70,"wspd":4,"visib":"6+","altim":1021,"clouds":[],"obsTime":1777924800},"SBBU":{"icaoId":"SBBU","flightCategory":"VFR","rawOb":"METAR SBBU 042000Z 10004KT 9999 FEW040 30/19 Q1017","temp":30,"dewp":19,"wdir":100,"wspd":4,"visib":"6+","altim":1017,"clouds":[{"cover":"FEW","base":4000}],"obsTime":1777924800},"SBCA":{"icaoId":"SBCA","flightCategory":"VFR","rawOb":"METAR SBCA 042000Z 01010KT CAVOK 24/17 Q1018","temp":24,"dewp":17,"wdir":10,"wspd":10,"visib":"6+","altim":1018,"clouds":[],"obsTime":1777924800},"SBCO":{"icaoId":"SBCO","flightCategory":"VFR","rawOb":"METAR SBCO 042000Z 34008KT 9999 FEW036 BKN090 23/17 Q1014","temp":23,"dewp":17,"wdir":340,"wspd":8,"visib":"6+","altim":1014,"clouds":[{"cover":"FEW","base":3600},{"cover":"BKN","base":9000}],"obsTime":1777924800},"SBDN":{"icaoId":"SBDN","flightCategory":"VFR","rawOb":"METAR SBDN 042000Z 00000KT CAVOK 30/17 Q1016","temp":30,"dewp":17,"wdir":0,"wspd":0,"visib":"6+","altim":1016,"clouds":[],"obsTime":1777924800},"SBES":{"icaoId":"SBES","flightCategory":"VFR","rawOb":"METAR SBES 042000Z 08008KT 040V100 CAVOK 23/// Q1020","temp":null,"dewp":null,"wdir":80,"wspd":8,"visib":"6+","altim":1020,"clouds":[],"obsTime":1777924800},"SBIP":{"icaoId":"SBIP","flightCategory":"VFR","rawOb":"METAR SBIP 042000Z AUTO 35003KT CAVOK 25/19 Q1019","temp":25,"dewp":19,"wdir":350,"wspd":3,"visib":"6+","altim":1019,"clouds":[],"obsTime":1777924800},"SBKG":{"icaoId":"SBKG","flightCategory":"VFR","rawOb":"METAR SBKG 042000Z 11008KT 9999 SCT015 25/22 Q1014","temp":25,"dewp":22,"wdir":110,"wspd":8,"visib":"6+","altim":1014,"clouds":[{"cover":"SCT","base":1500}],"obsTime":1777924800},"SBOI":{"icaoId":"SBOI","flightCategory":"VFR","rawOb":"METAR SBOI 042000Z AUTO 02009KT 9999 SCT029 29/24 Q1010","temp":29,"dewp":24,"wdir":20,"wspd":9,"visib":"6+","altim":1010,"clouds":[{"cover":"SCT","base":2900}],"obsTime":1777924800},"SBPB":{"icaoId":"SBPB","flightCategory":"VFR","rawOb":"METAR SBPB 042000Z 06008KT 9999 FEW020 BKN100 30/25 Q1010","temp":30,"dewp":25,"wdir":60,"wspd":8,"visib":"6+","altim":1010,"clouds":[{"cover":"FEW","base":2000},{"cover":"BKN","base":10000}],"obsTime":1777924800},"SBPL":{"icaoId":"SBPL","flightCategory":"VFR","rawOb":"METAR SBPL 042000Z 13010KT 9999 FEW030 BKN070 31/18 Q1013","temp":31,"dewp":18,"wdir":130,"wspd":10,"visib":"6+","altim":1013,"clouds":[{"cover":"FEW","base":3000},{"cover":"BKN","base":7000}],"obsTime":1777924800},"SBPP":{"icaoId":"SBPP","flightCategory":"VFR","rawOb":"METAR SBPP 042000Z 05009KT 9999 FEW020 27/20 Q1015","temp":27,"dewp":20,"wdir":50,"wspd":9,"visib":"6+","altim":1015,"clouds":[{"cover":"FEW","base":2000}],"obsTime":1777924800},"SBPS":{"icaoId":"SBPS","flightCategory":"MVFR","rawOb":"METAR SBPS 042000Z 23005KT 180V280 8000 VCSH BKN015 FEW020TCU BKN050 23/22 Q1017","temp":23,"dewp":22,"wdir":230,"wspd":5,"visib":4.97,"altim":1017,"clouds":[{"cover":"BKN","base":1500},{"cover":"FEW","base":2000},{"cover":"BKN","base":5000}],"obsTime":1777924800},"SBSC":{"icaoId":"SBSC","flightCategory":"VFR","rawOb":"METAR SBSC 042000Z 11005KT CAVOK 26/19 Q1018","temp":26,"dewp":19,"wdir":110,"wspd":5,"visib":"6+","altim":1018,"clouds":[],"obsTime":1777924800},"SBSM":{"icaoId":"SBSM","flightCategory":"MVFR","rawOb":"METAR SBSM 042000Z 00000KT 9999 BKN023 BKN050 20/18 Q1013","temp":20,"dewp":18,"wdir":0,"wspd":0,"visib":"6+","altim":1013,"clouds":[{"cover":"BKN","base":2300},{"cover":"BKN","base":5000}],"obsTime":1777924800},"SBSR":{"icaoId":"SBSR","flightCategory":"VFR","rawOb":"METAR SBSR 042000Z 07002KT 9999 FEW035 31/13 Q1016","temp":31,"dewp":13,"wdir":70,"wspd":2,"visib":"6+","altim":1016,"clouds":[{"cover":"FEW","base":3500}],"obsTime":1777924800},"SBTF":{"icaoId":"SBTF","flightCategory":"VFR","rawOb":"METAR SBTF 042000Z 35003KT 9999 SCT020 31/25 Q1009","temp":31,"dewp":25,"wdir":350,"wspd":3,"visib":"6+","altim":1009,"clouds":[{"cover":"SCT","base":2000}],"obsTime":1777924800},"SBTT":{"icaoId":"SBTT","flightCategory":"VFR","rawOb":"METAR SBTT 042000Z 31002KT 9999 SCT020 28/22 Q1011","temp":28,"dewp":22,"wdir":310,"wspd":2,"visib":"6+","altim":1011,"clouds":[{"cover":"SCT","base":2000}],"obsTime":1777924800},"SBUY":{"icaoId":"SBUY","flightCategory":"VFR","rawOb":"METAR SBUY 042000Z 02008KT 9999 VCSH SCT025 FEW035TCU 30/24 Q1008","temp":30,"dewp":24,"wdir":20,"wspd":8,"visib":"6+","altim":1008,"clouds":[{"cover":"SCT","base":2500},{"cover":"FEW","base":3500}],"obsTime":1777924800},"SBVH":{"icaoId":"SBVH","flightCategory":"VFR","rawOb":"METAR SBVH 042000Z 36005KT 9999 FEW045 30/19 Q1014","temp":30,"dewp":19,"wdir":360,"wspd":5,"visib":"6+","altim":1014,"clouds":[{"cover":"FEW","base":4500}],"obsTime":1777924800},"SBBQ":{"icaoId":"SBBQ","flightCategory":"VFR","rawOb":"METAR SBBQ 042000Z 09004KT 060V120 9999 SCT030 BKN080 20/16 Q1025","temp":20,"dewp":16,"wdir":90,"wspd":4,"visib":"6+","altim":1025,"clouds":[{"cover":"SCT","base":3000},{"cover":"BKN","base":8000}],"obsTime":1777924800},"SBCC":{"icaoId":"SBCC","flightCategory":"MVFR","rawOb":"METAR SBCC 042000Z /////KT 9999 BKN025 ///// Q1014 RERA","temp":null,"dewp":null,"wdir":null,"wspd":null,"visib":"6+","altim":1014,"clouds":[{"cover":"BKN","base":2500}],"obsTime":1777924800},"SBLE":{"icaoId":"SBLE","flightCategory":"VFR","rawOb":"METAR SBLE 042000Z AUTO 14004KT CAVOK 27/18 Q1017","temp":27,"dewp":18,"wdir":140,"wspd":4,"visib":"6+","altim":1017,"clouds":[],"obsTime":1777924800},"SBJV":{"icaoId":"SBJV","flightCategory":"MVFR","rawOb":"METAR SBJV 042000Z 10003KT 060V190 9000 -RA SCT015 BKN025 22/20 Q1017","temp":22,"dewp":20,"wdir":100,"wspd":3,"visib":5.59,"altim":1017,"clouds":[{"cover":"SCT","base":1500},{"cover":"BKN","base":2500}],"obsTime":1777924800},"SBNM":{"icaoId":"SBNM","flightCategory":"VFR","rawOb":"METAR SBNM 042000Z 15002KT 9999 SCT030 23/22 Q1014","temp":23,"dewp":22,"wdir":150,"wspd":2,"visib":"6+","altim":1014,"clouds":[{"cover":"SCT","base":3000}],"obsTime":1777924800},"SBPF":{"icaoId":"SBPF","flightCategory":"MVFR","rawOb":"METAR SBPF 042000Z 07010KT 9999 BKN010 BKN070 20/15 Q1017","temp":20,"dewp":15,"wdir":70,"wspd":10,"visib":"6+","altim":1017,"clouds":[{"cover":"BKN","base":1000},{"cover":"BKN","base":7000}],"obsTime":1777924800},"SBST":{"icaoId":"SBST","flightCategory":"VFR","rawOb":"METAR SBST 042000Z /////KT 9999 BKN040 ///// Q1017","temp":null,"dewp":null,"wdir":null,"wspd":null,"visib":"6+","altim":1017,"clouds":[{"cover":"BKN","base":4000}],"obsTime":1777924800},"SBAF":{"icaoId":"SBAF","flightCategory":"VFR","rawOb":"METAR SBAF 042000Z 10007KT CAVOK 25/19 Q1018","temp":25,"dewp":19,"wdir":100,"wspd":7,"visib":"6+","altim":1018,"clouds":[],"obsTime":1777924800},"SBIH":{"icaoId":"SBIH","flightCategory":"VFR","rawOb":"METAR SBIH 042000Z 27004KT 9999 TS SCT018 FEW025CB 31/25 Q1009","temp":31,"dewp":25,"wdir":270,"wspd":4,"visib":"6+","altim":1009,"clouds":[{"cover":"SCT","base":1800},{"cover":"FEW","base":2500}],"obsTime":1777924800},"SBGW":{"icaoId":"SBGW","flightCategory":"VFR","rawOb":"METAR SBGW 042000Z 04008KT 360V070 9999 FEW030 25/15 Q1019","temp":25,"dewp":15,"wdir":40,"wspd":8,"visib":"6+","altim":1019,"clouds":[{"cover":"FEW","base":3000}],"obsTime":1777924800},"SBJR":{"icaoId":"SBJR","flightCategory":"VFR","rawOb":"METAR SBJR 042000Z 12009KT CAVOK 26/19 Q1018","temp":26,"dewp":19,"wdir":120,"wspd":9,"visib":"6+","altim":1018,"clouds":[],"obsTime":1777924800},"SBJP":{"icaoId":"SBJP","flightCategory":"VFR","rawOb":"METAR SBJP 042000Z 13013KT 9999 FEW030 28/23 Q1012","temp":28,"dewp":23,"wdir":130,"wspd":13,"visib":"6+","altim":1012,"clouds":[{"cover":"FEW","base":3000}],"obsTime":1777924800},"SBLS":{"icaoId":"SBLS","flightCategory":"VFR","rawOb":"METAR SBLS 042000Z 13007KT 070V140 9999 FEW033 23/17 Q1021","temp":23,"dewp":17,"wdir":130,"wspd":7,"visib":"6+","altim":1021,"clouds":[{"cover":"FEW","base":3300}],"obsTime":1777924800},"SBMT":{"icaoId":"SBMT","flightCategory":"VFR","rawOb":"METAR SBMT 042000Z 19010KT 9999 SCT040 24/17 Q1020","temp":24,"dewp":17,"wdir":190,"wspd":10,"visib":"6+","altim":1020,"clouds":[{"cover":"SCT","base":4000}],"obsTime":1777924800},"SBAN":{"icaoId":"SBAN","flightCategory":"VFR","rawOb":"METAR SBAN 042000Z 16010KT 9999 FEW040 26/16 Q1021","temp":26,"dewp":16,"wdir":160,"wspd":10,"visib":"6+","altim":1021,"clouds":[{"cover":"FEW","base":4000}],"obsTime":1777924800},"SBTA":{"icaoId":"SBTA","flightCategory":"VFR","rawOb":"METAR SBTA 042000Z 05007KT 9999 FEW040 25/16 Q1018","temp":25,"dewp":16,"wdir":50,"wspd":7,"visib":"6+","altim":1018,"clouds":[{"cover":"FEW","base":4000}],"obsTime":1777924800}}}