{"updated":1776973553,"count":85,"data":{"SBPV":{"icaoId":"SBPV","flightCategory":"MVFR","rawOb":"METAR SBPV 231800Z VRB01KT 9999 VCSH BKN021 BKN035 29/26 Q1008","temp":29,"dewp":26,"wdir":"VRB","wspd":1,"visib":"6+","altim":1008,"clouds":[{"cover":"BKN","base":2100},{"cover":"BKN","base":3500}],"obsTime":1776967200},"SBTE":{"icaoId":"SBTE","flightCategory":"MVFR","rawOb":"METAR SBTE 231800Z 10006KT 9999 BKN025 33/23 Q1007","temp":33,"dewp":23,"wdir":100,"wspd":6,"visib":"6+","altim":1007,"clouds":[{"cover":"BKN","base":2500}],"obsTime":1776967200},"SBSL":{"icaoId":"SBSL","flightCategory":"MVFR","rawOb":"METAR SBSL 231800Z 06012KT 9999 VCSH BKN025 FEW030TCU 30/25 Q1007","temp":30,"dewp":25,"wdir":60,"wspd":12,"visib":"6+","altim":1007,"clouds":[{"cover":"BKN","base":2500},{"cover":"FEW","base":3000}],"obsTime":1776967200},"SBPA":{"icaoId":"SBPA","flightCategory":"MVFR","rawOb":"METAR SBPA 231800Z 15012KT 9999 SCT015 BKN024 23/19 Q1018","temp":23,"dewp":19,"wdir":150,"wspd":12,"visib":"6+","altim":1018,"clouds":[{"cover":"SCT","base":1500},{"cover":"BKN","base":2400}],"obsTime":1776967200},"SBAT":{"icaoId":"SBAT","flightCategory":"VFR","rawOb":"METAR SBAT 231800Z 36002KT 9999 SCT030 32/23 Q1011","temp":32,"dewp":23,"wdir":360,"wspd":2,"visib":"6+","altim":1011,"clouds":[{"cover":"SCT","base":3000}],"obsTime":1776967200},"SBBE":{"icaoId":"SBBE","flightCategory":"IFR","rawOb":"METAR SBBE 231800Z 06006KT 2500 TSRA SCT017 BKN018 FEW030CB 23/23 Q1008","temp":23,"dewp":23,"wdir":60,"wspd":6,"visib":1.55,"altim":1008,"clouds":[{"cover":"SCT","base":1700},{"cover":"BKN","base":1800},{"cover":"FEW","base":3000}],"obsTime":1776967200},"SBBR":{"icaoId":"SBBR","flightCategory":"VFR","rawOb":"METAR SBBR 231800Z 12010KT 9999 SCT030 27/15 Q1018","temp":27,"dewp":15,"wdir":120,"wspd":10,"visib":"6+","altim":1018,"clouds":[{"cover":"SCT","base":3000}],"obsTime":1776967200},"SBBV":{"icaoId":"SBBV","flightCategory":"VFR","rawOb":"METAR SBBV 231800Z 13003KT 9999 SCT025 FEW030TCU SCT100 31/22 Q1010","temp":31,"dewp":22,"wdir":130,"wspd":3,"visib":"6+","altim":1010,"clouds":[{"cover":"SCT","base":2500},{"cover":"FEW","base":3000},{"cover":"SCT","base":10000}],"obsTime":1776967200},"SBCB":{"icaoId":"SBCB","flightCategory":"VFR","rawOb":"METAR SBCB 231800Z 12008KT 9999 FEW020 SCT090 26/21 Q1017","temp":26,"dewp":21,"wdir":120,"wspd":8,"visib":"6+","altim":1017,"clouds":[{"cover":"FEW","base":2000},{"cover":"SCT","base":9000}],"obsTime":1776967200},"SBCF":{"icaoId":"SBCF","flightCategory":"VFR","rawOb":"METAR SBCF 231800Z 12009KT 080V140 9999 SCT036 26/15 Q1019","temp":26,"dewp":15,"wdir":120,"wspd":9,"visib":"6+","altim":1019,"clouds":[{"cover":"SCT","base":3600}],"obsTime":1776967200},"SBCG":{"icaoId":"SBCG","flightCategory":"VFR","rawOb":"METAR SBCG 231800Z 07004KT 040V120 CAVOK 29/15 Q1015","temp":29,"dewp":15,"wdir":70,"wspd":4,"visib":"6+","altim":1015,"clouds":[],"obsTime":1776967200},"SBCP":{"icaoId":"SBCP","flightCategory":"VFR","rawOb":"METAR SBCP 231800Z 16011KT 9999 SCT025 29/19 Q1016","temp":29,"dewp":19,"wdir":160,"wspd":11,"visib":"6+","altim":1016,"clouds":[{"cover":"SCT","base":2500}],"obsTime":1776967200},"SBCR":{"icaoId":"SBCR","flightCategory":"VFR","rawOb":"METAR SBCR 231800Z VRB04KT CAVOK 33/19 Q1011","temp":33,"dewp":19,"wdir":"VRB","wspd":4,"visib":"6+","altim":1011,"clouds":[],"obsTime":1776967200},"SBCT":{"icaoId":"SBCT","flightCategory":"VFR","rawOb":"METAR SBCT 231800Z 11008KT 9999 FEW025 23/15 Q1021","temp":23,"dewp":15,"wdir":110,"wspd":8,"visib":"6+","altim":1021,"clouds":[{"cover":"FEW","base":2500}],"obsTime":1776967200},"SBCZ":{"icaoId":"SBCZ","flightCategory":"VFR","rawOb":"METAR SBCZ 231800Z 09006KT 010V130 9999 SCT024 31/25 Q1009","temp":31,"dewp":25,"wdir":90,"wspd":6,"visib":"6+","altim":1009,"clouds":[{"cover":"SCT","base":2400}],"obsTime":1776967200},"SBEG":{"icaoId":"SBEG","flightCategory":"MVFR","rawOb":"METAR SBEG 231800Z 18005KT 9999 4000SW VCSH BKN020 FEW025TCU 27/25 Q1011","temp":27,"dewp":25,"wdir":180,"wspd":5,"visib":"6+","altim":1011,"clouds":[{"cover":"BKN","base":2000},{"cover":"FEW","base":2500}],"obsTime":1776967200},"SBFI":{"icaoId":"SBFI","flightCategory":"VFR","rawOb":"METAR SBFI 231800Z 08004KT 9999 FEW025 32/22 Q1014","temp":32,"dewp":22,"wdir":80,"wspd":4,"visib":"6+","altim":1014,"clouds":[{"cover":"FEW","base":2500}],"obsTime":1776967200},"SBFL":{"icaoId":"SBFL","flightCategory":"VFR","rawOb":"METAR SBFL 231800Z 11009KT 9999 FEW030 SCT049 26/20 Q1017","temp":26,"dewp":20,"wdir":110,"wspd":9,"visib":"6+","altim":1017,"clouds":[{"cover":"FEW","base":3000},{"cover":"SCT","base":4900}],"obsTime":1776967200},"SBFZ":{"icaoId":"SBFZ","flightCategory":"VFR","rawOb":"METAR SBFZ 231800Z 09013KT 9999 FEW025 30/23 Q1008","temp":30,"dewp":23,"wdir":90,"wspd":13,"visib":"6+","altim":1008,"clouds":[{"cover":"FEW","base":2500}],"obsTime":1776967200},"SBGL":{"icaoId":"SBGL","flightCategory":"VFR","rawOb":"METAR SBGL 231800Z 13011KT 9999 FEW040 28/19 Q1016","temp":28,"dewp":19,"wdir":130,"wspd":11,"visib":"6+","altim":1016,"clouds":[{"cover":"FEW","base":4000}],"obsTime":1776967200},"SBGO":{"icaoId":"SBGO","flightCategory":"VFR","rawOb":"METAR SBGO 231800Z 09006KT 9999 SCT049 SCT070 30/16 Q1015","temp":30,"dewp":16,"wdir":90,"wspd":6,"visib":"6+","altim":1015,"clouds":[{"cover":"SCT","base":4900},{"cover":"SCT","base":7000}],"obsTime":1776967200},"SBGR":{"icaoId":"SBGR","flightCategory":"VFR","rawOb":"METAR SBGR 231800Z 11005KT 9999 SCT040 26/15 Q1019","temp":26,"dewp":15,"wdir":110,"wspd":5,"visib":"6+","altim":1019,"clouds":[{"cover":"SCT","base":4000}],"obsTime":1776967200},"SBHT":{"icaoId":"SBHT","flightCategory":"MVFR","rawOb":"METAR SBHT 231800Z 17011KT 5000 2000E TSRA BKN020 FEW023CB 25/23 Q1010","temp":25,"dewp":23,"wdir":170,"wspd":11,"visib":3.11,"altim":1010,"clouds":[{"cover":"BKN","base":2000},{"cover":"FEW","base":2300}],"obsTime":1776967200},"SBIL":{"icaoId":"SBIL","flightCategory":"VFR","rawOb":"METAR SBIL 231800Z 20009KT 170V230 9999 SCT018 BKN050 26/25 Q1014","temp":26,"dewp":25,"wdir":200,"wspd":9,"visib":"6+","altim":1014,"clouds":[{"cover":"SCT","base":1800},{"cover":"BKN","base":5000}],"obsTime":1776967200},"SBJU":{"icaoId":"SBJU","flightCategory":"VFR","rawOb":"METAR SBJU 231800Z 15007KT 9999 SCT022 30/22 Q1011","temp":30,"dewp":22,"wdir":150,"wspd":7,"visib":"6+","altim":1011,"clouds":[{"cover":"SCT","base":2200}],"obsTime":1776967200},"SBKP":{"icaoId":"SBKP","flightCategory":"VFR","rawOb":"METAR SBKP 231800Z VRB05KT 9999 SCT045 29/15 Q1017","temp":29,"dewp":15,"wdir":"VRB","wspd":5,"visib":"6+","altim":1017,"clouds":[{"cover":"SCT","base":4500}],"obsTime":1776967200},"SBLO":{"icaoId":"SBLO","flightCategory":"VFR","rawOb":"METAR SBLO 231800Z 10008KT 060V120 CAVOK 30/10 Q1016","temp":30,"dewp":10,"wdir":100,"wspd":8,"visib":"6+","altim":1016,"clouds":[],"obsTime":1776967200},"SBMA":{"icaoId":"SBMA","flightCategory":"VFR","rawOb":"METAR SBMA 231800Z 34002KT 9999 VCSH SCT020 FEW023TCU SCT080 30/23 Q1008","temp":30,"dewp":23,"wdir":340,"wspd":2,"visib":"6+","altim":1008,"clouds":[{"cover":"SCT","base":2000},{"cover":"FEW","base":2300},{"cover":"SCT","base":8000}],"obsTime":1776967200},"SBME":{"icaoId":"SBME","flightCategory":"VFR","rawOb":"METAR SBME 231800Z 16009KT 9999 FEW030 28/21 Q1016","temp":28,"dewp":21,"wdir":160,"wspd":9,"visib":"6+","altim":1016,"clouds":[{"cover":"FEW","base":3000}],"obsTime":1776967200},"SBMG":{"icaoId":"SBMG","flightCategory":"VFR","rawOb":"METAR SBMG 231800Z 10011KT CAVOK 30/09 Q1015","temp":30,"dewp":9,"wdir":100,"wspd":11,"visib":"6+","altim":1015,"clouds":[],"obsTime":1776967200},"SBMK":{"icaoId":"SBMK","flightCategory":"VFR","rawOb":"METAR SBMK 231800Z 10008KT 9999 SCT046 29/15 Q1016","temp":29,"dewp":15,"wdir":100,"wspd":8,"visib":"6+","altim":1016,"clouds":[{"cover":"SCT","base":4600}],"obsTime":1776967200},"SBMO":{"icaoId":"SBMO","flightCategory":"MVFR","rawOb":"METAR SBMO 231800Z 13010KT 9999 BKN023 28/24 Q1011","temp":28,"dewp":24,"wdir":130,"wspd":10,"visib":"6+","altim":1011,"clouds":[{"cover":"BKN","base":2300}],"obsTime":1776967200},"SBMQ":{"icaoId":"SBMQ","flightCategory":"VFR","rawOb":"METAR SBMQ 231800Z 09005KT 070V130 9999 SCT023 FEW028TCU SCT070 28/24 Q1009","temp":28,"dewp":24,"wdir":90,"wspd":5,"visib":"6+","altim":1009,"clouds":[{"cover":"SCT","base":2300},{"cover":"FEW","base":2800},{"cover":"SCT","base":7000}],"obsTime":1776967200},"SBNT":{"icaoId":"SBNT","flightCategory":"MVFR","rawOb":"METAR SBNT 231800Z 10011KT 9999 VCSH BKN026 FEW033TCU BKN040 BKN070 29/23 Q1009","temp":29,"dewp":23,"wdir":100,"wspd":11,"visib":"6+","altim":1009,"clouds":[{"cover":"BKN","base":2600},{"cover":"FEW","base":3300},{"cover":"BKN","base":4000},{"cover":"BKN","base":7000}],"obsTime":1776967200},"SBPJ":{"icaoId":"SBPJ","flightCategory":"VFR","rawOb":"METAR SBPJ 231800Z 14009KT 9999 SCT040 34/21 Q1010","temp":34,"dewp":21,"wdir":140,"wspd":9,"visib":"6+","altim":1010,"clouds":[{"cover":"SCT","base":4000}],"obsTime":1776967200},"SBRB":{"icaoId":"SBRB","flightCategory":"MVFR","rawOb":"METAR SBRB 231800Z 12005KT 090V160 6000 VCSH BKN018 SCT020 FEW025TCU 27/25 Q1010","temp":27,"dewp":25,"wdir":120,"wspd":5,"visib":3.73,"altim":1010,"clouds":[{"cover":"BKN","base":1800},{"cover":"SCT","base":2000},{"cover":"FEW","base":2500}],"obsTime":1776967200},"SBRF":{"icaoId":"SBRF","flightCategory":"MVFR","rawOb":"METAR SBRF 231800Z 09010KT 5000 -SHRA BKN017 FEW025TCU BKN050 27/24 Q1010","temp":27,"dewp":24,"wdir":90,"wspd":10,"visib":3.11,"altim":1010,"clouds":[{"cover":"BKN","base":1700},{"cover":"FEW","base":2500},{"cover":"BKN","base":5000}],"obsTime":1776967200},"SBSG":{"icaoId":"SBSG","flightCategory":"VFR","rawOb":"METAR SBSG 231800Z 11009KT 060V170 9999 VCSH SCT030 FEW035TCU 30/24 Q1010","temp":30,"dewp":24,"wdir":110,"wspd":9,"visib":"6+","altim":1010,"clouds":[{"cover":"SCT","base":3000},{"cover":"FEW","base":3500}],"obsTime":1776967200},"SBSN":{"icaoId":"SBSN","flightCategory":"VFR","rawOb":"METAR SBSN 231800Z 30008KT 9000 SCT008 OVC070 26/24 Q1010","temp":26,"dewp":24,"wdir":300,"wspd":8,"visib":5.59,"altim":1010,"clouds":[{"cover":"SCT","base":800},{"cover":"OVC","base":7000}],"obsTime":1776967200},"SBSP":{"icaoId":"SBSP","flightCategory":"VFR","rawOb":"METAR SBSP 231800Z 15011KT 9999 SCT030 24/18 Q1020","temp":24,"dewp":18,"wdir":150,"wspd":11,"visib":"6+","altim":1020,"clouds":[{"cover":"SCT","base":3000}],"obsTime":1776967200},"SBSV":{"icaoId":"SBSV","flightCategory":"VFR","rawOb":"METAR SBSV 231800Z 10010KT 9999 VCSH SCT023 FEW025TCU BKN070 29/23 Q1012","temp":29,"dewp":23,"wdir":100,"wspd":10,"visib":"6+","altim":1012,"clouds":[{"cover":"SCT","base":2300},{"cover":"FEW","base":2500},{"cover":"BKN","base":7000}],"obsTime":1776967200},"SBUL":{"icaoId":"SBUL","flightCategory":"VFR","rawOb":"METAR SBUL 231800Z 05007KT 360V090 9999 SCT040 27/16 Q1018","temp":27,"dewp":16,"wdir":50,"wspd":7,"visib":"6+","altim":1018,"clouds":[{"cover":"SCT","base":4000}],"obsTime":1776967200},"SBUR":{"icaoId":"SBUR","flightCategory":"VFR","rawOb":"METAR SBUR 231800Z 05006KT CAVOK 30/16 Q1016","temp":30,"dewp":16,"wdir":50,"wspd":6,"visib":"6+","altim":1016,"clouds":[],"obsTime":1776967200},"SBVT":{"icaoId":"SBVT","flightCategory":"VFR","rawOb":"METAR SBVT 231800Z 15010KT 9999 FEW025 27/22 Q1016","temp":27,"dewp":22,"wdir":150,"wspd":10,"visib":"6+","altim":1016,"clouds":[{"cover":"FEW","base":2500}],"obsTime":1776967200},"SBOI":{"icaoId":"SBOI","flightCategory":"VFR","rawOb":"METAR SBOI 231800Z AUTO 01006KT 330V040 9999 FEW018 SCT036 29/25 Q1010","temp":29,"dewp":25,"wdir":10,"wspd":6,"visib":"6+","altim":1010,"clouds":[{"cover":"FEW","base":1800},{"cover":"SCT","base":3600}],"obsTime":1776967200},"SBPL":{"icaoId":"SBPL","flightCategory":"MVFR","rawOb":"METAR SBPL 231800Z 06004KT 9999 BKN030 32/22 Q1010","temp":32,"dewp":22,"wdir":60,"wspd":4,"visib":"6+","altim":1010,"clouds":[{"cover":"BKN","base":3000}],"obsTime":1776967200},"SBPB":{"icaoId":"SBPB","flightCategory":"VFR","rawOb":"METAR SBPB 231800Z 05014KT 9999 FEW016 FEW025TCU SCT080 30/25 Q1008","temp":30,"dewp":25,"wdir":50,"wspd":14,"visib":"6+","altim":1008,"clouds":[{"cover":"FEW","base":1600},{"cover":"FEW","base":2500},{"cover":"SCT","base":8000}],"obsTime":1776967200},"SBCO":{"icaoId":"SBCO","flightCategory":"MVFR","rawOb":"METAR SBCO 231800Z 14008KT 9999 BKN023 24/20 Q1018","temp":24,"dewp":20,"wdir":140,"wspd":8,"visib":"6+","altim":1018,"clouds":[{"cover":"BKN","base":2300}],"obsTime":1776967200},"SBAX":{"icaoId":"SBAX","flightCategory":"VFR","rawOb":"METAR SBAX 231800Z AUTO 06005KT 020V110 CAVOK 28/15 Q1018","temp":28,"dewp":15,"wdir":60,"wspd":5,"visib":"6+","altim":1018,"clouds":[],"obsTime":1776967200},"SBPP":{"icaoId":"SBPP","flightCategory":"VFR","rawOb":"METAR SBPP 231800Z 07010KT CAVOK 28/18 Q1016","temp":28,"dewp":18,"wdir":70,"wspd":10,"visib":"6+","altim":1016,"clouds":[],"obsTime":1776967200},"SBDN":{"icaoId":"SBDN","flightCategory":"VFR","rawOb":"METAR SBDN 231800Z 10008KT CAVOK 32/13 Q1015","temp":32,"dewp":13,"wdir":100,"wspd":8,"visib":"6+","altim":1015,"clouds":[],"obsTime":1776967200},"SBPS":{"icaoId":"SBPS","flightCategory":"VFR","rawOb":"METAR SBPS 231800Z VRB07KT 9999 SCT025 SCT080 28/22 Q1014","temp":28,"dewp":22,"wdir":"VRB","wspd":7,"visib":"6+","altim":1014,"clouds":[{"cover":"SCT","base":2500},{"cover":"SCT","base":8000}],"obsTime":1776967200},"SBCA":{"icaoId":"SBCA","flightCategory":"VFR","rawOb":"METAR SBCA 231800Z 01005KT 9999 FEW030 29/16 Q1018","temp":29,"dewp":16,"wdir":10,"wspd":5,"visib":"6+","altim":1018,"clouds":[{"cover":"FEW","base":3000}],"obsTime":1776967200},"SBSC":{"icaoId":"SBSC","flightCategory":"VFR","rawOb":"METAR SBSC 231800Z 17010KT 9999 FEW030 28/20 Q1016","temp":28,"dewp":20,"wdir":170,"wspd":10,"visib":"6+","altim":1016,"clouds":[{"cover":"FEW","base":3000}],"obsTime":1776967200},"SBBQ":{"icaoId":"SBBQ","flightCategory":"VFR","rawOb":"METAR SBBQ 231800Z 09004KT 020V170 9999 SCT035 23/15 Q1023","temp":23,"dewp":15,"wdir":90,"wspd":4,"visib":"6+","altim":1023,"clouds":[{"cover":"SCT","base":3500}],"obsTime":1776967200},"SBES":{"icaoId":"SBES","flightCategory":"VFR","rawOb":"METAR SBES 231800Z 14009KT 100V170 9999 FEW020 SCT100 26/// Q1017","temp":null,"dewp":null,"wdir":140,"wspd":9,"visib":"6+","altim":1017,"clouds":[{"cover":"FEW","base":2000},{"cover":"SCT","base":10000}],"obsTime":1776967200},"SBSJ":{"icaoId":"SBSJ","flightCategory":"VFR","rawOb":"METAR SBSJ 231800Z 32003KT 260V030 9999 SCT040 26/15 Q1018","temp":26,"dewp":15,"wdir":320,"wspd":3,"visib":"6+","altim":1018,"clouds":[{"cover":"SCT","base":4000}],"obsTime":1776967200},"SBSM":{"icaoId":"SBSM","flightCategory":"IFR","rawOb":"METAR SBSM 231800Z 12006KT 080V180 9999 SCT006 OVC007 21/19 Q1017","temp":21,"dewp":19,"wdir":120,"wspd":6,"visib":"6+","altim":1017,"clouds":[{"cover":"SCT","base":600},{"cover":"OVC","base":700}],"obsTime":1776967200},"SBGM":{"icaoId":"SBGM","flightCategory":"MVFR","rawOb":"METAR SBGM 231800Z 10008KT 9999 BKN023 32/20 Q1009","temp":32,"dewp":20,"wdir":100,"wspd":8,"visib":"6+","altim":1009,"clouds":[{"cover":"BKN","base":2300}],"obsTime":1776967200},"SBBH":{"icaoId":"SBBH","flightCategory":"VFR","rawOb":"METAR SBBH 231800Z 08008KT 9999 SCT040 27/16 Q1018","temp":27,"dewp":16,"wdir":80,"wspd":8,"visib":"6+","altim":1018,"clouds":[{"cover":"SCT","base":4000}],"obsTime":1776967200},"SBSR":{"icaoId":"SBSR","flightCategory":"MVFR","rawOb":"METAR SBSR 231800Z 09005KT 9999 BKN030 31/14 Q1014","temp":31,"dewp":14,"wdir":90,"wspd":5,"visib":"6+","altim":1014,"clouds":[{"cover":"BKN","base":3000}],"obsTime":1776967200},"SBIP":{"icaoId":"SBIP","flightCategory":"VFR","rawOb":"METAR SBIP 231800Z AUTO 17007KT 130V220 CAVOK 29/20 Q1016","temp":29,"dewp":20,"wdir":170,"wspd":7,"visib":"6+","altim":1016,"clouds":[],"obsTime":1776967200},"SBTF":{"icaoId":"SBTF","flightCategory":"VFR","rawOb":"METAR SBTF 231800Z 11006KT 9999 FEW015 BKN100 30/24 Q1010","temp":30,"dewp":24,"wdir":110,"wspd":6,"visib":"6+","altim":1010,"clouds":[{"cover":"FEW","base":1500},{"cover":"BKN","base":10000}],"obsTime":1776967200},"SBCC":{"icaoId":"SBCC","flightCategory":"VFR","rawOb":"METAR SBCC 231800Z 25007KT 210V280 9999 SCT030 FEW035TCU 29/24 Q1011","temp":29,"dewp":24,"wdir":250,"wspd":7,"visib":"6+","altim":1011,"clouds":[{"cover":"SCT","base":3000},{"cover":"FEW","base":3500}],"obsTime":1776967200},"SBTT":{"icaoId":"SBTT","flightCategory":"VFR","rawOb":"METAR SBTT 231800Z 19006KT 9999 FEW023 BKN100 29/22 Q1010","temp":29,"dewp":22,"wdir":190,"wspd":6,"visib":"6+","altim":1010,"clouds":[{"cover":"FEW","base":2300},{"cover":"BKN","base":10000}],"obsTime":1776967200},"SBUY":{"icaoId":"SBUY","flightCategory":"VFR","rawOb":"METAR SBUY 231800Z 00000KT 9999 SCT030 BKN100 29/24 Q1009","temp":29,"dewp":24,"wdir":0,"wspd":0,"visib":"6+","altim":1009,"clouds":[{"cover":"SCT","base":3000},{"cover":"BKN","base":10000}],"obsTime":1776967200},"SBKG":{"icaoId":"SBKG","flightCategory":"VFR","rawOb":"METAR SBKG 231800Z 11008KT 9999 SCT030 BKN070 27/20 Q1012","temp":27,"dewp":20,"wdir":110,"wspd":8,"visib":"6+","altim":1012,"clouds":[{"cover":"SCT","base":3000},{"cover":"BKN","base":7000}],"obsTime":1776967200},"SBVH":{"icaoId":"SBVH","flightCategory":"VFR","rawOb":"METAR SBVH 231800Z 08008KT 9999 SCT026 29/22 Q1013","temp":29,"dewp":22,"wdir":80,"wspd":8,"visib":"6+","altim":1013,"clouds":[{"cover":"SCT","base":2600}],"obsTime":1776967200},"SBAR":{"icaoId":"SBAR","flightCategory":"MVFR","rawOb":"METAR SBAR 231800Z 12009KT 9999 -RA BKN022 FEW025TCU SCT050 30/24 Q1011","temp":30,"dewp":24,"wdir":120,"wspd":9,"visib":"6+","altim":1011,"clouds":[{"cover":"BKN","base":2200},{"cover":"FEW","base":2500},{"cover":"SCT","base":5000}],"obsTime":1776967200},"SBBU":{"icaoId":"SBBU","flightCategory":"VFR","rawOb":"METAR SBBU 231800Z 10005KT 9999 FEW035 30/17 Q1016","temp":30,"dewp":17,"wdir":100,"wspd":5,"visib":"6+","altim":1016,"clouds":[{"cover":"FEW","base":3500}],"obsTime":1776967200},"SBCJ":{"icaoId":"SBCJ","flightCategory":"VFR","rawOb":"METAR SBCJ 231800Z 00000KT 9999 FEW015 25/23 Q1013","temp":25,"dewp":23,"wdir":0,"wspd":0,"visib":"6+","altim":1013,"clouds":[{"cover":"FEW","base":1500}],"obsTime":1776967200},"SBAU":{"icaoId":"SBAU","flightCategory":"VFR","rawOb":"METAR SBAU 231800Z 06006KT CAVOK 33/18 Q1014","temp":33,"dewp":18,"wdir":60,"wspd":6,"visib":"6+","altim":1014,"clouds":[],"obsTime":1776967200},"SBAF":{"icaoId":"SBAF","flightCategory":"VFR","rawOb":"METAR SBAF 231800Z 20012KT 9999 FEW040 27/21 Q1016","temp":27,"dewp":21,"wdir":200,"wspd":12,"visib":"6+","altim":1016,"clouds":[{"cover":"FEW","base":4000}],"obsTime":1776967200},"SBGW":{"icaoId":"SBGW","flightCategory":"VFR","rawOb":"METAR SBGW 231800Z 03005KT 9999 FEW035 27/15 Q1018","temp":27,"dewp":15,"wdir":30,"wspd":5,"visib":"6+","altim":1018,"clouds":[{"cover":"FEW","base":3500}],"obsTime":1776967200},"SBJR":{"icaoId":"SBJR","flightCategory":"VFR","rawOb":"METAR SBJR 231800Z 16010KT 9999 FEW025 29/19 Q1016","temp":29,"dewp":19,"wdir":160,"wspd":10,"visib":"6+","altim":1016,"clouds":[{"cover":"FEW","base":2500}],"obsTime":1776967200},"SBLS":{"icaoId":"SBLS","flightCategory":"VFR","rawOb":"METAR SBLS 231800Z 13009KT 050V140 9999 SCT040 26/15 Q1018","temp":26,"dewp":15,"wdir":130,"wspd":9,"visib":"6+","altim":1018,"clouds":[{"cover":"SCT","base":4000}],"obsTime":1776967200},"SBMT":{"icaoId":"SBMT","flightCategory":"MVFR","rawOb":"METAR SBMT 231800Z 10006KT 9999 BKN030 26/13 Q1018","temp":26,"dewp":13,"wdir":100,"wspd":6,"visib":"6+","altim":1018,"clouds":[{"cover":"BKN","base":3000}],"obsTime":1776967200},"SBST":{"icaoId":"SBST","flightCategory":"VFR","rawOb":"METAR SBST 231800Z 18010KT 9999 FEW029 27/20 Q1016","temp":27,"dewp":20,"wdir":180,"wspd":10,"visib":"6+","altim":1016,"clouds":[{"cover":"FEW","base":2900}],"obsTime":1776967200},"SBTA":{"icaoId":"SBTA","flightCategory":"VFR","rawOb":"METAR SBTA 231800Z 02004KT 9999 SCT035 27/16 Q1017","temp":27,"dewp":16,"wdir":20,"wspd":4,"visib":"6+","altim":1017,"clouds":[{"cover":"SCT","base":3500}],"obsTime":1776967200},"SBIH":{"icaoId":"SBIH","flightCategory":"VFR","rawOb":"METAR SBIH 231800Z 20004KT 9999 SCT016 FEW023TCU 29/24 Q1010","temp":29,"dewp":24,"wdir":200,"wspd":4,"visib":"6+","altim":1010,"clouds":[{"cover":"SCT","base":1600},{"cover":"FEW","base":2300}],"obsTime":1776967200},"SBJP":{"icaoId":"SBJP","flightCategory":"VFR","rawOb":"METAR SBJP 231800Z 09014KT 060V120 9999 SCT025 29/25 Q1010","temp":29,"dewp":25,"wdir":90,"wspd":14,"visib":"6+","altim":1010,"clouds":[{"cover":"SCT","base":2500}],"obsTime":1776967200},"SBAN":{"icaoId":"SBAN","flightCategory":"VFR","rawOb":"METAR SBAN 231800Z 18007KT 150V210 9999 BKN040 BKN090 27/14 Q1018","temp":27,"dewp":14,"wdir":180,"wspd":7,"visib":"6+","altim":1018,"clouds":[{"cover":"BKN","base":4000},{"cover":"BKN","base":9000}],"obsTime":1776967200},"SBJV":{"icaoId":"SBJV","flightCategory":"VFR","rawOb":"METAR SBJV 231800Z 06005KT 9999 FEW040 28/18 Q1017","temp":28,"dewp":18,"wdir":60,"wspd":5,"visib":"6+","altim":1017,"clouds":[{"cover":"FEW","base":4000}],"obsTime":1776967200},"SBLE":{"icaoId":"SBLE","flightCategory":"VFR","rawOb":"METAR SBLE 231800Z AUTO 15006KT 120V190 9999 SCT035 27/20 Q1014","temp":27,"dewp":20,"wdir":150,"wspd":6,"visib":"6+","altim":1014,"clouds":[{"cover":"SCT","base":3500}],"obsTime":1776967200},"SBNM":{"icaoId":"SBNM","flightCategory":"VFR","rawOb":"METAR SBNM 231800Z 14008KT 9999 SCT035 SCT070 25/20 Q1016","temp":25,"dewp":20,"wdir":140,"wspd":8,"visib":"6+","altim":1016,"clouds":[{"cover":"SCT","base":3500},{"cover":"SCT","base":7000}],"obsTime":1776967200}}}