{"updated":1778880692,"count":84,"data":{"SBLO":{"icaoId":"SBLO","flightCategory":"MVFR","rawOb":"METAR SBLO 152000Z 04006KT 9999 BKN012 BKN015 20/19 Q1017","temp":20,"dewp":19,"wdir":40,"wspd":6,"visib":"6+","altim":1017,"clouds":[{"cover":"BKN","base":1200},{"cover":"BKN","base":1500}],"obsTime":1778875200},"SBFI":{"icaoId":"SBFI","flightCategory":"MVFR","rawOb":"METAR SBFI 152000Z 16004KT 9999 SCT011 BKN020 19/18 Q1014","temp":19,"dewp":18,"wdir":160,"wspd":4,"visib":"6+","altim":1014,"clouds":[{"cover":"SCT","base":1100},{"cover":"BKN","base":2000}],"obsTime":1778875200},"SBMA":{"icaoId":"SBMA","flightCategory":"VFR","rawOb":"METAR SBMA 152000Z 10002KT 9999 FEW020 30/23 Q1010","temp":30,"dewp":23,"wdir":100,"wspd":2,"visib":"6+","altim":1010,"clouds":[{"cover":"FEW","base":2000}],"obsTime":1778875200},"SBCG":{"icaoId":"SBCG","flightCategory":"MVFR","rawOb":"METAR SBCG 152000Z 32006KT 9999 BKN025 BKN100 24/19 Q1015","temp":24,"dewp":19,"wdir":320,"wspd":6,"visib":"6+","altim":1015,"clouds":[{"cover":"BKN","base":2500},{"cover":"BKN","base":10000}],"obsTime":1778875200},"SBME":{"icaoId":"SBME","flightCategory":"MVFR","rawOb":"METAR SBME 152000Z 20006KT 7000 SCT040 25/21 Q1015","temp":25,"dewp":21,"wdir":200,"wspd":6,"visib":4.35,"altim":1015,"clouds":[{"cover":"SCT","base":4000}],"obsTime":1778875200},"SBMG":{"icaoId":"SBMG","flightCategory":"VFR","rawOb":"METAR SBMG 152000Z 36010KT 9999 FEW020 BKN033 BKN046 21/19 Q1015","temp":21,"dewp":19,"wdir":360,"wspd":10,"visib":"6+","altim":1015,"clouds":[{"cover":"FEW","base":2000},{"cover":"BKN","base":3300},{"cover":"BKN","base":4600}],"obsTime":1778875200},"SBBR":{"icaoId":"SBBR","flightCategory":"VFR","rawOb":"METAR SBBR 152000Z 22005KT 9999 VCSH SCT045 FEW050TCU BKN060 26/16 Q1019","temp":26,"dewp":16,"wdir":220,"wspd":5,"visib":"6+","altim":1019,"clouds":[{"cover":"SCT","base":4500},{"cover":"FEW","base":5000},{"cover":"BKN","base":6000}],"obsTime":1778875200},"SBMK":{"icaoId":"SBMK","flightCategory":"VFR","rawOb":"METAR SBMK 152000Z 03004KT CAVOK 28/16 Q1016","temp":28,"dewp":16,"wdir":30,"wspd":4,"visib":"6+","altim":1016,"clouds":[],"obsTime":1778875200},"SBFL":{"icaoId":"SBFL","flightCategory":"MVFR","rawOb":"METAR SBFL 152000Z 18003KT 100V240 9999 VCSH BKN028 OVC077 17/16 Q1017","temp":17,"dewp":16,"wdir":180,"wspd":3,"visib":"6+","altim":1017,"clouds":[{"cover":"BKN","base":2800},{"cover":"OVC","base":7700}],"obsTime":1778875200},"SBCP":{"icaoId":"SBCP","flightCategory":"VFR","rawOb":"METAR SBCP 152000Z 19010KT 9999 SCT020 FEW025TCU BKN090 25/22 Q1015","temp":25,"dewp":22,"wdir":190,"wspd":10,"visib":"6+","altim":1015,"clouds":[{"cover":"SCT","base":2000},{"cover":"FEW","base":2500},{"cover":"BKN","base":9000}],"obsTime":1778875200},"SBMO":{"icaoId":"SBMO","flightCategory":"VFR","rawOb":"METAR SBMO 152000Z 17007KT 9999 FEW030 28/22 Q1013","temp":28,"dewp":22,"wdir":170,"wspd":7,"visib":"6+","altim":1013,"clouds":[{"cover":"FEW","base":3000}],"obsTime":1778875200},"SBMQ":{"icaoId":"SBMQ","flightCategory":"VFR","rawOb":"METAR SBMQ 152000Z 02006KT 9999 FEW020 FEW030TCU 28/24 Q1011","temp":28,"dewp":24,"wdir":20,"wspd":6,"visib":"6+","altim":1011,"clouds":[{"cover":"FEW","base":2000},{"cover":"FEW","base":3000}],"obsTime":1778875200},"SBFZ":{"icaoId":"SBFZ","flightCategory":"VFR","rawOb":"METAR SBFZ 152000Z 05005KT 010V090 9999 SCT020 BKN080 29/23 Q1012","temp":29,"dewp":23,"wdir":50,"wspd":5,"visib":"6+","altim":1012,"clouds":[{"cover":"SCT","base":2000},{"cover":"BKN","base":8000}],"obsTime":1778875200},"SBNT":{"icaoId":"SBNT","flightCategory":"VFR","rawOb":"METAR SBNT 152000Z 14010KT 9999 FEW025 BKN090 27/24 Q1012","temp":27,"dewp":24,"wdir":140,"wspd":10,"visib":"6+","altim":1012,"clouds":[{"cover":"FEW","base":2500},{"cover":"BKN","base":9000}],"obsTime":1778875200},"SBGL":{"icaoId":"SBGL","flightCategory":"MVFR","rawOb":"METAR SBGL 152000Z 19005KT 9999 BKN020 OVC026 24/20 Q1016","temp":24,"dewp":20,"wdir":190,"wspd":5,"visib":"6+","altim":1016,"clouds":[{"cover":"BKN","base":2000},{"cover":"OVC","base":2600}],"obsTime":1778875200},"SBCB":{"icaoId":"SBCB","flightCategory":"MVFR","rawOb":"METAR SBCB 152000Z 25011KT 9000 SCT010 BKN025 24/22 Q1016","temp":24,"dewp":22,"wdir":250,"wspd":11,"visib":5.59,"altim":1016,"clouds":[{"cover":"SCT","base":1000},{"cover":"BKN","base":2500}],"obsTime":1778875200},"SBPA":{"icaoId":"SBPA","flightCategory":"VFR","rawOb":"METAR SBPA 152000Z 16008KT 9999 FEW035 17/11 Q1017","temp":17,"dewp":11,"wdir":160,"wspd":8,"visib":"6+","altim":1017,"clouds":[{"cover":"FEW","base":3500}],"obsTime":1778875200},"SBGO":{"icaoId":"SBGO","flightCategory":"VFR","rawOb":"METAR SBGO 152000Z 33005KT 280V010 9999 FEW048 30/16 Q1017","temp":30,"dewp":16,"wdir":330,"wspd":5,"visib":"6+","altim":1017,"clouds":[{"cover":"FEW","base":4800}],"obsTime":1778875200},"SBPJ":{"icaoId":"SBPJ","flightCategory":"VFR","rawOb":"METAR SBPJ 152000Z 23003KT 200V260 CAVOK 32/22 Q1011","temp":32,"dewp":22,"wdir":230,"wspd":3,"visib":"6+","altim":1011,"clouds":[],"obsTime":1778875200},"SBCR":{"icaoId":"SBCR","flightCategory":"IFR","rawOb":"METAR SBCR 152000Z 24005KT 9999 BKN009 BKN100 23/21 Q1014","temp":23,"dewp":21,"wdir":240,"wspd":5,"visib":"6+","altim":1014,"clouds":[{"cover":"BKN","base":900},{"cover":"BKN","base":10000}],"obsTime":1778875200},"SBPV":{"icaoId":"SBPV","flightCategory":"VFR","rawOb":"METAR SBPV 152000Z 16007KT 9999 SCT030 SCT070 30/26 Q1010","temp":30,"dewp":26,"wdir":160,"wspd":7,"visib":"6+","altim":1010,"clouds":[{"cover":"SCT","base":3000},{"cover":"SCT","base":7000}],"obsTime":1778875200},"SBGR":{"icaoId":"SBGR","flightCategory":"MVFR","rawOb":"METAR SBGR 152000Z 23002KT 7000 -RA SCT040 OVC080 17/16 Q1020","temp":17,"dewp":16,"wdir":230,"wspd":2,"visib":4.35,"altim":1020,"clouds":[{"cover":"SCT","base":4000},{"cover":"OVC","base":8000}],"obsTime":1778875200},"SBRB":{"icaoId":"SBRB","flightCategory":"VFR","rawOb":"METAR SBRB 152000Z 20001KT 9999 SCT035 31/23 Q1012","temp":31,"dewp":23,"wdir":200,"wspd":1,"visib":"6+","altim":1012,"clouds":[{"cover":"SCT","base":3500}],"obsTime":1778875200},"SBRF":{"icaoId":"SBRF","flightCategory":"MVFR","rawOb":"METAR SBRF 152000Z 19004KT 9999 BKN025 BKN050 24/23 Q1013","temp":24,"dewp":23,"wdir":190,"wspd":4,"visib":"6+","altim":1013,"clouds":[{"cover":"BKN","base":2500},{"cover":"BKN","base":5000}],"obsTime":1778875200},"SBCF":{"icaoId":"SBCF","flightCategory":"VFR","rawOb":"METAR SBCF 152000Z 04003KT 9999 FEW040 26/17 Q1019","temp":26,"dewp":17,"wdir":40,"wspd":3,"visib":"6+","altim":1019,"clouds":[{"cover":"FEW","base":4000}],"obsTime":1778875200},"SBHT":{"icaoId":"SBHT","flightCategory":"VFR","rawOb":"METAR SBHT 152000Z 11005KT 9999 SCT030 31/23 Q1010","temp":31,"dewp":23,"wdir":110,"wspd":5,"visib":"6+","altim":1010,"clouds":[{"cover":"SCT","base":3000}],"obsTime":1778875200},"SBSG":{"icaoId":"SBSG","flightCategory":"VFR","rawOb":"METAR SBSG 152000Z 13008KT 110V170 9999 SCT025 BKN100 27/24 Q1012","temp":27,"dewp":24,"wdir":130,"wspd":8,"visib":"6+","altim":1012,"clouds":[{"cover":"SCT","base":2500},{"cover":"BKN","base":10000}],"obsTime":1778875200},"SBCT":{"icaoId":"SBCT","flightCategory":"LIFR","rawOb":"METAR SBCT 152000Z 06006KT 8000 -RA BKN004 BKN050 BKN083 15/15 Q1018","temp":15,"dewp":15,"wdir":60,"wspd":6,"visib":4.97,"altim":1018,"clouds":[{"cover":"BKN","base":400},{"cover":"BKN","base":5000},{"cover":"BKN","base":8300}],"obsTime":1778875200},"SBSL":{"icaoId":"SBSL","flightCategory":"VFR","rawOb":"METAR SBSL 152000Z 02004KT 9999 SCT020 SCT100 26/24 Q1011","temp":26,"dewp":24,"wdir":20,"wspd":4,"visib":"6+","altim":1011,"clouds":[{"cover":"SCT","base":2000},{"cover":"SCT","base":10000}],"obsTime":1778875200},"SBSN":{"icaoId":"SBSN","flightCategory":"VFR","rawOb":"METAR SBSN 152000Z 06006KT 9999 FEW020 FEW025TCU 30/23 Q1009","temp":30,"dewp":23,"wdir":60,"wspd":6,"visib":"6+","altim":1009,"clouds":[{"cover":"FEW","base":2000},{"cover":"FEW","base":2500}],"obsTime":1778875200},"SBIL":{"icaoId":"SBIL","flightCategory":"VFR","rawOb":"METAR SBIL 152000Z 13004KT CAVOK 28/23 Q1015","temp":28,"dewp":23,"wdir":130,"wspd":4,"visib":"6+","altim":1015,"clouds":[],"obsTime":1778875200},"SBEG":{"icaoId":"SBEG","flightCategory":"VFR","rawOb":"METAR SBEG 152000Z VRB02KT 9999 SCT015 FEW025TCU 25/24 Q1011","temp":25,"dewp":24,"wdir":"VRB","wspd":2,"visib":"6+","altim":1011,"clouds":[{"cover":"SCT","base":1500},{"cover":"FEW","base":2500}],"obsTime":1778875200},"SBBE":{"icaoId":"SBBE","flightCategory":"VFR","rawOb":"METAR SBBE 152000Z 05007KT 9999 SCT045 27/25 Q1011","temp":27,"dewp":25,"wdir":50,"wspd":7,"visib":"6+","altim":1011,"clouds":[{"cover":"SCT","base":4500}],"obsTime":1778875200},"SBSP":{"icaoId":"SBSP","flightCategory":"IFR","rawOb":"METAR SBSP 152000Z 31005KT 6000 -RA BKN008 OVC070 18/17 Q1020","temp":18,"dewp":17,"wdir":310,"wspd":5,"visib":3.73,"altim":1020,"clouds":[{"cover":"BKN","base":800},{"cover":"OVC","base":7000}],"obsTime":1778875200},"SBJU":{"icaoId":"SBJU","flightCategory":"VFR","rawOb":"METAR SBJU 152000Z COR 06004KT 9999 SCT022 29/20 Q1013","temp":29,"dewp":20,"wdir":60,"wspd":4,"visib":"6+","altim":1013,"clouds":[{"cover":"SCT","base":2200}],"obsTime":1778875200},"SBSV":{"icaoId":"SBSV","flightCategory":"VFR","rawOb":"METAR SBSV 152000Z 15008KT 9999 SCT023 28/22 Q1014","temp":28,"dewp":22,"wdir":150,"wspd":8,"visib":"6+","altim":1014,"clouds":[{"cover":"SCT","base":2300}],"obsTime":1778875200},"SBCZ":{"icaoId":"SBCZ","flightCategory":"MVFR","rawOb":"METAR SBCZ 152000Z 02004KT 9999 BKN030 31/22 Q1012","temp":31,"dewp":22,"wdir":20,"wspd":4,"visib":"6+","altim":1012,"clouds":[{"cover":"BKN","base":3000}],"obsTime":1778875200},"SBTE":{"icaoId":"SBTE","flightCategory":"VFR","rawOb":"METAR SBTE 152000Z 26005KT 9999 SCT020 BKN100 31/25 Q1010","temp":31,"dewp":25,"wdir":260,"wspd":5,"visib":"6+","altim":1010,"clouds":[{"cover":"SCT","base":2000},{"cover":"BKN","base":10000}],"obsTime":1778875200},"SBBV":{"icaoId":"SBBV","flightCategory":"VFR","rawOb":"METAR SBBV 152000Z 11007KT 9999 SCT035 FEW040TCU BKN090 32/22 Q1010","temp":32,"dewp":22,"wdir":110,"wspd":7,"visib":"6+","altim":1010,"clouds":[{"cover":"SCT","base":3500},{"cover":"FEW","base":4000},{"cover":"BKN","base":9000}],"obsTime":1778875200},"SBUL":{"icaoId":"SBUL","flightCategory":"VFR","rawOb":"METAR SBUL 152000Z 35007KT 9999 VCSH SCT045 FEW050TCU BKN100 25/16 Q1019","temp":25,"dewp":16,"wdir":350,"wspd":7,"visib":"6+","altim":1019,"clouds":[{"cover":"SCT","base":4500},{"cover":"FEW","base":5000},{"cover":"BKN","base":10000}],"obsTime":1778875200},"SBUR":{"icaoId":"SBUR","flightCategory":"VFR","rawOb":"METAR SBUR 152000Z 19014KT 9000 SCT047 BKN080 22/15 Q1019","temp":22,"dewp":15,"wdir":190,"wspd":14,"visib":5.59,"altim":1019,"clouds":[{"cover":"SCT","base":4700},{"cover":"BKN","base":8000}],"obsTime":1778875200},"SBKP":{"icaoId":"SBKP","flightCategory":"IFR","rawOb":"METAR SBKP 152000Z 04002KT 3500 -RA BR FEW035 OVC090 18/17 Q1020","temp":18,"dewp":17,"wdir":40,"wspd":2,"visib":2.17,"altim":1020,"clouds":[{"cover":"FEW","base":3500},{"cover":"OVC","base":9000}],"obsTime":1778875200},"SBVT":{"icaoId":"SBVT","flightCategory":"VFR","rawOb":"METAR SBVT 152000Z 06010KT 9999 VCSH BKN049 BKN100 26/22 Q1014","temp":26,"dewp":22,"wdir":60,"wspd":10,"visib":"6+","altim":1014,"clouds":[{"cover":"BKN","base":4900},{"cover":"BKN","base":10000}],"obsTime":1778875200},"SBAT":{"icaoId":"SBAT","flightCategory":"VFR","rawOb":"METAR SBAT 152000Z 28001KT 9999 FEW033TCU SCT080 OVC100 25/24 Q1012","temp":25,"dewp":24,"wdir":280,"wspd":1,"visib":"6+","altim":1012,"clouds":[{"cover":"FEW","base":3300},{"cover":"SCT","base":8000},{"cover":"OVC","base":10000}],"obsTime":1778875200},"SBAR":{"icaoId":"SBAR","flightCategory":"VFR","rawOb":"METAR SBAR 152000Z 16006KT 9999 FEW026 SCT050 27/22 Q1013","temp":27,"dewp":22,"wdir":160,"wspd":6,"visib":"6+","altim":1013,"clouds":[{"cover":"FEW","base":2600},{"cover":"SCT","base":5000}],"obsTime":1778875200},"SBAX":{"icaoId":"SBAX","flightCategory":"VFR","rawOb":"METAR SBAX 152000Z 18003KT 9999 TS FEW020CB SCT025 BKN045 24/16 Q1019","temp":24,"dewp":16,"wdir":180,"wspd":3,"visib":"6+","altim":1019,"clouds":[{"cover":"FEW","base":2000},{"cover":"SCT","base":2500},{"cover":"BKN","base":4500}],"obsTime":1778875200},"SBBH":{"icaoId":"SBBH","flightCategory":"VFR","rawOb":"METAR SBBH 152000Z 33001KT 9999 FEW049 26/19 Q1018","temp":26,"dewp":19,"wdir":330,"wspd":1,"visib":"6+","altim":1018,"clouds":[{"cover":"FEW","base":4900}],"obsTime":1778875200},"SBBU":{"icaoId":"SBBU","flightCategory":"MVFR","rawOb":"METAR SBBU 152000Z 06003KT 6000 SCT003 BKN015 OVC070 19/19 Q1018","temp":19,"dewp":19,"wdir":60,"wspd":3,"visib":3.73,"altim":1018,"clouds":[{"cover":"SCT","base":300},{"cover":"BKN","base":1500},{"cover":"OVC","base":7000}],"obsTime":1778875200},"SBCA":{"icaoId":"SBCA","flightCategory":"LIFR","rawOb":"METAR SBCA 152000Z 03008KT 3000 BR BKN002 BKN020 17/16 Q1016","temp":17,"dewp":16,"wdir":30,"wspd":8,"visib":1.86,"altim":1016,"clouds":[{"cover":"BKN","base":200},{"cover":"BKN","base":2000}],"obsTime":1778875200},"SBCJ":{"icaoId":"SBCJ","flightCategory":"VFR","rawOb":"METAR SBCJ 152000Z 11003KT 9999 SCT023 27/22 Q1015","temp":27,"dewp":22,"wdir":110,"wspd":3,"visib":"6+","altim":1015,"clouds":[{"cover":"SCT","base":2300}],"obsTime":1778875200},"SBCO":{"icaoId":"SBCO","flightCategory":"VFR","rawOb":"METAR SBCO 152000Z 13007KT 100V160 9999 FEW036 17/11 Q1017","temp":17,"dewp":11,"wdir":130,"wspd":7,"visib":"6+","altim":1017,"clouds":[{"cover":"FEW","base":3600}],"obsTime":1778875200},"SBDN":{"icaoId":"SBDN","flightCategory":"VFR","rawOb":"METAR SBDN 152000Z 02005KT CAVOK 22/17 Q1016","temp":22,"dewp":17,"wdir":20,"wspd":5,"visib":"6+","altim":1016,"clouds":[],"obsTime":1778875200},"SBES":{"icaoId":"SBES","flightCategory":"VFR","rawOb":"METAR SBES 152000Z VRB06KT 9999 SCT015 BKN050 23/// Q1016","temp":null,"dewp":null,"wdir":"VRB","wspd":6,"visib":"6+","altim":1016,"clouds":[{"cover":"SCT","base":1500},{"cover":"BKN","base":5000}],"obsTime":1778875200},"SBIP":{"icaoId":"SBIP","flightCategory":"VFR","rawOb":"METAR SBIP 152000Z AUTO 00000KT CAVOK 25/21 Q1015","temp":25,"dewp":21,"wdir":0,"wspd":0,"visib":"6+","altim":1015,"clouds":[],"obsTime":1778875200},"SBKG":{"icaoId":"SBKG","flightCategory":"VFR","rawOb":"METAR SBKG 152000Z 12004KT 9999 SCT015 BKN070 25/21 Q1015","temp":25,"dewp":21,"wdir":120,"wspd":4,"visib":"6+","altim":1015,"clouds":[{"cover":"SCT","base":1500},{"cover":"BKN","base":7000}],"obsTime":1778875200},"SBOI":{"icaoId":"SBOI","flightCategory":"VFR","rawOb":"METAR SBOI 152000Z AUTO VRB02KT 9999 FEW031 27/26 Q1012 RERA","temp":27,"dewp":26,"wdir":"VRB","wspd":2,"visib":"6+","altim":1012,"clouds":[{"cover":"FEW","base":3100}],"obsTime":1778875200},"SBPB":{"icaoId":"SBPB","flightCategory":"VFR","rawOb":"METAR SBPB 152000Z 04007KT 9999 FEW016 FEW025TCU SCT080 29/24 Q1011","temp":29,"dewp":24,"wdir":40,"wspd":7,"visib":"6+","altim":1011,"clouds":[{"cover":"FEW","base":1600},{"cover":"FEW","base":2500},{"cover":"SCT","base":8000}],"obsTime":1778875200},"SBPL":{"icaoId":"SBPL","flightCategory":"VFR","rawOb":"METAR SBPL 152000Z 13007KT 9999 FEW030 32/16 Q1013","temp":32,"dewp":16,"wdir":130,"wspd":7,"visib":"6+","altim":1013,"clouds":[{"cover":"FEW","base":3000}],"obsTime":1778875200},"SBPP":{"icaoId":"SBPP","flightCategory":"MVFR","rawOb":"METAR SBPP 152000Z 34008KT 9999 BKN015 19/18 Q1016","temp":19,"dewp":18,"wdir":340,"wspd":8,"visib":"6+","altim":1016,"clouds":[{"cover":"BKN","base":1500}],"obsTime":1778875200},"SBPS":{"icaoId":"SBPS","flightCategory":"VFR","rawOb":"METAR SBPS 152000Z 08006KT 9999 FEW030 26/23 Q1015","temp":26,"dewp":23,"wdir":80,"wspd":6,"visib":"6+","altim":1015,"clouds":[{"cover":"FEW","base":3000}],"obsTime":1778875200},"SBSC":{"icaoId":"SBSC","flightCategory":"MVFR","rawOb":"METAR SBSC 152000Z 19006KT 8000 SCT013 BKN050 BKN070 23/20 Q1016","temp":23,"dewp":20,"wdir":190,"wspd":6,"visib":4.97,"altim":1016,"clouds":[{"cover":"SCT","base":1300},{"cover":"BKN","base":5000},{"cover":"BKN","base":7000}],"obsTime":1778875200},"SBSJ":{"icaoId":"SBSJ","flightCategory":"IFR","rawOb":"METAR SBSJ 152000Z COR 19004KT 3000 -RA BR NSC 18/15 Q1020","temp":18,"dewp":15,"wdir":190,"wspd":4,"visib":1.86,"altim":1020,"clouds":[],"obsTime":1778875200},"SBSM":{"icaoId":"SBSM","flightCategory":"VFR","rawOb":"METAR SBSM 152000Z 11008KT 9999 FEW035 17/12 Q1016","temp":17,"dewp":12,"wdir":110,"wspd":8,"visib":"6+","altim":1016,"clouds":[{"cover":"FEW","base":3500}],"obsTime":1778875200},"SBSR":{"icaoId":"SBSR","flightCategory":"VFR","rawOb":"METAR SBSR 152000Z 11006KT 9999 SCT040 BKN060 20/18 Q1017","temp":20,"dewp":18,"wdir":110,"wspd":6,"visib":"6+","altim":1017,"clouds":[{"cover":"SCT","base":4000},{"cover":"BKN","base":6000}],"obsTime":1778875200},"SBTF":{"icaoId":"SBTF","flightCategory":"VFR","rawOb":"METAR SBTF 152000Z 33002KT 9999 FEW013 SCT090 25/25 Q1010","temp":25,"dewp":25,"wdir":330,"wspd":2,"visib":"6+","altim":1010,"clouds":[{"cover":"FEW","base":1300},{"cover":"SCT","base":9000}],"obsTime":1778875200},"SBTT":{"icaoId":"SBTT","flightCategory":"MVFR","rawOb":"METAR SBTT 152000Z 23005KT 9999 BKN017 FEW027TCU 30/23 Q1010","temp":30,"dewp":23,"wdir":230,"wspd":5,"visib":"6+","altim":1010,"clouds":[{"cover":"BKN","base":1700},{"cover":"FEW","base":2700}],"obsTime":1778875200},"SBTU":{"icaoId":"SBTU","flightCategory":"VFR","rawOb":"METAR SBTU 152000Z AUTO 20006KT 170V230 9999 // FEW023/// BKN036/// BKN045/// ///// Q1012","temp":null,"dewp":null,"wdir":200,"wspd":6,"visib":"6+","altim":1012,"clouds":[{"cover":"FEW","base":2300},{"cover":"BKN","base":3600},{"cover":"BKN","base":4500}],"obsTime":1778875200},"SBUY":{"icaoId":"SBUY","flightCategory":"VFR","rawOb":"METAR SBUY 152000Z 31002KT 9999 SCT025 BKN090 25/24 Q1010 RERA","temp":25,"dewp":24,"wdir":310,"wspd":2,"visib":"6+","altim":1010,"clouds":[{"cover":"SCT","base":2500},{"cover":"BKN","base":9000}],"obsTime":1778875200},"SBVH":{"icaoId":"SBVH","flightCategory":"VFR","rawOb":"METAR SBVH 152000Z 31007KT 9999 4000S -RA BKN035 FEW040TCU BKN100 23/22 Q1014","temp":23,"dewp":22,"wdir":310,"wspd":7,"visib":"6+","altim":1014,"clouds":[{"cover":"BKN","base":3500},{"cover":"FEW","base":4000},{"cover":"BKN","base":10000}],"obsTime":1778875200},"SBCC":{"icaoId":"SBCC","flightCategory":"VFR","rawOb":"METAR SBCC 152000Z /////KT 9999 SCT030 FEW035TCU SCT100 ///// Q1013","temp":null,"dewp":null,"wdir":null,"wspd":null,"visib":"6+","altim":1013,"clouds":[{"cover":"SCT","base":3000},{"cover":"FEW","base":3500},{"cover":"SCT","base":10000}],"obsTime":1778875200},"SBJP":{"icaoId":"SBJP","flightCategory":"VFR","rawOb":"METAR SBJP 152000Z 14009KT 100V170 9999 SCT020 BKN070 25/23 Q1013","temp":25,"dewp":23,"wdir":140,"wspd":9,"visib":"6+","altim":1013,"clouds":[{"cover":"SCT","base":2000},{"cover":"BKN","base":7000}],"obsTime":1778875200},"SBAN":{"icaoId":"SBAN","flightCategory":"VFR","rawOb":"METAR SBAN 152000Z 07002KT 9999 FEW030 FEW040TCU 26/15 Q1020","temp":26,"dewp":15,"wdir":70,"wspd":2,"visib":"6+","altim":1020,"clouds":[{"cover":"FEW","base":3000},{"cover":"FEW","base":4000}],"obsTime":1778875200},"SBLE":{"icaoId":"SBLE","flightCategory":"VFR","rawOb":"METAR SBLE 152000Z AUTO 18003KT CAVOK 28/18 Q1016","temp":28,"dewp":18,"wdir":180,"wspd":3,"visib":"6+","altim":1016,"clouds":[],"obsTime":1778875200},"SBST":{"icaoId":"SBST","flightCategory":"IFR","rawOb":"METAR SBST 152000Z 04002KT 2000 +DZ BR FEW011 OVC017 20/20 Q1017 REDZ","temp":20,"dewp":20,"wdir":40,"wspd":2,"visib":1.24,"altim":1017,"clouds":[{"cover":"FEW","base":1100},{"cover":"OVC","base":1700}],"obsTime":1778875200},"SBNM":{"icaoId":"SBNM","flightCategory":"VFR","rawOb":"METAR SBNM 152000Z AUTO 16004KT CAVOK 21/11 Q1015","temp":21,"dewp":11,"wdir":160,"wspd":4,"visib":"6+","altim":1015,"clouds":[],"obsTime":1778875200},"SBPF":{"icaoId":"SBPF","flightCategory":"VFR","rawOb":"METAR SBPF 152000Z 04006KT CAVOK 19/08 Q1016","temp":19,"dewp":8,"wdir":40,"wspd":6,"visib":"6+","altim":1016,"clouds":[],"obsTime":1778875200},"SBIH":{"icaoId":"SBIH","flightCategory":"VFR","rawOb":"METAR SBIH 152000Z 06003KT 9999 SCT020 FEW025TCU 31/25 Q1009","temp":31,"dewp":25,"wdir":60,"wspd":3,"visib":"6+","altim":1009,"clouds":[{"cover":"SCT","base":2000},{"cover":"FEW","base":2500}],"obsTime":1778875200},"SBAF":{"icaoId":"SBAF","flightCategory":"MVFR","rawOb":"METAR SBAF 152000Z 19005KT 8000 BKN026 BKN036 24/23 Q1016","temp":24,"dewp":23,"wdir":190,"wspd":5,"visib":4.97,"altim":1016,"clouds":[{"cover":"BKN","base":2600},{"cover":"BKN","base":3600}],"obsTime":1778875200},"SBGW":{"icaoId":"SBGW","flightCategory":"MVFR","rawOb":"METAR SBGW 152000Z 24006KT 190V270 6000 SCT030 BKN100 22/15 Q1018","temp":22,"dewp":15,"wdir":240,"wspd":6,"visib":3.73,"altim":1018,"clouds":[{"cover":"SCT","base":3000},{"cover":"BKN","base":10000}],"obsTime":1778875200},"SBJR":{"icaoId":"SBJR","flightCategory":"VFR","rawOb":"METAR SBJR 152000Z 23005KT 9000 FEW012 SCT015 BKN035 24/21 Q1016","temp":24,"dewp":21,"wdir":230,"wspd":5,"visib":5.59,"altim":1016,"clouds":[{"cover":"FEW","base":1200},{"cover":"SCT","base":1500},{"cover":"BKN","base":3500}],"obsTime":1778875200},"SBLS":{"icaoId":"SBLS","flightCategory":"VFR","rawOb":"METAR SBLS 152000Z VRB02KT 9999 FEW040 25/17 Q1018","temp":25,"dewp":17,"wdir":"VRB","wspd":2,"visib":"6+","altim":1018,"clouds":[{"cover":"FEW","base":4000}],"obsTime":1778875200},"SBMT":{"icaoId":"SBMT","flightCategory":"MVFR","rawOb":"METAR SBMT 152000Z 29003KT 6000 -RA BKN025 BKN035 17/16 Q1019","temp":17,"dewp":16,"wdir":290,"wspd":3,"visib":3.73,"altim":1019,"clouds":[{"cover":"BKN","base":2500},{"cover":"BKN","base":3500}],"obsTime":1778875200},"SBJV":{"icaoId":"SBJV","flightCategory":"IFR","rawOb":"METAR SBJV 152000Z 00000KT 3000 -RA BR BKN006 BKN013 OVC030 16/16 Q1017 RERA","temp":16,"dewp":16,"wdir":0,"wspd":0,"visib":1.86,"altim":1017,"clouds":[{"cover":"BKN","base":600},{"cover":"BKN","base":1300},{"cover":"OVC","base":3000}],"obsTime":1778875200},"SBTA":{"icaoId":"SBTA","flightCategory":"MVFR","rawOb":"METAR SBTA 152000Z 26005KT 8000 FEW030 BKN090 20/17 Q1019","temp":20,"dewp":17,"wdir":260,"wspd":5,"visib":4.97,"altim":1019,"clouds":[{"cover":"FEW","base":3000},{"cover":"BKN","base":9000}],"obsTime":1778875200}}}