{"updated":1783228446,"count":52,"data":{"SBTE":{"icaoId":"SBTE","flightCategory":"VFR","rawOb":"METAR SBTE 050400Z 03004KT CAVOK 27/22 Q1013","temp":27,"dewp":22,"wdir":30,"wspd":4,"visib":"6+","altim":1013,"clouds":[],"obsTime":1783224000},"SBKP":{"icaoId":"SBKP","flightCategory":"LIFR","rawOb":"SPECI SBKP 050330Z 12012KT 5000 BR BKN004 14/13 Q1022","temp":14,"dewp":13,"wdir":120,"wspd":12,"visib":3.11,"altim":1022,"clouds":[{"cover":"BKN","base":400}],"obsTime":1783222200},"SBNT":{"icaoId":"SBNT","flightCategory":"IFR","rawOb":"METAR SBNT 050400Z 15005KT 7000 -RA BKN007 BKN015 FEW025TCU 23/23 Q1016","temp":23,"dewp":23,"wdir":150,"wspd":5,"visib":4.35,"altim":1016,"clouds":[{"cover":"BKN","base":700},{"cover":"BKN","base":1500},{"cover":"FEW","base":2500}],"obsTime":1783224000},"SBCT":{"icaoId":"SBCT","flightCategory":"IFR","rawOb":"METAR SBCT 050400Z 09002KT 9999 OVC005 10/10 Q1024","temp":10,"dewp":10,"wdir":90,"wspd":2,"visib":"6+","altim":1024,"clouds":[{"cover":"OVC","base":500}],"obsTime":1783224000},"SBFZ":{"icaoId":"SBFZ","flightCategory":"IFR","rawOb":"METAR SBFZ 050400Z 12010KT 4000 -RA BR FEW006 SCT040 OVC050 24/23 Q1015","temp":24,"dewp":23,"wdir":120,"wspd":10,"visib":2.49,"altim":1015,"clouds":[{"cover":"FEW","base":600},{"cover":"SCT","base":4000},{"cover":"OVC","base":5000}],"obsTime":1783224000},"SBRF":{"icaoId":"SBRF","flightCategory":"MVFR","rawOb":"METAR SBRF 050400Z 19007KT 9999 VCSH BKN020 23/22 Q1016","temp":23,"dewp":22,"wdir":190,"wspd":7,"visib":"6+","altim":1016,"clouds":[{"cover":"BKN","base":2000}],"obsTime":1783224000},"SBBE":{"icaoId":"SBBE","flightCategory":"VFR","rawOb":"METAR SBBE 050400Z 10005KT 9999 SCT035 BKN060 26/24 Q1014","temp":26,"dewp":24,"wdir":100,"wspd":5,"visib":"6+","altim":1014,"clouds":[{"cover":"SCT","base":3500},{"cover":"BKN","base":6000}],"obsTime":1783224000},"SBSL":{"icaoId":"SBSL","flightCategory":"VFR","rawOb":"METAR SBSL 050400Z 09007KT CAVOK 26/24 Q1014","temp":26,"dewp":24,"wdir":90,"wspd":7,"visib":"6+","altim":1014,"clouds":[],"obsTime":1783224000},"SBPV":{"icaoId":"SBPV","flightCategory":"VFR","rawOb":"METAR SBPV 050400Z 00000KT CAVOK 23/20 Q1014","temp":23,"dewp":20,"wdir":0,"wspd":0,"visib":"6+","altim":1014,"clouds":[],"obsTime":1783224000},"SBMA":{"icaoId":"SBMA","flightCategory":"VFR","rawOb":"METAR SBMA 050400Z 00000KT CAVOK 24/21 Q1013","temp":24,"dewp":21,"wdir":0,"wspd":0,"visib":"6+","altim":1013,"clouds":[],"obsTime":1783224000},"SBLO":{"icaoId":"SBLO","flightCategory":"VFR","rawOb":"METAR SBLO 050400Z 06002KT CAVOK 18/17 Q1021","temp":18,"dewp":17,"wdir":60,"wspd":2,"visib":"6+","altim":1021,"clouds":[],"obsTime":1783224000},"SBBR":{"icaoId":"SBBR","flightCategory":"VFR","rawOb":"METAR SBBR 050400Z 00000KT CAVOK 15/12 Q1023","temp":15,"dewp":12,"wdir":0,"wspd":0,"visib":"6+","altim":1023,"clouds":[],"obsTime":1783224000},"SBSG":{"icaoId":"SBSG","flightCategory":"LIFR","rawOb":"METAR SBSG 050400Z 13005KT 100V170 3000 -RA BR BKN004 BKN025 23/22 Q1016","temp":23,"dewp":22,"wdir":130,"wspd":5,"visib":1.86,"altim":1016,"clouds":[{"cover":"BKN","base":400},{"cover":"BKN","base":2500}],"obsTime":1783224000},"SBVT":{"icaoId":"SBVT","flightCategory":"VFR","rawOb":"METAR SBVT 050400Z 32002KT 9999 FEW030 BKN060 19/18 Q1020","temp":19,"dewp":18,"wdir":320,"wspd":2,"visib":"6+","altim":1020,"clouds":[{"cover":"FEW","base":3000},{"cover":"BKN","base":6000}],"obsTime":1783224000},"SBEG":{"icaoId":"SBEG","flightCategory":"VFR","rawOb":"METAR SBEG 050400Z 35003KT CAVOK 24/23 Q1013","temp":24,"dewp":23,"wdir":350,"wspd":3,"visib":"6+","altim":1013,"clouds":[],"obsTime":1783224000},"SBMO":{"icaoId":"SBMO","flightCategory":"VFR","rawOb":"METAR SBMO 050400Z 32003KT 9999 FEW020 20/20 Q1018","temp":20,"dewp":20,"wdir":320,"wspd":3,"visib":"6+","altim":1018,"clouds":[{"cover":"FEW","base":2000}],"obsTime":1783224000},"SBFI":{"icaoId":"SBFI","flightCategory":"VFR","rawOb":"METAR SBFI 050400Z 00000KT 9999 BCFG NSC 10/10 Q1019","temp":10,"dewp":10,"wdir":0,"wspd":0,"visib":"6+","altim":1019,"clouds":[],"obsTime":1783224000},"SBGR":{"icaoId":"SBGR","flightCategory":"IFR","rawOb":"METAR SBGR 050400Z 14004KT 4000 BR OVC005 13/12 Q1024","temp":13,"dewp":12,"wdir":140,"wspd":4,"visib":2.49,"altim":1024,"clouds":[{"cover":"OVC","base":500}],"obsTime":1783224000},"SBCG":{"icaoId":"SBCG","flightCategory":"VFR","rawOb":"METAR SBCG 050400Z 09003KT CAVOK 17/15 Q1020","temp":17,"dewp":15,"wdir":90,"wspd":3,"visib":"6+","altim":1020,"clouds":[],"obsTime":1783224000},"SBSN":{"icaoId":"SBSN","flightCategory":"VFR","rawOb":"METAR SBSN 050400Z 10001KT CAVOK 25/24 Q1013","temp":25,"dewp":24,"wdir":100,"wspd":1,"visib":"6+","altim":1013,"clouds":[],"obsTime":1783224000},"SBFL":{"icaoId":"SBFL","flightCategory":"VFR","rawOb":"METAR SBFL 050400Z 33002KT CAVOK 12/11 Q1024","temp":12,"dewp":11,"wdir":330,"wspd":2,"visib":"6+","altim":1024,"clouds":[],"obsTime":1783224000},"SBMQ":{"icaoId":"SBMQ","flightCategory":"IFR","rawOb":"SPECI SBMQ 050320Z 16008KT 3000 +TSRA BKN008 BKN018 FEW020CB 24/24 Q1015 RERA","temp":24,"dewp":24,"wdir":160,"wspd":8,"visib":1.86,"altim":1015,"clouds":[{"cover":"BKN","base":800},{"cover":"BKN","base":1800},{"cover":"FEW","base":2000}],"obsTime":1783221600},"SBMG":{"icaoId":"SBMG","flightCategory":"VFR","rawOb":"METAR SBMG 050400Z AUTO 03006KT CAVOK 18/17 Q1020","temp":18,"dewp":17,"wdir":30,"wspd":6,"visib":"6+","altim":1020,"clouds":[],"obsTime":1783224000},"SBME":{"icaoId":"SBME","flightCategory":"VFR","rawOb":"METAR SBME 050400Z 23006KT 9999 SCT017 OVC040 20/18 Q1021","temp":20,"dewp":18,"wdir":230,"wspd":6,"visib":"6+","altim":1021,"clouds":[{"cover":"SCT","base":1700},{"cover":"OVC","base":4000}],"obsTime":1783224000},"SBMK":{"icaoId":"SBMK","flightCategory":"VFR","rawOb":"METAR SBMK 050400Z 35002KT CAVOK 16/14 Q1021","temp":16,"dewp":14,"wdir":350,"wspd":2,"visib":"6+","altim":1021,"clouds":[],"obsTime":1783224000},"SBUL":{"icaoId":"SBUL","flightCategory":"VFR","rawOb":"METAR SBUL 050400Z 22004KT CAVOK 19/10 Q1022","temp":19,"dewp":10,"wdir":220,"wspd":4,"visib":"6+","altim":1022,"clouds":[],"obsTime":1783224000},"SBPJ":{"icaoId":"SBPJ","flightCategory":"VFR","rawOb":"METAR SBPJ 050400Z 13004KT 100V160 CAVOK 22/18 Q1015","temp":22,"dewp":18,"wdir":130,"wspd":4,"visib":"6+","altim":1015,"clouds":[],"obsTime":1783224000},"SBSV":{"icaoId":"SBSV","flightCategory":"MVFR","rawOb":"METAR SBSV 050400Z 33003KT 300V360 9999 VCSH FEW008 BKN025 BKN035 23/22 Q1017","temp":23,"dewp":22,"wdir":330,"wspd":3,"visib":"6+","altim":1017,"clouds":[{"cover":"FEW","base":800},{"cover":"BKN","base":2500},{"cover":"BKN","base":3500}],"obsTime":1783224000},"SBGL":{"icaoId":"SBGL","flightCategory":"MVFR","rawOb":"METAR SBGL 050400Z 27005KT 9999 FEW013 BKN015 BKN020 20/17 Q1022","temp":20,"dewp":17,"wdir":270,"wspd":5,"visib":"6+","altim":1022,"clouds":[{"cover":"FEW","base":1300},{"cover":"BKN","base":1500},{"cover":"BKN","base":2000}],"obsTime":1783224000},"SBRB":{"icaoId":"SBRB","flightCategory":"MVFR","rawOb":"METAR SBRB 050400Z 00000KT 8000 NSC 19/18 Q1016","temp":19,"dewp":18,"wdir":0,"wspd":0,"visib":4.97,"altim":1016,"clouds":[],"obsTime":1783224000},"SBPA":{"icaoId":"SBPA","flightCategory":"MVFR","rawOb":"METAR SBPA 050400Z 05004KT 9000 OVC011 10/09 Q1024","temp":10,"dewp":9,"wdir":50,"wspd":4,"visib":5.59,"altim":1024,"clouds":[{"cover":"OVC","base":1100}],"obsTime":1783224000},"SBCF":{"icaoId":"SBCF","flightCategory":"VFR","rawOb":"METAR SBCF 050400Z 14008KT CAVOK 19/14 Q1022","temp":19,"dewp":14,"wdir":140,"wspd":8,"visib":"6+","altim":1022,"clouds":[],"obsTime":1783224000},"SBSP":{"icaoId":"SBSP","flightCategory":"LIFR","rawOb":"METAR SBSP 050400Z AUTO 13005KT 6000 OVC004 12/12 Q1024","temp":12,"dewp":12,"wdir":130,"wspd":5,"visib":3.73,"altim":1024,"clouds":[{"cover":"OVC","base":400}],"obsTime":1783224000},"SBGO":{"icaoId":"SBGO","flightCategory":"VFR","rawOb":"METAR SBGO 050400Z 32003KT 290V360 CAVOK 16/14 Q1021","temp":16,"dewp":14,"wdir":320,"wspd":3,"visib":"6+","altim":1021,"clouds":[],"obsTime":1783224000},"SBBV":{"icaoId":"SBBV","flightCategory":"MVFR","rawOb":"METAR SBBV 050400Z 29002KT 9999 VCTS BKN010 BKN020 FEW030CB BKN100 24/24 Q1014","temp":24,"dewp":24,"wdir":290,"wspd":2,"visib":"6+","altim":1014,"clouds":[{"cover":"BKN","base":1000},{"cover":"BKN","base":2000},{"cover":"FEW","base":3000},{"cover":"BKN","base":10000}],"obsTime":1783224000},"SBUR":{"icaoId":"SBUR","flightCategory":"VFR","rawOb":"METAR SBUR 050400Z 25002KT CAVOK 21/14 Q1021","temp":21,"dewp":14,"wdir":250,"wspd":2,"visib":"6+","altim":1021,"clouds":[],"obsTime":1783224000},"SBJU":{"icaoId":"SBJU","flightCategory":"VFR","rawOb":"METAR SBJU 050400Z 00000KT 9999 FEW020 24/13 Q1018","temp":24,"dewp":13,"wdir":0,"wspd":0,"visib":"6+","altim":1018,"clouds":[{"cover":"FEW","base":2000}],"obsTime":1783224000},"SBIP":{"icaoId":"SBIP","flightCategory":"VFR","rawOb":"METAR SBIP 050400Z AUTO 15003KT 100V210 CAVOK 16/16 Q1021","temp":16,"dewp":16,"wdir":150,"wspd":3,"visib":"6+","altim":1021,"clouds":[],"obsTime":1783224000},"SBSC":{"icaoId":"SBSC","flightCategory":"MVFR","rawOb":"METAR SBSC 050400Z 22006KT 9999 OVC014 19/17 Q1022","temp":19,"dewp":17,"wdir":220,"wspd":6,"visib":"6+","altim":1022,"clouds":[{"cover":"OVC","base":1400}],"obsTime":1783224000},"SBSR":{"icaoId":"SBSR","flightCategory":"VFR","rawOb":"METAR SBSR 050400Z 15003KT 9999 FEW045 21/14 Q1020","temp":21,"dewp":14,"wdir":150,"wspd":3,"visib":"6+","altim":1020,"clouds":[{"cover":"FEW","base":4500}],"obsTime":1783224000},"SBKG":{"icaoId":"SBKG","flightCategory":"VFR","rawOb":"METAR SBKG 050400Z 15003KT 9999 SCT015 21/19 Q1018","temp":21,"dewp":19,"wdir":150,"wspd":3,"visib":"6+","altim":1018,"clouds":[{"cover":"SCT","base":1500}],"obsTime":1783224000},"SBTU":{"icaoId":"SBTU","flightCategory":"VFR","rawOb":"METAR SBTU 050400Z AUTO 22003KT 9999 // FEW075/// BKN100/// ///// Q1015","temp":null,"dewp":null,"wdir":220,"wspd":3,"visib":"6+","altim":1015,"clouds":[{"cover":"FEW","base":7500},{"cover":"BKN","base":10000}],"obsTime":1783224000},"SBPS":{"icaoId":"SBPS","flightCategory":"VFR","rawOb":"METAR SBPS 050400Z 26003KT 9999 SCT025 SCT050 20/20 Q1020","temp":20,"dewp":20,"wdir":260,"wspd":3,"visib":"6+","altim":1020,"clouds":[{"cover":"SCT","base":2500},{"cover":"SCT","base":5000}],"obsTime":1783224000},"SBAR":{"icaoId":"SBAR","flightCategory":"VFR","rawOb":"METAR SBAR 050400Z 06002KT 9999 FEW030 BKN070 24/22 Q1017","temp":24,"dewp":22,"wdir":60,"wspd":2,"visib":"6+","altim":1017,"clouds":[{"cover":"FEW","base":3000},{"cover":"BKN","base":7000}],"obsTime":1783224000},"SBOI":{"icaoId":"SBOI","flightCategory":"VFR","rawOb":"METAR SBOI 050400Z AUTO 00000KT CAVOK 25/24 Q1015","temp":25,"dewp":24,"wdir":0,"wspd":0,"visib":"6+","altim":1015,"clouds":[],"obsTime":1783224000},"SBPL":{"icaoId":"SBPL","flightCategory":"VFR","rawOb":"METAR SBPL 050400Z 14007KT CAVOK 23/16 Q1018","temp":23,"dewp":16,"wdir":140,"wspd":7,"visib":"6+","altim":1018,"clouds":[],"obsTime":1783224000},"SBAX":{"icaoId":"SBAX","flightCategory":"VFR","rawOb":"METAR SBAX 050400Z AUTO 12007KT CAVOK 20/13 Q1022","temp":20,"dewp":13,"wdir":120,"wspd":7,"visib":"6+","altim":1022,"clouds":[],"obsTime":1783224000},"SBDN":{"icaoId":"SBDN","flightCategory":"VFR","rawOb":"METAR SBDN 050400Z 12006KT 9000 NSC 17/16 Q1020","temp":17,"dewp":16,"wdir":120,"wspd":6,"visib":5.59,"altim":1020,"clouds":[],"obsTime":1783224000},"SBJP":{"icaoId":"SBJP","flightCategory":"VFR","rawOb":"METAR SBJP 050400Z 18008KT 9999 SCT020 SCT070 23/22 Q1016","temp":23,"dewp":22,"wdir":180,"wspd":8,"visib":"6+","altim":1016,"clouds":[{"cover":"SCT","base":2000},{"cover":"SCT","base":7000}],"obsTime":1783224000},"SBNM":{"icaoId":"SBNM","flightCategory":"VFR","rawOb":"METAR SBNM 050400Z AUTO 09007KT CAVOK 07/06 Q1021","temp":7,"dewp":6,"wdir":90,"wspd":7,"visib":"6+","altim":1021,"clouds":[],"obsTime":1783224000},"SBAN":{"icaoId":"SBAN","flightCategory":"VFR","rawOb":"METAR SBAN 050400Z 15004KT CAVOK 15/11 Q1023","temp":15,"dewp":11,"wdir":150,"wspd":4,"visib":"6+","altim":1023,"clouds":[],"obsTime":1783224000},"SBLE":{"icaoId":"SBLE","flightCategory":"VFR","rawOb":"METAR SBLE 050400Z AUTO VRB01KT CAVOK ///// Q1020","temp":null,"dewp":null,"wdir":"VRB","wspd":1,"visib":"6+","altim":1020,"clouds":[],"obsTime":1783224000}}}