{"updated":1774913750,"count":72,"data":{"SBSV":{"icaoId":"SBSV","flightCategory":"VFR","rawOb":"METAR SBSV 302200Z 21003KT 160V230 9999 FEW023 BKN070 27/23 Q1011","temp":27,"dewp":23,"wdir":210,"wspd":3,"visib":"6+","altim":1011,"clouds":[{"cover":"FEW","base":2300},{"cover":"BKN","base":7000}],"obsTime":1774908000},"SBFZ":{"icaoId":"SBFZ","flightCategory":"VFR","rawOb":"METAR SBFZ 302200Z 17003KT 120V210 9999 FEW018 27/24 Q1009","temp":27,"dewp":24,"wdir":170,"wspd":3,"visib":"6+","altim":1009,"clouds":[{"cover":"FEW","base":1800}],"obsTime":1774908000},"SBMK":{"icaoId":"SBMK","flightCategory":"VFR","rawOb":"METAR SBMK 302200Z 00000KT 9999 FEW045 24/19 Q1014","temp":24,"dewp":19,"wdir":0,"wspd":0,"visib":"6+","altim":1014,"clouds":[{"cover":"FEW","base":4500}],"obsTime":1774908000},"SBCT":{"icaoId":"SBCT","flightCategory":"MVFR","rawOb":"METAR SBCT 302200Z 09007KT 9999 BKN010 BKN100 20/18 Q1018","temp":20,"dewp":18,"wdir":90,"wspd":7,"visib":"6+","altim":1018,"clouds":[{"cover":"BKN","base":1000},{"cover":"BKN","base":10000}],"obsTime":1774908000},"SBBR":{"icaoId":"SBBR","flightCategory":"VFR","rawOb":"METAR SBBR 302200Z 15006KT 9999 BKN045 FEW050TCU 25/15 Q1015","temp":25,"dewp":15,"wdir":150,"wspd":6,"visib":"6+","altim":1015,"clouds":[{"cover":"BKN","base":4500},{"cover":"FEW","base":5000}],"obsTime":1774908000},"SBMO":{"icaoId":"SBMO","flightCategory":"VFR","rawOb":"METAR SBMO 302200Z 36001KT 9999 SCT020 BKN070 25/25 Q1011","temp":25,"dewp":25,"wdir":360,"wspd":1,"visib":"6+","altim":1011,"clouds":[{"cover":"SCT","base":2000},{"cover":"BKN","base":7000}],"obsTime":1774908000},"SBMQ":{"icaoId":"SBMQ","flightCategory":"VFR","rawOb":"METAR SBMQ 302200Z 03007KT 9999 FEW040 28/25 Q1009","temp":28,"dewp":25,"wdir":30,"wspd":7,"visib":"6+","altim":1009,"clouds":[{"cover":"FEW","base":4000}],"obsTime":1774908000},"SBGL":{"icaoId":"SBGL","flightCategory":"VFR","rawOb":"METAR SBGL 302200Z 13005KT 9999 FEW025 BKN050 26/22 Q1013","temp":26,"dewp":22,"wdir":130,"wspd":5,"visib":"6+","altim":1013,"clouds":[{"cover":"FEW","base":2500},{"cover":"BKN","base":5000}],"obsTime":1774908000},"SBCZ":{"icaoId":"SBCZ","flightCategory":"VFR","rawOb":"METAR SBCZ 302200Z 16003KT 9999 SCT030 30/23 Q1008","temp":30,"dewp":23,"wdir":160,"wspd":3,"visib":"6+","altim":1008,"clouds":[{"cover":"SCT","base":3000}],"obsTime":1774908000},"SBNT":{"icaoId":"SBNT","flightCategory":"VFR","rawOb":"METAR SBNT 302200Z 08005KT 040V100 9999 SCT026 BKN077 28/24 Q1010","temp":28,"dewp":24,"wdir":80,"wspd":5,"visib":"6+","altim":1010,"clouds":[{"cover":"SCT","base":2600},{"cover":"BKN","base":7700}],"obsTime":1774908000},"SBPA":{"icaoId":"SBPA","flightCategory":"VFR","rawOb":"METAR SBPA 302200Z 11010KT 9999 SCT017 BKN050 26/22 Q1014","temp":26,"dewp":22,"wdir":110,"wspd":10,"visib":"6+","altim":1014,"clouds":[{"cover":"SCT","base":1700},{"cover":"BKN","base":5000}],"obsTime":1774908000},"SBGO":{"icaoId":"SBGO","flightCategory":"VFR","rawOb":"METAR SBGO 302200Z 15003KT 9999 FEW045TCU 28/17 Q1013","temp":28,"dewp":17,"wdir":150,"wspd":3,"visib":"6+","altim":1013,"clouds":[{"cover":"FEW","base":4500}],"obsTime":1774908000},"SBEG":{"icaoId":"SBEG","flightCategory":"VFR","rawOb":"METAR SBEG 302200Z 01004KT 340V050 9999 3000NE -TSRA SCT020 FEW025CB 27/25 Q1009","temp":27,"dewp":25,"wdir":10,"wspd":4,"visib":"6+","altim":1009,"clouds":[{"cover":"SCT","base":2000},{"cover":"FEW","base":2500}],"obsTime":1774908000},"SBPJ":{"icaoId":"SBPJ","flightCategory":"VFR","rawOb":"METAR SBPJ 302200Z 09003KT 9999 VCTS FEW030 FEW035CB SCT100 28/24 Q1009","temp":28,"dewp":24,"wdir":90,"wspd":3,"visib":"6+","altim":1009,"clouds":[{"cover":"FEW","base":3000},{"cover":"FEW","base":3500},{"cover":"SCT","base":10000}],"obsTime":1774908000},"SBPV":{"icaoId":"SBPV","flightCategory":"VFR","rawOb":"METAR SBPV 302200Z 10004KT 9999 FEW035 30/21 Q1007","temp":30,"dewp":21,"wdir":100,"wspd":4,"visib":"6+","altim":1007,"clouds":[{"cover":"FEW","base":3500}],"obsTime":1774908000},"SBGR":{"icaoId":"SBGR","flightCategory":"VFR","rawOb":"METAR SBGR 302200Z 12004KT CAVOK 22/17 Q1017","temp":22,"dewp":17,"wdir":120,"wspd":4,"visib":"6+","altim":1017,"clouds":[],"obsTime":1774908000},"SBRB":{"icaoId":"SBRB","flightCategory":"VFR","rawOb":"METAR SBRB 302200Z 15004KT 9999 FEW025 FEW030TCU 28/23 Q1009","temp":28,"dewp":23,"wdir":150,"wspd":4,"visib":"6+","altim":1009,"clouds":[{"cover":"FEW","base":2500},{"cover":"FEW","base":3000}],"obsTime":1774908000},"SBIL":{"icaoId":"SBIL","flightCategory":"VFR","rawOb":"METAR SBIL 302200Z 17005KT 9999 FEW020 27/24 Q1012","temp":27,"dewp":24,"wdir":170,"wspd":5,"visib":"6+","altim":1012,"clouds":[{"cover":"FEW","base":2000}],"obsTime":1774908000},"SBCG":{"icaoId":"SBCG","flightCategory":"VFR","rawOb":"METAR SBCG 302200Z 10007KT CAVOK 29/17 Q1013","temp":29,"dewp":17,"wdir":100,"wspd":7,"visib":"6+","altim":1013,"clouds":[],"obsTime":1774908000},"SBRF":{"icaoId":"SBRF","flightCategory":"MVFR","rawOb":"METAR SBRF 302200Z COR 23006KT 8000 -RA SCT023 SCT070 27/25 Q1010","temp":27,"dewp":25,"wdir":230,"wspd":6,"visib":4.97,"altim":1010,"clouds":[{"cover":"SCT","base":2300},{"cover":"SCT","base":7000}],"obsTime":1774908000},"SBVT":{"icaoId":"SBVT","flightCategory":"VFR","rawOb":"METAR SBVT 302200Z 04003KT 9999 SCT030 25/23 Q1012","temp":25,"dewp":23,"wdir":40,"wspd":3,"visib":"6+","altim":1012,"clouds":[{"cover":"SCT","base":3000}],"obsTime":1774908000},"SBBE":{"icaoId":"SBBE","flightCategory":"VFR","rawOb":"METAR SBBE 302200Z 05006KT 9999 FEW035 SCT083 27/25 Q1009","temp":27,"dewp":25,"wdir":50,"wspd":6,"visib":"6+","altim":1009,"clouds":[{"cover":"FEW","base":3500},{"cover":"SCT","base":8300}],"obsTime":1774908000},"SBJU":{"icaoId":"SBJU","flightCategory":"MVFR","rawOb":"METAR SBJU 302200Z 00000KT 9999 BKN020 23/22 Q1012","temp":23,"dewp":22,"wdir":0,"wspd":0,"visib":"6+","altim":1012,"clouds":[{"cover":"BKN","base":2000}],"obsTime":1774908000},"SBSG":{"icaoId":"SBSG","flightCategory":"VFR","rawOb":"METAR SBSG 302200Z 07007KT 9999 VCTS SCT030 FEW033CB 28/24 Q1010","temp":28,"dewp":24,"wdir":70,"wspd":7,"visib":"6+","altim":1010,"clouds":[{"cover":"SCT","base":3000},{"cover":"FEW","base":3300}],"obsTime":1774908000},"SBFI":{"icaoId":"SBFI","flightCategory":"VFR","rawOb":"METAR SBFI 302200Z 25003KT CAVOK 30/21 Q1010","temp":30,"dewp":21,"wdir":250,"wspd":3,"visib":"6+","altim":1010,"clouds":[],"obsTime":1774908000},"SBSL":{"icaoId":"SBSL","flightCategory":"VFR","rawOb":"METAR SBSL 302200Z 09008KT 9999 SCT020 27/24 Q1003","temp":27,"dewp":24,"wdir":90,"wspd":8,"visib":"6+","altim":1003,"clouds":[{"cover":"SCT","base":2000}],"obsTime":1774908000},"SBSN":{"icaoId":"SBSN","flightCategory":"VFR","rawOb":"METAR SBSN 302200Z 34005KT 9999 FEW010 SCT020 FEW025TCU 27/25 Q1008","temp":27,"dewp":25,"wdir":340,"wspd":5,"visib":"6+","altim":1008,"clouds":[{"cover":"FEW","base":1000},{"cover":"SCT","base":2000},{"cover":"FEW","base":2500}],"obsTime":1774908000},"SBBV":{"icaoId":"SBBV","flightCategory":"MVFR","rawOb":"METAR SBBV 302200Z 18006KT 7000 -TSRA SCT006 BKN013 FEW020CB OVC080 23/22 Q1011","temp":23,"dewp":22,"wdir":180,"wspd":6,"visib":4.35,"altim":1011,"clouds":[{"cover":"SCT","base":600},{"cover":"BKN","base":1300},{"cover":"FEW","base":2000},{"cover":"OVC","base":8000}],"obsTime":1774908000},"SBKP":{"icaoId":"SBKP","flightCategory":"VFR","rawOb":"METAR SBKP 302200Z 12013KT CAVOK 26/17 Q1014","temp":26,"dewp":17,"wdir":120,"wspd":13,"visib":"6+","altim":1014,"clouds":[],"obsTime":1774908000},"SBSP":{"icaoId":"SBSP","flightCategory":"VFR","rawOb":"METAR SBSP 302200Z 14007KT CAVOK 21/17 Q1017","temp":21,"dewp":17,"wdir":140,"wspd":7,"visib":"6+","altim":1017,"clouds":[],"obsTime":1774908000},"SBLO":{"icaoId":"SBLO","flightCategory":"VFR","rawOb":"METAR SBLO 302200Z 31009KT 9999 FEW040TCU 27/19 Q1013","temp":27,"dewp":19,"wdir":310,"wspd":9,"visib":"6+","altim":1013,"clouds":[{"cover":"FEW","base":4000}],"obsTime":1774908000},"SBMG":{"icaoId":"SBMG","flightCategory":"VFR","rawOb":"METAR SBMG 302200Z 26005KT 9999 VCTS FEW045 FEW050CB 30/16 Q1012","temp":30,"dewp":16,"wdir":260,"wspd":5,"visib":"6+","altim":1012,"clouds":[{"cover":"FEW","base":4500},{"cover":"FEW","base":5000}],"obsTime":1774908000},"SBTE":{"icaoId":"SBTE","flightCategory":"VFR","rawOb":"METAR SBTE 302200Z 03007KT 9999 -RA SCT016 OVC090 26/24 Q1010","temp":26,"dewp":24,"wdir":30,"wspd":7,"visib":"6+","altim":1010,"clouds":[{"cover":"SCT","base":1600},{"cover":"OVC","base":9000}],"obsTime":1774908000},"SBFL":{"icaoId":"SBFL","flightCategory":"IFR","rawOb":"METAR SBFL 302200Z 14007KT 6000 BKN009 BKN015 BKN100 22/22 Q1015","temp":22,"dewp":22,"wdir":140,"wspd":7,"visib":3.73,"altim":1015,"clouds":[{"cover":"BKN","base":900},{"cover":"BKN","base":1500},{"cover":"BKN","base":10000}],"obsTime":1774908000},"SBUL":{"icaoId":"SBUL","flightCategory":"VFR","rawOb":"METAR SBUL 302200Z 14005KT 060V180 9999 VCSH VCTS SCT048 FEW050CB SCT066 25/18 Q1016","temp":25,"dewp":18,"wdir":140,"wspd":5,"visib":"6+","altim":1016,"clouds":[{"cover":"SCT","base":4800},{"cover":"FEW","base":5000},{"cover":"SCT","base":6600}],"obsTime":1774908000},"SBCF":{"icaoId":"SBCF","flightCategory":"VFR","rawOb":"METAR SBCF 302200Z 17002KT 9999 FEW040 24/17 Q1016","temp":24,"dewp":17,"wdir":170,"wspd":2,"visib":"6+","altim":1016,"clouds":[{"cover":"FEW","base":4000}],"obsTime":1774908000},"SBUR":{"icaoId":"SBUR","flightCategory":"VFR","rawOb":"METAR SBUR 302200Z 19002KT CAVOK 27/17 Q1014","temp":27,"dewp":17,"wdir":190,"wspd":2,"visib":"6+","altim":1014,"clouds":[],"obsTime":1774908000},"SBMA":{"icaoId":"SBMA","flightCategory":"VFR","rawOb":"METAR SBMA 302200Z 34004KT 9999 VCTS FEW020 FEW025CB BKN100 27/25 Q1009","temp":27,"dewp":25,"wdir":340,"wspd":4,"visib":"6+","altim":1009,"clouds":[{"cover":"FEW","base":2000},{"cover":"FEW","base":2500},{"cover":"BKN","base":10000}],"obsTime":1774908000},"SBME":{"icaoId":"SBME","flightCategory":"VFR","rawOb":"METAR SBME 302200Z 17003KT 9999 SCT020 26/23 Q1013","temp":26,"dewp":23,"wdir":170,"wspd":3,"visib":"6+","altim":1013,"clouds":[{"cover":"SCT","base":2000}],"obsTime":1774908000},"SBCP":{"icaoId":"SBCP","flightCategory":"VFR","rawOb":"METAR SBCP 302200Z 00000KT 9999 TS FEW020 FEW030CB 25/23 Q1013","temp":25,"dewp":23,"wdir":0,"wspd":0,"visib":"6+","altim":1013,"clouds":[{"cover":"FEW","base":2000},{"cover":"FEW","base":3000}],"obsTime":1774908000},"SBVH":{"icaoId":"SBVH","flightCategory":"VFR","rawOb":"METAR SBVH 302200Z 20008KT 9999 FEW040 26/22 Q1012","temp":26,"dewp":22,"wdir":200,"wspd":8,"visib":"6+","altim":1012,"clouds":[{"cover":"FEW","base":4000}],"obsTime":1774908000},"SBPL":{"icaoId":"SBPL","flightCategory":"VFR","rawOb":"METAR SBPL 302200Z 16002KT 9999 FEW030 SCT070 27/23 Q1011","temp":27,"dewp":23,"wdir":160,"wspd":2,"visib":"6+","altim":1011,"clouds":[{"cover":"FEW","base":3000},{"cover":"SCT","base":7000}],"obsTime":1774908000},"SBAX":{"icaoId":"SBAX","flightCategory":"VFR","rawOb":"METAR SBAX 302200Z 20004KT CAVOK 23/16 Q1016","temp":23,"dewp":16,"wdir":200,"wspd":4,"visib":"6+","altim":1016,"clouds":[],"obsTime":1774908000},"SBPS":{"icaoId":"SBPS","flightCategory":"VFR","rawOb":"METAR SBPS 302200Z 13002KT 9999 FEW012 BKN100 25/23 Q1012","temp":25,"dewp":23,"wdir":130,"wspd":2,"visib":"6+","altim":1012,"clouds":[{"cover":"FEW","base":1200},{"cover":"BKN","base":10000}],"obsTime":1774908000},"SBSC":{"icaoId":"SBSC","flightCategory":"VFR","rawOb":"METAR SBSC 302200Z 21003KT 9999 SCT040 24/21 Q1013","temp":24,"dewp":21,"wdir":210,"wspd":3,"visib":"6+","altim":1013,"clouds":[{"cover":"SCT","base":4000}],"obsTime":1774908000},"SBDN":{"icaoId":"SBDN","flightCategory":"VFR","rawOb":"METAR SBDN 302200Z 00000KT CAVOK 30/19 Q1012","temp":30,"dewp":19,"wdir":0,"wspd":0,"visib":"6+","altim":1012,"clouds":[],"obsTime":1774908000},"SBSJ":{"icaoId":"SBSJ","flightCategory":"VFR","rawOb":"METAR SBSJ 302200Z 10008KT CAVOK 22/17 Q1016","temp":22,"dewp":17,"wdir":100,"wspd":8,"visib":"6+","altim":1016,"clouds":[],"obsTime":1774908000},"SBBU":{"icaoId":"SBBU","flightCategory":"VFR","rawOb":"METAR SBBU 302200Z 25003KT CAVOK 30/18 Q1013","temp":30,"dewp":18,"wdir":250,"wspd":3,"visib":"6+","altim":1013,"clouds":[],"obsTime":1774908000},"SBSM":{"icaoId":"SBSM","flightCategory":"VFR","rawOb":"METAR SBSM 302200Z 10004KT 9999 FEW035 FEW040TCU SCT100 26/24 Q1013","temp":26,"dewp":24,"wdir":100,"wspd":4,"visib":"6+","altim":1013,"clouds":[{"cover":"FEW","base":3500},{"cover":"FEW","base":4000},{"cover":"SCT","base":10000}],"obsTime":1774908000},"SBIP":{"icaoId":"SBIP","flightCategory":"VFR","rawOb":"METAR SBIP 302200Z AUTO VRB02KT CAVOK 23/21 Q1012","temp":23,"dewp":21,"wdir":"VRB","wspd":2,"visib":"6+","altim":1012,"clouds":[],"obsTime":1774908000},"SBAR":{"icaoId":"SBAR","flightCategory":"VFR","rawOb":"METAR SBAR 302200Z 11006KT 9999 FEW020 BKN060 28/22 Q1010","temp":28,"dewp":22,"wdir":110,"wspd":6,"visib":"6+","altim":1010,"clouds":[{"cover":"FEW","base":2000},{"cover":"BKN","base":6000}],"obsTime":1774908000},"SBSR":{"icaoId":"SBSR","flightCategory":"VFR","rawOb":"METAR SBSR 302200Z 21004KT 9999 FEW035 FEW035TCU 30/16 Q1012","temp":30,"dewp":16,"wdir":210,"wspd":4,"visib":"6+","altim":1012,"clouds":[{"cover":"FEW","base":3500},{"cover":"FEW","base":3500}],"obsTime":1774908000},"SBKG":{"icaoId":"SBKG","flightCategory":"VFR","rawOb":"METAR SBKG 302200Z 08008KT 9999 VCTS SCT023 FEW025CB SCT080 25/22 Q1013","temp":25,"dewp":22,"wdir":80,"wspd":8,"visib":"6+","altim":1013,"clouds":[{"cover":"SCT","base":2300},{"cover":"FEW","base":2500},{"cover":"SCT","base":8000}],"obsTime":1774908000},"SBCO":{"icaoId":"SBCO","flightCategory":"MVFR","rawOb":"METAR SBCO 302200Z 12009KT 9999 BKN018 BKN090 25/23 Q1014","temp":25,"dewp":23,"wdir":120,"wspd":9,"visib":"6+","altim":1014,"clouds":[{"cover":"BKN","base":1800},{"cover":"BKN","base":9000}],"obsTime":1774908000},"SBBH":{"icaoId":"SBBH","flightCategory":"VFR","rawOb":"METAR SBBH 302200Z 13004KT CAVOK 24/18 Q1015","temp":24,"dewp":18,"wdir":130,"wspd":4,"visib":"6+","altim":1015,"clouds":[],"obsTime":1774908000},"SBTT":{"icaoId":"SBTT","flightCategory":"VFR","rawOb":"METAR SBTT 302200Z 25004KT 210V310 9999 -RA VCTS SCT025 FEW027CB BKN070 25/22 Q1008 RETS","temp":25,"dewp":22,"wdir":250,"wspd":4,"visib":"6+","altim":1008,"clouds":[{"cover":"SCT","base":2500},{"cover":"FEW","base":2700},{"cover":"BKN","base":7000}],"obsTime":1774908000},"SBTF":{"icaoId":"SBTF","flightCategory":"VFR","rawOb":"METAR SBTF 302200Z 11004KT 9999 FEW022 31/25 Q1006","temp":31,"dewp":25,"wdir":110,"wspd":4,"visib":"6+","altim":1006,"clouds":[{"cover":"FEW","base":2200}],"obsTime":1774908000},"SBCA":{"icaoId":"SBCA","flightCategory":"VFR","rawOb":"METAR SBCA 302200Z 24008KT CAVOK 27/14 Q1015","temp":27,"dewp":14,"wdir":240,"wspd":8,"visib":"6+","altim":1015,"clouds":[],"obsTime":1774908000},"SBUY":{"icaoId":"SBUY","flightCategory":"VFR","rawOb":"METAR SBUY 302200Z 03003KT 9999 FEW025 FEW030TCU SCT100 27/24 Q1006","temp":27,"dewp":24,"wdir":30,"wspd":3,"visib":"6+","altim":1006,"clouds":[{"cover":"FEW","base":2500},{"cover":"FEW","base":3000},{"cover":"SCT","base":10000}],"obsTime":1774908000},"SBPB":{"icaoId":"SBPB","flightCategory":"MVFR","rawOb":"SPECI SBPB 302145Z 11004KT 9999 -TSRA BKN018 FEW026CB OVC100 24/23 Q1010","temp":24,"dewp":23,"wdir":110,"wspd":4,"visib":"6+","altim":1010,"clouds":[{"cover":"BKN","base":1800},{"cover":"FEW","base":2600},{"cover":"OVC","base":10000}],"obsTime":1774907100},"SBJV":{"icaoId":"SBJV","flightCategory":"VFR","rawOb":"METAR SBJV 302200Z 32002KT 9999 SCT030 BKN100 25/23 Q1013","temp":25,"dewp":23,"wdir":320,"wspd":2,"visib":"6+","altim":1013,"clouds":[{"cover":"SCT","base":3000},{"cover":"BKN","base":10000}],"obsTime":1774908000},"SBNM":{"icaoId":"SBNM","flightCategory":"VFR","rawOb":"METAR SBNM 302300Z 17002KT 9999 FEW030 SCT100 27/21 Q1013","temp":27,"dewp":21,"wdir":170,"wspd":2,"visib":"6+","altim":1013,"clouds":[{"cover":"FEW","base":3000},{"cover":"SCT","base":10000}],"obsTime":1774911600},"SBPF":{"icaoId":"SBPF","flightCategory":"VFR","rawOb":"METAR SBPF 302200Z 15012KT 9999 SCT030 24/19 Q1016","temp":24,"dewp":19,"wdir":150,"wspd":12,"visib":"6+","altim":1016,"clouds":[{"cover":"SCT","base":3000}],"obsTime":1774908000},"SBAN":{"icaoId":"SBAN","flightCategory":"VFR","rawOb":"METAR SBAN 302200Z 30002KT 9999 FEW040 FEW045TCU 22/16 Q1016","temp":22,"dewp":16,"wdir":300,"wspd":2,"visib":"6+","altim":1016,"clouds":[{"cover":"FEW","base":4000},{"cover":"FEW","base":4500}],"obsTime":1774908000},"SBLE":{"icaoId":"SBLE","flightCategory":"VFR","rawOb":"METAR SBLE 302200Z AUTO VRB02KT 9999 -RA BKN034 ///// Q////","temp":null,"dewp":null,"wdir":"VRB","wspd":2,"visib":"6+","altim":null,"clouds":[{"cover":"BKN","base":3400}],"obsTime":1774908000},"SBAF":{"icaoId":"SBAF","flightCategory":"VFR","rawOb":"METAR SBAF 302200Z 18003KT 9999 SCT025 BKN050 25/23 Q1013","temp":25,"dewp":23,"wdir":180,"wspd":3,"visib":"6+","altim":1013,"clouds":[{"cover":"SCT","base":2500},{"cover":"BKN","base":5000}],"obsTime":1774908000},"SBJR":{"icaoId":"SBJR","flightCategory":"VFR","rawOb":"METAR SBJR 302200Z 23003KT 9999 FEW020 BKN050 24/22 Q1013","temp":24,"dewp":22,"wdir":230,"wspd":3,"visib":"6+","altim":1013,"clouds":[{"cover":"FEW","base":2000},{"cover":"BKN","base":5000}],"obsTime":1774908000},"SBLS":{"icaoId":"SBLS","flightCategory":"VFR","rawOb":"METAR SBLS 302200Z 15005KT 9999 FEW030 FEW035TCU 24/17 Q1015","temp":24,"dewp":17,"wdir":150,"wspd":5,"visib":"6+","altim":1015,"clouds":[{"cover":"FEW","base":3000},{"cover":"FEW","base":3500}],"obsTime":1774908000},"SBMT":{"icaoId":"SBMT","flightCategory":"VFR","rawOb":"METAR SBMT 302200Z 14005KT CAVOK 21/16 Q1016","temp":21,"dewp":16,"wdir":140,"wspd":5,"visib":"6+","altim":1016,"clouds":[],"obsTime":1774908000},"SBTA":{"icaoId":"SBTA","flightCategory":"VFR","rawOb":"METAR SBTA 302200Z 14005KT 9999 SCT025 FEW030TCU BKN100 23/17 Q1015","temp":23,"dewp":17,"wdir":140,"wspd":5,"visib":"6+","altim":1015,"clouds":[{"cover":"SCT","base":2500},{"cover":"FEW","base":3000},{"cover":"BKN","base":10000}],"obsTime":1774908000},"SBJP":{"icaoId":"SBJP","flightCategory":"VFR","rawOb":"METAR SBJP 302200Z 00000KT 9999 VCTS FEW020 FEW030CB 27/24 Q1010","temp":27,"dewp":24,"wdir":0,"wspd":0,"visib":"6+","altim":1010,"clouds":[{"cover":"FEW","base":2000},{"cover":"FEW","base":3000}],"obsTime":1774908000},"SBGW":{"icaoId":"SBGW","flightCategory":"MVFR","rawOb":"METAR SBGW 302200Z 03003KT 320V130 9999 BKN030 FEW035TCU 22/16 Q1016","temp":22,"dewp":16,"wdir":30,"wspd":3,"visib":"6+","altim":1016,"clouds":[{"cover":"BKN","base":3000},{"cover":"FEW","base":3500}],"obsTime":1774908000}}}