{"updated":1781210405,"count":86,"data":{"SBBV":{"icaoId":"SBBV","flightCategory":"VFR","rawOb":"METAR SBBV 111900Z 26003KT 9999 VCSH SCT020 FEW030TCU BKN070 26/25 Q1012","temp":26,"dewp":25,"wdir":260,"wspd":3,"visib":"6+","altim":1012,"clouds":[{"cover":"SCT","base":2000},{"cover":"FEW","base":3000},{"cover":"BKN","base":7000}],"obsTime":1781204400},"SBLO":{"icaoId":"SBLO","flightCategory":"VFR","rawOb":"METAR SBLO 111900Z 02007KT 9999 SCT022 SCT080 22/18 Q1015","temp":22,"dewp":18,"wdir":20,"wspd":7,"visib":"6+","altim":1015,"clouds":[{"cover":"SCT","base":2200},{"cover":"SCT","base":8000}],"obsTime":1781204400},"SBCG":{"icaoId":"SBCG","flightCategory":"VFR","rawOb":"METAR SBCG 111900Z 29006KT 9999 SCT040 26/18 Q1014","temp":26,"dewp":18,"wdir":290,"wspd":6,"visib":"6+","altim":1014,"clouds":[{"cover":"SCT","base":4000}],"obsTime":1781204400},"SBMA":{"icaoId":"SBMA","flightCategory":"VFR","rawOb":"METAR SBMA 111900Z 08004KT 9999 SCT023 FEW024TCU 33/22 Q1011","temp":33,"dewp":22,"wdir":80,"wspd":4,"visib":"6+","altim":1011,"clouds":[{"cover":"SCT","base":2300},{"cover":"FEW","base":2400}],"obsTime":1781204400},"SBME":{"icaoId":"SBME","flightCategory":"VFR","rawOb":"METAR SBME 111900Z 07007KT 9999 SCT020 BKN080 23/21 Q1015 RERA","temp":23,"dewp":21,"wdir":70,"wspd":7,"visib":"6+","altim":1015,"clouds":[{"cover":"SCT","base":2000},{"cover":"BKN","base":8000}],"obsTime":1781204400},"SBFI":{"icaoId":"SBFI","flightCategory":"MVFR","rawOb":"METAR SBFI 111900Z 05006KT 9999 FEW010 BKN020 FEW030TCU 19/18 Q1011","temp":19,"dewp":18,"wdir":50,"wspd":6,"visib":"6+","altim":1011,"clouds":[{"cover":"FEW","base":1000},{"cover":"BKN","base":2000},{"cover":"FEW","base":3000}],"obsTime":1781204400},"SBFL":{"icaoId":"SBFL","flightCategory":"VFR","rawOb":"METAR SBFL 111900Z 01006KT 330V040 9999 FEW015 SCT023 BKN100 21/17 Q1014","temp":21,"dewp":17,"wdir":10,"wspd":6,"visib":"6+","altim":1014,"clouds":[{"cover":"FEW","base":1500},{"cover":"SCT","base":2300},{"cover":"BKN","base":10000}],"obsTime":1781204400},"SBMG":{"icaoId":"SBMG","flightCategory":"VFR","rawOb":"METAR SBMG 111900Z 02010KT 340V090 9999 FEW020 SCT043 22/18 Q1014","temp":22,"dewp":18,"wdir":20,"wspd":10,"visib":"6+","altim":1014,"clouds":[{"cover":"FEW","base":2000},{"cover":"SCT","base":4300}],"obsTime":1781204400},"SBMK":{"icaoId":"SBMK","flightCategory":"VFR","rawOb":"METAR SBMK 111900Z 34002KT 9999 FEW038 SCT070 28/16 Q1016","temp":28,"dewp":16,"wdir":340,"wspd":2,"visib":"6+","altim":1016,"clouds":[{"cover":"FEW","base":3800},{"cover":"SCT","base":7000}],"obsTime":1781204400},"SBBR":{"icaoId":"SBBR","flightCategory":"VFR","rawOb":"METAR SBBR 111900Z 11006KT 9999 FEW045 FEW055TCU BKN100 25/17 Q1019","temp":25,"dewp":17,"wdir":110,"wspd":6,"visib":"6+","altim":1019,"clouds":[{"cover":"FEW","base":4500},{"cover":"FEW","base":5500},{"cover":"BKN","base":10000}],"obsTime":1781204400},"SBCP":{"icaoId":"SBCP","flightCategory":"VFR","rawOb":"METAR SBCP 111900Z 09006KT 9999 FEW020 BKN090 24/20 Q1015","temp":24,"dewp":20,"wdir":90,"wspd":6,"visib":"6+","altim":1015,"clouds":[{"cover":"FEW","base":2000},{"cover":"BKN","base":9000}],"obsTime":1781204400},"SBMO":{"icaoId":"SBMO","flightCategory":"VFR","rawOb":"METAR SBMO 111900Z 17008KT 9999 SCT030 27/22 Q1014","temp":27,"dewp":22,"wdir":170,"wspd":8,"visib":"6+","altim":1014,"clouds":[{"cover":"SCT","base":3000}],"obsTime":1781204400},"SBFZ":{"icaoId":"SBFZ","flightCategory":"VFR","rawOb":"METAR SBFZ 111900Z 09012KT CAVOK 30/21 Q1011","temp":30,"dewp":21,"wdir":90,"wspd":12,"visib":"6+","altim":1011,"clouds":[],"obsTime":1781204400},"SBMQ":{"icaoId":"SBMQ","flightCategory":"VFR","rawOb":"METAR SBMQ 111900Z 06009KT 9999 FEW025 32/24 Q1010","temp":32,"dewp":24,"wdir":60,"wspd":9,"visib":"6+","altim":1010,"clouds":[{"cover":"FEW","base":2500}],"obsTime":1781204400},"SBGL":{"icaoId":"SBGL","flightCategory":"MVFR","rawOb":"METAR SBGL 111900Z 00000KT 5000 BR FEW010 SCT020 BKN100 22/19 Q1015","temp":22,"dewp":19,"wdir":0,"wspd":0,"visib":3.11,"altim":1015,"clouds":[{"cover":"FEW","base":1000},{"cover":"SCT","base":2000},{"cover":"BKN","base":10000}],"obsTime":1781204400},"SBNT":{"icaoId":"SBNT","flightCategory":"VFR","rawOb":"METAR SBNT 111900Z 14012KT 9000 VCSH SCT030 FEW034TCU BKN046 BKN070 29/22 Q1012","temp":29,"dewp":22,"wdir":140,"wspd":12,"visib":5.59,"altim":1012,"clouds":[{"cover":"SCT","base":3000},{"cover":"FEW","base":3400},{"cover":"BKN","base":4600},{"cover":"BKN","base":7000}],"obsTime":1781204400},"SBCR":{"icaoId":"SBCR","flightCategory":"VFR","rawOb":"METAR SBCR 111900Z 31005KT 290V350 9999 SCT035 30/19 Q1010","temp":30,"dewp":19,"wdir":310,"wspd":5,"visib":"6+","altim":1010,"clouds":[{"cover":"SCT","base":3500}],"obsTime":1781204400},"SBPA":{"icaoId":"SBPA","flightCategory":"MVFR","rawOb":"METAR SBPA 111900Z 12004KT 9999 OVC014 17/15 Q1014","temp":17,"dewp":15,"wdir":120,"wspd":4,"visib":"6+","altim":1014,"clouds":[{"cover":"OVC","base":1400}],"obsTime":1781204400},"SBPJ":{"icaoId":"SBPJ","flightCategory":"VFR","rawOb":"METAR SBPJ 111900Z 26003KT 230V290 CAVOK 33/20 Q1011","temp":33,"dewp":20,"wdir":260,"wspd":3,"visib":"6+","altim":1011,"clouds":[],"obsTime":1781204400},"SBGO":{"icaoId":"SBGO","flightCategory":"VFR","rawOb":"METAR SBGO 111900Z 12004KT 9999 VCSH FEW048 FEW053TCU BKN100 27/15 Q1017","temp":27,"dewp":15,"wdir":120,"wspd":4,"visib":"6+","altim":1017,"clouds":[{"cover":"FEW","base":4800},{"cover":"FEW","base":5300},{"cover":"BKN","base":10000}],"obsTime":1781204400},"SBPV":{"icaoId":"SBPV","flightCategory":"VFR","rawOb":"METAR SBPV 111900Z 07003KT 9999 SCT030 32/22 Q1010","temp":32,"dewp":22,"wdir":70,"wspd":3,"visib":"6+","altim":1010,"clouds":[{"cover":"SCT","base":3000}],"obsTime":1781204400},"SBCB":{"icaoId":"SBCB","flightCategory":"VFR","rawOb":"METAR SBCB 111900Z 07005KT 9999 FEW020 SCT040 OVC080 23/21 Q1015","temp":23,"dewp":21,"wdir":70,"wspd":5,"visib":"6+","altim":1015,"clouds":[{"cover":"FEW","base":2000},{"cover":"SCT","base":4000},{"cover":"OVC","base":8000}],"obsTime":1781204400},"SBGR":{"icaoId":"SBGR","flightCategory":"VFR","rawOb":"METAR SBGR 111900Z 30005KT 9999 FEW023 20/15 Q1017","temp":20,"dewp":15,"wdir":300,"wspd":5,"visib":"6+","altim":1017,"clouds":[{"cover":"FEW","base":2300}],"obsTime":1781204400},"SBRB":{"icaoId":"SBRB","flightCategory":"MVFR","rawOb":"METAR SBRB 111900Z 33010KT 9999 BKN030 31/21 Q1012","temp":31,"dewp":21,"wdir":330,"wspd":10,"visib":"6+","altim":1012,"clouds":[{"cover":"BKN","base":3000}],"obsTime":1781204400},"SBRF":{"icaoId":"SBRF","flightCategory":"VFR","rawOb":"METAR SBRF 111900Z 17013KT 9999 SCT025 27/22 Q1014","temp":27,"dewp":22,"wdir":170,"wspd":13,"visib":"6+","altim":1014,"clouds":[{"cover":"SCT","base":2500}],"obsTime":1781204400},"SBBE":{"icaoId":"SBBE","flightCategory":"VFR","rawOb":"METAR SBBE 111900Z 14005KT 9999 BKN035 31/24 Q1010","temp":31,"dewp":24,"wdir":140,"wspd":5,"visib":"6+","altim":1010,"clouds":[{"cover":"BKN","base":3500}],"obsTime":1781204400},"SBHT":{"icaoId":"SBHT","flightCategory":"VFR","rawOb":"METAR SBHT 111900Z 10004KT 9999 SCT025 SCT030TCU 28/25 Q1011","temp":28,"dewp":25,"wdir":100,"wspd":4,"visib":"6+","altim":1011,"clouds":[{"cover":"SCT","base":2500},{"cover":"SCT","base":3000}],"obsTime":1781204400},"SBSG":{"icaoId":"SBSG","flightCategory":"VFR","rawOb":"METAR SBSG 111900Z 12005KT 090V150 9999 SCT033 FEW035TCU BKN050 27/23 Q1012","temp":27,"dewp":23,"wdir":120,"wspd":5,"visib":"6+","altim":1012,"clouds":[{"cover":"SCT","base":3300},{"cover":"FEW","base":3500},{"cover":"BKN","base":5000}],"obsTime":1781204400},"SBSL":{"icaoId":"SBSL","flightCategory":"VFR","rawOb":"METAR SBSL 111900Z 07007KT 9999 SCT030 31/24 Q1010","temp":31,"dewp":24,"wdir":70,"wspd":7,"visib":"6+","altim":1010,"clouds":[{"cover":"SCT","base":3000}],"obsTime":1781204400},"SBCT":{"icaoId":"SBCT","flightCategory":"MVFR","rawOb":"METAR SBCT 111900Z 27007KT 250V320 9999 SCT023 BKN030 BKN100 18/13 Q1017","temp":18,"dewp":13,"wdir":270,"wspd":7,"visib":"6+","altim":1017,"clouds":[{"cover":"SCT","base":2300},{"cover":"BKN","base":3000},{"cover":"BKN","base":10000}],"obsTime":1781204400},"SBSN":{"icaoId":"SBSN","flightCategory":"VFR","rawOb":"METAR SBSN 111900Z 06006KT 9999 SCT017 30/25 Q1010","temp":30,"dewp":25,"wdir":60,"wspd":6,"visib":"6+","altim":1010,"clouds":[{"cover":"SCT","base":1700}],"obsTime":1781204400},"SBIL":{"icaoId":"SBIL","flightCategory":"VFR","rawOb":"METAR SBIL 111900Z 12007KT 9999 FEW025 28/21 Q1016","temp":28,"dewp":21,"wdir":120,"wspd":7,"visib":"6+","altim":1016,"clouds":[{"cover":"FEW","base":2500}],"obsTime":1781204400},"SBAT":{"icaoId":"SBAT","flightCategory":"VFR","rawOb":"METAR SBAT 111900Z 19002KT 9999 SCT030 FEW035TCU BKN100 31/23 Q1013","temp":31,"dewp":23,"wdir":190,"wspd":2,"visib":"6+","altim":1013,"clouds":[{"cover":"SCT","base":3000},{"cover":"FEW","base":3500},{"cover":"BKN","base":10000}],"obsTime":1781204400},"SBSP":{"icaoId":"SBSP","flightCategory":"VFR","rawOb":"METAR SBSP 111900Z 31005KT 280V360 9999 SCT020 SCT100 20/15 Q1018","temp":20,"dewp":15,"wdir":310,"wspd":5,"visib":"6+","altim":1018,"clouds":[{"cover":"SCT","base":2000},{"cover":"SCT","base":10000}],"obsTime":1781204400},"SBCF":{"icaoId":"SBCF","flightCategory":"MVFR","rawOb":"METAR SBCF 111900Z 20006KT 170V250 8000 FEW015 SCT040 BKN100 20/18 Q1020 RERA","temp":20,"dewp":18,"wdir":200,"wspd":6,"visib":4.97,"altim":1020,"clouds":[{"cover":"FEW","base":1500},{"cover":"SCT","base":4000},{"cover":"BKN","base":10000}],"obsTime":1781204400},"SBSV":{"icaoId":"SBSV","flightCategory":"VFR","rawOb":"METAR SBSV 111900Z 12006KT 9999 SCT026 27/20 Q1015","temp":27,"dewp":20,"wdir":120,"wspd":6,"visib":"6+","altim":1015,"clouds":[{"cover":"SCT","base":2600}],"obsTime":1781204400},"SBJU":{"icaoId":"SBJU","flightCategory":"VFR","rawOb":"METAR SBJU 111900Z 15009KT 9999 FEW022 32/17 Q1014","temp":32,"dewp":17,"wdir":150,"wspd":9,"visib":"6+","altim":1014,"clouds":[{"cover":"FEW","base":2200}],"obsTime":1781204400},"SBTE":{"icaoId":"SBTE","flightCategory":"VFR","rawOb":"METAR SBTE 111900Z 14006KT 9999 SCT030 34/20 Q1010","temp":34,"dewp":20,"wdir":140,"wspd":6,"visib":"6+","altim":1010,"clouds":[{"cover":"SCT","base":3000}],"obsTime":1781204400},"SBUL":{"icaoId":"SBUL","flightCategory":"VFR","rawOb":"METAR SBUL 111900Z 18003KT 080V210 9999 FEW040 BKN100 24/13 Q1019","temp":24,"dewp":13,"wdir":180,"wspd":3,"visib":"6+","altim":1019,"clouds":[{"cover":"FEW","base":4000},{"cover":"BKN","base":10000}],"obsTime":1781204400},"SBCZ":{"icaoId":"SBCZ","flightCategory":"VFR","rawOb":"METAR SBCZ 111900Z 20003KT 9999 VCSH SCT025 BKN100 26/24 Q1011 RERA","temp":26,"dewp":24,"wdir":200,"wspd":3,"visib":"6+","altim":1011,"clouds":[{"cover":"SCT","base":2500},{"cover":"BKN","base":10000}],"obsTime":1781204400},"SBEG":{"icaoId":"SBEG","flightCategory":"VFR","rawOb":"METAR SBEG 111900Z 04005KT 9999 SCT030 BKN100 30/24 Q1011","temp":30,"dewp":24,"wdir":40,"wspd":5,"visib":"6+","altim":1011,"clouds":[{"cover":"SCT","base":3000},{"cover":"BKN","base":10000}],"obsTime":1781204400},"SBUR":{"icaoId":"SBUR","flightCategory":"VFR","rawOb":"METAR SBUR 111900Z 08003KT CAVOK 22/15 Q1018","temp":22,"dewp":15,"wdir":80,"wspd":3,"visib":"6+","altim":1018,"clouds":[],"obsTime":1781204400},"SBKP":{"icaoId":"SBKP","flightCategory":"VFR","rawOb":"METAR SBKP 111900Z 03004KT 350V050 9999 SCT013 BKN100 19/17 Q1017","temp":19,"dewp":17,"wdir":30,"wspd":4,"visib":"6+","altim":1017,"clouds":[{"cover":"SCT","base":1300},{"cover":"BKN","base":10000}],"obsTime":1781204400},"SBVT":{"icaoId":"SBVT","flightCategory":"VFR","rawOb":"METAR SBVT 111900Z 06010KT CAVOK 25/21 Q1015","temp":25,"dewp":21,"wdir":60,"wspd":10,"visib":"6+","altim":1015,"clouds":[],"obsTime":1781204400},"SBPB":{"icaoId":"SBPB","flightCategory":"VFR","rawOb":"METAR SBPB 111900Z 02008KT 9999 FEW020 31/25 Q1010","temp":31,"dewp":25,"wdir":20,"wspd":8,"visib":"6+","altim":1010,"clouds":[{"cover":"FEW","base":2000}],"obsTime":1781204400},"SBCO":{"icaoId":"SBCO","flightCategory":"MVFR","rawOb":"METAR SBCO 111900Z 08003KT 9000 OVC017 17/14 Q1014","temp":17,"dewp":14,"wdir":80,"wspd":3,"visib":5.59,"altim":1014,"clouds":[{"cover":"OVC","base":1700}],"obsTime":1781204400},"SBPL":{"icaoId":"SBPL","flightCategory":"VFR","rawOb":"METAR SBPL 111900Z 07007KT 9999 FEW030 32/15 Q1013","temp":32,"dewp":15,"wdir":70,"wspd":7,"visib":"6+","altim":1013,"clouds":[{"cover":"FEW","base":3000}],"obsTime":1781204400},"SBBH":{"icaoId":"SBBH","flightCategory":"VFR","rawOb":"METAR SBBH 111900Z 22004KT 9999 BKN049 OVC080 21/16 Q1019","temp":21,"dewp":16,"wdir":220,"wspd":4,"visib":"6+","altim":1019,"clouds":[{"cover":"BKN","base":4900},{"cover":"OVC","base":8000}],"obsTime":1781204400},"SBDN":{"icaoId":"SBDN","flightCategory":"VFR","rawOb":"METAR SBDN 111900Z 03007KT 9999 FEW025 SCT050 25/18 Q1015","temp":25,"dewp":18,"wdir":30,"wspd":7,"visib":"6+","altim":1015,"clouds":[{"cover":"FEW","base":2500},{"cover":"SCT","base":5000}],"obsTime":1781204400},"SBPP":{"icaoId":"SBPP","flightCategory":"VFR","rawOb":"METAR SBPP 111900Z 01014KT 9999 SCT020 23/18 Q1012","temp":23,"dewp":18,"wdir":10,"wspd":14,"visib":"6+","altim":1012,"clouds":[{"cover":"SCT","base":2000}],"obsTime":1781204400},"SBPS":{"icaoId":"SBPS","flightCategory":"VFR","rawOb":"METAR SBPS 111900Z 07009KT 9999 SCT025 26/20 Q1016","temp":26,"dewp":20,"wdir":70,"wspd":9,"visib":"6+","altim":1016,"clouds":[{"cover":"SCT","base":2500}],"obsTime":1781204400},"SBCA":{"icaoId":"SBCA","flightCategory":"LIFR","rawOb":"METAR SBCA 111900Z 04010KT 0300 FG VV000 16/16 Q1014","temp":16,"dewp":16,"wdir":40,"wspd":10,"visib":0.19,"altim":1014,"clouds":[{"cover":"OVX","base":0}],"obsTime":1781204400},"SBSC":{"icaoId":"SBSC","flightCategory":"MVFR","rawOb":"METAR SBSC 111900Z 35004KT 8000 FEW010 BKN030 OVC040 22/20 Q1015","temp":22,"dewp":20,"wdir":350,"wspd":4,"visib":4.97,"altim":1015,"clouds":[{"cover":"FEW","base":1000},{"cover":"BKN","base":3000},{"cover":"OVC","base":4000}],"obsTime":1781204400},"SBES":{"icaoId":"SBES","flightCategory":"MVFR","rawOb":"METAR SBES 111900Z 00000KT 8000 FEW015 SCT040 BKN070 22/// Q1015","temp":null,"dewp":null,"wdir":0,"wspd":0,"visib":4.97,"altim":1015,"clouds":[{"cover":"FEW","base":1500},{"cover":"SCT","base":4000},{"cover":"BKN","base":7000}],"obsTime":1781204400},"SBAX":{"icaoId":"SBAX","flightCategory":"VFR","rawOb":"METAR SBAX 111900Z 35001KT CAVOK 20/14 Q1020","temp":20,"dewp":14,"wdir":350,"wspd":1,"visib":"6+","altim":1020,"clouds":[],"obsTime":1781204400},"SBSJ":{"icaoId":"SBSJ","flightCategory":"VFR","rawOb":"METAR SBSJ 111900Z 06002KT 9999 FEW033 21/16 Q1017","temp":21,"dewp":16,"wdir":60,"wspd":2,"visib":"6+","altim":1017,"clouds":[{"cover":"FEW","base":3300}],"obsTime":1781204400},"SBSM":{"icaoId":"SBSM","flightCategory":"IFR","rawOb":"METAR SBSM 111900Z 13003KT 9999 OVC008 15/13 Q1014","temp":15,"dewp":13,"wdir":130,"wspd":3,"visib":"6+","altim":1014,"clouds":[{"cover":"OVC","base":800}],"obsTime":1781204400},"SBCC":{"icaoId":"SBCC","flightCategory":"VFR","rawOb":"METAR SBCC 111900Z 21006KT 9999 TS VCSH SCT020 FEW030CB BKN100 25/23 Q1013","temp":25,"dewp":23,"wdir":210,"wspd":6,"visib":"6+","altim":1013,"clouds":[{"cover":"SCT","base":2000},{"cover":"FEW","base":3000},{"cover":"BKN","base":10000}],"obsTime":1781204400},"SBSR":{"icaoId":"SBSR","flightCategory":"VFR","rawOb":"METAR SBSR 111900Z 06008KT 9999 SCT030 BKN080 24/16 Q1016","temp":24,"dewp":16,"wdir":60,"wspd":8,"visib":"6+","altim":1016,"clouds":[{"cover":"SCT","base":3000},{"cover":"BKN","base":8000}],"obsTime":1781204400},"SBAR":{"icaoId":"SBAR","flightCategory":"VFR","rawOb":"METAR SBAR 111900Z 16005KT 9999 FEW028 27/21 Q1014","temp":27,"dewp":21,"wdir":160,"wspd":5,"visib":"6+","altim":1014,"clouds":[{"cover":"FEW","base":2800}],"obsTime":1781204400},"SBIP":{"icaoId":"SBIP","flightCategory":"VFR","rawOb":"METAR SBIP 111900Z AUTO 18003KT CAVOK 25/19 Q1016","temp":25,"dewp":19,"wdir":180,"wspd":3,"visib":"6+","altim":1016,"clouds":[],"obsTime":1781204400},"SBTF":{"icaoId":"SBTF","flightCategory":"VFR","rawOb":"METAR SBTF 111900Z 09005KT 9999 FEW019 32/25 Q1009","temp":32,"dewp":25,"wdir":90,"wspd":5,"visib":"6+","altim":1009,"clouds":[{"cover":"FEW","base":1900}],"obsTime":1781204400},"SBTT":{"icaoId":"SBTT","flightCategory":"VFR","rawOb":"METAR SBTT 111900Z 21004KT 9999 SCT025 SCT060 30/23 Q1011","temp":30,"dewp":23,"wdir":210,"wspd":4,"visib":"6+","altim":1011,"clouds":[{"cover":"SCT","base":2500},{"cover":"SCT","base":6000}],"obsTime":1781204400},"SBKG":{"icaoId":"SBKG","flightCategory":"VFR","rawOb":"METAR SBKG 111900Z 13010KT 9999 FEW035 BKN070 27/19 Q1015","temp":27,"dewp":19,"wdir":130,"wspd":10,"visib":"6+","altim":1015,"clouds":[{"cover":"FEW","base":3500},{"cover":"BKN","base":7000}],"obsTime":1781204400},"SBCJ":{"icaoId":"SBCJ","flightCategory":"VFR","rawOb":"METAR SBCJ 111900Z 09001KT 9999 SCT020 28/22 Q1015","temp":28,"dewp":22,"wdir":90,"wspd":1,"visib":"6+","altim":1015,"clouds":[{"cover":"SCT","base":2000}],"obsTime":1781204400},"SBTU":{"icaoId":"SBTU","flightCategory":"VFR","rawOb":"METAR SBTU 111900Z AUTO 24007KT 220V280 9999 // SCT030/// ///// Q1012","temp":null,"dewp":null,"wdir":240,"wspd":7,"visib":"6+","altim":1012,"clouds":[{"cover":"SCT","base":3000}],"obsTime":1781204400},"SBBU":{"icaoId":"SBBU","flightCategory":"VFR","rawOb":"METAR SBBU 111900Z 04007KT 9999 FEW025 23/16 Q1016","temp":23,"dewp":16,"wdir":40,"wspd":7,"visib":"6+","altim":1016,"clouds":[{"cover":"FEW","base":2500}],"obsTime":1781204400},"SBUY":{"icaoId":"SBUY","flightCategory":"VFR","rawOb":"METAR SBUY 111900Z 20003KT 9999 SCT025 SCT100 28/25 Q1009","temp":28,"dewp":25,"wdir":200,"wspd":3,"visib":"6+","altim":1009,"clouds":[{"cover":"SCT","base":2500},{"cover":"SCT","base":10000}],"obsTime":1781204400},"SBVH":{"icaoId":"SBVH","flightCategory":"VFR","rawOb":"METAR SBVH 111900Z 31006KT 9999 SCT040 BKN100 28/20 Q1014","temp":28,"dewp":20,"wdir":310,"wspd":6,"visib":"6+","altim":1014,"clouds":[{"cover":"SCT","base":4000},{"cover":"BKN","base":10000}],"obsTime":1781204400},"SBOI":{"icaoId":"SBOI","flightCategory":"VFR","rawOb":"METAR SBOI 111900Z AUTO 01008KT 9999 FEW010 SCT019 BKN031 28/26 Q1011","temp":28,"dewp":26,"wdir":10,"wspd":8,"visib":"6+","altim":1011,"clouds":[{"cover":"FEW","base":1000},{"cover":"SCT","base":1900},{"cover":"BKN","base":3100}],"obsTime":1781204400},"SBBQ":{"icaoId":"SBBQ","flightCategory":"LIFR","rawOb":"METAR SBBQ 111900Z COR 33003KT 8000 -RA BKN004 OVC040 15/15 Q1022","temp":15,"dewp":15,"wdir":330,"wspd":3,"visib":4.97,"altim":1022,"clouds":[{"cover":"BKN","base":400},{"cover":"OVC","base":4000}],"obsTime":1781204400},"SBGM":{"icaoId":"SBGM","flightCategory":"VFR","rawOb":"METAR SBGM 111900Z 30007KT 9999 SCT030 30/21 Q1011","temp":30,"dewp":21,"wdir":300,"wspd":7,"visib":"6+","altim":1011,"clouds":[{"cover":"SCT","base":3000}],"obsTime":1781204400},"SBJP":{"icaoId":"SBJP","flightCategory":"VFR","rawOb":"METAR SBJP 111900Z 12016KT 9999 FEW030 BKN070 28/22 Q1014","temp":28,"dewp":22,"wdir":120,"wspd":16,"visib":"6+","altim":1014,"clouds":[{"cover":"FEW","base":3000},{"cover":"BKN","base":7000}],"obsTime":1781204400},"SBLE":{"icaoId":"SBLE","flightCategory":"VFR","rawOb":"METAR SBLE 111900Z AUTO 12003KT 070V180 CAVOK 28/17 Q1017","temp":28,"dewp":17,"wdir":120,"wspd":3,"visib":"6+","altim":1017,"clouds":[],"obsTime":1781204400},"SBIH":{"icaoId":"SBIH","flightCategory":"VFR","rawOb":"METAR SBIH 111900Z 13006KT 9999 SCT016 28/25 Q1010","temp":28,"dewp":25,"wdir":130,"wspd":6,"visib":"6+","altim":1010,"clouds":[{"cover":"SCT","base":1600}],"obsTime":1781204400},"SBJV":{"icaoId":"SBJV","flightCategory":"MVFR","rawOb":"METAR SBJV 111900Z 12004KT 9999 BKN015 BKN035 20/18 Q1014","temp":20,"dewp":18,"wdir":120,"wspd":4,"visib":"6+","altim":1014,"clouds":[{"cover":"BKN","base":1500},{"cover":"BKN","base":3500}],"obsTime":1781204400},"SBNM":{"icaoId":"SBNM","flightCategory":"MVFR","rawOb":"METAR SBNM 111900Z AUTO VRB02KT 9999 FEW015 BKN019 OVC028 18/15 Q1013","temp":18,"dewp":15,"wdir":"VRB","wspd":2,"visib":"6+","altim":1013,"clouds":[{"cover":"FEW","base":1500},{"cover":"BKN","base":1900},{"cover":"OVC","base":2800}],"obsTime":1781204400},"SBPF":{"icaoId":"SBPF","flightCategory":"MVFR","rawOb":"METAR SBPF 111900Z 32007KT 9999 BKN015 BKN070 17/13 Q1014","temp":17,"dewp":13,"wdir":320,"wspd":7,"visib":"6+","altim":1014,"clouds":[{"cover":"BKN","base":1500},{"cover":"BKN","base":7000}],"obsTime":1781204400},"SBAF":{"icaoId":"SBAF","flightCategory":"IFR","rawOb":" SBAF 111900Z 00000KT 4000 BR BKN012 BKN040 22/22 Q1015","temp":22,"dewp":22,"wdir":0,"wspd":0,"visib":2.49,"altim":1015,"clouds":[{"cover":"BKN","base":1200},{"cover":"BKN","base":4000}],"obsTime":1781204400},"SBGW":{"icaoId":"SBGW","flightCategory":"VFR","rawOb":"METAR SBGW 111900Z 28003KT 9999 SCT020 BKN070 21/18 Q1017","temp":21,"dewp":18,"wdir":280,"wspd":3,"visib":"6+","altim":1017,"clouds":[{"cover":"SCT","base":2000},{"cover":"BKN","base":7000}],"obsTime":1781204400},"SBJR":{"icaoId":"SBJR","flightCategory":"MVFR","rawOb":"METAR SBJR 111900Z 00000KT 5000 BR FEW012 SCT020 BKN060 23/21 Q1015","temp":23,"dewp":21,"wdir":0,"wspd":0,"visib":3.11,"altim":1015,"clouds":[{"cover":"FEW","base":1200},{"cover":"SCT","base":2000},{"cover":"BKN","base":6000}],"obsTime":1781204400},"SBLS":{"icaoId":"SBLS","flightCategory":"VFR","rawOb":"METAR SBLS 111900Z 18004KT 130V190 9999 SCT015 SCT100 20/17 Q1019","temp":20,"dewp":17,"wdir":180,"wspd":4,"visib":"6+","altim":1019,"clouds":[{"cover":"SCT","base":1500},{"cover":"SCT","base":10000}],"obsTime":1781204400},"SBMT":{"icaoId":"SBMT","flightCategory":"MVFR","rawOb":"METAR SBMT 111900Z 00000KT 9999 BKN023 18/16 Q1017","temp":18,"dewp":16,"wdir":0,"wspd":0,"visib":"6+","altim":1017,"clouds":[{"cover":"BKN","base":2300}],"obsTime":1781204400},"SBST":{"icaoId":"SBST","flightCategory":"VFR","rawOb":"METAR SBST 111900Z 20002KT 9000 FEW025 24/17 Q1014","temp":24,"dewp":17,"wdir":200,"wspd":2,"visib":5.59,"altim":1014,"clouds":[{"cover":"FEW","base":2500}],"obsTime":1781204400},"SBTA":{"icaoId":"SBTA","flightCategory":"VFR","rawOb":"METAR SBTA 111900Z VRB02KT 9999 FEW020 BKN035 BKN040 21/16 Q1017","temp":21,"dewp":16,"wdir":"VRB","wspd":2,"visib":"6+","altim":1017,"clouds":[{"cover":"FEW","base":2000},{"cover":"BKN","base":3500},{"cover":"BKN","base":4000}],"obsTime":1781204400},"SBAN":{"icaoId":"SBAN","flightCategory":"VFR","rawOb":"METAR SBAN 111900Z 18007KT 9999 FEW030 BKN070 BKN100 25/14 Q1020","temp":25,"dewp":14,"wdir":180,"wspd":7,"visib":"6+","altim":1020,"clouds":[{"cover":"FEW","base":3000},{"cover":"BKN","base":7000},{"cover":"BKN","base":10000}],"obsTime":1781204400}}}