{"updated":1781647061,"count":84,"data":{"SBBV":{"icaoId":"SBBV","flightCategory":"VFR","rawOb":"METAR SBBV 162000Z 10016KT 9999 RA SCT030 FEW035TCU SCT100 27/25 Q1011","temp":27,"dewp":25,"wdir":100,"wspd":16,"visib":"6+","altim":1011,"clouds":[{"cover":"SCT","base":3000},{"cover":"FEW","base":3500},{"cover":"SCT","base":10000}],"obsTime":1781640000},"SBAT":{"icaoId":"SBAT","flightCategory":"VFR","rawOb":"METAR SBAT 162000Z 18002KT 9999 SCT040 35/20 Q1012","temp":35,"dewp":20,"wdir":180,"wspd":2,"visib":"6+","altim":1012,"clouds":[{"cover":"SCT","base":4000}],"obsTime":1781640000},"SBBE":{"icaoId":"SBBE","flightCategory":"VFR","rawOb":"METAR SBBE 162000Z 34008KT 9999 VCSH BKN035 FEW040TCU 30/25 Q1010","temp":30,"dewp":25,"wdir":340,"wspd":8,"visib":"6+","altim":1010,"clouds":[{"cover":"BKN","base":3500},{"cover":"FEW","base":4000}],"obsTime":1781640000},"SBBR":{"icaoId":"SBBR","flightCategory":"VFR","rawOb":"METAR SBBR 162000Z 21007KT 9999 FEW045 FEW050TCU SCT090 26/15 Q1020","temp":26,"dewp":15,"wdir":210,"wspd":7,"visib":"6+","altim":1020,"clouds":[{"cover":"FEW","base":4500},{"cover":"FEW","base":5000},{"cover":"SCT","base":9000}],"obsTime":1781640000},"SBCZ":{"icaoId":"SBCZ","flightCategory":"VFR","rawOb":"METAR SBCZ 162000Z 28004KT 9999 TS FEW026 FEW030CB BKN100 25/24 Q1013","temp":25,"dewp":24,"wdir":280,"wspd":4,"visib":"6+","altim":1013,"clouds":[{"cover":"FEW","base":2600},{"cover":"FEW","base":3000},{"cover":"BKN","base":10000}],"obsTime":1781640000},"SBCB":{"icaoId":"SBCB","flightCategory":"LIFR","rawOb":"METAR SBCB 162000Z 18011KT 0500 RA FG OVC004 19/18 Q1018","temp":19,"dewp":18,"wdir":180,"wspd":11,"visib":0.31,"altim":1018,"clouds":[{"cover":"OVC","base":400}],"obsTime":1781640000},"SBCF":{"icaoId":"SBCF","flightCategory":"VFR","rawOb":"METAR SBCF 162000Z 23005KT 9999 FEW045 24/15 Q1018","temp":24,"dewp":15,"wdir":230,"wspd":5,"visib":"6+","altim":1018,"clouds":[{"cover":"FEW","base":4500}],"obsTime":1781640000},"SBCG":{"icaoId":"SBCG","flightCategory":"MVFR","rawOb":"METAR SBCG 162000Z VRB01KT 9999 BKN030 BKN080 22/17 Q1019","temp":22,"dewp":17,"wdir":"VRB","wspd":1,"visib":"6+","altim":1019,"clouds":[{"cover":"BKN","base":3000},{"cover":"BKN","base":8000}],"obsTime":1781640000},"SBCP":{"icaoId":"SBCP","flightCategory":"MVFR","rawOb":"METAR SBCP 162000Z 23014KT 5000 BR SCT006 SCT010 OVC070 21/20 Q1016","temp":21,"dewp":20,"wdir":230,"wspd":14,"visib":3.11,"altim":1016,"clouds":[{"cover":"SCT","base":600},{"cover":"SCT","base":1000},{"cover":"OVC","base":7000}],"obsTime":1781640000},"SBCR":{"icaoId":"SBCR","flightCategory":"VFR","rawOb":"METAR SBCR 162000Z 21005KT 180V260 9999 FEW020 BKN065 21/16 Q1017","temp":21,"dewp":16,"wdir":210,"wspd":5,"visib":"6+","altim":1017,"clouds":[{"cover":"FEW","base":2000},{"cover":"BKN","base":6500}],"obsTime":1781640000},"SBCT":{"icaoId":"SBCT","flightCategory":"VFR","rawOb":"METAR SBCT 162000Z 28006KT CAVOK 17/08 Q1020","temp":17,"dewp":8,"wdir":280,"wspd":6,"visib":"6+","altim":1020,"clouds":[],"obsTime":1781640000},"SBEG":{"icaoId":"SBEG","flightCategory":"VFR","rawOb":"METAR SBEG 162000Z 33002KT 9999 SCT030 29/25 Q1010","temp":29,"dewp":25,"wdir":330,"wspd":2,"visib":"6+","altim":1010,"clouds":[{"cover":"SCT","base":3000}],"obsTime":1781640000},"SBFI":{"icaoId":"SBFI","flightCategory":"VFR","rawOb":"METAR SBFI 162000Z 23004KT CAVOK 19/12 Q1019","temp":19,"dewp":12,"wdir":230,"wspd":4,"visib":"6+","altim":1019,"clouds":[],"obsTime":1781640000},"SBFL":{"icaoId":"SBFL","flightCategory":"VFR","rawOb":"METAR SBFL 162000Z 11008KT 9999 FEW030 16/11 Q1019","temp":16,"dewp":11,"wdir":110,"wspd":8,"visib":"6+","altim":1019,"clouds":[{"cover":"FEW","base":3000}],"obsTime":1781640000},"SBFZ":{"icaoId":"SBFZ","flightCategory":"VFR","rawOb":"METAR SBFZ 162000Z 09011KT 9999 FEW025 28/22 Q1011","temp":28,"dewp":22,"wdir":90,"wspd":11,"visib":"6+","altim":1011,"clouds":[{"cover":"FEW","base":2500}],"obsTime":1781640000},"SBGL":{"icaoId":"SBGL","flightCategory":"MVFR","rawOb":"METAR SBGL 162000Z 14006KT 8000 -RA FEW008 BKN012 OVC030 20/18 Q1018","temp":20,"dewp":18,"wdir":140,"wspd":6,"visib":4.97,"altim":1018,"clouds":[{"cover":"FEW","base":800},{"cover":"BKN","base":1200},{"cover":"OVC","base":3000}],"obsTime":1781640000},"SBGO":{"icaoId":"SBGO","flightCategory":"VFR","rawOb":"METAR SBGO 162000Z 15006KT 9999 FEW043 FEW046TCU 28/18 Q1018","temp":28,"dewp":18,"wdir":150,"wspd":6,"visib":"6+","altim":1018,"clouds":[{"cover":"FEW","base":4300},{"cover":"FEW","base":4600}],"obsTime":1781640000},"SBGR":{"icaoId":"SBGR","flightCategory":"MVFR","rawOb":"METAR SBGR 162000Z 15005KT 9999 BKN030 17/14 Q1020","temp":17,"dewp":14,"wdir":150,"wspd":5,"visib":"6+","altim":1020,"clouds":[{"cover":"BKN","base":3000}],"obsTime":1781640000},"SBHT":{"icaoId":"SBHT","flightCategory":"VFR","rawOb":"METAR SBHT 162000Z 16002KT 9999 FEW030 34/24 Q1010","temp":34,"dewp":24,"wdir":160,"wspd":2,"visib":"6+","altim":1010,"clouds":[{"cover":"FEW","base":3000}],"obsTime":1781640000},"SBIL":{"icaoId":"SBIL","flightCategory":"VFR","rawOb":"METAR SBIL 162000Z 06009KT 9999 FEW020 28/24 Q1014","temp":28,"dewp":24,"wdir":60,"wspd":9,"visib":"6+","altim":1014,"clouds":[{"cover":"FEW","base":2000}],"obsTime":1781640000},"SBJU":{"icaoId":"SBJU","flightCategory":"VFR","rawOb":"METAR SBJU 162000Z 05005KT 9999 SCT022 30/20 Q1013","temp":30,"dewp":20,"wdir":50,"wspd":5,"visib":"6+","altim":1013,"clouds":[{"cover":"SCT","base":2200}],"obsTime":1781640000},"SBKP":{"icaoId":"SBKP","flightCategory":"VFR","rawOb":"METAR SBKP 162000Z 26004KT 9999 FEW040 20/14 Q1019","temp":20,"dewp":14,"wdir":260,"wspd":4,"visib":"6+","altim":1019,"clouds":[{"cover":"FEW","base":4000}],"obsTime":1781640000},"SBLO":{"icaoId":"SBLO","flightCategory":"VFR","rawOb":"METAR SBLO 162000Z 23003KT 180V310 CAVOK 21/14 Q1019","temp":21,"dewp":14,"wdir":230,"wspd":3,"visib":"6+","altim":1019,"clouds":[],"obsTime":1781640000},"SBMA":{"icaoId":"SBMA","flightCategory":"VFR","rawOb":"METAR SBMA 162000Z 00000KT 9999 VCSH SCT030 34/23 Q1009","temp":34,"dewp":23,"wdir":0,"wspd":0,"visib":"6+","altim":1009,"clouds":[{"cover":"SCT","base":3000}],"obsTime":1781640000},"SBME":{"icaoId":"SBME","flightCategory":"MVFR","rawOb":"METAR SBME 162000Z 20011KT 5000 BR BKN010 OVC070 20/19 Q1018 RERA","temp":20,"dewp":19,"wdir":200,"wspd":11,"visib":3.11,"altim":1018,"clouds":[{"cover":"BKN","base":1000},{"cover":"OVC","base":7000}],"obsTime":1781640000},"SBMG":{"icaoId":"SBMG","flightCategory":"VFR","rawOb":"METAR SBMG 162000Z 19006KT 9999 FEW023 20/16 Q1019","temp":20,"dewp":16,"wdir":190,"wspd":6,"visib":"6+","altim":1019,"clouds":[{"cover":"FEW","base":2300}],"obsTime":1781640000},"SBMK":{"icaoId":"SBMK","flightCategory":"VFR","rawOb":"METAR SBMK 162000Z 21007KT CAVOK 29/15 Q1016","temp":29,"dewp":15,"wdir":210,"wspd":7,"visib":"6+","altim":1016,"clouds":[],"obsTime":1781640000},"SBMO":{"icaoId":"SBMO","flightCategory":"VFR","rawOb":"METAR SBMO 162000Z 09007KT 9999 FEW030 26/23 Q1013","temp":26,"dewp":23,"wdir":90,"wspd":7,"visib":"6+","altim":1013,"clouds":[{"cover":"FEW","base":3000}],"obsTime":1781640000},"SBMQ":{"icaoId":"SBMQ","flightCategory":"VFR","rawOb":"METAR SBMQ 162000Z 08006KT 9999 VCSH SCT030 FEW035TCU BKN085 28/24 Q1011","temp":28,"dewp":24,"wdir":80,"wspd":6,"visib":"6+","altim":1011,"clouds":[{"cover":"SCT","base":3000},{"cover":"FEW","base":3500},{"cover":"BKN","base":8500}],"obsTime":1781640000},"SBNT":{"icaoId":"SBNT","flightCategory":"VFR","rawOb":"METAR SBNT 162000Z 13011KT 9999 SCT020 SCT050 27/23 Q1012","temp":27,"dewp":23,"wdir":130,"wspd":11,"visib":"6+","altim":1012,"clouds":[{"cover":"SCT","base":2000},{"cover":"SCT","base":5000}],"obsTime":1781640000},"SBPA":{"icaoId":"SBPA","flightCategory":"VFR","rawOb":"METAR SBPA 162000Z 26008KT CAVOK 14/07 Q1019","temp":14,"dewp":7,"wdir":260,"wspd":8,"visib":"6+","altim":1019,"clouds":[],"obsTime":1781640000},"SBPJ":{"icaoId":"SBPJ","flightCategory":"VFR","rawOb":"METAR SBPJ 162000Z 31003KT 9999 FEW030 35/20 Q1011","temp":35,"dewp":20,"wdir":310,"wspd":3,"visib":"6+","altim":1011,"clouds":[{"cover":"FEW","base":3000}],"obsTime":1781640000},"SBPV":{"icaoId":"SBPV","flightCategory":"VFR","rawOb":"METAR SBPV 162000Z 23002KT 9999 SCT030 FEW035TCU 29/24 Q1011","temp":29,"dewp":24,"wdir":230,"wspd":2,"visib":"6+","altim":1011,"clouds":[{"cover":"SCT","base":3000},{"cover":"FEW","base":3500}],"obsTime":1781640000},"SBRB":{"icaoId":"SBRB","flightCategory":"MVFR","rawOb":"METAR SBRB 162000Z 12003KT 9999 SCT010 BKN015 25/22 Q1014","temp":25,"dewp":22,"wdir":120,"wspd":3,"visib":"6+","altim":1014,"clouds":[{"cover":"SCT","base":1000},{"cover":"BKN","base":1500}],"obsTime":1781640000},"SBRF":{"icaoId":"SBRF","flightCategory":"VFR","rawOb":"METAR SBRF 162000Z 13008KT 9999 FEW025 27/23 Q1013","temp":27,"dewp":23,"wdir":130,"wspd":8,"visib":"6+","altim":1013,"clouds":[{"cover":"FEW","base":2500}],"obsTime":1781640000},"SBSG":{"icaoId":"SBSG","flightCategory":"VFR","rawOb":"METAR SBSG 162000Z 13006KT 100V160 9999 FEW030 SCT065 27/23 Q1013","temp":27,"dewp":23,"wdir":130,"wspd":6,"visib":"6+","altim":1013,"clouds":[{"cover":"FEW","base":3000},{"cover":"SCT","base":6500}],"obsTime":1781640000},"SBSL":{"icaoId":"SBSL","flightCategory":"VFR","rawOb":"METAR SBSL 162000Z 03015KT 9999 SCT030 29/24 Q1010","temp":29,"dewp":24,"wdir":30,"wspd":15,"visib":"6+","altim":1010,"clouds":[{"cover":"SCT","base":3000}],"obsTime":1781640000},"SBSN":{"icaoId":"SBSN","flightCategory":"VFR","rawOb":"METAR SBSN 162000Z 06006KT 9999 FEW025TCU 32/25 Q1010","temp":32,"dewp":25,"wdir":60,"wspd":6,"visib":"6+","altim":1010,"clouds":[{"cover":"FEW","base":2500}],"obsTime":1781640000},"SBSP":{"icaoId":"SBSP","flightCategory":"VFR","rawOb":"METAR SBSP 162000Z 15009KT 9999 SCT017 16/14 Q1021","temp":16,"dewp":14,"wdir":150,"wspd":9,"visib":"6+","altim":1021,"clouds":[{"cover":"SCT","base":1700}],"obsTime":1781640000},"SBSV":{"icaoId":"SBSV","flightCategory":"VFR","rawOb":"METAR SBSV 162000Z 08007KT 9999 SCT027 BKN070 26/23 Q1013","temp":26,"dewp":23,"wdir":80,"wspd":7,"visib":"6+","altim":1013,"clouds":[{"cover":"SCT","base":2700},{"cover":"BKN","base":7000}],"obsTime":1781640000},"SBTE":{"icaoId":"SBTE","flightCategory":"VFR","rawOb":"METAR SBTE 162000Z 15005KT 9999 FEW030 34/20 Q1009","temp":34,"dewp":20,"wdir":150,"wspd":5,"visib":"6+","altim":1009,"clouds":[{"cover":"FEW","base":3000}],"obsTime":1781640000},"SBUL":{"icaoId":"SBUL","flightCategory":"VFR","rawOb":"METAR SBUL 162000Z 26009KT 220V290 9999 FEW035 22/15 Q1020","temp":22,"dewp":15,"wdir":260,"wspd":9,"visib":"6+","altim":1020,"clouds":[{"cover":"FEW","base":3500}],"obsTime":1781640000},"SBUR":{"icaoId":"SBUR","flightCategory":"VFR","rawOb":"METAR SBUR 162000Z 20008KT 9999 FEW033 22/15 Q1020","temp":22,"dewp":15,"wdir":200,"wspd":8,"visib":"6+","altim":1020,"clouds":[{"cover":"FEW","base":3300}],"obsTime":1781640000},"SBVT":{"icaoId":"SBVT","flightCategory":"VFR","rawOb":"METAR SBVT 162000Z 18009KT 9999 SCT015 BKN040 24/21 Q1014","temp":24,"dewp":21,"wdir":180,"wspd":9,"visib":"6+","altim":1014,"clouds":[{"cover":"SCT","base":1500},{"cover":"BKN","base":4000}],"obsTime":1781640000},"SBPB":{"icaoId":"SBPB","flightCategory":"VFR","rawOb":"METAR SBPB 162000Z 04010KT 9999 FEW020 30/25 Q1010","temp":30,"dewp":25,"wdir":40,"wspd":10,"visib":"6+","altim":1010,"clouds":[{"cover":"FEW","base":2000}],"obsTime":1781640000},"SBCJ":{"icaoId":"SBCJ","flightCategory":"VFR","rawOb":"METAR SBCJ 162000Z 15005KT 9999 FEW017 31/18 Q1015","temp":31,"dewp":18,"wdir":150,"wspd":5,"visib":"6+","altim":1015,"clouds":[{"cover":"FEW","base":1700}],"obsTime":1781640000},"SBPL":{"icaoId":"SBPL","flightCategory":"VFR","rawOb":"METAR SBPL 162000Z 09009KT 9999 FEW030 33/16 Q1012","temp":33,"dewp":16,"wdir":90,"wspd":9,"visib":"6+","altim":1012,"clouds":[{"cover":"FEW","base":3000}],"obsTime":1781640000},"SBBU":{"icaoId":"SBBU","flightCategory":"VFR","rawOb":"METAR SBBU 162000Z 18002KT 9999 FEW027 21/15 Q1020","temp":21,"dewp":15,"wdir":180,"wspd":2,"visib":"6+","altim":1020,"clouds":[{"cover":"FEW","base":2700}],"obsTime":1781640000},"SBPP":{"icaoId":"SBPP","flightCategory":"VFR","rawOb":"METAR SBPP 162000Z 00000KT 9999 SCT015 BKN070 18/11 Q1020","temp":18,"dewp":11,"wdir":0,"wspd":0,"visib":"6+","altim":1020,"clouds":[{"cover":"SCT","base":1500},{"cover":"BKN","base":7000}],"obsTime":1781640000},"SBPS":{"icaoId":"SBPS","flightCategory":"VFR","rawOb":"METAR SBPS 162000Z 04008KT 9999 FEW025 26/23 Q1013","temp":26,"dewp":23,"wdir":40,"wspd":8,"visib":"6+","altim":1013,"clouds":[{"cover":"FEW","base":2500}],"obsTime":1781640000},"SBCO":{"icaoId":"SBCO","flightCategory":"VFR","rawOb":"METAR SBCO 162000Z 28006KT CAVOK 14/08 Q1020","temp":14,"dewp":8,"wdir":280,"wspd":6,"visib":"6+","altim":1020,"clouds":[],"obsTime":1781640000},"SBAR":{"icaoId":"SBAR","flightCategory":"VFR","rawOb":"METAR SBAR 162000Z 09007KT 9999 FEW023 27/23 Q1013","temp":27,"dewp":23,"wdir":90,"wspd":7,"visib":"6+","altim":1013,"clouds":[{"cover":"FEW","base":2300}],"obsTime":1781640000},"SBSC":{"icaoId":"SBSC","flightCategory":"MVFR","rawOb":"METAR SBSC 162000Z 18003KT 5000 BR SCT005 BKN010 OVC050 19/18 Q1018","temp":19,"dewp":18,"wdir":180,"wspd":3,"visib":3.11,"altim":1018,"clouds":[{"cover":"SCT","base":500},{"cover":"BKN","base":1000},{"cover":"OVC","base":5000}],"obsTime":1781640000},"SBSJ":{"icaoId":"SBSJ","flightCategory":"VFR","rawOb":"METAR SBSJ 162000Z 21005KT 9999 FEW025 19/14 Q1019","temp":19,"dewp":14,"wdir":210,"wspd":5,"visib":"6+","altim":1019,"clouds":[{"cover":"FEW","base":2500}],"obsTime":1781640000},"SBDN":{"icaoId":"SBDN","flightCategory":"VFR","rawOb":"METAR SBDN 162000Z 17005KT 9999 FEW035 20/15 Q1019","temp":20,"dewp":15,"wdir":170,"wspd":5,"visib":"6+","altim":1019,"clouds":[{"cover":"FEW","base":3500}],"obsTime":1781640000},"SBES":{"icaoId":"SBES","flightCategory":"IFR","rawOb":"METAR SBES 162000Z 19007KT 2000 -DZ BR SCT005 BKN010 OVC020 18/// Q1018 REDZ","temp":null,"dewp":null,"wdir":190,"wspd":7,"visib":1.24,"altim":1018,"clouds":[{"cover":"SCT","base":500},{"cover":"BKN","base":1000},{"cover":"OVC","base":2000}],"obsTime":1781640000},"SBSM":{"icaoId":"SBSM","flightCategory":"VFR","rawOb":"METAR SBSM 162000Z VRB02KT CAVOK 15/09 Q1020","temp":15,"dewp":9,"wdir":"VRB","wspd":2,"visib":"6+","altim":1020,"clouds":[],"obsTime":1781640000},"SBCA":{"icaoId":"SBCA","flightCategory":"VFR","rawOb":"METAR SBCA 162000Z 18005KT CAVOK 17/07 Q1020","temp":17,"dewp":7,"wdir":180,"wspd":5,"visib":"6+","altim":1020,"clouds":[],"obsTime":1781640000},"SBSR":{"icaoId":"SBSR","flightCategory":"VFR","rawOb":"METAR SBSR 162000Z 17005KT 9999 SCT030 BKN080 19/15 Q1019","temp":19,"dewp":15,"wdir":170,"wspd":5,"visib":"6+","altim":1019,"clouds":[{"cover":"SCT","base":3000},{"cover":"BKN","base":8000}],"obsTime":1781640000},"SBTF":{"icaoId":"SBTF","flightCategory":"VFR","rawOb":"METAR SBTF 162000Z 36004KT 9999 FEW020 FEW025TCU 33/25 Q1010","temp":33,"dewp":25,"wdir":360,"wspd":4,"visib":"6+","altim":1010,"clouds":[{"cover":"FEW","base":2000},{"cover":"FEW","base":2500}],"obsTime":1781640000},"SBBH":{"icaoId":"SBBH","flightCategory":"VFR","rawOb":"METAR SBBH 162000Z 27006KT 9999 FEW048 24/14 Q1018","temp":24,"dewp":14,"wdir":270,"wspd":6,"visib":"6+","altim":1018,"clouds":[{"cover":"FEW","base":4800}],"obsTime":1781640000},"SBIP":{"icaoId":"SBIP","flightCategory":"VFR","rawOb":"METAR SBIP 162000Z AUTO 21004KT CAVOK 25/21 Q1014","temp":25,"dewp":21,"wdir":210,"wspd":4,"visib":"6+","altim":1014,"clouds":[],"obsTime":1781640000},"SBTT":{"icaoId":"SBTT","flightCategory":"VFR","rawOb":"METAR SBTT 162000Z 34003KT 9999 FEW003 31/23 Q1011","temp":31,"dewp":23,"wdir":340,"wspd":3,"visib":"6+","altim":1011,"clouds":[{"cover":"FEW","base":300}],"obsTime":1781640000},"SBTU":{"icaoId":"SBTU","flightCategory":"VFR","rawOb":"METAR SBTU 162100Z AUTO 33004KT 9999 // FEW070/// ///// Q1012","temp":null,"dewp":null,"wdir":330,"wspd":4,"visib":"6+","altim":1012,"clouds":[{"cover":"FEW","base":7000}],"obsTime":1781643600},"SBUY":{"icaoId":"SBUY","flightCategory":"LIFR","rawOb":"METAR SBUY 162000Z 08008KT 1000 +TSRA BKN020 FEW025CB 24/24 Q1010","temp":24,"dewp":24,"wdir":80,"wspd":8,"visib":0.62,"altim":1010,"clouds":[{"cover":"BKN","base":2000},{"cover":"FEW","base":2500}],"obsTime":1781640000},"SBCC":{"icaoId":"SBCC","flightCategory":"VFR","rawOb":"METAR SBCC 162000Z 06009KT 020V090 9999 SCT040 32/18 Q1013","temp":32,"dewp":18,"wdir":60,"wspd":9,"visib":"6+","altim":1013,"clouds":[{"cover":"SCT","base":4000}],"obsTime":1781640000},"SBKG":{"icaoId":"SBKG","flightCategory":"VFR","rawOb":"METAR SBKG 162000Z 10006KT CAVOK 25/21 Q1015","temp":25,"dewp":21,"wdir":100,"wspd":6,"visib":"6+","altim":1015,"clouds":[],"obsTime":1781640000},"SBVH":{"icaoId":"SBVH","flightCategory":"VFR","rawOb":"METAR SBVH 162000Z 23009KT 9999 SCT014 24/20 Q1017","temp":24,"dewp":20,"wdir":230,"wspd":9,"visib":"6+","altim":1017,"clouds":[{"cover":"SCT","base":1400}],"obsTime":1781640000},"SBOI":{"icaoId":"SBOI","flightCategory":"VFR","rawOb":"METAR SBOI 162000Z AUTO 01008KT 9999 FEW030 25/24 Q1013","temp":25,"dewp":24,"wdir":10,"wspd":8,"visib":"6+","altim":1013,"clouds":[{"cover":"FEW","base":3000}],"obsTime":1781640000},"SBAX":{"icaoId":"SBAX","flightCategory":"VFR","rawOb":"METAR SBAX 162000Z 24006KT CAVOK 22/13 Q1020","temp":22,"dewp":13,"wdir":240,"wspd":6,"visib":"6+","altim":1020,"clouds":[],"obsTime":1781640000},"SBJP":{"icaoId":"SBJP","flightCategory":"VFR","rawOb":"METAR SBJP 162000Z 11008KT 9999 FEW030 26/23 Q1013","temp":26,"dewp":23,"wdir":110,"wspd":8,"visib":"6+","altim":1013,"clouds":[{"cover":"FEW","base":3000}],"obsTime":1781640000},"SBAN":{"icaoId":"SBAN","flightCategory":"VFR","rawOb":"METAR SBAN 162000Z 15002KT 9999 VCSH SCT040 FEW045TCU 25/17 Q1021","temp":25,"dewp":17,"wdir":150,"wspd":2,"visib":"6+","altim":1021,"clouds":[{"cover":"SCT","base":4000},{"cover":"FEW","base":4500}],"obsTime":1781640000},"SBJV":{"icaoId":"SBJV","flightCategory":"MVFR","rawOb":"METAR SBJV 162000Z 33002KT 9999 BKN020 18/15 Q1019","temp":18,"dewp":15,"wdir":330,"wspd":2,"visib":"6+","altim":1019,"clouds":[{"cover":"BKN","base":2000}],"obsTime":1781640000},"SBNM":{"icaoId":"SBNM","flightCategory":"VFR","rawOb":"METAR SBNM 162000Z AUTO 16004KT CAVOK 15/09 Q1020","temp":15,"dewp":9,"wdir":160,"wspd":4,"visib":"6+","altim":1020,"clouds":[],"obsTime":1781640000},"SBPF":{"icaoId":"SBPF","flightCategory":"VFR","rawOb":"METAR SBPF 162000Z 05004KT CAVOK 12/06 Q1021","temp":12,"dewp":6,"wdir":50,"wspd":4,"visib":"6+","altim":1021,"clouds":[],"obsTime":1781640000},"SBIH":{"icaoId":"SBIH","flightCategory":"VFR","rawOb":"METAR SBIH 162000Z 05004KT 9999 FEW020 34/24 Q1009","temp":34,"dewp":24,"wdir":50,"wspd":4,"visib":"6+","altim":1009,"clouds":[{"cover":"FEW","base":2000}],"obsTime":1781640000},"SBLE":{"icaoId":"SBLE","flightCategory":"VFR","rawOb":"METAR SBLE 162000Z AUTO VRB02KT CAVOK 28/19 Q1015","temp":28,"dewp":19,"wdir":"VRB","wspd":2,"visib":"6+","altim":1015,"clouds":[],"obsTime":1781640000},"SBAF":{"icaoId":"SBAF","flightCategory":"IFR","rawOb":" SBAF 162000Z 19007KT 2000 -DZ BR BKN007 OVC034 19/19 Q1018","temp":19,"dewp":19,"wdir":190,"wspd":7,"visib":1.24,"altim":1018,"clouds":[{"cover":"BKN","base":700},{"cover":"OVC","base":3400}],"obsTime":1781640000},"SBGW":{"icaoId":"SBGW","flightCategory":"VFR","rawOb":"METAR SBGW 162000Z 32002KT 9999 FEW020 SCT040 19/13 Q1018","temp":19,"dewp":13,"wdir":320,"wspd":2,"visib":"6+","altim":1018,"clouds":[{"cover":"FEW","base":2000},{"cover":"SCT","base":4000}],"obsTime":1781640000},"SBJR":{"icaoId":"SBJR","flightCategory":"IFR","rawOb":"METAR SBJR 162000Z 17004KT 2000 -RA BR BKN005 OVC030 19/18 Q1018","temp":19,"dewp":18,"wdir":170,"wspd":4,"visib":1.24,"altim":1018,"clouds":[{"cover":"BKN","base":500},{"cover":"OVC","base":3000}],"obsTime":1781640000},"SBLS":{"icaoId":"SBLS","flightCategory":"VFR","rawOb":"METAR SBLS 162000Z 27005KT 9999 FEW045 25/15 Q1018","temp":25,"dewp":15,"wdir":270,"wspd":5,"visib":"6+","altim":1018,"clouds":[{"cover":"FEW","base":4500}],"obsTime":1781640000},"SBMT":{"icaoId":"SBMT","flightCategory":"VFR","rawOb":"METAR SBMT 162000Z 17005KT 9999 SCT020 17/14 Q1020","temp":17,"dewp":14,"wdir":170,"wspd":5,"visib":"6+","altim":1020,"clouds":[{"cover":"SCT","base":2000}],"obsTime":1781640000},"SBST":{"icaoId":"SBST","flightCategory":"MVFR","rawOb":"METAR SBST 162000Z 05003KT 7000 FEW005 SCT014 OVC019 18/17 Q1019","temp":18,"dewp":17,"wdir":50,"wspd":3,"visib":4.35,"altim":1019,"clouds":[{"cover":"FEW","base":500},{"cover":"SCT","base":1400},{"cover":"OVC","base":1900}],"obsTime":1781640000},"SBTA":{"icaoId":"SBTA","flightCategory":"VFR","rawOb":"METAR SBTA 162000Z 25005KT 9999 SCT034 21/15 Q1018","temp":21,"dewp":15,"wdir":250,"wspd":5,"visib":"6+","altim":1018,"clouds":[{"cover":"SCT","base":3400}],"obsTime":1781640000}}}