{"updated":1777599952,"count":63,"data":{"SBRF":{"icaoId":"SBRF","flightCategory":"MVFR","rawOb":"METAR SBRF 010000Z 13011KT 9999 BKN020 FEW025TCU BKN070 28/24 Q1012","temp":28,"dewp":24,"wdir":130,"wspd":11,"visib":"6+","altim":1012,"clouds":[{"cover":"BKN","base":2000},{"cover":"FEW","base":2500},{"cover":"BKN","base":7000}],"obsTime":1777593600},"SBBE":{"icaoId":"SBBE","flightCategory":"VFR","rawOb":"METAR SBBE 010000Z 12002KT CAVOK 24/24 Q1010","temp":24,"dewp":24,"wdir":120,"wspd":2,"visib":"6+","altim":1010,"clouds":[],"obsTime":1777593600},"SBBR":{"icaoId":"SBBR","flightCategory":"VFR","rawOb":"METAR SBBR 010000Z 13007KT CAVOK 22/15 Q1018","temp":22,"dewp":15,"wdir":130,"wspd":7,"visib":"6+","altim":1018,"clouds":[],"obsTime":1777593600},"SBBV":{"icaoId":"SBBV","flightCategory":"VFR","rawOb":"METAR SBBV 010000Z 10003KT 9999 FEW030 FEW045TCU 26/23 Q1009","temp":26,"dewp":23,"wdir":100,"wspd":3,"visib":"6+","altim":1009,"clouds":[{"cover":"FEW","base":3000},{"cover":"FEW","base":4500}],"obsTime":1777593600},"SBCF":{"icaoId":"SBCF","flightCategory":"VFR","rawOb":"METAR SBCF 010000Z 09005KT CAVOK 23/16 Q1020","temp":23,"dewp":16,"wdir":90,"wspd":5,"visib":"6+","altim":1020,"clouds":[],"obsTime":1777593600},"SBCG":{"icaoId":"SBCG","flightCategory":"VFR","rawOb":"METAR SBCG 010000Z 10005KT CAVOK 26/21 Q1014","temp":26,"dewp":21,"wdir":100,"wspd":5,"visib":"6+","altim":1014,"clouds":[],"obsTime":1777593600},"SBCT":{"icaoId":"SBCT","flightCategory":"IFR","rawOb":"METAR SBCT 010000Z 09004KT 9999 BKN005 15/15 Q1022","temp":15,"dewp":15,"wdir":90,"wspd":4,"visib":"6+","altim":1022,"clouds":[{"cover":"BKN","base":500}],"obsTime":1777593600},"SBCZ":{"icaoId":"SBCZ","flightCategory":"VFR","rawOb":"METAR SBCZ 010000Z 30002KT 9999 FEW022 BKN080 25/25 Q1009","temp":25,"dewp":25,"wdir":300,"wspd":2,"visib":"6+","altim":1009,"clouds":[{"cover":"FEW","base":2200},{"cover":"BKN","base":8000}],"obsTime":1777593600},"SBEG":{"icaoId":"SBEG","flightCategory":"VFR","rawOb":"METAR SBEG 010000Z VRB02KT 9999 FEW025 FEW030TCU 26/25 Q1009","temp":26,"dewp":25,"wdir":"VRB","wspd":2,"visib":"6+","altim":1009,"clouds":[{"cover":"FEW","base":2500},{"cover":"FEW","base":3000}],"obsTime":1777593600},"SBFI":{"icaoId":"SBFI","flightCategory":"VFR","rawOb":"METAR SBFI 010000Z 09002KT CAVOK 22/22 Q1014","temp":22,"dewp":22,"wdir":90,"wspd":2,"visib":"6+","altim":1014,"clouds":[],"obsTime":1777593600},"SBFL":{"icaoId":"SBFL","flightCategory":"VFR","rawOb":"METAR SBFL 010000Z 00000KT CAVOK 20/18 Q1019","temp":20,"dewp":18,"wdir":0,"wspd":0,"visib":"6+","altim":1019,"clouds":[],"obsTime":1777593600},"SBFZ":{"icaoId":"SBFZ","flightCategory":"VFR","rawOb":"METAR SBFZ 010000Z 10006KT 070V130 9999 FEW018 BKN070 28/25 Q1011","temp":28,"dewp":25,"wdir":100,"wspd":6,"visib":"6+","altim":1011,"clouds":[{"cover":"FEW","base":1800},{"cover":"BKN","base":7000}],"obsTime":1777593600},"SBGL":{"icaoId":"SBGL","flightCategory":"MVFR","rawOb":"METAR SBGL 010000Z 24004KT 200V270 9999 FEW015 BKN023 BKN040 26/22 Q1017","temp":26,"dewp":22,"wdir":240,"wspd":4,"visib":"6+","altim":1017,"clouds":[{"cover":"FEW","base":1500},{"cover":"BKN","base":2300},{"cover":"BKN","base":4000}],"obsTime":1777593600},"SBGO":{"icaoId":"SBGO","flightCategory":"VFR","rawOb":"METAR SBGO 010000Z 15007KT CAVOK 23/16 Q1017","temp":23,"dewp":16,"wdir":150,"wspd":7,"visib":"6+","altim":1017,"clouds":[],"obsTime":1777593600},"SBGR":{"icaoId":"SBGR","flightCategory":"MVFR","rawOb":"METAR SBGR 010000Z 14003KT 9999 SCT015 OVC026 20/17 Q1022","temp":20,"dewp":17,"wdir":140,"wspd":3,"visib":"6+","altim":1022,"clouds":[{"cover":"SCT","base":1500},{"cover":"OVC","base":2600}],"obsTime":1777593600},"SBIL":{"icaoId":"SBIL","flightCategory":"VFR","rawOb":"METAR SBIL 010000Z 15009KT 9999 SCT025 BKN074 26/24 Q1015","temp":26,"dewp":24,"wdir":150,"wspd":9,"visib":"6+","altim":1015,"clouds":[{"cover":"SCT","base":2500},{"cover":"BKN","base":7400}],"obsTime":1777593600},"SBJU":{"icaoId":"SBJU","flightCategory":"VFR","rawOb":"METAR SBJU 010000Z 00000KT CAVOK 26/21 Q1013","temp":26,"dewp":21,"wdir":0,"wspd":0,"visib":"6+","altim":1013,"clouds":[],"obsTime":1777593600},"SBKP":{"icaoId":"SBKP","flightCategory":"VFR","rawOb":"METAR SBKP 010000Z 12013KT CAVOK 21/18 Q1019","temp":21,"dewp":18,"wdir":120,"wspd":13,"visib":"6+","altim":1019,"clouds":[],"obsTime":1777593600},"SBLO":{"icaoId":"SBLO","flightCategory":"VFR","rawOb":"METAR SBLO 010000Z 14005KT CAVOK 22/20 Q1017","temp":22,"dewp":20,"wdir":140,"wspd":5,"visib":"6+","altim":1017,"clouds":[],"obsTime":1777593600},"SBMA":{"icaoId":"SBMA","flightCategory":"VFR","rawOb":"METAR SBMA 010000Z 00000KT CAVOK 26/25 Q1010","temp":26,"dewp":25,"wdir":0,"wspd":0,"visib":"6+","altim":1010,"clouds":[],"obsTime":1777593600},"SBME":{"icaoId":"SBME","flightCategory":"MVFR","rawOb":"METAR SBME 010000Z 18002KT 9999 BKN025 25/23 Q1017","temp":25,"dewp":23,"wdir":180,"wspd":2,"visib":"6+","altim":1017,"clouds":[{"cover":"BKN","base":2500}],"obsTime":1777593600},"SBMG":{"icaoId":"SBMG","flightCategory":"VFR","rawOb":"METAR SBMG 010000Z 14007KT CAVOK 22/21 Q1016","temp":22,"dewp":21,"wdir":140,"wspd":7,"visib":"6+","altim":1016,"clouds":[],"obsTime":1777593600},"SBMK":{"icaoId":"SBMK","flightCategory":"VFR","rawOb":"METAR SBMK 010000Z 11008KT CAVOK 23/16 Q1017","temp":23,"dewp":16,"wdir":110,"wspd":8,"visib":"6+","altim":1017,"clouds":[],"obsTime":1777593600},"SBMO":{"icaoId":"SBMO","flightCategory":"VFR","rawOb":"METAR SBMO 010000Z 10004KT 9999 FEW020 24/23 Q1013","temp":24,"dewp":23,"wdir":100,"wspd":4,"visib":"6+","altim":1013,"clouds":[{"cover":"FEW","base":2000}],"obsTime":1777593600},"SBMQ":{"icaoId":"SBMQ","flightCategory":"VFR","rawOb":"METAR SBMQ 010000Z 07009KT 9999 -RA SCT015 BKN050 OVC100 27/24 Q1011","temp":27,"dewp":24,"wdir":70,"wspd":9,"visib":"6+","altim":1011,"clouds":[{"cover":"SCT","base":1500},{"cover":"BKN","base":5000},{"cover":"OVC","base":10000}],"obsTime":1777593600},"SBNT":{"icaoId":"SBNT","flightCategory":"IFR","rawOb":"METAR SBNT 010000Z 16005KT 6000 -RA BKN007 FEW025TCU OVC030 25/24 Q1012","temp":25,"dewp":24,"wdir":160,"wspd":5,"visib":3.73,"altim":1012,"clouds":[{"cover":"BKN","base":700},{"cover":"FEW","base":2500},{"cover":"OVC","base":3000}],"obsTime":1777593600},"SBPA":{"icaoId":"SBPA","flightCategory":"VFR","rawOb":"METAR SBPA 010000Z 10008KT CAVOK 18/13 Q1017","temp":18,"dewp":13,"wdir":100,"wspd":8,"visib":"6+","altim":1017,"clouds":[],"obsTime":1777593600},"SBPJ":{"icaoId":"SBPJ","flightCategory":"VFR","rawOb":"METAR SBPJ 010000Z 11005KT 9999 FEW040 27/23 Q1011","temp":27,"dewp":23,"wdir":110,"wspd":5,"visib":"6+","altim":1011,"clouds":[{"cover":"FEW","base":4000}],"obsTime":1777593600},"SBPV":{"icaoId":"SBPV","flightCategory":"VFR","rawOb":"METAR SBPV 010000Z 21002KT 9999 FEW030 26/23 Q1008","temp":26,"dewp":23,"wdir":210,"wspd":2,"visib":"6+","altim":1008,"clouds":[{"cover":"FEW","base":3000}],"obsTime":1777593600},"SBRB":{"icaoId":"SBRB","flightCategory":"VFR","rawOb":"METAR SBRB 010000Z 18003KT 9999 FEW025 FEW040TCU 26/24 Q1009","temp":26,"dewp":24,"wdir":180,"wspd":3,"visib":"6+","altim":1009,"clouds":[{"cover":"FEW","base":2500},{"cover":"FEW","base":4000}],"obsTime":1777593600},"SBSG":{"icaoId":"SBSG","flightCategory":"IFR","rawOb":"METAR SBSG 010000Z 17004KT 130V200 9999 BKN005 FEW025TCU 24/24 Q1012","temp":24,"dewp":24,"wdir":170,"wspd":4,"visib":"6+","altim":1012,"clouds":[{"cover":"BKN","base":500},{"cover":"FEW","base":2500}],"obsTime":1777593600},"SBSL":{"icaoId":"SBSL","flightCategory":"VFR","rawOb":"METAR SBSL 010000Z 08003KT 9999 FEW020 SCT100 24/23 Q1010","temp":24,"dewp":23,"wdir":80,"wspd":3,"visib":"6+","altim":1010,"clouds":[{"cover":"FEW","base":2000},{"cover":"SCT","base":10000}],"obsTime":1777593600},"SBSN":{"icaoId":"SBSN","flightCategory":"VFR","rawOb":"METAR SBSN 010000Z 11004KT 070V130 9999 FEW021 FEW025TCU 28/25 Q1009","temp":28,"dewp":25,"wdir":110,"wspd":4,"visib":"6+","altim":1009,"clouds":[{"cover":"FEW","base":2100},{"cover":"FEW","base":2500}],"obsTime":1777593600},"SBSP":{"icaoId":"SBSP","flightCategory":"MVFR","rawOb":"METAR SBSP 010000Z 12008KT 9999 BKN011 19/17 Q1022","temp":19,"dewp":17,"wdir":120,"wspd":8,"visib":"6+","altim":1022,"clouds":[{"cover":"BKN","base":1100}],"obsTime":1777593600},"SBSV":{"icaoId":"SBSV","flightCategory":"MVFR","rawOb":"METAR SBSV 010000Z 13008KT 100V160 9999 BKN023 28/23 Q1013","temp":28,"dewp":23,"wdir":130,"wspd":8,"visib":"6+","altim":1013,"clouds":[{"cover":"BKN","base":2300}],"obsTime":1777593600},"SBTE":{"icaoId":"SBTE","flightCategory":"VFR","rawOb":"METAR SBTE 010000Z 32001KT CAVOK 27/24 Q1010","temp":27,"dewp":24,"wdir":320,"wspd":1,"visib":"6+","altim":1010,"clouds":[],"obsTime":1777593600},"SBUL":{"icaoId":"SBUL","flightCategory":"VFR","rawOb":"METAR SBUL 010000Z 12003KT CAVOK 24/15 Q1019","temp":24,"dewp":15,"wdir":120,"wspd":3,"visib":"6+","altim":1019,"clouds":[],"obsTime":1777593600},"SBUR":{"icaoId":"SBUR","flightCategory":"VFR","rawOb":"METAR SBUR 010000Z 12005KT CAVOK 26/16 Q1018","temp":26,"dewp":16,"wdir":120,"wspd":5,"visib":"6+","altim":1018,"clouds":[],"obsTime":1777593600},"SBVT":{"icaoId":"SBVT","flightCategory":"VFR","rawOb":"METAR SBVT 010000Z 01003KT 9999 SCT030 25/23 Q1017","temp":25,"dewp":23,"wdir":10,"wspd":3,"visib":"6+","altim":1017,"clouds":[{"cover":"SCT","base":3000}],"obsTime":1777593600},"SBSR":{"icaoId":"SBSR","flightCategory":"VFR","rawOb":"METAR SBSR 010000Z 17004KT 120V220 CAVOK 28/16 Q1016","temp":28,"dewp":16,"wdir":170,"wspd":4,"visib":"6+","altim":1016,"clouds":[],"obsTime":1777593600},"SBAR":{"icaoId":"SBAR","flightCategory":"VFR","rawOb":"METAR SBAR 010000Z 11006KT 9999 SCT023 BKN100 27/24 Q1013","temp":27,"dewp":24,"wdir":110,"wspd":6,"visib":"6+","altim":1013,"clouds":[{"cover":"SCT","base":2300},{"cover":"BKN","base":10000}],"obsTime":1777593600},"SBAX":{"icaoId":"SBAX","flightCategory":"VFR","rawOb":"METAR SBAX 010000Z 10008KT CAVOK 22/15 Q1020","temp":22,"dewp":15,"wdir":100,"wspd":8,"visib":"6+","altim":1020,"clouds":[],"obsTime":1777593600},"SBBH":{"icaoId":"SBBH","flightCategory":"VFR","rawOb":"METAR SBBH 010000Z 10007KT CAVOK 22/17 Q1020","temp":22,"dewp":17,"wdir":100,"wspd":7,"visib":"6+","altim":1020,"clouds":[],"obsTime":1777593600},"SBBU":{"icaoId":"SBBU","flightCategory":"VFR","rawOb":"METAR SBBU 010000Z 14009KT CAVOK 25/21 Q1017","temp":25,"dewp":21,"wdir":140,"wspd":9,"visib":"6+","altim":1017,"clouds":[],"obsTime":1777593600},"SBCO":{"icaoId":"SBCO","flightCategory":"VFR","rawOb":"METAR SBCO 010000Z 10006KT CAVOK 14/12 Q1017","temp":14,"dewp":12,"wdir":100,"wspd":6,"visib":"6+","altim":1017,"clouds":[],"obsTime":1777593600},"SBDN":{"icaoId":"SBDN","flightCategory":"VFR","rawOb":"METAR SBDN 010000Z 12009KT CAVOK 25/21 Q1016","temp":25,"dewp":21,"wdir":120,"wspd":9,"visib":"6+","altim":1016,"clouds":[],"obsTime":1777593600},"SBES":{"icaoId":"SBES","flightCategory":"MVFR","rawOb":"METAR SBES 010000Z VRB02KT 6000 -RA BKN010 23/// Q1017 RERA","temp":null,"dewp":null,"wdir":"VRB","wspd":2,"visib":3.73,"altim":1017,"clouds":[{"cover":"BKN","base":1000}],"obsTime":1777593600},"SBIP":{"icaoId":"SBIP","flightCategory":"VFR","rawOb":"METAR SBIP 010000Z AUTO 17004KT CAVOK 23/21 Q1017","temp":23,"dewp":21,"wdir":170,"wspd":4,"visib":"6+","altim":1017,"clouds":[],"obsTime":1777593600},"SBKG":{"icaoId":"SBKG","flightCategory":"VFR","rawOb":"METAR SBKG 010000Z 11003KT 9999 SCT004 SCT007 BKN070 22/22 Q1015","temp":22,"dewp":22,"wdir":110,"wspd":3,"visib":"6+","altim":1015,"clouds":[{"cover":"SCT","base":400},{"cover":"SCT","base":700},{"cover":"BKN","base":7000}],"obsTime":1777593600},"SBOI":{"icaoId":"SBOI","flightCategory":"MVFR","rawOb":"METAR SBOI 010000Z AUTO VRB02KT 9999 // SCT019/// BKN024/// BKN030/// 25/25 Q1010","temp":25,"dewp":25,"wdir":"VRB","wspd":2,"visib":"6+","altim":1010,"clouds":[{"cover":"SCT","base":1900},{"cover":"BKN","base":2400},{"cover":"BKN","base":3000}],"obsTime":1777593600},"SBPL":{"icaoId":"SBPL","flightCategory":"MVFR","rawOb":"METAR SBPL 010000Z 13005KT 9999 BKN020 24/23 Q1014","temp":24,"dewp":23,"wdir":130,"wspd":5,"visib":"6+","altim":1014,"clouds":[{"cover":"BKN","base":2000}],"obsTime":1777593600},"SBPS":{"icaoId":"SBPS","flightCategory":"VFR","rawOb":"METAR SBPS 010000Z 10005KT 9999 SCT025 26/23 Q1015","temp":26,"dewp":23,"wdir":100,"wspd":5,"visib":"6+","altim":1015,"clouds":[{"cover":"SCT","base":2500}],"obsTime":1777593600},"SBSC":{"icaoId":"SBSC","flightCategory":"MVFR","rawOb":"METAR SBSC 010000Z 23003KT 8000 SCT015 BKN025 OVC050 24/21 Q1018","temp":24,"dewp":21,"wdir":230,"wspd":3,"visib":4.97,"altim":1018,"clouds":[{"cover":"SCT","base":1500},{"cover":"BKN","base":2500},{"cover":"OVC","base":5000}],"obsTime":1777593600},"SBSJ":{"icaoId":"SBSJ","flightCategory":"MVFR","rawOb":"METAR SBSJ 010000Z 16004KT 9999 SCT014 OVC030 21/18 Q1021","temp":21,"dewp":18,"wdir":160,"wspd":4,"visib":"6+","altim":1021,"clouds":[{"cover":"SCT","base":1400},{"cover":"OVC","base":3000}],"obsTime":1777593600},"SBSM":{"icaoId":"SBSM","flightCategory":"VFR","rawOb":"METAR SBSM 010000Z 10004KT CAVOK 14/13 Q1015","temp":14,"dewp":13,"wdir":100,"wspd":4,"visib":"6+","altim":1015,"clouds":[],"obsTime":1777593600},"SBJP":{"icaoId":"SBJP","flightCategory":"MVFR","rawOb":"METAR SBJP 010000Z 00000KT 9999 -RA SCT010 BKN020 OVC070 25/24 Q1013 RERA","temp":25,"dewp":24,"wdir":0,"wspd":0,"visib":"6+","altim":1013,"clouds":[{"cover":"SCT","base":1000},{"cover":"BKN","base":2000},{"cover":"OVC","base":7000}],"obsTime":1777593600},"SBLE":{"icaoId":"SBLE","flightCategory":"VFR","rawOb":"METAR SBLE 010000Z AUTO VRB01KT 9999 SCT045 ///// Q////","temp":null,"dewp":null,"wdir":"VRB","wspd":1,"visib":"6+","altim":null,"clouds":[{"cover":"SCT","base":4500}],"obsTime":1777593600},"SBAN":{"icaoId":"SBAN","flightCategory":"VFR","rawOb":"METAR SBAN 010000Z 18006KT CAVOK 20/14 Q1019","temp":20,"dewp":14,"wdir":180,"wspd":6,"visib":"6+","altim":1019,"clouds":[],"obsTime":1777593600},"SBJV":{"icaoId":"SBJV","flightCategory":"VFR","rawOb":"METAR SBJV 010000Z 30003KT 9999 SCT020 BKN040 20/20 Q1019","temp":20,"dewp":20,"wdir":300,"wspd":3,"visib":"6+","altim":1019,"clouds":[{"cover":"SCT","base":2000},{"cover":"BKN","base":4000}],"obsTime":1777593600},"SBLS":{"icaoId":"SBLS","flightCategory":"VFR","rawOb":"METAR SBLS 010000Z 12006KT CAVOK 22/16 Q1020","temp":22,"dewp":16,"wdir":120,"wspd":6,"visib":"6+","altim":1020,"clouds":[],"obsTime":1777593600},"SBMT":{"icaoId":"SBMT","flightCategory":"MVFR","rawOb":"METAR SBMT 010000Z 13006KT 090V160 9999 BKN019 20/16 Q1021","temp":20,"dewp":16,"wdir":130,"wspd":6,"visib":"6+","altim":1021,"clouds":[{"cover":"BKN","base":1900}],"obsTime":1777593600},"SBTA":{"icaoId":"SBTA","flightCategory":"VFR","rawOb":"METAR SBTA 010000Z VRB01KT 9999 BKN032 21/17 Q1020","temp":21,"dewp":17,"wdir":"VRB","wspd":1,"visib":"6+","altim":1020,"clouds":[{"cover":"BKN","base":3200}],"obsTime":1777593600},"SBJR":{"icaoId":"SBJR","flightCategory":"VFR","rawOb":"METAR SBJR 010000Z 28001KT 9999 FEW015 BKN040 25/23 Q1017","temp":25,"dewp":23,"wdir":280,"wspd":1,"visib":"6+","altim":1017,"clouds":[{"cover":"FEW","base":1500},{"cover":"BKN","base":4000}],"obsTime":1777593600}}}