{"updated":1778712834,"count":83,"data":{"SBVT":{"icaoId":"SBVT","flightCategory":"VFR","rawOb":"METAR SBVT 132100Z 03009KT CAVOK 25/21 Q1016","temp":25,"dewp":21,"wdir":30,"wspd":9,"visib":"6+","altim":1016,"clouds":[],"obsTime":1778706000},"SBME":{"icaoId":"SBME","flightCategory":"VFR","rawOb":"METAR SBME 132100Z 09006KT CAVOK 24/21 Q1015","temp":24,"dewp":21,"wdir":90,"wspd":6,"visib":"6+","altim":1015,"clouds":[],"obsTime":1778706000},"SBFZ":{"icaoId":"SBFZ","flightCategory":"VFR","rawOb":"METAR SBFZ 132100Z 06002KT 9999 FEW023 27/24 Q1012","temp":27,"dewp":24,"wdir":60,"wspd":2,"visib":"6+","altim":1012,"clouds":[{"cover":"FEW","base":2300}],"obsTime":1778706000},"SBMG":{"icaoId":"SBMG","flightCategory":"VFR","rawOb":"METAR SBMG 132100Z 18002KT CAVOK 20/11 Q1017","temp":20,"dewp":11,"wdir":180,"wspd":2,"visib":"6+","altim":1017,"clouds":[],"obsTime":1778706000},"SBBV":{"icaoId":"SBBV","flightCategory":"VFR","rawOb":"METAR SBBV 132100Z 16008KT 9999 SCT035 FEW040TCU SCT100 29/23 Q1012","temp":29,"dewp":23,"wdir":160,"wspd":8,"visib":"6+","altim":1012,"clouds":[{"cover":"SCT","base":3500},{"cover":"FEW","base":4000},{"cover":"SCT","base":10000}],"obsTime":1778706000},"SBMK":{"icaoId":"SBMK","flightCategory":"VFR","rawOb":"METAR SBMK 132100Z 08007KT 9999 FEW030 25/16 Q1018","temp":25,"dewp":16,"wdir":80,"wspd":7,"visib":"6+","altim":1018,"clouds":[{"cover":"FEW","base":3000}],"obsTime":1778706000},"SBGL":{"icaoId":"SBGL","flightCategory":"VFR","rawOb":"METAR SBGL 132100Z 12004KT CAVOK 23/19 Q1015","temp":23,"dewp":19,"wdir":120,"wspd":4,"visib":"6+","altim":1015,"clouds":[],"obsTime":1778706000},"SBMO":{"icaoId":"SBMO","flightCategory":"VFR","rawOb":"METAR SBMO 132100Z 11005KT 9999 FEW019 26/22 Q1014","temp":26,"dewp":22,"wdir":110,"wspd":5,"visib":"6+","altim":1014,"clouds":[{"cover":"FEW","base":1900}],"obsTime":1778706000},"SBCF":{"icaoId":"SBCF","flightCategory":"VFR","rawOb":"METAR SBCF 132100Z 14006KT 9999 SCT040 SCT090 22/18 Q1019","temp":22,"dewp":18,"wdir":140,"wspd":6,"visib":"6+","altim":1019,"clouds":[{"cover":"SCT","base":4000},{"cover":"SCT","base":9000}],"obsTime":1778706000},"SBFL":{"icaoId":"SBFL","flightCategory":"VFR","rawOb":"METAR SBFL 132100Z 15004KT CAVOK 18/15 Q1017","temp":18,"dewp":15,"wdir":150,"wspd":4,"visib":"6+","altim":1017,"clouds":[],"obsTime":1778706000},"SBMQ":{"icaoId":"SBMQ","flightCategory":"VFR","rawOb":"METAR SBMQ 132100Z 25004KT 9999 -RA SCT008 25/25 Q1011","temp":25,"dewp":25,"wdir":250,"wspd":4,"visib":"6+","altim":1011,"clouds":[{"cover":"SCT","base":800}],"obsTime":1778706000},"SBGO":{"icaoId":"SBGO","flightCategory":"VFR","rawOb":"METAR SBGO 132100Z 29003KT 9999 FEW045 28/17 Q1017","temp":28,"dewp":17,"wdir":290,"wspd":3,"visib":"6+","altim":1017,"clouds":[{"cover":"FEW","base":4500}],"obsTime":1778706000},"SBNT":{"icaoId":"SBNT","flightCategory":"VFR","rawOb":"METAR SBNT 132100Z 15007KT 9999 FEW027 26/23 Q1012","temp":26,"dewp":23,"wdir":150,"wspd":7,"visib":"6+","altim":1012,"clouds":[{"cover":"FEW","base":2700}],"obsTime":1778706000},"SBCT":{"icaoId":"SBCT","flightCategory":"VFR","rawOb":"METAR SBCT 132100Z 20003KT CAVOK 18/06 Q1019","temp":18,"dewp":6,"wdir":200,"wspd":3,"visib":"6+","altim":1019,"clouds":[],"obsTime":1778706000},"SBPA":{"icaoId":"SBPA","flightCategory":"VFR","rawOb":"METAR SBPA 132100Z 29004KT 260V330 CAVOK 18/10 Q1016","temp":18,"dewp":10,"wdir":290,"wspd":4,"visib":"6+","altim":1016,"clouds":[],"obsTime":1778706000},"SBCG":{"icaoId":"SBCG","flightCategory":"VFR","rawOb":"METAR SBCG 132100Z 29004KT CAVOK 24/15 Q1017","temp":24,"dewp":15,"wdir":290,"wspd":4,"visib":"6+","altim":1017,"clouds":[],"obsTime":1778706000},"SBPJ":{"icaoId":"SBPJ","flightCategory":"VFR","rawOb":"METAR SBPJ 132100Z 21004KT 9999 FEW040 31/23 Q1013","temp":31,"dewp":23,"wdir":210,"wspd":4,"visib":"6+","altim":1013,"clouds":[{"cover":"FEW","base":4000}],"obsTime":1778706000},"SBGR":{"icaoId":"SBGR","flightCategory":"VFR","rawOb":"METAR SBGR 132100Z 31004KT CAVOK 20/13 Q1019","temp":20,"dewp":13,"wdir":310,"wspd":4,"visib":"6+","altim":1019,"clouds":[],"obsTime":1778706000},"SBPV":{"icaoId":"SBPV","flightCategory":"VFR","rawOb":"METAR SBPV 132100Z 27001KT 9999 BKN040 26/22 Q1013","temp":26,"dewp":22,"wdir":270,"wspd":1,"visib":"6+","altim":1013,"clouds":[{"cover":"BKN","base":4000}],"obsTime":1778706000},"SBRB":{"icaoId":"SBRB","flightCategory":"VFR","rawOb":"METAR SBRB 132100Z 33003KT 9999 FEW030 SCT100 27/20 Q1014","temp":27,"dewp":20,"wdir":330,"wspd":3,"visib":"6+","altim":1014,"clouds":[{"cover":"FEW","base":3000},{"cover":"SCT","base":10000}],"obsTime":1778706000},"SBCZ":{"icaoId":"SBCZ","flightCategory":"MVFR","rawOb":"METAR SBCZ 132100Z 21003KT 9999 BKN030 BKN100 29/21 Q1013","temp":29,"dewp":21,"wdir":210,"wspd":3,"visib":"6+","altim":1013,"clouds":[{"cover":"BKN","base":3000},{"cover":"BKN","base":10000}],"obsTime":1778706000},"SBEG":{"icaoId":"SBEG","flightCategory":"VFR","rawOb":"METAR SBEG 132100Z 28005KT 9999 SCT025 FEW030TCU 27/24 Q1012","temp":27,"dewp":24,"wdir":280,"wspd":5,"visib":"6+","altim":1012,"clouds":[{"cover":"SCT","base":2500},{"cover":"FEW","base":3000}],"obsTime":1778706000},"SBRF":{"icaoId":"SBRF","flightCategory":"VFR","rawOb":"METAR SBRF 132100Z 17008KT 9999 SCT023 BKN100 27/23 Q1013","temp":27,"dewp":23,"wdir":170,"wspd":8,"visib":"6+","altim":1013,"clouds":[{"cover":"SCT","base":2300},{"cover":"BKN","base":10000}],"obsTime":1778706000},"SBIL":{"icaoId":"SBIL","flightCategory":"VFR","rawOb":"METAR SBIL 132100Z 17003KT 130V200 CAVOK 27/22 Q1016","temp":27,"dewp":22,"wdir":170,"wspd":3,"visib":"6+","altim":1016,"clouds":[],"obsTime":1778706000},"SBSG":{"icaoId":"SBSG","flightCategory":"VFR","rawOb":"METAR SBSG 132100Z 14005KT 100V180 9999 FEW033 26/24 Q1013","temp":26,"dewp":24,"wdir":140,"wspd":5,"visib":"6+","altim":1013,"clouds":[{"cover":"FEW","base":3300}],"obsTime":1778706000},"SBSL":{"icaoId":"SBSL","flightCategory":"VFR","rawOb":"METAR SBSL 132100Z 07003KT 9999 SCT020 BKN100 24/24 Q1012","temp":24,"dewp":24,"wdir":70,"wspd":3,"visib":"6+","altim":1012,"clouds":[{"cover":"SCT","base":2000},{"cover":"BKN","base":10000}],"obsTime":1778706000},"SBBR":{"icaoId":"SBBR","flightCategory":"VFR","rawOb":"METAR SBBR 132100Z 11006KT 9999 SCT045 25/16 Q1020","temp":25,"dewp":16,"wdir":110,"wspd":6,"visib":"6+","altim":1020,"clouds":[{"cover":"SCT","base":4500}],"obsTime":1778706000},"SBJU":{"icaoId":"SBJU","flightCategory":"VFR","rawOb":"METAR SBJU 132100Z 00000KT 9999 FEW021 BKN070 27/21 Q1015","temp":27,"dewp":21,"wdir":0,"wspd":0,"visib":"6+","altim":1015,"clouds":[{"cover":"FEW","base":2100},{"cover":"BKN","base":7000}],"obsTime":1778706000},"SBSN":{"icaoId":"SBSN","flightCategory":"MVFR","rawOb":"METAR SBSN 132100Z 03011KT 6000 RA BKN013 FEW025TCU OVC070 24/23 Q1013","temp":24,"dewp":23,"wdir":30,"wspd":11,"visib":3.73,"altim":1013,"clouds":[{"cover":"BKN","base":1300},{"cover":"FEW","base":2500},{"cover":"OVC","base":7000}],"obsTime":1778706000},"SBSP":{"icaoId":"SBSP","flightCategory":"VFR","rawOb":"METAR SBSP 132100Z 18008KT CAVOK 19/14 Q1020","temp":19,"dewp":14,"wdir":180,"wspd":8,"visib":"6+","altim":1020,"clouds":[],"obsTime":1778706000},"SBCP":{"icaoId":"SBCP","flightCategory":"VFR","rawOb":"METAR SBCP 132100Z 08005KT CAVOK 23/21 Q1015","temp":23,"dewp":21,"wdir":80,"wspd":5,"visib":"6+","altim":1015,"clouds":[],"obsTime":1778706000},"SBSV":{"icaoId":"SBSV","flightCategory":"MVFR","rawOb":"METAR SBSV 132100Z 11006KT 050V180 9999 BKN023 27/22 Q1015","temp":27,"dewp":22,"wdir":110,"wspd":6,"visib":"6+","altim":1015,"clouds":[{"cover":"BKN","base":2300}],"obsTime":1778706000},"SBKP":{"icaoId":"SBKP","flightCategory":"VFR","rawOb":"METAR SBKP 132100Z 20003KT CAVOK 23/10 Q1018","temp":23,"dewp":10,"wdir":200,"wspd":3,"visib":"6+","altim":1018,"clouds":[],"obsTime":1778706000},"SBTE":{"icaoId":"SBTE","flightCategory":"VFR","rawOb":"METAR SBTE 132100Z 06005KT 9999 SCT020 BKN080 28/24 Q1012","temp":28,"dewp":24,"wdir":60,"wspd":5,"visib":"6+","altim":1012,"clouds":[{"cover":"SCT","base":2000},{"cover":"BKN","base":8000}],"obsTime":1778706000},"SBLO":{"icaoId":"SBLO","flightCategory":"VFR","rawOb":"METAR SBLO 132100Z 04004KT CAVOK 20/10 Q1018","temp":20,"dewp":10,"wdir":40,"wspd":4,"visib":"6+","altim":1018,"clouds":[],"obsTime":1778706000},"SBFI":{"icaoId":"SBFI","flightCategory":"VFR","rawOb":"METAR SBFI 132100Z 00000KT CAVOK 20/16 Q1015","temp":20,"dewp":16,"wdir":0,"wspd":0,"visib":"6+","altim":1015,"clouds":[],"obsTime":1778706000},"SBUL":{"icaoId":"SBUL","flightCategory":"VFR","rawOb":"METAR SBUL 132100Z 29004KT 230V340 9999 VCSH SCT040 FEW045TCU SCT100 25/15 Q1019","temp":25,"dewp":15,"wdir":290,"wspd":4,"visib":"6+","altim":1019,"clouds":[{"cover":"SCT","base":4000},{"cover":"FEW","base":4500},{"cover":"SCT","base":10000}],"obsTime":1778706000},"SBBE":{"icaoId":"SBBE","flightCategory":"MVFR","rawOb":"METAR SBBE 132100Z 33003KT 9999 BKN025 FEW030TCU 27/24 Q1012","temp":27,"dewp":24,"wdir":330,"wspd":3,"visib":"6+","altim":1012,"clouds":[{"cover":"BKN","base":2500},{"cover":"FEW","base":3000}],"obsTime":1778706000},"SBUR":{"icaoId":"SBUR","flightCategory":"VFR","rawOb":"METAR SBUR 132100Z 20006KT CAVOK 25/14 Q1018","temp":25,"dewp":14,"wdir":200,"wspd":6,"visib":"6+","altim":1018,"clouds":[],"obsTime":1778706000},"SBMA":{"icaoId":"SBMA","flightCategory":"VFR","rawOb":"METAR SBMA 132100Z 01004KT 9999 VCSH SCT018 FEW023TCU BKN100 24/24 Q1013 RETS","temp":24,"dewp":24,"wdir":10,"wspd":4,"visib":"6+","altim":1013,"clouds":[{"cover":"SCT","base":1800},{"cover":"FEW","base":2300},{"cover":"BKN","base":10000}],"obsTime":1778706000},"SBCB":{"icaoId":"SBCB","flightCategory":"VFR","rawOb":"METAR SBCB 132100Z 07006KT 9999 FEW030 23/20 Q1016","temp":23,"dewp":20,"wdir":70,"wspd":6,"visib":"6+","altim":1016,"clouds":[{"cover":"FEW","base":3000}],"obsTime":1778706000},"SBCR":{"icaoId":"SBCR","flightCategory":"VFR","rawOb":"METAR SBCR 132100Z 35003KT 310V020 CAVOK 25/16 Q1014","temp":25,"dewp":16,"wdir":350,"wspd":3,"visib":"6+","altim":1014,"clouds":[],"obsTime":1778706000},"SBHT":{"icaoId":"SBHT","flightCategory":"VFR","rawOb":"METAR SBHT 132100Z 00000KT 9999 SCT015 SCT025 OVC100 25/24 Q1013","temp":25,"dewp":24,"wdir":0,"wspd":0,"visib":"6+","altim":1013,"clouds":[{"cover":"SCT","base":1500},{"cover":"SCT","base":2500},{"cover":"OVC","base":10000}],"obsTime":1778706000},"SBAT":{"icaoId":"SBAT","flightCategory":"VFR","rawOb":"METAR SBAT 132100Z 00000KT 9999 FEW030 BKN100 31/24 Q1012","temp":31,"dewp":24,"wdir":0,"wspd":0,"visib":"6+","altim":1012,"clouds":[{"cover":"FEW","base":3000},{"cover":"BKN","base":10000}],"obsTime":1778706000},"SBTF":{"icaoId":"SBTF","flightCategory":"VFR","rawOb":"METAR SBTF 132100Z 36003KT 9999 FEW015 BKN090 27/24 Q1012","temp":27,"dewp":24,"wdir":360,"wspd":3,"visib":"6+","altim":1012,"clouds":[{"cover":"FEW","base":1500},{"cover":"BKN","base":9000}],"obsTime":1778706000},"SBAR":{"icaoId":"SBAR","flightCategory":"VFR","rawOb":"METAR SBAR 132100Z 13006KT 9999 FEW024 BKN070 27/22 Q1014","temp":27,"dewp":22,"wdir":130,"wspd":6,"visib":"6+","altim":1014,"clouds":[{"cover":"FEW","base":2400},{"cover":"BKN","base":7000}],"obsTime":1778706000},"SBVH":{"icaoId":"SBVH","flightCategory":"VFR","rawOb":"METAR SBVH 132100Z 33003KT 9999 BKN035 27/20 Q1015","temp":27,"dewp":20,"wdir":330,"wspd":3,"visib":"6+","altim":1015,"clouds":[{"cover":"BKN","base":3500}],"obsTime":1778706000},"SBAX":{"icaoId":"SBAX","flightCategory":"VFR","rawOb":"METAR SBAX 132100Z 25005KT 9999 SCT025 25/15 Q1019","temp":25,"dewp":15,"wdir":250,"wspd":5,"visib":"6+","altim":1019,"clouds":[{"cover":"SCT","base":2500}],"obsTime":1778706000},"SBUY":{"icaoId":"SBUY","flightCategory":"VFR","rawOb":"METAR SBUY 132100Z 10004KT 9999 FEW025 SCT100 28/24 Q1011","temp":28,"dewp":24,"wdir":100,"wspd":4,"visib":"6+","altim":1011,"clouds":[{"cover":"FEW","base":2500},{"cover":"SCT","base":10000}],"obsTime":1778706000},"SBBH":{"icaoId":"SBBH","flightCategory":"VFR","rawOb":"METAR SBBH 132100Z 10006KT 9999 SCT040 BKN100 22/16 Q1019","temp":22,"dewp":16,"wdir":100,"wspd":6,"visib":"6+","altim":1019,"clouds":[{"cover":"SCT","base":4000},{"cover":"BKN","base":10000}],"obsTime":1778706000},"SBTU":{"icaoId":"SBTU","flightCategory":"VFR","rawOb":"METAR SBTU 132100Z AUTO 11005KT 9999 // ///////// ///// Q1015","temp":null,"dewp":null,"wdir":110,"wspd":5,"visib":"6+","altim":1015,"clouds":[],"obsTime":1778706000},"SBBU":{"icaoId":"SBBU","flightCategory":"VFR","rawOb":"METAR SBBU 132100Z 24004KT CAVOK 24/09 Q1018","temp":24,"dewp":9,"wdir":240,"wspd":4,"visib":"6+","altim":1018,"clouds":[],"obsTime":1778706000},"SBTT":{"icaoId":"SBTT","flightCategory":"MVFR","rawOb":"METAR SBTT 132100Z 29002KT 9999 FEW012 BKN016 OVC020 23/20 Q1014","temp":23,"dewp":20,"wdir":290,"wspd":2,"visib":"6+","altim":1014,"clouds":[{"cover":"FEW","base":1200},{"cover":"BKN","base":1600},{"cover":"OVC","base":2000}],"obsTime":1778706000},"SBCA":{"icaoId":"SBCA","flightCategory":"VFR","rawOb":"METAR SBCA 132100Z 32004KT CAVOK 18/10 Q1018","temp":18,"dewp":10,"wdir":320,"wspd":4,"visib":"6+","altim":1018,"clouds":[],"obsTime":1778706000},"SBSR":{"icaoId":"SBSR","flightCategory":"VFR","rawOb":"METAR SBSR 132100Z 21005KT CAVOK 26/05 Q1017","temp":26,"dewp":5,"wdir":210,"wspd":5,"visib":"6+","altim":1017,"clouds":[],"obsTime":1778706000},"SBCO":{"icaoId":"SBCO","flightCategory":"VFR","rawOb":"METAR SBCO 132100Z 25002KT CAVOK 15/11 Q1016","temp":15,"dewp":11,"wdir":250,"wspd":2,"visib":"6+","altim":1016,"clouds":[],"obsTime":1778706000},"SBSM":{"icaoId":"SBSM","flightCategory":"VFR","rawOb":"METAR SBSM 132100Z VRB01KT CAVOK 14/10 Q1016","temp":14,"dewp":10,"wdir":"VRB","wspd":1,"visib":"6+","altim":1016,"clouds":[],"obsTime":1778706000},"SBDN":{"icaoId":"SBDN","flightCategory":"VFR","rawOb":"METAR SBDN 132100Z 00000KT CAVOK 22/10 Q1017","temp":22,"dewp":10,"wdir":0,"wspd":0,"visib":"6+","altim":1017,"clouds":[],"obsTime":1778706000},"SBSJ":{"icaoId":"SBSJ","flightCategory":"VFR","rawOb":"METAR SBSJ 132100Z VRB01KT CAVOK 19/14 Q1018","temp":19,"dewp":14,"wdir":"VRB","wspd":1,"visib":"6+","altim":1018,"clouds":[],"obsTime":1778706000},"SBSC":{"icaoId":"SBSC","flightCategory":"VFR","rawOb":"METAR SBSC 132100Z 19003KT CAVOK 21/19 Q1016","temp":21,"dewp":19,"wdir":190,"wspd":3,"visib":"6+","altim":1016,"clouds":[],"obsTime":1778706000},"SBIP":{"icaoId":"SBIP","flightCategory":"VFR","rawOb":"METAR SBIP 132100Z AUTO VRB01KT CAVOK 21/20 Q1017","temp":21,"dewp":20,"wdir":"VRB","wspd":1,"visib":"6+","altim":1017,"clouds":[],"obsTime":1778706000},"SBPS":{"icaoId":"SBPS","flightCategory":"VFR","rawOb":"METAR SBPS 132100Z 18002KT 9999 SCT025 SCT050 25/23 Q1017","temp":25,"dewp":23,"wdir":180,"wspd":2,"visib":"6+","altim":1017,"clouds":[{"cover":"SCT","base":2500},{"cover":"SCT","base":5000}],"obsTime":1778706000},"SBKG":{"icaoId":"SBKG","flightCategory":"VFR","rawOb":"METAR SBKG 132100Z 08004KT 9999 FEW015 BKN070 23/21 Q1016","temp":23,"dewp":21,"wdir":80,"wspd":4,"visib":"6+","altim":1016,"clouds":[{"cover":"FEW","base":1500},{"cover":"BKN","base":7000}],"obsTime":1778706000},"SBOI":{"icaoId":"SBOI","flightCategory":"MVFR","rawOb":"METAR SBOI 132100Z AUTO VRB02KT 9999 BKN029 27/25 Q1012","temp":27,"dewp":25,"wdir":"VRB","wspd":2,"visib":"6+","altim":1012,"clouds":[{"cover":"BKN","base":2900}],"obsTime":1778706000},"SBPL":{"icaoId":"SBPL","flightCategory":"VFR","rawOb":"METAR SBPL 132100Z 14006KT 9999 FEW025 30/16 Q1014","temp":30,"dewp":16,"wdir":140,"wspd":6,"visib":"6+","altim":1014,"clouds":[{"cover":"FEW","base":2500}],"obsTime":1778706000},"SBPB":{"icaoId":"SBPB","flightCategory":"MVFR","rawOb":"METAR SBPB 132100Z 10003KT 9999 BKN016 OVC080 27/25 Q1012","temp":27,"dewp":25,"wdir":100,"wspd":3,"visib":"6+","altim":1012,"clouds":[{"cover":"BKN","base":1600},{"cover":"OVC","base":8000}],"obsTime":1778706000},"SBCJ":{"icaoId":"SBCJ","flightCategory":"VFR","rawOb":"METAR SBCJ 132100Z 00000KT 9999 TS FEW030CB BKN100 24/22 Q1017","temp":24,"dewp":22,"wdir":0,"wspd":0,"visib":"6+","altim":1017,"clouds":[{"cover":"FEW","base":3000},{"cover":"BKN","base":10000}],"obsTime":1778706000},"SBPP":{"icaoId":"SBPP","flightCategory":"VFR","rawOb":"METAR SBPP 132100Z 07005KT CAVOK 18/14 Q1017","temp":18,"dewp":14,"wdir":70,"wspd":5,"visib":"6+","altim":1017,"clouds":[],"obsTime":1778706000},"SBES":{"icaoId":"SBES","flightCategory":"VFR","rawOb":"METAR SBES 132100Z 08003KT 030V130 9999 FEW040 22/// Q1016","temp":null,"dewp":null,"wdir":80,"wspd":3,"visib":"6+","altim":1016,"clouds":[{"cover":"FEW","base":4000}],"obsTime":1778706000},"SBLE":{"icaoId":"SBLE","flightCategory":"VFR","rawOb":"METAR SBLE 132100Z AUTO VRB02KT CAVOK 25/19 Q1017","temp":25,"dewp":19,"wdir":"VRB","wspd":2,"visib":"6+","altim":1017,"clouds":[],"obsTime":1778706000},"SBAF":{"icaoId":"SBAF","flightCategory":"VFR","rawOb":"METAR SBAF 132100Z 23004KT 200V260 CAVOK 22/21 Q1016","temp":22,"dewp":21,"wdir":230,"wspd":4,"visib":"6+","altim":1016,"clouds":[],"obsTime":1778706000},"SBJP":{"icaoId":"SBJP","flightCategory":"VFR","rawOb":"METAR SBJP 132100Z 18009KT CAVOK 25/23 Q1014","temp":25,"dewp":23,"wdir":180,"wspd":9,"visib":"6+","altim":1014,"clouds":[],"obsTime":1778706000},"SBGW":{"icaoId":"SBGW","flightCategory":"VFR","rawOb":"METAR SBGW 132100Z VRB02KT 9999 FEW030 21/13 Q1017","temp":21,"dewp":13,"wdir":"VRB","wspd":2,"visib":"6+","altim":1017,"clouds":[{"cover":"FEW","base":3000}],"obsTime":1778706000},"SBJV":{"icaoId":"SBJV","flightCategory":"VFR","rawOb":"METAR SBJV 132100Z 00000KT CAVOK 17/15 Q1016","temp":17,"dewp":15,"wdir":0,"wspd":0,"visib":"6+","altim":1016,"clouds":[],"obsTime":1778706000},"SBJR":{"icaoId":"SBJR","flightCategory":"VFR","rawOb":"METAR SBJR 132100Z 25002KT CAVOK 21/19 Q1016","temp":21,"dewp":19,"wdir":250,"wspd":2,"visib":"6+","altim":1016,"clouds":[],"obsTime":1778706000},"SBAN":{"icaoId":"SBAN","flightCategory":"VFR","rawOb":"METAR SBAN 132100Z 00000KT 9999 FEW040 23/16 Q1021","temp":23,"dewp":16,"wdir":0,"wspd":0,"visib":"6+","altim":1021,"clouds":[{"cover":"FEW","base":4000}],"obsTime":1778706000},"SBLS":{"icaoId":"SBLS","flightCategory":"VFR","rawOb":"METAR SBLS 132100Z 14009KT 9999 SCT030 SCT100 22/18 Q1019","temp":22,"dewp":18,"wdir":140,"wspd":9,"visib":"6+","altim":1019,"clouds":[{"cover":"SCT","base":3000},{"cover":"SCT","base":10000}],"obsTime":1778706000},"SBNM":{"icaoId":"SBNM","flightCategory":"VFR","rawOb":"METAR SBNM 132100Z 22004KT CAVOK 18/09 Q1016","temp":18,"dewp":9,"wdir":220,"wspd":4,"visib":"6+","altim":1016,"clouds":[],"obsTime":1778706000},"SBMT":{"icaoId":"SBMT","flightCategory":"VFR","rawOb":"METAR SBMT 132100Z 17005KT CAVOK 21/12 Q1018","temp":21,"dewp":12,"wdir":170,"wspd":5,"visib":"6+","altim":1018,"clouds":[],"obsTime":1778706000},"SBTA":{"icaoId":"SBTA","flightCategory":"VFR","rawOb":"METAR SBTA 132100Z 26002KT CAVOK 21/14 Q1017","temp":21,"dewp":14,"wdir":260,"wspd":2,"visib":"6+","altim":1017,"clouds":[],"obsTime":1778706000},"SBPF":{"icaoId":"SBPF","flightCategory":"VFR","rawOb":"METAR SBPF 132100Z 24005KT CAVOK 16/05 Q1019","temp":16,"dewp":5,"wdir":240,"wspd":5,"visib":"6+","altim":1019,"clouds":[],"obsTime":1778706000},"SBIH":{"icaoId":"SBIH","flightCategory":"VFR","rawOb":"METAR SBIH 132100Z 01002KT 9999 FEW017 BKN100 26/25 Q1012","temp":26,"dewp":25,"wdir":10,"wspd":2,"visib":"6+","altim":1012,"clouds":[{"cover":"FEW","base":1700},{"cover":"BKN","base":10000}],"obsTime":1778706000},"SBST":{"icaoId":"SBST","flightCategory":"VFR","rawOb":"METAR SBST 132100Z 19002KT 9999 FEW045 19/18 Q1016","temp":19,"dewp":18,"wdir":190,"wspd":2,"visib":"6+","altim":1016,"clouds":[{"cover":"FEW","base":4500}],"obsTime":1778706000}}}