{"updated":1774034966,"count":85,"data":{"SBCR":{"icaoId":"SBCR","flightCategory":"VFR","rawOb":"METAR SBCR 201800Z VRB04KT 9999 SCT040 31/26 Q1005","temp":31,"dewp":26,"wdir":"VRB","wspd":4,"visib":"6+","altim":1005,"clouds":[{"cover":"SCT","base":4000}],"obsTime":1774029600},"SBKP":{"icaoId":"SBKP","flightCategory":"VFR","rawOb":"METAR SBKP 201800Z 16006KT 9999 SCT040 FEW050TCU 28/20 Q1011","temp":28,"dewp":20,"wdir":160,"wspd":6,"visib":"6+","altim":1011,"clouds":[{"cover":"SCT","base":4000},{"cover":"FEW","base":5000}],"obsTime":1774029600},"SBCB":{"icaoId":"SBCB","flightCategory":"VFR","rawOb":"METAR SBCB 201800Z 09010KT 9999 SCT040 SCT080 26/23 Q1008","temp":26,"dewp":23,"wdir":90,"wspd":10,"visib":"6+","altim":1008,"clouds":[{"cover":"SCT","base":4000},{"cover":"SCT","base":8000}],"obsTime":1774029600},"SBLO":{"icaoId":"SBLO","flightCategory":"VFR","rawOb":"METAR SBLO 201800Z 14005KT 9999 SCT025 31/22 Q1009","temp":31,"dewp":22,"wdir":140,"wspd":5,"visib":"6+","altim":1009,"clouds":[{"cover":"SCT","base":2500}],"obsTime":1774029600},"SBMA":{"icaoId":"SBMA","flightCategory":"VFR","rawOb":"METAR SBMA 201800Z 11005KT 9999 FEW015 SCT020 FEW023TCU BKN100 29/24 Q1008","temp":29,"dewp":24,"wdir":110,"wspd":5,"visib":"6+","altim":1008,"clouds":[{"cover":"FEW","base":1500},{"cover":"SCT","base":2000},{"cover":"FEW","base":2300},{"cover":"BKN","base":10000}],"obsTime":1774029600},"SBCZ":{"icaoId":"SBCZ","flightCategory":"MVFR","rawOb":"METAR SBCZ 201800Z 35007KT 9999 BKN025 FEW025TCU BKN100 31/24 Q1006","temp":31,"dewp":24,"wdir":350,"wspd":7,"visib":"6+","altim":1006,"clouds":[{"cover":"BKN","base":2500},{"cover":"FEW","base":2500},{"cover":"BKN","base":10000}],"obsTime":1774029600},"SBEG":{"icaoId":"SBEG","flightCategory":"VFR","rawOb":"METAR SBEG 201800Z VRB05KT 9999 SCT025 SCT100 31/22 Q1008","temp":31,"dewp":22,"wdir":"VRB","wspd":5,"visib":"6+","altim":1008,"clouds":[{"cover":"SCT","base":2500},{"cover":"SCT","base":10000}],"obsTime":1774029600},"SBME":{"icaoId":"SBME","flightCategory":"IFR","rawOb":"METAR SBME 201800Z 07006KT 4000 -RA BR BKN010 OVC070 26/23 Q1008","temp":26,"dewp":23,"wdir":70,"wspd":6,"visib":2.49,"altim":1008,"clouds":[{"cover":"BKN","base":1000},{"cover":"OVC","base":7000}],"obsTime":1774029600},"SBCF":{"icaoId":"SBCF","flightCategory":"MVFR","rawOb":"METAR SBCF 201800Z 35010KT 9999 BKN014 BKN080 24/21 Q1012","temp":24,"dewp":21,"wdir":350,"wspd":10,"visib":"6+","altim":1012,"clouds":[{"cover":"BKN","base":1400},{"cover":"BKN","base":8000}],"obsTime":1774029600},"SBMG":{"icaoId":"SBMG","flightCategory":"VFR","rawOb":"METAR SBMG 201800Z 29010KT 9999 -TSRA SCT035 FEW040CB SCT060 29/22 Q1008","temp":29,"dewp":22,"wdir":290,"wspd":10,"visib":"6+","altim":1008,"clouds":[{"cover":"SCT","base":3500},{"cover":"FEW","base":4000},{"cover":"SCT","base":6000}],"obsTime":1774029600},"SBFI":{"icaoId":"SBFI","flightCategory":"VFR","rawOb":"METAR SBFI 201800Z 01006KT 9999 SCT040 FEW045TCU 35/23 Q1006","temp":35,"dewp":23,"wdir":10,"wspd":6,"visib":"6+","altim":1006,"clouds":[{"cover":"SCT","base":4000},{"cover":"FEW","base":4500}],"obsTime":1774029600},"SBMK":{"icaoId":"SBMK","flightCategory":"VFR","rawOb":"METAR SBMK 201800Z 35005KT 9999 -RA NSC 26/21 Q1011","temp":26,"dewp":21,"wdir":350,"wspd":5,"visib":"6+","altim":1011,"clouds":[],"obsTime":1774029600},"SBMO":{"icaoId":"SBMO","flightCategory":"VFR","rawOb":"METAR SBMO 201800Z 09013KT 9999 SCT035 31/23 Q1008","temp":31,"dewp":23,"wdir":90,"wspd":13,"visib":"6+","altim":1008,"clouds":[{"cover":"SCT","base":3500}],"obsTime":1774029600},"SBAT":{"icaoId":"SBAT","flightCategory":"VFR","rawOb":"METAR SBAT 201800Z 06007KT 9999 SCT025 29/23 Q1008","temp":29,"dewp":23,"wdir":60,"wspd":7,"visib":"6+","altim":1008,"clouds":[{"cover":"SCT","base":2500}],"obsTime":1774029600},"SBBR":{"icaoId":"SBBR","flightCategory":"LIFR","rawOb":"SPECI SBBR 201735Z 06008G24KT 010V090 0700 R29L///// R11L/1500 R29R/1600 R11R/P2000 +TSRA FEW011 BKN040 FEW045CB BKN100 21/20 Q1013 RESHRA","temp":21,"dewp":20,"wdir":60,"wspd":8,"visib":0.43,"altim":1013,"clouds":[{"cover":"FEW","base":1100},{"cover":"BKN","base":4000},{"cover":"FEW","base":4500},{"cover":"BKN","base":10000}],"obsTime":1774028100},"SBMQ":{"icaoId":"SBMQ","flightCategory":"LIFR","rawOb":"METAR SBMQ 201800Z 21004KT 3000 -RA BR BKN004 BKN017 OVC038 24/24 Q1010","temp":24,"dewp":24,"wdir":210,"wspd":4,"visib":1.86,"altim":1010,"clouds":[{"cover":"BKN","base":400},{"cover":"BKN","base":1700},{"cover":"OVC","base":3800}],"obsTime":1774029600},"SBFL":{"icaoId":"SBFL","flightCategory":"VFR","rawOb":"METAR SBFL 201800Z 09010KT 9999 SCT025 27/23 Q1009","temp":27,"dewp":23,"wdir":90,"wspd":10,"visib":"6+","altim":1009,"clouds":[{"cover":"SCT","base":2500}],"obsTime":1774029600},"SBNT":{"icaoId":"SBNT","flightCategory":"VFR","rawOb":"METAR SBNT 201800Z 11013KT 080V140 9999 SCT031 31/23 Q1008","temp":31,"dewp":23,"wdir":110,"wspd":13,"visib":"6+","altim":1008,"clouds":[{"cover":"SCT","base":3100}],"obsTime":1774029600},"SBCG":{"icaoId":"SBCG","flightCategory":"MVFR","rawOb":"METAR SBCG 201800Z 32006KT 270V030 9999 VCSH BKN030 FEW045TCU BKN060 30/22 Q1008","temp":30,"dewp":22,"wdir":320,"wspd":6,"visib":"6+","altim":1008,"clouds":[{"cover":"BKN","base":3000},{"cover":"FEW","base":4500},{"cover":"BKN","base":6000}],"obsTime":1774029600},"SBPA":{"icaoId":"SBPA","flightCategory":"VFR","rawOb":"METAR SBPA 201800Z 09014KT 9999 SCT040 30/22 Q1008","temp":30,"dewp":22,"wdir":90,"wspd":14,"visib":"6+","altim":1008,"clouds":[{"cover":"SCT","base":4000}],"obsTime":1774029600},"SBPJ":{"icaoId":"SBPJ","flightCategory":"VFR","rawOb":"METAR SBPJ 201800Z 32005KT 9999 FEW033TCU BKN050 32/23 Q1008","temp":32,"dewp":23,"wdir":320,"wspd":5,"visib":"6+","altim":1008,"clouds":[{"cover":"FEW","base":3300},{"cover":"BKN","base":5000}],"obsTime":1774029600},"SBFZ":{"icaoId":"SBFZ","flightCategory":"VFR","rawOb":"METAR SBFZ 201800Z 10013KT 9999 FEW030 31/23 Q1007","temp":31,"dewp":23,"wdir":100,"wspd":13,"visib":"6+","altim":1007,"clouds":[{"cover":"FEW","base":3000}],"obsTime":1774029600},"SBGL":{"icaoId":"SBGL","flightCategory":"IFR","rawOb":"METAR SBGL 201800Z VRB04KT 3000 -RA BR SCT009 BKN011 BKN050 25/23 Q1008","temp":25,"dewp":23,"wdir":"VRB","wspd":4,"visib":1.86,"altim":1008,"clouds":[{"cover":"SCT","base":900},{"cover":"BKN","base":1100},{"cover":"BKN","base":5000}],"obsTime":1774029600},"SBPV":{"icaoId":"SBPV","flightCategory":"MVFR","rawOb":"METAR SBPV 201800Z 36005KT 9999 BKN030 FEW035TCU 31/22 Q1007","temp":31,"dewp":22,"wdir":360,"wspd":5,"visib":"6+","altim":1007,"clouds":[{"cover":"BKN","base":3000},{"cover":"FEW","base":3500}],"obsTime":1774029600},"SBRB":{"icaoId":"SBRB","flightCategory":"MVFR","rawOb":"METAR SBRB 201800Z COR 34006KT 9999 BKN030 FEW030TCU BKN100 31/24 Q1007","temp":31,"dewp":24,"wdir":340,"wspd":6,"visib":"6+","altim":1007,"clouds":[{"cover":"BKN","base":3000},{"cover":"FEW","base":3000},{"cover":"BKN","base":10000}],"obsTime":1774029600},"SBCP":{"icaoId":"SBCP","flightCategory":"MVFR","rawOb":"METAR SBCP 201800Z 12008KT 9999 BKN015 BKN100 27/24 Q1008","temp":27,"dewp":24,"wdir":120,"wspd":8,"visib":"6+","altim":1008,"clouds":[{"cover":"BKN","base":1500},{"cover":"BKN","base":10000}],"obsTime":1774029600},"SBUR":{"icaoId":"SBUR","flightCategory":"VFR","rawOb":"METAR SBUR 201800Z 26003KT 9999 SCT030 FEW045TCU SCT080 25/21 Q1011 RETS","temp":25,"dewp":21,"wdir":260,"wspd":3,"visib":"6+","altim":1011,"clouds":[{"cover":"SCT","base":3000},{"cover":"FEW","base":4500},{"cover":"SCT","base":8000}],"obsTime":1774029600},"SBRF":{"icaoId":"SBRF","flightCategory":"VFR","rawOb":"METAR SBRF 201800Z 08009KT 9999 FEW025 31/24 Q1008","temp":31,"dewp":24,"wdir":80,"wspd":9,"visib":"6+","altim":1008,"clouds":[{"cover":"FEW","base":2500}],"obsTime":1774029600},"SBSG":{"icaoId":"SBSG","flightCategory":"MVFR","rawOb":"METAR SBSG 201800Z 11013KT 9999 BKN030 31/23 Q1008","temp":31,"dewp":23,"wdir":110,"wspd":13,"visib":"6+","altim":1008,"clouds":[{"cover":"BKN","base":3000}],"obsTime":1774029600},"SBGO":{"icaoId":"SBGO","flightCategory":"VFR","rawOb":"SPECI SBGO 201751Z 29018KT 9999 -RA SCT020 SCT025 FEW030TCU 24/20 Q1012","temp":24,"dewp":20,"wdir":290,"wspd":18,"visib":"6+","altim":1012,"clouds":[{"cover":"SCT","base":2000},{"cover":"SCT","base":2500},{"cover":"FEW","base":3000}],"obsTime":1774029060},"SBSL":{"icaoId":"SBSL","flightCategory":"VFR","rawOb":"METAR SBSL 201800Z 03010KT 9999 SCT025 SCT100 30/25 Q1006","temp":30,"dewp":25,"wdir":30,"wspd":10,"visib":"6+","altim":1006,"clouds":[{"cover":"SCT","base":2500},{"cover":"SCT","base":10000}],"obsTime":1774029600},"SBBE":{"icaoId":"SBBE","flightCategory":"VFR","rawOb":"METAR SBBE 201800Z 27011KT 9999 FEW022 BKN035 FEW040TCU 28/24 Q1008","temp":28,"dewp":24,"wdir":270,"wspd":11,"visib":"6+","altim":1008,"clouds":[{"cover":"FEW","base":2200},{"cover":"BKN","base":3500},{"cover":"FEW","base":4000}],"obsTime":1774029600},"SBBV":{"icaoId":"SBBV","flightCategory":"VFR","rawOb":"METAR SBBV 201800Z 07010KT 9999 BKN040 FEW045TCU 33/20 Q1008","temp":33,"dewp":20,"wdir":70,"wspd":10,"visib":"6+","altim":1008,"clouds":[{"cover":"BKN","base":4000},{"cover":"FEW","base":4500}],"obsTime":1774029600},"SBSN":{"icaoId":"SBSN","flightCategory":"VFR","rawOb":"METAR SBSN 201800Z 12005KT 9999 -RA SCT016 SCT090 26/23 Q1009","temp":26,"dewp":23,"wdir":120,"wspd":5,"visib":"6+","altim":1009,"clouds":[{"cover":"SCT","base":1600},{"cover":"SCT","base":9000}],"obsTime":1774029600},"SBSP":{"icaoId":"SBSP","flightCategory":"VFR","rawOb":"METAR SBSP 201800Z 13009KT 9999 SCT030 BKN033 25/19 Q1013","temp":25,"dewp":19,"wdir":130,"wspd":9,"visib":"6+","altim":1013,"clouds":[{"cover":"SCT","base":3000},{"cover":"BKN","base":3300}],"obsTime":1774029600},"SBGR":{"icaoId":"SBGR","flightCategory":"VFR","rawOb":"METAR SBGR 201800Z 16005KT 9999 BKN033 25/19 Q1012","temp":25,"dewp":19,"wdir":160,"wspd":5,"visib":"6+","altim":1012,"clouds":[{"cover":"BKN","base":3300}],"obsTime":1774029600},"SBSV":{"icaoId":"SBSV","flightCategory":"VFR","rawOb":"METAR SBSV 201800Z 08012KT 9999 SCT023 30/23 Q1009","temp":30,"dewp":23,"wdir":80,"wspd":12,"visib":"6+","altim":1009,"clouds":[{"cover":"SCT","base":2300}],"obsTime":1774029600},"SBHT":{"icaoId":"SBHT","flightCategory":"VFR","rawOb":"METAR SBHT 201800Z 33003KT 9999 FEW015 OVC090 26/23 Q1010","temp":26,"dewp":23,"wdir":330,"wspd":3,"visib":"6+","altim":1010,"clouds":[{"cover":"FEW","base":1500},{"cover":"OVC","base":9000}],"obsTime":1774029600},"SBTE":{"icaoId":"SBTE","flightCategory":"MVFR","rawOb":"METAR SBTE 201800Z 07007KT 9999 BKN025 FEW030TCU 33/23 Q1006","temp":33,"dewp":23,"wdir":70,"wspd":7,"visib":"6+","altim":1006,"clouds":[{"cover":"BKN","base":2500},{"cover":"FEW","base":3000}],"obsTime":1774029600},"SBUL":{"icaoId":"SBUL","flightCategory":"VFR","rawOb":"METAR SBUL 201800Z 32006KT 9999 VCSH VCTS SCT025 FEW040CB 27/20 Q1012","temp":27,"dewp":20,"wdir":320,"wspd":6,"visib":"6+","altim":1012,"clouds":[{"cover":"SCT","base":2500},{"cover":"FEW","base":4000}],"obsTime":1774029600},"SBIL":{"icaoId":"SBIL","flightCategory":"VFR","rawOb":"METAR SBIL 201800Z 07010KT 9999 FEW030 31/25 Q1009","temp":31,"dewp":25,"wdir":70,"wspd":10,"visib":"6+","altim":1009,"clouds":[{"cover":"FEW","base":3000}],"obsTime":1774029600},"SBCT":{"icaoId":"SBCT","flightCategory":"VFR","rawOb":"METAR SBCT 201800Z 08007KT 9999 SCT035 27/19 Q1013","temp":27,"dewp":19,"wdir":80,"wspd":7,"visib":"6+","altim":1013,"clouds":[{"cover":"SCT","base":3500}],"obsTime":1774029600},"SBVT":{"icaoId":"SBVT","flightCategory":"MVFR","rawOb":"METAR SBVT 201800Z 15004KT 7000 -TSRA SCT013 BKN025 FEW030CB OVC090 24/24 Q1008","temp":24,"dewp":24,"wdir":150,"wspd":4,"visib":4.35,"altim":1008,"clouds":[{"cover":"SCT","base":1300},{"cover":"BKN","base":2500},{"cover":"FEW","base":3000},{"cover":"OVC","base":9000}],"obsTime":1774029600},"SBJU":{"icaoId":"SBJU","flightCategory":"VFR","rawOb":"METAR SBJU 201800Z 04008KT 9999 SCT022 31/23 Q1009","temp":31,"dewp":23,"wdir":40,"wspd":8,"visib":"6+","altim":1009,"clouds":[{"cover":"SCT","base":2200}],"obsTime":1774029600},"SBOI":{"icaoId":"SBOI","flightCategory":"IFR","rawOb":"METAR SBOI 201800Z AUTO 07003KT 030V110 6000 RA SCT005 OVC009 25/24 Q1010","temp":25,"dewp":24,"wdir":70,"wspd":3,"visib":3.73,"altim":1010,"clouds":[{"cover":"SCT","base":500},{"cover":"OVC","base":900}],"obsTime":1774029600},"SBAX":{"icaoId":"SBAX","flightCategory":"MVFR","rawOb":"METAR SBAX 201800Z 28006KT 9999 VCSH BKN014 BKN030 BKN080 24/23 Q1012","temp":24,"dewp":23,"wdir":280,"wspd":6,"visib":"6+","altim":1012,"clouds":[{"cover":"BKN","base":1400},{"cover":"BKN","base":3000},{"cover":"BKN","base":8000}],"obsTime":1774029600},"SBBH":{"icaoId":"SBBH","flightCategory":"MVFR","rawOb":"METAR SBBH 201800Z 34004KT 9000 -RA BKN014 BKN020 23/21 Q1011","temp":23,"dewp":21,"wdir":340,"wspd":4,"visib":5.59,"altim":1011,"clouds":[{"cover":"BKN","base":1400},{"cover":"BKN","base":2000}],"obsTime":1774029600},"SBSC":{"icaoId":"SBSC","flightCategory":"MVFR","rawOb":"METAR SBSC 201800Z 20008KT 9999 BKN015 OVC030 27/23 Q1009","temp":27,"dewp":23,"wdir":200,"wspd":8,"visib":"6+","altim":1009,"clouds":[{"cover":"BKN","base":1500},{"cover":"OVC","base":3000}],"obsTime":1774029600},"SBAR":{"icaoId":"SBAR","flightCategory":"VFR","rawOb":"METAR SBAR 201800Z 09014KT 9999 FEW027 31/24 Q1008","temp":31,"dewp":24,"wdir":90,"wspd":14,"visib":"6+","altim":1008,"clouds":[{"cover":"FEW","base":2700}],"obsTime":1774029600},"SBBQ":{"icaoId":"SBBQ","flightCategory":"IFR","rawOb":"METAR SBBQ 201800Z 06003KT 010V130 7000 BKN007 OVC015 21/20 Q1014","temp":21,"dewp":20,"wdir":60,"wspd":3,"visib":4.35,"altim":1014,"clouds":[{"cover":"BKN","base":700},{"cover":"OVC","base":1500}],"obsTime":1774029600},"SBBU":{"icaoId":"SBBU","flightCategory":"VFR","rawOb":"METAR SBBU 201800Z 13007KT 9999 SCT035 32/22 Q1010","temp":32,"dewp":22,"wdir":130,"wspd":7,"visib":"6+","altim":1010,"clouds":[{"cover":"SCT","base":3500}],"obsTime":1774029600},"SBCA":{"icaoId":"SBCA","flightCategory":"VFR","rawOb":"METAR SBCA 201800Z 01010KT 9999 SCT025 FEW030TCU 30/21 Q1011","temp":30,"dewp":21,"wdir":10,"wspd":10,"visib":"6+","altim":1011,"clouds":[{"cover":"SCT","base":2500},{"cover":"FEW","base":3000}],"obsTime":1774029600},"SBCC":{"icaoId":"SBCC","flightCategory":"MVFR","rawOb":"METAR SBCC 201800Z 36005KT 320V050 9999 VCSH FEW011 BKN015 FEW025TCU BKN080 28/21 Q1009","temp":28,"dewp":21,"wdir":360,"wspd":5,"visib":"6+","altim":1009,"clouds":[{"cover":"FEW","base":1100},{"cover":"BKN","base":1500},{"cover":"FEW","base":2500},{"cover":"BKN","base":8000}],"obsTime":1774029600},"SBCJ":{"icaoId":"SBCJ","flightCategory":"VFR","rawOb":"METAR SBCJ 201800Z 34005KT 9999 SCT015 FEW020TCU 24/21 Q1012","temp":24,"dewp":21,"wdir":340,"wspd":5,"visib":"6+","altim":1012,"clouds":[{"cover":"SCT","base":1500},{"cover":"FEW","base":2000}],"obsTime":1774029600},"SBCO":{"icaoId":"SBCO","flightCategory":"VFR","rawOb":"METAR SBCO 201800Z 11014KT 9999 SCT035 30/22 Q1008","temp":30,"dewp":22,"wdir":110,"wspd":14,"visib":"6+","altim":1008,"clouds":[{"cover":"SCT","base":3500}],"obsTime":1774029600},"SBDN":{"icaoId":"SBDN","flightCategory":"VFR","rawOb":"METAR SBDN 201800Z 21002KT 9999 BKN045 FEW060TCU 34/21 Q1008","temp":34,"dewp":21,"wdir":210,"wspd":2,"visib":"6+","altim":1008,"clouds":[{"cover":"BKN","base":4500},{"cover":"FEW","base":6000}],"obsTime":1774029600},"SBES":{"icaoId":"SBES","flightCategory":"VFR","rawOb":"METAR SBES 201800Z 09007KT 060V150 9999 FEW020 BKN040 BKN070 25/// Q1008","temp":null,"dewp":null,"wdir":90,"wspd":7,"visib":"6+","altim":1008,"clouds":[{"cover":"FEW","base":2000},{"cover":"BKN","base":4000},{"cover":"BKN","base":7000}],"obsTime":1774029600},"SBGM":{"icaoId":"SBGM","flightCategory":"VFR","rawOb":"METAR SBGM 201800Z 29008KT 9999 BKN033 33/23 Q1006","temp":33,"dewp":23,"wdir":290,"wspd":8,"visib":"6+","altim":1006,"clouds":[{"cover":"BKN","base":3300}],"obsTime":1774029600},"SBIP":{"icaoId":"SBIP","flightCategory":"MVFR","rawOb":"METAR SBIP 201800Z AUTO 02005KT 9999 SCT012 OVC016 24/22 Q1009","temp":24,"dewp":22,"wdir":20,"wspd":5,"visib":"6+","altim":1009,"clouds":[{"cover":"SCT","base":1200},{"cover":"OVC","base":1600}],"obsTime":1774029600},"SBKG":{"icaoId":"SBKG","flightCategory":"VFR","rawOb":"METAR SBKG 201800Z 10012KT 9999 SCT025 31/19 Q1010","temp":31,"dewp":19,"wdir":100,"wspd":12,"visib":"6+","altim":1010,"clouds":[{"cover":"SCT","base":2500}],"obsTime":1774029600},"SBPB":{"icaoId":"SBPB","flightCategory":"VFR","rawOb":"METAR SBPB 201800Z 06009KT 9999 FEW020 31/25 Q1006","temp":31,"dewp":25,"wdir":60,"wspd":9,"visib":"6+","altim":1006,"clouds":[{"cover":"FEW","base":2000}],"obsTime":1774029600},"SBPL":{"icaoId":"SBPL","flightCategory":"MVFR","rawOb":"METAR SBPL 201800Z 11004KT 9999 BKN030 34/19 Q1008","temp":34,"dewp":19,"wdir":110,"wspd":4,"visib":"6+","altim":1008,"clouds":[{"cover":"BKN","base":3000}],"obsTime":1774029600},"SBPP":{"icaoId":"SBPP","flightCategory":"MVFR","rawOb":"METAR SBPP 201800Z 17004KT 9999 BKN025 FEW030TCU 29/22 Q1009","temp":29,"dewp":22,"wdir":170,"wspd":4,"visib":"6+","altim":1009,"clouds":[{"cover":"BKN","base":2500},{"cover":"FEW","base":3000}],"obsTime":1774029600},"SBPS":{"icaoId":"SBPS","flightCategory":"VFR","rawOb":"METAR SBPS 201800Z 05014KT 9999 SCT025 30/23 Q1008","temp":30,"dewp":23,"wdir":50,"wspd":14,"visib":"6+","altim":1008,"clouds":[{"cover":"SCT","base":2500}],"obsTime":1774029600},"SBSJ":{"icaoId":"SBSJ","flightCategory":"VFR","rawOb":"METAR SBSJ 201800Z 17006KT 9999 SCT020 BKN040 27/// Q1011","temp":null,"dewp":null,"wdir":170,"wspd":6,"visib":"6+","altim":1011,"clouds":[{"cover":"SCT","base":2000},{"cover":"BKN","base":4000}],"obsTime":1774029600},"SBSM":{"icaoId":"SBSM","flightCategory":"VFR","rawOb":"METAR SBSM 201800Z 11006KT 9999 FEW030 30/22 Q1007","temp":30,"dewp":22,"wdir":110,"wspd":6,"visib":"6+","altim":1007,"clouds":[{"cover":"FEW","base":3000}],"obsTime":1774029600},"SBSR":{"icaoId":"SBSR","flightCategory":"VFR","rawOb":"METAR SBSR 201800Z 21008KT 9999 SCT030 BKN070 31/19 Q1009","temp":31,"dewp":19,"wdir":210,"wspd":8,"visib":"6+","altim":1009,"clouds":[{"cover":"SCT","base":3000},{"cover":"BKN","base":7000}],"obsTime":1774029600},"SBTF":{"icaoId":"SBTF","flightCategory":"VFR","rawOb":"METAR SBTF 201800Z 07005KT 9999 FEW020 32/24 Q1007","temp":32,"dewp":24,"wdir":70,"wspd":5,"visib":"6+","altim":1007,"clouds":[{"cover":"FEW","base":2000}],"obsTime":1774029600},"SBTT":{"icaoId":"SBTT","flightCategory":"VFR","rawOb":"METAR SBTT 201800Z 31004KT 9999 SCT024 31/23 Q1007","temp":31,"dewp":23,"wdir":310,"wspd":4,"visib":"6+","altim":1007,"clouds":[{"cover":"SCT","base":2400}],"obsTime":1774029600},"SBUY":{"icaoId":"SBUY","flightCategory":"VFR","rawOb":"METAR SBUY 201800Z 11001KT 9999 SCT030 31/22 Q1006","temp":31,"dewp":22,"wdir":110,"wspd":1,"visib":"6+","altim":1006,"clouds":[{"cover":"SCT","base":3000}],"obsTime":1774029600},"SBVH":{"icaoId":"SBVH","flightCategory":"VFR","rawOb":"METAR SBVH 201800Z 34006KT 9999 SCT025 FEW035TCU BKN080 25/23 Q1009","temp":25,"dewp":23,"wdir":340,"wspd":6,"visib":"6+","altim":1009,"clouds":[{"cover":"SCT","base":2500},{"cover":"FEW","base":3500},{"cover":"BKN","base":8000}],"obsTime":1774029600},"SBTA":{"icaoId":"SBTA","flightCategory":"VFR","rawOb":"METAR SBTA 201800Z 20006KT 180V240 9999 SCT030 BKN040 25/21 Q1010","temp":25,"dewp":21,"wdir":200,"wspd":6,"visib":"6+","altim":1010,"clouds":[{"cover":"SCT","base":3000},{"cover":"BKN","base":4000}],"obsTime":1774029600},"SBAF":{"icaoId":"SBAF","flightCategory":"MVFR","rawOb":"METAR SBAF 201800Z 18006KT 9000 4000E BKN015 OVC036 26/26 Q1009","temp":26,"dewp":26,"wdir":180,"wspd":6,"visib":5.59,"altim":1009,"clouds":[{"cover":"BKN","base":1500},{"cover":"OVC","base":3600}],"obsTime":1774029600},"SBAN":{"icaoId":"SBAN","flightCategory":"IFR","rawOb":"METAR SBAN 201800Z 29004KT 9999 3000N BKN005 22/20 Q1015","temp":22,"dewp":20,"wdir":290,"wspd":4,"visib":"6+","altim":1015,"clouds":[{"cover":"BKN","base":500}],"obsTime":1774029600},"SBGW":{"icaoId":"SBGW","flightCategory":"VFR","rawOb":"METAR SBGW 201800Z 23004KT 140V310 9999 SCT030 SCT070 29/18 Q1010","temp":29,"dewp":18,"wdir":230,"wspd":4,"visib":"6+","altim":1010,"clouds":[{"cover":"SCT","base":3000},{"cover":"SCT","base":7000}],"obsTime":1774029600},"SBIH":{"icaoId":"SBIH","flightCategory":"MVFR","rawOb":"METAR SBIH 201800Z 32003KT 9999 BKN018 28/24 Q1009","temp":28,"dewp":24,"wdir":320,"wspd":3,"visib":"6+","altim":1009,"clouds":[{"cover":"BKN","base":1800}],"obsTime":1774029600},"SBJP":{"icaoId":"SBJP","flightCategory":"VFR","rawOb":"METAR SBJP 201800Z 09010KT 9999 SCT030 31/23 Q1008","temp":31,"dewp":23,"wdir":90,"wspd":10,"visib":"6+","altim":1008,"clouds":[{"cover":"SCT","base":3000}],"obsTime":1774029600},"SBJR":{"icaoId":"SBJR","flightCategory":"MVFR","rawOb":"METAR SBJR 201800Z 23007KT 8000 BKN015 BKN050 OVC070 29/23 Q1008","temp":29,"dewp":23,"wdir":230,"wspd":7,"visib":4.97,"altim":1008,"clouds":[{"cover":"BKN","base":1500},{"cover":"BKN","base":5000},{"cover":"OVC","base":7000}],"obsTime":1774029600},"SBJV":{"icaoId":"SBJV","flightCategory":"VFR","rawOb":"METAR SBJV 201800Z 09010KT 9999 SCT030 30/24 Q1009","temp":30,"dewp":24,"wdir":90,"wspd":10,"visib":"6+","altim":1009,"clouds":[{"cover":"SCT","base":3000}],"obsTime":1774029600},"SBLE":{"icaoId":"SBLE","flightCategory":"VFR","rawOb":"METAR SBLE 201800Z AUTO VRB04KT CAVOK 30/19 Q1011","temp":30,"dewp":19,"wdir":"VRB","wspd":4,"visib":"6+","altim":1011,"clouds":[],"obsTime":1774029600},"SBLS":{"icaoId":"SBLS","flightCategory":"MVFR","rawOb":"METAR SBLS 201800Z 02005KT 300V090 9999 BKN010 BKN030 24/21 Q1011","temp":24,"dewp":21,"wdir":20,"wspd":5,"visib":"6+","altim":1011,"clouds":[{"cover":"BKN","base":1000},{"cover":"BKN","base":3000}],"obsTime":1774029600},"SBMT":{"icaoId":"SBMT","flightCategory":"VFR","rawOb":"METAR SBMT 201800Z 17008KT 130V230 9999 FEW040 SCT043 26/18 Q1012","temp":26,"dewp":18,"wdir":170,"wspd":8,"visib":"6+","altim":1012,"clouds":[{"cover":"FEW","base":4000},{"cover":"SCT","base":4300}],"obsTime":1774029600},"SBNM":{"icaoId":"SBNM","flightCategory":"VFR","rawOb":"METAR SBNM 201900Z 14002KT 9999 FEW015 35/18 Q1006","temp":35,"dewp":18,"wdir":140,"wspd":2,"visib":"6+","altim":1006,"clouds":[{"cover":"FEW","base":1500}],"obsTime":1774033200},"SBPF":{"icaoId":"SBPF","flightCategory":"VFR","rawOb":"METAR SBPF 201800Z 15006KT 9999 FEW040 31/16 Q1011","temp":31,"dewp":16,"wdir":150,"wspd":6,"visib":"6+","altim":1011,"clouds":[{"cover":"FEW","base":4000}],"obsTime":1774029600},"SBST":{"icaoId":"SBST","flightCategory":"VFR","rawOb":"METAR SBST 201800Z 22005KT 9000 SCT028 28/21 Q1009","temp":28,"dewp":21,"wdir":220,"wspd":5,"visib":5.59,"altim":1009,"clouds":[{"cover":"SCT","base":2800}],"obsTime":1774029600}}}