{"updated":1782475490,"count":84,"data":{"SBCR":{"icaoId":"SBCR","flightCategory":"VFR","rawOb":"METAR SBCR 261100Z 24004KT CAVOK 15/10 Q1020","temp":15,"dewp":10,"wdir":240,"wspd":4,"visib":"6+","altim":1020,"clouds":[],"obsTime":1782471600},"SBBR":{"icaoId":"SBBR","flightCategory":"VFR","rawOb":"METAR SBBR 261100Z 09007KT CAVOK 17/13 Q1025","temp":17,"dewp":13,"wdir":90,"wspd":7,"visib":"6+","altim":1025,"clouds":[],"obsTime":1782471600},"SBSN":{"icaoId":"SBSN","flightCategory":"VFR","rawOb":"METAR SBSN 261100Z 17003KT 9999 SCT009 SCT016 24/23 Q1014","temp":24,"dewp":23,"wdir":170,"wspd":3,"visib":"6+","altim":1014,"clouds":[{"cover":"SCT","base":900},{"cover":"SCT","base":1600}],"obsTime":1782471600},"SBSV":{"icaoId":"SBSV","flightCategory":"MVFR","rawOb":"METAR SBSV 261100Z 11015KT 9000 VCSH BKN017 FEW021TCU BKN050 25/22 Q1020","temp":25,"dewp":22,"wdir":110,"wspd":15,"visib":5.59,"altim":1020,"clouds":[{"cover":"BKN","base":1700},{"cover":"FEW","base":2100},{"cover":"BKN","base":5000}],"obsTime":1782471600},"SBGR":{"icaoId":"SBGR","flightCategory":"LIFR","rawOb":"METAR SBGR 261100Z 07003KT 2500 -DZ BR OVC004 14/14 Q1026","temp":14,"dewp":14,"wdir":70,"wspd":3,"visib":1.55,"altim":1026,"clouds":[{"cover":"OVC","base":400}],"obsTime":1782471600},"SBSG":{"icaoId":"SBSG","flightCategory":"VFR","rawOb":"METAR SBSG 261100Z 20007KT 9999 -RA SCT003 BKN040 24/24 Q1017","temp":24,"dewp":24,"wdir":200,"wspd":7,"visib":"6+","altim":1017,"clouds":[{"cover":"SCT","base":300},{"cover":"BKN","base":4000}],"obsTime":1782471600},"SBPV":{"icaoId":"SBPV","flightCategory":"VFR","rawOb":"METAR SBPV 261100Z 19004KT 9999 SCT030 21/20 Q1016","temp":21,"dewp":20,"wdir":190,"wspd":4,"visib":"6+","altim":1016,"clouds":[{"cover":"SCT","base":3000}],"obsTime":1782471600},"SBMQ":{"icaoId":"SBMQ","flightCategory":"VFR","rawOb":"SPECI SBMQ 261026Z 33004KT 9999 FEW005 BKN100 24/23 Q1015","temp":24,"dewp":23,"wdir":330,"wspd":4,"visib":"6+","altim":1015,"clouds":[{"cover":"FEW","base":500},{"cover":"BKN","base":10000}],"obsTime":1782469560},"SBPA":{"icaoId":"SBPA","flightCategory":"VFR","rawOb":"METAR SBPA 261100Z 28003KT CAVOK 05/05 Q1024","temp":5,"dewp":5,"wdir":280,"wspd":3,"visib":"6+","altim":1024,"clouds":[],"obsTime":1782471600},"SBEG":{"icaoId":"SBEG","flightCategory":"IFR","rawOb":"METAR SBEG 261100Z 20003KT 9999 BKN007 SCT090 25/25 Q1015","temp":25,"dewp":25,"wdir":200,"wspd":3,"visib":"6+","altim":1015,"clouds":[{"cover":"BKN","base":700},{"cover":"SCT","base":9000}],"obsTime":1782471600},"SBGO":{"icaoId":"SBGO","flightCategory":"VFR","rawOb":"METAR SBGO 261100Z 13006KT 9999 FEW006 BKN100 17/16 Q1024","temp":17,"dewp":16,"wdir":130,"wspd":6,"visib":"6+","altim":1024,"clouds":[{"cover":"FEW","base":600},{"cover":"BKN","base":10000}],"obsTime":1782471600},"SBRB":{"icaoId":"SBRB","flightCategory":"MVFR","rawOb":"METAR SBRB 261100Z 18004KT 8000 BKN015 19/18 Q1018","temp":19,"dewp":18,"wdir":180,"wspd":4,"visib":4.97,"altim":1018,"clouds":[{"cover":"BKN","base":1500}],"obsTime":1782471600},"SBCT":{"icaoId":"SBCT","flightCategory":"LIFR","rawOb":"SPECI SBCT 261010Z 16003KT 0400 R15/0500 R33/0500 FG SCT001 BKN003 08/08 Q1026","temp":8,"dewp":8,"wdir":160,"wspd":3,"visib":0.25,"altim":1026,"clouds":[{"cover":"SCT","base":100},{"cover":"BKN","base":300}],"obsTime":1782468600},"SBCF":{"icaoId":"SBCF","flightCategory":"VFR","rawOb":"METAR SBCF 261100Z 12009KT 9999 FEW020 18/15 Q1027","temp":18,"dewp":15,"wdir":120,"wspd":9,"visib":"6+","altim":1027,"clouds":[{"cover":"FEW","base":2000}],"obsTime":1782471600},"SBTE":{"icaoId":"SBTE","flightCategory":"VFR","rawOb":"METAR SBTE 261100Z 14006KT 9999 FEW025 27/18 Q1015","temp":27,"dewp":18,"wdir":140,"wspd":6,"visib":"6+","altim":1015,"clouds":[{"cover":"FEW","base":2500}],"obsTime":1782471600},"SBCB":{"icaoId":"SBCB","flightCategory":"LIFR","rawOb":"METAR SBCB 261100Z 18010KT 3000 -RA BR BKN004 OVC020 21/20 Q1024","temp":21,"dewp":20,"wdir":180,"wspd":10,"visib":1.86,"altim":1024,"clouds":[{"cover":"BKN","base":400},{"cover":"OVC","base":2000}],"obsTime":1782471600},"SBBE":{"icaoId":"SBBE","flightCategory":"VFR","rawOb":"METAR SBBE 261100Z 07007KT CAVOK 27/26 Q1015","temp":27,"dewp":26,"wdir":70,"wspd":7,"visib":"6+","altim":1015,"clouds":[],"obsTime":1782471600},"SBVT":{"icaoId":"SBVT","flightCategory":"MVFR","rawOb":"METAR SBVT 261100Z 18006KT 9000 FEW005 BKN025 BKN040 21/21 Q1024","temp":21,"dewp":21,"wdir":180,"wspd":6,"visib":5.59,"altim":1024,"clouds":[{"cover":"FEW","base":500},{"cover":"BKN","base":2500},{"cover":"BKN","base":4000}],"obsTime":1782471600},"SBCP":{"icaoId":"SBCP","flightCategory":"VFR","rawOb":"METAR SBCP 261100Z 30003KT 9999 FEW020 21/20 Q1024","temp":21,"dewp":20,"wdir":300,"wspd":3,"visib":"6+","altim":1024,"clouds":[{"cover":"FEW","base":2000}],"obsTime":1782471600},"SBLO":{"icaoId":"SBLO","flightCategory":"IFR","rawOb":"METAR SBLO 261100Z 14004KT 9999 OVC009 12/11 Q1024","temp":12,"dewp":11,"wdir":140,"wspd":4,"visib":"6+","altim":1024,"clouds":[{"cover":"OVC","base":900}],"obsTime":1782471600},"SBMO":{"icaoId":"SBMO","flightCategory":"MVFR","rawOb":"METAR SBMO 261100Z 03005KT 360V060 5000 DZ BR OVC015 23/23 Q1019 RERA","temp":23,"dewp":23,"wdir":30,"wspd":5,"visib":3.11,"altim":1019,"clouds":[{"cover":"OVC","base":1500}],"obsTime":1782471600},"SBSL":{"icaoId":"SBSL","flightCategory":"VFR","rawOb":"METAR SBSL 261100Z 10013KT CAVOK 28/24 Q1014","temp":28,"dewp":24,"wdir":100,"wspd":13,"visib":"6+","altim":1014,"clouds":[],"obsTime":1782471600},"SBBV":{"icaoId":"SBBV","flightCategory":"VFR","rawOb":"METAR SBBV 261100Z 08004KT 9999 FEW030 SCT100 25/23 Q1015","temp":25,"dewp":23,"wdir":80,"wspd":4,"visib":"6+","altim":1015,"clouds":[{"cover":"FEW","base":3000},{"cover":"SCT","base":10000}],"obsTime":1782471600},"SBGL":{"icaoId":"SBGL","flightCategory":"IFR","rawOb":"SPECI SBGL 261034Z 09005KT 3500 -RA BR BKN006 OVC040 19/18 Q1024","temp":19,"dewp":18,"wdir":90,"wspd":5,"visib":2.17,"altim":1024,"clouds":[{"cover":"BKN","base":600},{"cover":"OVC","base":4000}],"obsTime":1782470040},"SBFZ":{"icaoId":"SBFZ","flightCategory":"VFR","rawOb":"METAR SBFZ 261100Z 17006KT 9999 VCSH FEW020 FEW030TCU SCT060 26/24 Q1016","temp":26,"dewp":24,"wdir":170,"wspd":6,"visib":"6+","altim":1016,"clouds":[{"cover":"FEW","base":2000},{"cover":"FEW","base":3000},{"cover":"SCT","base":6000}],"obsTime":1782471600},"SBPJ":{"icaoId":"SBPJ","flightCategory":"VFR","rawOb":"METAR SBPJ 261100Z 14012G22KT CAVOK 27/15 Q1017","temp":27,"dewp":15,"wdir":140,"wspd":12,"visib":"6+","altim":1017,"clouds":[],"obsTime":1782471600},"SBFI":{"icaoId":"SBFI","flightCategory":"VFR","rawOb":"METAR SBFI 261100Z 09003KT CAVOK 07/06 Q1023","temp":7,"dewp":6,"wdir":90,"wspd":3,"visib":"6+","altim":1023,"clouds":[],"obsTime":1782471600},"SBFL":{"icaoId":"SBFL","flightCategory":"VFR","rawOb":"METAR SBFL 261100Z 35006KT 9999 SCT049 12/11 Q1025","temp":12,"dewp":11,"wdir":350,"wspd":6,"visib":"6+","altim":1025,"clouds":[{"cover":"SCT","base":4900}],"obsTime":1782471600},"SBMA":{"icaoId":"SBMA","flightCategory":"VFR","rawOb":"METAR SBMA 261100Z 00000KT CAVOK 27/21 Q1015","temp":27,"dewp":21,"wdir":0,"wspd":0,"visib":"6+","altim":1015,"clouds":[],"obsTime":1782471600},"SBRF":{"icaoId":"SBRF","flightCategory":"VFR","rawOb":"METAR SBRF 261100Z 09006KT 9999 SCT016 OVC050 26/23 Q1018","temp":26,"dewp":23,"wdir":90,"wspd":6,"visib":"6+","altim":1018,"clouds":[{"cover":"SCT","base":1600},{"cover":"OVC","base":5000}],"obsTime":1782471600},"SBSP":{"icaoId":"SBSP","flightCategory":"LIFR","rawOb":"METAR SBSP 261100Z VRB02KT 2000 BR OVC002 14/14 Q1027","temp":14,"dewp":14,"wdir":"VRB","wspd":2,"visib":1.24,"altim":1027,"clouds":[{"cover":"OVC","base":200}],"obsTime":1782471600},"SBKP":{"icaoId":"SBKP","flightCategory":"IFR","rawOb":"METAR SBKP 261100Z COR 11002KT 4000 BR BKN007 13/13 Q1026","temp":13,"dewp":13,"wdir":110,"wspd":2,"visib":2.49,"altim":1026,"clouds":[{"cover":"BKN","base":700}],"obsTime":1782471600},"SBCG":{"icaoId":"SBCG","flightCategory":"VFR","rawOb":"METAR SBCG 261100Z 08006KT 9999 SCT002 SCT100 14/13 Q1022","temp":14,"dewp":13,"wdir":80,"wspd":6,"visib":"6+","altim":1022,"clouds":[{"cover":"SCT","base":200},{"cover":"SCT","base":10000}],"obsTime":1782471600},"SBAT":{"icaoId":"SBAT","flightCategory":"VFR","rawOb":"METAR SBAT 261100Z 00000KT CAVOK 24/20 Q1017","temp":24,"dewp":20,"wdir":0,"wspd":0,"visib":"6+","altim":1017,"clouds":[],"obsTime":1782471600},"SBHT":{"icaoId":"SBHT","flightCategory":"VFR","rawOb":"METAR SBHT 261100Z 10002KT 9999 FEW012 BKN090 26/24 Q1015","temp":26,"dewp":24,"wdir":100,"wspd":2,"visib":"6+","altim":1015,"clouds":[{"cover":"FEW","base":1200},{"cover":"BKN","base":9000}],"obsTime":1782471600},"SBMG":{"icaoId":"SBMG","flightCategory":"MVFR","rawOb":"METAR SBMG 261100Z 13008KT 8000 VCFG BKN015 10/09 Q1023","temp":10,"dewp":9,"wdir":130,"wspd":8,"visib":4.97,"altim":1023,"clouds":[{"cover":"BKN","base":1500}],"obsTime":1782471600},"SBIL":{"icaoId":"SBIL","flightCategory":"VFR","rawOb":"METAR SBIL 261100Z 18009KT 150V210 9999 VCSH SCT020 SCT045 25/23 Q1021","temp":25,"dewp":23,"wdir":180,"wspd":9,"visib":"6+","altim":1021,"clouds":[{"cover":"SCT","base":2000},{"cover":"SCT","base":4500}],"obsTime":1782471600},"SBJU":{"icaoId":"SBJU","flightCategory":"VFR","rawOb":"METAR SBJU 261100Z 18008KT CAVOK 25/19 Q1019","temp":25,"dewp":19,"wdir":180,"wspd":8,"visib":"6+","altim":1019,"clouds":[],"obsTime":1782471600},"SBME":{"icaoId":"SBME","flightCategory":"IFR","rawOb":"METAR SBME 261100Z 30002KT 2600 -RA BR SCT004 OVC010 20/20 Q1024","temp":20,"dewp":20,"wdir":300,"wspd":2,"visib":1.62,"altim":1024,"clouds":[{"cover":"SCT","base":400},{"cover":"OVC","base":1000}],"obsTime":1782471600},"SBMK":{"icaoId":"SBMK","flightCategory":"VFR","rawOb":"METAR SBMK 261100Z 17002KT CAVOK 19/15 Q1025","temp":19,"dewp":15,"wdir":170,"wspd":2,"visib":"6+","altim":1025,"clouds":[],"obsTime":1782471600},"SBUL":{"icaoId":"SBUL","flightCategory":"VFR","rawOb":"METAR SBUL 261100Z 11009KT 070V140 CAVOK 18/16 Q1026","temp":18,"dewp":16,"wdir":110,"wspd":9,"visib":"6+","altim":1026,"clouds":[],"obsTime":1782471600},"SBUR":{"icaoId":"SBUR","flightCategory":"VFR","rawOb":"METAR SBUR 261100Z 05006KT CAVOK 18/16 Q1025","temp":18,"dewp":16,"wdir":50,"wspd":6,"visib":"6+","altim":1025,"clouds":[],"obsTime":1782471600},"SBNT":{"icaoId":"SBNT","flightCategory":"MVFR","rawOb":"METAR SBNT 261100Z 19008KT 9999 SCT006 BKN024 BKN060 24/23 Q1017","temp":24,"dewp":23,"wdir":190,"wspd":8,"visib":"6+","altim":1017,"clouds":[{"cover":"SCT","base":600},{"cover":"BKN","base":2400},{"cover":"BKN","base":6000}],"obsTime":1782471600},"SBTF":{"icaoId":"SBTF","flightCategory":"VFR","rawOb":"SPECI SBTF 261115Z 18005KT 9999 FEW008 BKN090 24/23 Q1015","temp":24,"dewp":23,"wdir":180,"wspd":5,"visib":"6+","altim":1015,"clouds":[{"cover":"FEW","base":800},{"cover":"BKN","base":9000}],"obsTime":1782472500},"SBTD":{"icaoId":"SBTD","flightCategory":"VFR","rawOb":"METAR SBTD 261100Z /////KT CAVOK 08/06 Q1024","temp":8,"dewp":6,"wdir":null,"wspd":null,"visib":"6+","altim":1024,"clouds":[],"obsTime":1782471600},"SBPB":{"icaoId":"SBPB","flightCategory":"VFR","rawOb":"SPECI SBPB 261015Z 09010KT 9999 FEW016 27/23 Q1014","temp":27,"dewp":23,"wdir":90,"wspd":10,"visib":"6+","altim":1014,"clouds":[{"cover":"FEW","base":1600}],"obsTime":1782468900},"SBOI":{"icaoId":"SBOI","flightCategory":"VFR","rawOb":"METAR SBOI 261100Z AUTO 17007KT 9000 RA FEW005 SCT008 OVC041 24/23 Q1017 RERA","temp":24,"dewp":23,"wdir":170,"wspd":7,"visib":5.59,"altim":1017,"clouds":[{"cover":"FEW","base":500},{"cover":"SCT","base":800},{"cover":"OVC","base":4100}],"obsTime":1782471600},"SBUY":{"icaoId":"SBUY","flightCategory":"MVFR","rawOb":"METAR SBUY 261100Z 19001KT 6000 SCT011 BKN070 22/22 Q1014","temp":22,"dewp":22,"wdir":190,"wspd":1,"visib":3.73,"altim":1014,"clouds":[{"cover":"SCT","base":1100},{"cover":"BKN","base":7000}],"obsTime":1782471600},"SBAR":{"icaoId":"SBAR","flightCategory":"MVFR","rawOb":"SPECI SBAR 261040Z 12015KT 100V160 5000 RA SCT015 BKN020 OVC040 24/22 Q1018","temp":24,"dewp":22,"wdir":120,"wspd":15,"visib":3.11,"altim":1018,"clouds":[{"cover":"SCT","base":1500},{"cover":"BKN","base":2000},{"cover":"OVC","base":4000}],"obsTime":1782470400},"SBSJ":{"icaoId":"SBSJ","flightCategory":"IFR","rawOb":"METAR SBSJ 261100Z VRB02KT 9999 OVC008 15/14 Q1026","temp":15,"dewp":14,"wdir":"VRB","wspd":2,"visib":"6+","altim":1026,"clouds":[{"cover":"OVC","base":800}],"obsTime":1782471600},"SBPL":{"icaoId":"SBPL","flightCategory":"VFR","rawOb":"METAR SBPL 261100Z 12007KT 9999 SCT025 SCT070 25/20 Q1020","temp":25,"dewp":20,"wdir":120,"wspd":7,"visib":"6+","altim":1020,"clouds":[{"cover":"SCT","base":2500},{"cover":"SCT","base":7000}],"obsTime":1782471600},"SBTT":{"icaoId":"SBTT","flightCategory":"VFR","rawOb":"SPECI SBTT 261045Z 19006KT 9999 FEW004 BKN080 22/21 Q1016","temp":22,"dewp":21,"wdir":190,"wspd":6,"visib":"6+","altim":1016,"clouds":[{"cover":"FEW","base":400},{"cover":"BKN","base":8000}],"obsTime":1782470700},"SBCJ":{"icaoId":"SBCJ","flightCategory":"VFR","rawOb":"SPECI SBCJ 261015Z 00000KT CAVOK 21/17 Q1019","temp":21,"dewp":17,"wdir":0,"wspd":0,"visib":"6+","altim":1019,"clouds":[],"obsTime":1782468900},"SBPS":{"icaoId":"SBPS","flightCategory":"MVFR","rawOb":"METAR SBPS 261100Z 12006KT 090V170 8000 VCSH BKN020 BKN070 25/23 Q1022","temp":25,"dewp":23,"wdir":120,"wspd":6,"visib":4.97,"altim":1022,"clouds":[{"cover":"BKN","base":2000},{"cover":"BKN","base":7000}],"obsTime":1782471600},"SBPP":{"icaoId":"SBPP","flightCategory":"LIFR","rawOb":"SPECI SBPP 261115Z 08009KT 0500 FG VV000 10/10 Q1021","temp":10,"dewp":10,"wdir":80,"wspd":9,"visib":0.31,"altim":1021,"clouds":[{"cover":"OVX","base":0}],"obsTime":1782472500},"SBSR":{"icaoId":"SBSR","flightCategory":"LIFR","rawOb":"METAR SBSR 261100Z 12004KT 0800 FG VV003 15/15 Q1024","temp":15,"dewp":15,"wdir":120,"wspd":4,"visib":0.5,"altim":1024,"clouds":[{"cover":"OVX","base":300}],"obsTime":1782471600},"SBTU":{"icaoId":"SBTU","flightCategory":"VFR","rawOb":"METAR SBTU 261100Z AUTO 19006KT 9999 // NCD ///// Q1016","temp":null,"dewp":null,"wdir":190,"wspd":6,"visib":"6+","altim":1016,"clouds":[],"obsTime":1782471600},"SBAX":{"icaoId":"SBAX","flightCategory":"VFR","rawOb":"METAR SBAX 261100Z AUTO 11010KT CAVOK ///// Q1026","temp":null,"dewp":null,"wdir":110,"wspd":10,"visib":"6+","altim":1026,"clouds":[],"obsTime":1782471600},"SBES":{"icaoId":"SBES","flightCategory":"MVFR","rawOb":"METAR SBES 261100Z 00000KT 6000 -RA FEW004 BKN010 OVC030 19/// Q1025","temp":null,"dewp":null,"wdir":0,"wspd":0,"visib":3.73,"altim":1025,"clouds":[{"cover":"FEW","base":400},{"cover":"BKN","base":1000},{"cover":"OVC","base":3000}],"obsTime":1782471600},"SBCC":{"icaoId":"SBCC","flightCategory":"VFR","rawOb":"METAR SBCC 261100Z 12005KT CAVOK 22/18 Q1017","temp":22,"dewp":18,"wdir":120,"wspd":5,"visib":"6+","altim":1017,"clouds":[],"obsTime":1782471600},"SBVH":{"icaoId":"SBVH","flightCategory":"VFR","rawOb":"METAR SBVH 261100Z 13006KT 9999 FEW003 16/16 Q1020","temp":16,"dewp":16,"wdir":130,"wspd":6,"visib":"6+","altim":1020,"clouds":[{"cover":"FEW","base":300}],"obsTime":1782471600},"SBCA":{"icaoId":"SBCA","flightCategory":"VFR","rawOb":"METAR SBCA 261100Z 08008KT CAVOK 10/07 Q1024","temp":10,"dewp":7,"wdir":80,"wspd":8,"visib":"6+","altim":1024,"clouds":[],"obsTime":1782471600},"SBCO":{"icaoId":"SBCO","flightCategory":"VFR","rawOb":"METAR SBCO 261100Z 28001KT 9000 NSC 02/01 Q1025","temp":2,"dewp":1,"wdir":280,"wspd":1,"visib":5.59,"altim":1025,"clouds":[],"obsTime":1782471600},"SBSM":{"icaoId":"SBSM","flightCategory":"VFR","rawOb":"METAR SBSM 261100Z 21003KT CAVOK 04/04 Q1024","temp":4,"dewp":4,"wdir":210,"wspd":3,"visib":"6+","altim":1024,"clouds":[],"obsTime":1782471600},"SBKG":{"icaoId":"SBKG","flightCategory":"IFR","rawOb":"METAR SBKG 261100Z 19002KT 4000 RA BR SCT005 BKN007 21/21 Q1020","temp":21,"dewp":21,"wdir":190,"wspd":2,"visib":2.49,"altim":1020,"clouds":[{"cover":"SCT","base":500},{"cover":"BKN","base":700}],"obsTime":1782471600},"SBBH":{"icaoId":"SBBH","flightCategory":"VFR","rawOb":"METAR SBBH 261100Z 11009KT CAVOK 18/15 Q1027","temp":18,"dewp":15,"wdir":110,"wspd":9,"visib":"6+","altim":1027,"clouds":[],"obsTime":1782471600},"SBBU":{"icaoId":"SBBU","flightCategory":"LIFR","rawOb":"METAR SBBU 261100Z 09007KT 0200 FG VV001 13/13 Q1025","temp":13,"dewp":13,"wdir":90,"wspd":7,"visib":0.12,"altim":1025,"clouds":[{"cover":"OVX","base":100}],"obsTime":1782471600},"SBDN":{"icaoId":"SBDN","flightCategory":"LIFR","rawOb":"METAR SBDN 261100Z 09005KT 1000 BR OVC003 13/12 Q1023","temp":13,"dewp":12,"wdir":90,"wspd":5,"visib":0.62,"altim":1023,"clouds":[{"cover":"OVC","base":300}],"obsTime":1782471600},"SBIP":{"icaoId":"SBIP","flightCategory":"VFR","rawOb":"METAR SBIP 261100Z AUTO 20005KT 9999 FEW032 20/18 Q1025","temp":20,"dewp":18,"wdir":200,"wspd":5,"visib":"6+","altim":1025,"clouds":[{"cover":"FEW","base":3200}],"obsTime":1782471600},"SBSC":{"icaoId":"SBSC","flightCategory":"MVFR","rawOb":"METAR SBSC 261100Z 04008KT 8000 SCT008 BKN020 OVC070 18/17 Q1023","temp":18,"dewp":17,"wdir":40,"wspd":8,"visib":4.97,"altim":1023,"clouds":[{"cover":"SCT","base":800},{"cover":"BKN","base":2000},{"cover":"OVC","base":7000}],"obsTime":1782471600},"SBJP":{"icaoId":"SBJP","flightCategory":"IFR","rawOb":"METAR SBJP 261100Z 05004KT 4500 -RA BKN010 OVC070 24/24 Q1018 RERA","temp":24,"dewp":24,"wdir":50,"wspd":4,"visib":2.8,"altim":1018,"clouds":[{"cover":"BKN","base":1000},{"cover":"OVC","base":7000}],"obsTime":1782471600},"SBIH":{"icaoId":"SBIH","flightCategory":"IFR","rawOb":"METAR SBIH 261100Z 00000KT 4000 BR FEW008 24/24 Q1014","temp":24,"dewp":24,"wdir":0,"wspd":0,"visib":2.49,"altim":1014,"clouds":[{"cover":"FEW","base":800}],"obsTime":1782471600},"SBJV":{"icaoId":"SBJV","flightCategory":"VFR","rawOb":"METAR SBJV 261100Z 31002KT 9999 BKN035 11/10 Q1026","temp":11,"dewp":10,"wdir":310,"wspd":2,"visib":"6+","altim":1026,"clouds":[{"cover":"BKN","base":3500}],"obsTime":1782471600},"SBNM":{"icaoId":"SBNM","flightCategory":"VFR","rawOb":"METAR SBNM 261100Z AUTO 09007KT CAVOK 02/01 Q1024","temp":2,"dewp":1,"wdir":90,"wspd":7,"visib":"6+","altim":1024,"clouds":[],"obsTime":1782471600},"SBPF":{"icaoId":"SBPF","flightCategory":"VFR","rawOb":"METAR SBPF 261100Z 04010KT CAVOK 04/01 Q1025","temp":4,"dewp":1,"wdir":40,"wspd":10,"visib":"6+","altim":1025,"clouds":[],"obsTime":1782471600},"SBLE":{"icaoId":"SBLE","flightCategory":"VFR","rawOb":"METAR SBLE 261100Z AUTO 15005KT 110V200 9999 FEW019 OVC040 21/21 Q1023","temp":21,"dewp":21,"wdir":150,"wspd":5,"visib":"6+","altim":1023,"clouds":[{"cover":"FEW","base":1900},{"cover":"OVC","base":4000}],"obsTime":1782471600},"SBAN":{"icaoId":"SBAN","flightCategory":"VFR","rawOb":"METAR SBAN 261100Z 09012KT CAVOK 18/13 Q1026","temp":18,"dewp":13,"wdir":90,"wspd":12,"visib":"6+","altim":1026,"clouds":[],"obsTime":1782471600},"SBAF":{"icaoId":"SBAF","flightCategory":"IFR","rawOb":"METAR SBAF 261100Z 02002KT 4000 -RA BR SCT005 BKN012 19/19 Q1024","temp":19,"dewp":19,"wdir":20,"wspd":2,"visib":2.49,"altim":1024,"clouds":[{"cover":"SCT","base":500},{"cover":"BKN","base":1200}],"obsTime":1782471600},"SBGW":{"icaoId":"SBGW","flightCategory":"MVFR","rawOb":"METAR SBGW 261100Z 12002KT 5000 HZ SCT007 SCT015 OVC100 16/13 Q1025","temp":16,"dewp":13,"wdir":120,"wspd":2,"visib":3.11,"altim":1025,"clouds":[{"cover":"SCT","base":700},{"cover":"SCT","base":1500},{"cover":"OVC","base":10000}],"obsTime":1782471600},"SBJR":{"icaoId":"SBJR","flightCategory":"MVFR","rawOb":"METAR SBJR 261100Z 35006KT 7000 FEW017 BKN030 OVC070 20/19 Q1024","temp":20,"dewp":19,"wdir":350,"wspd":6,"visib":4.35,"altim":1024,"clouds":[{"cover":"FEW","base":1700},{"cover":"BKN","base":3000},{"cover":"OVC","base":7000}],"obsTime":1782471600},"SBLS":{"icaoId":"SBLS","flightCategory":"VFR","rawOb":"METAR SBLS 261100Z 14010KT 9999 FEW020 18/15 Q1027","temp":18,"dewp":15,"wdir":140,"wspd":10,"visib":"6+","altim":1027,"clouds":[{"cover":"FEW","base":2000}],"obsTime":1782471600},"SBMT":{"icaoId":"SBMT","flightCategory":"LIFR","rawOb":"METAR SBMT 261100Z 04004KT 0900 FG OVC005 13/13 Q1026","temp":13,"dewp":13,"wdir":40,"wspd":4,"visib":0.56,"altim":1026,"clouds":[{"cover":"OVC","base":500}],"obsTime":1782471600},"SBST":{"icaoId":"SBST","flightCategory":"MVFR","rawOb":"METAR SBST 261100Z 01002KT 8000 OVC016 15/14 Q1025","temp":15,"dewp":14,"wdir":10,"wspd":2,"visib":4.97,"altim":1025,"clouds":[{"cover":"OVC","base":1600}],"obsTime":1782471600},"SBTA":{"icaoId":"SBTA","flightCategory":"MVFR","rawOb":"METAR SBTA 261100Z VRB01KT 8000 3000NW SCT008 BKN014 16/15 Q1025","temp":16,"dewp":15,"wdir":"VRB","wspd":1,"visib":4.97,"altim":1025,"clouds":[{"cover":"SCT","base":800},{"cover":"BKN","base":1400}],"obsTime":1782471600}}}