{"updated":1773859249,"count":85,"data":{"SBSL":{"icaoId":"SBSL","flightCategory":"MVFR","rawOb":"METAR SBSL 181700Z 02011KT 9999 VCSH BKN025 FEW027TCU 29/25 Q1008","temp":29,"dewp":25,"wdir":20,"wspd":11,"visib":"6+","altim":1008,"clouds":[{"cover":"BKN","base":2500},{"cover":"FEW","base":2700}],"obsTime":1773853200},"SBGR":{"icaoId":"SBGR","flightCategory":"VFR","rawOb":"METAR SBGR 181700Z 12004KT 9999 VCSH SCT050 FEW055TCU 30/21 Q1013","temp":30,"dewp":21,"wdir":120,"wspd":4,"visib":"6+","altim":1013,"clouds":[{"cover":"SCT","base":5000},{"cover":"FEW","base":5500}],"obsTime":1773853200},"SBCG":{"icaoId":"SBCG","flightCategory":"MVFR","rawOb":"METAR SBCG 181700Z 25014KT 9999 VCSH VCTS BKN023 FEW030CB 27/23 Q1012","temp":27,"dewp":23,"wdir":250,"wspd":14,"visib":"6+","altim":1012,"clouds":[{"cover":"BKN","base":2300},{"cover":"FEW","base":3000}],"obsTime":1773853200},"SBCT":{"icaoId":"SBCT","flightCategory":"VFR","rawOb":"METAR SBCT 181700Z 13004KT 090V220 9999 SCT035 FEW040TCU BKN100 27/20 Q1014","temp":27,"dewp":20,"wdir":130,"wspd":4,"visib":"6+","altim":1014,"clouds":[{"cover":"SCT","base":3500},{"cover":"FEW","base":4000},{"cover":"BKN","base":10000}],"obsTime":1773853200},"SBLO":{"icaoId":"SBLO","flightCategory":"MVFR","rawOb":"METAR SBLO 181700Z 15004KT 120V180 9999 BKN028 FEW032TCU BKN100 29/21 Q1011","temp":29,"dewp":21,"wdir":150,"wspd":4,"visib":"6+","altim":1011,"clouds":[{"cover":"BKN","base":2800},{"cover":"FEW","base":3200},{"cover":"BKN","base":10000}],"obsTime":1773853200},"SBBV":{"icaoId":"SBBV","flightCategory":"VFR","rawOb":"METAR SBBV 181700Z 09015KT 9999 BKN040 FEW045TCU 33/18 Q1010","temp":33,"dewp":18,"wdir":90,"wspd":15,"visib":"6+","altim":1010,"clouds":[{"cover":"BKN","base":4000},{"cover":"FEW","base":4500}],"obsTime":1773853200},"SBTE":{"icaoId":"SBTE","flightCategory":"MVFR","rawOb":"METAR SBTE 181700Z 16003KT 9999 BKN020 33/23 Q1007","temp":33,"dewp":23,"wdir":160,"wspd":3,"visib":"6+","altim":1007,"clouds":[{"cover":"BKN","base":2000}],"obsTime":1773853200},"SBCB":{"icaoId":"SBCB","flightCategory":"VFR","rawOb":"METAR SBCB 181700Z 09012KT 9999 FEW020 28/22 Q1010","temp":28,"dewp":22,"wdir":90,"wspd":12,"visib":"6+","altim":1010,"clouds":[{"cover":"FEW","base":2000}],"obsTime":1773853200},"SBSV":{"icaoId":"SBSV","flightCategory":"VFR","rawOb":"METAR SBSV 181700Z 11010KT 9999 FEW028 31/22 Q1010","temp":31,"dewp":22,"wdir":110,"wspd":10,"visib":"6+","altim":1010,"clouds":[{"cover":"FEW","base":2800}],"obsTime":1773853200},"SBCF":{"icaoId":"SBCF","flightCategory":"VFR","rawOb":"METAR SBCF 181700Z VRB01KT 9999 VCSH SCT030 FEW035TCU BKN100 26/19 Q1014","temp":26,"dewp":19,"wdir":"VRB","wspd":1,"visib":"6+","altim":1014,"clouds":[{"cover":"SCT","base":3000},{"cover":"FEW","base":3500},{"cover":"BKN","base":10000}],"obsTime":1773853200},"SBSP":{"icaoId":"SBSP","flightCategory":"VFR","rawOb":"METAR SBSP 181700Z 16008KT 130V210 9999 FEW030 BKN040 29/21 Q1014","temp":29,"dewp":21,"wdir":160,"wspd":8,"visib":"6+","altim":1014,"clouds":[{"cover":"FEW","base":3000},{"cover":"BKN","base":4000}],"obsTime":1773853200},"SBSN":{"icaoId":"SBSN","flightCategory":"MVFR","rawOb":"METAR SBSN 181700Z 07007KT 9999 BKN017 SCT100 29/25 Q1010","temp":29,"dewp":25,"wdir":70,"wspd":7,"visib":"6+","altim":1010,"clouds":[{"cover":"BKN","base":1700},{"cover":"SCT","base":10000}],"obsTime":1773853200},"SBCP":{"icaoId":"SBCP","flightCategory":"MVFR","rawOb":"METAR SBCP 181700Z 35005KT 9999 BKN020 32/23 Q1009","temp":32,"dewp":23,"wdir":350,"wspd":5,"visib":"6+","altim":1009,"clouds":[{"cover":"BKN","base":2000}],"obsTime":1773853200},"SBCR":{"icaoId":"SBCR","flightCategory":"VFR","rawOb":"METAR SBCR 181700Z 16007KT 9999 TS SCT020 FEW025CB BKN070 25/24 Q1010","temp":25,"dewp":24,"wdir":160,"wspd":7,"visib":"6+","altim":1010,"clouds":[{"cover":"SCT","base":2000},{"cover":"FEW","base":2500},{"cover":"BKN","base":7000}],"obsTime":1773853200},"SBSG":{"icaoId":"SBSG","flightCategory":"VFR","rawOb":"METAR SBSG 181700Z 12011KT 100V160 9999 SCT033 FEW040TCU 30/24 Q1009","temp":30,"dewp":24,"wdir":120,"wspd":11,"visib":"6+","altim":1009,"clouds":[{"cover":"SCT","base":3300},{"cover":"FEW","base":4000}],"obsTime":1773853200},"SBCZ":{"icaoId":"SBCZ","flightCategory":"MVFR","rawOb":"METAR SBCZ 181700Z 02003KT 9999 BKN015 OVC100 28/24 Q1011","temp":28,"dewp":24,"wdir":20,"wspd":3,"visib":"6+","altim":1011,"clouds":[{"cover":"BKN","base":1500},{"cover":"OVC","base":10000}],"obsTime":1773853200},"SBRF":{"icaoId":"SBRF","flightCategory":"VFR","rawOb":"METAR SBRF 181700Z 11010KT 9999 SCT025 31/24 Q1009","temp":31,"dewp":24,"wdir":110,"wspd":10,"visib":"6+","altim":1009,"clouds":[{"cover":"SCT","base":2500}],"obsTime":1773853200},"SBEG":{"icaoId":"SBEG","flightCategory":"VFR","rawOb":"METAR SBEG 181700Z 04004KT 9999 SCT025 BKN100 29/24 Q1011","temp":29,"dewp":24,"wdir":40,"wspd":4,"visib":"6+","altim":1011,"clouds":[{"cover":"SCT","base":2500},{"cover":"BKN","base":10000}],"obsTime":1773853200},"SBRB":{"icaoId":"SBRB","flightCategory":"VFR","rawOb":"METAR SBRB 181700Z 05006KT 9999 FEW015 SCT100 28/23 Q1011","temp":28,"dewp":23,"wdir":50,"wspd":6,"visib":"6+","altim":1011,"clouds":[{"cover":"FEW","base":1500},{"cover":"SCT","base":10000}],"obsTime":1773853200},"SBPV":{"icaoId":"SBPV","flightCategory":"VFR","rawOb":"METAR SBPV 181700Z 32004KT 9999 SCT015 SCT030 29/24 Q1011","temp":29,"dewp":24,"wdir":320,"wspd":4,"visib":"6+","altim":1011,"clouds":[{"cover":"SCT","base":1500},{"cover":"SCT","base":3000}],"obsTime":1773853200},"SBFI":{"icaoId":"SBFI","flightCategory":"MVFR","rawOb":"METAR SBFI 181700Z 02005KT 9999 BKN030 29/23 Q1010","temp":29,"dewp":23,"wdir":20,"wspd":5,"visib":"6+","altim":1010,"clouds":[{"cover":"BKN","base":3000}],"obsTime":1773853200},"SBPJ":{"icaoId":"SBPJ","flightCategory":"MVFR","rawOb":"METAR SBPJ 181700Z 27004KT 9999 BKN025 FEW030TCU 32/23 Q1010","temp":32,"dewp":23,"wdir":270,"wspd":4,"visib":"6+","altim":1010,"clouds":[{"cover":"BKN","base":2500},{"cover":"FEW","base":3000}],"obsTime":1773853200},"SBFL":{"icaoId":"SBFL","flightCategory":"VFR","rawOb":"METAR SBFL 181700Z 36011KT 330V030 9999 FEW020 SCT050 28/23 Q1009","temp":28,"dewp":23,"wdir":360,"wspd":11,"visib":"6+","altim":1009,"clouds":[{"cover":"FEW","base":2000},{"cover":"SCT","base":5000}],"obsTime":1773853200},"SBFZ":{"icaoId":"SBFZ","flightCategory":"MVFR","rawOb":"METAR SBFZ 181700Z 13007KT 9999 BKN020 FEW025TCU BKN080 26/25 Q1009","temp":26,"dewp":25,"wdir":130,"wspd":7,"visib":"6+","altim":1009,"clouds":[{"cover":"BKN","base":2000},{"cover":"FEW","base":2500},{"cover":"BKN","base":8000}],"obsTime":1773853200},"SBPA":{"icaoId":"SBPA","flightCategory":"VFR","rawOb":"METAR SBPA 181700Z 23006KT 190V310 9999 SCT030 FEW040TCU BKN090 30/23 Q1008","temp":30,"dewp":23,"wdir":230,"wspd":6,"visib":"6+","altim":1008,"clouds":[{"cover":"SCT","base":3000},{"cover":"FEW","base":4000},{"cover":"BKN","base":9000}],"obsTime":1773853200},"SBNT":{"icaoId":"SBNT","flightCategory":"VFR","rawOb":"METAR SBNT 181700Z 12012KT 080V140 9999 SCT030 31/24 Q1009","temp":31,"dewp":24,"wdir":120,"wspd":12,"visib":"6+","altim":1009,"clouds":[{"cover":"SCT","base":3000}],"obsTime":1773853200},"SBGL":{"icaoId":"SBGL","flightCategory":"VFR","rawOb":"METAR SBGL 181700Z 13010KT 9999 FEW030 30/22 Q1009","temp":30,"dewp":22,"wdir":130,"wspd":10,"visib":"6+","altim":1009,"clouds":[{"cover":"FEW","base":3000}],"obsTime":1773853200},"SBGO":{"icaoId":"SBGO","flightCategory":"VFR","rawOb":"METAR SBGO 181700Z 32005KT 9999 SCT040 FEW045TCU 29/21 Q1013","temp":29,"dewp":21,"wdir":320,"wspd":5,"visib":"6+","altim":1013,"clouds":[{"cover":"SCT","base":4000},{"cover":"FEW","base":4500}],"obsTime":1773853200},"SBMQ":{"icaoId":"SBMQ","flightCategory":"MVFR","rawOb":"METAR SBMQ 181700Z 08007KT 9999 BKN017 SCT025 BKN054 28/24 Q1010","temp":28,"dewp":24,"wdir":80,"wspd":7,"visib":"6+","altim":1010,"clouds":[{"cover":"BKN","base":1700},{"cover":"SCT","base":2500},{"cover":"BKN","base":5400}],"obsTime":1773853200},"SBMO":{"icaoId":"SBMO","flightCategory":"VFR","rawOb":"METAR SBMO 181700Z 13013KT 100V160 9999 VCSH SCT030 FEW033TCU 31/23 Q1010","temp":31,"dewp":23,"wdir":130,"wspd":13,"visib":"6+","altim":1010,"clouds":[{"cover":"SCT","base":3000},{"cover":"FEW","base":3300}],"obsTime":1773853200},"SBMK":{"icaoId":"SBMK","flightCategory":"VFR","rawOb":"METAR SBMK 181700Z 04006KT 9999 SCT040 FEW045TCU 31/22 Q1012","temp":31,"dewp":22,"wdir":40,"wspd":6,"visib":"6+","altim":1012,"clouds":[{"cover":"SCT","base":4000},{"cover":"FEW","base":4500}],"obsTime":1773853200},"SBHT":{"icaoId":"SBHT","flightCategory":"MVFR","rawOb":"METAR SBHT 181700Z 10005KT 9999 BKN025 FEW030TCU BKN100 30/24 Q1010","temp":30,"dewp":24,"wdir":100,"wspd":5,"visib":"6+","altim":1010,"clouds":[{"cover":"BKN","base":2500},{"cover":"FEW","base":3000},{"cover":"BKN","base":10000}],"obsTime":1773853200},"SBIL":{"icaoId":"SBIL","flightCategory":"VFR","rawOb":"METAR SBIL 181700Z 09010KT 9999 FEW023 31/24 Q1011","temp":31,"dewp":24,"wdir":90,"wspd":10,"visib":"6+","altim":1011,"clouds":[{"cover":"FEW","base":2300}],"obsTime":1773853200},"SBME":{"icaoId":"SBME","flightCategory":"VFR","rawOb":"METAR SBME 181700Z 15010KT 9999 FEW030 31/23 Q1009","temp":31,"dewp":23,"wdir":150,"wspd":10,"visib":"6+","altim":1009,"clouds":[{"cover":"FEW","base":3000}],"obsTime":1773853200},"SBJU":{"icaoId":"SBJU","flightCategory":"MVFR","rawOb":"METAR SBJU 181700Z 09006KT 9999 BKN022 30/24 Q1011","temp":30,"dewp":24,"wdir":90,"wspd":6,"visib":"6+","altim":1011,"clouds":[{"cover":"BKN","base":2200}],"obsTime":1773853200},"SBKP":{"icaoId":"SBKP","flightCategory":"VFR","rawOb":"METAR SBKP 181700Z VRB01KT 9999 FEW040 FEW045TCU 30/21 Q1012","temp":30,"dewp":21,"wdir":"VRB","wspd":1,"visib":"6+","altim":1012,"clouds":[{"cover":"FEW","base":4000},{"cover":"FEW","base":4500}],"obsTime":1773853200},"SBMA":{"icaoId":"SBMA","flightCategory":"VFR","rawOb":"METAR SBMA 181700Z 16006KT 9999 VCSH SCT020 SCT023TCU BKN100 30/24 Q1009","temp":30,"dewp":24,"wdir":160,"wspd":6,"visib":"6+","altim":1009,"clouds":[{"cover":"SCT","base":2000},{"cover":"SCT","base":2300},{"cover":"BKN","base":10000}],"obsTime":1773853200},"SBMG":{"icaoId":"SBMG","flightCategory":"VFR","rawOb":"METAR SBMG 181700Z 28006KT 220V020 9999 VCSH FEW030TCU BKN035 30/22 Q1011","temp":30,"dewp":22,"wdir":280,"wspd":6,"visib":"6+","altim":1011,"clouds":[{"cover":"FEW","base":3000},{"cover":"BKN","base":3500}],"obsTime":1773853200},"SBAT":{"icaoId":"SBAT","flightCategory":"MVFR","rawOb":"METAR SBAT 181700Z 20001KT 9999 BKN030 FEW035TCU 32/23 Q1011","temp":32,"dewp":23,"wdir":200,"wspd":1,"visib":"6+","altim":1011,"clouds":[{"cover":"BKN","base":3000},{"cover":"FEW","base":3500}],"obsTime":1773853200},"SBVT":{"icaoId":"SBVT","flightCategory":"VFR","rawOb":"METAR SBVT 181700Z 07011KT 9999 FEW040 31/24 Q1009","temp":31,"dewp":24,"wdir":70,"wspd":11,"visib":"6+","altim":1009,"clouds":[{"cover":"FEW","base":4000}],"obsTime":1773853200},"SBBE":{"icaoId":"SBBE","flightCategory":"MVFR","rawOb":"METAR SBBE 181700Z 12004KT 9999 BKN030 FEW035TCU 30/24 Q1009","temp":30,"dewp":24,"wdir":120,"wspd":4,"visib":"6+","altim":1009,"clouds":[{"cover":"BKN","base":3000},{"cover":"FEW","base":3500}],"obsTime":1773853200},"SBBR":{"icaoId":"SBBR","flightCategory":"MVFR","rawOb":"METAR SBBR 181700Z 29006KT 9999 4000NW VCSH BKN030 FEW040TCU BKN100 23/20 Q1016","temp":23,"dewp":20,"wdir":290,"wspd":6,"visib":"6+","altim":1016,"clouds":[{"cover":"BKN","base":3000},{"cover":"FEW","base":4000},{"cover":"BKN","base":10000}],"obsTime":1773853200},"SBUR":{"icaoId":"SBUR","flightCategory":"VFR","rawOb":"METAR SBUR 181700Z 34005KT 9999 FEW032 27/20 Q1013","temp":27,"dewp":20,"wdir":340,"wspd":5,"visib":"6+","altim":1013,"clouds":[{"cover":"FEW","base":3200}],"obsTime":1773853200},"SBUL":{"icaoId":"SBUL","flightCategory":"VFR","rawOb":"METAR SBUL 181700Z 05011KT 9999 SCT030 27/19 Q1014","temp":27,"dewp":19,"wdir":50,"wspd":11,"visib":"6+","altim":1014,"clouds":[{"cover":"SCT","base":3000}],"obsTime":1773853200},"SBAR":{"icaoId":"SBAR","flightCategory":"VFR","rawOb":"METAR SBAR 181700Z 12008KT 9999 FEW023 BKN080 30/23 Q1010","temp":30,"dewp":23,"wdir":120,"wspd":8,"visib":"6+","altim":1010,"clouds":[{"cover":"FEW","base":2300},{"cover":"BKN","base":8000}],"obsTime":1773853200},"SBAX":{"icaoId":"SBAX","flightCategory":"VFR","rawOb":"METAR SBAX 181700Z AUTO 35011KT 320V020 9999 SCT026 27/20 Q1014","temp":27,"dewp":20,"wdir":350,"wspd":11,"visib":"6+","altim":1014,"clouds":[{"cover":"SCT","base":2600}],"obsTime":1773853200},"SBBH":{"icaoId":"SBBH","flightCategory":"VFR","rawOb":"METAR SBBH 181700Z 35003KT 9999 SCT035 FEW040TCU 27/21 Q1014","temp":27,"dewp":21,"wdir":350,"wspd":3,"visib":"6+","altim":1014,"clouds":[{"cover":"SCT","base":3500},{"cover":"FEW","base":4000}],"obsTime":1773853200},"SBBQ":{"icaoId":"SBBQ","flightCategory":"VFR","rawOb":"METAR SBBQ 181700Z 25003KT 9999 BKN035 FEW040TCU 27/15 Q1016","temp":27,"dewp":15,"wdir":250,"wspd":3,"visib":"6+","altim":1016,"clouds":[{"cover":"BKN","base":3500},{"cover":"FEW","base":4000}],"obsTime":1773853200},"SBBU":{"icaoId":"SBBU","flightCategory":"MVFR","rawOb":"METAR SBBU 181700Z 03002KT 9999 BKN030 29/23 Q1012","temp":29,"dewp":23,"wdir":30,"wspd":2,"visib":"6+","altim":1012,"clouds":[{"cover":"BKN","base":3000}],"obsTime":1773853200},"SBCA":{"icaoId":"SBCA","flightCategory":"MVFR","rawOb":"METAR SBCA 181700Z 36008KT 310V030 9999 BKN025 BKN070 27/18 Q1014","temp":27,"dewp":18,"wdir":360,"wspd":8,"visib":"6+","altim":1014,"clouds":[{"cover":"BKN","base":2500},{"cover":"BKN","base":7000}],"obsTime":1773853200},"SBCC":{"icaoId":"SBCC","flightCategory":"MVFR","rawOb":"METAR SBCC 181700Z 03006KT 9999 BKN030 29/20 Q1012","temp":29,"dewp":20,"wdir":30,"wspd":6,"visib":"6+","altim":1012,"clouds":[{"cover":"BKN","base":3000}],"obsTime":1773853200},"SBCJ":{"icaoId":"SBCJ","flightCategory":"MVFR","rawOb":"METAR SBCJ 181700Z 04003KT 9999 BKN021 27/22 Q1014","temp":27,"dewp":22,"wdir":40,"wspd":3,"visib":"6+","altim":1014,"clouds":[{"cover":"BKN","base":2100}],"obsTime":1773853200},"SBCO":{"icaoId":"SBCO","flightCategory":"VFR","rawOb":"METAR SBCO 181700Z 25006KT 210V300 9999 FEW025 FEW030TCU BKN100 31/23 Q1009","temp":31,"dewp":23,"wdir":250,"wspd":6,"visib":"6+","altim":1009,"clouds":[{"cover":"FEW","base":2500},{"cover":"FEW","base":3000},{"cover":"BKN","base":10000}],"obsTime":1773853200},"SBDN":{"icaoId":"SBDN","flightCategory":"MVFR","rawOb":"METAR SBDN 181700Z 27005KT 9999 BKN030 31/22 Q1011","temp":31,"dewp":22,"wdir":270,"wspd":5,"visib":"6+","altim":1011,"clouds":[{"cover":"BKN","base":3000}],"obsTime":1773853200},"SBES":{"icaoId":"SBES","flightCategory":"VFR","rawOb":"METAR SBES 181700Z VRB08KT 9999 SCT025 28/// Q1010","temp":null,"dewp":null,"wdir":"VRB","wspd":8,"visib":"6+","altim":1010,"clouds":[{"cover":"SCT","base":2500}],"obsTime":1773853200},"SBGM":{"icaoId":"SBGM","flightCategory":"MVFR","rawOb":"METAR SBGM 181700Z 23008KT 9999 SCT020 OVC026 29/20 Q1011","temp":29,"dewp":20,"wdir":230,"wspd":8,"visib":"6+","altim":1011,"clouds":[{"cover":"SCT","base":2000},{"cover":"OVC","base":2600}],"obsTime":1773853200},"SBIP":{"icaoId":"SBIP","flightCategory":"VFR","rawOb":"METAR SBIP 181700Z AUTO 02005KT 330V070 CAVOK 32/22 Q1010","temp":32,"dewp":22,"wdir":20,"wspd":5,"visib":"6+","altim":1010,"clouds":[],"obsTime":1773853200},"SBKG":{"icaoId":"SBKG","flightCategory":"VFR","rawOb":"METAR SBKG 181700Z 08008KT 9999 SCT030 30/19 Q1011","temp":30,"dewp":19,"wdir":80,"wspd":8,"visib":"6+","altim":1011,"clouds":[{"cover":"SCT","base":3000}],"obsTime":1773853200},"SBOI":{"icaoId":"SBOI","flightCategory":"MVFR","rawOb":"METAR SBOI 181700Z AUTO 01009KT 9999 -RA OVC028 28/25 Q1011","temp":28,"dewp":25,"wdir":10,"wspd":9,"visib":"6+","altim":1011,"clouds":[{"cover":"OVC","base":2800}],"obsTime":1773853200},"SBPB":{"icaoId":"SBPB","flightCategory":"VFR","rawOb":"METAR SBPB 181700Z 02012KT 9999 SCT016 FEW025TCU 30/25 Q1008","temp":30,"dewp":25,"wdir":20,"wspd":12,"visib":"6+","altim":1008,"clouds":[{"cover":"SCT","base":1600},{"cover":"FEW","base":2500}],"obsTime":1773853200},"SBPL":{"icaoId":"SBPL","flightCategory":"MVFR","rawOb":"METAR SBPL 181700Z 13009KT 9999 BKN030 32/20 Q1010","temp":32,"dewp":20,"wdir":130,"wspd":9,"visib":"6+","altim":1010,"clouds":[{"cover":"BKN","base":3000}],"obsTime":1773853200},"SBPP":{"icaoId":"SBPP","flightCategory":"VFR","rawOb":"METAR SBPP 181700Z 27006KT 9000 -RA SCT009 OVC070 22/20 Q1013","temp":22,"dewp":20,"wdir":270,"wspd":6,"visib":5.59,"altim":1013,"clouds":[{"cover":"SCT","base":900},{"cover":"OVC","base":7000}],"obsTime":1773853200},"SBPS":{"icaoId":"SBPS","flightCategory":"VFR","rawOb":"METAR SBPS 181700Z 08011KT 9999 VCSH SCT025 FEW030TCU SCT080 29/25 Q1010","temp":29,"dewp":25,"wdir":80,"wspd":11,"visib":"6+","altim":1010,"clouds":[{"cover":"SCT","base":2500},{"cover":"FEW","base":3000},{"cover":"SCT","base":8000}],"obsTime":1773853200},"SBSC":{"icaoId":"SBSC","flightCategory":"VFR","rawOb":"METAR SBSC 181700Z 19007KT 9999 FEW030 29/22 Q1009","temp":29,"dewp":22,"wdir":190,"wspd":7,"visib":"6+","altim":1009,"clouds":[{"cover":"FEW","base":3000}],"obsTime":1773853200},"SBSJ":{"icaoId":"SBSJ","flightCategory":"VFR","rawOb":"METAR SBSJ 181700Z 18003KT 9999 FEW035 31/// Q1011","temp":null,"dewp":null,"wdir":180,"wspd":3,"visib":"6+","altim":1011,"clouds":[{"cover":"FEW","base":3500}],"obsTime":1773853200},"SBSM":{"icaoId":"SBSM","flightCategory":"MVFR","rawOb":"METAR SBSM 181700Z 24005KT 180V330 9999 FEW013 BKN017 BKN030 28/23 Q1010","temp":28,"dewp":23,"wdir":240,"wspd":5,"visib":"6+","altim":1010,"clouds":[{"cover":"FEW","base":1300},{"cover":"BKN","base":1700},{"cover":"BKN","base":3000}],"obsTime":1773853200},"SBSR":{"icaoId":"SBSR","flightCategory":"MVFR","rawOb":"METAR SBSR 181700Z 03008KT 9999 BKN020 SCT070 29/20 Q1011","temp":29,"dewp":20,"wdir":30,"wspd":8,"visib":"6+","altim":1011,"clouds":[{"cover":"BKN","base":2000},{"cover":"SCT","base":7000}],"obsTime":1773853200},"SBTF":{"icaoId":"SBTF","flightCategory":"VFR","rawOb":"METAR SBTF 181700Z 05004KT 9999 SCT015 SCT025TCU 32/27 Q1009","temp":32,"dewp":27,"wdir":50,"wspd":4,"visib":"6+","altim":1009,"clouds":[{"cover":"SCT","base":1500},{"cover":"SCT","base":2500}],"obsTime":1773853200},"SBTT":{"icaoId":"SBTT","flightCategory":"IFR","rawOb":"METAR SBTT 181700Z 08006KT 4000 -RA BR FEW020 OVC060 23/20 Q1012","temp":23,"dewp":20,"wdir":80,"wspd":6,"visib":2.49,"altim":1012,"clouds":[{"cover":"FEW","base":2000},{"cover":"OVC","base":6000}],"obsTime":1773853200},"SBUY":{"icaoId":"SBUY","flightCategory":"VFR","rawOb":"METAR SBUY 181700Z 15002KT 9999 SCT020 FEW035TCU SCT100 30/25 Q1009","temp":30,"dewp":25,"wdir":150,"wspd":2,"visib":"6+","altim":1009,"clouds":[{"cover":"SCT","base":2000},{"cover":"FEW","base":3500},{"cover":"SCT","base":10000}],"obsTime":1773853200},"SBVH":{"icaoId":"SBVH","flightCategory":"MVFR","rawOb":"METAR SBVH 181700Z 02006KT 9999 4000SE -RA BKN020 BKN030 FEW040TCU 25/23 Q1014","temp":25,"dewp":23,"wdir":20,"wspd":6,"visib":"6+","altim":1014,"clouds":[{"cover":"BKN","base":2000},{"cover":"BKN","base":3000},{"cover":"FEW","base":4000}],"obsTime":1773853200},"SBAU":{"icaoId":"SBAU","flightCategory":"VFR","rawOb":"METAR SBAU 181700Z 33006KT 9999 SCT035 FEW050TCU 31/20 Q1010","temp":31,"dewp":20,"wdir":330,"wspd":6,"visib":"6+","altim":1010,"clouds":[{"cover":"SCT","base":3500},{"cover":"FEW","base":5000}],"obsTime":1773853200},"SBJV":{"icaoId":"SBJV","flightCategory":"VFR","rawOb":"METAR SBJV 181700Z 06006KT 9999 SCT025 BKN080 29/23 Q1009","temp":29,"dewp":23,"wdir":60,"wspd":6,"visib":"6+","altim":1009,"clouds":[{"cover":"SCT","base":2500},{"cover":"BKN","base":8000}],"obsTime":1773853200},"SBIH":{"icaoId":"SBIH","flightCategory":"VFR","rawOb":"METAR SBIH 181700Z 04005KT 9999 SCT016 BKN080 28/25 Q1010","temp":28,"dewp":25,"wdir":40,"wspd":5,"visib":"6+","altim":1010,"clouds":[{"cover":"SCT","base":1600},{"cover":"BKN","base":8000}],"obsTime":1773853200},"SBLE":{"icaoId":"SBLE","flightCategory":"VFR","rawOb":"METAR SBLE 181700Z AUTO VRB03KT CAVOK 31/19 Q1012","temp":31,"dewp":19,"wdir":"VRB","wspd":3,"visib":"6+","altim":1012,"clouds":[],"obsTime":1773853200},"SBAF":{"icaoId":"SBAF","flightCategory":"VFR","rawOb":"METAR SBAF 181700Z 19012KT 9999 FEW030 30/23 Q1009","temp":30,"dewp":23,"wdir":190,"wspd":12,"visib":"6+","altim":1009,"clouds":[{"cover":"FEW","base":3000}],"obsTime":1773853200},"SBLS":{"icaoId":"SBLS","flightCategory":"VFR","rawOb":"METAR SBLS 181700Z 00000KT 9999 VCSH SCT025 FEW030TCU BKN080 24/20 Q1014 RERA","temp":24,"dewp":20,"wdir":0,"wspd":0,"visib":"6+","altim":1014,"clouds":[{"cover":"SCT","base":2500},{"cover":"FEW","base":3000},{"cover":"BKN","base":8000}],"obsTime":1773853200},"SBJP":{"icaoId":"SBJP","flightCategory":"VFR","rawOb":"METAR SBJP 181700Z 11013KT 9999 SCT033 31/23 Q1009","temp":31,"dewp":23,"wdir":110,"wspd":13,"visib":"6+","altim":1009,"clouds":[{"cover":"SCT","base":3300}],"obsTime":1773853200},"SBMT":{"icaoId":"SBMT","flightCategory":"VFR","rawOb":"METAR SBMT 181700Z 23005KT 9999 BKN040 FEW045TCU 29/18 Q1012","temp":29,"dewp":18,"wdir":230,"wspd":5,"visib":"6+","altim":1012,"clouds":[{"cover":"BKN","base":4000},{"cover":"FEW","base":4500}],"obsTime":1773853200},"SBPF":{"icaoId":"SBPF","flightCategory":"VFR","rawOb":"METAR SBPF 181800Z 34005KT 9999 FEW030 28/19 Q1012","temp":28,"dewp":19,"wdir":340,"wspd":5,"visib":"6+","altim":1012,"clouds":[{"cover":"FEW","base":3000}],"obsTime":1773856800},"SBGW":{"icaoId":"SBGW","flightCategory":"VFR","rawOb":"METAR SBGW 181700Z 29003KT 9999 SCT030 32/18 Q1011","temp":32,"dewp":18,"wdir":290,"wspd":3,"visib":"6+","altim":1011,"clouds":[{"cover":"SCT","base":3000}],"obsTime":1773853200},"SBST":{"icaoId":"SBST","flightCategory":"VFR","rawOb":"METAR SBST 181700Z 14005KT 9000 FEW023 OVC031 27/23 Q1010","temp":27,"dewp":23,"wdir":140,"wspd":5,"visib":5.59,"altim":1010,"clouds":[{"cover":"FEW","base":2300},{"cover":"OVC","base":3100}],"obsTime":1773853200},"SBJR":{"icaoId":"SBJR","flightCategory":"VFR","rawOb":"METAR SBJR 181700Z 16008KT 9999 FEW020 31/22 Q1009","temp":31,"dewp":22,"wdir":160,"wspd":8,"visib":"6+","altim":1009,"clouds":[{"cover":"FEW","base":2000}],"obsTime":1773853200},"SBTA":{"icaoId":"SBTA","flightCategory":"VFR","rawOb":"METAR SBTA 181700Z VRB04KT 9999 SCT030 FEW035TCU 31/18 Q1010","temp":31,"dewp":18,"wdir":"VRB","wspd":4,"visib":"6+","altim":1010,"clouds":[{"cover":"SCT","base":3000},{"cover":"FEW","base":3500}],"obsTime":1773853200},"SBAN":{"icaoId":"SBAN","flightCategory":"MVFR","rawOb":"METAR SBAN 181700Z 02003KT 9999 VCSH BKN030 FEW035TCU 28/17 Q1016","temp":28,"dewp":17,"wdir":20,"wspd":3,"visib":"6+","altim":1016,"clouds":[{"cover":"BKN","base":3000},{"cover":"FEW","base":3500}],"obsTime":1773853200}}}