{"updated":1784050665,"count":88,"data":{"SBVT":{"icaoId":"SBVT","flightCategory":"VFR","rawOb":"METAR SBVT 141600Z 22017KT 9999 FEW045 24/13 Q1021","temp":24,"dewp":13,"wdir":220,"wspd":17,"visib":"6+","altim":1021,"clouds":[{"cover":"FEW","base":4500}],"obsTime":1784044800},"SBCT":{"icaoId":"SBCT","flightCategory":"MVFR","rawOb":"METAR SBCT 141600Z 07007KT 8000 -DZ SCT005 BKN011 BKN020 12/10 Q1026","temp":12,"dewp":10,"wdir":70,"wspd":7,"visib":4.97,"altim":1026,"clouds":[{"cover":"SCT","base":500},{"cover":"BKN","base":1100},{"cover":"BKN","base":2000}],"obsTime":1784044800},"SBGL":{"icaoId":"SBGL","flightCategory":"VFR","rawOb":"METAR SBGL 141600Z 29003KT 9999 SCT020 SCT070 21/15 Q1023","temp":21,"dewp":15,"wdir":290,"wspd":3,"visib":"6+","altim":1023,"clouds":[{"cover":"SCT","base":2000},{"cover":"SCT","base":7000}],"obsTime":1784044800},"SBPV":{"icaoId":"SBPV","flightCategory":"VFR","rawOb":"METAR SBPV 141600Z VRB02KT 9999 BKN035 30/22 Q1014","temp":30,"dewp":22,"wdir":"VRB","wspd":2,"visib":"6+","altim":1014,"clouds":[{"cover":"BKN","base":3500}],"obsTime":1784044800},"SBMQ":{"icaoId":"SBMQ","flightCategory":"VFR","rawOb":"METAR SBMQ 141600Z 06011KT 9999 VCSH SCT026 FEW030TCU 31/25 Q1014","temp":31,"dewp":25,"wdir":60,"wspd":11,"visib":"6+","altim":1014,"clouds":[{"cover":"SCT","base":2600},{"cover":"FEW","base":3000}],"obsTime":1784044800},"SBCB":{"icaoId":"SBCB","flightCategory":"MVFR","rawOb":"METAR SBCB 141600Z 29006KT 9000 BKN015 BKN040 20/17 Q1023","temp":20,"dewp":17,"wdir":290,"wspd":6,"visib":5.59,"altim":1023,"clouds":[{"cover":"BKN","base":1500},{"cover":"BKN","base":4000}],"obsTime":1784044800},"SBGR":{"icaoId":"SBGR","flightCategory":"MVFR","rawOb":"METAR SBGR 141600Z 07011KT 9999 BKN026 17/10 Q1024","temp":17,"dewp":10,"wdir":70,"wspd":11,"visib":"6+","altim":1024,"clouds":[{"cover":"BKN","base":2600}],"obsTime":1784044800},"SBKP":{"icaoId":"SBKP","flightCategory":"VFR","rawOb":"METAR SBKP 141600Z 13012KT 9999 FEW030 19/10 Q1023","temp":19,"dewp":10,"wdir":130,"wspd":12,"visib":"6+","altim":1023,"clouds":[{"cover":"FEW","base":3000}],"obsTime":1784044800},"SBMA":{"icaoId":"SBMA","flightCategory":"MVFR","rawOb":"METAR SBMA 141600Z 36004KT 9999 BKN020 FEW025TCU BKN100 30/23 Q1014","temp":30,"dewp":23,"wdir":360,"wspd":4,"visib":"6+","altim":1014,"clouds":[{"cover":"BKN","base":2000},{"cover":"FEW","base":2500},{"cover":"BKN","base":10000}],"obsTime":1784044800},"SBTE":{"icaoId":"SBTE","flightCategory":"MVFR","rawOb":"METAR SBTE 141600Z 31005KT 210V010 9999 BKN030 32/23 Q1013","temp":32,"dewp":23,"wdir":310,"wspd":5,"visib":"6+","altim":1013,"clouds":[{"cover":"BKN","base":3000}],"obsTime":1784044800},"SBCR":{"icaoId":"SBCR","flightCategory":"VFR","rawOb":"METAR SBCR 141600Z 08010KT 050V120 CAVOK 26/12 Q1017","temp":26,"dewp":12,"wdir":80,"wspd":10,"visib":"6+","altim":1017,"clouds":[],"obsTime":1784044800},"SBFL":{"icaoId":"SBFL","flightCategory":"VFR","rawOb":"METAR SBFL 141600Z 28005KT 9999 SCT040 BKN070 19/13 Q1025","temp":19,"dewp":13,"wdir":280,"wspd":5,"visib":"6+","altim":1025,"clouds":[{"cover":"SCT","base":4000},{"cover":"BKN","base":7000}],"obsTime":1784044800},"SBPJ":{"icaoId":"SBPJ","flightCategory":"VFR","rawOb":"METAR SBPJ 141600Z 26006KT 220V290 9999 FEW035 33/21 Q1014","temp":33,"dewp":21,"wdir":260,"wspd":6,"visib":"6+","altim":1014,"clouds":[{"cover":"FEW","base":3500}],"obsTime":1784044800},"SBRF":{"icaoId":"SBRF","flightCategory":"VFR","rawOb":"METAR SBRF 141600Z 05007KT 9999 FEW023 30/22 Q1014","temp":30,"dewp":22,"wdir":50,"wspd":7,"visib":"6+","altim":1014,"clouds":[{"cover":"FEW","base":2300}],"obsTime":1784044800},"SBCZ":{"icaoId":"SBCZ","flightCategory":"IFR","rawOb":"METAR SBCZ 141600Z 09007KT 9999 OVC008 24/23 Q1017","temp":24,"dewp":23,"wdir":90,"wspd":7,"visib":"6+","altim":1017,"clouds":[{"cover":"OVC","base":800}],"obsTime":1784044800},"SBNT":{"icaoId":"SBNT","flightCategory":"VFR","rawOb":"METAR SBNT 141600Z 10009KT 060V130 9999 SCT021 29/22 Q1015","temp":29,"dewp":22,"wdir":100,"wspd":9,"visib":"6+","altim":1015,"clouds":[{"cover":"SCT","base":2100}],"obsTime":1784044800},"SBMO":{"icaoId":"SBMO","flightCategory":"VFR","rawOb":"METAR SBMO 141600Z 05006KT 9999 SCT030 31/22 Q1015","temp":31,"dewp":22,"wdir":50,"wspd":6,"visib":"6+","altim":1015,"clouds":[{"cover":"SCT","base":3000}],"obsTime":1784044800},"SBBE":{"icaoId":"SBBE","flightCategory":"VFR","rawOb":"METAR SBBE 141600Z 04005KT 9999 BKN040 31/24 Q1014","temp":31,"dewp":24,"wdir":40,"wspd":5,"visib":"6+","altim":1014,"clouds":[{"cover":"BKN","base":4000}],"obsTime":1784044800},"SBBR":{"icaoId":"SBBR","flightCategory":"VFR","rawOb":"METAR SBBR 141600Z 15005KT 080V210 CAVOK 26/12 Q1022","temp":26,"dewp":12,"wdir":150,"wspd":5,"visib":"6+","altim":1022,"clouds":[],"obsTime":1784044800},"SBEG":{"icaoId":"SBEG","flightCategory":"VFR","rawOb":"METAR SBEG 141600Z 22004KT 9999 SCT025 30/27 Q1014","temp":30,"dewp":27,"wdir":220,"wspd":4,"visib":"6+","altim":1014,"clouds":[{"cover":"SCT","base":2500}],"obsTime":1784044800},"SBFZ":{"icaoId":"SBFZ","flightCategory":"MVFR","rawOb":"METAR SBFZ 141600Z 08010KT 9999 BKN025 SCT060 29/23 Q1014","temp":29,"dewp":23,"wdir":80,"wspd":10,"visib":"6+","altim":1014,"clouds":[{"cover":"BKN","base":2500},{"cover":"SCT","base":6000}],"obsTime":1784044800},"SBLO":{"icaoId":"SBLO","flightCategory":"VFR","rawOb":"METAR SBLO 141600Z 09011KT 050V110 9999 FEW020 19/10 Q1022","temp":19,"dewp":10,"wdir":90,"wspd":11,"visib":"6+","altim":1022,"clouds":[{"cover":"FEW","base":2000}],"obsTime":1784044800},"SBCF":{"icaoId":"SBCF","flightCategory":"VFR","rawOb":"METAR SBCF 141600Z 11010KT 9999 FEW030 22/10 Q1023","temp":22,"dewp":10,"wdir":110,"wspd":10,"visib":"6+","altim":1023,"clouds":[{"cover":"FEW","base":3000}],"obsTime":1784044800},"SBRB":{"icaoId":"SBRB","flightCategory":"VFR","rawOb":"METAR SBRB 141600Z 06005KT 9999 SCT024 28/22 Q1017","temp":28,"dewp":22,"wdir":60,"wspd":5,"visib":"6+","altim":1017,"clouds":[{"cover":"SCT","base":2400}],"obsTime":1784044800},"SBBV":{"icaoId":"SBBV","flightCategory":"MVFR","rawOb":"METAR SBBV 141600Z 09014KT 9999 BKN022 31/23 Q1014","temp":31,"dewp":23,"wdir":90,"wspd":14,"visib":"6+","altim":1014,"clouds":[{"cover":"BKN","base":2200}],"obsTime":1784044800},"SBSP":{"icaoId":"SBSP","flightCategory":"MVFR","rawOb":"METAR SBSP 141600Z 12008KT 070V150 9999 BKN026 16/10 Q1025","temp":16,"dewp":10,"wdir":120,"wspd":8,"visib":"6+","altim":1025,"clouds":[{"cover":"BKN","base":2600}],"obsTime":1784044800},"SBSL":{"icaoId":"SBSL","flightCategory":"MVFR","rawOb":"METAR SBSL 141600Z 03014KT 9999 BKN020 FEW025TCU 29/24 Q1014","temp":29,"dewp":24,"wdir":30,"wspd":14,"visib":"6+","altim":1014,"clouds":[{"cover":"BKN","base":2000},{"cover":"FEW","base":2500}],"obsTime":1784044800},"SBGO":{"icaoId":"SBGO","flightCategory":"VFR","rawOb":"METAR SBGO 141600Z COR 14007KT CAVOK 27/10 Q1020","temp":27,"dewp":10,"wdir":140,"wspd":7,"visib":"6+","altim":1020,"clouds":[],"obsTime":1784044800},"SBFI":{"icaoId":"SBFI","flightCategory":"VFR","rawOb":"METAR SBFI 141600Z 08005KT CAVOK 19/11 Q1021","temp":19,"dewp":11,"wdir":80,"wspd":5,"visib":"6+","altim":1021,"clouds":[],"obsTime":1784044800},"SBHT":{"icaoId":"SBHT","flightCategory":"MVFR","rawOb":"METAR SBHT 141600Z 09006KT 9999 BKN030 31/26 Q1014","temp":31,"dewp":26,"wdir":90,"wspd":6,"visib":"6+","altim":1014,"clouds":[{"cover":"BKN","base":3000}],"obsTime":1784044800},"SBME":{"icaoId":"SBME","flightCategory":"VFR","rawOb":"METAR SBME 141600Z 19008KT 160V300 9999 FEW035 23/13 Q1023","temp":23,"dewp":13,"wdir":190,"wspd":8,"visib":"6+","altim":1023,"clouds":[{"cover":"FEW","base":3500}],"obsTime":1784044800},"SBMK":{"icaoId":"SBMK","flightCategory":"VFR","rawOb":"METAR SBMK 141600Z 08005KT 9999 BKN040 28/16 Q1019","temp":28,"dewp":16,"wdir":80,"wspd":5,"visib":"6+","altim":1019,"clouds":[{"cover":"BKN","base":4000}],"obsTime":1784044800},"SBUL":{"icaoId":"SBUL","flightCategory":"VFR","rawOb":"METAR SBUL 141600Z 30002KT CAVOK 23/05 Q1022","temp":23,"dewp":5,"wdir":300,"wspd":2,"visib":"6+","altim":1022,"clouds":[],"obsTime":1784044800},"SBUR":{"icaoId":"SBUR","flightCategory":"VFR","rawOb":"METAR SBUR 141600Z 07005KT CAVOK 23/07 Q1021","temp":23,"dewp":7,"wdir":70,"wspd":5,"visib":"6+","altim":1021,"clouds":[],"obsTime":1784044800},"SBMG":{"icaoId":"SBMG","flightCategory":"VFR","rawOb":"METAR SBMG 141600Z 08012KT CAVOK 19/09 Q1021","temp":19,"dewp":9,"wdir":80,"wspd":12,"visib":"6+","altim":1021,"clouds":[],"obsTime":1784044800},"SBIL":{"icaoId":"SBIL","flightCategory":"VFR","rawOb":"METAR SBIL 141600Z 22011KT 9999 SCT020 BKN070 26/22 Q1018","temp":26,"dewp":22,"wdir":220,"wspd":11,"visib":"6+","altim":1018,"clouds":[{"cover":"SCT","base":2000},{"cover":"BKN","base":7000}],"obsTime":1784044800},"SBJU":{"icaoId":"SBJU","flightCategory":"VFR","rawOb":"METAR SBJU 141600Z 22003KT 9999 SCT021 30/19 Q1016","temp":30,"dewp":19,"wdir":220,"wspd":3,"visib":"6+","altim":1016,"clouds":[{"cover":"SCT","base":2100}],"obsTime":1784044800},"SBAT":{"icaoId":"SBAT","flightCategory":"VFR","rawOb":"METAR SBAT 141600Z 12005KT 9999 SCT035 33/22 Q1015","temp":33,"dewp":22,"wdir":120,"wspd":5,"visib":"6+","altim":1015,"clouds":[{"cover":"SCT","base":3500}],"obsTime":1784044800},"SBSG":{"icaoId":"SBSG","flightCategory":"MVFR","rawOb":"METAR SBSG 141600Z 09011KT 060V120 9999 VCSH BKN030 29/22 Q1015","temp":29,"dewp":22,"wdir":90,"wspd":11,"visib":"6+","altim":1015,"clouds":[{"cover":"BKN","base":3000}],"obsTime":1784044800},"SBSV":{"icaoId":"SBSV","flightCategory":"VFR","rawOb":"METAR SBSV 141600Z 08008KT 9999 SCT021 BKN060 28/23 Q1016","temp":28,"dewp":23,"wdir":80,"wspd":8,"visib":"6+","altim":1016,"clouds":[{"cover":"SCT","base":2100},{"cover":"BKN","base":6000}],"obsTime":1784044800},"SBSN":{"icaoId":"SBSN","flightCategory":"VFR","rawOb":"METAR SBSN 141600Z 09013KT 9999 FEW020 FEW026TCU 31/25 Q1014","temp":31,"dewp":25,"wdir":90,"wspd":13,"visib":"6+","altim":1014,"clouds":[{"cover":"FEW","base":2000},{"cover":"FEW","base":2600}],"obsTime":1784044800},"SBCG":{"icaoId":"SBCG","flightCategory":"VFR","rawOb":"METAR SBCG 141600Z 07009KT CAVOK 23/11 Q1019","temp":23,"dewp":11,"wdir":70,"wspd":9,"visib":"6+","altim":1019,"clouds":[],"obsTime":1784044800},"SBPA":{"icaoId":"SBPA","flightCategory":"VFR","rawOb":"METAR SBPA 141600Z 24005KT 210V290 CAVOK 15/12 Q1022","temp":15,"dewp":12,"wdir":240,"wspd":5,"visib":"6+","altim":1022,"clouds":[],"obsTime":1784044800},"SBCP":{"icaoId":"SBCP","flightCategory":"VFR","rawOb":"METAR SBCP 141600Z 21012KT 9999 SCT025 23/14 Q1023","temp":23,"dewp":14,"wdir":210,"wspd":12,"visib":"6+","altim":1023,"clouds":[{"cover":"SCT","base":2500}],"obsTime":1784044800},"SBSC":{"icaoId":"SBSC","flightCategory":"MVFR","rawOb":"METAR SBSC 141600Z 12004KT 8000 SCT015 BKN025 BKN040 20/14 Q1024","temp":20,"dewp":14,"wdir":120,"wspd":4,"visib":4.97,"altim":1024,"clouds":[{"cover":"SCT","base":1500},{"cover":"BKN","base":2500},{"cover":"BKN","base":4000}],"obsTime":1784044800},"SBES":{"icaoId":"SBES","flightCategory":"VFR","rawOb":"METAR SBES 141600Z 22008KT 190V260 9999 VCSH SCT015 BKN045 18/// Q1023","temp":null,"dewp":null,"wdir":220,"wspd":8,"visib":"6+","altim":1023,"clouds":[{"cover":"SCT","base":1500},{"cover":"BKN","base":4500}],"obsTime":1784044800},"SBTU":{"icaoId":"SBTU","flightCategory":"VFR","rawOb":"METAR SBTU 141600Z AUTO 20008KT 9999 // FEW020/// SCT056/// BKN068/// 29/23 Q1016","temp":29,"dewp":23,"wdir":200,"wspd":8,"visib":"6+","altim":1016,"clouds":[{"cover":"FEW","base":2000},{"cover":"SCT","base":5600},{"cover":"BKN","base":6800}],"obsTime":1784044800},"SBPL":{"icaoId":"SBPL","flightCategory":"VFR","rawOb":"METAR SBPL 141600Z 12006KT 9999 SCT025 33/16 Q1015","temp":33,"dewp":16,"wdir":120,"wspd":6,"visib":"6+","altim":1015,"clouds":[{"cover":"SCT","base":2500}],"obsTime":1784044800},"SBPS":{"icaoId":"SBPS","flightCategory":"MVFR","rawOb":"METAR SBPS 141600Z VRB04KT 9999 OVC015 22/20 Q1019","temp":22,"dewp":20,"wdir":"VRB","wspd":4,"visib":"6+","altim":1019,"clouds":[{"cover":"OVC","base":1500}],"obsTime":1784044800},"SBPB":{"icaoId":"SBPB","flightCategory":"MVFR","rawOb":"METAR SBPB 141600Z 06010KT 9999 BKN020 30/24 Q1014","temp":30,"dewp":24,"wdir":60,"wspd":10,"visib":"6+","altim":1014,"clouds":[{"cover":"BKN","base":2000}],"obsTime":1784044800},"SBTT":{"icaoId":"SBTT","flightCategory":"MVFR","rawOb":"METAR SBTT 141600Z VRB02KT 8000 -RA FEW015 BKN030 FEW035TCU 26/24 Q1016","temp":26,"dewp":24,"wdir":"VRB","wspd":2,"visib":4.97,"altim":1016,"clouds":[{"cover":"FEW","base":1500},{"cover":"BKN","base":3000},{"cover":"FEW","base":3500}],"obsTime":1784044800},"SBSJ":{"icaoId":"SBSJ","flightCategory":"VFR","rawOb":"METAR SBSJ 141600Z VRB05KT 9999 BKN033 18/10 Q1024","temp":18,"dewp":10,"wdir":"VRB","wspd":5,"visib":"6+","altim":1024,"clouds":[{"cover":"BKN","base":3300}],"obsTime":1784044800},"SBUY":{"icaoId":"SBUY","flightCategory":"VFR","rawOb":"METAR SBUY 141600Z 15005KT CAVOK 30/23 Q1013","temp":30,"dewp":23,"wdir":150,"wspd":5,"visib":"6+","altim":1013,"clouds":[],"obsTime":1784044800},"SBCJ":{"icaoId":"SBCJ","flightCategory":"VFR","rawOb":"METAR SBCJ 141600Z 03005KT 9999 SCT006 BKN080 24/22 Q1018","temp":24,"dewp":22,"wdir":30,"wspd":5,"visib":"6+","altim":1018,"clouds":[{"cover":"SCT","base":600},{"cover":"BKN","base":8000}],"obsTime":1784044800},"SBPP":{"icaoId":"SBPP","flightCategory":"VFR","rawOb":"METAR SBPP 141600Z 07019KT CAVOK 19/10 Q1020","temp":19,"dewp":10,"wdir":70,"wspd":19,"visib":"6+","altim":1020,"clouds":[],"obsTime":1784044800},"SBGM":{"icaoId":"SBGM","flightCategory":"VFR","rawOb":"METAR SBGM 141600Z 10003KT 9999 SCT018 SCT020 30/17 Q1015","temp":30,"dewp":17,"wdir":100,"wspd":3,"visib":"6+","altim":1015,"clouds":[{"cover":"SCT","base":1800},{"cover":"SCT","base":2000}],"obsTime":1784044800},"SBVH":{"icaoId":"SBVH","flightCategory":"VFR","rawOb":"METAR SBVH 141600Z 09007KT 050V160 9999 SCT030 27/20 Q1018","temp":27,"dewp":20,"wdir":90,"wspd":7,"visib":"6+","altim":1018,"clouds":[{"cover":"SCT","base":3000}],"obsTime":1784044800},"SBAU":{"icaoId":"SBAU","flightCategory":"VFR","rawOb":"METAR SBAU 141600Z 10016KT CAVOK 21/08 Q1021","temp":21,"dewp":8,"wdir":100,"wspd":16,"visib":"6+","altim":1021,"clouds":[],"obsTime":1784044800},"SBAX":{"icaoId":"SBAX","flightCategory":"VFR","rawOb":"METAR SBAX 141600Z 12007KT CAVOK 20/08 Q1022","temp":20,"dewp":8,"wdir":120,"wspd":7,"visib":"6+","altim":1022,"clouds":[],"obsTime":1784044800},"SBBH":{"icaoId":"SBBH","flightCategory":"VFR","rawOb":"METAR SBBH 141600Z 12005KT 9999 FEW045 22/10 Q1022","temp":22,"dewp":10,"wdir":120,"wspd":5,"visib":"6+","altim":1022,"clouds":[{"cover":"FEW","base":4500}],"obsTime":1784044800},"SBBQ":{"icaoId":"SBBQ","flightCategory":"VFR","rawOb":"METAR SBBQ 141600Z 11009KT 070V140 9999 SCT035 17/07 Q1026","temp":17,"dewp":7,"wdir":110,"wspd":9,"visib":"6+","altim":1026,"clouds":[{"cover":"SCT","base":3500}],"obsTime":1784044800},"SBBU":{"icaoId":"SBBU","flightCategory":"VFR","rawOb":"METAR SBBU 141600Z 11013KT CAVOK 19/11 Q1022","temp":19,"dewp":11,"wdir":110,"wspd":13,"visib":"6+","altim":1022,"clouds":[],"obsTime":1784044800},"SBDN":{"icaoId":"SBDN","flightCategory":"VFR","rawOb":"METAR SBDN 141600Z 09009KT CAVOK 21/09 Q1021","temp":21,"dewp":9,"wdir":90,"wspd":9,"visib":"6+","altim":1021,"clouds":[],"obsTime":1784044800},"SBIP":{"icaoId":"SBIP","flightCategory":"VFR","rawOb":"METAR SBIP 141600Z AUTO VRB02KT CAVOK 22/13 Q1022","temp":22,"dewp":13,"wdir":"VRB","wspd":2,"visib":"6+","altim":1022,"clouds":[],"obsTime":1784044800},"SBOI":{"icaoId":"SBOI","flightCategory":"VFR","rawOb":"METAR SBOI 141600Z AUTO 07008KT 030V130 9999 FEW041 32/23 Q1014","temp":32,"dewp":23,"wdir":70,"wspd":8,"visib":"6+","altim":1014,"clouds":[{"cover":"FEW","base":4100}],"obsTime":1784044800},"SBSR":{"icaoId":"SBSR","flightCategory":"VFR","rawOb":"METAR SBSR 141600Z 13005KT CAVOK 20/07 Q1021","temp":20,"dewp":7,"wdir":130,"wspd":5,"visib":"6+","altim":1021,"clouds":[],"obsTime":1784044800},"SBCA":{"icaoId":"SBCA","flightCategory":"VFR","rawOb":"METAR SBCA 141700Z 04014KT CAVOK 18/05 Q1022","temp":18,"dewp":5,"wdir":40,"wspd":14,"visib":"6+","altim":1022,"clouds":[],"obsTime":1784048400},"SBCO":{"icaoId":"SBCO","flightCategory":"VFR","rawOb":"METAR SBCO 141600Z VRB02KT CAVOK 16/11 Q1023","temp":16,"dewp":11,"wdir":"VRB","wspd":2,"visib":"6+","altim":1023,"clouds":[],"obsTime":1784044800},"SBSM":{"icaoId":"SBSM","flightCategory":"VFR","rawOb":"METAR SBSM 141600Z 13005KT CAVOK 17/10 Q1021","temp":17,"dewp":10,"wdir":130,"wspd":5,"visib":"6+","altim":1021,"clouds":[],"obsTime":1784044800},"SBKG":{"icaoId":"SBKG","flightCategory":"MVFR","rawOb":"METAR SBKG 141600Z 12007KT 9999 BKN025 28/20 Q1017","temp":28,"dewp":20,"wdir":120,"wspd":7,"visib":"6+","altim":1017,"clouds":[{"cover":"BKN","base":2500}],"obsTime":1784044800},"SBCC":{"icaoId":"SBCC","flightCategory":"VFR","rawOb":"METAR SBCC 141600Z 12008KT 100V170 9999 SCT040 31/19 Q1016","temp":31,"dewp":19,"wdir":120,"wspd":8,"visib":"6+","altim":1016,"clouds":[{"cover":"SCT","base":4000}],"obsTime":1784044800},"SBTF":{"icaoId":"SBTF","flightCategory":"VFR","rawOb":"METAR SBTF 141600Z 24003KT 9999 SCT020 FEW025TCU 31/25 Q1014","temp":31,"dewp":25,"wdir":240,"wspd":3,"visib":"6+","altim":1014,"clouds":[{"cover":"SCT","base":2000},{"cover":"FEW","base":2500}],"obsTime":1784044800},"SBAR":{"icaoId":"SBAR","flightCategory":"VFR","rawOb":"METAR SBAR 141600Z 10009KT 9999 FEW023 29/23 Q1015","temp":29,"dewp":23,"wdir":100,"wspd":9,"visib":"6+","altim":1015,"clouds":[{"cover":"FEW","base":2300}],"obsTime":1784044800},"SBTD":{"icaoId":"SBTD","flightCategory":"VFR","rawOb":"METAR SBTD 141600Z /////KT CAVOK 19/06 Q1022","temp":19,"dewp":6,"wdir":null,"wspd":null,"visib":"6+","altim":1022,"clouds":[],"obsTime":1784044800},"SBJP":{"icaoId":"SBJP","flightCategory":"VFR","rawOb":"METAR SBJP 141600Z 03008KT 350V070 9999 FEW035 30/22 Q1015","temp":30,"dewp":22,"wdir":30,"wspd":8,"visib":"6+","altim":1015,"clouds":[{"cover":"FEW","base":3500}],"obsTime":1784044800},"SBIH":{"icaoId":"SBIH","flightCategory":"VFR","rawOb":"METAR SBIH 141600Z 36002KT 9999 SCT017 FEW025TCU 32/26 Q1012","temp":32,"dewp":26,"wdir":360,"wspd":2,"visib":"6+","altim":1012,"clouds":[{"cover":"SCT","base":1700},{"cover":"FEW","base":2500}],"obsTime":1784044800},"SBAF":{"icaoId":"SBAF","flightCategory":"VFR","rawOb":"METAR SBAF 141600Z 32004KT 270V010 9999 FEW013 SCT050 20/20 Q1024","temp":20,"dewp":20,"wdir":320,"wspd":4,"visib":"6+","altim":1024,"clouds":[{"cover":"FEW","base":1300},{"cover":"SCT","base":5000}],"obsTime":1784044800},"SBGW":{"icaoId":"SBGW","flightCategory":"VFR","rawOb":"METAR SBGW 141600Z 02004KT 310V090 9999 FEW025 20/06 Q1024","temp":20,"dewp":6,"wdir":20,"wspd":4,"visib":"6+","altim":1024,"clouds":[{"cover":"FEW","base":2500}],"obsTime":1784044800},"SBJR":{"icaoId":"SBJR","flightCategory":"VFR","rawOb":"METAR SBJR 141600Z 17003KT 9999 SCT025 SCT030 22/15 Q1023","temp":22,"dewp":15,"wdir":170,"wspd":3,"visib":"6+","altim":1023,"clouds":[{"cover":"SCT","base":2500},{"cover":"SCT","base":3000}],"obsTime":1784044800},"SBLS":{"icaoId":"SBLS","flightCategory":"VFR","rawOb":"METAR SBLS 141600Z 13009KT 050V130 9999 FEW045 22/10 Q1022","temp":22,"dewp":10,"wdir":130,"wspd":9,"visib":"6+","altim":1022,"clouds":[{"cover":"FEW","base":4500}],"obsTime":1784044800},"SBMT":{"icaoId":"SBMT","flightCategory":"VFR","rawOb":"METAR SBMT 141600Z 07009KT 040V110 9999 SCT033 17/08 Q1024","temp":17,"dewp":8,"wdir":70,"wspd":9,"visib":"6+","altim":1024,"clouds":[{"cover":"SCT","base":3300}],"obsTime":1784044800},"SBST":{"icaoId":"SBST","flightCategory":"MVFR","rawOb":"METAR SBST 141600Z 26005KT 220V310 8000 SCT028 BKN047 19/14 Q1024","temp":19,"dewp":14,"wdir":260,"wspd":5,"visib":4.97,"altim":1024,"clouds":[{"cover":"SCT","base":2800},{"cover":"BKN","base":4700}],"obsTime":1784044800},"SBTA":{"icaoId":"SBTA","flightCategory":"MVFR","rawOb":"METAR SBTA 141600Z VRB03KT 9999 BKN030 19/10 Q1024","temp":19,"dewp":10,"wdir":"VRB","wspd":3,"visib":"6+","altim":1024,"clouds":[{"cover":"BKN","base":3000}],"obsTime":1784044800},"SBAN":{"icaoId":"SBAN","flightCategory":"VFR","rawOb":"METAR SBAN 141600Z VRB05KT CAVOK 25/12 Q1022","temp":25,"dewp":12,"wdir":"VRB","wspd":5,"visib":"6+","altim":1022,"clouds":[],"obsTime":1784044800},"SBJV":{"icaoId":"SBJV","flightCategory":"VFR","rawOb":"METAR SBJV 141600Z 20003KT 9999 SCT020 BKN035 18/12 Q1025","temp":18,"dewp":12,"wdir":200,"wspd":3,"visib":"6+","altim":1025,"clouds":[{"cover":"SCT","base":2000},{"cover":"BKN","base":3500}],"obsTime":1784044800},"SBNM":{"icaoId":"SBNM","flightCategory":"VFR","rawOb":"METAR SBNM 141600Z 05007KT CAVOK 19/08 Q1021","temp":19,"dewp":8,"wdir":50,"wspd":7,"visib":"6+","altim":1021,"clouds":[],"obsTime":1784044800},"SBPF":{"icaoId":"SBPF","flightCategory":"VFR","rawOb":"METAR SBPF 141700Z AUTO 04012KT 9999 NSC 15/07 Q1022","temp":15,"dewp":7,"wdir":40,"wspd":12,"visib":"6+","altim":1022,"clouds":[],"obsTime":1784048400},"SBLE":{"icaoId":"SBLE","flightCategory":"VFR","rawOb":"METAR SBLE 141600Z AUTO 11003KT 040V180 9999 FEW030 OVC040 26/20 Q1018","temp":26,"dewp":20,"wdir":110,"wspd":3,"visib":"6+","altim":1018,"clouds":[{"cover":"FEW","base":3000},{"cover":"OVC","base":4000}],"obsTime":1784044800}}}