{"updated":1774287685,"count":86,"data":{"SBBE":{"icaoId":"SBBE","flightCategory":"VFR","rawOb":"METAR SBBE 231600Z 36010KT 9999 BKN035 FEW040TCU 31/26 Q1009","temp":31,"dewp":26,"wdir":360,"wspd":10,"visib":"6+","altim":1009,"clouds":[{"cover":"BKN","base":3500},{"cover":"FEW","base":4000}],"obsTime":1774281600},"SBEG":{"icaoId":"SBEG","flightCategory":"VFR","rawOb":"METAR SBEG 231600Z 07007KT 040V110 9999 SCT020 FEW025TCU 33/25 Q1010","temp":33,"dewp":25,"wdir":70,"wspd":7,"visib":"6+","altim":1010,"clouds":[{"cover":"SCT","base":2000},{"cover":"FEW","base":2500}],"obsTime":1774281600},"SBCZ":{"icaoId":"SBCZ","flightCategory":"VFR","rawOb":"METAR SBCZ 231600Z 11002KT 9999 FEW015 28/24 Q1012","temp":28,"dewp":24,"wdir":110,"wspd":2,"visib":"6+","altim":1012,"clouds":[{"cover":"FEW","base":1500}],"obsTime":1774281600},"SBMA":{"icaoId":"SBMA","flightCategory":"VFR","rawOb":"METAR SBMA 231600Z 20005KT 9999 SCT020 FEW025TCU 29/26 Q1010","temp":29,"dewp":26,"wdir":200,"wspd":5,"visib":"6+","altim":1010,"clouds":[{"cover":"SCT","base":2000},{"cover":"FEW","base":2500}],"obsTime":1774281600},"SBME":{"icaoId":"SBME","flightCategory":"IFR","rawOb":"METAR SBME 231600Z 08005KT 4000 RA BKN020 OVC080 24/22 Q1012","temp":24,"dewp":22,"wdir":80,"wspd":5,"visib":2.49,"altim":1012,"clouds":[{"cover":"BKN","base":2000},{"cover":"OVC","base":8000}],"obsTime":1774281600},"SBMG":{"icaoId":"SBMG","flightCategory":"VFR","rawOb":"METAR SBMG 231600Z 05010KT 010V070 9999 VCSH FEW045 FEW045TCU BKN080 30/21 Q1012","temp":30,"dewp":21,"wdir":50,"wspd":10,"visib":"6+","altim":1012,"clouds":[{"cover":"FEW","base":4500},{"cover":"FEW","base":4500},{"cover":"BKN","base":8000}],"obsTime":1774281600},"SBCB":{"icaoId":"SBCB","flightCategory":"VFR","rawOb":"METAR SBCB 231600Z 07013KT 9999 FEW030TCU SCT030 28/22 Q1012","temp":28,"dewp":22,"wdir":70,"wspd":13,"visib":"6+","altim":1012,"clouds":[{"cover":"FEW","base":3000},{"cover":"SCT","base":3000}],"obsTime":1774281600},"SBMK":{"icaoId":"SBMK","flightCategory":"VFR","rawOb":"METAR SBMK 231600Z 34003KT 9999 SCT040 29/20 Q1012","temp":29,"dewp":20,"wdir":340,"wspd":3,"visib":"6+","altim":1012,"clouds":[{"cover":"SCT","base":4000}],"obsTime":1774281600},"SBKP":{"icaoId":"SBKP","flightCategory":"VFR","rawOb":"METAR SBKP 231600Z VRB04KT 9999 FEW040 30/14 Q1013","temp":30,"dewp":14,"wdir":"VRB","wspd":4,"visib":"6+","altim":1013,"clouds":[{"cover":"FEW","base":4000}],"obsTime":1774281600},"SBLO":{"icaoId":"SBLO","flightCategory":"VFR","rawOb":"METAR SBLO 231600Z 35004KT 9999 SCT040 SCT100 31/21 Q1013","temp":31,"dewp":21,"wdir":350,"wspd":4,"visib":"6+","altim":1013,"clouds":[{"cover":"SCT","base":4000},{"cover":"SCT","base":10000}],"obsTime":1774281600},"SBBV":{"icaoId":"SBBV","flightCategory":"VFR","rawOb":"METAR SBBV 231600Z COR 12010KT 9999 BKN040 34/21 Q1010","temp":34,"dewp":21,"wdir":120,"wspd":10,"visib":"6+","altim":1010,"clouds":[{"cover":"BKN","base":4000}],"obsTime":1774281600},"SBJU":{"icaoId":"SBJU","flightCategory":"MVFR","rawOb":"METAR SBJU 231600Z 07004KT 9999 BKN020 27/23 Q1012","temp":27,"dewp":23,"wdir":70,"wspd":4,"visib":"6+","altim":1012,"clouds":[{"cover":"BKN","base":2000}],"obsTime":1774281600},"SBCT":{"icaoId":"SBCT","flightCategory":"VFR","rawOb":"METAR SBCT 231600Z 06005KT 9999 BKN035 26/18 Q1016","temp":26,"dewp":18,"wdir":60,"wspd":5,"visib":"6+","altim":1016,"clouds":[{"cover":"BKN","base":3500}],"obsTime":1774281600},"SBMO":{"icaoId":"SBMO","flightCategory":"VFR","rawOb":"METAR SBMO 231600Z 09013KT 060V120 9999 SCT030 FEW033TCU 31/23 Q1010","temp":31,"dewp":23,"wdir":90,"wspd":13,"visib":"6+","altim":1010,"clouds":[{"cover":"SCT","base":3000},{"cover":"FEW","base":3300}],"obsTime":1774281600},"SBMQ":{"icaoId":"SBMQ","flightCategory":"VFR","rawOb":"METAR SBMQ 231600Z 06012KT 9999 SCT026 32/25 Q1010","temp":32,"dewp":25,"wdir":60,"wspd":12,"visib":"6+","altim":1010,"clouds":[{"cover":"SCT","base":2600}],"obsTime":1774281600},"SBFI":{"icaoId":"SBFI","flightCategory":"VFR","rawOb":"METAR SBFI 231600Z 36007KT 9999 VCSH SCT030 BKN070 32/25 Q1010","temp":32,"dewp":25,"wdir":360,"wspd":7,"visib":"6+","altim":1010,"clouds":[{"cover":"SCT","base":3000},{"cover":"BKN","base":7000}],"obsTime":1774281600},"SBNT":{"icaoId":"SBNT","flightCategory":"MVFR","rawOb":"METAR SBNT 231600Z 15009KT 120V180 8000 VCSH BKN017 28/25 Q1010","temp":28,"dewp":25,"wdir":150,"wspd":9,"visib":4.97,"altim":1010,"clouds":[{"cover":"BKN","base":1700}],"obsTime":1774281600},"SBCF":{"icaoId":"SBCF","flightCategory":"VFR","rawOb":"METAR SBCF 231600Z 05004KT 9999 BKN035 28/18 Q1014","temp":28,"dewp":18,"wdir":50,"wspd":4,"visib":"6+","altim":1014,"clouds":[{"cover":"BKN","base":3500}],"obsTime":1774281600},"SBPA":{"icaoId":"SBPA","flightCategory":"VFR","rawOb":"METAR SBPA 231600Z 32006KT 290V010 9999 FEW030 SCT100 31/23 Q1007","temp":31,"dewp":23,"wdir":320,"wspd":6,"visib":"6+","altim":1007,"clouds":[{"cover":"FEW","base":3000},{"cover":"SCT","base":10000}],"obsTime":1774281600},"SBPJ":{"icaoId":"SBPJ","flightCategory":"VFR","rawOb":"METAR SBPJ 231600Z 36004KT 9999 SCT025 SCT090 31/22 Q1010","temp":31,"dewp":22,"wdir":360,"wspd":4,"visib":"6+","altim":1010,"clouds":[{"cover":"SCT","base":2500},{"cover":"SCT","base":9000}],"obsTime":1774281600},"SBFL":{"icaoId":"SBFL","flightCategory":"VFR","rawOb":"METAR SBFL 231600Z 35012KT 320V020 CAVOK 31/24 Q1010","temp":31,"dewp":24,"wdir":350,"wspd":12,"visib":"6+","altim":1010,"clouds":[],"obsTime":1774281600},"SBPV":{"icaoId":"SBPV","flightCategory":"VFR","rawOb":"METAR SBPV 231600Z 28003KT CAVOK 31/23 Q1010","temp":31,"dewp":23,"wdir":280,"wspd":3,"visib":"6+","altim":1010,"clouds":[],"obsTime":1774281600},"SBAT":{"icaoId":"SBAT","flightCategory":"VFR","rawOb":"METAR SBAT 231600Z 04004KT 9999 SCT030 FEW035TCU 32/24 Q1011","temp":32,"dewp":24,"wdir":40,"wspd":4,"visib":"6+","altim":1011,"clouds":[{"cover":"SCT","base":3000},{"cover":"FEW","base":3500}],"obsTime":1774281600},"SBRB":{"icaoId":"SBRB","flightCategory":"VFR","rawOb":"METAR SBRB 231600Z 01005KT 9999 SCT020 30/24 Q1011","temp":30,"dewp":24,"wdir":10,"wspd":5,"visib":"6+","altim":1011,"clouds":[{"cover":"SCT","base":2000}],"obsTime":1774281600},"SBFZ":{"icaoId":"SBFZ","flightCategory":"VFR","rawOb":"METAR SBFZ 231600Z 10010KT 080V140 9999 SCT025 31/24 Q1009","temp":31,"dewp":24,"wdir":100,"wspd":10,"visib":"6+","altim":1009,"clouds":[{"cover":"SCT","base":2500}],"obsTime":1774281600},"SBRF":{"icaoId":"SBRF","flightCategory":"VFR","rawOb":"METAR SBRF 231600Z 08011KT 040V120 9999 SCT023 31/23 Q1010","temp":31,"dewp":23,"wdir":80,"wspd":11,"visib":"6+","altim":1010,"clouds":[{"cover":"SCT","base":2300}],"obsTime":1774281600},"SBCG":{"icaoId":"SBCG","flightCategory":"VFR","rawOb":"METAR SBCG 231600Z 32010KT 280V360 9999 BKN040 32/22 Q1012","temp":32,"dewp":22,"wdir":320,"wspd":10,"visib":"6+","altim":1012,"clouds":[{"cover":"BKN","base":4000}],"obsTime":1774281600},"SBSG":{"icaoId":"SBSG","flightCategory":"MVFR","rawOb":"METAR SBSG 231600Z 07011KT 040V100 9999 BKN025 31/24 Q1010","temp":31,"dewp":24,"wdir":70,"wspd":11,"visib":"6+","altim":1010,"clouds":[{"cover":"BKN","base":2500}],"obsTime":1774281600},"SBGL":{"icaoId":"SBGL","flightCategory":"VFR","rawOb":"METAR SBGL 231600Z 13011KT 9999 SCT035 29/22 Q1011","temp":29,"dewp":22,"wdir":130,"wspd":11,"visib":"6+","altim":1011,"clouds":[{"cover":"SCT","base":3500}],"obsTime":1774281600},"SBSL":{"icaoId":"SBSL","flightCategory":"MVFR","rawOb":"METAR SBSL 231600Z 02012KT 9999 BKN025 31/26 Q1009","temp":31,"dewp":26,"wdir":20,"wspd":12,"visib":"6+","altim":1009,"clouds":[{"cover":"BKN","base":2500}],"obsTime":1774281600},"SBCP":{"icaoId":"SBCP","flightCategory":"VFR","rawOb":"METAR SBCP 231600Z 21007KT 9999 -RA SCT015 BKN080 24/23 Q1012","temp":24,"dewp":23,"wdir":210,"wspd":7,"visib":"6+","altim":1012,"clouds":[{"cover":"SCT","base":1500},{"cover":"BKN","base":8000}],"obsTime":1774281600},"SBSN":{"icaoId":"SBSN","flightCategory":"VFR","rawOb":"METAR SBSN 231600Z 08015KT 9999 FEW020 30/25 Q1010","temp":30,"dewp":25,"wdir":80,"wspd":15,"visib":"6+","altim":1010,"clouds":[{"cover":"FEW","base":2000}],"obsTime":1774281600},"SBGO":{"icaoId":"SBGO","flightCategory":"VFR","rawOb":"METAR SBGO 231600Z 03004KT 9999 SCT049 32/17 Q1013","temp":32,"dewp":17,"wdir":30,"wspd":4,"visib":"6+","altim":1013,"clouds":[{"cover":"SCT","base":4900}],"obsTime":1774281600},"SBSP":{"icaoId":"SBSP","flightCategory":"VFR","rawOb":"METAR SBSP 231600Z VRB02KT CAVOK 28/12 Q1015","temp":28,"dewp":12,"wdir":"VRB","wspd":2,"visib":"6+","altim":1015,"clouds":[],"obsTime":1774281600},"SBGR":{"icaoId":"SBGR","flightCategory":"VFR","rawOb":"METAR SBGR 231600Z 08005KT CAVOK 28/13 Q1015","temp":28,"dewp":13,"wdir":80,"wspd":5,"visib":"6+","altim":1015,"clouds":[],"obsTime":1774281600},"SBSV":{"icaoId":"SBSV","flightCategory":"VFR","rawOb":"METAR SBSV 231600Z 10011KT 070V130 9999 SCT023 30/22 Q1011","temp":30,"dewp":22,"wdir":100,"wspd":11,"visib":"6+","altim":1011,"clouds":[{"cover":"SCT","base":2300}],"obsTime":1774281600},"SBTE":{"icaoId":"SBTE","flightCategory":"VFR","rawOb":"METAR SBTE 231600Z 10003KT 9999 SCT030 33/23 Q1008","temp":33,"dewp":23,"wdir":100,"wspd":3,"visib":"6+","altim":1008,"clouds":[{"cover":"SCT","base":3000}],"obsTime":1774281600},"SBBR":{"icaoId":"SBBR","flightCategory":"VFR","rawOb":"METAR SBBR 231600Z VRB03KT 9999 SCT040 29/17 Q1015","temp":29,"dewp":17,"wdir":"VRB","wspd":3,"visib":"6+","altim":1015,"clouds":[{"cover":"SCT","base":4000}],"obsTime":1774281600},"SBUL":{"icaoId":"SBUL","flightCategory":"VFR","rawOb":"METAR SBUL 231600Z 05006KT 9999 FEW030 29/15 Q1015","temp":29,"dewp":15,"wdir":50,"wspd":6,"visib":"6+","altim":1015,"clouds":[{"cover":"FEW","base":3000}],"obsTime":1774281600},"SBHT":{"icaoId":"SBHT","flightCategory":"MVFR","rawOb":"METAR SBHT 231600Z 11004KT 9999 BKN025 31/24 Q1010","temp":31,"dewp":24,"wdir":110,"wspd":4,"visib":"6+","altim":1010,"clouds":[{"cover":"BKN","base":2500}],"obsTime":1774281600},"SBUR":{"icaoId":"SBUR","flightCategory":"VFR","rawOb":"METAR SBUR 231600Z 03004KT CAVOK 31/15 Q1014","temp":31,"dewp":15,"wdir":30,"wspd":4,"visib":"6+","altim":1014,"clouds":[],"obsTime":1774281600},"SBCR":{"icaoId":"SBCR","flightCategory":"VFR","rawOb":"METAR SBCR 231600Z 36005KT 300V060 9999 SCT040 34/24 Q1009","temp":34,"dewp":24,"wdir":360,"wspd":5,"visib":"6+","altim":1009,"clouds":[{"cover":"SCT","base":4000}],"obsTime":1774281600},"SBVT":{"icaoId":"SBVT","flightCategory":"VFR","rawOb":"METAR SBVT 231600Z 11010KT 9999 SCT025 FEW030TCU 29/24 Q1012","temp":29,"dewp":24,"wdir":110,"wspd":10,"visib":"6+","altim":1012,"clouds":[{"cover":"SCT","base":2500},{"cover":"FEW","base":3000}],"obsTime":1774281600},"SBIL":{"icaoId":"SBIL","flightCategory":"VFR","rawOb":"METAR SBIL 231600Z 05003KT 9999 FEW018 BKN100 28/22 Q1012","temp":28,"dewp":22,"wdir":50,"wspd":3,"visib":"6+","altim":1012,"clouds":[{"cover":"FEW","base":1800},{"cover":"BKN","base":10000}],"obsTime":1774281600},"SBSJ":{"icaoId":"SBSJ","flightCategory":"VFR","rawOb":"METAR SBSJ 231600Z 10005KT 9999 FEW030 28/// Q1013","temp":null,"dewp":null,"wdir":100,"wspd":5,"visib":"6+","altim":1013,"clouds":[{"cover":"FEW","base":3000}],"obsTime":1774281600},"SBAR":{"icaoId":"SBAR","flightCategory":"VFR","rawOb":"METAR SBAR 231600Z 11013KT 9999 FEW023 32/23 Q1010","temp":32,"dewp":23,"wdir":110,"wspd":13,"visib":"6+","altim":1010,"clouds":[{"cover":"FEW","base":2300}],"obsTime":1774281600},"SBAU":{"icaoId":"SBAU","flightCategory":"VFR","rawOb":"METAR SBAU 231600Z 01006KT CAVOK 35/20 Q1012","temp":35,"dewp":20,"wdir":10,"wspd":6,"visib":"6+","altim":1012,"clouds":[],"obsTime":1774281600},"SBAX":{"icaoId":"SBAX","flightCategory":"VFR","rawOb":"METAR SBAX 231600Z 36005KT CAVOK 29/12 Q1015","temp":29,"dewp":12,"wdir":360,"wspd":5,"visib":"6+","altim":1015,"clouds":[],"obsTime":1774281600},"SBBH":{"icaoId":"SBBH","flightCategory":"VFR","rawOb":"METAR SBBH 231600Z 04004KT 9999 SCT040 29/19 Q1014","temp":29,"dewp":19,"wdir":40,"wspd":4,"visib":"6+","altim":1014,"clouds":[{"cover":"SCT","base":4000}],"obsTime":1774281600},"SBBQ":{"icaoId":"SBBQ","flightCategory":"VFR","rawOb":"METAR SBBQ 231600Z 08006KT 360V140 9999 BKN035 24/17 Q1017","temp":24,"dewp":17,"wdir":80,"wspd":6,"visib":"6+","altim":1017,"clouds":[{"cover":"BKN","base":3500}],"obsTime":1774281600},"SBBU":{"icaoId":"SBBU","flightCategory":"VFR","rawOb":"METAR SBBU 231600Z 03003KT 9999 FEW040 BKN100 32/21 Q1013","temp":32,"dewp":21,"wdir":30,"wspd":3,"visib":"6+","altim":1013,"clouds":[{"cover":"FEW","base":4000},{"cover":"BKN","base":10000}],"obsTime":1774281600},"SBCA":{"icaoId":"SBCA","flightCategory":"MVFR","rawOb":"METAR SBCA 231700Z 35011G21KT 310V030 9999 BKN025 30/22 Q1014","temp":30,"dewp":22,"wdir":350,"wspd":11,"visib":"6+","altim":1014,"clouds":[{"cover":"BKN","base":2500}],"obsTime":1774285200},"SBCC":{"icaoId":"SBCC","flightCategory":"VFR","rawOb":"METAR SBCC 231600Z 35007KT 320V030 9999 TS SCT020 FEW025CB BKN100 26/21 Q1012","temp":26,"dewp":21,"wdir":350,"wspd":7,"visib":"6+","altim":1012,"clouds":[{"cover":"SCT","base":2000},{"cover":"FEW","base":2500},{"cover":"BKN","base":10000}],"obsTime":1774281600},"SBCJ":{"icaoId":"SBCJ","flightCategory":"VFR","rawOb":"METAR SBCJ 231600Z 06004KT 9999 FEW013 SCT017 27/23 Q1015","temp":27,"dewp":23,"wdir":60,"wspd":4,"visib":"6+","altim":1015,"clouds":[{"cover":"FEW","base":1300},{"cover":"SCT","base":1700}],"obsTime":1774281600},"SBCO":{"icaoId":"SBCO","flightCategory":"VFR","rawOb":"METAR SBCO 231600Z 31007KT 270V340 9999 FEW035 SCT100 33/24 Q1007","temp":33,"dewp":24,"wdir":310,"wspd":7,"visib":"6+","altim":1007,"clouds":[{"cover":"FEW","base":3500},{"cover":"SCT","base":10000}],"obsTime":1774281600},"SBDN":{"icaoId":"SBDN","flightCategory":"VFR","rawOb":"METAR SBDN 231600Z 06007KT CAVOK 33/21 Q1012","temp":33,"dewp":21,"wdir":60,"wspd":7,"visib":"6+","altim":1012,"clouds":[],"obsTime":1774281600},"SBES":{"icaoId":"SBES","flightCategory":"VFR","rawOb":"METAR SBES 231600Z 05015G25KT 010V080 9999 VCSH FEW015 SCT025 FEW030TCU 27/// Q1012","temp":null,"dewp":null,"wdir":50,"wspd":15,"visib":"6+","altim":1012,"clouds":[{"cover":"FEW","base":1500},{"cover":"SCT","base":2500},{"cover":"FEW","base":3000}],"obsTime":1774281600},"SBGM":{"icaoId":"SBGM","flightCategory":"VFR","rawOb":"METAR SBGM 231600Z 25002KT 9999 FEW040 31/23 Q1010","temp":31,"dewp":23,"wdir":250,"wspd":2,"visib":"6+","altim":1010,"clouds":[{"cover":"FEW","base":4000}],"obsTime":1774281600},"SBIP":{"icaoId":"SBIP","flightCategory":"VFR","rawOb":"METAR SBIP 231600Z AUTO 36004KT 320V060 9999 SCT018 28/22 Q1012","temp":28,"dewp":22,"wdir":360,"wspd":4,"visib":"6+","altim":1012,"clouds":[{"cover":"SCT","base":1800}],"obsTime":1774281600},"SBKG":{"icaoId":"SBKG","flightCategory":"VFR","rawOb":"METAR SBKG 231600Z 07012KT 030V100 9999 SCT025 31/20 Q1012","temp":31,"dewp":20,"wdir":70,"wspd":12,"visib":"6+","altim":1012,"clouds":[{"cover":"SCT","base":2500}],"obsTime":1774281600},"SBOI":{"icaoId":"SBOI","flightCategory":"VFR","rawOb":"METAR SBOI 231600Z AUTO 07006KT 010V130 9999 FEW021 29/25 Q1011 RERA","temp":29,"dewp":25,"wdir":70,"wspd":6,"visib":"6+","altim":1011,"clouds":[{"cover":"FEW","base":2100}],"obsTime":1774281600},"SBPB":{"icaoId":"SBPB","flightCategory":"VFR","rawOb":"METAR SBPB 231600Z 05013KT 9999 SCT020 31/24 Q1009","temp":31,"dewp":24,"wdir":50,"wspd":13,"visib":"6+","altim":1009,"clouds":[{"cover":"SCT","base":2000}],"obsTime":1774281600},"SBPL":{"icaoId":"SBPL","flightCategory":"MVFR","rawOb":"METAR SBPL 231600Z 02008KT 9999 BKN025 32/21 Q1011","temp":32,"dewp":21,"wdir":20,"wspd":8,"visib":"6+","altim":1011,"clouds":[{"cover":"BKN","base":2500}],"obsTime":1774281600},"SBPP":{"icaoId":"SBPP","flightCategory":"VFR","rawOb":"METAR SBPP 231600Z 05011KT 9999 FEW020 33/23 Q1013","temp":33,"dewp":23,"wdir":50,"wspd":11,"visib":"6+","altim":1013,"clouds":[{"cover":"FEW","base":2000}],"obsTime":1774281600},"SBPS":{"icaoId":"SBPS","flightCategory":"VFR","rawOb":"METAR SBPS 231600Z 08006KT 9999 SCT020 BKN100 27/23 Q1013","temp":27,"dewp":23,"wdir":80,"wspd":6,"visib":"6+","altim":1013,"clouds":[{"cover":"SCT","base":2000},{"cover":"BKN","base":10000}],"obsTime":1774281600},"SBSC":{"icaoId":"SBSC","flightCategory":"VFR","rawOb":"METAR SBSC 231600Z 17009KT 9999 FEW020 SCT030 29/22 Q1011","temp":29,"dewp":22,"wdir":170,"wspd":9,"visib":"6+","altim":1011,"clouds":[{"cover":"FEW","base":2000},{"cover":"SCT","base":3000}],"obsTime":1774281600},"SBSM":{"icaoId":"SBSM","flightCategory":"LIFR","rawOb":"METAR SBSM 231600Z 26009G19KT 1000 R29///// R11/P2000 +TSRA FEW007 OVC012 //////CB 23/22 Q1009 RERA","temp":23,"dewp":22,"wdir":260,"wspd":9,"visib":0.62,"altim":1009,"clouds":[{"cover":"FEW","base":700},{"cover":"OVC","base":1200}],"obsTime":1774281600},"SBSR":{"icaoId":"SBSR","flightCategory":"VFR","rawOb":"METAR SBSR 231600Z 02003KT 9999 FEW040 SCT090 31/15 Q1012","temp":31,"dewp":15,"wdir":20,"wspd":3,"visib":"6+","altim":1012,"clouds":[{"cover":"FEW","base":4000},{"cover":"SCT","base":9000}],"obsTime":1774281600},"SBTF":{"icaoId":"SBTF","flightCategory":"VFR","rawOb":"METAR SBTF 231600Z 18004KT 9999 FEW016 35/26 Q1009","temp":35,"dewp":26,"wdir":180,"wspd":4,"visib":"6+","altim":1009,"clouds":[{"cover":"FEW","base":1600}],"obsTime":1774281600},"SBTT":{"icaoId":"SBTT","flightCategory":"VFR","rawOb":"METAR SBTT 231600Z 17003KT 100V240 9999 FEW015 29/22 Q1012","temp":29,"dewp":22,"wdir":170,"wspd":3,"visib":"6+","altim":1012,"clouds":[{"cover":"FEW","base":1500}],"obsTime":1774281600},"SBUY":{"icaoId":"SBUY","flightCategory":"VFR","rawOb":"METAR SBUY 231600Z 27002KT 9999 SCT025 FEW035TCU 32/24 Q1009","temp":32,"dewp":24,"wdir":270,"wspd":2,"visib":"6+","altim":1009,"clouds":[{"cover":"SCT","base":2500},{"cover":"FEW","base":3500}],"obsTime":1774281600},"SBVH":{"icaoId":"SBVH","flightCategory":"VFR","rawOb":"METAR SBVH 231600Z 04006KT 9999 SCT025 SCT090 29/23 Q1013","temp":29,"dewp":23,"wdir":40,"wspd":6,"visib":"6+","altim":1013,"clouds":[{"cover":"SCT","base":2500},{"cover":"SCT","base":9000}],"obsTime":1774281600},"SBTD":{"icaoId":"SBTD","flightCategory":"VFR","rawOb":"METAR SBTD 231600Z /////KT 9999 FEW030 SCT070 31/21 Q1013","temp":31,"dewp":21,"wdir":null,"wspd":null,"visib":"6+","altim":1013,"clouds":[{"cover":"FEW","base":3000},{"cover":"SCT","base":7000}],"obsTime":1774281600},"SBJP":{"icaoId":"SBJP","flightCategory":"MVFR","rawOb":"METAR SBJP 231600Z 07010KT 020V120 9999 BKN030 31/23 Q1010","temp":31,"dewp":23,"wdir":70,"wspd":10,"visib":"6+","altim":1010,"clouds":[{"cover":"BKN","base":3000}],"obsTime":1774281600},"SBAN":{"icaoId":"SBAN","flightCategory":"VFR","rawOb":"METAR SBAN 231600Z 10005KT 9999 SCT030 FEW040TCU 29/18 Q1016","temp":29,"dewp":18,"wdir":100,"wspd":5,"visib":"6+","altim":1016,"clouds":[{"cover":"SCT","base":3000},{"cover":"FEW","base":4000}],"obsTime":1774281600},"SBLE":{"icaoId":"SBLE","flightCategory":"VFR","rawOb":"METAR SBLE 231600Z AUTO 18004KT 130V240 9999 FEW009 23/23 Q1015","temp":23,"dewp":23,"wdir":180,"wspd":4,"visib":"6+","altim":1015,"clouds":[{"cover":"FEW","base":900}],"obsTime":1774281600},"SBJV":{"icaoId":"SBJV","flightCategory":"VFR","rawOb":"METAR SBJV 231600Z 02006KT 9999 FEW030 32/22 Q1011","temp":32,"dewp":22,"wdir":20,"wspd":6,"visib":"6+","altim":1011,"clouds":[{"cover":"FEW","base":3000}],"obsTime":1774281600},"SBIH":{"icaoId":"SBIH","flightCategory":"VFR","rawOb":"METAR SBIH 231600Z 04006KT 9999 SCT016 30/25 Q1009","temp":30,"dewp":25,"wdir":40,"wspd":6,"visib":"6+","altim":1009,"clouds":[{"cover":"SCT","base":1600}],"obsTime":1774281600},"SBAF":{"icaoId":"SBAF","flightCategory":"VFR","rawOb":" SBAF 231600Z 09007KT 030V140 9999 SCT036 31/22 Q1011","temp":31,"dewp":22,"wdir":90,"wspd":7,"visib":"6+","altim":1011,"clouds":[{"cover":"SCT","base":3600}],"obsTime":1774281600},"SBGW":{"icaoId":"SBGW","flightCategory":"VFR","rawOb":"METAR SBGW 231600Z 05006KT 340V090 9999 FEW025 29/14 Q1013","temp":29,"dewp":14,"wdir":50,"wspd":6,"visib":"6+","altim":1013,"clouds":[{"cover":"FEW","base":2500}],"obsTime":1774281600},"SBJR":{"icaoId":"SBJR","flightCategory":"VFR","rawOb":"METAR SBJR 231600Z 13012KT 9999 FEW020 SCT025 32/22 Q1011","temp":32,"dewp":22,"wdir":130,"wspd":12,"visib":"6+","altim":1011,"clouds":[{"cover":"FEW","base":2000},{"cover":"SCT","base":2500}],"obsTime":1774281600},"SBLS":{"icaoId":"SBLS","flightCategory":"VFR","rawOb":"METAR SBLS 231600Z VRB03KT 9999 BKN040 28/20 Q1014","temp":28,"dewp":20,"wdir":"VRB","wspd":3,"visib":"6+","altim":1014,"clouds":[{"cover":"BKN","base":4000}],"obsTime":1774281600},"SBMT":{"icaoId":"SBMT","flightCategory":"VFR","rawOb":"METAR SBMT 231600Z 14007KT 9999 FEW020 27/12 Q1014","temp":27,"dewp":12,"wdir":140,"wspd":7,"visib":"6+","altim":1014,"clouds":[{"cover":"FEW","base":2000}],"obsTime":1774281600},"SBTA":{"icaoId":"SBTA","flightCategory":"VFR","rawOb":"METAR SBTA 231600Z 03009KT 360V070 9999 FEW030 27/15 Q1012","temp":27,"dewp":15,"wdir":30,"wspd":9,"visib":"6+","altim":1012,"clouds":[{"cover":"FEW","base":3000}],"obsTime":1774281600},"SBST":{"icaoId":"SBST","flightCategory":"VFR","rawOb":"METAR SBST 231600Z 20007KT 9999 FEW032 SCT046 27/20 Q1011","temp":27,"dewp":20,"wdir":200,"wspd":7,"visib":"6+","altim":1011,"clouds":[{"cover":"FEW","base":3200},{"cover":"SCT","base":4600}],"obsTime":1774281600},"SBNM":{"icaoId":"SBNM","flightCategory":"VFR","rawOb":"METAR SBNM 231600Z 34012KT 9999 SCT020 SCT080 32/26 Q1009","temp":32,"dewp":26,"wdir":340,"wspd":12,"visib":"6+","altim":1009,"clouds":[{"cover":"SCT","base":2000},{"cover":"SCT","base":8000}],"obsTime":1774281600}}}