{"updated":1778640909,"count":61,"data":{"SBSP":{"icaoId":"SBSP","flightCategory":"VFR","rawOb":"METAR SBSP 130100Z 14002KT CAVOK 14/13 Q1021","temp":14,"dewp":13,"wdir":140,"wspd":2,"visib":"6+","altim":1021,"clouds":[],"obsTime":1778634000},"SBRF":{"icaoId":"SBRF","flightCategory":"VFR","rawOb":"METAR SBRF 130100Z 15011KT 9999 SCT019 SCT070 27/24 Q1014","temp":27,"dewp":24,"wdir":150,"wspd":11,"visib":"6+","altim":1014,"clouds":[{"cover":"SCT","base":1900},{"cover":"SCT","base":7000}],"obsTime":1778634000},"SBBE":{"icaoId":"SBBE","flightCategory":"MVFR","rawOb":"METAR SBBE 130100Z 16004KT 9999 VCTS FEW020 BKN030 FEW040CB 26/26 Q1013","temp":26,"dewp":26,"wdir":160,"wspd":4,"visib":"6+","altim":1013,"clouds":[{"cover":"FEW","base":2000},{"cover":"BKN","base":3000},{"cover":"FEW","base":4000}],"obsTime":1778634000},"SBRB":{"icaoId":"SBRB","flightCategory":"MVFR","rawOb":"METAR SBRB 130100Z 00000KT 8000 NSC 21/20 Q1017","temp":21,"dewp":20,"wdir":0,"wspd":0,"visib":4.97,"altim":1017,"clouds":[],"obsTime":1778634000},"SBGR":{"icaoId":"SBGR","flightCategory":"MVFR","rawOb":"METAR SBGR 130100Z 12001KT 8000 NSC 11/09 Q1020","temp":11,"dewp":9,"wdir":120,"wspd":1,"visib":4.97,"altim":1020,"clouds":[],"obsTime":1778634000},"SBSG":{"icaoId":"SBSG","flightCategory":"LIFR","rawOb":"METAR SBSG 130100Z 18006KT 070V220 9999 2000SE SHRA BKN004 24/24 Q1014","temp":24,"dewp":24,"wdir":180,"wspd":6,"visib":"6+","altim":1014,"clouds":[{"cover":"BKN","base":400}],"obsTime":1778634000},"SBJU":{"icaoId":"SBJU","flightCategory":"VFR","rawOb":"METAR SBJU 130100Z 00000KT CAVOK 27/22 Q1015","temp":27,"dewp":22,"wdir":0,"wspd":0,"visib":"6+","altim":1015,"clouds":[],"obsTime":1778634000},"SBCG":{"icaoId":"SBCG","flightCategory":"VFR","rawOb":"METAR SBCG 130100Z 13003KT CAVOK 16/11 Q1019","temp":16,"dewp":11,"wdir":130,"wspd":3,"visib":"6+","altim":1019,"clouds":[],"obsTime":1778634000},"SBPA":{"icaoId":"SBPA","flightCategory":"VFR","rawOb":"METAR SBPA 130100Z VRB02KT CAVOK 11/08 Q1016","temp":11,"dewp":8,"wdir":"VRB","wspd":2,"visib":"6+","altim":1016,"clouds":[],"obsTime":1778634000},"SBCT":{"icaoId":"SBCT","flightCategory":"VFR","rawOb":"METAR SBCT 130100Z 08002KT CAVOK 09/07 Q1021","temp":9,"dewp":7,"wdir":80,"wspd":2,"visib":"6+","altim":1021,"clouds":[],"obsTime":1778634000},"SBGO":{"icaoId":"SBGO","flightCategory":"VFR","rawOb":"METAR SBGO 130100Z 11003KT CAVOK 23/18 Q1019","temp":23,"dewp":18,"wdir":110,"wspd":3,"visib":"6+","altim":1019,"clouds":[],"obsTime":1778634000},"SBPJ":{"icaoId":"SBPJ","flightCategory":"VFR","rawOb":"METAR SBPJ 130100Z 12004KT CAVOK 26/23 Q1014","temp":26,"dewp":23,"wdir":120,"wspd":4,"visib":"6+","altim":1014,"clouds":[],"obsTime":1778634000},"SBPV":{"icaoId":"SBPV","flightCategory":"VFR","rawOb":"METAR SBPV 130100Z 18002KT CAVOK 24/20 Q1015","temp":24,"dewp":20,"wdir":180,"wspd":2,"visib":"6+","altim":1015,"clouds":[],"obsTime":1778634000},"SBBV":{"icaoId":"SBBV","flightCategory":"IFR","rawOb":"METAR SBBV 130100Z 10006KT 3000 SHRA BR BKN006 BKN015 FEW030TCU BKN070 23/23 Q1016","temp":23,"dewp":23,"wdir":100,"wspd":6,"visib":1.86,"altim":1016,"clouds":[{"cover":"BKN","base":600},{"cover":"BKN","base":1500},{"cover":"FEW","base":3000},{"cover":"BKN","base":7000}],"obsTime":1778634000},"SBMO":{"icaoId":"SBMO","flightCategory":"VFR","rawOb":"METAR SBMO 130100Z 11004KT 9999 VCSH FEW015 SCT025 24/23 Q1015","temp":24,"dewp":23,"wdir":110,"wspd":4,"visib":"6+","altim":1015,"clouds":[{"cover":"FEW","base":1500},{"cover":"SCT","base":2500}],"obsTime":1778634000},"SBFZ":{"icaoId":"SBFZ","flightCategory":"VFR","rawOb":"METAR SBFZ 130100Z 09003KT 9999 SCT020 28/25 Q1012","temp":28,"dewp":25,"wdir":90,"wspd":3,"visib":"6+","altim":1012,"clouds":[{"cover":"SCT","base":2000}],"obsTime":1778634000},"SBGL":{"icaoId":"SBGL","flightCategory":"VFR","rawOb":"METAR SBGL 130100Z VRB02KT CAVOK 21/16 Q1019","temp":21,"dewp":16,"wdir":"VRB","wspd":2,"visib":"6+","altim":1019,"clouds":[],"obsTime":1778634000},"SBMQ":{"icaoId":"SBMQ","flightCategory":"VFR","rawOb":"METAR SBMQ 130100Z 29003KT 9999 FEW004 SCT100 24/24 Q1014","temp":24,"dewp":24,"wdir":290,"wspd":3,"visib":"6+","altim":1014,"clouds":[{"cover":"FEW","base":400},{"cover":"SCT","base":10000}],"obsTime":1778634000},"SBNT":{"icaoId":"SBNT","flightCategory":"MVFR","rawOb":"METAR SBNT 130100Z 20010KT 9000 SCT007 BKN019 FEW025TCU OVC030 24/24 Q1014","temp":24,"dewp":24,"wdir":200,"wspd":10,"visib":5.59,"altim":1014,"clouds":[{"cover":"SCT","base":700},{"cover":"BKN","base":1900},{"cover":"FEW","base":2500},{"cover":"OVC","base":3000}],"obsTime":1778634000},"SBSL":{"icaoId":"SBSL","flightCategory":"VFR","rawOb":"METAR SBSL 130100Z 19005KT 9999 FEW013 SCT017 FEW025TCU BKN080 26/25 Q1013","temp":26,"dewp":25,"wdir":190,"wspd":5,"visib":"6+","altim":1013,"clouds":[{"cover":"FEW","base":1300},{"cover":"SCT","base":1700},{"cover":"FEW","base":2500},{"cover":"BKN","base":8000}],"obsTime":1778634000},"SBEG":{"icaoId":"SBEG","flightCategory":"MVFR","rawOb":"METAR SBEG 130100Z VRB01KT 7000 -RA BKN013 BKN022 24/24 Q1016","temp":24,"dewp":24,"wdir":"VRB","wspd":1,"visib":4.35,"altim":1016,"clouds":[{"cover":"BKN","base":1300},{"cover":"BKN","base":2200}],"obsTime":1778634000},"SBSN":{"icaoId":"SBSN","flightCategory":"VFR","rawOb":"METAR SBSN 130100Z 04003KT 9999 -RA FEW015 BKN070 26/24 Q1015","temp":26,"dewp":24,"wdir":40,"wspd":3,"visib":"6+","altim":1015,"clouds":[{"cover":"FEW","base":1500},{"cover":"BKN","base":7000}],"obsTime":1778634000},"SBKP":{"icaoId":"SBKP","flightCategory":"VFR","rawOb":"METAR SBKP 130100Z 12007KT CAVOK 16/10 Q1019","temp":16,"dewp":10,"wdir":120,"wspd":7,"visib":"6+","altim":1019,"clouds":[],"obsTime":1778634000},"SBSV":{"icaoId":"SBSV","flightCategory":"VFR","rawOb":"METAR SBSV 130100Z 13010KT 9999 SCT023 SCT070 27/22 Q1016","temp":27,"dewp":22,"wdir":130,"wspd":10,"visib":"6+","altim":1016,"clouds":[{"cover":"SCT","base":2300},{"cover":"SCT","base":7000}],"obsTime":1778634000},"SBLO":{"icaoId":"SBLO","flightCategory":"VFR","rawOb":"METAR SBLO 130100Z 28003KT CAVOK 14/09 Q1019","temp":14,"dewp":9,"wdir":280,"wspd":3,"visib":"6+","altim":1019,"clouds":[],"obsTime":1778634000},"SBFI":{"icaoId":"SBFI","flightCategory":"VFR","rawOb":"METAR SBFI 130100Z 03002KT CAVOK 09/09 Q1018","temp":9,"dewp":9,"wdir":30,"wspd":2,"visib":"6+","altim":1018,"clouds":[],"obsTime":1778634000},"SBTE":{"icaoId":"SBTE","flightCategory":"VFR","rawOb":"METAR SBTE 130100Z 17006KT 9999 FEW020 SCT080 28/24 Q1012","temp":28,"dewp":24,"wdir":170,"wspd":6,"visib":"6+","altim":1012,"clouds":[{"cover":"FEW","base":2000},{"cover":"SCT","base":8000}],"obsTime":1778634000},"SBMA":{"icaoId":"SBMA","flightCategory":"VFR","rawOb":"METAR SBMA 130100Z 35003KT 9999 FEW020 SCT100 27/26 Q1013","temp":27,"dewp":26,"wdir":350,"wspd":3,"visib":"6+","altim":1013,"clouds":[{"cover":"FEW","base":2000},{"cover":"SCT","base":10000}],"obsTime":1778634000},"SBUL":{"icaoId":"SBUL","flightCategory":"VFR","rawOb":"METAR SBUL 130100Z 24006KT CAVOK 21/15 Q1021","temp":21,"dewp":15,"wdir":240,"wspd":6,"visib":"6+","altim":1021,"clouds":[],"obsTime":1778634000},"SBCF":{"icaoId":"SBCF","flightCategory":"VFR","rawOb":"METAR SBCF 130100Z 13008KT 9999 FEW045 SCT100 20/17 Q1021","temp":20,"dewp":17,"wdir":130,"wspd":8,"visib":"6+","altim":1021,"clouds":[{"cover":"FEW","base":4500},{"cover":"SCT","base":10000}],"obsTime":1778634000},"SBUR":{"icaoId":"SBUR","flightCategory":"VFR","rawOb":"METAR SBUR 130100Z 19002KT CAVOK 21/11 Q1020","temp":21,"dewp":11,"wdir":190,"wspd":2,"visib":"6+","altim":1020,"clouds":[],"obsTime":1778634000},"SBVT":{"icaoId":"SBVT","flightCategory":"VFR","rawOb":"METAR SBVT 130100Z 27003KT 9999 SCT040 BKN070 21/18 Q1019","temp":21,"dewp":18,"wdir":270,"wspd":3,"visib":"6+","altim":1019,"clouds":[{"cover":"SCT","base":4000},{"cover":"BKN","base":7000}],"obsTime":1778634000},"SBME":{"icaoId":"SBME","flightCategory":"VFR","rawOb":"METAR SBME 130100Z 35002KT 9999 SCT040 OVC080 21/17 Q1019","temp":21,"dewp":17,"wdir":350,"wspd":2,"visib":"6+","altim":1019,"clouds":[{"cover":"SCT","base":4000},{"cover":"OVC","base":8000}],"obsTime":1778634000},"SBFL":{"icaoId":"SBFL","flightCategory":"VFR","rawOb":"METAR SBFL 130100Z 31006KT CAVOK 16/12 Q1016","temp":16,"dewp":12,"wdir":310,"wspd":6,"visib":"6+","altim":1016,"clouds":[],"obsTime":1778634000},"SBMG":{"icaoId":"SBMG","flightCategory":"VFR","rawOb":"METAR SBMG 130100Z 13007KT CAVOK 15/09 Q1019","temp":15,"dewp":9,"wdir":130,"wspd":7,"visib":"6+","altim":1019,"clouds":[],"obsTime":1778634000},"SBBR":{"icaoId":"SBBR","flightCategory":"VFR","rawOb":"METAR SBBR 130100Z VRB01KT CAVOK 21/16 Q1021","temp":21,"dewp":16,"wdir":"VRB","wspd":1,"visib":"6+","altim":1021,"clouds":[],"obsTime":1778634000},"SBMK":{"icaoId":"SBMK","flightCategory":"VFR","rawOb":"METAR SBMK 130100Z 00000KT CAVOK 20/17 Q1019","temp":20,"dewp":17,"wdir":0,"wspd":0,"visib":"6+","altim":1019,"clouds":[],"obsTime":1778634000},"SBIL":{"icaoId":"SBIL","flightCategory":"VFR","rawOb":"METAR SBIL 130100Z 23007KT CAVOK 25/22 Q1017","temp":25,"dewp":22,"wdir":230,"wspd":7,"visib":"6+","altim":1017,"clouds":[],"obsTime":1778634000},"SBSJ":{"icaoId":"SBSJ","flightCategory":"VFR","rawOb":"METAR SBSJ 130100Z 18003KT CAVOK 13/12 Q1020","temp":13,"dewp":12,"wdir":180,"wspd":3,"visib":"6+","altim":1020,"clouds":[],"obsTime":1778634000},"SBAX":{"icaoId":"SBAX","flightCategory":"VFR","rawOb":"METAR SBAX 130100Z AUTO 04003KT CAVOK 19/15 Q1021","temp":19,"dewp":15,"wdir":40,"wspd":3,"visib":"6+","altim":1021,"clouds":[],"obsTime":1778634000},"SBTU":{"icaoId":"SBTU","flightCategory":"VFR","rawOb":"METAR SBTU 130100Z AUTO 06005KT 9999 // ///////// ///// Q1015","temp":null,"dewp":null,"wdir":60,"wspd":5,"visib":"6+","altim":1015,"clouds":[],"obsTime":1778634000},"SBBH":{"icaoId":"SBBH","flightCategory":"VFR","rawOb":"METAR SBBH 130100Z 11007KT 9999 SCT030 OVC100 20/17 Q1020","temp":20,"dewp":17,"wdir":110,"wspd":7,"visib":"6+","altim":1020,"clouds":[{"cover":"SCT","base":3000},{"cover":"OVC","base":10000}],"obsTime":1778634000},"SBBU":{"icaoId":"SBBU","flightCategory":"VFR","rawOb":"METAR SBBU 130100Z 16005KT CAVOK 17/09 Q1019","temp":17,"dewp":9,"wdir":160,"wspd":5,"visib":"6+","altim":1019,"clouds":[],"obsTime":1778634000},"SBCO":{"icaoId":"SBCO","flightCategory":"VFR","rawOb":"METAR SBCO 130100Z 31003KT CAVOK 09/08 Q1016","temp":9,"dewp":8,"wdir":310,"wspd":3,"visib":"6+","altim":1016,"clouds":[],"obsTime":1778634000},"SBDN":{"icaoId":"SBDN","flightCategory":"VFR","rawOb":"METAR SBDN 130100Z 00000KT CAVOK 14/09 Q1019","temp":14,"dewp":9,"wdir":0,"wspd":0,"visib":"6+","altim":1019,"clouds":[],"obsTime":1778634000},"SBIP":{"icaoId":"SBIP","flightCategory":"VFR","rawOb":"METAR SBIP 130100Z AUTO 00000KT 9999 OVC032 21/21 Q1019","temp":21,"dewp":21,"wdir":0,"wspd":0,"visib":"6+","altim":1019,"clouds":[{"cover":"OVC","base":3200}],"obsTime":1778634000},"SBKG":{"icaoId":"SBKG","flightCategory":"IFR","rawOb":"METAR SBKG 130100Z 16005KT 9999 BKN008 22/21 Q1017","temp":22,"dewp":21,"wdir":160,"wspd":5,"visib":"6+","altim":1017,"clouds":[{"cover":"BKN","base":800}],"obsTime":1778634000},"SBPL":{"icaoId":"SBPL","flightCategory":"VFR","rawOb":"METAR SBPL 130100Z 12009KT CAVOK 27/22 Q1016","temp":27,"dewp":22,"wdir":120,"wspd":9,"visib":"6+","altim":1016,"clouds":[],"obsTime":1778634000},"SBPS":{"icaoId":"SBPS","flightCategory":"MVFR","rawOb":"METAR SBPS 130100Z 23003KT 5000 -RA SCT005 BKN015 OVC070 23/22 Q1018","temp":23,"dewp":22,"wdir":230,"wspd":3,"visib":3.11,"altim":1018,"clouds":[{"cover":"SCT","base":500},{"cover":"BKN","base":1500},{"cover":"OVC","base":7000}],"obsTime":1778634000},"SBSC":{"icaoId":"SBSC","flightCategory":"VFR","rawOb":"METAR SBSC 130100Z 03003KT 9999 FEW030 BKN050 17/15 Q1019","temp":17,"dewp":15,"wdir":30,"wspd":3,"visib":"6+","altim":1019,"clouds":[{"cover":"FEW","base":3000},{"cover":"BKN","base":5000}],"obsTime":1778634000},"SBSM":{"icaoId":"SBSM","flightCategory":"VFR","rawOb":"METAR SBSM 130100Z 00000KT CAVOK 08/08 Q1017","temp":8,"dewp":8,"wdir":0,"wspd":0,"visib":"6+","altim":1017,"clouds":[],"obsTime":1778634000},"SBSR":{"icaoId":"SBSR","flightCategory":"VFR","rawOb":"METAR SBSR 130100Z VRB01KT CAVOK 17/08 Q1019","temp":17,"dewp":8,"wdir":"VRB","wspd":1,"visib":"6+","altim":1019,"clouds":[],"obsTime":1778634000},"SBAR":{"icaoId":"SBAR","flightCategory":"VFR","rawOb":"METAR SBAR 130100Z 13008KT 9999 FEW024 28/23 Q1015","temp":28,"dewp":23,"wdir":130,"wspd":8,"visib":"6+","altim":1015,"clouds":[{"cover":"FEW","base":2400}],"obsTime":1778634000},"SBTA":{"icaoId":"SBTA","flightCategory":"VFR","rawOb":"METAR SBTA 130100Z 27002KT CAVOK 12/12 Q1019","temp":12,"dewp":12,"wdir":270,"wspd":2,"visib":"6+","altim":1019,"clouds":[],"obsTime":1778634000},"SBNM":{"icaoId":"SBNM","flightCategory":"VFR","rawOb":"METAR SBNM 130100Z 01002KT CAVOK 12/08 Q1018","temp":12,"dewp":8,"wdir":10,"wspd":2,"visib":"6+","altim":1018,"clouds":[],"obsTime":1778634000},"SBJP":{"icaoId":"SBJP","flightCategory":"IFR","rawOb":"METAR SBJP 130100Z 12014KT 080V160 3000 -RA BKN007 BKN018 24/23 Q1014","temp":24,"dewp":23,"wdir":120,"wspd":14,"visib":1.86,"altim":1014,"clouds":[{"cover":"BKN","base":700},{"cover":"BKN","base":1800}],"obsTime":1778634000},"SBLE":{"icaoId":"SBLE","flightCategory":"VFR","rawOb":"METAR SBLE 130100Z AUTO 06004KT 9999 OVC035 23/23 Q1019","temp":23,"dewp":23,"wdir":60,"wspd":4,"visib":"6+","altim":1019,"clouds":[{"cover":"OVC","base":3500}],"obsTime":1778634000},"SBMT":{"icaoId":"SBMT","flightCategory":"VFR","rawOb":"METAR SBMT 130100Z 00000KT CAVOK 12/11 Q1020","temp":12,"dewp":11,"wdir":0,"wspd":0,"visib":"6+","altim":1020,"clouds":[],"obsTime":1778634000},"SBJV":{"icaoId":"SBJV","flightCategory":"MVFR","rawOb":"METAR SBJV 130100Z 34001KT 7000 FEW002 12/12 Q1018","temp":12,"dewp":12,"wdir":340,"wspd":1,"visib":4.35,"altim":1018,"clouds":[{"cover":"FEW","base":200}],"obsTime":1778634000},"SBAN":{"icaoId":"SBAN","flightCategory":"VFR","rawOb":"METAR SBAN 130100Z 32006KT CAVOK 21/16 Q1022","temp":21,"dewp":16,"wdir":320,"wspd":6,"visib":"6+","altim":1022,"clouds":[],"obsTime":1778634000},"SBLS":{"icaoId":"SBLS","flightCategory":"VFR","rawOb":"METAR SBLS 130100Z 15008KT 9999 FEW045 SCT100 20/18 Q1020","temp":20,"dewp":18,"wdir":150,"wspd":8,"visib":"6+","altim":1020,"clouds":[{"cover":"FEW","base":4500},{"cover":"SCT","base":10000}],"obsTime":1778634000}}}