{"updated":1781875900,"count":88,"data":{"SBFI":{"icaoId":"SBFI","flightCategory":"MVFR","rawOb":"METAR SBFI 191200Z 19009KT 5000 -RA SCT025 FEW035TCU BKN070 14/13 Q1018 RETS","temp":14,"dewp":13,"wdir":190,"wspd":9,"visib":3.11,"altim":1018,"clouds":[{"cover":"SCT","base":2500},{"cover":"FEW","base":3500},{"cover":"BKN","base":7000}],"obsTime":1781870400},"SBBE":{"icaoId":"SBBE","flightCategory":"VFR","rawOb":"METAR SBBE 191200Z 06006KT CAVOK 28/23 Q1015","temp":28,"dewp":23,"wdir":60,"wspd":6,"visib":"6+","altim":1015,"clouds":[],"obsTime":1781870400},"SBBR":{"icaoId":"SBBR","flightCategory":"VFR","rawOb":"METAR SBBR 191200Z 08007KT CAVOK 19/14 Q1024","temp":19,"dewp":14,"wdir":80,"wspd":7,"visib":"6+","altim":1024,"clouds":[],"obsTime":1781870400},"SBPV":{"icaoId":"SBPV","flightCategory":"VFR","rawOb":"METAR SBPV 191200Z 00000KT CAVOK 26/23 Q1015","temp":26,"dewp":23,"wdir":0,"wspd":0,"visib":"6+","altim":1015,"clouds":[],"obsTime":1781870400},"SBAT":{"icaoId":"SBAT","flightCategory":"VFR","rawOb":"METAR SBAT 191200Z 30001KT 9999 FEW025 26/22 Q1017","temp":26,"dewp":22,"wdir":300,"wspd":1,"visib":"6+","altim":1017,"clouds":[{"cover":"FEW","base":2500}],"obsTime":1781870400},"SBBV":{"icaoId":"SBBV","flightCategory":"MVFR","rawOb":"METAR SBBV 191200Z 32003KT 9999 SCT008 BKN025 FEW030TCU BKN100 26/24 Q1016","temp":26,"dewp":24,"wdir":320,"wspd":3,"visib":"6+","altim":1016,"clouds":[{"cover":"SCT","base":800},{"cover":"BKN","base":2500},{"cover":"FEW","base":3000},{"cover":"BKN","base":10000}],"obsTime":1781870400},"SBCB":{"icaoId":"SBCB","flightCategory":"VFR","rawOb":"METAR SBCB 191200Z /////KT 9999 FEW020 SCT060 20/17 Q1023","temp":20,"dewp":17,"wdir":null,"wspd":null,"visib":"6+","altim":1023,"clouds":[{"cover":"FEW","base":2000},{"cover":"SCT","base":6000}],"obsTime":1781870400},"SBCF":{"icaoId":"SBCF","flightCategory":"VFR","rawOb":"METAR SBCF 191200Z 11007KT CAVOK 17/12 Q1026","temp":17,"dewp":12,"wdir":110,"wspd":7,"visib":"6+","altim":1026,"clouds":[],"obsTime":1781870400},"SBCG":{"icaoId":"SBCG","flightCategory":"VFR","rawOb":"METAR SBCG 191200Z 02012KT 9999 VCSH FEW045 FEW050TCU BKN100 23/13 Q1018","temp":23,"dewp":13,"wdir":20,"wspd":12,"visib":"6+","altim":1018,"clouds":[{"cover":"FEW","base":4500},{"cover":"FEW","base":5000},{"cover":"BKN","base":10000}],"obsTime":1781870400},"SBCP":{"icaoId":"SBCP","flightCategory":"VFR","rawOb":"METAR SBCP 191200Z 33003KT 9999 SCT015 BKN090 19/17 Q1024","temp":19,"dewp":17,"wdir":330,"wspd":3,"visib":"6+","altim":1024,"clouds":[{"cover":"SCT","base":1500},{"cover":"BKN","base":9000}],"obsTime":1781870400},"SBCR":{"icaoId":"SBCR","flightCategory":"VFR","rawOb":"METAR SBCR 191200Z VRB02KT 9999 SCT035 FEW040TCU BKN100 25/22 Q1015","temp":25,"dewp":22,"wdir":"VRB","wspd":2,"visib":"6+","altim":1015,"clouds":[{"cover":"SCT","base":3500},{"cover":"FEW","base":4000},{"cover":"BKN","base":10000}],"obsTime":1781870400},"SBCT":{"icaoId":"SBCT","flightCategory":"IFR","rawOb":"METAR SBCT 191200Z 02003KT 320V050 9999 BKN006 11/10 Q1022","temp":11,"dewp":10,"wdir":20,"wspd":3,"visib":"6+","altim":1022,"clouds":[{"cover":"BKN","base":600}],"obsTime":1781870400},"SBCZ":{"icaoId":"SBCZ","flightCategory":"LIFR","rawOb":"METAR SBCZ 191200Z 00000KT 0100 FG VV001 22/22 Q1015","temp":22,"dewp":22,"wdir":0,"wspd":0,"visib":0.06,"altim":1015,"clouds":[{"cover":"OVX","base":100}],"obsTime":1781870400},"SBEG":{"icaoId":"SBEG","flightCategory":"VFR","rawOb":"METAR SBEG 191200Z 34003KT CAVOK 25/24 Q1016","temp":25,"dewp":24,"wdir":340,"wspd":3,"visib":"6+","altim":1016,"clouds":[],"obsTime":1781870400},"SBFL":{"icaoId":"SBFL","flightCategory":"VFR","rawOb":"METAR SBFL 191200Z 30011KT 9999 FEW030 17/14 Q1019","temp":17,"dewp":14,"wdir":300,"wspd":11,"visib":"6+","altim":1019,"clouds":[{"cover":"FEW","base":3000}],"obsTime":1781870400},"SBFZ":{"icaoId":"SBFZ","flightCategory":"VFR","rawOb":"METAR SBFZ 191200Z 15016KT 9999 FEW022 28/23 Q1014","temp":28,"dewp":23,"wdir":150,"wspd":16,"visib":"6+","altim":1014,"clouds":[{"cover":"FEW","base":2200}],"obsTime":1781870400},"SBGL":{"icaoId":"SBGL","flightCategory":"MVFR","rawOb":"METAR SBGL 191200Z 12003KT 330V070 8000 FEW008 19/16 Q1023","temp":19,"dewp":16,"wdir":120,"wspd":3,"visib":4.97,"altim":1023,"clouds":[{"cover":"FEW","base":800}],"obsTime":1781870400},"SBGO":{"icaoId":"SBGO","flightCategory":"VFR","rawOb":"METAR SBGO 191200Z VRB02KT CAVOK 22/15 Q1022","temp":22,"dewp":15,"wdir":"VRB","wspd":2,"visib":"6+","altim":1022,"clouds":[],"obsTime":1781870400},"SBGR":{"icaoId":"SBGR","flightCategory":"VFR","rawOb":"METAR SBGR 191200Z 07011KT 9999 SCT007 12/11 Q1024","temp":12,"dewp":11,"wdir":70,"wspd":11,"visib":"6+","altim":1024,"clouds":[{"cover":"SCT","base":700}],"obsTime":1781870400},"SBHT":{"icaoId":"SBHT","flightCategory":"VFR","rawOb":"METAR SBHT 191200Z 09007KT 9999 SCT025 30/25 Q1016","temp":30,"dewp":25,"wdir":90,"wspd":7,"visib":"6+","altim":1016,"clouds":[{"cover":"SCT","base":2500}],"obsTime":1781870400},"SBIL":{"icaoId":"SBIL","flightCategory":"VFR","rawOb":"METAR SBIL 191200Z 22010KT 9999 FEW020 SCT070 25/19 Q1021","temp":25,"dewp":19,"wdir":220,"wspd":10,"visib":"6+","altim":1021,"clouds":[{"cover":"FEW","base":2000},{"cover":"SCT","base":7000}],"obsTime":1781870400},"SBJU":{"icaoId":"SBJU","flightCategory":"VFR","rawOb":"METAR SBJU 191200Z 17018KT 9999 SCT020 27/18 Q1018","temp":27,"dewp":18,"wdir":170,"wspd":18,"visib":"6+","altim":1018,"clouds":[{"cover":"SCT","base":2000}],"obsTime":1781870400},"SBKP":{"icaoId":"SBKP","flightCategory":"VFR","rawOb":"METAR SBKP 191200Z 12002KT CAVOK 15/10 Q1023","temp":15,"dewp":10,"wdir":120,"wspd":2,"visib":"6+","altim":1023,"clouds":[],"obsTime":1781870400},"SBLO":{"icaoId":"SBLO","flightCategory":"VFR","rawOb":"METAR SBLO 191200Z 16003KT CAVOK 14/10 Q1020","temp":14,"dewp":10,"wdir":160,"wspd":3,"visib":"6+","altim":1020,"clouds":[],"obsTime":1781870400},"SBMA":{"icaoId":"SBMA","flightCategory":"VFR","rawOb":"METAR SBMA 191200Z 00000KT CAVOK 28/23 Q1015","temp":28,"dewp":23,"wdir":0,"wspd":0,"visib":"6+","altim":1015,"clouds":[],"obsTime":1781870400},"SBME":{"icaoId":"SBME","flightCategory":"VFR","rawOb":"METAR SBME 191200Z 02004KT 9999 BKN035 OVC070 19/16 Q1024","temp":19,"dewp":16,"wdir":20,"wspd":4,"visib":"6+","altim":1024,"clouds":[{"cover":"BKN","base":3500},{"cover":"OVC","base":7000}],"obsTime":1781870400},"SBMG":{"icaoId":"SBMG","flightCategory":"VFR","rawOb":"METAR SBMG 191200Z 05007KT 020V090 CAVOK 17/11 Q1018","temp":17,"dewp":11,"wdir":50,"wspd":7,"visib":"6+","altim":1018,"clouds":[],"obsTime":1781870400},"SBMK":{"icaoId":"SBMK","flightCategory":"VFR","rawOb":"METAR SBMK 191200Z 10005KT 9999 FEW030 19/13 Q1024","temp":19,"dewp":13,"wdir":100,"wspd":5,"visib":"6+","altim":1024,"clouds":[{"cover":"FEW","base":3000}],"obsTime":1781870400},"SBMO":{"icaoId":"SBMO","flightCategory":"MVFR","rawOb":"METAR SBMO 191200Z 12017KT 7000 -RA SCT007 OVC018 24/23 Q1018 RERA","temp":24,"dewp":23,"wdir":120,"wspd":17,"visib":4.35,"altim":1018,"clouds":[{"cover":"SCT","base":700},{"cover":"OVC","base":1800}],"obsTime":1781870400},"SBMQ":{"icaoId":"SBMQ","flightCategory":"VFR","rawOb":"METAR SBMQ 191200Z 03004KT 350V070 9999 SCT017 29/25 Q1015","temp":29,"dewp":25,"wdir":30,"wspd":4,"visib":"6+","altim":1015,"clouds":[{"cover":"SCT","base":1700}],"obsTime":1781870400},"SBNT":{"icaoId":"SBNT","flightCategory":"VFR","rawOb":"METAR SBNT 191200Z 17013KT 9999 SCT023 28/22 Q1015","temp":28,"dewp":22,"wdir":170,"wspd":13,"visib":"6+","altim":1015,"clouds":[{"cover":"SCT","base":2300}],"obsTime":1781870400},"SBPA":{"icaoId":"SBPA","flightCategory":"VFR","rawOb":"METAR SBPA 191200Z 08006KT 9999 -RA SCT040 BKN100 14/12 Q1015","temp":14,"dewp":12,"wdir":80,"wspd":6,"visib":"6+","altim":1015,"clouds":[{"cover":"SCT","base":4000},{"cover":"BKN","base":10000}],"obsTime":1781870400},"SBPJ":{"icaoId":"SBPJ","flightCategory":"VFR","rawOb":"METAR SBPJ 191200Z 11004KT 9999 FEW030 30/20 Q1018","temp":30,"dewp":20,"wdir":110,"wspd":4,"visib":"6+","altim":1018,"clouds":[{"cover":"FEW","base":3000}],"obsTime":1781870400},"SBRB":{"icaoId":"SBRB","flightCategory":"MVFR","rawOb":"METAR SBRB 191200Z 00000KT 5000 BR BCFG NSC 21/21 Q1016","temp":21,"dewp":21,"wdir":0,"wspd":0,"visib":3.11,"altim":1016,"clouds":[],"obsTime":1781870400},"SBRF":{"icaoId":"SBRF","flightCategory":"VFR","rawOb":"METAR SBRF 191200Z 16012G22KT 9999 SCT015 BKN050 26/23 Q1016","temp":26,"dewp":23,"wdir":160,"wspd":12,"visib":"6+","altim":1016,"clouds":[{"cover":"SCT","base":1500},{"cover":"BKN","base":5000}],"obsTime":1781870400},"SBSG":{"icaoId":"SBSG","flightCategory":"VFR","rawOb":"METAR SBSG 191200Z 16009KT 130V210 9999 SCT021 27/23 Q1016","temp":27,"dewp":23,"wdir":160,"wspd":9,"visib":"6+","altim":1016,"clouds":[{"cover":"SCT","base":2100}],"obsTime":1781870400},"SBSL":{"icaoId":"SBSL","flightCategory":"VFR","rawOb":"METAR SBSL 191200Z 08006KT 9999 FEW020 29/24 Q1014","temp":29,"dewp":24,"wdir":80,"wspd":6,"visib":"6+","altim":1014,"clouds":[{"cover":"FEW","base":2000}],"obsTime":1781870400},"SBSN":{"icaoId":"SBSN","flightCategory":"VFR","rawOb":"METAR SBSN 191200Z 11004KT 9999 FEW021 FEW026TCU SCT100 27/24 Q1015","temp":27,"dewp":24,"wdir":110,"wspd":4,"visib":"6+","altim":1015,"clouds":[{"cover":"FEW","base":2100},{"cover":"FEW","base":2600},{"cover":"SCT","base":10000}],"obsTime":1781870400},"SBSP":{"icaoId":"SBSP","flightCategory":"VFR","rawOb":"METAR SBSP 191200Z 04007KT 010V080 CAVOK 14/11 Q1024","temp":14,"dewp":11,"wdir":40,"wspd":7,"visib":"6+","altim":1024,"clouds":[],"obsTime":1781870400},"SBSV":{"icaoId":"SBSV","flightCategory":"MVFR","rawOb":"METAR SBSV 191200Z 15014KT 9999 VCSH BKN026 BKN040 BKN060 26/20 Q1020","temp":26,"dewp":20,"wdir":150,"wspd":14,"visib":"6+","altim":1020,"clouds":[{"cover":"BKN","base":2600},{"cover":"BKN","base":4000},{"cover":"BKN","base":6000}],"obsTime":1781870400},"SBTE":{"icaoId":"SBTE","flightCategory":"VFR","rawOb":"METAR SBTE 191200Z 19006KT 9999 FEW018 28/23 Q1015","temp":28,"dewp":23,"wdir":190,"wspd":6,"visib":"6+","altim":1015,"clouds":[{"cover":"FEW","base":1800}],"obsTime":1781870400},"SBUL":{"icaoId":"SBUL","flightCategory":"VFR","rawOb":"METAR SBUL 191200Z 09013KT CAVOK 18/12 Q1024","temp":18,"dewp":12,"wdir":90,"wspd":13,"visib":"6+","altim":1024,"clouds":[],"obsTime":1781870400},"SBUR":{"icaoId":"SBUR","flightCategory":"VFR","rawOb":"METAR SBUR 191200Z 03010KT CAVOK 19/12 Q1022","temp":19,"dewp":12,"wdir":30,"wspd":10,"visib":"6+","altim":1022,"clouds":[],"obsTime":1781870400},"SBVT":{"icaoId":"SBVT","flightCategory":"VFR","rawOb":"METAR SBVT 191200Z 28006KT 9999 FEW040 SCT080 21/15 Q1023","temp":21,"dewp":15,"wdir":280,"wspd":6,"visib":"6+","altim":1023,"clouds":[{"cover":"FEW","base":4000},{"cover":"SCT","base":8000}],"obsTime":1781870400},"SBSM":{"icaoId":"SBSM","flightCategory":"VFR","rawOb":"METAR SBSM 191200Z 28003KT 9999 FEW015 BKN035 OVC050 15/13 Q1015","temp":15,"dewp":13,"wdir":280,"wspd":3,"visib":"6+","altim":1015,"clouds":[{"cover":"FEW","base":1500},{"cover":"BKN","base":3500},{"cover":"OVC","base":5000}],"obsTime":1781870400},"SBAR":{"icaoId":"SBAR","flightCategory":"VFR","rawOb":"METAR SBAR 191200Z 16009KT 9999 SCT025 27/21 Q1018","temp":27,"dewp":21,"wdir":160,"wspd":9,"visib":"6+","altim":1018,"clouds":[{"cover":"SCT","base":2500}],"obsTime":1781870400},"SBAU":{"icaoId":"SBAU","flightCategory":"VFR","rawOb":"METAR SBAU 191300Z 09010KT CAVOK 22/14 Q1020","temp":22,"dewp":14,"wdir":90,"wspd":10,"visib":"6+","altim":1020,"clouds":[],"obsTime":1781874000},"SBAX":{"icaoId":"SBAX","flightCategory":"VFR","rawOb":"METAR SBAX 191200Z 09009KT CAVOK 16/13 Q1025","temp":16,"dewp":13,"wdir":90,"wspd":9,"visib":"6+","altim":1025,"clouds":[],"obsTime":1781870400},"SBBH":{"icaoId":"SBBH","flightCategory":"VFR","rawOb":"METAR SBBH 191200Z 10008KT CAVOK 17/12 Q1026","temp":17,"dewp":12,"wdir":100,"wspd":8,"visib":"6+","altim":1026,"clouds":[],"obsTime":1781870400},"SBBQ":{"icaoId":"SBBQ","flightCategory":"MVFR","rawOb":"METAR SBBQ 191200Z 11002KT 9999 BKN015 11/10 Q1028","temp":11,"dewp":10,"wdir":110,"wspd":2,"visib":"6+","altim":1028,"clouds":[{"cover":"BKN","base":1500}],"obsTime":1781870400},"SBBU":{"icaoId":"SBBU","flightCategory":"VFR","rawOb":"METAR SBBU 191200Z 07006KT CAVOK 16/12 Q1021","temp":16,"dewp":12,"wdir":70,"wspd":6,"visib":"6+","altim":1021,"clouds":[],"obsTime":1781870400},"SBCA":{"icaoId":"SBCA","flightCategory":"VFR","rawOb":"METAR SBCA 191200Z 04018G28KT 9999 FEW030 SCT080 16/08 Q1017","temp":16,"dewp":8,"wdir":40,"wspd":18,"visib":"6+","altim":1017,"clouds":[{"cover":"FEW","base":3000},{"cover":"SCT","base":8000}],"obsTime":1781870400},"SBCC":{"icaoId":"SBCC","flightCategory":"VFR","rawOb":"METAR SBCC 191200Z 01005KT 9999 SCT040 BKN100 22/21 Q1018","temp":22,"dewp":21,"wdir":10,"wspd":5,"visib":"6+","altim":1018,"clouds":[{"cover":"SCT","base":4000},{"cover":"BKN","base":10000}],"obsTime":1781870400},"SBCJ":{"icaoId":"SBCJ","flightCategory":"VFR","rawOb":"METAR SBCJ 191200Z 06004KT CAVOK 25/20 Q1020","temp":25,"dewp":20,"wdir":60,"wspd":4,"visib":"6+","altim":1020,"clouds":[],"obsTime":1781870400},"SBCO":{"icaoId":"SBCO","flightCategory":"VFR","rawOb":"METAR SBCO 191200Z 03004KT 9999 FEW035 BKN090 15/11 Q1015","temp":15,"dewp":11,"wdir":30,"wspd":4,"visib":"6+","altim":1015,"clouds":[{"cover":"FEW","base":3500},{"cover":"BKN","base":9000}],"obsTime":1781870400},"SBDN":{"icaoId":"SBDN","flightCategory":"VFR","rawOb":"METAR SBDN 191200Z 06009KT CAVOK 17/11 Q1019","temp":17,"dewp":11,"wdir":60,"wspd":9,"visib":"6+","altim":1019,"clouds":[],"obsTime":1781870400},"SBES":{"icaoId":"SBES","flightCategory":"VFR","rawOb":"METAR SBES 191200Z 02005KT 320V090 9999 FEW010 BKN040 19/// Q1023","temp":null,"dewp":null,"wdir":20,"wspd":5,"visib":"6+","altim":1023,"clouds":[{"cover":"FEW","base":1000},{"cover":"BKN","base":4000}],"obsTime":1781870400},"SBGM":{"icaoId":"SBGM","flightCategory":"VFR","rawOb":"METAR SBGM 191200Z 00000KT CAVOK 22/20 Q1015","temp":22,"dewp":20,"wdir":0,"wspd":0,"visib":"6+","altim":1015,"clouds":[],"obsTime":1781870400},"SBIP":{"icaoId":"SBIP","flightCategory":"VFR","rawOb":"METAR SBIP 191200Z AUTO 02004KT 350V060 CAVOK 21/14 Q1025","temp":21,"dewp":14,"wdir":20,"wspd":4,"visib":"6+","altim":1025,"clouds":[],"obsTime":1781870400},"SBKG":{"icaoId":"SBKG","flightCategory":"MVFR","rawOb":"METAR SBKG 191200Z 15010KT 9999 SCT018 BKN025 24/21 Q1018","temp":24,"dewp":21,"wdir":150,"wspd":10,"visib":"6+","altim":1018,"clouds":[{"cover":"SCT","base":1800},{"cover":"BKN","base":2500}],"obsTime":1781870400},"SBOI":{"icaoId":"SBOI","flightCategory":"VFR","rawOb":"METAR SBOI 191200Z AUTO VRB02KT 9999 FEW008 27/25 Q1015","temp":27,"dewp":25,"wdir":"VRB","wspd":2,"visib":"6+","altim":1015,"clouds":[{"cover":"FEW","base":800}],"obsTime":1781870400},"SBPB":{"icaoId":"SBPB","flightCategory":"VFR","rawOb":"METAR SBPB 191200Z 11013KT 9999 FEW020 BKN100 29/24 Q1014","temp":29,"dewp":24,"wdir":110,"wspd":13,"visib":"6+","altim":1014,"clouds":[{"cover":"FEW","base":2000},{"cover":"BKN","base":10000}],"obsTime":1781870400},"SBPL":{"icaoId":"SBPL","flightCategory":"MVFR","rawOb":"METAR SBPL 191200Z 14014KT 9999 BKN020 25/19 Q1020","temp":25,"dewp":19,"wdir":140,"wspd":14,"visib":"6+","altim":1020,"clouds":[{"cover":"BKN","base":2000}],"obsTime":1781870400},"SBPP":{"icaoId":"SBPP","flightCategory":"VFR","rawOb":"METAR SBPP 191200Z 04013KT 9999 FEW020 16/12 Q1016","temp":16,"dewp":12,"wdir":40,"wspd":13,"visib":"6+","altim":1016,"clouds":[{"cover":"FEW","base":2000}],"obsTime":1781870400},"SBPS":{"icaoId":"SBPS","flightCategory":"VFR","rawOb":"METAR SBPS 191200Z VRB03KT 9999 FEW020 23/19 Q1022","temp":23,"dewp":19,"wdir":"VRB","wspd":3,"visib":"6+","altim":1022,"clouds":[{"cover":"FEW","base":2000}],"obsTime":1781870400},"SBSC":{"icaoId":"SBSC","flightCategory":"VFR","rawOb":"METAR SBSC 191200Z 02007KT CAVOK 19/15 Q1023","temp":19,"dewp":15,"wdir":20,"wspd":7,"visib":"6+","altim":1023,"clouds":[],"obsTime":1781870400},"SBSJ":{"icaoId":"SBSJ","flightCategory":"MVFR","rawOb":"SPECI SBSJ 191133Z 09007KT 6000 FEW007 13/11 Q1024","temp":13,"dewp":11,"wdir":90,"wspd":7,"visib":3.73,"altim":1024,"clouds":[{"cover":"FEW","base":700}],"obsTime":1781868780},"SBSR":{"icaoId":"SBSR","flightCategory":"VFR","rawOb":"METAR SBSR 191200Z 07007KT CAVOK 19/12 Q1021","temp":19,"dewp":12,"wdir":70,"wspd":7,"visib":"6+","altim":1021,"clouds":[],"obsTime":1781870400},"SBTD":{"icaoId":"SBTD","flightCategory":"VFR","rawOb":"METAR SBTD 191200Z /////KT 9999 FEW040 SCT080 14/09 Q1017","temp":14,"dewp":9,"wdir":null,"wspd":null,"visib":"6+","altim":1017,"clouds":[{"cover":"FEW","base":4000},{"cover":"SCT","base":8000}],"obsTime":1781870400},"SBTF":{"icaoId":"SBTF","flightCategory":"VFR","rawOb":"METAR SBTF 191200Z 15003KT CAVOK 25/25 Q1015","temp":25,"dewp":25,"wdir":150,"wspd":3,"visib":"6+","altim":1015,"clouds":[],"obsTime":1781870400},"SBTT":{"icaoId":"SBTT","flightCategory":"VFR","rawOb":"METAR SBTT 191200Z 14002KT 9999 FEW007 24/23 Q1016","temp":24,"dewp":23,"wdir":140,"wspd":2,"visib":"6+","altim":1016,"clouds":[{"cover":"FEW","base":700}],"obsTime":1781870400},"SBTU":{"icaoId":"SBTU","flightCategory":"VFR","rawOb":"METAR SBTU 191200Z AUTO 19008KT 160V230 9999 // FEW011/// ///// Q1017","temp":null,"dewp":null,"wdir":190,"wspd":8,"visib":"6+","altim":1017,"clouds":[{"cover":"FEW","base":1100}],"obsTime":1781870400},"SBUY":{"icaoId":"SBUY","flightCategory":"MVFR","rawOb":"METAR SBUY 191200Z 00000KT 8000 NSC 24/23 Q1014","temp":24,"dewp":23,"wdir":0,"wspd":0,"visib":4.97,"altim":1014,"clouds":[],"obsTime":1781870400},"SBVH":{"icaoId":"SBVH","flightCategory":"VFR","rawOb":"METAR SBVH 191200Z 32005KT CAVOK 24/21 Q1019","temp":24,"dewp":21,"wdir":320,"wspd":5,"visib":"6+","altim":1019,"clouds":[],"obsTime":1781870400},"SBNM":{"icaoId":"SBNM","flightCategory":"VFR","rawOb":"METAR SBNM 191200Z AUTO 02008KT 350V050 9999 FEW033 13/12 Q1016","temp":13,"dewp":12,"wdir":20,"wspd":8,"visib":"6+","altim":1016,"clouds":[{"cover":"FEW","base":3300}],"obsTime":1781870400},"SBPF":{"icaoId":"SBPF","flightCategory":"VFR","rawOb":"METAR SBPF 191200Z 09005KT 9000 -RA NSC 11/09 Q1020","temp":11,"dewp":9,"wdir":90,"wspd":5,"visib":5.59,"altim":1020,"clouds":[],"obsTime":1781870400},"SBJV":{"icaoId":"SBJV","flightCategory":"VFR","rawOb":"METAR SBJV 191200Z 31002KT CAVOK 14/13 Q1020","temp":14,"dewp":13,"wdir":310,"wspd":2,"visib":"6+","altim":1020,"clouds":[],"obsTime":1781870400},"SBLE":{"icaoId":"SBLE","flightCategory":"VFR","rawOb":"METAR SBLE 191200Z AUTO 17005KT 110V220 9999 SCT036 OVC042 21/19 Q1023","temp":21,"dewp":19,"wdir":170,"wspd":5,"visib":"6+","altim":1023,"clouds":[{"cover":"SCT","base":3600},{"cover":"OVC","base":4200}],"obsTime":1781870400},"SBIH":{"icaoId":"SBIH","flightCategory":"VFR","rawOb":"METAR SBIH 191200Z 00000KT 9999 SCT012 27/24 Q1015","temp":27,"dewp":24,"wdir":0,"wspd":0,"visib":"6+","altim":1015,"clouds":[{"cover":"SCT","base":1200}],"obsTime":1781870400},"SBAF":{"icaoId":"SBAF","flightCategory":"MVFR","rawOb":"METAR SBAF 191200Z 35002KT 7000 FEW015 19/19 Q1023","temp":19,"dewp":19,"wdir":350,"wspd":2,"visib":4.35,"altim":1023,"clouds":[{"cover":"FEW","base":1500}],"obsTime":1781870400},"SBGW":{"icaoId":"SBGW","flightCategory":"VFR","rawOb":"METAR SBGW 191200Z VRB03KT CAVOK 15/09 Q1024","temp":15,"dewp":9,"wdir":"VRB","wspd":3,"visib":"6+","altim":1024,"clouds":[],"obsTime":1781870400},"SBJP":{"icaoId":"SBJP","flightCategory":"MVFR","rawOb":"METAR SBJP 191200Z 15011KT 9999 BKN017 28/24 Q1016","temp":28,"dewp":24,"wdir":150,"wspd":11,"visib":"6+","altim":1016,"clouds":[{"cover":"BKN","base":1700}],"obsTime":1781870400},"SBLS":{"icaoId":"SBLS","flightCategory":"VFR","rawOb":"METAR SBLS 191200Z 13007KT 060V130 9999 FEW025 17/12 Q1025","temp":17,"dewp":12,"wdir":130,"wspd":7,"visib":"6+","altim":1025,"clouds":[{"cover":"FEW","base":2500}],"obsTime":1781870400},"SBMT":{"icaoId":"SBMT","flightCategory":"MVFR","rawOb":"METAR SBMT 191200Z 04004KT 8000 NSC 13/09 Q1023","temp":13,"dewp":9,"wdir":40,"wspd":4,"visib":4.97,"altim":1023,"clouds":[],"obsTime":1781870400},"SBST":{"icaoId":"SBST","flightCategory":"VFR","rawOb":"METAR SBST 191200Z 12001KT CAVOK 17/13 Q1021","temp":17,"dewp":13,"wdir":120,"wspd":1,"visib":"6+","altim":1021,"clouds":[],"obsTime":1781870400},"SBTA":{"icaoId":"SBTA","flightCategory":"VFR","rawOb":"METAR SBTA 191200Z VRB02KT 9999 FEW012 14/11 Q1023","temp":14,"dewp":11,"wdir":"VRB","wspd":2,"visib":"6+","altim":1023,"clouds":[{"cover":"FEW","base":1200}],"obsTime":1781870400},"SBJR":{"icaoId":"SBJR","flightCategory":"VFR","rawOb":"METAR SBJR 191200Z 36006KT CAVOK 22/16 Q1022","temp":22,"dewp":16,"wdir":360,"wspd":6,"visib":"6+","altim":1022,"clouds":[],"obsTime":1781870400},"SBAN":{"icaoId":"SBAN","flightCategory":"VFR","rawOb":"METAR SBAN 191200Z 09008KT CAVOK 19/14 Q1024","temp":19,"dewp":14,"wdir":90,"wspd":8,"visib":"6+","altim":1024,"clouds":[],"obsTime":1781870400}}}