{"updated":1779656019,"count":59,"data":{"SBSP":{"icaoId":"SBSP","flightCategory":"MVFR","rawOb":"METAR SBSP 241900Z 19009KT 7000 BKN030 BKN040 20/17 Q1021","temp":20,"dewp":17,"wdir":190,"wspd":9,"visib":4.35,"altim":1021,"clouds":[{"cover":"BKN","base":3000},{"cover":"BKN","base":4000}],"obsTime":1779649200},"SBMA":{"icaoId":"SBMA","flightCategory":"VFR","rawOb":"METAR SBMA 241900Z 07003KT 9999 FEW023 33/21 Q1010","temp":33,"dewp":21,"wdir":70,"wspd":3,"visib":"6+","altim":1010,"clouds":[{"cover":"FEW","base":2300}],"obsTime":1779649200},"SBFI":{"icaoId":"SBFI","flightCategory":"VFR","rawOb":"METAR SBFI 241900Z 18005KT 9999 SCT025 BKN080 22/19 Q1017","temp":22,"dewp":19,"wdir":180,"wspd":5,"visib":"6+","altim":1017,"clouds":[{"cover":"SCT","base":2500},{"cover":"BKN","base":8000}],"obsTime":1779649200},"SBME":{"icaoId":"SBME","flightCategory":"VFR","rawOb":"METAR SBME 241900Z 10007KT 9999 FEW030 27/19 Q1017","temp":27,"dewp":19,"wdir":100,"wspd":7,"visib":"6+","altim":1017,"clouds":[{"cover":"FEW","base":3000}],"obsTime":1779649200},"SBCG":{"icaoId":"SBCG","flightCategory":"VFR","rawOb":"METAR SBCG 241900Z 18006KT 9999 SCT035 BKN100 23/20 Q1016","temp":23,"dewp":20,"wdir":180,"wspd":6,"visib":"6+","altim":1016,"clouds":[{"cover":"SCT","base":3500},{"cover":"BKN","base":10000}],"obsTime":1779649200},"SBMG":{"icaoId":"SBMG","flightCategory":"VFR","rawOb":"METAR SBMG 241900Z 36004KT 320V040 9999 FEW023 SCT043 BKN100 24/19 Q1017","temp":24,"dewp":19,"wdir":360,"wspd":4,"visib":"6+","altim":1017,"clouds":[{"cover":"FEW","base":2300},{"cover":"SCT","base":4300},{"cover":"BKN","base":10000}],"obsTime":1779649200},"SBMK":{"icaoId":"SBMK","flightCategory":"VFR","rawOb":"METAR SBMK 241900Z 07007KT 9999 SCT040 27/16 Q1019","temp":27,"dewp":16,"wdir":70,"wspd":7,"visib":"6+","altim":1019,"clouds":[{"cover":"SCT","base":4000}],"obsTime":1779649200},"SBCF":{"icaoId":"SBCF","flightCategory":"VFR","rawOb":"METAR SBCF 241900Z 11004KT 9999 SCT040 26/15 Q1021","temp":26,"dewp":15,"wdir":110,"wspd":4,"visib":"6+","altim":1021,"clouds":[{"cover":"SCT","base":4000}],"obsTime":1779649200},"SBLO":{"icaoId":"SBLO","flightCategory":"VFR","rawOb":"METAR SBLO 241900Z 13003KT 090V170 9999 FEW012 21/19 Q1018","temp":21,"dewp":19,"wdir":130,"wspd":3,"visib":"6+","altim":1018,"clouds":[{"cover":"FEW","base":1200}],"obsTime":1779649200},"SBEG":{"icaoId":"SBEG","flightCategory":"MVFR","rawOb":"METAR SBEG 241900Z 23004KT 9999 BKN016 SCT090 27/23 Q1012","temp":27,"dewp":23,"wdir":230,"wspd":4,"visib":"6+","altim":1012,"clouds":[{"cover":"BKN","base":1600},{"cover":"SCT","base":9000}],"obsTime":1779649200},"SBBE":{"icaoId":"SBBE","flightCategory":"VFR","rawOb":"METAR SBBE 241900Z 31005KT 9999 FEW030 FEW035TCU SCT100 30/25 Q1010","temp":30,"dewp":25,"wdir":310,"wspd":5,"visib":"6+","altim":1010,"clouds":[{"cover":"FEW","base":3000},{"cover":"FEW","base":3500},{"cover":"SCT","base":10000}],"obsTime":1779649200},"SBMO":{"icaoId":"SBMO","flightCategory":"MVFR","rawOb":"METAR SBMO 241900Z 13006KT 7000 -RA SCT025 SCT031 OVC050 24/22 Q1014","temp":24,"dewp":22,"wdir":130,"wspd":6,"visib":4.35,"altim":1014,"clouds":[{"cover":"SCT","base":2500},{"cover":"SCT","base":3100},{"cover":"OVC","base":5000}],"obsTime":1779649200},"SBMQ":{"icaoId":"SBMQ","flightCategory":"VFR","rawOb":"METAR SBMQ 241900Z 05005KT 9999 SCT045 29/24 Q1010","temp":29,"dewp":24,"wdir":50,"wspd":5,"visib":"6+","altim":1010,"clouds":[{"cover":"SCT","base":4500}],"obsTime":1779649200},"SBFL":{"icaoId":"SBFL","flightCategory":"MVFR","rawOb":"METAR SBFL 241900Z 19014KT 9000 VCSH SCT009 OVC023 17/16 Q1020","temp":17,"dewp":16,"wdir":190,"wspd":14,"visib":5.59,"altim":1020,"clouds":[{"cover":"SCT","base":900},{"cover":"OVC","base":2300}],"obsTime":1779649200},"SBBV":{"icaoId":"SBBV","flightCategory":"VFR","rawOb":"METAR SBBV 241900Z 35003KT 9999 VCSH BKN035 FEW040TCU BKN100 31/23 Q1011","temp":31,"dewp":23,"wdir":350,"wspd":3,"visib":"6+","altim":1011,"clouds":[{"cover":"BKN","base":3500},{"cover":"FEW","base":4000},{"cover":"BKN","base":10000}],"obsTime":1779649200},"SBNT":{"icaoId":"SBNT","flightCategory":"VFR","rawOb":"METAR SBNT 241900Z 13014KT 9999 SCT028 29/22 Q1012","temp":29,"dewp":22,"wdir":130,"wspd":14,"visib":"6+","altim":1012,"clouds":[{"cover":"SCT","base":2800}],"obsTime":1779649200},"SBPA":{"icaoId":"SBPA","flightCategory":"VFR","rawOb":"METAR SBPA 241900Z 12010KT 9999 SCT025 BKN045 19/15 Q1020","temp":19,"dewp":15,"wdir":120,"wspd":10,"visib":"6+","altim":1020,"clouds":[{"cover":"SCT","base":2500},{"cover":"BKN","base":4500}],"obsTime":1779649200},"SBFZ":{"icaoId":"SBFZ","flightCategory":"VFR","rawOb":"METAR SBFZ 241900Z 10013KT 9999 SCT030 30/22 Q1011","temp":30,"dewp":22,"wdir":100,"wspd":13,"visib":"6+","altim":1011,"clouds":[{"cover":"SCT","base":3000}],"obsTime":1779649200},"SBGL":{"icaoId":"SBGL","flightCategory":"VFR","rawOb":"METAR SBGL 241900Z 13007KT 9000 FEW025 25/19 Q1017","temp":25,"dewp":19,"wdir":130,"wspd":7,"visib":5.59,"altim":1017,"clouds":[{"cover":"FEW","base":2500}],"obsTime":1779649200},"SBPJ":{"icaoId":"SBPJ","flightCategory":"VFR","rawOb":"METAR SBPJ 241900Z 12005KT 070V170 9999 SCT048 33/19 Q1013","temp":33,"dewp":19,"wdir":120,"wspd":5,"visib":"6+","altim":1013,"clouds":[{"cover":"SCT","base":4800}],"obsTime":1779649200},"SBCP":{"icaoId":"SBCP","flightCategory":"VFR","rawOb":"METAR SBCP 241900Z 07010KT 9999 FEW020 26/19 Q1017","temp":26,"dewp":19,"wdir":70,"wspd":10,"visib":"6+","altim":1017,"clouds":[{"cover":"FEW","base":2000}],"obsTime":1779649200},"SBPV":{"icaoId":"SBPV","flightCategory":"VFR","rawOb":"METAR SBPV 241900Z 08004KT 9999 SCT025 29/25 Q1012","temp":29,"dewp":25,"wdir":80,"wspd":4,"visib":"6+","altim":1012,"clouds":[{"cover":"SCT","base":2500}],"obsTime":1779649200},"SBGO":{"icaoId":"SBGO","flightCategory":"VFR","rawOb":"METAR SBGO 241900Z 06005KT 030V090 9999 SCT045 28/17 Q1019","temp":28,"dewp":17,"wdir":60,"wspd":5,"visib":"6+","altim":1019,"clouds":[{"cover":"SCT","base":4500}],"obsTime":1779649200},"SBRB":{"icaoId":"SBRB","flightCategory":"VFR","rawOb":"METAR SBRB 241900Z 13004KT 9999 FEW030 28/20 Q1014","temp":28,"dewp":20,"wdir":130,"wspd":4,"visib":"6+","altim":1014,"clouds":[{"cover":"FEW","base":3000}],"obsTime":1779649200},"SBAT":{"icaoId":"SBAT","flightCategory":"VFR","rawOb":"METAR SBAT 241900Z 14007KT 9999 SCT035 34/20 Q1012","temp":34,"dewp":20,"wdir":140,"wspd":7,"visib":"6+","altim":1012,"clouds":[{"cover":"SCT","base":3500}],"obsTime":1779649200},"SBRF":{"icaoId":"SBRF","flightCategory":"MVFR","rawOb":"METAR SBRF 241900Z 18009KT 9999 VCSH SCT011 BKN023 25/23 Q1013","temp":25,"dewp":23,"wdir":180,"wspd":9,"visib":"6+","altim":1013,"clouds":[{"cover":"SCT","base":1100},{"cover":"BKN","base":2300}],"obsTime":1779649200},"SBCR":{"icaoId":"SBCR","flightCategory":"VFR","rawOb":"METAR SBCR 241900Z 06008KT 9999 SCT030 27/19 Q1014","temp":27,"dewp":19,"wdir":60,"wspd":8,"visib":"6+","altim":1014,"clouds":[{"cover":"SCT","base":3000}],"obsTime":1779649200},"SBSG":{"icaoId":"SBSG","flightCategory":"VFR","rawOb":"METAR SBSG 241900Z 12008KT 090V160 9999 SCT030 28/22 Q1012","temp":28,"dewp":22,"wdir":120,"wspd":8,"visib":"6+","altim":1012,"clouds":[{"cover":"SCT","base":3000}],"obsTime":1779649200},"SBGR":{"icaoId":"SBGR","flightCategory":"VFR","rawOb":"METAR SBGR 241900Z 29005KT 9999 SCT030 SCT100 25/18 Q1020","temp":25,"dewp":18,"wdir":290,"wspd":5,"visib":"6+","altim":1020,"clouds":[{"cover":"SCT","base":3000},{"cover":"SCT","base":10000}],"obsTime":1779649200},"SBSL":{"icaoId":"SBSL","flightCategory":"MVFR","rawOb":"METAR SBSL 241900Z 28002KT 9999 BKN025 BKN070 26/24 Q1010","temp":26,"dewp":24,"wdir":280,"wspd":2,"visib":"6+","altim":1010,"clouds":[{"cover":"BKN","base":2500},{"cover":"BKN","base":7000}],"obsTime":1779649200},"SBCB":{"icaoId":"SBCB","flightCategory":"VFR","rawOb":"METAR SBCB 241900Z 10005KT CAVOK 25/20 Q1017","temp":25,"dewp":20,"wdir":100,"wspd":5,"visib":"6+","altim":1017,"clouds":[],"obsTime":1779649200},"SBSN":{"icaoId":"SBSN","flightCategory":"VFR","rawOb":"METAR SBSN 241900Z 17003KT 9999 SCT016 BKN100 26/25 Q1011","temp":26,"dewp":25,"wdir":170,"wspd":3,"visib":"6+","altim":1011,"clouds":[{"cover":"SCT","base":1600},{"cover":"BKN","base":10000}],"obsTime":1779649200},"SBHT":{"icaoId":"SBHT","flightCategory":"MVFR","rawOb":"METAR SBHT 241900Z 09002KT 9999 BKN020 FEW023TCU BKN090 26/24 Q1011","temp":26,"dewp":24,"wdir":90,"wspd":2,"visib":"6+","altim":1011,"clouds":[{"cover":"BKN","base":2000},{"cover":"FEW","base":2300},{"cover":"BKN","base":9000}],"obsTime":1779649200},"SBCT":{"icaoId":"SBCT","flightCategory":"LIFR","rawOb":"METAR SBCT 241900Z 20006KT 2200 RA BR BKN003 OVC009 16/16 Q1021 RERA","temp":16,"dewp":16,"wdir":200,"wspd":6,"visib":1.37,"altim":1021,"clouds":[{"cover":"BKN","base":300},{"cover":"OVC","base":900}],"obsTime":1779649200},"SBSV":{"icaoId":"SBSV","flightCategory":"VFR","rawOb":"METAR SBSV 241900Z 11010KT 9999 SCT026 SCT050 29/22 Q1014","temp":29,"dewp":22,"wdir":110,"wspd":10,"visib":"6+","altim":1014,"clouds":[{"cover":"SCT","base":2600},{"cover":"SCT","base":5000}],"obsTime":1779649200},"SBIL":{"icaoId":"SBIL","flightCategory":"VFR","rawOb":"METAR SBIL 241900Z 20010G20KT 9999 FEW020 SCT025 BKN070 28/22 Q1016","temp":28,"dewp":22,"wdir":200,"wspd":10,"visib":"6+","altim":1016,"clouds":[{"cover":"FEW","base":2000},{"cover":"SCT","base":2500},{"cover":"BKN","base":7000}],"obsTime":1779649200},"SBTE":{"icaoId":"SBTE","flightCategory":"VFR","rawOb":"METAR SBTE 241900Z 12006KT 9999 SCT020 33/21 Q1010","temp":33,"dewp":21,"wdir":120,"wspd":6,"visib":"6+","altim":1010,"clouds":[{"cover":"SCT","base":2000}],"obsTime":1779649200},"SBBR":{"icaoId":"SBBR","flightCategory":"MVFR","rawOb":"METAR SBBR 241900Z 11006KT 9999 BKN030 BKN100 24/16 Q1021","temp":24,"dewp":16,"wdir":110,"wspd":6,"visib":"6+","altim":1021,"clouds":[{"cover":"BKN","base":3000},{"cover":"BKN","base":10000}],"obsTime":1779649200},"SBUL":{"icaoId":"SBUL","flightCategory":"VFR","rawOb":"METAR SBUL 241900Z 08005KT 030V110 9999 SCT040 BKN066 24/17 Q1021","temp":24,"dewp":17,"wdir":80,"wspd":5,"visib":"6+","altim":1021,"clouds":[{"cover":"SCT","base":4000},{"cover":"BKN","base":6600}],"obsTime":1779649200},"SBJU":{"icaoId":"SBJU","flightCategory":"VFR","rawOb":"METAR SBJU 241900Z 15010KT 9999 FEW020 31/16 Q1014","temp":31,"dewp":16,"wdir":150,"wspd":10,"visib":"6+","altim":1014,"clouds":[{"cover":"FEW","base":2000}],"obsTime":1779649200},"SBUR":{"icaoId":"SBUR","flightCategory":"VFR","rawOb":"METAR SBUR 241900Z 01004KT CAVOK 27/16 Q1020","temp":27,"dewp":16,"wdir":10,"wspd":4,"visib":"6+","altim":1020,"clouds":[],"obsTime":1779649200},"SBKP":{"icaoId":"SBKP","flightCategory":"VFR","rawOb":"METAR SBKP 241900Z 28003KT 9999 FEW045 SCT070 24/19 Q1019","temp":24,"dewp":19,"wdir":280,"wspd":3,"visib":"6+","altim":1019,"clouds":[{"cover":"FEW","base":4500},{"cover":"SCT","base":7000}],"obsTime":1779649200},"SBVT":{"icaoId":"SBVT","flightCategory":"VFR","rawOb":"METAR SBVT 241900Z 05008KT 9999 FEW035 26/19 Q1018","temp":26,"dewp":19,"wdir":50,"wspd":8,"visib":"6+","altim":1018,"clouds":[{"cover":"FEW","base":3500}],"obsTime":1779649200},"SBCZ":{"icaoId":"SBCZ","flightCategory":"MVFR","rawOb":"METAR SBCZ 241900Z 15005KT 9999 BKN030 27/19 Q1014","temp":27,"dewp":19,"wdir":150,"wspd":5,"visib":"6+","altim":1014,"clouds":[{"cover":"BKN","base":3000}],"obsTime":1779649200},"SBNM":{"icaoId":"SBNM","flightCategory":"VFR","rawOb":"METAR SBNM 241900Z AUTO 12007KT 090V150 CAVOK 21/11 Q1018","temp":21,"dewp":11,"wdir":120,"wspd":7,"visib":"6+","altim":1018,"clouds":[],"obsTime":1779649200},"SBLE":{"icaoId":"SBLE","flightCategory":"MVFR","rawOb":"METAR SBLE 241900Z AUTO 14005KT 100V190 9999 SCT004 BKN024 OVC034 ///// Q////","temp":null,"dewp":null,"wdir":140,"wspd":5,"visib":"6+","altim":null,"clouds":[{"cover":"SCT","base":400},{"cover":"BKN","base":2400},{"cover":"OVC","base":3400}],"obsTime":1779649200},"SBTA":{"icaoId":"SBTA","flightCategory":"VFR","rawOb":"METAR SBTA 241900Z VRB01KT 9999 FEW030 FEW035TCU 25/18 Q1018","temp":25,"dewp":18,"wdir":"VRB","wspd":1,"visib":"6+","altim":1018,"clouds":[{"cover":"FEW","base":3000},{"cover":"FEW","base":3500}],"obsTime":1779649200},"SBJP":{"icaoId":"SBJP","flightCategory":"VFR","rawOb":"METAR SBJP 241900Z 13013KT 9999 FEW023 BKN040 26/23 Q1013","temp":26,"dewp":23,"wdir":130,"wspd":13,"visib":"6+","altim":1013,"clouds":[{"cover":"FEW","base":2300},{"cover":"BKN","base":4000}],"obsTime":1779649200},"SBJV":{"icaoId":"SBJV","flightCategory":"MVFR","rawOb":"METAR SBJV 241900Z 33002KT 9000 -RA FEW005 BKN030 BKN050 17/17 Q1020","temp":17,"dewp":17,"wdir":330,"wspd":2,"visib":5.59,"altim":1020,"clouds":[{"cover":"FEW","base":500},{"cover":"BKN","base":3000},{"cover":"BKN","base":5000}],"obsTime":1779649200},"SBPF":{"icaoId":"SBPF","flightCategory":"VFR","rawOb":"METAR SBPF 241900Z 08007KT 9999 FEW045 19/10 Q1020","temp":19,"dewp":10,"wdir":80,"wspd":7,"visib":"6+","altim":1020,"clouds":[{"cover":"FEW","base":4500}],"obsTime":1779649200},"SBTC":{"icaoId":"SBTC","flightCategory":"VFR","rawOb":"METAR SBTC 241900Z 17010KT 9999 SCT025 BKN080 26/21 Q1016","temp":26,"dewp":21,"wdir":170,"wspd":10,"visib":"6+","altim":1016,"clouds":[{"cover":"SCT","base":2500},{"cover":"BKN","base":8000}],"obsTime":1779649200},"SBAN":{"icaoId":"SBAN","flightCategory":"VFR","rawOb":"METAR SBAN 241900Z 14006KT 9999 SCT030 24/16 Q1021","temp":24,"dewp":16,"wdir":140,"wspd":6,"visib":"6+","altim":1021,"clouds":[{"cover":"SCT","base":3000}],"obsTime":1779649200},"SBIH":{"icaoId":"SBIH","flightCategory":"VFR","rawOb":"METAR SBIH 241900Z 00000KT 9999 -RA FEW013 BKN080 25/25 Q1011","temp":25,"dewp":25,"wdir":0,"wspd":0,"visib":"6+","altim":1011,"clouds":[{"cover":"FEW","base":1300},{"cover":"BKN","base":8000}],"obsTime":1779649200},"SBAF":{"icaoId":"SBAF","flightCategory":"VFR","rawOb":"METAR SBAF 241900Z 18011KT 9999 SCT033 24/23 Q1017","temp":24,"dewp":23,"wdir":180,"wspd":11,"visib":"6+","altim":1017,"clouds":[{"cover":"SCT","base":3300}],"obsTime":1779649200},"SBGW":{"icaoId":"SBGW","flightCategory":"VFR","rawOb":"METAR SBGW 241900Z 01003KT 9999 FEW025 SCT100 24/15 Q1019","temp":24,"dewp":15,"wdir":10,"wspd":3,"visib":"6+","altim":1019,"clouds":[{"cover":"FEW","base":2500},{"cover":"SCT","base":10000}],"obsTime":1779649200},"SBJR":{"icaoId":"SBJR","flightCategory":"VFR","rawOb":"METAR SBJR 241900Z 20004KT 9999 SCT015 24/21 Q1018","temp":24,"dewp":21,"wdir":200,"wspd":4,"visib":"6+","altim":1018,"clouds":[{"cover":"SCT","base":1500}],"obsTime":1779649200},"SBLS":{"icaoId":"SBLS","flightCategory":"VFR","rawOb":"METAR SBLS 241900Z 16004KT 100V200 9999 SCT040 26/15 Q1020","temp":26,"dewp":15,"wdir":160,"wspd":4,"visib":"6+","altim":1020,"clouds":[{"cover":"SCT","base":4000}],"obsTime":1779649200},"SBMT":{"icaoId":"SBMT","flightCategory":"MVFR","rawOb":"METAR SBMT 241900Z 25005KT 210V290 9999 BKN025 FEW030TCU 24/18 Q1019","temp":24,"dewp":18,"wdir":250,"wspd":5,"visib":"6+","altim":1019,"clouds":[{"cover":"BKN","base":2500},{"cover":"FEW","base":3000}],"obsTime":1779649200},"SBST":{"icaoId":"SBST","flightCategory":"IFR","rawOb":"METAR SBST 241900Z 31002KT 4000 -DZ BR FEW004 BKN008 OVC015 19/18 Q1019","temp":19,"dewp":18,"wdir":310,"wspd":2,"visib":2.49,"altim":1019,"clouds":[{"cover":"FEW","base":400},{"cover":"BKN","base":800},{"cover":"OVC","base":1500}],"obsTime":1779649200}}}