{"updated":1778928100,"count":72,"data":{"SBFZ":{"icaoId":"SBFZ","flightCategory":"MVFR","rawOb":"METAR SBFZ 160900Z 19004KT 9999 VCSH SCT010 BKN015 FEW025TCU BKN070 25/24 Q1012","temp":25,"dewp":24,"wdir":190,"wspd":4,"visib":"6+","altim":1012,"clouds":[{"cover":"SCT","base":1000},{"cover":"BKN","base":1500},{"cover":"FEW","base":2500},{"cover":"BKN","base":7000}],"obsTime":1778922000},"SBEG":{"icaoId":"SBEG","flightCategory":"LIFR","rawOb":"METAR SBEG 160900Z VRB02KT 0100 R29/1100U R11/P2000N FG OVC002 23/23 Q1013","temp":23,"dewp":23,"wdir":"VRB","wspd":2,"visib":0.06,"altim":1013,"clouds":[{"cover":"OVC","base":200}],"obsTime":1778922000},"SBMK":{"icaoId":"SBMK","flightCategory":"VFR","rawOb":"METAR SBMK 160900Z 25002KT CAVOK 18/16 Q1018","temp":18,"dewp":16,"wdir":250,"wspd":2,"visib":"6+","altim":1018,"clouds":[],"obsTime":1778922000},"SBMO":{"icaoId":"SBMO","flightCategory":"VFR","rawOb":"METAR SBMO 160900Z 28004KT 9999 FEW015 22/22 Q1014","temp":22,"dewp":22,"wdir":280,"wspd":4,"visib":"6+","altim":1014,"clouds":[{"cover":"FEW","base":1500}],"obsTime":1778922000},"SBFL":{"icaoId":"SBFL","flightCategory":"VFR","rawOb":"METAR SBFL 160900Z 30003KT 9999 FEW010 OVC040 17/16 Q1015","temp":17,"dewp":16,"wdir":300,"wspd":3,"visib":"6+","altim":1015,"clouds":[{"cover":"FEW","base":1000},{"cover":"OVC","base":4000}],"obsTime":1778922000},"SBBE":{"icaoId":"SBBE","flightCategory":"VFR","rawOb":"METAR SBBE 160900Z 11003KT CAVOK 24/24 Q1012","temp":24,"dewp":24,"wdir":110,"wspd":3,"visib":"6+","altim":1012,"clouds":[],"obsTime":1778922000},"SBMQ":{"icaoId":"SBMQ","flightCategory":"VFR","rawOb":"METAR SBMQ 160900Z 30002KT 9999 SCT005 SCT033 25/24 Q1013","temp":25,"dewp":24,"wdir":300,"wspd":2,"visib":"6+","altim":1013,"clouds":[{"cover":"SCT","base":500},{"cover":"SCT","base":3300}],"obsTime":1778922000},"SBNT":{"icaoId":"SBNT","flightCategory":"VFR","rawOb":"METAR SBNT 160900Z 14008KT 9999 SCT017 BKN080 24/22 Q1013","temp":24,"dewp":22,"wdir":140,"wspd":8,"visib":"6+","altim":1013,"clouds":[{"cover":"SCT","base":1700},{"cover":"BKN","base":8000}],"obsTime":1778922000},"SBPA":{"icaoId":"SBPA","flightCategory":"VFR","rawOb":"METAR SBPA 160900Z 00000KT CAVOK 10/10 Q1015","temp":10,"dewp":10,"wdir":0,"wspd":0,"visib":"6+","altim":1015,"clouds":[],"obsTime":1778922000},"SBPJ":{"icaoId":"SBPJ","flightCategory":"VFR","rawOb":"METAR SBPJ 160900Z 14003KT 9999 FEW016 23/21 Q1013","temp":23,"dewp":21,"wdir":140,"wspd":3,"visib":"6+","altim":1013,"clouds":[{"cover":"FEW","base":1600}],"obsTime":1778922000},"SBPV":{"icaoId":"SBPV","flightCategory":"VFR","rawOb":"METAR SBPV 160900Z 13003KT 9999 FEW035 24/21 Q1011","temp":24,"dewp":21,"wdir":130,"wspd":3,"visib":"6+","altim":1011,"clouds":[{"cover":"FEW","base":3500}],"obsTime":1778922000},"SBRB":{"icaoId":"SBRB","flightCategory":"VFR","rawOb":"METAR SBRB 160900Z 25001KT CAVOK 22/21 Q1012","temp":22,"dewp":21,"wdir":250,"wspd":1,"visib":"6+","altim":1012,"clouds":[],"obsTime":1778922000},"SBGL":{"icaoId":"SBGL","flightCategory":"IFR","rawOb":"METAR SBGL 160900Z 33003KT 4000 BR NSC 21/20 Q1014","temp":21,"dewp":20,"wdir":330,"wspd":3,"visib":2.49,"altim":1014,"clouds":[],"obsTime":1778922000},"SBRF":{"icaoId":"SBRF","flightCategory":"VFR","rawOb":"METAR SBRF 160900Z 21002KT 9999 SCT017 23/22 Q1013","temp":23,"dewp":22,"wdir":210,"wspd":2,"visib":"6+","altim":1013,"clouds":[{"cover":"SCT","base":1700}],"obsTime":1778922000},"SBCG":{"icaoId":"SBCG","flightCategory":"VFR","rawOb":"METAR SBCG 160900Z 03004KT 9999 FEW025 SCT100 19/18 Q1015","temp":19,"dewp":18,"wdir":30,"wspd":4,"visib":"6+","altim":1015,"clouds":[{"cover":"FEW","base":2500},{"cover":"SCT","base":10000}],"obsTime":1778922000},"SBGO":{"icaoId":"SBGO","flightCategory":"VFR","rawOb":"METAR SBGO 160900Z 14004KT 9999 SCT030 BKN100 19/17 Q1018","temp":19,"dewp":17,"wdir":140,"wspd":4,"visib":"6+","altim":1018,"clouds":[{"cover":"SCT","base":3000},{"cover":"BKN","base":10000}],"obsTime":1778922000},"SBSG":{"icaoId":"SBSG","flightCategory":"MVFR","rawOb":"METAR SBSG 160900Z 17004KT 9999 BKN024 BKN080 23/22 Q1013","temp":23,"dewp":22,"wdir":170,"wspd":4,"visib":"6+","altim":1013,"clouds":[{"cover":"BKN","base":2400},{"cover":"BKN","base":8000}],"obsTime":1778922000},"SBSL":{"icaoId":"SBSL","flightCategory":"VFR","rawOb":"METAR SBSL 160900Z 18004KT 9999 FEW025 SCT100 24/23 Q1013","temp":24,"dewp":23,"wdir":180,"wspd":4,"visib":"6+","altim":1013,"clouds":[{"cover":"FEW","base":2500},{"cover":"SCT","base":10000}],"obsTime":1778922000},"SBCP":{"icaoId":"SBCP","flightCategory":"VFR","rawOb":"METAR SBCP 161000Z 01003KT CAVOK 22/21 Q1016","temp":22,"dewp":21,"wdir":10,"wspd":3,"visib":"6+","altim":1016,"clouds":[],"obsTime":1778925600},"SBBR":{"icaoId":"SBBR","flightCategory":"VFR","rawOb":"METAR SBBR 160900Z 03003KT CAVOK 19/17 Q1019","temp":19,"dewp":17,"wdir":30,"wspd":3,"visib":"6+","altim":1019,"clouds":[],"obsTime":1778922000},"SBSN":{"icaoId":"SBSN","flightCategory":"VFR","rawOb":"METAR SBSN 160900Z 08007KT 9999 FEW017 SCT090 26/24 Q1012","temp":26,"dewp":24,"wdir":80,"wspd":7,"visib":"6+","altim":1012,"clouds":[{"cover":"FEW","base":1700},{"cover":"SCT","base":9000}],"obsTime":1778922000},"SBGR":{"icaoId":"SBGR","flightCategory":"LIFR","rawOb":"METAR SBGR 160900Z 03003KT 0900 R10L/1600N R28R/1800N R10R/P2000 R28L/P2000 FG OVC002 15/15 Q1018","temp":15,"dewp":15,"wdir":30,"wspd":3,"visib":0.56,"altim":1018,"clouds":[{"cover":"OVC","base":200}],"obsTime":1778922000},"SBSP":{"icaoId":"SBSP","flightCategory":"LIFR","rawOb":"METAR SBSP 160900Z COR 08003KT 050V110 4000 BR BKN004 16/16 Q1019","temp":16,"dewp":16,"wdir":80,"wspd":3,"visib":2.49,"altim":1019,"clouds":[{"cover":"BKN","base":400}],"obsTime":1778922000},"SBHT":{"icaoId":"SBHT","flightCategory":"MVFR","rawOb":"METAR SBHT 161000Z 01003KT 9999 BKN015 SCT080 25/24 Q1014","temp":25,"dewp":24,"wdir":10,"wspd":3,"visib":"6+","altim":1014,"clouds":[{"cover":"BKN","base":1500},{"cover":"SCT","base":8000}],"obsTime":1778925600},"SBSV":{"icaoId":"SBSV","flightCategory":"VFR","rawOb":"METAR SBSV 160900Z 15003KT 9999 FEW027 26/21 Q1014","temp":26,"dewp":21,"wdir":150,"wspd":3,"visib":"6+","altim":1014,"clouds":[{"cover":"FEW","base":2700}],"obsTime":1778922000},"SBTE":{"icaoId":"SBTE","flightCategory":"VFR","rawOb":"METAR SBTE 160900Z 36005KT 9999 FEW016 SCT090 25/24 Q1012","temp":25,"dewp":24,"wdir":360,"wspd":5,"visib":"6+","altim":1012,"clouds":[{"cover":"FEW","base":1600},{"cover":"SCT","base":9000}],"obsTime":1778922000},"SBIL":{"icaoId":"SBIL","flightCategory":"VFR","rawOb":"METAR SBIL 161000Z 29005KT 9999 SCT020 23/22 Q1016","temp":23,"dewp":22,"wdir":290,"wspd":5,"visib":"6+","altim":1016,"clouds":[{"cover":"SCT","base":2000}],"obsTime":1778925600},"SBCT":{"icaoId":"SBCT","flightCategory":"IFR","rawOb":"METAR SBCT 160900Z 03003KT 8000 BKN008 OVC013 14/14 Q1017","temp":14,"dewp":14,"wdir":30,"wspd":3,"visib":4.97,"altim":1017,"clouds":[{"cover":"BKN","base":800},{"cover":"OVC","base":1300}],"obsTime":1778922000},"SBUL":{"icaoId":"SBUL","flightCategory":"VFR","rawOb":"METAR SBUL 160900Z 12005KT 070V140 CAVOK 19/15 Q1019","temp":19,"dewp":15,"wdir":120,"wspd":5,"visib":"6+","altim":1019,"clouds":[],"obsTime":1778922000},"SBJU":{"icaoId":"SBJU","flightCategory":"VFR","rawOb":"METAR SBJU 160900Z 00000KT CAVOK 20/18 Q1016","temp":20,"dewp":18,"wdir":0,"wspd":0,"visib":"6+","altim":1016,"clouds":[],"obsTime":1778922000},"SBUR":{"icaoId":"SBUR","flightCategory":"VFR","rawOb":"METAR SBUR 160900Z 03006KT CAVOK 19/16 Q1018","temp":19,"dewp":16,"wdir":30,"wspd":6,"visib":"6+","altim":1018,"clouds":[],"obsTime":1778922000},"SBVT":{"icaoId":"SBVT","flightCategory":"VFR","rawOb":"METAR SBVT 160900Z 27003KT 9000 SCT030 BKN050 23/21 Q1015","temp":23,"dewp":21,"wdir":270,"wspd":3,"visib":5.59,"altim":1015,"clouds":[{"cover":"SCT","base":3000},{"cover":"BKN","base":5000}],"obsTime":1778922000},"SBKP":{"icaoId":"SBKP","flightCategory":"VFR","rawOb":"METAR SBKP 160900Z 13005KT 9000 NSC 15/14 Q1018","temp":15,"dewp":14,"wdir":130,"wspd":5,"visib":5.59,"altim":1018,"clouds":[],"obsTime":1778922000},"SBCB":{"icaoId":"SBCB","flightCategory":"VFR","rawOb":"METAR SBCB 160900Z 03002KT 9999 SCT025 22/20 Q1015","temp":22,"dewp":20,"wdir":30,"wspd":2,"visib":"6+","altim":1015,"clouds":[{"cover":"SCT","base":2500}],"obsTime":1778922000},"SBLO":{"icaoId":"SBLO","flightCategory":"LIFR","rawOb":"METAR SBLO 160900Z 05004KT 0100 R13/0800U FG VV002 17/17 Q1016","temp":17,"dewp":17,"wdir":50,"wspd":4,"visib":0.06,"altim":1016,"clouds":[{"cover":"OVX","base":200}],"obsTime":1778922000},"SBME":{"icaoId":"SBME","flightCategory":"VFR","rawOb":"METAR SBME 160900Z 31002KT CAVOK 21/20 Q1015","temp":21,"dewp":20,"wdir":310,"wspd":2,"visib":"6+","altim":1015,"clouds":[],"obsTime":1778922000},"SBMG":{"icaoId":"SBMG","flightCategory":"VFR","rawOb":"METAR SBMG 160900Z AUTO 02008KT 9999 FEW005 OVC037 18/18 Q1015","temp":18,"dewp":18,"wdir":20,"wspd":8,"visib":"6+","altim":1015,"clouds":[{"cover":"FEW","base":500},{"cover":"OVC","base":3700}],"obsTime":1778922000},"SBBV":{"icaoId":"SBBV","flightCategory":"VFR","rawOb":"METAR SBBV 160900Z 13004KT 9999 FEW030 FEW035TCU BKN080 26/24 Q1012","temp":26,"dewp":24,"wdir":130,"wspd":4,"visib":"6+","altim":1012,"clouds":[{"cover":"FEW","base":3000},{"cover":"FEW","base":3500},{"cover":"BKN","base":8000}],"obsTime":1778922000},"SBFI":{"icaoId":"SBFI","flightCategory":"MVFR","rawOb":"METAR SBFI 160900Z 00000KT 6000 0800SE BCFG SCT004 BKN025 17/17 Q1014","temp":17,"dewp":17,"wdir":0,"wspd":0,"visib":3.73,"altim":1014,"clouds":[{"cover":"SCT","base":400},{"cover":"BKN","base":2500}],"obsTime":1778922000},"SBMA":{"icaoId":"SBMA","flightCategory":"VFR","rawOb":"METAR SBMA 160900Z 00000KT CAVOK 25/24 Q1013","temp":25,"dewp":24,"wdir":0,"wspd":0,"visib":"6+","altim":1013,"clouds":[],"obsTime":1778922000},"SBCF":{"icaoId":"SBCF","flightCategory":"VFR","rawOb":"METAR SBCF 160900Z 21001KT 9000 NSC 18/17 Q1019","temp":18,"dewp":17,"wdir":210,"wspd":1,"visib":5.59,"altim":1019,"clouds":[],"obsTime":1778922000},"SBCJ":{"icaoId":"SBCJ","flightCategory":"VFR","rawOb":"SPECI SBCJ 161015Z 36004KT 9999 SCT004 23/22 Q1018","temp":23,"dewp":22,"wdir":360,"wspd":4,"visib":"6+","altim":1018,"clouds":[{"cover":"SCT","base":400}],"obsTime":1778926500},"SBPB":{"icaoId":"SBPB","flightCategory":"VFR","rawOb":"SPECI SBPB 161015Z 07002KT 9999 FEW020 27/24 Q1013","temp":27,"dewp":24,"wdir":70,"wspd":2,"visib":"6+","altim":1013,"clouds":[{"cover":"FEW","base":2000}],"obsTime":1778926500},"SBOI":{"icaoId":"SBOI","flightCategory":"VFR","rawOb":"METAR SBOI 160900Z AUTO VRB02KT 9000 // FEW027/// BKN070/// 24/24 Q1013","temp":24,"dewp":24,"wdir":"VRB","wspd":2,"visib":5.59,"altim":1013,"clouds":[{"cover":"FEW","base":2700},{"cover":"BKN","base":7000}],"obsTime":1778922000},"SBAX":{"icaoId":"SBAX","flightCategory":"VFR","rawOb":"METAR SBAX 160900Z AUTO 13004KT CAVOK 17/15 Q1019","temp":17,"dewp":15,"wdir":130,"wspd":4,"visib":"6+","altim":1019,"clouds":[],"obsTime":1778922000},"SBPL":{"icaoId":"SBPL","flightCategory":"VFR","rawOb":"METAR SBPL 160900Z 13005KT CAVOK 22/20 Q1016","temp":22,"dewp":20,"wdir":130,"wspd":5,"visib":"6+","altim":1016,"clouds":[],"obsTime":1778922000},"SBPS":{"icaoId":"SBPS","flightCategory":"MVFR","rawOb":"METAR SBPS 160900Z 26005KT 6000 SCT020 21/21 Q1015","temp":21,"dewp":21,"wdir":260,"wspd":5,"visib":3.73,"altim":1015,"clouds":[{"cover":"SCT","base":2000}],"obsTime":1778922000},"SBDN":{"icaoId":"SBDN","flightCategory":"LIFR","rawOb":"METAR SBDN 160900Z 05004KT 2500 BR BCFG OVC003 18/17 Q1015","temp":18,"dewp":17,"wdir":50,"wspd":4,"visib":1.55,"altim":1015,"clouds":[{"cover":"OVC","base":300}],"obsTime":1778922000},"SBBU":{"icaoId":"SBBU","flightCategory":"LIFR","rawOb":"METAR SBBU 160900Z 12003KT 0500 FG VV000 17/17 Q1017","temp":17,"dewp":17,"wdir":120,"wspd":3,"visib":0.31,"altim":1017,"clouds":[{"cover":"OVX","base":0}],"obsTime":1778922000},"SBSC":{"icaoId":"SBSC","flightCategory":"VFR","rawOb":"METAR SBSC 160900Z 03002KT 9999 FEW010 SCT090 22/20 Q1016","temp":22,"dewp":20,"wdir":30,"wspd":2,"visib":"6+","altim":1016,"clouds":[{"cover":"FEW","base":1000},{"cover":"SCT","base":9000}],"obsTime":1778922000},"SBSJ":{"icaoId":"SBSJ","flightCategory":"LIFR","rawOb":"METAR SBSJ 160900Z 15002KT 0150 R34///// R16/0300 BCFG VV002 15/15 Q1018","temp":15,"dewp":15,"wdir":150,"wspd":2,"visib":0.09,"altim":1018,"clouds":[{"cover":"OVX","base":200}],"obsTime":1778922000},"SBES":{"icaoId":"SBES","flightCategory":"VFR","rawOb":"METAR SBES 160900Z 00000KT 9000 NSC 18/// Q1015","temp":null,"dewp":null,"wdir":0,"wspd":0,"visib":5.59,"altim":1015,"clouds":[],"obsTime":1778922000},"SBSM":{"icaoId":"SBSM","flightCategory":"LIFR","rawOb":"METAR SBSM 160900Z 00000KT 0600 R29///// R11/P2000 FG VV002 09/09 Q1015","temp":9,"dewp":9,"wdir":0,"wspd":0,"visib":0.37,"altim":1015,"clouds":[{"cover":"OVX","base":200}],"obsTime":1778922000},"SBBH":{"icaoId":"SBBH","flightCategory":"VFR","rawOb":"METAR SBBH 160900Z 00000KT CAVOK 19/17 Q1019","temp":19,"dewp":17,"wdir":0,"wspd":0,"visib":"6+","altim":1019,"clouds":[],"obsTime":1778922000},"SBCO":{"icaoId":"SBCO","flightCategory":"VFR","rawOb":"METAR SBCO 160900Z 00000KT CAVOK 09/08 Q1016","temp":9,"dewp":8,"wdir":0,"wspd":0,"visib":"6+","altim":1016,"clouds":[],"obsTime":1778922000},"SBKG":{"icaoId":"SBKG","flightCategory":"VFR","rawOb":"METAR SBKG 160900Z 25001KT CAVOK 21/20 Q1016","temp":21,"dewp":20,"wdir":250,"wspd":1,"visib":"6+","altim":1016,"clouds":[],"obsTime":1778922000},"SBSR":{"icaoId":"SBSR","flightCategory":"VFR","rawOb":"METAR SBSR 160900Z 09003KT CAVOK 17/16 Q1016","temp":17,"dewp":16,"wdir":90,"wspd":3,"visib":"6+","altim":1016,"clouds":[],"obsTime":1778922000},"SBAR":{"icaoId":"SBAR","flightCategory":"VFR","rawOb":"METAR SBAR 160900Z 31003KT 9999 FEW026 22/22 Q1014","temp":22,"dewp":22,"wdir":310,"wspd":3,"visib":"6+","altim":1014,"clouds":[{"cover":"FEW","base":2600}],"obsTime":1778922000},"SBIP":{"icaoId":"SBIP","flightCategory":"LIFR","rawOb":"METAR SBIP 160900Z AUTO 00000KT 0550 FG VV002 19/19 Q1017","temp":19,"dewp":19,"wdir":0,"wspd":0,"visib":0.34,"altim":1017,"clouds":[{"cover":"OVX","base":200}],"obsTime":1778922000},"SBTU":{"icaoId":"SBTU","flightCategory":"VFR","rawOb":"METAR SBTU 160900Z AUTO 18006KT 9999 // SCT003/// OVC100/// ///// Q1015","temp":null,"dewp":null,"wdir":180,"wspd":6,"visib":"6+","altim":1015,"clouds":[{"cover":"SCT","base":300},{"cover":"OVC","base":10000}],"obsTime":1778922000},"SBTA":{"icaoId":"SBTA","flightCategory":"LIFR","rawOb":"METAR SBTA 160900Z VRB01KT 0200 FG VV002 15/15 Q1017","temp":15,"dewp":15,"wdir":"VRB","wspd":1,"visib":0.12,"altim":1017,"clouds":[{"cover":"OVX","base":200}],"obsTime":1778922000},"SBJP":{"icaoId":"SBJP","flightCategory":"VFR","rawOb":"METAR SBJP 160900Z 00000KT CAVOK 23/23 Q1014","temp":23,"dewp":23,"wdir":0,"wspd":0,"visib":"6+","altim":1014,"clouds":[],"obsTime":1778922000},"SBAN":{"icaoId":"SBAN","flightCategory":"VFR","rawOb":"METAR SBAN 160900Z 20006KT CAVOK 20/16 Q1020","temp":20,"dewp":16,"wdir":200,"wspd":6,"visib":"6+","altim":1020,"clouds":[],"obsTime":1778922000},"SBJV":{"icaoId":"SBJV","flightCategory":"IFR","rawOb":"METAR SBJV 160900Z 00000KT 4000 -DZ BR OVC010 17/17 Q1016","temp":17,"dewp":17,"wdir":0,"wspd":0,"visib":2.49,"altim":1016,"clouds":[{"cover":"OVC","base":1000}],"obsTime":1778922000},"SBPF":{"icaoId":"SBPF","flightCategory":"VFR","rawOb":"METAR SBPF 161000Z 06009KT CAVOK 11/09 Q1016","temp":11,"dewp":9,"wdir":60,"wspd":9,"visib":"6+","altim":1016,"clouds":[],"obsTime":1778925600},"SBLE":{"icaoId":"SBLE","flightCategory":"VFR","rawOb":"METAR SBLE 160900Z AUTO 36004KT CAVOK ///// Q////","temp":null,"dewp":null,"wdir":360,"wspd":4,"visib":"6+","altim":null,"clouds":[],"obsTime":1778922000},"SBAF":{"icaoId":"SBAF","flightCategory":"IFR","rawOb":"METAR SBAF 161000Z 21002KT 4000 BR FEW008 17/17 Q1016","temp":17,"dewp":17,"wdir":210,"wspd":2,"visib":2.49,"altim":1016,"clouds":[{"cover":"FEW","base":800}],"obsTime":1778925600},"SBGW":{"icaoId":"SBGW","flightCategory":"LIFR","rawOb":"METAR SBGW 160900Z 18001KT 1500 BR OVC010 17/14 Q1018","temp":17,"dewp":14,"wdir":180,"wspd":1,"visib":0.93,"altim":1018,"clouds":[{"cover":"OVC","base":1000}],"obsTime":1778922000},"SBJR":{"icaoId":"SBJR","flightCategory":"MVFR","rawOb":"METAR SBJR 161000Z 35005KT 7000 NSC 21/20 Q1015","temp":21,"dewp":20,"wdir":350,"wspd":5,"visib":4.35,"altim":1015,"clouds":[],"obsTime":1778925600},"SBLS":{"icaoId":"SBLS","flightCategory":"VFR","rawOb":"METAR SBLS 160900Z 15006KT 9999 FEW010 19/17 Q1019","temp":19,"dewp":17,"wdir":150,"wspd":6,"visib":"6+","altim":1019,"clouds":[{"cover":"FEW","base":1000}],"obsTime":1778922000},"SBMT":{"icaoId":"SBMT","flightCategory":"IFR","rawOb":"METAR SBMT 160900Z 07002KT 3500 BR SCT005 BKN006 15/15 Q1018","temp":15,"dewp":15,"wdir":70,"wspd":2,"visib":2.17,"altim":1018,"clouds":[{"cover":"SCT","base":500},{"cover":"BKN","base":600}],"obsTime":1778922000},"SBNM":{"icaoId":"SBNM","flightCategory":"IFR","rawOb":"METAR SBNM 160900Z AUTO 11005KT 3400 BR FEW004 09/09 Q1014","temp":9,"dewp":9,"wdir":110,"wspd":5,"visib":2.11,"altim":1014,"clouds":[{"cover":"FEW","base":400}],"obsTime":1778922000}}}