{"updated":1775418799,"count":86,"data":{"SBMO":{"icaoId":"SBMO","flightCategory":"MVFR","rawOb":"METAR SBMO 051800Z 07012KT 9000 VCSH SCT025 BKN030 BKN070 26/24 Q1012","temp":26,"dewp":24,"wdir":70,"wspd":12,"visib":5.59,"altim":1012,"clouds":[{"cover":"SCT","base":2500},{"cover":"BKN","base":3000},{"cover":"BKN","base":7000}],"obsTime":1775412000},"SBFL":{"icaoId":"SBFL","flightCategory":"VFR","rawOb":"METAR SBFL 051800Z 18012KT 150V220 9999 SCT030 SCT060 BKN100 26/21 Q1016","temp":26,"dewp":21,"wdir":180,"wspd":12,"visib":"6+","altim":1016,"clouds":[{"cover":"SCT","base":3000},{"cover":"SCT","base":6000},{"cover":"BKN","base":10000}],"obsTime":1775412000},"SBRF":{"icaoId":"SBRF","flightCategory":"MVFR","rawOb":"METAR SBRF 051800Z 10010KT 5000 -RA BR SCT006 BKN018 BKN050 26/24 Q1011","temp":26,"dewp":24,"wdir":100,"wspd":10,"visib":3.11,"altim":1011,"clouds":[{"cover":"SCT","base":600},{"cover":"BKN","base":1800},{"cover":"BKN","base":5000}],"obsTime":1775412000},"SBFI":{"icaoId":"SBFI","flightCategory":"VFR","rawOb":"METAR SBFI 051800Z COR 35006KT 9999 VCSH SCT030 FEW035TCU 35/18 Q1012","temp":35,"dewp":18,"wdir":350,"wspd":6,"visib":"6+","altim":1012,"clouds":[{"cover":"SCT","base":3000},{"cover":"FEW","base":3500}],"obsTime":1775412000},"SBMK":{"icaoId":"SBMK","flightCategory":"VFR","rawOb":"METAR SBMK 051800Z 08006KT 9999 FEW040 30/19 Q1015","temp":30,"dewp":19,"wdir":80,"wspd":6,"visib":"6+","altim":1015,"clouds":[{"cover":"FEW","base":4000}],"obsTime":1775412000},"SBCG":{"icaoId":"SBCG","flightCategory":"VFR","rawOb":"METAR SBCG 051800Z 08007KT 9999 TS VCSH SCT035 FEW045CB BKN100 27/21 Q1015","temp":27,"dewp":21,"wdir":80,"wspd":7,"visib":"6+","altim":1015,"clouds":[{"cover":"SCT","base":3500},{"cover":"FEW","base":4500},{"cover":"BKN","base":10000}],"obsTime":1775412000},"SBMQ":{"icaoId":"SBMQ","flightCategory":"VFR","rawOb":"METAR SBMQ 051800Z 01008KT 9999 SCT017 29/25 Q1010","temp":29,"dewp":25,"wdir":10,"wspd":8,"visib":"6+","altim":1010,"clouds":[{"cover":"SCT","base":1700}],"obsTime":1775412000},"SBNT":{"icaoId":"SBNT","flightCategory":"VFR","rawOb":"METAR SBNT 051800Z 10011KT 070V140 9999 SCT030 SCT053 BKN100 31/22 Q1011","temp":31,"dewp":22,"wdir":100,"wspd":11,"visib":"6+","altim":1011,"clouds":[{"cover":"SCT","base":3000},{"cover":"SCT","base":5300},{"cover":"BKN","base":10000}],"obsTime":1775412000},"SBFZ":{"icaoId":"SBFZ","flightCategory":"MVFR","rawOb":"METAR SBFZ 051800Z 09012KT 5000 RA BKN020 FEW025TCU BKN060 29/25 Q1010","temp":29,"dewp":25,"wdir":90,"wspd":12,"visib":3.11,"altim":1010,"clouds":[{"cover":"BKN","base":2000},{"cover":"FEW","base":2500},{"cover":"BKN","base":6000}],"obsTime":1775412000},"SBPA":{"icaoId":"SBPA","flightCategory":"MVFR","rawOb":"METAR SBPA 051800Z 14012KT 9999 OVC030 22/15 Q1019","temp":22,"dewp":15,"wdir":140,"wspd":12,"visib":"6+","altim":1019,"clouds":[{"cover":"OVC","base":3000}],"obsTime":1775412000},"SBAT":{"icaoId":"SBAT","flightCategory":"VFR","rawOb":"METAR SBAT 051800Z 03005KT 9999 VCSH FEW025 FEW033TCU 28/23 Q1012","temp":28,"dewp":23,"wdir":30,"wspd":5,"visib":"6+","altim":1012,"clouds":[{"cover":"FEW","base":2500},{"cover":"FEW","base":3300}],"obsTime":1775412000},"SBPJ":{"icaoId":"SBPJ","flightCategory":"VFR","rawOb":"METAR SBPJ 051800Z 23006KT 200V270 9999 SCT040 33/24 Q1011","temp":33,"dewp":24,"wdir":230,"wspd":6,"visib":"6+","altim":1011,"clouds":[{"cover":"SCT","base":4000}],"obsTime":1775412000},"SBBV":{"icaoId":"SBBV","flightCategory":"MVFR","rawOb":"METAR SBBV 051800Z 16007KT 9999 BKN030 FEW035TCU SCT100 31/22 Q1011","temp":31,"dewp":22,"wdir":160,"wspd":7,"visib":"6+","altim":1011,"clouds":[{"cover":"BKN","base":3000},{"cover":"FEW","base":3500},{"cover":"SCT","base":10000}],"obsTime":1775412000},"SBPV":{"icaoId":"SBPV","flightCategory":"MVFR","rawOb":"METAR SBPV 051800Z 20007KT 340V060 9999 BKN030 FEW035TCU 31/23 Q1009","temp":31,"dewp":23,"wdir":200,"wspd":7,"visib":"6+","altim":1009,"clouds":[{"cover":"BKN","base":3000},{"cover":"FEW","base":3500}],"obsTime":1775412000},"SBGL":{"icaoId":"SBGL","flightCategory":"VFR","rawOb":"METAR SBGL 051800Z 12010KT 9999 FEW040 28/22 Q1013","temp":28,"dewp":22,"wdir":120,"wspd":10,"visib":"6+","altim":1013,"clouds":[{"cover":"FEW","base":4000}],"obsTime":1775412000},"SBRB":{"icaoId":"SBRB","flightCategory":"MVFR","rawOb":"METAR SBRB 051800Z COR 12003KT 9999 BKN030 BKN100 31/24 Q1012","temp":31,"dewp":24,"wdir":120,"wspd":3,"visib":"6+","altim":1012,"clouds":[{"cover":"BKN","base":3000},{"cover":"BKN","base":10000}],"obsTime":1775412000},"SBCP":{"icaoId":"SBCP","flightCategory":"VFR","rawOb":"METAR SBCP 051800Z 09012KT 9999 FEW020 29/24 Q1012","temp":29,"dewp":24,"wdir":90,"wspd":12,"visib":"6+","altim":1012,"clouds":[{"cover":"FEW","base":2000}],"obsTime":1775412000},"SBEG":{"icaoId":"SBEG","flightCategory":"VFR","rawOb":"METAR SBEG 051800Z VRB02KT 9999 SCT025 30/23 Q1011","temp":30,"dewp":23,"wdir":"VRB","wspd":2,"visib":"6+","altim":1011,"clouds":[{"cover":"SCT","base":2500}],"obsTime":1775412000},"SBME":{"icaoId":"SBME","flightCategory":"VFR","rawOb":"METAR SBME 051800Z 18003KT 140V200 9999 VCTS FEW040CB 26/23 Q1013","temp":26,"dewp":23,"wdir":180,"wspd":3,"visib":"6+","altim":1013,"clouds":[{"cover":"FEW","base":4000}],"obsTime":1775412000},"SBCF":{"icaoId":"SBCF","flightCategory":"VFR","rawOb":"METAR SBCF 051800Z 08006KT 9999 BKN035 FEW040TCU 29/19 Q1017","temp":29,"dewp":19,"wdir":80,"wspd":6,"visib":"6+","altim":1017,"clouds":[{"cover":"BKN","base":3500},{"cover":"FEW","base":4000}],"obsTime":1775412000},"SBMG":{"icaoId":"SBMG","flightCategory":"VFR","rawOb":"METAR SBMG 051800Z 01006KT 280V070 9999 FEW050TCU BKN060 33/19 Q1014","temp":33,"dewp":19,"wdir":10,"wspd":6,"visib":"6+","altim":1014,"clouds":[{"cover":"FEW","base":5000},{"cover":"BKN","base":6000}],"obsTime":1775412000},"SBMA":{"icaoId":"SBMA","flightCategory":"VFR","rawOb":"METAR SBMA 051800Z 19006KT 9999 SCT020 BKN100 31/25 Q1009","temp":31,"dewp":25,"wdir":190,"wspd":6,"visib":"6+","altim":1009,"clouds":[{"cover":"SCT","base":2000},{"cover":"BKN","base":10000}],"obsTime":1775412000},"SBBR":{"icaoId":"SBBR","flightCategory":"VFR","rawOb":"METAR SBBR 051800Z 10006KT 040V140 9999 SCT040 FEW045TCU 19/16 Q1018","temp":19,"dewp":16,"wdir":100,"wspd":6,"visib":"6+","altim":1018,"clouds":[{"cover":"SCT","base":4000},{"cover":"FEW","base":4500}],"obsTime":1775412000},"SBGO":{"icaoId":"SBGO","flightCategory":"VFR","rawOb":"METAR SBGO 051800Z 09007KT 050V140 9999 SCT045 31/19 Q1015","temp":31,"dewp":19,"wdir":90,"wspd":7,"visib":"6+","altim":1015,"clouds":[{"cover":"SCT","base":4500}],"obsTime":1775412000},"SBSG":{"icaoId":"SBSG","flightCategory":"VFR","rawOb":"METAR SBSG 051800Z 10012KT 080V140 9999 SCT033 30/23 Q1011","temp":30,"dewp":23,"wdir":100,"wspd":12,"visib":"6+","altim":1011,"clouds":[{"cover":"SCT","base":3300}],"obsTime":1775412000},"SBGR":{"icaoId":"SBGR","flightCategory":"VFR","rawOb":"METAR SBGR 051800Z 19006KT 9999 BKN035 28/19 Q1018","temp":28,"dewp":19,"wdir":190,"wspd":6,"visib":"6+","altim":1018,"clouds":[{"cover":"BKN","base":3500}],"obsTime":1775412000},"SBSL":{"icaoId":"SBSL","flightCategory":"VFR","rawOb":"METAR SBSL 051800Z 06009KT 9999 SCT025 FEW030TCU 28/24 Q1009","temp":28,"dewp":24,"wdir":60,"wspd":9,"visib":"6+","altim":1009,"clouds":[{"cover":"SCT","base":2500},{"cover":"FEW","base":3000}],"obsTime":1775412000},"SBBE":{"icaoId":"SBBE","flightCategory":"VFR","rawOb":"METAR SBBE 051800Z 35016KT 9999 SCT020 FEW025TCU BKN100 29/27 Q1009","temp":29,"dewp":27,"wdir":350,"wspd":16,"visib":"6+","altim":1009,"clouds":[{"cover":"SCT","base":2000},{"cover":"FEW","base":2500},{"cover":"BKN","base":10000}],"obsTime":1775412000},"SBSN":{"icaoId":"SBSN","flightCategory":"VFR","rawOb":"METAR SBSN 051800Z 31007KT 260V320 9999 FEW020 29/25 Q1011","temp":29,"dewp":25,"wdir":310,"wspd":7,"visib":"6+","altim":1011,"clouds":[{"cover":"FEW","base":2000}],"obsTime":1775412000},"SBCR":{"icaoId":"SBCR","flightCategory":"VFR","rawOb":"METAR SBCR 051800Z 32006KT 290V010 9999 FEW030 30/22 Q1011","temp":30,"dewp":22,"wdir":320,"wspd":6,"visib":"6+","altim":1011,"clouds":[{"cover":"FEW","base":3000}],"obsTime":1775412000},"SBSP":{"icaoId":"SBSP","flightCategory":"VFR","rawOb":"METAR SBSP 051800Z 14010KT 9999 BKN033 26/19 Q1019","temp":26,"dewp":19,"wdir":140,"wspd":10,"visib":"6+","altim":1019,"clouds":[{"cover":"BKN","base":3300}],"obsTime":1775412000},"SBSV":{"icaoId":"SBSV","flightCategory":"MVFR","rawOb":"METAR SBSV 051800Z 06006KT 010V080 9999 VCSH BKN021 FEW023TCU BKN060 28/24 Q1012","temp":28,"dewp":24,"wdir":60,"wspd":6,"visib":"6+","altim":1012,"clouds":[{"cover":"BKN","base":2100},{"cover":"FEW","base":2300},{"cover":"BKN","base":6000}],"obsTime":1775412000},"SBHT":{"icaoId":"SBHT","flightCategory":"IFR","rawOb":"METAR SBHT 051800Z 00000KT 4000 -RA BKN010 BKN080 24/23 Q1012 RETS","temp":24,"dewp":23,"wdir":0,"wspd":0,"visib":2.49,"altim":1012,"clouds":[{"cover":"BKN","base":1000},{"cover":"BKN","base":8000}],"obsTime":1775412000},"SBCB":{"icaoId":"SBCB","flightCategory":"VFR","rawOb":"METAR SBCB 051800Z 20007KT 9999 FEW020TCU 28/23 Q1013","temp":28,"dewp":23,"wdir":200,"wspd":7,"visib":"6+","altim":1013,"clouds":[{"cover":"FEW","base":2000}],"obsTime":1775412000},"SBTE":{"icaoId":"SBTE","flightCategory":"VFR","rawOb":"METAR SBTE 051800Z 17004KT 9999 SCT020 31/24 Q1008","temp":31,"dewp":24,"wdir":170,"wspd":4,"visib":"6+","altim":1008,"clouds":[{"cover":"SCT","base":2000}],"obsTime":1775412000},"SBIL":{"icaoId":"SBIL","flightCategory":"VFR","rawOb":"METAR SBIL 051800Z COR 17004KT 9999 VCSH SCT020 FEW023TCU 30/26 Q1013","temp":30,"dewp":26,"wdir":170,"wspd":4,"visib":"6+","altim":1013,"clouds":[{"cover":"SCT","base":2000},{"cover":"FEW","base":2300}],"obsTime":1775412000},"SBUL":{"icaoId":"SBUL","flightCategory":"VFR","rawOb":"METAR SBUL 051800Z 06007KT 9999 VCSH VCTS BKN040 FEW040CB 29/18 Q1017","temp":29,"dewp":18,"wdir":60,"wspd":7,"visib":"6+","altim":1017,"clouds":[{"cover":"BKN","base":4000},{"cover":"FEW","base":4000}],"obsTime":1775412000},"SBCT":{"icaoId":"SBCT","flightCategory":"VFR","rawOb":"METAR SBCT 051800Z 11007KT 9999 SCT045 BKN083 23/19 Q1020","temp":23,"dewp":19,"wdir":110,"wspd":7,"visib":"6+","altim":1020,"clouds":[{"cover":"SCT","base":4500},{"cover":"BKN","base":8300}],"obsTime":1775412000},"SBUR":{"icaoId":"SBUR","flightCategory":"MVFR","rawOb":"METAR SBUR 051800Z 13018KT 5000 1000S -TSRA BR BKN012 SCT049 FEW055CB BKN100 20/18 Q1016 RERA","temp":20,"dewp":18,"wdir":130,"wspd":18,"visib":3.11,"altim":1016,"clouds":[{"cover":"BKN","base":1200},{"cover":"SCT","base":4900},{"cover":"FEW","base":5500},{"cover":"BKN","base":10000}],"obsTime":1775412000},"SBJU":{"icaoId":"SBJU","flightCategory":"VFR","rawOb":"METAR SBJU 051800Z 06005KT 9999 FEW020 29/23 Q1012","temp":29,"dewp":23,"wdir":60,"wspd":5,"visib":"6+","altim":1012,"clouds":[{"cover":"FEW","base":2000}],"obsTime":1775412000},"SBVT":{"icaoId":"SBVT","flightCategory":"VFR","rawOb":"METAR SBVT 051800Z 06015KT CAVOK 29/23 Q1013","temp":29,"dewp":23,"wdir":60,"wspd":15,"visib":"6+","altim":1013,"clouds":[],"obsTime":1775412000},"SBCZ":{"icaoId":"SBCZ","flightCategory":"MVFR","rawOb":"METAR SBCZ 051800Z 09002KT 9000 -TSRA BKN025 FEW025CB 30/24 Q1010","temp":30,"dewp":24,"wdir":90,"wspd":2,"visib":5.59,"altim":1010,"clouds":[{"cover":"BKN","base":2500},{"cover":"FEW","base":2500}],"obsTime":1775412000},"SBKP":{"icaoId":"SBKP","flightCategory":"VFR","rawOb":"METAR SBKP 051800Z 18005KT 140V230 9999 SCT045 FEW046TCU 31/18 Q1016","temp":31,"dewp":18,"wdir":180,"wspd":5,"visib":"6+","altim":1016,"clouds":[{"cover":"SCT","base":4500},{"cover":"FEW","base":4600}],"obsTime":1775412000},"SBLO":{"icaoId":"SBLO","flightCategory":"VFR","rawOb":"METAR SBLO 051800Z 20004KT 340V090 9999 SCT030 32/18 Q1015","temp":32,"dewp":18,"wdir":200,"wspd":4,"visib":"6+","altim":1015,"clouds":[{"cover":"SCT","base":3000}],"obsTime":1775412000},"SBCA":{"icaoId":"SBCA","flightCategory":"VFR","rawOb":"METAR SBCA 051800Z 34008KT 9999 SCT040 FEW045TCU 30/18 Q1017","temp":30,"dewp":18,"wdir":340,"wspd":8,"visib":"6+","altim":1017,"clouds":[{"cover":"SCT","base":4000},{"cover":"FEW","base":4500}],"obsTime":1775412000},"SBAR":{"icaoId":"SBAR","flightCategory":"VFR","rawOb":"METAR SBAR 051800Z 11012KT 9999 SCT020 30/23 Q1011","temp":30,"dewp":23,"wdir":110,"wspd":12,"visib":"6+","altim":1011,"clouds":[{"cover":"SCT","base":2000}],"obsTime":1775412000},"SBAX":{"icaoId":"SBAX","flightCategory":"VFR","rawOb":"METAR SBAX 051800Z AUTO 34007KT 9999 VCTS //////CB 27/18 Q1017","temp":27,"dewp":18,"wdir":340,"wspd":7,"visib":"6+","altim":1017,"clouds":[],"obsTime":1775412000},"SBBH":{"icaoId":"SBBH","flightCategory":"VFR","rawOb":"METAR SBBH 051800Z 03008KT 9999 SCT045 30/18 Q1017","temp":30,"dewp":18,"wdir":30,"wspd":8,"visib":"6+","altim":1017,"clouds":[{"cover":"SCT","base":4500}],"obsTime":1775412000},"SBBQ":{"icaoId":"SBBQ","flightCategory":"MVFR","rawOb":"METAR SBBQ 051800Z 11006KT 9999 TS BKN025 FEW045CB 24/19 Q1020","temp":24,"dewp":19,"wdir":110,"wspd":6,"visib":"6+","altim":1020,"clouds":[{"cover":"BKN","base":2500},{"cover":"FEW","base":4500}],"obsTime":1775412000},"SBBU":{"icaoId":"SBBU","flightCategory":"MVFR","rawOb":"METAR SBBU 051800Z 13005KT 9999 BKN030 34/20 Q1015","temp":34,"dewp":20,"wdir":130,"wspd":5,"visib":"6+","altim":1015,"clouds":[{"cover":"BKN","base":3000}],"obsTime":1775412000},"SBCC":{"icaoId":"SBCC","flightCategory":"MVFR","rawOb":"METAR SBCC 051800Z 26005KT 9999 TS VCSH BKN020 FEW025CB BKN100 25/22 Q1013","temp":25,"dewp":22,"wdir":260,"wspd":5,"visib":"6+","altim":1013,"clouds":[{"cover":"BKN","base":2000},{"cover":"FEW","base":2500},{"cover":"BKN","base":10000}],"obsTime":1775412000},"SBCJ":{"icaoId":"SBCJ","flightCategory":"VFR","rawOb":"METAR SBCJ 051800Z 00000KT 9999 SCT004 SCT013 27/22 Q1014","temp":27,"dewp":22,"wdir":0,"wspd":0,"visib":"6+","altim":1014,"clouds":[{"cover":"SCT","base":400},{"cover":"SCT","base":1300}],"obsTime":1775412000},"SBCO":{"icaoId":"SBCO","flightCategory":"VFR","rawOb":"METAR SBCO 051800Z 12011KT 9999 OVC033 23/16 Q1019","temp":23,"dewp":16,"wdir":120,"wspd":11,"visib":"6+","altim":1019,"clouds":[{"cover":"OVC","base":3300}],"obsTime":1775412000},"SBDN":{"icaoId":"SBDN","flightCategory":"VFR","rawOb":"METAR SBDN 051800Z 05004KT CAVOK 34/19 Q1013","temp":34,"dewp":19,"wdir":50,"wspd":4,"visib":"6+","altim":1013,"clouds":[],"obsTime":1775412000},"SBES":{"icaoId":"SBES","flightCategory":"VFR","rawOb":"METAR SBES 051800Z VRB07KT 9999 VCTS FEW025CB 28/// Q1013","temp":null,"dewp":null,"wdir":"VRB","wspd":7,"visib":"6+","altim":1013,"clouds":[{"cover":"FEW","base":2500}],"obsTime":1775412000},"SBGM":{"icaoId":"SBGM","flightCategory":"MVFR","rawOb":"METAR SBGM 051800Z 33008KT 9999 FEW020TCU BKN030 28/23 Q1011","temp":28,"dewp":23,"wdir":330,"wspd":8,"visib":"6+","altim":1011,"clouds":[{"cover":"FEW","base":2000},{"cover":"BKN","base":3000}],"obsTime":1775412000},"SBIP":{"icaoId":"SBIP","flightCategory":"VFR","rawOb":"METAR SBIP 051800Z AUTO 32004KT 270V010 CAVOK 32/21 Q1014","temp":32,"dewp":21,"wdir":320,"wspd":4,"visib":"6+","altim":1014,"clouds":[],"obsTime":1775412000},"SBKG":{"icaoId":"SBKG","flightCategory":"MVFR","rawOb":"METAR SBKG 051800Z 07009KT 9999 BKN025 SCT090 25/23 Q1013 RETS","temp":25,"dewp":23,"wdir":70,"wspd":9,"visib":"6+","altim":1013,"clouds":[{"cover":"BKN","base":2500},{"cover":"SCT","base":9000}],"obsTime":1775412000},"SBOI":{"icaoId":"SBOI","flightCategory":"VFR","rawOb":"METAR SBOI 051800Z AUTO 04009KT 010V070 9999 SCT033 30/24 Q1011","temp":30,"dewp":24,"wdir":40,"wspd":9,"visib":"6+","altim":1011,"clouds":[{"cover":"SCT","base":3300}],"obsTime":1775412000},"SBPB":{"icaoId":"SBPB","flightCategory":"VFR","rawOb":"METAR SBPB 051800Z 08012KT 9999 SCT016 BKN090 28/25 Q1009","temp":28,"dewp":25,"wdir":80,"wspd":12,"visib":"6+","altim":1009,"clouds":[{"cover":"SCT","base":1600},{"cover":"BKN","base":9000}],"obsTime":1775412000},"SBPL":{"icaoId":"SBPL","flightCategory":"VFR","rawOb":"METAR SBPL 051800Z 14002KT 9999 SCT030 33/19 Q1011","temp":33,"dewp":19,"wdir":140,"wspd":2,"visib":"6+","altim":1011,"clouds":[{"cover":"SCT","base":3000}],"obsTime":1775412000},"SBPP":{"icaoId":"SBPP","flightCategory":"VFR","rawOb":"METAR SBPP 051800Z 02007KT 9999 SCT020 31/19 Q1015","temp":31,"dewp":19,"wdir":20,"wspd":7,"visib":"6+","altim":1015,"clouds":[{"cover":"SCT","base":2000}],"obsTime":1775412000},"SBPS":{"icaoId":"SBPS","flightCategory":"VFR","rawOb":"METAR SBPS 051800Z 11007KT 9999 SCT020 29/24 Q1014","temp":29,"dewp":24,"wdir":110,"wspd":7,"visib":"6+","altim":1014,"clouds":[{"cover":"SCT","base":2000}],"obsTime":1775412000},"SBSC":{"icaoId":"SBSC","flightCategory":"VFR","rawOb":"METAR SBSC 051800Z 20009KT 9999 FEW030TCU 28/24 Q1014","temp":28,"dewp":24,"wdir":200,"wspd":9,"visib":"6+","altim":1014,"clouds":[{"cover":"FEW","base":3000}],"obsTime":1775412000},"SBSJ":{"icaoId":"SBSJ","flightCategory":"VFR","rawOb":"METAR SBSJ 051800Z 14008KT 9999 SCT030 SCT100 27/20 Q1017","temp":27,"dewp":20,"wdir":140,"wspd":8,"visib":"6+","altim":1017,"clouds":[{"cover":"SCT","base":3000},{"cover":"SCT","base":10000}],"obsTime":1775412000},"SBSM":{"icaoId":"SBSM","flightCategory":"MVFR","rawOb":"METAR SBSM 051800Z 10011G21KT 9999 OVC030 23/17 Q1018","temp":23,"dewp":17,"wdir":100,"wspd":11,"visib":"6+","altim":1018,"clouds":[{"cover":"OVC","base":3000}],"obsTime":1775412000},"SBSR":{"icaoId":"SBSR","flightCategory":"MVFR","rawOb":"METAR SBSR 051800Z VRB03KT 9999 BKN030 FEW035TCU 30/20 Q1014","temp":30,"dewp":20,"wdir":"VRB","wspd":3,"visib":"6+","altim":1014,"clouds":[{"cover":"BKN","base":3000},{"cover":"FEW","base":3500}],"obsTime":1775412000},"SBTF":{"icaoId":"SBTF","flightCategory":"VFR","rawOb":"METAR SBTF 051800Z 09008KT 9999 SCT019 32/26 Q1010","temp":32,"dewp":26,"wdir":90,"wspd":8,"visib":"6+","altim":1010,"clouds":[{"cover":"SCT","base":1900}],"obsTime":1775412000},"SBTT":{"icaoId":"SBTT","flightCategory":"VFR","rawOb":"METAR SBTT 051800Z 23006KT 9999 SCT020 31/23 Q1010","temp":31,"dewp":23,"wdir":230,"wspd":6,"visib":"6+","altim":1010,"clouds":[{"cover":"SCT","base":2000}],"obsTime":1775412000},"SBUY":{"icaoId":"SBUY","flightCategory":"VFR","rawOb":"METAR SBUY 051800Z 19005KT 9999 FEW025 31/23 Q1009","temp":31,"dewp":23,"wdir":190,"wspd":5,"visib":"6+","altim":1009,"clouds":[{"cover":"FEW","base":2500}],"obsTime":1775412000},"SBVH":{"icaoId":"SBVH","flightCategory":"VFR","rawOb":"METAR SBVH 051800Z 09006KT 9999 SCT020 FEW028TCU BKN100 27/22 Q1014","temp":27,"dewp":22,"wdir":90,"wspd":6,"visib":"6+","altim":1014,"clouds":[{"cover":"SCT","base":2000},{"cover":"FEW","base":2800},{"cover":"BKN","base":10000}],"obsTime":1775412000},"SBAU":{"icaoId":"SBAU","flightCategory":"VFR","rawOb":"METAR SBAU 051800Z 12004KT 9999 SCT040 34/18 Q1013","temp":34,"dewp":18,"wdir":120,"wspd":4,"visib":"6+","altim":1013,"clouds":[{"cover":"SCT","base":4000}],"obsTime":1775412000},"SBLE":{"icaoId":"SBLE","flightCategory":"VFR","rawOb":"METAR SBLE 051800Z AUTO 15008KT 120V190 9999 FEW033 SCT046 28/23 Q1014","temp":28,"dewp":23,"wdir":150,"wspd":8,"visib":"6+","altim":1014,"clouds":[{"cover":"FEW","base":3300},{"cover":"SCT","base":4600}],"obsTime":1775412000},"SBTC":{"icaoId":"SBTC","flightCategory":"VFR","rawOb":"METAR SBTC 051800Z 15005KT 9999 SCT020 FEW025TCU 28/24 Q1013","temp":28,"dewp":24,"wdir":150,"wspd":5,"visib":"6+","altim":1013,"clouds":[{"cover":"SCT","base":2000},{"cover":"FEW","base":2500}],"obsTime":1775412000},"SBJV":{"icaoId":"SBJV","flightCategory":"MVFR","rawOb":"METAR SBJV 051800Z 13010KT 9999 BKN025 BKN040 27/23 Q1016","temp":27,"dewp":23,"wdir":130,"wspd":10,"visib":"6+","altim":1016,"clouds":[{"cover":"BKN","base":2500},{"cover":"BKN","base":4000}],"obsTime":1775412000},"SBAF":{"icaoId":"SBAF","flightCategory":"VFR","rawOb":" SBAF 051800Z 19013KT 9999 SCT040 FEW040TCU 28/25 Q1013","temp":28,"dewp":25,"wdir":190,"wspd":13,"visib":"6+","altim":1013,"clouds":[{"cover":"SCT","base":4000},{"cover":"FEW","base":4000}],"obsTime":1775412000},"SBGW":{"icaoId":"SBGW","flightCategory":"VFR","rawOb":"METAR SBGW 051800Z 25005KT 210V290 9999 SCT030 FEW035TCU 31/18 Q1015","temp":31,"dewp":18,"wdir":250,"wspd":5,"visib":"6+","altim":1015,"clouds":[{"cover":"SCT","base":3000},{"cover":"FEW","base":3500}],"obsTime":1775412000},"SBJR":{"icaoId":"SBJR","flightCategory":"VFR","rawOb":"METAR SBJR 051800Z 21006KT 9999 FEW030 FEW035TCU 30/23 Q1014","temp":30,"dewp":23,"wdir":210,"wspd":6,"visib":"6+","altim":1014,"clouds":[{"cover":"FEW","base":3000},{"cover":"FEW","base":3500}],"obsTime":1775412000},"SBLS":{"icaoId":"SBLS","flightCategory":"VFR","rawOb":"METAR SBLS 051800Z 09004KT 020V140 9999 SCT040 FEW050TCU 29/19 Q1017","temp":29,"dewp":19,"wdir":90,"wspd":4,"visib":"6+","altim":1017,"clouds":[{"cover":"SCT","base":4000},{"cover":"FEW","base":5000}],"obsTime":1775412000},"SBIH":{"icaoId":"SBIH","flightCategory":"VFR","rawOb":"METAR SBIH 051800Z 36014KT 9999 SCT018 FEW025TCU 27/24 Q1010","temp":27,"dewp":24,"wdir":360,"wspd":14,"visib":"6+","altim":1010,"clouds":[{"cover":"SCT","base":1800},{"cover":"FEW","base":2500}],"obsTime":1775412000},"SBMT":{"icaoId":"SBMT","flightCategory":"MVFR","rawOb":"METAR SBMT 051800Z 13007KT 9999 BKN029 FEW040TCU 27/18 Q1018","temp":27,"dewp":18,"wdir":130,"wspd":7,"visib":"6+","altim":1018,"clouds":[{"cover":"BKN","base":2900},{"cover":"FEW","base":4000}],"obsTime":1775412000},"SBAN":{"icaoId":"SBAN","flightCategory":"VFR","rawOb":"METAR SBAN 051800Z 14007KT 090V180 9999 BKN040 BKN050 28/16 Q1018","temp":28,"dewp":16,"wdir":140,"wspd":7,"visib":"6+","altim":1018,"clouds":[{"cover":"BKN","base":4000},{"cover":"BKN","base":5000}],"obsTime":1775412000},"SBST":{"icaoId":"SBST","flightCategory":"VFR","rawOb":"METAR SBST 051800Z 24005KT 9999 SCT025 28/23 Q1014","temp":28,"dewp":23,"wdir":240,"wspd":5,"visib":"6+","altim":1014,"clouds":[{"cover":"SCT","base":2500}],"obsTime":1775412000},"SBTA":{"icaoId":"SBTA","flightCategory":"VFR","rawOb":"METAR SBTA 051800Z 19004KT 160V220 9999 BKN045 SCT090 28/19 Q1015","temp":28,"dewp":19,"wdir":190,"wspd":4,"visib":"6+","altim":1015,"clouds":[{"cover":"BKN","base":4500},{"cover":"SCT","base":9000}],"obsTime":1775412000},"SBJP":{"icaoId":"SBJP","flightCategory":"MVFR","rawOb":"METAR SBJP 051800Z 07009KT 9999 BKN030 30/23 Q1011","temp":30,"dewp":23,"wdir":70,"wspd":9,"visib":"6+","altim":1011,"clouds":[{"cover":"BKN","base":3000}],"obsTime":1775412000},"SBPF":{"icaoId":"SBPF","flightCategory":"VFR","rawOb":"METAR SBPF 051800Z AUTO 12010KT 090V150 9999 NSC 25/18 Q1019","temp":25,"dewp":18,"wdir":120,"wspd":10,"visib":"6+","altim":1019,"clouds":[],"obsTime":1775412000}}}