{"updated":1774122149,"count":85,"data":{"SBFI":{"icaoId":"SBFI","flightCategory":"VFR","rawOb":"METAR SBFI 211800Z 31004KT 9999 TS VCSH SCT035 FEW040CB BKN080 31/26 Q1008","temp":31,"dewp":26,"wdir":310,"wspd":4,"visib":"6+","altim":1008,"clouds":[{"cover":"SCT","base":3500},{"cover":"FEW","base":4000},{"cover":"BKN","base":8000}],"obsTime":1774116000},"SBLO":{"icaoId":"SBLO","flightCategory":"VFR","rawOb":"METAR SBLO 211800Z 06006KT 9999 SCT030 32/20 Q1012","temp":32,"dewp":20,"wdir":60,"wspd":6,"visib":"6+","altim":1012,"clouds":[{"cover":"SCT","base":3000}],"obsTime":1774116000},"SBEG":{"icaoId":"SBEG","flightCategory":"VFR","rawOb":"METAR SBEG 211800Z 08006KT 9999 SCT020 33/23 Q1008","temp":33,"dewp":23,"wdir":80,"wspd":6,"visib":"6+","altim":1008,"clouds":[{"cover":"SCT","base":2000}],"obsTime":1774116000},"SBMA":{"icaoId":"SBMA","flightCategory":"VFR","rawOb":"METAR SBMA 211800Z 02004KT 9999 FEW022 BKN100 31/23 Q1010","temp":31,"dewp":23,"wdir":20,"wspd":4,"visib":"6+","altim":1010,"clouds":[{"cover":"FEW","base":2200},{"cover":"BKN","base":10000}],"obsTime":1774116000},"SBME":{"icaoId":"SBME","flightCategory":"VFR","rawOb":"METAR SBME 211800Z 18011KT 9999 FEW030 SCT100 30/23 Q1011","temp":30,"dewp":23,"wdir":180,"wspd":11,"visib":"6+","altim":1011,"clouds":[{"cover":"FEW","base":3000},{"cover":"SCT","base":10000}],"obsTime":1774116000},"SBBE":{"icaoId":"SBBE","flightCategory":"VFR","rawOb":"METAR SBBE 211800Z 27004KT 9999 FEW049 32/23 Q1009","temp":32,"dewp":23,"wdir":270,"wspd":4,"visib":"6+","altim":1009,"clouds":[{"cover":"FEW","base":4900}],"obsTime":1774116000},"SBMG":{"icaoId":"SBMG","flightCategory":"VFR","rawOb":"METAR SBMG 211800Z 01010KT 9999 BKN045 FEW050TCU 33/20 Q1010","temp":33,"dewp":20,"wdir":10,"wspd":10,"visib":"6+","altim":1010,"clouds":[{"cover":"BKN","base":4500},{"cover":"FEW","base":5000}],"obsTime":1774116000},"SBMK":{"icaoId":"SBMK","flightCategory":"VFR","rawOb":"METAR SBMK 211800Z 05006KT 9999 BKN040 26/21 Q1013","temp":26,"dewp":21,"wdir":50,"wspd":6,"visib":"6+","altim":1013,"clouds":[{"cover":"BKN","base":4000}],"obsTime":1774116000},"SBCZ":{"icaoId":"SBCZ","flightCategory":"VFR","rawOb":"METAR SBCZ 211800Z 30003KT 9999 FEW008 OVC100 23/23 Q1008","temp":23,"dewp":23,"wdir":300,"wspd":3,"visib":"6+","altim":1008,"clouds":[{"cover":"FEW","base":800},{"cover":"OVC","base":10000}],"obsTime":1774116000},"SBCF":{"icaoId":"SBCF","flightCategory":"MVFR","rawOb":"METAR SBCF 211800Z 34007KT 280V020 9999 BKN030 FEW035TCU 28/22 Q1014","temp":28,"dewp":22,"wdir":340,"wspd":7,"visib":"6+","altim":1014,"clouds":[{"cover":"BKN","base":3000},{"cover":"FEW","base":3500}],"obsTime":1774116000},"SBMO":{"icaoId":"SBMO","flightCategory":"VFR","rawOb":"METAR SBMO 211800Z 09012KT 070V130 9999 FEW035 32/21 Q1010","temp":32,"dewp":21,"wdir":90,"wspd":12,"visib":"6+","altim":1010,"clouds":[{"cover":"FEW","base":3500}],"obsTime":1774116000},"SBCG":{"icaoId":"SBCG","flightCategory":"MVFR","rawOb":"METAR SBCG 211800Z 30012KT 9999 VCSH BKN030 BKN080 31/22 Q1011","temp":31,"dewp":22,"wdir":300,"wspd":12,"visib":"6+","altim":1011,"clouds":[{"cover":"BKN","base":3000},{"cover":"BKN","base":8000}],"obsTime":1774116000},"SBMQ":{"icaoId":"SBMQ","flightCategory":"VFR","rawOb":"METAR SBMQ 211800Z 05005KT 9999 SCT025 30/25 Q1009","temp":30,"dewp":25,"wdir":50,"wspd":5,"visib":"6+","altim":1009,"clouds":[{"cover":"SCT","base":2500}],"obsTime":1774116000},"SBFL":{"icaoId":"SBFL","flightCategory":"VFR","rawOb":"METAR SBFL 211800Z 35011KT 330V030 9999 FEW026 30/23 Q1008","temp":30,"dewp":23,"wdir":350,"wspd":11,"visib":"6+","altim":1008,"clouds":[{"cover":"FEW","base":2600}],"obsTime":1774116000},"SBNT":{"icaoId":"SBNT","flightCategory":"VFR","rawOb":"METAR SBNT 211800Z 11012KT 9999 SCT030 31/24 Q1009","temp":31,"dewp":24,"wdir":110,"wspd":12,"visib":"6+","altim":1009,"clouds":[{"cover":"SCT","base":3000}],"obsTime":1774116000},"SBCP":{"icaoId":"SBCP","flightCategory":"MVFR","rawOb":"METAR SBCP 211800Z 20012KT 9999 BKN020 29/24 Q1010","temp":29,"dewp":24,"wdir":200,"wspd":12,"visib":"6+","altim":1010,"clouds":[{"cover":"BKN","base":2000}],"obsTime":1774116000},"SBPA":{"icaoId":"SBPA","flightCategory":"VFR","rawOb":"METAR SBPA 211800Z COR 13004KT 070V230 9999 FEW045 35/21 Q1005","temp":35,"dewp":21,"wdir":130,"wspd":4,"visib":"6+","altim":1005,"clouds":[{"cover":"FEW","base":4500}],"obsTime":1774116000},"SBFZ":{"icaoId":"SBFZ","flightCategory":"VFR","rawOb":"METAR SBFZ 211800Z 10010KT 9999 VCSH FEW020TCU SCT030 BKN080 30/23 Q1009","temp":30,"dewp":23,"wdir":100,"wspd":10,"visib":"6+","altim":1009,"clouds":[{"cover":"FEW","base":2000},{"cover":"SCT","base":3000},{"cover":"BKN","base":8000}],"obsTime":1774116000},"SBPJ":{"icaoId":"SBPJ","flightCategory":"VFR","rawOb":"METAR SBPJ 211800Z 33004KT 9999 FEW027 BKN100 30/23 Q1011","temp":30,"dewp":23,"wdir":330,"wspd":4,"visib":"6+","altim":1011,"clouds":[{"cover":"FEW","base":2700},{"cover":"BKN","base":10000}],"obsTime":1774116000},"SBBV":{"icaoId":"SBBV","flightCategory":"VFR","rawOb":"METAR SBBV 211800Z 11007KT 9999 SCT040 SCT070 35/18 Q1007","temp":35,"dewp":18,"wdir":110,"wspd":7,"visib":"6+","altim":1007,"clouds":[{"cover":"SCT","base":4000},{"cover":"SCT","base":7000}],"obsTime":1774116000},"SBPV":{"icaoId":"SBPV","flightCategory":"VFR","rawOb":"METAR SBPV 211800Z 06005KT 350V090 9999 SCT030 34/23 Q1007","temp":34,"dewp":23,"wdir":60,"wspd":5,"visib":"6+","altim":1007,"clouds":[{"cover":"SCT","base":3000}],"obsTime":1774116000},"SBRB":{"icaoId":"SBRB","flightCategory":"VFR","rawOb":"METAR SBRB 211800Z 36007KT 9999 BKN035 32/24 Q1007","temp":32,"dewp":24,"wdir":360,"wspd":7,"visib":"6+","altim":1007,"clouds":[{"cover":"BKN","base":3500}],"obsTime":1774116000},"SBGL":{"icaoId":"SBGL","flightCategory":"VFR","rawOb":"METAR SBGL 211800Z COR 13012KT 9999 FEW030 29/21 Q1011","temp":29,"dewp":21,"wdir":130,"wspd":12,"visib":"6+","altim":1011,"clouds":[{"cover":"FEW","base":3000}],"obsTime":1774116000},"SBGO":{"icaoId":"SBGO","flightCategory":"VFR","rawOb":"METAR SBGO 211800Z 28008KT 9999 SCT046 30/20 Q1013","temp":30,"dewp":20,"wdir":280,"wspd":8,"visib":"6+","altim":1013,"clouds":[{"cover":"SCT","base":4600}],"obsTime":1774116000},"SBRF":{"icaoId":"SBRF","flightCategory":"VFR","rawOb":"METAR SBRF 211800Z 09009KT 9999 SCT025 30/24 Q1010","temp":30,"dewp":24,"wdir":90,"wspd":9,"visib":"6+","altim":1010,"clouds":[{"cover":"SCT","base":2500}],"obsTime":1774116000},"SBCR":{"icaoId":"SBCR","flightCategory":"VFR","rawOb":"METAR SBCR 211800Z 02005KT 350V060 9999 BKN035 FEW040TCU BKN100 33/24 Q1007","temp":33,"dewp":24,"wdir":20,"wspd":5,"visib":"6+","altim":1007,"clouds":[{"cover":"BKN","base":3500},{"cover":"FEW","base":4000},{"cover":"BKN","base":10000}],"obsTime":1774116000},"SBSG":{"icaoId":"SBSG","flightCategory":"VFR","rawOb":"METAR SBSG 211800Z 10012KT 9999 SCT030 31/24 Q1010","temp":31,"dewp":24,"wdir":100,"wspd":12,"visib":"6+","altim":1010,"clouds":[{"cover":"SCT","base":3000}],"obsTime":1774116000},"SBAT":{"icaoId":"SBAT","flightCategory":"VFR","rawOb":"METAR SBAT 211800Z 04004KT 9999 SCT025 32/24 Q1009","temp":32,"dewp":24,"wdir":40,"wspd":4,"visib":"6+","altim":1009,"clouds":[{"cover":"SCT","base":2500}],"obsTime":1774116000},"SBSL":{"icaoId":"SBSL","flightCategory":"VFR","rawOb":"METAR SBSL 211800Z 17002KT 9999 FEW010 SCT090 30/23 Q1009","temp":30,"dewp":23,"wdir":170,"wspd":2,"visib":"6+","altim":1009,"clouds":[{"cover":"FEW","base":1000},{"cover":"SCT","base":9000}],"obsTime":1774116000},"SBSN":{"icaoId":"SBSN","flightCategory":"VFR","rawOb":"METAR SBSN 211800Z 08011KT 9999 FEW025 29/24 Q1009","temp":29,"dewp":24,"wdir":80,"wspd":11,"visib":"6+","altim":1009,"clouds":[{"cover":"FEW","base":2500}],"obsTime":1774116000},"SBGR":{"icaoId":"SBGR","flightCategory":"VFR","rawOb":"METAR SBGR 211800Z 01003KT 310V080 CAVOK 30/16 Q1013","temp":30,"dewp":16,"wdir":10,"wspd":3,"visib":"6+","altim":1013,"clouds":[],"obsTime":1774116000},"SBSP":{"icaoId":"SBSP","flightCategory":"VFR","rawOb":"METAR SBSP 211800Z 16011KT 9999 FEW046 FEW053TCU 28/21 Q1015","temp":28,"dewp":21,"wdir":160,"wspd":11,"visib":"6+","altim":1015,"clouds":[{"cover":"FEW","base":4600},{"cover":"FEW","base":5300}],"obsTime":1774116000},"SBCB":{"icaoId":"SBCB","flightCategory":"VFR","rawOb":"METAR SBCB 211800Z 20009KT 9999 FEW020 28/23 Q1011","temp":28,"dewp":23,"wdir":200,"wspd":9,"visib":"6+","altim":1011,"clouds":[{"cover":"FEW","base":2000}],"obsTime":1774116000},"SBHT":{"icaoId":"SBHT","flightCategory":"VFR","rawOb":"METAR SBHT 211800Z 10005KT 9999 SCT025 30/24 Q1010","temp":30,"dewp":24,"wdir":100,"wspd":5,"visib":"6+","altim":1010,"clouds":[{"cover":"SCT","base":2500}],"obsTime":1774116000},"SBSV":{"icaoId":"SBSV","flightCategory":"VFR","rawOb":"METAR SBSV 211800Z 09011KT 9999 SCT025 30/23 Q1010","temp":30,"dewp":23,"wdir":90,"wspd":11,"visib":"6+","altim":1010,"clouds":[{"cover":"SCT","base":2500}],"obsTime":1774116000},"SBTE":{"icaoId":"SBTE","flightCategory":"MVFR","rawOb":"METAR SBTE 211800Z 31008KT 9999 BKN025 29/23 Q1009","temp":29,"dewp":23,"wdir":310,"wspd":8,"visib":"6+","altim":1009,"clouds":[{"cover":"BKN","base":2500}],"obsTime":1774116000},"SBCT":{"icaoId":"SBCT","flightCategory":"VFR","rawOb":"METAR SBCT 211800Z 21007KT 9999 BKN045 29/18 Q1014","temp":29,"dewp":18,"wdir":210,"wspd":7,"visib":"6+","altim":1014,"clouds":[{"cover":"BKN","base":4500}],"obsTime":1774116000},"SBIL":{"icaoId":"SBIL","flightCategory":"VFR","rawOb":"METAR SBIL 211800Z 06011KT CAVOK 32/26 Q1009","temp":32,"dewp":26,"wdir":60,"wspd":11,"visib":"6+","altim":1009,"clouds":[],"obsTime":1774116000},"SBUL":{"icaoId":"SBUL","flightCategory":"VFR","rawOb":"METAR SBUL 211800Z VRB03KT 9999 VCSH BKN033 FEW040TCU 27/20 Q1015","temp":27,"dewp":20,"wdir":"VRB","wspd":3,"visib":"6+","altim":1015,"clouds":[{"cover":"BKN","base":3300},{"cover":"FEW","base":4000}],"obsTime":1774116000},"SBBR":{"icaoId":"SBBR","flightCategory":"VFR","rawOb":"METAR SBBR 211800Z 34003KT 290V040 9999 BKN040 FEW045TCU BKN100 24/20 Q1015 RETS","temp":24,"dewp":20,"wdir":340,"wspd":3,"visib":"6+","altim":1015,"clouds":[{"cover":"BKN","base":4000},{"cover":"FEW","base":4500},{"cover":"BKN","base":10000}],"obsTime":1774116000},"SBUR":{"icaoId":"SBUR","flightCategory":"VFR","rawOb":"METAR SBUR 211800Z 25006KT 9999 BKN040 29/20 Q1014","temp":29,"dewp":20,"wdir":250,"wspd":6,"visib":"6+","altim":1014,"clouds":[{"cover":"BKN","base":4000}],"obsTime":1774116000},"SBJU":{"icaoId":"SBJU","flightCategory":"VFR","rawOb":"METAR SBJU 211800Z 00000KT 9999 SCT022 31/21 Q1011","temp":31,"dewp":21,"wdir":0,"wspd":0,"visib":"6+","altim":1011,"clouds":[{"cover":"SCT","base":2200}],"obsTime":1774116000},"SBVT":{"icaoId":"SBVT","flightCategory":"VFR","rawOb":"METAR SBVT 211800Z 14007KT 9999 FEW030 BKN048 27/23 Q1010","temp":27,"dewp":23,"wdir":140,"wspd":7,"visib":"6+","altim":1010,"clouds":[{"cover":"FEW","base":3000},{"cover":"BKN","base":4800}],"obsTime":1774116000},"SBKP":{"icaoId":"SBKP","flightCategory":"VFR","rawOb":"METAR SBKP 211800Z VRB05KT 9999 SCT045 31/18 Q1013","temp":31,"dewp":18,"wdir":"VRB","wspd":5,"visib":"6+","altim":1013,"clouds":[{"cover":"SCT","base":4500}],"obsTime":1774116000},"SBVH":{"icaoId":"SBVH","flightCategory":"MVFR","rawOb":"METAR SBVH 211800Z 35009KT 9999 VCSH BKN030 FEW035TCU 28/22 Q1010","temp":28,"dewp":22,"wdir":350,"wspd":9,"visib":"6+","altim":1010,"clouds":[{"cover":"BKN","base":3000},{"cover":"FEW","base":3500}],"obsTime":1774116000},"SBAR":{"icaoId":"SBAR","flightCategory":"VFR","rawOb":"METAR SBAR 211800Z 10012KT 9999 FEW026 31/23 Q1009","temp":31,"dewp":23,"wdir":100,"wspd":12,"visib":"6+","altim":1009,"clouds":[{"cover":"FEW","base":2600}],"obsTime":1774116000},"SBAX":{"icaoId":"SBAX","flightCategory":"VFR","rawOb":"METAR SBAX 211800Z AUTO 29006KT 240V320 9999 FEW046 29/17 Q1015","temp":29,"dewp":17,"wdir":290,"wspd":6,"visib":"6+","altim":1015,"clouds":[{"cover":"FEW","base":4600}],"obsTime":1774116000},"SBBH":{"icaoId":"SBBH","flightCategory":"VFR","rawOb":"METAR SBBH 211800Z 30008KT 9999 SCT035 FEW045TCU 28/21 Q1013","temp":28,"dewp":21,"wdir":300,"wspd":8,"visib":"6+","altim":1013,"clouds":[{"cover":"SCT","base":3500},{"cover":"FEW","base":4500}],"obsTime":1774116000},"SBBQ":{"icaoId":"SBBQ","flightCategory":"VFR","rawOb":"METAR SBBQ 211800Z VRB04KT 9999 BKN040 27/19 Q1017","temp":27,"dewp":19,"wdir":"VRB","wspd":4,"visib":"6+","altim":1017,"clouds":[{"cover":"BKN","base":4000}],"obsTime":1774116000},"SBBU":{"icaoId":"SBBU","flightCategory":"VFR","rawOb":"METAR SBBU 211800Z 36005KT 9999 FEW040 32/19 Q1012","temp":32,"dewp":19,"wdir":360,"wspd":5,"visib":"6+","altim":1012,"clouds":[{"cover":"FEW","base":4000}],"obsTime":1774116000},"SBCA":{"icaoId":"SBCA","flightCategory":"VFR","rawOb":"METAR SBCA 211900Z 01011KT 340V040 9999 SCT025 FEW040TCU BKN070 28/22 Q1012","temp":28,"dewp":22,"wdir":10,"wspd":11,"visib":"6+","altim":1012,"clouds":[{"cover":"SCT","base":2500},{"cover":"FEW","base":4000},{"cover":"BKN","base":7000}],"obsTime":1774119600},"SBCC":{"icaoId":"SBCC","flightCategory":"MVFR","rawOb":"METAR SBCC 211800Z 03008KT 330V070 9999 VCSH FEW015 BKN020 FEW025TCU BKN100 30/21 Q1010","temp":30,"dewp":21,"wdir":30,"wspd":8,"visib":"6+","altim":1010,"clouds":[{"cover":"FEW","base":1500},{"cover":"BKN","base":2000},{"cover":"FEW","base":2500},{"cover":"BKN","base":10000}],"obsTime":1774116000},"SBCJ":{"icaoId":"SBCJ","flightCategory":"VFR","rawOb":"METAR SBCJ 211800Z 09002KT 9999 SCT013 26/22 Q1014","temp":26,"dewp":22,"wdir":90,"wspd":2,"visib":"6+","altim":1014,"clouds":[{"cover":"SCT","base":1300}],"obsTime":1774116000},"SBCO":{"icaoId":"SBCO","flightCategory":"VFR","rawOb":"METAR SBCO 211800Z 08007KT 050V110 CAVOK 35/23 Q1006","temp":35,"dewp":23,"wdir":80,"wspd":7,"visib":"6+","altim":1006,"clouds":[],"obsTime":1774116000},"SBDN":{"icaoId":"SBDN","flightCategory":"VFR","rawOb":"METAR SBDN 211800Z 32005KT 9999 SCT039 SCT082 33/21 Q1011","temp":33,"dewp":21,"wdir":320,"wspd":5,"visib":"6+","altim":1011,"clouds":[{"cover":"SCT","base":3900},{"cover":"SCT","base":8200}],"obsTime":1774116000},"SBES":{"icaoId":"SBES","flightCategory":"VFR","rawOb":"METAR SBES 211800Z 10010KT 160V220 9999 SCT020 28/// Q1011","temp":null,"dewp":null,"wdir":100,"wspd":10,"visib":"6+","altim":1011,"clouds":[{"cover":"SCT","base":2000}],"obsTime":1774116000},"SBGM":{"icaoId":"SBGM","flightCategory":"MVFR","rawOb":"METAR SBGM 211800Z 34007KT 9999 BKN026 BKN050 32/25 Q1007","temp":32,"dewp":25,"wdir":340,"wspd":7,"visib":"6+","altim":1007,"clouds":[{"cover":"BKN","base":2600},{"cover":"BKN","base":5000}],"obsTime":1774116000},"SBIP":{"icaoId":"SBIP","flightCategory":"VFR","rawOb":"METAR SBIP 211800Z AUTO 18008KT CAVOK 31/21 Q1010","temp":31,"dewp":21,"wdir":180,"wspd":8,"visib":"6+","altim":1010,"clouds":[],"obsTime":1774116000},"SBKG":{"icaoId":"SBKG","flightCategory":"MVFR","rawOb":"METAR SBKG 211800Z 08015KT 9999 BKN025 32/21 Q1011","temp":32,"dewp":21,"wdir":80,"wspd":15,"visib":"6+","altim":1011,"clouds":[{"cover":"BKN","base":2500}],"obsTime":1774116000},"SBOI":{"icaoId":"SBOI","flightCategory":"VFR","rawOb":"METAR SBOI 211800Z AUTO 04007KT 360V070 9999 SCT019 29/24 Q1010","temp":29,"dewp":24,"wdir":40,"wspd":7,"visib":"6+","altim":1010,"clouds":[{"cover":"SCT","base":1900}],"obsTime":1774116000},"SBPB":{"icaoId":"SBPB","flightCategory":"MVFR","rawOb":"METAR SBPB 211800Z 22007KT 8000 -TSRA BKN015 FEW025CB OVC080 24/23 Q1010","temp":24,"dewp":23,"wdir":220,"wspd":7,"visib":4.97,"altim":1010,"clouds":[{"cover":"BKN","base":1500},{"cover":"FEW","base":2500},{"cover":"OVC","base":8000}],"obsTime":1774116000},"SBPL":{"icaoId":"SBPL","flightCategory":"VFR","rawOb":"METAR SBPL 211800Z 11002KT 9999 SCT035 33/21 Q1010","temp":33,"dewp":21,"wdir":110,"wspd":2,"visib":"6+","altim":1010,"clouds":[{"cover":"SCT","base":3500}],"obsTime":1774116000},"SBPP":{"icaoId":"SBPP","flightCategory":"MVFR","rawOb":"METAR SBPP 211800Z 34012KT 9999 BKN025 FEW030TCU 30/22 Q1011","temp":30,"dewp":22,"wdir":340,"wspd":12,"visib":"6+","altim":1011,"clouds":[{"cover":"BKN","base":2500},{"cover":"FEW","base":3000}],"obsTime":1774116000},"SBPS":{"icaoId":"SBPS","flightCategory":"VFR","rawOb":"METAR SBPS 211800Z 04012KT 9999 SCT020 BKN100 29/23 Q1009","temp":29,"dewp":23,"wdir":40,"wspd":12,"visib":"6+","altim":1009,"clouds":[{"cover":"SCT","base":2000},{"cover":"BKN","base":10000}],"obsTime":1774116000},"SBSC":{"icaoId":"SBSC","flightCategory":"VFR","rawOb":"METAR SBSC 211800Z 16011KT 9999 FEW040 29/22 Q1011","temp":29,"dewp":22,"wdir":160,"wspd":11,"visib":"6+","altim":1011,"clouds":[{"cover":"FEW","base":4000}],"obsTime":1774116000},"SBSJ":{"icaoId":"SBSJ","flightCategory":"VFR","rawOb":"METAR SBSJ 211800Z 18004KT 9999 FEW033 30/// Q1013","temp":null,"dewp":null,"wdir":180,"wspd":4,"visib":"6+","altim":1013,"clouds":[{"cover":"FEW","base":3300}],"obsTime":1774116000},"SBSM":{"icaoId":"SBSM","flightCategory":"VFR","rawOb":"METAR SBSM 211800Z VRB05KT 9999 TS VCSH SCT040 FEW045CB SCT090 28/26 Q1004 RERA","temp":28,"dewp":26,"wdir":"VRB","wspd":5,"visib":"6+","altim":1004,"clouds":[{"cover":"SCT","base":4000},{"cover":"FEW","base":4500},{"cover":"SCT","base":9000}],"obsTime":1774116000},"SBSR":{"icaoId":"SBSR","flightCategory":"VFR","rawOb":"METAR SBSR 211800Z VRB06KT 9999 BKN035 31/20 Q1012","temp":31,"dewp":20,"wdir":"VRB","wspd":6,"visib":"6+","altim":1012,"clouds":[{"cover":"BKN","base":3500}],"obsTime":1774116000},"SBTF":{"icaoId":"SBTF","flightCategory":"VFR","rawOb":"METAR SBTF 211800Z 06005KT 9999 SCT017 35/25 Q1007","temp":35,"dewp":25,"wdir":60,"wspd":5,"visib":"6+","altim":1007,"clouds":[{"cover":"SCT","base":1700}],"obsTime":1774116000},"SBTT":{"icaoId":"SBTT","flightCategory":"MVFR","rawOb":"METAR SBTT 211800Z 09006KT 9999 BKN022 33/23 Q1007","temp":33,"dewp":23,"wdir":90,"wspd":6,"visib":"6+","altim":1007,"clouds":[{"cover":"BKN","base":2200}],"obsTime":1774116000},"SBUY":{"icaoId":"SBUY","flightCategory":"VFR","rawOb":"METAR SBUY 211800Z 10004KT 9999 SCT025 34/22 Q1007","temp":34,"dewp":22,"wdir":100,"wspd":4,"visib":"6+","altim":1007,"clouds":[{"cover":"SCT","base":2500}],"obsTime":1774116000},"SBIH":{"icaoId":"SBIH","flightCategory":"VFR","rawOb":"METAR SBIH 211800Z 07007KT 9999 SCT020 31/24 Q1009","temp":31,"dewp":24,"wdir":70,"wspd":7,"visib":"6+","altim":1009,"clouds":[{"cover":"SCT","base":2000}],"obsTime":1774116000},"SBLE":{"icaoId":"SBLE","flightCategory":"VFR","rawOb":"METAR SBLE 211800Z AUTO 11006KT 050V150 CAVOK 31/20 Q1012","temp":31,"dewp":20,"wdir":110,"wspd":6,"visib":"6+","altim":1012,"clouds":[],"obsTime":1774116000},"SBJP":{"icaoId":"SBJP","flightCategory":"MVFR","rawOb":"METAR SBJP 211800Z 09011KT 9999 BKN030 31/24 Q1010","temp":31,"dewp":24,"wdir":90,"wspd":11,"visib":"6+","altim":1010,"clouds":[{"cover":"BKN","base":3000}],"obsTime":1774116000},"SBLS":{"icaoId":"SBLS","flightCategory":"MVFR","rawOb":"METAR SBLS 211800Z 36006KT 280V040 9999 BKN026 FEW035TCU 26/21 Q1014","temp":26,"dewp":21,"wdir":360,"wspd":6,"visib":"6+","altim":1014,"clouds":[{"cover":"BKN","base":2600},{"cover":"FEW","base":3500}],"obsTime":1774116000},"SBAF":{"icaoId":"SBAF","flightCategory":"VFR","rawOb":"METAR SBAF 211800Z 19014KT 9999 FEW030 29/22 Q1011","temp":29,"dewp":22,"wdir":190,"wspd":14,"visib":"6+","altim":1011,"clouds":[{"cover":"FEW","base":3000}],"obsTime":1774116000},"SBMT":{"icaoId":"SBMT","flightCategory":"VFR","rawOb":"METAR SBMT 211800Z 25004KT 9999 SCT025 FEW030TCU 29/15 Q1013","temp":29,"dewp":15,"wdir":250,"wspd":4,"visib":"6+","altim":1013,"clouds":[{"cover":"SCT","base":2500},{"cover":"FEW","base":3000}],"obsTime":1774116000},"SBGW":{"icaoId":"SBGW","flightCategory":"VFR","rawOb":"METAR SBGW 211800Z 21005KT 140V280 9999 SCT025 31/18 Q1012","temp":31,"dewp":18,"wdir":210,"wspd":5,"visib":"6+","altim":1012,"clouds":[{"cover":"SCT","base":2500}],"obsTime":1774116000},"SBPF":{"icaoId":"SBPF","flightCategory":"VFR","rawOb":"METAR SBPF 211800Z 28008KT 250V320 CAVOK 28/22 Q1011","temp":28,"dewp":22,"wdir":280,"wspd":8,"visib":"6+","altim":1011,"clouds":[],"obsTime":1774116000},"SBJR":{"icaoId":"SBJR","flightCategory":"VFR","rawOb":"METAR SBJR 211800Z 16011KT 9999 FEW025 29/23 Q1011","temp":29,"dewp":23,"wdir":160,"wspd":11,"visib":"6+","altim":1011,"clouds":[{"cover":"FEW","base":2500}],"obsTime":1774116000},"SBST":{"icaoId":"SBST","flightCategory":"VFR","rawOb":"METAR SBST 211800Z 15008KT 9999 SCT026 28/22 Q1010","temp":28,"dewp":22,"wdir":150,"wspd":8,"visib":"6+","altim":1010,"clouds":[{"cover":"SCT","base":2600}],"obsTime":1774116000},"SBAN":{"icaoId":"SBAN","flightCategory":"MVFR","rawOb":"METAR SBAN 211800Z 33004KT 9999 BKN030 FEW035TCU 27/18 Q1017","temp":27,"dewp":18,"wdir":330,"wspd":4,"visib":"6+","altim":1017,"clouds":[{"cover":"BKN","base":3000},{"cover":"FEW","base":3500}],"obsTime":1774116000},"SBTA":{"icaoId":"SBTA","flightCategory":"VFR","rawOb":"METAR SBTA 211800Z VRB04KT 9999 FEW040 30/18 Q1012","temp":30,"dewp":18,"wdir":"VRB","wspd":4,"visib":"6+","altim":1012,"clouds":[{"cover":"FEW","base":4000}],"obsTime":1774116000},"SBJV":{"icaoId":"SBJV","flightCategory":"VFR","rawOb":"METAR SBJV 211800Z 06007KT 9999 FEW025 32/24 Q1009","temp":32,"dewp":24,"wdir":60,"wspd":7,"visib":"6+","altim":1009,"clouds":[{"cover":"FEW","base":2500}],"obsTime":1774116000},"SBTC":{"icaoId":"SBTC","flightCategory":"VFR","rawOb":"METAR SBTC 211800Z 04008KT 9999 FEW025 30/25 Q1009","temp":30,"dewp":25,"wdir":40,"wspd":8,"visib":"6+","altim":1009,"clouds":[{"cover":"FEW","base":2500}],"obsTime":1774116000}}}