{"updated":1782556184,"count":72,"data":{"SBBR":{"icaoId":"SBBR","flightCategory":"VFR","rawOb":"METAR SBBR 270900Z 13004KT CAVOK 16/14 Q1025","temp":16,"dewp":14,"wdir":130,"wspd":4,"visib":"6+","altim":1025,"clouds":[],"obsTime":1782550800},"SBGO":{"icaoId":"SBGO","flightCategory":"VFR","rawOb":"METAR SBGO 270900Z 14005KT CAVOK 16/14 Q1022","temp":16,"dewp":14,"wdir":140,"wspd":5,"visib":"6+","altim":1022,"clouds":[],"obsTime":1782550800},"SBFI":{"icaoId":"SBFI","flightCategory":"VFR","rawOb":"METAR SBFI 270900Z 10004KT 9999 VCTS FEW025 FEW030CB BKN100 15/12 Q1020","temp":15,"dewp":12,"wdir":100,"wspd":4,"visib":"6+","altim":1020,"clouds":[{"cover":"FEW","base":2500},{"cover":"FEW","base":3000},{"cover":"BKN","base":10000}],"obsTime":1782550800},"SBME":{"icaoId":"SBME","flightCategory":"VFR","rawOb":"METAR SBME 270900Z 04006KT 9999 SCT004 SCT100 21/20 Q1023","temp":21,"dewp":20,"wdir":40,"wspd":6,"visib":"6+","altim":1023,"clouds":[{"cover":"SCT","base":400},{"cover":"SCT","base":10000}],"obsTime":1782550800},"SBMK":{"icaoId":"SBMK","flightCategory":"VFR","rawOb":"METAR SBMK 270900Z 13003KT CAVOK 18/16 Q1024","temp":18,"dewp":16,"wdir":130,"wspd":3,"visib":"6+","altim":1024,"clouds":[],"obsTime":1782550800},"SBUL":{"icaoId":"SBUL","flightCategory":"VFR","rawOb":"METAR SBUL 270900Z 11009KT CAVOK 17/14 Q1025","temp":17,"dewp":14,"wdir":110,"wspd":9,"visib":"6+","altim":1025,"clouds":[],"obsTime":1782550800},"SBSG":{"icaoId":"SBSG","flightCategory":"LIFR","rawOb":"METAR SBSG 270900Z VRB04KT 1000 R30///// R12/2000U BR BKN002 23/23 Q1016","temp":23,"dewp":23,"wdir":"VRB","wspd":4,"visib":0.62,"altim":1016,"clouds":[{"cover":"BKN","base":200}],"obsTime":1782550800},"SBUR":{"icaoId":"SBUR","flightCategory":"VFR","rawOb":"METAR SBUR 270900Z 07006KT CAVOK 18/14 Q1024","temp":18,"dewp":14,"wdir":70,"wspd":6,"visib":"6+","altim":1024,"clouds":[],"obsTime":1782550800},"SBIL":{"icaoId":"SBIL","flightCategory":"VFR","rawOb":"METAR SBIL 270900Z 26004KT 9999 SCT020 22/22 Q1021","temp":22,"dewp":22,"wdir":260,"wspd":4,"visib":"6+","altim":1021,"clouds":[{"cover":"SCT","base":2000}],"obsTime":1782550800},"SBJU":{"icaoId":"SBJU","flightCategory":"MVFR","rawOb":"METAR SBJU 270900Z 00000KT 5000 BR BKN020 23/22 Q1018","temp":23,"dewp":22,"wdir":0,"wspd":0,"visib":3.11,"altim":1018,"clouds":[{"cover":"BKN","base":2000}],"obsTime":1782550800},"SBMO":{"icaoId":"SBMO","flightCategory":"IFR","rawOb":"METAR SBMO 270900Z 14012KT 4000 DZ BR BKN012 BKN020 BKN030 24/23 Q1017","temp":24,"dewp":23,"wdir":140,"wspd":12,"visib":2.49,"altim":1017,"clouds":[{"cover":"BKN","base":1200},{"cover":"BKN","base":2000},{"cover":"BKN","base":3000}],"obsTime":1782550800},"SBGL":{"icaoId":"SBGL","flightCategory":"LIFR","rawOb":"METAR SBGL 270900Z VRB02KT 0500 R10/0400N R15/0400N R28/0500N R33/0500N FG VV002 19/19 Q1023","temp":19,"dewp":19,"wdir":"VRB","wspd":2,"visib":0.31,"altim":1023,"clouds":[{"cover":"OVX","base":200}],"obsTime":1782550800},"SBCG":{"icaoId":"SBCG","flightCategory":"VFR","rawOb":"METAR SBCG 270900Z 07010KT 9999 FEW003 SCT100 18/17 Q1019","temp":18,"dewp":17,"wdir":70,"wspd":10,"visib":"6+","altim":1019,"clouds":[{"cover":"FEW","base":300},{"cover":"SCT","base":10000}],"obsTime":1782550800},"SBSN":{"icaoId":"SBSN","flightCategory":"VFR","rawOb":"METAR SBSN 270900Z 08010KT 9999 FEW015 SCT025 27/24 Q1013","temp":27,"dewp":24,"wdir":80,"wspd":10,"visib":"6+","altim":1013,"clouds":[{"cover":"FEW","base":1500},{"cover":"SCT","base":2500}],"obsTime":1782550800},"SBBE":{"icaoId":"SBBE","flightCategory":"VFR","rawOb":"METAR SBBE 270900Z 09005KT CAVOK 25/24 Q1014","temp":25,"dewp":24,"wdir":90,"wspd":5,"visib":"6+","altim":1014,"clouds":[],"obsTime":1782550800},"SBHT":{"icaoId":"SBHT","flightCategory":"VFR","rawOb":"METAR SBHT 271000Z 08002KT 9999 SCT012 25/25 Q1015","temp":25,"dewp":25,"wdir":80,"wspd":2,"visib":"6+","altim":1015,"clouds":[{"cover":"SCT","base":1200}],"obsTime":1782554400},"SBNT":{"icaoId":"SBNT","flightCategory":"MVFR","rawOb":"METAR SBNT 270900Z 21004KT 7000 -RA SCT007 BKN024 FEW027TCU BKN050 23/22 Q1015","temp":23,"dewp":22,"wdir":210,"wspd":4,"visib":4.35,"altim":1015,"clouds":[{"cover":"SCT","base":700},{"cover":"BKN","base":2400},{"cover":"FEW","base":2700},{"cover":"BKN","base":5000}],"obsTime":1782550800},"SBFZ":{"icaoId":"SBFZ","flightCategory":"VFR","rawOb":"METAR SBFZ 270900Z 17005KT CAVOK 24/22 Q1015","temp":24,"dewp":22,"wdir":170,"wspd":5,"visib":"6+","altim":1015,"clouds":[],"obsTime":1782550800},"SBPV":{"icaoId":"SBPV","flightCategory":"VFR","rawOb":"METAR SBPV 270900Z 00000KT 9999 FEW020 24/22 Q1015","temp":24,"dewp":22,"wdir":0,"wspd":0,"visib":"6+","altim":1015,"clouds":[{"cover":"FEW","base":2000}],"obsTime":1782550800},"SBRF":{"icaoId":"SBRF","flightCategory":"MVFR","rawOb":"METAR SBRF 270900Z 13013KT 5000 BR SCT008 BKN012 BKN050 25/24 Q1016","temp":25,"dewp":24,"wdir":130,"wspd":13,"visib":3.11,"altim":1016,"clouds":[{"cover":"SCT","base":800},{"cover":"BKN","base":1200},{"cover":"BKN","base":5000}],"obsTime":1782550800},"SBSL":{"icaoId":"SBSL","flightCategory":"VFR","rawOb":"METAR SBSL 270900Z 11007KT CAVOK 25/24 Q1014","temp":25,"dewp":24,"wdir":110,"wspd":7,"visib":"6+","altim":1014,"clouds":[],"obsTime":1782550800},"SBBV":{"icaoId":"SBBV","flightCategory":"VFR","rawOb":"METAR SBBV 270900Z 29001KT 9999 FEW025 FEW035TCU SCT100 25/24 Q1014","temp":25,"dewp":24,"wdir":290,"wspd":1,"visib":"6+","altim":1014,"clouds":[{"cover":"FEW","base":2500},{"cover":"FEW","base":3500},{"cover":"SCT","base":10000}],"obsTime":1782550800},"SBCB":{"icaoId":"SBCB","flightCategory":"VFR","rawOb":"METAR SBCB 270900Z 09005KT 9999 FEW010 SCT025 BKN060 22/21 Q1023","temp":22,"dewp":21,"wdir":90,"wspd":5,"visib":"6+","altim":1023,"clouds":[{"cover":"FEW","base":1000},{"cover":"SCT","base":2500},{"cover":"BKN","base":6000}],"obsTime":1782550800},"SBEG":{"icaoId":"SBEG","flightCategory":"VFR","rawOb":"METAR SBEG 270900Z 00000KT 9999 VCTS FEW008 FEW025CB SCT080 24/24 Q1014","temp":24,"dewp":24,"wdir":0,"wspd":0,"visib":"6+","altim":1014,"clouds":[{"cover":"FEW","base":800},{"cover":"FEW","base":2500},{"cover":"SCT","base":8000}],"obsTime":1782550800},"SBRB":{"icaoId":"SBRB","flightCategory":"IFR","rawOb":"METAR SBRB 270900Z 18003KT 3000 BR BKN008 20/19 Q1016","temp":20,"dewp":19,"wdir":180,"wspd":3,"visib":1.86,"altim":1016,"clouds":[{"cover":"BKN","base":800}],"obsTime":1782550800},"SBSV":{"icaoId":"SBSV","flightCategory":"VFR","rawOb":"METAR SBSV 270900Z 12011KT 9999 SCT025 BKN080 26/20 Q1019","temp":26,"dewp":20,"wdir":120,"wspd":11,"visib":"6+","altim":1019,"clouds":[{"cover":"SCT","base":2500},{"cover":"BKN","base":8000}],"obsTime":1782550800},"SBSP":{"icaoId":"SBSP","flightCategory":"IFR","rawOb":"METAR SBSP 270900Z COR 05007KT 5000 BR BKN005 15/15 Q1026","temp":15,"dewp":15,"wdir":50,"wspd":7,"visib":3.11,"altim":1026,"clouds":[{"cover":"BKN","base":500}],"obsTime":1782550800},"SBCP":{"icaoId":"SBCP","flightCategory":"MVFR","rawOb":"METAR SBCP 271000Z 03003KT 8000 NSC 20/20 Q1024","temp":20,"dewp":20,"wdir":30,"wspd":3,"visib":4.97,"altim":1024,"clouds":[],"obsTime":1782554400},"SBCF":{"icaoId":"SBCF","flightCategory":"VFR","rawOb":"METAR SBCF 270900Z 24002KT CAVOK 16/15 Q1026","temp":16,"dewp":15,"wdir":240,"wspd":2,"visib":"6+","altim":1026,"clouds":[],"obsTime":1782550800},"SBPJ":{"icaoId":"SBPJ","flightCategory":"VFR","rawOb":"METAR SBPJ 270900Z 13007KT 9999 FEW040 SCT060 26/19 Q1016","temp":26,"dewp":19,"wdir":130,"wspd":7,"visib":"6+","altim":1016,"clouds":[{"cover":"FEW","base":4000},{"cover":"SCT","base":6000}],"obsTime":1782550800},"SBGR":{"icaoId":"SBGR","flightCategory":"IFR","rawOb":"METAR SBGR 270900Z 07007KT 9999 BKN008 16/15 Q1026","temp":16,"dewp":15,"wdir":70,"wspd":7,"visib":"6+","altim":1026,"clouds":[{"cover":"BKN","base":800}],"obsTime":1782550800},"SBLO":{"icaoId":"SBLO","flightCategory":"VFR","rawOb":"METAR SBLO 270900Z 28002KT 9999 SCT030 15/15 Q1023","temp":15,"dewp":15,"wdir":280,"wspd":2,"visib":"6+","altim":1023,"clouds":[{"cover":"SCT","base":3000}],"obsTime":1782550800},"SBCT":{"icaoId":"SBCT","flightCategory":"LIFR","rawOb":"METAR SBCT 270900Z 00000KT 0200 R15/0500 R33/0550 FG VV001 10/10 Q1025","temp":10,"dewp":10,"wdir":0,"wspd":0,"visib":0.12,"altim":1025,"clouds":[{"cover":"OVX","base":100}],"obsTime":1782550800},"SBMG":{"icaoId":"SBMG","flightCategory":"LIFR","rawOb":"METAR SBMG 270900Z AUTO 14005KT 1200 R10/1200U BR VV001 15/14 Q1021","temp":15,"dewp":14,"wdir":140,"wspd":5,"visib":0.75,"altim":1021,"clouds":[{"cover":"OVX","base":100}],"obsTime":1782550800},"SBPA":{"icaoId":"SBPA","flightCategory":"LIFR","rawOb":"SPECI SBPA 270840Z VRB02KT 2500 0200W R29///// R11/2000D BR PRFG BKN001 06/06 Q1022","temp":6,"dewp":6,"wdir":"VRB","wspd":2,"visib":1.55,"altim":1022,"clouds":[{"cover":"BKN","base":100}],"obsTime":1782549600},"SBVT":{"icaoId":"SBVT","flightCategory":"VFR","rawOb":"METAR SBVT 270900Z 32003KT 9000 FEW003 SCT020 BKN040 20/20 Q1023","temp":20,"dewp":20,"wdir":320,"wspd":3,"visib":5.59,"altim":1023,"clouds":[{"cover":"FEW","base":300},{"cover":"SCT","base":2000},{"cover":"BKN","base":4000}],"obsTime":1782550800},"SBKP":{"icaoId":"SBKP","flightCategory":"VFR","rawOb":"METAR SBKP 270900Z 12008KT CAVOK 16/14 Q1024","temp":16,"dewp":14,"wdir":120,"wspd":8,"visib":"6+","altim":1024,"clouds":[],"obsTime":1782550800},"SBMQ":{"icaoId":"SBMQ","flightCategory":"VFR","rawOb":"METAR SBMQ 270900Z 07009KT 9999 SCT017 28/25 Q1013","temp":28,"dewp":25,"wdir":70,"wspd":9,"visib":"6+","altim":1013,"clouds":[{"cover":"SCT","base":1700}],"obsTime":1782550800},"SBFL":{"icaoId":"SBFL","flightCategory":"VFR","rawOb":"METAR SBFL 270900Z VRB02KT CAVOK 11/11 Q1022","temp":11,"dewp":11,"wdir":"VRB","wspd":2,"visib":"6+","altim":1022,"clouds":[],"obsTime":1782550800},"SBTE":{"icaoId":"SBTE","flightCategory":"VFR","rawOb":"METAR SBTE 270900Z 34002KT 9999 SCT009 25/23 Q1014","temp":25,"dewp":23,"wdir":340,"wspd":2,"visib":"6+","altim":1014,"clouds":[{"cover":"SCT","base":900}],"obsTime":1782550800},"SBMA":{"icaoId":"SBMA","flightCategory":"VFR","rawOb":"METAR SBMA 270900Z 00000KT CAVOK 23/21 Q1014","temp":23,"dewp":21,"wdir":0,"wspd":0,"visib":"6+","altim":1014,"clouds":[],"obsTime":1782550800},"SBPB":{"icaoId":"SBPB","flightCategory":"VFR","rawOb":"SPECI SBPB 271015Z 09010KT 9999 FEW020 27/23 Q1015","temp":27,"dewp":23,"wdir":90,"wspd":10,"visib":"6+","altim":1015,"clouds":[{"cover":"FEW","base":2000}],"obsTime":1782555300},"SBCJ":{"icaoId":"SBCJ","flightCategory":"VFR","rawOb":"SPECI SBCJ 271015Z 00000KT CAVOK 23/21 Q1017","temp":23,"dewp":21,"wdir":0,"wspd":0,"visib":"6+","altim":1017,"clouds":[],"obsTime":1782555300},"SBTU":{"icaoId":"SBTU","flightCategory":"VFR","rawOb":"METAR SBTU 270900Z AUTO 21007KT 9999 // FEW009/// ///// Q1016","temp":null,"dewp":null,"wdir":210,"wspd":7,"visib":"6+","altim":1016,"clouds":[{"cover":"FEW","base":900}],"obsTime":1782550800},"SBIP":{"icaoId":"SBIP","flightCategory":"MVFR","rawOb":"METAR SBIP 270900Z AUTO 00000KT 7000 NSC 17/17 Q1025","temp":17,"dewp":17,"wdir":0,"wspd":0,"visib":4.35,"altim":1025,"clouds":[],"obsTime":1782550800},"SBOI":{"icaoId":"SBOI","flightCategory":"LIFR","rawOb":"METAR SBOI 270900Z AUTO 00000KT 0450 FG VV001 23/23 Q1014","temp":23,"dewp":23,"wdir":0,"wspd":0,"visib":0.28,"altim":1014,"clouds":[{"cover":"OVX","base":100}],"obsTime":1782550800},"SBAR":{"icaoId":"SBAR","flightCategory":"VFR","rawOb":"METAR SBAR 270900Z 13009KT 100V160 9999 FEW015 SCT020 26/22 Q1017","temp":26,"dewp":22,"wdir":130,"wspd":9,"visib":"6+","altim":1017,"clouds":[{"cover":"FEW","base":1500},{"cover":"SCT","base":2000}],"obsTime":1782550800},"SBBU":{"icaoId":"SBBU","flightCategory":"IFR","rawOb":"METAR SBBU 270900Z 16004KT 4000 1800SE BR NSC 18/17 Q1024","temp":18,"dewp":17,"wdir":160,"wspd":4,"visib":2.49,"altim":1024,"clouds":[],"obsTime":1782550800},"SBKG":{"icaoId":"SBKG","flightCategory":"MVFR","rawOb":"METAR SBKG 270900Z 17004KT 9999 -RA OVC010 21/21 Q1018","temp":21,"dewp":21,"wdir":170,"wspd":4,"visib":"6+","altim":1018,"clouds":[{"cover":"OVC","base":1000}],"obsTime":1782550800},"SBBH":{"icaoId":"SBBH","flightCategory":"VFR","rawOb":"METAR SBBH 270900Z 11004KT CAVOK 16/15 Q1026","temp":16,"dewp":15,"wdir":110,"wspd":4,"visib":"6+","altim":1026,"clouds":[],"obsTime":1782550800},"SBDN":{"icaoId":"SBDN","flightCategory":"VFR","rawOb":"METAR SBDN 270900Z 09005KT CAVOK 16/15 Q1021","temp":16,"dewp":15,"wdir":90,"wspd":5,"visib":"6+","altim":1021,"clouds":[],"obsTime":1782550800},"SBSR":{"icaoId":"SBSR","flightCategory":"VFR","rawOb":"METAR SBSR 270900Z 08002KT CAVOK 17/16 Q1022","temp":17,"dewp":16,"wdir":80,"wspd":2,"visib":"6+","altim":1022,"clouds":[],"obsTime":1782550800},"SBAX":{"icaoId":"SBAX","flightCategory":"VFR","rawOb":"METAR SBAX 270900Z AUTO 10005KT CAVOK ///// Q1025","temp":null,"dewp":null,"wdir":100,"wspd":5,"visib":"6+","altim":1025,"clouds":[],"obsTime":1782550800},"SBSC":{"icaoId":"SBSC","flightCategory":"LIFR","rawOb":"METAR SBSC 270900Z 05004KT 0100 R23/0150 R05/0200 FG VV002 18/18 Q1023","temp":18,"dewp":18,"wdir":50,"wspd":4,"visib":0.06,"altim":1023,"clouds":[{"cover":"OVX","base":200}],"obsTime":1782550800},"SBSJ":{"icaoId":"SBSJ","flightCategory":"IFR","rawOb":"SPECI SBSJ 270830Z VRB02KT 5000 BR BKN009 16/16 Q1025","temp":16,"dewp":16,"wdir":"VRB","wspd":2,"visib":3.11,"altim":1025,"clouds":[{"cover":"BKN","base":900}],"obsTime":1782549000},"SBPS":{"icaoId":"SBPS","flightCategory":"MVFR","rawOb":"METAR SBPS 270900Z VRB02KT 8000 VCSH SCT002 OVC040 22/21 Q1022","temp":22,"dewp":21,"wdir":"VRB","wspd":2,"visib":4.97,"altim":1022,"clouds":[{"cover":"SCT","base":200},{"cover":"OVC","base":4000}],"obsTime":1782550800},"SBES":{"icaoId":"SBES","flightCategory":"MVFR","rawOb":"METAR SBES 270900Z 05006KT 360V080 9999 SCT010 BKN030 21/// Q1023","temp":null,"dewp":null,"wdir":50,"wspd":6,"visib":"6+","altim":1023,"clouds":[{"cover":"SCT","base":1000},{"cover":"BKN","base":3000}],"obsTime":1782550800},"SBCO":{"icaoId":"SBCO","flightCategory":"LIFR","rawOb":"METAR SBCO 270900Z 00000KT 0800 R13///// R31/1500 FG BKN001 02/02 Q1023","temp":2,"dewp":2,"wdir":0,"wspd":0,"visib":0.5,"altim":1023,"clouds":[{"cover":"BKN","base":100}],"obsTime":1782550800},"SBSM":{"icaoId":"SBSM","flightCategory":"LIFR","rawOb":"METAR SBSM 270900Z 09002KT 0200 R29///// R11/0450D FG BKN001 04/04 Q1021","temp":4,"dewp":4,"wdir":90,"wspd":2,"visib":0.12,"altim":1021,"clouds":[{"cover":"BKN","base":100}],"obsTime":1782550800},"SBPL":{"icaoId":"SBPL","flightCategory":"VFR","rawOb":"METAR SBPL 270900Z 11008KT 9999 SCT020 BKN070 23/21 Q1019","temp":23,"dewp":21,"wdir":110,"wspd":8,"visib":"6+","altim":1019,"clouds":[{"cover":"SCT","base":2000},{"cover":"BKN","base":7000}],"obsTime":1782550800},"SBGW":{"icaoId":"SBGW","flightCategory":"IFR","rawOb":"METAR SBGW 270900Z 00000KT 4000 BR BKN012 18/14 Q1025","temp":18,"dewp":14,"wdir":0,"wspd":0,"visib":2.49,"altim":1025,"clouds":[{"cover":"BKN","base":1200}],"obsTime":1782550800},"SBAF":{"icaoId":"SBAF","flightCategory":"LIFR","rawOb":"METAR SBAF 271000Z 24002KT 0100 FG OVC001 18/18 Q1024","temp":18,"dewp":18,"wdir":240,"wspd":2,"visib":0.06,"altim":1024,"clouds":[{"cover":"OVC","base":100}],"obsTime":1782554400},"SBJR":{"icaoId":"SBJR","flightCategory":"LIFR","rawOb":"METAR SBJR 271000Z 36001KT 3000 BR OVC004 19/19 Q1023","temp":19,"dewp":19,"wdir":360,"wspd":1,"visib":1.86,"altim":1023,"clouds":[{"cover":"OVC","base":400}],"obsTime":1782554400},"SBLS":{"icaoId":"SBLS","flightCategory":"VFR","rawOb":"METAR SBLS 270900Z 15008KT CAVOK 16/15 Q1026","temp":16,"dewp":15,"wdir":150,"wspd":8,"visib":"6+","altim":1026,"clouds":[],"obsTime":1782550800},"SBMT":{"icaoId":"SBMT","flightCategory":"IFR","rawOb":"METAR SBMT 270900Z 13005KT 3500 BR BKN009 15/15 Q1025","temp":15,"dewp":15,"wdir":130,"wspd":5,"visib":2.17,"altim":1025,"clouds":[{"cover":"BKN","base":900}],"obsTime":1782550800},"SBTA":{"icaoId":"SBTA","flightCategory":"MVFR","rawOb":"METAR SBTA 270900Z 12002KT 8000 BKN010 18/17 Q1025","temp":18,"dewp":17,"wdir":120,"wspd":2,"visib":4.97,"altim":1025,"clouds":[{"cover":"BKN","base":1000}],"obsTime":1782550800},"SBLE":{"icaoId":"SBLE","flightCategory":"MVFR","rawOb":"METAR SBLE 270900Z AUTO VRB02KT 9999 FEW003 BKN021 OVC044 ///// Q////","temp":null,"dewp":null,"wdir":"VRB","wspd":2,"visib":"6+","altim":null,"clouds":[{"cover":"FEW","base":300},{"cover":"BKN","base":2100},{"cover":"OVC","base":4400}],"obsTime":1782550800},"SBJP":{"icaoId":"SBJP","flightCategory":"LIFR","rawOb":"METAR SBJP 270900Z 13008KT 1500 +RA BKN008 BKN012 24/24 Q1016 RERA","temp":24,"dewp":24,"wdir":130,"wspd":8,"visib":0.93,"altim":1016,"clouds":[{"cover":"BKN","base":800},{"cover":"BKN","base":1200}],"obsTime":1782550800},"SBAN":{"icaoId":"SBAN","flightCategory":"VFR","rawOb":"METAR SBAN 270900Z 09005KT CAVOK 15/12 Q1025","temp":15,"dewp":12,"wdir":90,"wspd":5,"visib":"6+","altim":1025,"clouds":[],"obsTime":1782550800},"SBJV":{"icaoId":"SBJV","flightCategory":"MVFR","rawOb":"METAR SBJV 270900Z 00000KT 5000 BR NSC 09/09 Q1023","temp":9,"dewp":9,"wdir":0,"wspd":0,"visib":3.11,"altim":1023,"clouds":[],"obsTime":1782550800},"SBNM":{"icaoId":"SBNM","flightCategory":"VFR","rawOb":"METAR SBNM 270900Z AUTO 10005KT 9999 BKN036 07/06 Q1021","temp":7,"dewp":6,"wdir":100,"wspd":5,"visib":"6+","altim":1021,"clouds":[{"cover":"BKN","base":3600}],"obsTime":1782550800},"SBPF":{"icaoId":"SBPF","flightCategory":"VFR","rawOb":"METAR SBPF 270900Z 03010KT CAVOK 09/05 Q1022","temp":9,"dewp":5,"wdir":30,"wspd":10,"visib":"6+","altim":1022,"clouds":[],"obsTime":1782550800}}}