{"updated":1773772996,"count":86,"data":{"SBLO":{"icaoId":"SBLO","flightCategory":"VFR","rawOb":"METAR SBLO 171700Z 36007KT 9999 SCT040 32/21 Q1012","temp":32,"dewp":21,"wdir":360,"wspd":7,"visib":"6+","altim":1012,"clouds":[{"cover":"SCT","base":4000}],"obsTime":1773766800},"SBMA":{"icaoId":"SBMA","flightCategory":"VFR","rawOb":"METAR SBMA 171700Z 36001KT 9999 SCT008 SCT012 OVC100 26/24 Q1011","temp":26,"dewp":24,"wdir":360,"wspd":1,"visib":"6+","altim":1011,"clouds":[{"cover":"SCT","base":800},{"cover":"SCT","base":1200},{"cover":"OVC","base":10000}],"obsTime":1773766800},"SBEG":{"icaoId":"SBEG","flightCategory":"MVFR","rawOb":"METAR SBEG 171700Z 05008KT 9999 VCSH BKN020 FEW025TCU BKN080 27/25 Q1010","temp":27,"dewp":25,"wdir":50,"wspd":8,"visib":"6+","altim":1010,"clouds":[{"cover":"BKN","base":2000},{"cover":"FEW","base":2500},{"cover":"BKN","base":8000}],"obsTime":1773766800},"SBME":{"icaoId":"SBME","flightCategory":"VFR","rawOb":"METAR SBME 171700Z 12010KT 9999 FEW030 30/23 Q1011","temp":30,"dewp":23,"wdir":120,"wspd":10,"visib":"6+","altim":1011,"clouds":[{"cover":"FEW","base":3000}],"obsTime":1773766800},"SBCF":{"icaoId":"SBCF","flightCategory":"VFR","rawOb":"METAR SBCF 171700Z 02004KT 9999 BKN040 29/19 Q1016","temp":29,"dewp":19,"wdir":20,"wspd":4,"visib":"6+","altim":1016,"clouds":[{"cover":"BKN","base":4000}],"obsTime":1773766800},"SBMG":{"icaoId":"SBMG","flightCategory":"VFR","rawOb":"METAR SBMG 171700Z 02012KT 350V050 9999 VCSH BKN043 FEW043TCU 32/21 Q1010","temp":32,"dewp":21,"wdir":20,"wspd":12,"visib":"6+","altim":1010,"clouds":[{"cover":"BKN","base":4300},{"cover":"FEW","base":4300}],"obsTime":1773766800},"SBFI":{"icaoId":"SBFI","flightCategory":"MVFR","rawOb":"METAR SBFI 171700Z 33007KT 9999 SCT015 BKN025 FEW040TCU 26/24 Q1010","temp":26,"dewp":24,"wdir":330,"wspd":7,"visib":"6+","altim":1010,"clouds":[{"cover":"SCT","base":1500},{"cover":"BKN","base":2500},{"cover":"FEW","base":4000}],"obsTime":1773766800},"SBMK":{"icaoId":"SBMK","flightCategory":"VFR","rawOb":"METAR SBMK 171700Z 04006KT 9999 SCT040 SCT100 30/20 Q1013","temp":30,"dewp":20,"wdir":40,"wspd":6,"visib":"6+","altim":1013,"clouds":[{"cover":"SCT","base":4000},{"cover":"SCT","base":10000}],"obsTime":1773766800},"SBMO":{"icaoId":"SBMO","flightCategory":"VFR","rawOb":"METAR SBMO 171700Z 10012KT 9999 SCT030 31/22 Q1010","temp":31,"dewp":22,"wdir":100,"wspd":12,"visib":"6+","altim":1010,"clouds":[{"cover":"SCT","base":3000}],"obsTime":1773766800},"SBCG":{"icaoId":"SBCG","flightCategory":"VFR","rawOb":"METAR SBCG 171700Z 30004KT 270V350 9999 VCTS SCT030 FEW035CB 25/21 Q1011 RETSRA","temp":25,"dewp":21,"wdir":300,"wspd":4,"visib":"6+","altim":1011,"clouds":[{"cover":"SCT","base":3000},{"cover":"FEW","base":3500}],"obsTime":1773766800},"SBMQ":{"icaoId":"SBMQ","flightCategory":"VFR","rawOb":"METAR SBMQ 171700Z 02006KT 9999 FEW012 BKN040 OVC070 27/24 Q1010","temp":27,"dewp":24,"wdir":20,"wspd":6,"visib":"6+","altim":1010,"clouds":[{"cover":"FEW","base":1200},{"cover":"BKN","base":4000},{"cover":"OVC","base":7000}],"obsTime":1773766800},"SBFL":{"icaoId":"SBFL","flightCategory":"VFR","rawOb":"METAR SBFL 171700Z 35013KT 9999 FEW037 31/23 Q1011","temp":31,"dewp":23,"wdir":350,"wspd":13,"visib":"6+","altim":1011,"clouds":[{"cover":"FEW","base":3700}],"obsTime":1773766800},"SBBR":{"icaoId":"SBBR","flightCategory":"VFR","rawOb":"METAR SBBR 171700Z 20006KT 9999 TS SCT030 FEW035CB SCT100 24/21 Q1016 RETS","temp":24,"dewp":21,"wdir":200,"wspd":6,"visib":"6+","altim":1016,"clouds":[{"cover":"SCT","base":3000},{"cover":"FEW","base":3500},{"cover":"SCT","base":10000}],"obsTime":1773766800},"SBNT":{"icaoId":"SBNT","flightCategory":"VFR","rawOb":"METAR SBNT 171700Z 09012KT 060V130 9999 SCT026 FEW028TCU 31/24 Q1009","temp":31,"dewp":24,"wdir":90,"wspd":12,"visib":"6+","altim":1009,"clouds":[{"cover":"SCT","base":2600},{"cover":"FEW","base":2800}],"obsTime":1773766800},"SBFZ":{"icaoId":"SBFZ","flightCategory":"VFR","rawOb":"METAR SBFZ 171700Z 09012KT 9999 SCT025 31/24 Q1009","temp":31,"dewp":24,"wdir":90,"wspd":12,"visib":"6+","altim":1009,"clouds":[{"cover":"SCT","base":2500}],"obsTime":1773766800},"SBPA":{"icaoId":"SBPA","flightCategory":"VFR","rawOb":"METAR SBPA 171700Z 21006KT 9999 FEW030 FEW040TCU BKN080 30/24 Q1009","temp":30,"dewp":24,"wdir":210,"wspd":6,"visib":"6+","altim":1009,"clouds":[{"cover":"FEW","base":3000},{"cover":"FEW","base":4000},{"cover":"BKN","base":8000}],"obsTime":1773766800},"SBKP":{"icaoId":"SBKP","flightCategory":"VFR","rawOb":"METAR SBKP 171700Z 28005KT 160V330 9999 BKN040 32/20 Q1013","temp":32,"dewp":20,"wdir":280,"wspd":5,"visib":"6+","altim":1013,"clouds":[{"cover":"BKN","base":4000}],"obsTime":1773766800},"SBCZ":{"icaoId":"SBCZ","flightCategory":"VFR","rawOb":"METAR SBCZ 171700Z 36002KT 9999 FEW015 OVC100 27/25 Q1011","temp":27,"dewp":25,"wdir":360,"wspd":2,"visib":"6+","altim":1011,"clouds":[{"cover":"FEW","base":1500},{"cover":"OVC","base":10000}],"obsTime":1773766800},"SBAT":{"icaoId":"SBAT","flightCategory":"MVFR","rawOb":"METAR SBAT 171700Z 03003KT 9999 BKN030 BKN100 32/25 Q1011","temp":32,"dewp":25,"wdir":30,"wspd":3,"visib":"6+","altim":1011,"clouds":[{"cover":"BKN","base":3000},{"cover":"BKN","base":10000}],"obsTime":1773766800},"SBPJ":{"icaoId":"SBPJ","flightCategory":"VFR","rawOb":"METAR SBPJ 171700Z 23003KT 170V260 9999 VCSH VCTS SCT027 FEW032CB 31/24 Q1010","temp":31,"dewp":24,"wdir":230,"wspd":3,"visib":"6+","altim":1010,"clouds":[{"cover":"SCT","base":2700},{"cover":"FEW","base":3200}],"obsTime":1773766800},"SBPV":{"icaoId":"SBPV","flightCategory":"MVFR","rawOb":"METAR SBPV 171700Z 06007KT 020V080 9999 BKN015 BKN035 28/24 Q1010","temp":28,"dewp":24,"wdir":60,"wspd":7,"visib":"6+","altim":1010,"clouds":[{"cover":"BKN","base":1500},{"cover":"BKN","base":3500}],"obsTime":1773766800},"SBGL":{"icaoId":"SBGL","flightCategory":"VFR","rawOb":"METAR SBGL 171700Z 13012KT 9999 FEW020 30/22 Q1011","temp":30,"dewp":22,"wdir":130,"wspd":12,"visib":"6+","altim":1011,"clouds":[{"cover":"FEW","base":2000}],"obsTime":1773766800},"SBRB":{"icaoId":"SBRB","flightCategory":"MVFR","rawOb":"METAR SBRB 171700Z 35008KT 9999 BKN030 FEW035TCU 33/26 Q1010","temp":33,"dewp":26,"wdir":350,"wspd":8,"visib":"6+","altim":1010,"clouds":[{"cover":"BKN","base":3000},{"cover":"FEW","base":3500}],"obsTime":1773766800},"SBGO":{"icaoId":"SBGO","flightCategory":"MVFR","rawOb":"METAR SBGO 171700Z 33011KT 270V020 9999 VCSH BKN030 27/20 Q1014","temp":27,"dewp":20,"wdir":330,"wspd":11,"visib":"6+","altim":1014,"clouds":[{"cover":"BKN","base":3000}],"obsTime":1773766800},"SBRF":{"icaoId":"SBRF","flightCategory":"VFR","rawOb":"METAR SBRF 171700Z 12010KT 9999 SCT021 31/25 Q1010","temp":31,"dewp":25,"wdir":120,"wspd":10,"visib":"6+","altim":1010,"clouds":[{"cover":"SCT","base":2100}],"obsTime":1773766800},"SBCP":{"icaoId":"SBCP","flightCategory":"VFR","rawOb":"METAR SBCP 171700Z 12010KT 9999 FEW020 31/24 Q1011","temp":31,"dewp":24,"wdir":120,"wspd":10,"visib":"6+","altim":1011,"clouds":[{"cover":"FEW","base":2000}],"obsTime":1773766800},"SBBV":{"icaoId":"SBBV","flightCategory":"VFR","rawOb":"METAR SBBV 171700Z 07015KT 9999 SCT040 32/20 Q1011","temp":32,"dewp":20,"wdir":70,"wspd":15,"visib":"6+","altim":1011,"clouds":[{"cover":"SCT","base":4000}],"obsTime":1773766800},"SBSG":{"icaoId":"SBSG","flightCategory":"VFR","rawOb":"METAR SBSG 171700Z 08013KT 9999 SCT025 FEW027TCU 30/24 Q1009","temp":30,"dewp":24,"wdir":80,"wspd":13,"visib":"6+","altim":1009,"clouds":[{"cover":"SCT","base":2500},{"cover":"FEW","base":2700}],"obsTime":1773766800},"SBSL":{"icaoId":"SBSL","flightCategory":"VFR","rawOb":"METAR SBSL 171700Z 11004KT 9999 SCT017 FEW020TCU BKN060 27/25 Q1010","temp":27,"dewp":25,"wdir":110,"wspd":4,"visib":"6+","altim":1010,"clouds":[{"cover":"SCT","base":1700},{"cover":"FEW","base":2000},{"cover":"BKN","base":6000}],"obsTime":1773766800},"SBGR":{"icaoId":"SBGR","flightCategory":"VFR","rawOb":"METAR SBGR 171700Z 19005KT 9999 BKN045 31/19 Q1014","temp":31,"dewp":19,"wdir":190,"wspd":5,"visib":"6+","altim":1014,"clouds":[{"cover":"BKN","base":4500}],"obsTime":1773766800},"SBCR":{"icaoId":"SBCR","flightCategory":"VFR","rawOb":"METAR SBCR 171700Z 33011KT 9999 FEW045 36/22 Q1007","temp":36,"dewp":22,"wdir":330,"wspd":11,"visib":"6+","altim":1007,"clouds":[{"cover":"FEW","base":4500}],"obsTime":1773766800},"SBSN":{"icaoId":"SBSN","flightCategory":"VFR","rawOb":"METAR SBSN 171700Z 11007KT 9999 -RA FEW009 OVC080 28/25 Q1010","temp":28,"dewp":25,"wdir":110,"wspd":7,"visib":"6+","altim":1010,"clouds":[{"cover":"FEW","base":900},{"cover":"OVC","base":8000}],"obsTime":1773766800},"SBSP":{"icaoId":"SBSP","flightCategory":"VFR","rawOb":"METAR SBSP 171700Z 15007KT CAVOK 29/19 Q1015","temp":29,"dewp":19,"wdir":150,"wspd":7,"visib":"6+","altim":1015,"clouds":[],"obsTime":1773766800},"SBHT":{"icaoId":"SBHT","flightCategory":"MVFR","rawOb":"METAR SBHT 171700Z 04003KT 9999 BKN025 BKN100 31/24 Q1010","temp":31,"dewp":24,"wdir":40,"wspd":3,"visib":"6+","altim":1010,"clouds":[{"cover":"BKN","base":2500},{"cover":"BKN","base":10000}],"obsTime":1773766800},"SBBE":{"icaoId":"SBBE","flightCategory":"IFR","rawOb":"METAR SBBE 171700Z 36009KT 3000 RA BR BKN010 BKN020 FEW030TCU 25/25 Q1010","temp":25,"dewp":25,"wdir":360,"wspd":9,"visib":1.86,"altim":1010,"clouds":[{"cover":"BKN","base":1000},{"cover":"BKN","base":2000},{"cover":"FEW","base":3000}],"obsTime":1773766800},"SBSV":{"icaoId":"SBSV","flightCategory":"VFR","rawOb":"METAR SBSV 171700Z 10011KT 9999 SCT025 31/22 Q1011","temp":31,"dewp":22,"wdir":100,"wspd":11,"visib":"6+","altim":1011,"clouds":[{"cover":"SCT","base":2500}],"obsTime":1773766800},"SBIL":{"icaoId":"SBIL","flightCategory":"VFR","rawOb":"METAR SBIL 171700Z 10007KT 060V130 9999 FEW023 31/24 Q1011","temp":31,"dewp":24,"wdir":100,"wspd":7,"visib":"6+","altim":1011,"clouds":[{"cover":"FEW","base":2300}],"obsTime":1773766800},"SBTE":{"icaoId":"SBTE","flightCategory":"VFR","rawOb":"METAR SBTE 171700Z 15005KT 9999 SCT030 32/23 Q1008","temp":32,"dewp":23,"wdir":150,"wspd":5,"visib":"6+","altim":1008,"clouds":[{"cover":"SCT","base":3000}],"obsTime":1773766800},"SBCT":{"icaoId":"SBCT","flightCategory":"VFR","rawOb":"METAR SBCT 171700Z 08007KT 040V120 CAVOK 27/18 Q1016","temp":27,"dewp":18,"wdir":80,"wspd":7,"visib":"6+","altim":1016,"clouds":[],"obsTime":1773766800},"SBUL":{"icaoId":"SBUL","flightCategory":"VFR","rawOb":"METAR SBUL 171700Z 02012KT 9999 SCT030 FEW040TCU 27/21 Q1015","temp":27,"dewp":21,"wdir":20,"wspd":12,"visib":"6+","altim":1015,"clouds":[{"cover":"SCT","base":3000},{"cover":"FEW","base":4000}],"obsTime":1773766800},"SBJU":{"icaoId":"SBJU","flightCategory":"VFR","rawOb":"METAR SBJU 171700Z 12002KT 9999 FEW021 BKN070 27/23 Q1012","temp":27,"dewp":23,"wdir":120,"wspd":2,"visib":"6+","altim":1012,"clouds":[{"cover":"FEW","base":2100},{"cover":"BKN","base":7000}],"obsTime":1773766800},"SBUR":{"icaoId":"SBUR","flightCategory":"VFR","rawOb":"METAR SBUR 171700Z 30010KT 9999 VCSH BKN036 FEW040TCU 29/21 Q1014","temp":29,"dewp":21,"wdir":300,"wspd":10,"visib":"6+","altim":1014,"clouds":[{"cover":"BKN","base":3600},{"cover":"FEW","base":4000}],"obsTime":1773766800},"SBVT":{"icaoId":"SBVT","flightCategory":"VFR","rawOb":"METAR SBVT 171700Z 07010KT 050V120 CAVOK 29/22 Q1011","temp":29,"dewp":22,"wdir":70,"wspd":10,"visib":"6+","altim":1011,"clouds":[],"obsTime":1773766800},"SBCB":{"icaoId":"SBCB","flightCategory":"VFR","rawOb":"METAR SBCB 171700Z 09014KT CAVOK 28/22 Q1012","temp":28,"dewp":22,"wdir":90,"wspd":14,"visib":"6+","altim":1012,"clouds":[],"obsTime":1773766800},"SBCA":{"icaoId":"SBCA","flightCategory":"VFR","rawOb":"METAR SBCA 171700Z 03014G24KT 9999 BKN040 BKN090 24/20 Q1014","temp":24,"dewp":20,"wdir":30,"wspd":14,"visib":"6+","altim":1014,"clouds":[{"cover":"BKN","base":4000},{"cover":"BKN","base":9000}],"obsTime":1773766800},"SBAR":{"icaoId":"SBAR","flightCategory":"VFR","rawOb":"METAR SBAR 171700Z 11010KT 070V150 9999 FEW023 30/23 Q1010","temp":30,"dewp":23,"wdir":110,"wspd":10,"visib":"6+","altim":1010,"clouds":[{"cover":"FEW","base":2300}],"obsTime":1773766800},"SBAU":{"icaoId":"SBAU","flightCategory":"VFR","rawOb":"METAR SBAU 171700Z 36010KT 9999 FEW040 32/19 Q1011","temp":32,"dewp":19,"wdir":360,"wspd":10,"visib":"6+","altim":1011,"clouds":[{"cover":"FEW","base":4000}],"obsTime":1773766800},"SBAX":{"icaoId":"SBAX","flightCategory":"MVFR","rawOb":"METAR SBAX 171800Z 21006KT 9999 VCSH BKN018 BKN025 BKN035 23/23 Q1016","temp":23,"dewp":23,"wdir":210,"wspd":6,"visib":"6+","altim":1016,"clouds":[{"cover":"BKN","base":1800},{"cover":"BKN","base":2500},{"cover":"BKN","base":3500}],"obsTime":1773770400},"SBBH":{"icaoId":"SBBH","flightCategory":"VFR","rawOb":"METAR SBBH 171700Z 34004KT 9999 BKN040 SCT070 28/18 Q1015","temp":28,"dewp":18,"wdir":340,"wspd":4,"visib":"6+","altim":1015,"clouds":[{"cover":"BKN","base":4000},{"cover":"SCT","base":7000}],"obsTime":1773766800},"SBBQ":{"icaoId":"SBBQ","flightCategory":"VFR","rawOb":"METAR SBBQ 171700Z 06005KT 010V090 9999 BKN035 27/17 Q1019","temp":27,"dewp":17,"wdir":60,"wspd":5,"visib":"6+","altim":1019,"clouds":[{"cover":"BKN","base":3500}],"obsTime":1773766800},"SBBU":{"icaoId":"SBBU","flightCategory":"VFR","rawOb":"METAR SBBU 171700Z 03007KT 9999 BKN040 31/23 Q1013","temp":31,"dewp":23,"wdir":30,"wspd":7,"visib":"6+","altim":1013,"clouds":[{"cover":"BKN","base":4000}],"obsTime":1773766800},"SBCC":{"icaoId":"SBCC","flightCategory":"MVFR","rawOb":"METAR SBCC 171700Z 36007KT 9999 -RA BKN020 BKN045 23/22 Q1013 RERA","temp":23,"dewp":22,"wdir":360,"wspd":7,"visib":"6+","altim":1013,"clouds":[{"cover":"BKN","base":2000},{"cover":"BKN","base":4500}],"obsTime":1773766800},"SBCJ":{"icaoId":"SBCJ","flightCategory":"VFR","rawOb":"METAR SBCJ 171700Z 00000KT 9999 -RA FEW004 BKN080 22/18 Q1014","temp":22,"dewp":18,"wdir":0,"wspd":0,"visib":"6+","altim":1014,"clouds":[{"cover":"FEW","base":400},{"cover":"BKN","base":8000}],"obsTime":1773766800},"SBCO":{"icaoId":"SBCO","flightCategory":"VFR","rawOb":"METAR SBCO 171700Z 20005KT 170V230 9999 FEW020 FEW040TCU BKN080 30/24 Q1009","temp":30,"dewp":24,"wdir":200,"wspd":5,"visib":"6+","altim":1009,"clouds":[{"cover":"FEW","base":2000},{"cover":"FEW","base":4000},{"cover":"BKN","base":8000}],"obsTime":1773766800},"SBDN":{"icaoId":"SBDN","flightCategory":"VFR","rawOb":"METAR SBDN 171700Z 01006KT 9999 BKN045 33/20 Q1011","temp":33,"dewp":20,"wdir":10,"wspd":6,"visib":"6+","altim":1011,"clouds":[{"cover":"BKN","base":4500}],"obsTime":1773766800},"SBES":{"icaoId":"SBES","flightCategory":"VFR","rawOb":"METAR SBES 171700Z 11009KT 070V140 9999 FEW020 28/// Q1012","temp":null,"dewp":null,"wdir":110,"wspd":9,"visib":"6+","altim":1012,"clouds":[{"cover":"FEW","base":2000}],"obsTime":1773766800},"SBGM":{"icaoId":"SBGM","flightCategory":"MVFR","rawOb":"METAR SBGM 171700Z 32010KT 9999 +RA OVC013 25/24 Q1009","temp":25,"dewp":24,"wdir":320,"wspd":10,"visib":"6+","altim":1009,"clouds":[{"cover":"OVC","base":1300}],"obsTime":1773766800},"SBIP":{"icaoId":"SBIP","flightCategory":"VFR","rawOb":"METAR SBIP 171700Z AUTO VRB04KT CAVOK 32/20 Q1012","temp":32,"dewp":20,"wdir":"VRB","wspd":4,"visib":"6+","altim":1012,"clouds":[],"obsTime":1773766800},"SBKG":{"icaoId":"SBKG","flightCategory":"VFR","rawOb":"METAR SBKG 171700Z 09011KT 9999 SCT025 30/20 Q1012","temp":30,"dewp":20,"wdir":90,"wspd":11,"visib":"6+","altim":1012,"clouds":[{"cover":"SCT","base":2500}],"obsTime":1773766800},"SBOI":{"icaoId":"SBOI","flightCategory":"VFR","rawOb":"METAR SBOI 171700Z AUTO 05012KT 010V090 9999 FEW029 BKN035 29/24 Q1011","temp":29,"dewp":24,"wdir":50,"wspd":12,"visib":"6+","altim":1011,"clouds":[{"cover":"FEW","base":2900},{"cover":"BKN","base":3500}],"obsTime":1773766800},"SBPB":{"icaoId":"SBPB","flightCategory":"VFR","rawOb":"METAR SBPB 171700Z 02007KT 9999 SCT016 FEW025TCU BKN090 29/25 Q1009","temp":29,"dewp":25,"wdir":20,"wspd":7,"visib":"6+","altim":1009,"clouds":[{"cover":"SCT","base":1600},{"cover":"FEW","base":2500},{"cover":"BKN","base":9000}],"obsTime":1773766800},"SBPL":{"icaoId":"SBPL","flightCategory":"VFR","rawOb":"METAR SBPL 171700Z 13005KT 9999 FEW035 32/20 Q1011","temp":32,"dewp":20,"wdir":130,"wspd":5,"visib":"6+","altim":1011,"clouds":[{"cover":"FEW","base":3500}],"obsTime":1773766800},"SBPP":{"icaoId":"SBPP","flightCategory":"MVFR","rawOb":"METAR SBPP 171700Z 01009KT 9999 BKN020 31/21 Q1011","temp":31,"dewp":21,"wdir":10,"wspd":9,"visib":"6+","altim":1011,"clouds":[{"cover":"BKN","base":2000}],"obsTime":1773766800},"SBPS":{"icaoId":"SBPS","flightCategory":"MVFR","rawOb":"METAR SBPS 171700Z 10007KT 9999 VCSH BKN020 FEW025TCU 28/24 Q1012","temp":28,"dewp":24,"wdir":100,"wspd":7,"visib":"6+","altim":1012,"clouds":[{"cover":"BKN","base":2000},{"cover":"FEW","base":2500}],"obsTime":1773766800},"SBSC":{"icaoId":"SBSC","flightCategory":"VFR","rawOb":"METAR SBSC 171700Z 18009KT CAVOK 30/22 Q1011","temp":30,"dewp":22,"wdir":180,"wspd":9,"visib":"6+","altim":1011,"clouds":[],"obsTime":1773766800},"SBSJ":{"icaoId":"SBSJ","flightCategory":"VFR","rawOb":"METAR SBSJ 171700Z 31003KT 9999 SCT045 31/// Q1014","temp":null,"dewp":null,"wdir":310,"wspd":3,"visib":"6+","altim":1014,"clouds":[{"cover":"SCT","base":4500}],"obsTime":1773766800},"SBSM":{"icaoId":"SBSM","flightCategory":"IFR","rawOb":"METAR SBSM 171700Z 03003KT 330V120 4000 RA FEW008 SCT025 BKN100 23/22 Q1010","temp":23,"dewp":22,"wdir":30,"wspd":3,"visib":2.49,"altim":1010,"clouds":[{"cover":"FEW","base":800},{"cover":"SCT","base":2500},{"cover":"BKN","base":10000}],"obsTime":1773766800},"SBSR":{"icaoId":"SBSR","flightCategory":"MVFR","rawOb":"METAR SBSR 171700Z 36004KT 290V090 9999 BKN025 BKN070 31/21 Q1012","temp":31,"dewp":21,"wdir":360,"wspd":4,"visib":"6+","altim":1012,"clouds":[{"cover":"BKN","base":2500},{"cover":"BKN","base":7000}],"obsTime":1773766800},"SBTF":{"icaoId":"SBTF","flightCategory":"VFR","rawOb":"METAR SBTF 171700Z 07006KT 9999 FEW010 FEW025TCU BKN070 30/27 Q1009","temp":30,"dewp":27,"wdir":70,"wspd":6,"visib":"6+","altim":1009,"clouds":[{"cover":"FEW","base":1000},{"cover":"FEW","base":2500},{"cover":"BKN","base":7000}],"obsTime":1773766800},"SBTT":{"icaoId":"SBTT","flightCategory":"MVFR","rawOb":"METAR SBTT 171700Z 13005KT 9999 BKN030 31/24 Q1010","temp":31,"dewp":24,"wdir":130,"wspd":5,"visib":"6+","altim":1010,"clouds":[{"cover":"BKN","base":3000}],"obsTime":1773766800},"SBUY":{"icaoId":"SBUY","flightCategory":"VFR","rawOb":"METAR SBUY 171700Z 07008KT 9999 FEW025 SCT100 33/25 Q1008","temp":33,"dewp":25,"wdir":70,"wspd":8,"visib":"6+","altim":1008,"clouds":[{"cover":"FEW","base":2500},{"cover":"SCT","base":10000}],"obsTime":1773766800},"SBVH":{"icaoId":"SBVH","flightCategory":"MVFR","rawOb":"METAR SBVH 171700Z 03006KT 9999 BKN030 SCT100 29/22 Q1012","temp":29,"dewp":22,"wdir":30,"wspd":6,"visib":"6+","altim":1012,"clouds":[{"cover":"BKN","base":3000},{"cover":"SCT","base":10000}],"obsTime":1773766800},"SBIH":{"icaoId":"SBIH","flightCategory":"VFR","rawOb":"METAR SBIH 171700Z 32002KT 9999 SCT015 29/26 Q1011","temp":29,"dewp":26,"wdir":320,"wspd":2,"visib":"6+","altim":1011,"clouds":[{"cover":"SCT","base":1500}],"obsTime":1773766800},"SBLE":{"icaoId":"SBLE","flightCategory":"VFR","rawOb":"METAR SBLE 171700Z AUTO 16006KT 090V240 CAVOK 31/18 Q1013","temp":31,"dewp":18,"wdir":160,"wspd":6,"visib":"6+","altim":1013,"clouds":[],"obsTime":1773766800},"SBAF":{"icaoId":"SBAF","flightCategory":"VFR","rawOb":"METAR SBAF 171700Z 19013KT 9999 FEW020 30/22 Q1011","temp":30,"dewp":22,"wdir":190,"wspd":13,"visib":"6+","altim":1011,"clouds":[{"cover":"FEW","base":2000}],"obsTime":1773766800},"SBLS":{"icaoId":"SBLS","flightCategory":"VFR","rawOb":"METAR SBLS 171700Z 12005KT 9999 BKN035 FEW040TCU 26/20 Q1015","temp":26,"dewp":20,"wdir":120,"wspd":5,"visib":"6+","altim":1015,"clouds":[{"cover":"BKN","base":3500},{"cover":"FEW","base":4000}],"obsTime":1773766800},"SBJP":{"icaoId":"SBJP","flightCategory":"VFR","rawOb":"METAR SBJP 171700Z 09012KT 9999 SCT025 30/23 Q1010","temp":30,"dewp":23,"wdir":90,"wspd":12,"visib":"6+","altim":1010,"clouds":[{"cover":"SCT","base":2500}],"obsTime":1773766800},"SBMT":{"icaoId":"SBMT","flightCategory":"VFR","rawOb":"METAR SBMT 171700Z 10004KT 9999 SCT040 30/18 Q1014","temp":30,"dewp":18,"wdir":100,"wspd":4,"visib":"6+","altim":1014,"clouds":[{"cover":"SCT","base":4000}],"obsTime":1773766800},"SBGW":{"icaoId":"SBGW","flightCategory":"VFR","rawOb":"METAR SBGW 171700Z 36003KT 9999 FEW025 32/18 Q1013","temp":32,"dewp":18,"wdir":360,"wspd":3,"visib":"6+","altim":1013,"clouds":[{"cover":"FEW","base":2500}],"obsTime":1773766800},"SBPF":{"icaoId":"SBPF","flightCategory":"VFR","rawOb":"METAR SBPF 171700Z 02006KT 9999 -DZ FEW010 BKN040 24/20 Q1014","temp":24,"dewp":20,"wdir":20,"wspd":6,"visib":"6+","altim":1014,"clouds":[{"cover":"FEW","base":1000},{"cover":"BKN","base":4000}],"obsTime":1773766800},"SBJR":{"icaoId":"SBJR","flightCategory":"VFR","rawOb":"METAR SBJR 171700Z 15009KT 9999 FEW020 31/23 Q1011","temp":31,"dewp":23,"wdir":150,"wspd":9,"visib":"6+","altim":1011,"clouds":[{"cover":"FEW","base":2000}],"obsTime":1773766800},"SBST":{"icaoId":"SBST","flightCategory":"MVFR","rawOb":"METAR SBST 171700Z 16007KT 120V190 8000 BKN023 28/22 Q1011","temp":28,"dewp":22,"wdir":160,"wspd":7,"visib":4.97,"altim":1011,"clouds":[{"cover":"BKN","base":2300}],"obsTime":1773766800},"SBAN":{"icaoId":"SBAN","flightCategory":"MVFR","rawOb":"METAR SBAN 171700Z 01004KT 9999 VCSH VCTS BKN025 FEW030CB 27/19 Q1017","temp":27,"dewp":19,"wdir":10,"wspd":4,"visib":"6+","altim":1017,"clouds":[{"cover":"BKN","base":2500},{"cover":"FEW","base":3000}],"obsTime":1773766800},"SBTA":{"icaoId":"SBTA","flightCategory":"VFR","rawOb":"METAR SBTA 171700Z 16004KT 100V210 9999 SCT040 31/17 Q1013","temp":31,"dewp":17,"wdir":160,"wspd":4,"visib":"6+","altim":1013,"clouds":[{"cover":"SCT","base":4000}],"obsTime":1773766800},"SBJV":{"icaoId":"SBJV","flightCategory":"VFR","rawOb":"METAR SBJV 171700Z 07008KT 9999 FEW030 31/23 Q1011","temp":31,"dewp":23,"wdir":70,"wspd":8,"visib":"6+","altim":1011,"clouds":[{"cover":"FEW","base":3000}],"obsTime":1773766800},"SBTC":{"icaoId":"SBTC","flightCategory":"VFR","rawOb":"METAR SBTC 171700Z 08004KT 9999 FEW025 29/24 Q1012","temp":29,"dewp":24,"wdir":80,"wspd":4,"visib":"6+","altim":1012,"clouds":[{"cover":"FEW","base":2500}],"obsTime":1773766800}}}