{"updated":1780639760,"count":51,"data":{"SBBE":{"icaoId":"SBBE","flightCategory":"VFR","rawOb":"METAR SBBE 050500Z 17002KT 9999 SCT045 BKN100 26/24 Q1013","temp":26,"dewp":24,"wdir":170,"wspd":2,"visib":"6+","altim":1013,"clouds":[{"cover":"SCT","base":4500},{"cover":"BKN","base":10000}],"obsTime":1780635600},"SBBR":{"icaoId":"SBBR","flightCategory":"VFR","rawOb":"METAR SBBR 050500Z 16005KT CAVOK 16/12 Q1024","temp":16,"dewp":12,"wdir":160,"wspd":5,"visib":"6+","altim":1024,"clouds":[],"obsTime":1780635600},"SBBV":{"icaoId":"SBBV","flightCategory":"MVFR","rawOb":"METAR SBBV 050500Z 28004KT 9999 SCT004 BKN015 FEW035TCU 26/26 Q1014","temp":26,"dewp":26,"wdir":280,"wspd":4,"visib":"6+","altim":1014,"clouds":[{"cover":"SCT","base":400},{"cover":"BKN","base":1500},{"cover":"FEW","base":3500}],"obsTime":1780635600},"SBCF":{"icaoId":"SBCF","flightCategory":"VFR","rawOb":"METAR SBCF 050500Z 16005KT CAVOK 14/12 Q1026","temp":14,"dewp":12,"wdir":160,"wspd":5,"visib":"6+","altim":1026,"clouds":[],"obsTime":1780635600},"SBCG":{"icaoId":"SBCG","flightCategory":"VFR","rawOb":"METAR SBCG 050500Z 08010KT CAVOK 20/16 Q1021","temp":20,"dewp":16,"wdir":80,"wspd":10,"visib":"6+","altim":1021,"clouds":[],"obsTime":1780635600},"SBCT":{"icaoId":"SBCT","flightCategory":"MVFR","rawOb":"METAR SBCT 050500Z 09003KT 9000 BKN012 BKN023 13/13 Q1028","temp":13,"dewp":13,"wdir":90,"wspd":3,"visib":5.59,"altim":1028,"clouds":[{"cover":"BKN","base":1200},{"cover":"BKN","base":2300}],"obsTime":1780635600},"SBEG":{"icaoId":"SBEG","flightCategory":"VFR","rawOb":"METAR SBEG 050500Z VRB02KT 9999 VCTS FEW010 FEW025CB 25/24 Q1014","temp":25,"dewp":24,"wdir":"VRB","wspd":2,"visib":"6+","altim":1014,"clouds":[{"cover":"FEW","base":1000},{"cover":"FEW","base":2500}],"obsTime":1780635600},"SBFI":{"icaoId":"SBFI","flightCategory":"VFR","rawOb":"METAR SBFI 050500Z 08005KT CAVOK 16/15 Q1021","temp":16,"dewp":15,"wdir":80,"wspd":5,"visib":"6+","altim":1021,"clouds":[],"obsTime":1780635600},"SBFL":{"icaoId":"SBFL","flightCategory":"MVFR","rawOb":"SPECI SBFL 050439Z 36005KT 9999 BKN019 19/18 Q1027 RERA","temp":19,"dewp":18,"wdir":360,"wspd":5,"visib":"6+","altim":1027,"clouds":[{"cover":"BKN","base":1900}],"obsTime":1780634340},"SBFZ":{"icaoId":"SBFZ","flightCategory":"VFR","rawOb":"METAR SBFZ 050500Z 18007KT 9999 FEW007 SCT050 24/23 Q1013","temp":24,"dewp":23,"wdir":180,"wspd":7,"visib":"6+","altim":1013,"clouds":[{"cover":"FEW","base":700},{"cover":"SCT","base":5000}],"obsTime":1780635600},"SBGL":{"icaoId":"SBGL","flightCategory":"MVFR","rawOb":"METAR SBGL 050500Z VRB02KT 8000 FEW007 18/16 Q1026","temp":18,"dewp":16,"wdir":"VRB","wspd":2,"visib":4.97,"altim":1026,"clouds":[{"cover":"FEW","base":700}],"obsTime":1780635600},"SBGO":{"icaoId":"SBGO","flightCategory":"VFR","rawOb":"METAR SBGO 050500Z 13005KT CAVOK 17/12 Q1022","temp":17,"dewp":12,"wdir":130,"wspd":5,"visib":"6+","altim":1022,"clouds":[],"obsTime":1780635600},"SBGR":{"icaoId":"SBGR","flightCategory":"VFR","rawOb":"METAR SBGR 050500Z 08004KT 9999 SCT018 SCT040 14/12 Q1028","temp":14,"dewp":12,"wdir":80,"wspd":4,"visib":"6+","altim":1028,"clouds":[{"cover":"SCT","base":1800},{"cover":"SCT","base":4000}],"obsTime":1780635600},"SBKP":{"icaoId":"SBKP","flightCategory":"VFR","rawOb":"METAR SBKP 050500Z 12013KT CAVOK 15/13 Q1025","temp":15,"dewp":13,"wdir":120,"wspd":13,"visib":"6+","altim":1025,"clouds":[],"obsTime":1780635600},"SBLO":{"icaoId":"SBLO","flightCategory":"VFR","rawOb":"METAR SBLO 050500Z 16003KT CAVOK 15/13 Q1025","temp":15,"dewp":13,"wdir":160,"wspd":3,"visib":"6+","altim":1025,"clouds":[],"obsTime":1780635600},"SBMA":{"icaoId":"SBMA","flightCategory":"VFR","rawOb":"METAR SBMA 050500Z 00000KT CAVOK 26/23 Q1013","temp":26,"dewp":23,"wdir":0,"wspd":0,"visib":"6+","altim":1013,"clouds":[],"obsTime":1780635600},"SBMO":{"icaoId":"SBMO","flightCategory":"VFR","rawOb":"METAR SBMO 050500Z 33003KT 9999 SCT015 21/21 Q1016","temp":21,"dewp":21,"wdir":330,"wspd":3,"visib":"6+","altim":1016,"clouds":[{"cover":"SCT","base":1500}],"obsTime":1780635600},"SBMQ":{"icaoId":"SBMQ","flightCategory":"VFR","rawOb":"METAR SBMQ 050500Z 36004KT 9999 FEW005 SCT017 27/26 Q1013","temp":27,"dewp":26,"wdir":360,"wspd":4,"visib":"6+","altim":1013,"clouds":[{"cover":"FEW","base":500},{"cover":"SCT","base":1700}],"obsTime":1780635600},"SBNT":{"icaoId":"SBNT","flightCategory":"VFR","rawOb":"METAR SBNT 050500Z 18008KT 9999 VCSH FEW021 SCT035 BKN042 24/22 Q1014","temp":24,"dewp":22,"wdir":180,"wspd":8,"visib":"6+","altim":1014,"clouds":[{"cover":"FEW","base":2100},{"cover":"SCT","base":3500},{"cover":"BKN","base":4200}],"obsTime":1780635600},"SBPA":{"icaoId":"SBPA","flightCategory":"VFR","rawOb":"METAR SBPA 050500Z 06002KT CAVOK 14/14 Q1024","temp":14,"dewp":14,"wdir":60,"wspd":2,"visib":"6+","altim":1024,"clouds":[],"obsTime":1780635600},"SBPJ":{"icaoId":"SBPJ","flightCategory":"VFR","rawOb":"METAR SBPJ 050500Z 20002KT CAVOK 24/20 Q1015","temp":24,"dewp":20,"wdir":200,"wspd":2,"visib":"6+","altim":1015,"clouds":[],"obsTime":1780635600},"SBPV":{"icaoId":"SBPV","flightCategory":"VFR","rawOb":"METAR SBPV 050500Z 00000KT 9999 FEW040 25/21 Q1014","temp":25,"dewp":21,"wdir":0,"wspd":0,"visib":"6+","altim":1014,"clouds":[{"cover":"FEW","base":4000}],"obsTime":1780635600},"SBRB":{"icaoId":"SBRB","flightCategory":"VFR","rawOb":"METAR SBRB 050500Z 00000KT CAVOK 20/20 Q1016","temp":20,"dewp":20,"wdir":0,"wspd":0,"visib":"6+","altim":1016,"clouds":[],"obsTime":1780635600},"SBRF":{"icaoId":"SBRF","flightCategory":"MVFR","rawOb":"METAR SBRF 050500Z 15010KT 8000 BKN018 BKN050 26/23 Q1014","temp":26,"dewp":23,"wdir":150,"wspd":10,"visib":4.97,"altim":1014,"clouds":[{"cover":"BKN","base":1800},{"cover":"BKN","base":5000}],"obsTime":1780635600},"SBSG":{"icaoId":"SBSG","flightCategory":"VFR","rawOb":"METAR SBSG 050500Z 19005KT 140V220 9999 FEW011 SCT019 24/23 Q1014","temp":24,"dewp":23,"wdir":190,"wspd":5,"visib":"6+","altim":1014,"clouds":[{"cover":"FEW","base":1100},{"cover":"SCT","base":1900}],"obsTime":1780635600},"SBSL":{"icaoId":"SBSL","flightCategory":"VFR","rawOb":"METAR SBSL 050500Z 07004KT 9999 SCT025 BKN080 26/26 Q1012","temp":26,"dewp":26,"wdir":70,"wspd":4,"visib":"6+","altim":1012,"clouds":[{"cover":"SCT","base":2500},{"cover":"BKN","base":8000}],"obsTime":1780635600},"SBSN":{"icaoId":"SBSN","flightCategory":"VFR","rawOb":"METAR SBSN 050500Z 17002KT 9999 VCTS FEW020CB BKN100 26/25 Q1012","temp":26,"dewp":25,"wdir":170,"wspd":2,"visib":"6+","altim":1012,"clouds":[{"cover":"FEW","base":2000},{"cover":"BKN","base":10000}],"obsTime":1780635600},"SBSP":{"icaoId":"SBSP","flightCategory":"VFR","rawOb":"METAR SBSP 050500Z AUTO 14005KT 9999 SCT013 SCT042 14/13 Q1028","temp":14,"dewp":13,"wdir":140,"wspd":5,"visib":"6+","altim":1028,"clouds":[{"cover":"SCT","base":1300},{"cover":"SCT","base":4200}],"obsTime":1780635600},"SBSV":{"icaoId":"SBSV","flightCategory":"VFR","rawOb":"METAR SBSV 050500Z 21009KT 9999 SCT020 SCT030 25/22 Q1017","temp":25,"dewp":22,"wdir":210,"wspd":9,"visib":"6+","altim":1017,"clouds":[{"cover":"SCT","base":2000},{"cover":"SCT","base":3000}],"obsTime":1780635600},"SBTE":{"icaoId":"SBTE","flightCategory":"VFR","rawOb":"METAR SBTE 050500Z 00000KT CAVOK 26/21 Q1012","temp":26,"dewp":21,"wdir":0,"wspd":0,"visib":"6+","altim":1012,"clouds":[],"obsTime":1780635600},"SBVT":{"icaoId":"SBVT","flightCategory":"VFR","rawOb":"METAR SBVT 050500Z 25003KT 9999 FEW040 SCT070 18/16 Q1023","temp":18,"dewp":16,"wdir":250,"wspd":3,"visib":"6+","altim":1023,"clouds":[{"cover":"FEW","base":4000},{"cover":"SCT","base":7000}],"obsTime":1780635600},"SBME":{"icaoId":"SBME","flightCategory":"VFR","rawOb":"METAR SBME 050500Z 28004KT 9999 SCT040 17/16 Q1025","temp":17,"dewp":16,"wdir":280,"wspd":4,"visib":"6+","altim":1025,"clouds":[{"cover":"SCT","base":4000}],"obsTime":1780635600},"SBMG":{"icaoId":"SBMG","flightCategory":"VFR","rawOb":"METAR SBMG 050500Z AUTO 11009KT CAVOK 17/13 Q1023","temp":17,"dewp":13,"wdir":110,"wspd":9,"visib":"6+","altim":1023,"clouds":[],"obsTime":1780635600},"SBUL":{"icaoId":"SBUL","flightCategory":"VFR","rawOb":"METAR SBUL 050500Z 15007KT 110V170 CAVOK 15/12 Q1025","temp":15,"dewp":12,"wdir":150,"wspd":7,"visib":"6+","altim":1025,"clouds":[],"obsTime":1780635600},"SBJU":{"icaoId":"SBJU","flightCategory":"VFR","rawOb":"METAR SBJU 050500Z 18006KT 9999 SCT020 23/19 Q1017","temp":23,"dewp":19,"wdir":180,"wspd":6,"visib":"6+","altim":1017,"clouds":[{"cover":"SCT","base":2000}],"obsTime":1780635600},"SBUR":{"icaoId":"SBUR","flightCategory":"VFR","rawOb":"METAR SBUR 050500Z 08010KT CAVOK 18/11 Q1024","temp":18,"dewp":11,"wdir":80,"wspd":10,"visib":"6+","altim":1024,"clouds":[],"obsTime":1780635600},"SBAR":{"icaoId":"SBAR","flightCategory":"IFR","rawOb":"SPECI SBAR 050415Z 12007KT 090V160 3000 -RA BR FEW010 SCT026 OVC040 23/22 Q1016 RERA","temp":23,"dewp":22,"wdir":120,"wspd":7,"visib":1.86,"altim":1016,"clouds":[{"cover":"FEW","base":1000},{"cover":"SCT","base":2600},{"cover":"OVC","base":4000}],"obsTime":1780632900},"SBPS":{"icaoId":"SBPS","flightCategory":"MVFR","rawOb":"METAR SBPS 050500Z 24003KT 9999 BKN030 OVC080 20/19 Q1021","temp":20,"dewp":19,"wdir":240,"wspd":3,"visib":"6+","altim":1021,"clouds":[{"cover":"BKN","base":3000},{"cover":"OVC","base":8000}],"obsTime":1780635600},"SBPL":{"icaoId":"SBPL","flightCategory":"MVFR","rawOb":"METAR SBPL 050500Z 13009KT 9999 BKN020 BKN070 24/19 Q1018","temp":24,"dewp":19,"wdir":130,"wspd":9,"visib":"6+","altim":1018,"clouds":[{"cover":"BKN","base":2000},{"cover":"BKN","base":7000}],"obsTime":1780635600},"SBTU":{"icaoId":"SBTU","flightCategory":"VFR","rawOb":"METAR SBTU 050508Z AUTO 22005KT 190V250 9999 // SCT074/// OVC100/// ///// Q1014","temp":null,"dewp":null,"wdir":220,"wspd":5,"visib":"6+","altim":1014,"clouds":[{"cover":"SCT","base":7400},{"cover":"OVC","base":10000}],"obsTime":1780636080},"SBAX":{"icaoId":"SBAX","flightCategory":"VFR","rawOb":"METAR SBAX 050500Z AUTO 12007KT CAVOK 14/11 Q1026","temp":14,"dewp":11,"wdir":120,"wspd":7,"visib":"6+","altim":1026,"clouds":[],"obsTime":1780635600},"SBDN":{"icaoId":"SBDN","flightCategory":"VFR","rawOb":"METAR SBDN 050500Z 12016KT CAVOK 17/13 Q1023","temp":17,"dewp":13,"wdir":120,"wspd":16,"visib":"6+","altim":1023,"clouds":[],"obsTime":1780635600},"SBIP":{"icaoId":"SBIP","flightCategory":"VFR","rawOb":"METAR SBIP 050500Z AUTO 22003KT 9999 FEW040 18/16 Q1024","temp":18,"dewp":16,"wdir":220,"wspd":3,"visib":"6+","altim":1024,"clouds":[{"cover":"FEW","base":4000}],"obsTime":1780635600},"SBKG":{"icaoId":"SBKG","flightCategory":"VFR","rawOb":"METAR SBKG 050500Z 00000KT CAVOK 20/19 Q1017","temp":20,"dewp":19,"wdir":0,"wspd":0,"visib":"6+","altim":1017,"clouds":[],"obsTime":1780635600},"SBOI":{"icaoId":"SBOI","flightCategory":"VFR","rawOb":"METAR SBOI 050500Z AUTO 35003KT 330V060 9999 // OVC047/// 25/24 Q1014","temp":25,"dewp":24,"wdir":350,"wspd":3,"visib":"6+","altim":1014,"clouds":[{"cover":"OVC","base":4700}],"obsTime":1780635600},"SBSC":{"icaoId":"SBSC","flightCategory":"VFR","rawOb":"METAR SBSC 050500Z 03002KT 9999 FEW030 14/13 Q1027","temp":14,"dewp":13,"wdir":30,"wspd":2,"visib":"6+","altim":1027,"clouds":[{"cover":"FEW","base":3000}],"obsTime":1780635600},"SBSR":{"icaoId":"SBSR","flightCategory":"VFR","rawOb":"METAR SBSR 050500Z 15004KT CAVOK 18/13 Q1023","temp":18,"dewp":13,"wdir":150,"wspd":4,"visib":"6+","altim":1023,"clouds":[],"obsTime":1780635600},"SBJP":{"icaoId":"SBJP","flightCategory":"IFR","rawOb":"METAR SBJP 050500Z 15010KT 3500 -RA BKN014 BKN070 23/23 Q1014","temp":23,"dewp":23,"wdir":150,"wspd":10,"visib":2.17,"altim":1014,"clouds":[{"cover":"BKN","base":1400},{"cover":"BKN","base":7000}],"obsTime":1780635600},"SBAN":{"icaoId":"SBAN","flightCategory":"VFR","rawOb":"METAR SBAN 050500Z 10010KT CAVOK 16/12 Q1025","temp":16,"dewp":12,"wdir":100,"wspd":10,"visib":"6+","altim":1025,"clouds":[],"obsTime":1780635600},"SBLE":{"icaoId":"SBLE","flightCategory":"VFR","rawOb":"METAR SBLE 050500Z AUTO 14004KT CAVOK ///// Q////","temp":null,"dewp":null,"wdir":140,"wspd":4,"visib":"6+","altim":null,"clouds":[],"obsTime":1780635600},"SBNM":{"icaoId":"SBNM","flightCategory":"VFR","rawOb":"METAR SBNM 050500Z AUTO 06008KT CAVOK 14/12 Q1022","temp":14,"dewp":12,"wdir":60,"wspd":8,"visib":"6+","altim":1022,"clouds":[],"obsTime":1780635600}}}