{"updated":1776591370,"count":63,"data":{"SBFL":{"icaoId":"SBFL","flightCategory":"VFR","rawOb":"METAR SBFL 190800Z 26004KT CAVOK 18/17 Q1010","temp":18,"dewp":17,"wdir":260,"wspd":4,"visib":"6+","altim":1010,"clouds":[],"obsTime":1776585600},"SBMK":{"icaoId":"SBMK","flightCategory":"VFR","rawOb":"METAR SBMK 190800Z 24002KT CAVOK 16/15 Q1013","temp":16,"dewp":15,"wdir":240,"wspd":2,"visib":"6+","altim":1013,"clouds":[],"obsTime":1776585600},"SBMG":{"icaoId":"SBMG","flightCategory":"VFR","rawOb":"METAR SBMG 190800Z AUTO 14004KT CAVOK 19/19 Q1011","temp":19,"dewp":19,"wdir":140,"wspd":4,"visib":"6+","altim":1011,"clouds":[],"obsTime":1776585600},"SBBE":{"icaoId":"SBBE","flightCategory":"VFR","rawOb":"METAR SBBE 190800Z 10001KT CAVOK 24/24 Q1009","temp":24,"dewp":24,"wdir":100,"wspd":1,"visib":"6+","altim":1009,"clouds":[],"obsTime":1776585600},"SBMO":{"icaoId":"SBMO","flightCategory":"VFR","rawOb":"METAR SBMO 190800Z 35003KT 9999 SCT021 23/23 Q1010","temp":23,"dewp":23,"wdir":350,"wspd":3,"visib":"6+","altim":1010,"clouds":[{"cover":"SCT","base":2100}],"obsTime":1776585600},"SBFZ":{"icaoId":"SBFZ","flightCategory":"MVFR","rawOb":"METAR SBFZ 190800Z 17009KT 9999 BKN017 BKN080 25/23 Q1007","temp":25,"dewp":23,"wdir":170,"wspd":9,"visib":"6+","altim":1007,"clouds":[{"cover":"BKN","base":1700},{"cover":"BKN","base":8000}],"obsTime":1776585600},"SBMQ":{"icaoId":"SBMQ","flightCategory":"MVFR","rawOb":"METAR SBMQ 190800Z 29001KT 6000 -RA SCT013 BKN036 OVC070 25/24 Q1009 RERA","temp":25,"dewp":24,"wdir":290,"wspd":1,"visib":3.73,"altim":1009,"clouds":[{"cover":"SCT","base":1300},{"cover":"BKN","base":3600},{"cover":"OVC","base":7000}],"obsTime":1776585600},"SBCG":{"icaoId":"SBCG","flightCategory":"VFR","rawOb":"METAR SBCG 190800Z 07006KT CAVOK 23/21 Q1011","temp":23,"dewp":21,"wdir":70,"wspd":6,"visib":"6+","altim":1011,"clouds":[],"obsTime":1776585600},"SBNT":{"icaoId":"SBNT","flightCategory":"MVFR","rawOb":"METAR SBNT 190800Z VRB02KT 8000 -RA SCT009 BKN020 OVC033 24/23 Q1009","temp":24,"dewp":23,"wdir":"VRB","wspd":2,"visib":4.97,"altim":1009,"clouds":[{"cover":"SCT","base":900},{"cover":"BKN","base":2000},{"cover":"OVC","base":3300}],"obsTime":1776585600},"SBGL":{"icaoId":"SBGL","flightCategory":"VFR","rawOb":"METAR SBGL 190800Z 28004KT 9999 FEW030 24/21 Q1009","temp":24,"dewp":21,"wdir":280,"wspd":4,"visib":"6+","altim":1009,"clouds":[{"cover":"FEW","base":3000}],"obsTime":1776585600},"SBPA":{"icaoId":"SBPA","flightCategory":"VFR","rawOb":"METAR SBPA 190800Z 26003KT CAVOK 16/15 Q1010","temp":16,"dewp":15,"wdir":260,"wspd":3,"visib":"6+","altim":1010,"clouds":[],"obsTime":1776585600},"SBPJ":{"icaoId":"SBPJ","flightCategory":"VFR","rawOb":"METAR SBPJ 190800Z 10007KT 9999 TS VCSH SCT017 FEW033CB BKN050 25/22 Q1010","temp":25,"dewp":22,"wdir":100,"wspd":7,"visib":"6+","altim":1010,"clouds":[{"cover":"SCT","base":1700},{"cover":"FEW","base":3300},{"cover":"BKN","base":5000}],"obsTime":1776585600},"SBBV":{"icaoId":"SBBV","flightCategory":"VFR","rawOb":"METAR SBBV 190800Z 31002KT 9999 FEW040 BKN080 26/25 Q1010","temp":26,"dewp":25,"wdir":310,"wspd":2,"visib":"6+","altim":1010,"clouds":[{"cover":"FEW","base":4000},{"cover":"BKN","base":8000}],"obsTime":1776585600},"SBGO":{"icaoId":"SBGO","flightCategory":"VFR","rawOb":"METAR SBGO 190800Z 23002KT CAVOK 20/19 Q1014","temp":20,"dewp":19,"wdir":230,"wspd":2,"visib":"6+","altim":1014,"clouds":[],"obsTime":1776585600},"SBPV":{"icaoId":"SBPV","flightCategory":"VFR","rawOb":"METAR SBPV 190800Z 00000KT 9999 FEW030 24/23 Q1009","temp":24,"dewp":23,"wdir":0,"wspd":0,"visib":"6+","altim":1009,"clouds":[{"cover":"FEW","base":3000}],"obsTime":1776585600},"SBCT":{"icaoId":"SBCT","flightCategory":"LIFR","rawOb":"METAR SBCT 190800Z VRB01KT 0600 R15/0600 R33/0600 FG BKN002 15/15 Q1015","temp":15,"dewp":15,"wdir":"VRB","wspd":1,"visib":0.37,"altim":1015,"clouds":[{"cover":"BKN","base":200}],"obsTime":1776585600},"SBRB":{"icaoId":"SBRB","flightCategory":"VFR","rawOb":"METAR SBRB 190800Z 11001KT 9999 FEW005 SCT025 BKN083 24/23 Q1008","temp":24,"dewp":23,"wdir":110,"wspd":1,"visib":"6+","altim":1008,"clouds":[{"cover":"FEW","base":500},{"cover":"SCT","base":2500},{"cover":"BKN","base":8300}],"obsTime":1776585600},"SBRF":{"icaoId":"SBRF","flightCategory":"VFR","rawOb":"METAR SBRF 190800Z 23004KT 9999 SCT020 26/24 Q1009","temp":26,"dewp":24,"wdir":230,"wspd":4,"visib":"6+","altim":1009,"clouds":[{"cover":"SCT","base":2000}],"obsTime":1776585600},"SBGR":{"icaoId":"SBGR","flightCategory":"VFR","rawOb":"METAR SBGR 190800Z 12002KT CAVOK 18/16 Q1014","temp":18,"dewp":16,"wdir":120,"wspd":2,"visib":"6+","altim":1014,"clouds":[],"obsTime":1776585600},"SBJU":{"icaoId":"SBJU","flightCategory":"MVFR","rawOb":"METAR SBJU 190800Z 00000KT 9999 SCT010 BKN017 23/22 Q1011","temp":23,"dewp":22,"wdir":0,"wspd":0,"visib":"6+","altim":1011,"clouds":[{"cover":"SCT","base":1000},{"cover":"BKN","base":1700}],"obsTime":1776585600},"SBSG":{"icaoId":"SBSG","flightCategory":"LIFR","rawOb":"METAR SBSG 190800Z 08005KT 5000 -RA BKN004 BKN020 24/23 Q1009","temp":24,"dewp":23,"wdir":80,"wspd":5,"visib":3.11,"altim":1009,"clouds":[{"cover":"BKN","base":400},{"cover":"BKN","base":2000}],"obsTime":1776585600},"SBEG":{"icaoId":"SBEG","flightCategory":"VFR","rawOb":"METAR SBEG 190800Z 06003KT 9999 FEW007 SCT100 24/23 Q1011","temp":24,"dewp":23,"wdir":60,"wspd":3,"visib":"6+","altim":1011,"clouds":[{"cover":"FEW","base":700},{"cover":"SCT","base":10000}],"obsTime":1776585600},"SBSL":{"icaoId":"SBSL","flightCategory":"VFR","rawOb":"METAR SBSL 190800Z 30003KT 9999 FEW020 BKN100 24/23 Q1007","temp":24,"dewp":23,"wdir":300,"wspd":3,"visib":"6+","altim":1007,"clouds":[{"cover":"FEW","base":2000},{"cover":"BKN","base":10000}],"obsTime":1776585600},"SBSN":{"icaoId":"SBSN","flightCategory":"VFR","rawOb":"METAR SBSN 190800Z 01003KT 320V040 9999 SCT013 BKN100 25/23 Q1009","temp":25,"dewp":23,"wdir":10,"wspd":3,"visib":"6+","altim":1009,"clouds":[{"cover":"SCT","base":1300},{"cover":"BKN","base":10000}],"obsTime":1776585600},"SBKP":{"icaoId":"SBKP","flightCategory":"VFR","rawOb":"METAR SBKP 190800Z 12006KT 9999 BKN040 19/18 Q1013","temp":19,"dewp":18,"wdir":120,"wspd":6,"visib":"6+","altim":1013,"clouds":[{"cover":"BKN","base":4000}],"obsTime":1776585600},"SBCB":{"icaoId":"SBCB","flightCategory":"MVFR","rawOb":"METAR SBCB 190900Z 29012KT 9000 SCT015 BKN030 25/22 Q1010","temp":25,"dewp":22,"wdir":290,"wspd":12,"visib":5.59,"altim":1010,"clouds":[{"cover":"SCT","base":1500},{"cover":"BKN","base":3000}],"obsTime":1776589200},"SBSP":{"icaoId":"SBSP","flightCategory":"VFR","rawOb":"METAR SBSP 190800Z AUTO 16004KT CAVOK 17/15 Q1014","temp":17,"dewp":15,"wdir":160,"wspd":4,"visib":"6+","altim":1014,"clouds":[],"obsTime":1776585600},"SBSV":{"icaoId":"SBSV","flightCategory":"VFR","rawOb":"METAR SBSV 190800Z VRB02KT 9999 VCSH SCT020 FEW025TCU 25/23 Q1009","temp":25,"dewp":23,"wdir":"VRB","wspd":2,"visib":"6+","altim":1009,"clouds":[{"cover":"SCT","base":2000},{"cover":"FEW","base":2500}],"obsTime":1776585600},"SBFI":{"icaoId":"SBFI","flightCategory":"VFR","rawOb":"METAR SBFI 190800Z 12002KT CAVOK 17/17 Q1009","temp":17,"dewp":17,"wdir":120,"wspd":2,"visib":"6+","altim":1009,"clouds":[],"obsTime":1776585600},"SBLO":{"icaoId":"SBLO","flightCategory":"VFR","rawOb":"METAR SBLO 190800Z 09006KT CAVOK 18/18 Q1012","temp":18,"dewp":18,"wdir":90,"wspd":6,"visib":"6+","altim":1012,"clouds":[],"obsTime":1776585600},"SBTE":{"icaoId":"SBTE","flightCategory":"VFR","rawOb":"METAR SBTE 190800Z 00000KT 9999 FEW010 BKN080 24/23 Q1008","temp":24,"dewp":23,"wdir":0,"wspd":0,"visib":"6+","altim":1008,"clouds":[{"cover":"FEW","base":1000},{"cover":"BKN","base":8000}],"obsTime":1776585600},"SBBR":{"icaoId":"SBBR","flightCategory":"VFR","rawOb":"METAR SBBR 190800Z 00000KT CAVOK 16/14 Q1015","temp":16,"dewp":14,"wdir":0,"wspd":0,"visib":"6+","altim":1015,"clouds":[],"obsTime":1776585600},"SBUL":{"icaoId":"SBUL","flightCategory":"VFR","rawOb":"METAR SBUL 190800Z 03002KT CAVOK 21/15 Q1015","temp":21,"dewp":15,"wdir":30,"wspd":2,"visib":"6+","altim":1015,"clouds":[],"obsTime":1776585600},"SBUR":{"icaoId":"SBUR","flightCategory":"VFR","rawOb":"METAR SBUR 190800Z 02005KT CAVOK 21/16 Q1013","temp":21,"dewp":16,"wdir":20,"wspd":5,"visib":"6+","altim":1013,"clouds":[],"obsTime":1776585600},"SBMA":{"icaoId":"SBMA","flightCategory":"VFR","rawOb":"METAR SBMA 190800Z 01005KT 9999 SCT015 FEW023TCU BKN080 25/24 Q1009","temp":25,"dewp":24,"wdir":10,"wspd":5,"visib":"6+","altim":1009,"clouds":[{"cover":"SCT","base":1500},{"cover":"FEW","base":2300},{"cover":"BKN","base":8000}],"obsTime":1776585600},"SBCF":{"icaoId":"SBCF","flightCategory":"MVFR","rawOb":"METAR SBCF 190800Z 00000KT 7000 NSC 17/16 Q1014","temp":17,"dewp":16,"wdir":0,"wspd":0,"visib":4.35,"altim":1014,"clouds":[],"obsTime":1776585600},"SBVT":{"icaoId":"SBVT","flightCategory":"VFR","rawOb":"METAR SBVT 190800Z 34002KT CAVOK 23/21 Q1008","temp":23,"dewp":21,"wdir":340,"wspd":2,"visib":"6+","altim":1008,"clouds":[],"obsTime":1776585600},"SBME":{"icaoId":"SBME","flightCategory":"VFR","rawOb":"METAR SBME 190800Z 30004KT CAVOK 23/22 Q1009","temp":23,"dewp":22,"wdir":300,"wspd":4,"visib":"6+","altim":1009,"clouds":[],"obsTime":1776585600},"SBSJ":{"icaoId":"SBSJ","flightCategory":"IFR","rawOb":"METAR SBSJ 190800Z 17003KT 4000 BR NSC 18/17 Q1014","temp":18,"dewp":17,"wdir":170,"wspd":3,"visib":2.49,"altim":1014,"clouds":[],"obsTime":1776585600},"SBOI":{"icaoId":"SBOI","flightCategory":"VFR","rawOb":"METAR SBOI 190800Z AUTO 19002KT 9999 // FEW005/// BKN042/// BKN100/// 24/24 Q1009","temp":24,"dewp":24,"wdir":190,"wspd":2,"visib":"6+","altim":1009,"clouds":[{"cover":"FEW","base":500},{"cover":"BKN","base":4200},{"cover":"BKN","base":10000}],"obsTime":1776585600},"SBIP":{"icaoId":"SBIP","flightCategory":"LIFR","rawOb":"METAR SBIP 190800Z AUTO 00000KT 0600 FG VV001 18/18 Q1011","temp":18,"dewp":18,"wdir":0,"wspd":0,"visib":0.37,"altim":1011,"clouds":[{"cover":"OVX","base":100}],"obsTime":1776585600},"SBSR":{"icaoId":"SBSR","flightCategory":"VFR","rawOb":"METAR SBSR 190800Z 00000KT CAVOK 22/19 Q1012","temp":22,"dewp":19,"wdir":0,"wspd":0,"visib":"6+","altim":1012,"clouds":[],"obsTime":1776585600},"SBAR":{"icaoId":"SBAR","flightCategory":"VFR","rawOb":"METAR SBAR 190800Z 02005KT 9999 SCT017 SCT025 26/25 Q1008","temp":26,"dewp":25,"wdir":20,"wspd":5,"visib":"6+","altim":1008,"clouds":[{"cover":"SCT","base":1700},{"cover":"SCT","base":2500}],"obsTime":1776585600},"SBKG":{"icaoId":"SBKG","flightCategory":"VFR","rawOb":"METAR SBKG 190800Z 14003KT 9999 SCT010 BKN070 23/22 Q1011","temp":23,"dewp":22,"wdir":140,"wspd":3,"visib":"6+","altim":1011,"clouds":[{"cover":"SCT","base":1000},{"cover":"BKN","base":7000}],"obsTime":1776585600},"SBBH":{"icaoId":"SBBH","flightCategory":"VFR","rawOb":"METAR SBBH 190900Z 00000KT CAVOK 17/17 Q1015","temp":17,"dewp":17,"wdir":0,"wspd":0,"visib":"6+","altim":1015,"clouds":[],"obsTime":1776589200},"SBBU":{"icaoId":"SBBU","flightCategory":"VFR","rawOb":"METAR SBBU 190900Z 10011KT 9000 NSC 20/19 Q1013","temp":20,"dewp":19,"wdir":100,"wspd":11,"visib":5.59,"altim":1013,"clouds":[],"obsTime":1776589200},"SBCO":{"icaoId":"SBCO","flightCategory":"VFR","rawOb":"METAR SBCO 190900Z 30002KT CAVOK 14/14 Q1012","temp":14,"dewp":14,"wdir":300,"wspd":2,"visib":"6+","altim":1012,"clouds":[],"obsTime":1776589200},"SBDN":{"icaoId":"SBDN","flightCategory":"VFR","rawOb":"METAR SBDN 190800Z 06005KT CAVOK 22/19 Q1011","temp":22,"dewp":19,"wdir":60,"wspd":5,"visib":"6+","altim":1011,"clouds":[],"obsTime":1776585600},"SBPL":{"icaoId":"SBPL","flightCategory":"VFR","rawOb":"METAR SBPL 190800Z 10006KT CAVOK 24/21 Q1010","temp":24,"dewp":21,"wdir":100,"wspd":6,"visib":"6+","altim":1010,"clouds":[],"obsTime":1776585600},"SBPS":{"icaoId":"SBPS","flightCategory":"VFR","rawOb":"METAR SBPS 190800Z 25003KT 210V270 9999 SCT020 22/21 Q1010","temp":22,"dewp":21,"wdir":250,"wspd":3,"visib":"6+","altim":1010,"clouds":[{"cover":"SCT","base":2000}],"obsTime":1776585600},"SBAX":{"icaoId":"SBAX","flightCategory":"VFR","rawOb":"METAR SBAX 190800Z AUTO 16002KT CAVOK 19/15 Q1015","temp":19,"dewp":15,"wdir":160,"wspd":2,"visib":"6+","altim":1015,"clouds":[],"obsTime":1776585600},"SBSC":{"icaoId":"SBSC","flightCategory":"MVFR","rawOb":"METAR SBSC 190800Z 26007KT 8000 SCT015 BKN050 22/20 Q1009","temp":22,"dewp":20,"wdir":260,"wspd":7,"visib":4.97,"altim":1009,"clouds":[{"cover":"SCT","base":1500},{"cover":"BKN","base":5000}],"obsTime":1776585600},"SBES":{"icaoId":"SBES","flightCategory":"VFR","rawOb":"METAR SBES 190900Z 00000KT 9000 SCT015 20/// Q1010","temp":null,"dewp":null,"wdir":0,"wspd":0,"visib":5.59,"altim":1010,"clouds":[{"cover":"SCT","base":1500}],"obsTime":1776589200},"SBSM":{"icaoId":"SBSM","flightCategory":"VFR","rawOb":"METAR SBSM 190900Z 00000KT 9000 NSC 12/12 Q1012","temp":12,"dewp":12,"wdir":0,"wspd":0,"visib":5.59,"altim":1012,"clouds":[],"obsTime":1776589200},"SBJP":{"icaoId":"SBJP","flightCategory":"VFR","rawOb":"METAR SBJP 190800Z 21004KT 9999 FEW013 SCT022 25/25 Q1009","temp":25,"dewp":25,"wdir":210,"wspd":4,"visib":"6+","altim":1009,"clouds":[{"cover":"FEW","base":1300},{"cover":"SCT","base":2200}],"obsTime":1776585600},"SBMT":{"icaoId":"SBMT","flightCategory":"VFR","rawOb":"METAR SBMT 190900Z 00000KT CAVOK 16/15 Q1015","temp":16,"dewp":15,"wdir":0,"wspd":0,"visib":"6+","altim":1015,"clouds":[],"obsTime":1776589200},"SBTA":{"icaoId":"SBTA","flightCategory":"IFR","rawOb":"METAR SBTA 190900Z 22002KT 4000 BR FEW030 18/18 Q1013","temp":18,"dewp":18,"wdir":220,"wspd":2,"visib":2.49,"altim":1013,"clouds":[{"cover":"FEW","base":3000}],"obsTime":1776589200},"SBLE":{"icaoId":"SBLE","flightCategory":"MVFR","rawOb":"METAR SBLE 190800Z AUTO 08004KT 9999 BKN022 OVC035 ///// Q////","temp":null,"dewp":null,"wdir":80,"wspd":4,"visib":"6+","altim":null,"clouds":[{"cover":"BKN","base":2200},{"cover":"OVC","base":3500}],"obsTime":1776585600},"SBAN":{"icaoId":"SBAN","flightCategory":"VFR","rawOb":"METAR SBAN 190800Z 09004KT CAVOK 18/17 Q1017","temp":18,"dewp":17,"wdir":90,"wspd":4,"visib":"6+","altim":1017,"clouds":[],"obsTime":1776585600},"SBJV":{"icaoId":"SBJV","flightCategory":"VFR","rawOb":"METAR SBJV 190900Z 35002KT 9999 FEW040 20/20 Q1012","temp":20,"dewp":20,"wdir":350,"wspd":2,"visib":"6+","altim":1012,"clouds":[{"cover":"FEW","base":4000}],"obsTime":1776589200},"SBPF":{"icaoId":"SBPF","flightCategory":"VFR","rawOb":"METAR SBPF 190900Z 07007KT CAVOK 15/12 Q1014","temp":15,"dewp":12,"wdir":70,"wspd":7,"visib":"6+","altim":1014,"clouds":[],"obsTime":1776589200},"SBGW":{"icaoId":"SBGW","flightCategory":"MVFR","rawOb":"METAR SBGW 190900Z 20002KT 8000 FEW015 BKN040 20/16 Q1013","temp":20,"dewp":16,"wdir":200,"wspd":2,"visib":4.97,"altim":1013,"clouds":[{"cover":"FEW","base":1500},{"cover":"BKN","base":4000}],"obsTime":1776589200},"SBLS":{"icaoId":"SBLS","flightCategory":"VFR","rawOb":"METAR SBLS 190900Z VRB02KT CAVOK 18/16 Q1014","temp":18,"dewp":16,"wdir":"VRB","wspd":2,"visib":"6+","altim":1014,"clouds":[],"obsTime":1776589200}}}