{"updated":1775143878,"count":87,"data":{"SBRB":{"icaoId":"SBRB","flightCategory":"MVFR","rawOb":"SPECI SBRB 021332Z 05005KT 9999 BKN012 28/25 Q1013","temp":28,"dewp":25,"wdir":50,"wspd":5,"visib":"6+","altim":1013,"clouds":[{"cover":"BKN","base":1200}],"obsTime":1775136720},"SBAT":{"icaoId":"SBAT","flightCategory":"VFR","rawOb":"METAR SBAT 021400Z 03001KT 9999 SCT020 BKN100 29/24 Q1016","temp":29,"dewp":24,"wdir":30,"wspd":1,"visib":"6+","altim":1016,"clouds":[{"cover":"SCT","base":2000},{"cover":"BKN","base":10000}],"obsTime":1775138400},"SBBE":{"icaoId":"SBBE","flightCategory":"MVFR","rawOb":"METAR SBBE 021400Z 14002KT 9999 BKN020 BKN070 28/26 Q1014","temp":28,"dewp":26,"wdir":140,"wspd":2,"visib":"6+","altim":1014,"clouds":[{"cover":"BKN","base":2000},{"cover":"BKN","base":7000}],"obsTime":1775138400},"SBBR":{"icaoId":"SBBR","flightCategory":"MVFR","rawOb":"METAR SBBR 021400Z 10008KT 070V140 9999 BKN025 BKN100 23/19 Q1020","temp":23,"dewp":19,"wdir":100,"wspd":8,"visib":"6+","altim":1020,"clouds":[{"cover":"BKN","base":2500},{"cover":"BKN","base":10000}],"obsTime":1775138400},"SBBV":{"icaoId":"SBBV","flightCategory":"VFR","rawOb":"METAR SBBV 021400Z 09010KT 9999 FEW035 29/21 Q1013","temp":29,"dewp":21,"wdir":90,"wspd":10,"visib":"6+","altim":1013,"clouds":[{"cover":"FEW","base":3500}],"obsTime":1775138400},"SBCB":{"icaoId":"SBCB","flightCategory":"VFR","rawOb":"METAR SBCB 021400Z 05014KT CAVOK 28/22 Q1014","temp":28,"dewp":22,"wdir":50,"wspd":14,"visib":"6+","altim":1014,"clouds":[],"obsTime":1775138400},"SBCF":{"icaoId":"SBCF","flightCategory":"MVFR","rawOb":"METAR SBCF 021400Z 05006KT 9999 BKN025 26/20 Q1020","temp":26,"dewp":20,"wdir":50,"wspd":6,"visib":"6+","altim":1020,"clouds":[{"cover":"BKN","base":2500}],"obsTime":1775138400},"SBCG":{"icaoId":"SBCG","flightCategory":"VFR","rawOb":"METAR SBCG 021400Z 33009KT 300V360 CAVOK 29/20 Q1015","temp":29,"dewp":20,"wdir":330,"wspd":9,"visib":"6+","altim":1015,"clouds":[],"obsTime":1775138400},"SBCP":{"icaoId":"SBCP","flightCategory":"VFR","rawOb":"METAR SBCP 021400Z 09010KT 9999 FEW030 SCT090 31/23 Q1015","temp":31,"dewp":23,"wdir":90,"wspd":10,"visib":"6+","altim":1015,"clouds":[{"cover":"FEW","base":3000},{"cover":"SCT","base":9000}],"obsTime":1775138400},"SBCR":{"icaoId":"SBCR","flightCategory":"VFR","rawOb":"METAR SBCR 021400Z VRB03KT CAVOK 31/23 Q1012","temp":31,"dewp":23,"wdir":"VRB","wspd":3,"visib":"6+","altim":1012,"clouds":[],"obsTime":1775138400},"SBCT":{"icaoId":"SBCT","flightCategory":"VFR","rawOb":"METAR SBCT 021400Z 29007KT 230V330 9999 SCT025 24/17 Q1017","temp":24,"dewp":17,"wdir":290,"wspd":7,"visib":"6+","altim":1017,"clouds":[{"cover":"SCT","base":2500}],"obsTime":1775138400},"SBCZ":{"icaoId":"SBCZ","flightCategory":"VFR","rawOb":"METAR SBCZ 021400Z 08005KT 060V120 9999 SCT009 BKN090 27/24 Q1012","temp":27,"dewp":24,"wdir":80,"wspd":5,"visib":"6+","altim":1012,"clouds":[{"cover":"SCT","base":900},{"cover":"BKN","base":9000}],"obsTime":1775138400},"SBEG":{"icaoId":"SBEG","flightCategory":"MVFR","rawOb":"METAR SBEG 021400Z 08008KT 9999 BKN017 SCT100 27/23 Q1014","temp":27,"dewp":23,"wdir":80,"wspd":8,"visib":"6+","altim":1014,"clouds":[{"cover":"BKN","base":1700},{"cover":"SCT","base":10000}],"obsTime":1775138400},"SBFI":{"icaoId":"SBFI","flightCategory":"VFR","rawOb":"METAR SBFI 021400Z 02010KT 9999 FEW030 28/21 Q1013","temp":28,"dewp":21,"wdir":20,"wspd":10,"visib":"6+","altim":1013,"clouds":[{"cover":"FEW","base":3000}],"obsTime":1775138400},"SBFL":{"icaoId":"SBFL","flightCategory":"VFR","rawOb":"METAR SBFL 021400Z 34010KT 9999 FEW025 28/21 Q1011","temp":28,"dewp":21,"wdir":340,"wspd":10,"visib":"6+","altim":1011,"clouds":[{"cover":"FEW","base":2500}],"obsTime":1775138400},"SBFZ":{"icaoId":"SBFZ","flightCategory":"VFR","rawOb":"METAR SBFZ 021400Z 13006KT 9999 FEW025 BKN070 27/24 Q1012","temp":27,"dewp":24,"wdir":130,"wspd":6,"visib":"6+","altim":1012,"clouds":[{"cover":"FEW","base":2500},{"cover":"BKN","base":7000}],"obsTime":1775138400},"SBGL":{"icaoId":"SBGL","flightCategory":"VFR","rawOb":"METAR SBGL 021400Z 04009KT 9999 FEW040 31/22 Q1013","temp":31,"dewp":22,"wdir":40,"wspd":9,"visib":"6+","altim":1013,"clouds":[{"cover":"FEW","base":4000}],"obsTime":1775138400},"SBGO":{"icaoId":"SBGO","flightCategory":"VFR","rawOb":"METAR SBGO 021400Z 36005KT 330V050 CAVOK 26/20 Q1018","temp":26,"dewp":20,"wdir":360,"wspd":5,"visib":"6+","altim":1018,"clouds":[],"obsTime":1775138400},"SBGR":{"icaoId":"SBGR","flightCategory":"VFR","rawOb":"METAR SBGR 021400Z 34012KT 9999 BKN035 28/18 Q1017","temp":28,"dewp":18,"wdir":340,"wspd":12,"visib":"6+","altim":1017,"clouds":[{"cover":"BKN","base":3500}],"obsTime":1775138400},"SBHT":{"icaoId":"SBHT","flightCategory":"VFR","rawOb":"METAR SBHT 021400Z 10005KT 9999 SCT015 BKN090 29/24 Q1015","temp":29,"dewp":24,"wdir":100,"wspd":5,"visib":"6+","altim":1015,"clouds":[{"cover":"SCT","base":1500},{"cover":"BKN","base":9000}],"obsTime":1775138400},"SBIL":{"icaoId":"SBIL","flightCategory":"VFR","rawOb":"METAR SBIL 021400Z 13007KT 9999 VCSH SCT020 FEW023TCU SCT100 29/25 Q1015","temp":29,"dewp":25,"wdir":130,"wspd":7,"visib":"6+","altim":1015,"clouds":[{"cover":"SCT","base":2000},{"cover":"FEW","base":2300},{"cover":"SCT","base":10000}],"obsTime":1775138400},"SBJU":{"icaoId":"SBJU","flightCategory":"MVFR","rawOb":"METAR SBJU 021400Z 18005KT 9999 SCT012 BKN016 27/23 Q1015","temp":27,"dewp":23,"wdir":180,"wspd":5,"visib":"6+","altim":1015,"clouds":[{"cover":"SCT","base":1200},{"cover":"BKN","base":1600}],"obsTime":1775138400},"SBKP":{"icaoId":"SBKP","flightCategory":"VFR","rawOb":"METAR SBKP 021400Z 35011KT 9999 SCT030 27/20 Q1017","temp":27,"dewp":20,"wdir":350,"wspd":11,"visib":"6+","altim":1017,"clouds":[{"cover":"SCT","base":3000}],"obsTime":1775138400},"SBLO":{"icaoId":"SBLO","flightCategory":"VFR","rawOb":"METAR SBLO 021400Z 35003KT 9999 SCT018 25/21 Q1016","temp":25,"dewp":21,"wdir":350,"wspd":3,"visib":"6+","altim":1016,"clouds":[{"cover":"SCT","base":1800}],"obsTime":1775138400},"SBMA":{"icaoId":"SBMA","flightCategory":"IFR","rawOb":"METAR SBMA 021400Z 22006KT 2000 -RA BR NSC 23/22 Q1016","temp":23,"dewp":22,"wdir":220,"wspd":6,"visib":1.24,"altim":1016,"clouds":[],"obsTime":1775138400},"SBME":{"icaoId":"SBME","flightCategory":"VFR","rawOb":"METAR SBME 021400Z 08013KT 9999 FEW030 32/21 Q1014","temp":32,"dewp":21,"wdir":80,"wspd":13,"visib":"6+","altim":1014,"clouds":[{"cover":"FEW","base":3000}],"obsTime":1775138400},"SBMG":{"icaoId":"SBMG","flightCategory":"VFR","rawOb":"METAR SBMG 021400Z 36009KT 9999 FEW020 26/20 Q1015","temp":26,"dewp":20,"wdir":360,"wspd":9,"visib":"6+","altim":1015,"clouds":[{"cover":"FEW","base":2000}],"obsTime":1775138400},"SBMK":{"icaoId":"SBMK","flightCategory":"MVFR","rawOb":"METAR SBMK 021400Z 09008KT 9999 BKN020 26/19 Q1018","temp":26,"dewp":19,"wdir":90,"wspd":8,"visib":"6+","altim":1018,"clouds":[{"cover":"BKN","base":2000}],"obsTime":1775138400},"SBMO":{"icaoId":"SBMO","flightCategory":"VFR","rawOb":"METAR SBMO 021400Z 09009KT 050V120 9999 SCT030 31/24 Q1013","temp":31,"dewp":24,"wdir":90,"wspd":9,"visib":"6+","altim":1013,"clouds":[{"cover":"SCT","base":3000}],"obsTime":1775138400},"SBMQ":{"icaoId":"SBMQ","flightCategory":"MVFR","rawOb":"METAR SBMQ 021400Z 00000KT 9000 -RA SCT006 BKN015 OVC070 25/25 Q1013","temp":25,"dewp":25,"wdir":0,"wspd":0,"visib":5.59,"altim":1013,"clouds":[{"cover":"SCT","base":600},{"cover":"BKN","base":1500},{"cover":"OVC","base":7000}],"obsTime":1775138400},"SBNT":{"icaoId":"SBNT","flightCategory":"MVFR","rawOb":"METAR SBNT 021400Z 10008KT 060V140 9999 BKN025 30/24 Q1012","temp":30,"dewp":24,"wdir":100,"wspd":8,"visib":"6+","altim":1012,"clouds":[{"cover":"BKN","base":2500}],"obsTime":1775138400},"SBPA":{"icaoId":"SBPA","flightCategory":"VFR","rawOb":"METAR SBPA 021400Z 30007KT 270V330 CAVOK 28/20 Q1011","temp":28,"dewp":20,"wdir":300,"wspd":7,"visib":"6+","altim":1011,"clouds":[],"obsTime":1775138400},"SBPJ":{"icaoId":"SBPJ","flightCategory":"VFR","rawOb":"METAR SBPJ 021400Z 06004KT 010V120 9999 -RA FEW007 SCT015 BKN080 26/23 Q1016","temp":26,"dewp":23,"wdir":60,"wspd":4,"visib":"6+","altim":1016,"clouds":[{"cover":"FEW","base":700},{"cover":"SCT","base":1500},{"cover":"BKN","base":8000}],"obsTime":1775138400},"SBPV":{"icaoId":"SBPV","flightCategory":"MVFR","rawOb":"METAR SBPV 021400Z VRB05KT 9999 BKN020 FEW030TCU 28/23 Q1013","temp":28,"dewp":23,"wdir":"VRB","wspd":5,"visib":"6+","altim":1013,"clouds":[{"cover":"BKN","base":2000},{"cover":"FEW","base":3000}],"obsTime":1775138400},"SBRF":{"icaoId":"SBRF","flightCategory":"VFR","rawOb":"METAR SBRF 021400Z 08005KT 9999 SCT017 SCT080 30/24 Q1012","temp":30,"dewp":24,"wdir":80,"wspd":5,"visib":"6+","altim":1012,"clouds":[{"cover":"SCT","base":1700},{"cover":"SCT","base":8000}],"obsTime":1775138400},"SBSG":{"icaoId":"SBSG","flightCategory":"VFR","rawOb":"METAR SBSG 021400Z 09009KT 9999 SCT020 30/25 Q1012","temp":30,"dewp":25,"wdir":90,"wspd":9,"visib":"6+","altim":1012,"clouds":[{"cover":"SCT","base":2000}],"obsTime":1775138400},"SBSL":{"icaoId":"SBSL","flightCategory":"MVFR","rawOb":"METAR SBSL 021400Z 02003KT 340V080 7000 FEW012 BKN040 OVC080 24/22 Q1014","temp":24,"dewp":22,"wdir":20,"wspd":3,"visib":4.35,"altim":1014,"clouds":[{"cover":"FEW","base":1200},{"cover":"BKN","base":4000},{"cover":"OVC","base":8000}],"obsTime":1775138400},"SBSN":{"icaoId":"SBSN","flightCategory":"VFR","rawOb":"METAR SBSN 021400Z 05005KT 9999 SCT020 28/23 Q1014","temp":28,"dewp":23,"wdir":50,"wspd":5,"visib":"6+","altim":1014,"clouds":[{"cover":"SCT","base":2000}],"obsTime":1775138400},"SBSP":{"icaoId":"SBSP","flightCategory":"VFR","rawOb":"METAR SBSP 021400Z 35011KT 320V030 9999 FEW036 27/18 Q1018","temp":27,"dewp":18,"wdir":350,"wspd":11,"visib":"6+","altim":1018,"clouds":[{"cover":"FEW","base":3600}],"obsTime":1775138400},"SBSV":{"icaoId":"SBSV","flightCategory":"VFR","rawOb":"METAR SBSV 021400Z 10010KT 9999 SCT023 FEW025TCU SCT100 30/21 Q1014","temp":30,"dewp":21,"wdir":100,"wspd":10,"visib":"6+","altim":1014,"clouds":[{"cover":"SCT","base":2300},{"cover":"FEW","base":2500},{"cover":"SCT","base":10000}],"obsTime":1775138400},"SBTE":{"icaoId":"SBTE","flightCategory":"VFR","rawOb":"METAR SBTE 021400Z 00000KT 9999 -RA SCT015 FEW025TCU BKN080 27/24 Q1013","temp":27,"dewp":24,"wdir":0,"wspd":0,"visib":"6+","altim":1013,"clouds":[{"cover":"SCT","base":1500},{"cover":"FEW","base":2500},{"cover":"BKN","base":8000}],"obsTime":1775138400},"SBUL":{"icaoId":"SBUL","flightCategory":"VFR","rawOb":"METAR SBUL 021400Z 06013KT 010V080 9999 SCT023 25/19 Q1020","temp":25,"dewp":19,"wdir":60,"wspd":13,"visib":"6+","altim":1020,"clouds":[{"cover":"SCT","base":2300}],"obsTime":1775138400},"SBUR":{"icaoId":"SBUR","flightCategory":"VFR","rawOb":"METAR SBUR 021400Z 01009KT CAVOK 27/18 Q1018","temp":27,"dewp":18,"wdir":10,"wspd":9,"visib":"6+","altim":1018,"clouds":[],"obsTime":1775138400},"SBVT":{"icaoId":"SBVT","flightCategory":"VFR","rawOb":"METAR SBVT 021400Z 36003KT CAVOK 28/22 Q1015","temp":28,"dewp":22,"wdir":360,"wspd":3,"visib":"6+","altim":1015,"clouds":[],"obsTime":1775138400},"SBKG":{"icaoId":"SBKG","flightCategory":"MVFR","rawOb":"METAR SBKG 021400Z 12013KT 9999 VCSH BKN020 26/22 Q1015","temp":26,"dewp":22,"wdir":120,"wspd":13,"visib":"6+","altim":1015,"clouds":[{"cover":"BKN","base":2000}],"obsTime":1775138400},"SBOI":{"icaoId":"SBOI","flightCategory":"VFR","rawOb":"METAR SBOI 021400Z AUTO VRB03KT 9999 SCT022 30/25 Q1013","temp":30,"dewp":25,"wdir":"VRB","wspd":3,"visib":"6+","altim":1013,"clouds":[{"cover":"SCT","base":2200}],"obsTime":1775138400},"SBCJ":{"icaoId":"SBCJ","flightCategory":"VFR","rawOb":"METAR SBCJ 021400Z 06004KT 9999 FEW007 SCT080 25/22 Q1019","temp":25,"dewp":22,"wdir":60,"wspd":4,"visib":"6+","altim":1019,"clouds":[{"cover":"FEW","base":700},{"cover":"SCT","base":8000}],"obsTime":1775138400},"SBPB":{"icaoId":"SBPB","flightCategory":"VFR","rawOb":"METAR SBPB 021400Z 07008KT 9999 SCT020 SCT090 30/26 Q1012","temp":30,"dewp":26,"wdir":70,"wspd":8,"visib":"6+","altim":1012,"clouds":[{"cover":"SCT","base":2000},{"cover":"SCT","base":9000}],"obsTime":1775138400},"SBVH":{"icaoId":"SBVH","flightCategory":"MVFR","rawOb":"METAR SBVH 021400Z 06006KT 9999 SCT015 BKN020 26/23 Q1017","temp":26,"dewp":23,"wdir":60,"wspd":6,"visib":"6+","altim":1017,"clouds":[{"cover":"SCT","base":1500},{"cover":"BKN","base":2000}],"obsTime":1775138400},"SBPL":{"icaoId":"SBPL","flightCategory":"MVFR","rawOb":"METAR SBPL 021400Z 10009KT 9999 BKN025 28/22 Q1015","temp":28,"dewp":22,"wdir":100,"wspd":9,"visib":"6+","altim":1015,"clouds":[{"cover":"BKN","base":2500}],"obsTime":1775138400},"SBPP":{"icaoId":"SBPP","flightCategory":"MVFR","rawOb":"METAR SBPP 021400Z 06010KT 9999 BKN025 OVC070 22/19 Q1016","temp":22,"dewp":19,"wdir":60,"wspd":10,"visib":"6+","altim":1016,"clouds":[{"cover":"BKN","base":2500},{"cover":"OVC","base":7000}],"obsTime":1775138400},"SBCO":{"icaoId":"SBCO","flightCategory":"VFR","rawOb":"METAR SBCO 021400Z 33005KT 270V030 CAVOK 29/20 Q1011","temp":29,"dewp":20,"wdir":330,"wspd":5,"visib":"6+","altim":1011,"clouds":[],"obsTime":1775138400},"SBPS":{"icaoId":"SBPS","flightCategory":"VFR","rawOb":"METAR SBPS 021400Z 11008KT 060V180 9999 FEW020 29/24 Q1015","temp":29,"dewp":24,"wdir":110,"wspd":8,"visib":"6+","altim":1015,"clouds":[{"cover":"FEW","base":2000}],"obsTime":1775138400},"SBBU":{"icaoId":"SBBU","flightCategory":"VFR","rawOb":"METAR SBBU 021400Z 04006KT CAVOK 26/20 Q1017","temp":26,"dewp":20,"wdir":40,"wspd":6,"visib":"6+","altim":1017,"clouds":[],"obsTime":1775138400},"SBDN":{"icaoId":"SBDN","flightCategory":"VFR","rawOb":"METAR SBDN 021400Z 35003KT CAVOK 28/19 Q1015","temp":28,"dewp":19,"wdir":350,"wspd":3,"visib":"6+","altim":1015,"clouds":[],"obsTime":1775138400},"SBSC":{"icaoId":"SBSC","flightCategory":"VFR","rawOb":"METAR SBSC 021400Z 35010KT 9999 FEW030 SCT100 32/22 Q1013","temp":32,"dewp":22,"wdir":350,"wspd":10,"visib":"6+","altim":1013,"clouds":[{"cover":"FEW","base":3000},{"cover":"SCT","base":10000}],"obsTime":1775138400},"SBES":{"icaoId":"SBES","flightCategory":"VFR","rawOb":"METAR SBES 021400Z 04011G21KT 360V070 CAVOK 29/// Q1014","temp":null,"dewp":null,"wdir":40,"wspd":11,"visib":"6+","altim":1014,"clouds":[],"obsTime":1775138400},"SBSJ":{"icaoId":"SBSJ","flightCategory":"VFR","rawOb":"METAR SBSJ 021400Z 34005KT CAVOK 26/20 Q1017","temp":26,"dewp":20,"wdir":340,"wspd":5,"visib":"6+","altim":1017,"clouds":[],"obsTime":1775138400},"SBBH":{"icaoId":"SBBH","flightCategory":"VFR","rawOb":"METAR SBBH 021400Z 08004KT 9999 SCT026 26/18 Q1020","temp":26,"dewp":18,"wdir":80,"wspd":4,"visib":"6+","altim":1020,"clouds":[{"cover":"SCT","base":2600}],"obsTime":1775138400},"SBSM":{"icaoId":"SBSM","flightCategory":"VFR","rawOb":"METAR SBSM 021400Z VRB02KT 9999 FEW030 28/21 Q1012","temp":28,"dewp":21,"wdir":"VRB","wspd":2,"visib":"6+","altim":1012,"clouds":[{"cover":"FEW","base":3000}],"obsTime":1775138400},"SBCA":{"icaoId":"SBCA","flightCategory":"VFR","rawOb":"METAR SBCA 021400Z 02009G19KT 9999 SCT010 24/19 Q1017","temp":24,"dewp":19,"wdir":20,"wspd":9,"visib":"6+","altim":1017,"clouds":[{"cover":"SCT","base":1000}],"obsTime":1775138400},"SBSR":{"icaoId":"SBSR","flightCategory":"VFR","rawOb":"METAR SBSR 021400Z VRB08KT CAVOK 28/20 Q1016","temp":28,"dewp":20,"wdir":"VRB","wspd":8,"visib":"6+","altim":1016,"clouds":[],"obsTime":1775138400},"SBGM":{"icaoId":"SBGM","flightCategory":"VFR","rawOb":"METAR SBGM 021400Z 32006KT CAVOK 29/19 Q1013","temp":29,"dewp":19,"wdir":320,"wspd":6,"visib":"6+","altim":1013,"clouds":[],"obsTime":1775138400},"SBTD":{"icaoId":"SBTD","flightCategory":"MVFR","rawOb":"METAR SBTD 021400Z /////KT 9999 SCT007 BKN015 24/21 Q1016","temp":24,"dewp":21,"wdir":null,"wspd":null,"visib":"6+","altim":1016,"clouds":[{"cover":"SCT","base":700},{"cover":"BKN","base":1500}],"obsTime":1775138400},"SBTF":{"icaoId":"SBTF","flightCategory":"MVFR","rawOb":"METAR SBTF 021400Z 11008KT 9999 BKN015 29/25 Q1012","temp":29,"dewp":25,"wdir":110,"wspd":8,"visib":"6+","altim":1012,"clouds":[{"cover":"BKN","base":1500}],"obsTime":1775138400},"SBAR":{"icaoId":"SBAR","flightCategory":"IFR","rawOb":"SPECI SBAR 021337Z 28003KT 200V320 9999 VCSH BKN007 SCT017 OVC050 26/25 Q1013","temp":26,"dewp":25,"wdir":280,"wspd":3,"visib":"6+","altim":1013,"clouds":[{"cover":"BKN","base":700},{"cover":"SCT","base":1700},{"cover":"OVC","base":5000}],"obsTime":1775137020},"SBAX":{"icaoId":"SBAX","flightCategory":"MVFR","rawOb":"METAR SBAX 021500Z 01006KT 9999 BKN025 BKN035 27/18 Q1020","temp":27,"dewp":18,"wdir":10,"wspd":6,"visib":"6+","altim":1020,"clouds":[{"cover":"BKN","base":2500},{"cover":"BKN","base":3500}],"obsTime":1775142000},"SBBQ":{"icaoId":"SBBQ","flightCategory":"MVFR","rawOb":"METAR SBBQ 021400Z 35006KT 9999 BKN020 24/18 Q1023","temp":24,"dewp":18,"wdir":350,"wspd":6,"visib":"6+","altim":1023,"clouds":[{"cover":"BKN","base":2000}],"obsTime":1775138400},"SBTT":{"icaoId":"SBTT","flightCategory":"MVFR","rawOb":"METAR SBTT 021400Z 23003KT 7000 -TSRA SCT006 SCT030 FEW040CB OVC100 24/23 Q1013","temp":24,"dewp":23,"wdir":230,"wspd":3,"visib":4.35,"altim":1013,"clouds":[{"cover":"SCT","base":600},{"cover":"SCT","base":3000},{"cover":"FEW","base":4000},{"cover":"OVC","base":10000}],"obsTime":1775138400},"SBIP":{"icaoId":"SBIP","flightCategory":"VFR","rawOb":"METAR SBIP 021400Z AUTO 36006KT 290V080 9999 FEW028 29/21 Q1017","temp":29,"dewp":21,"wdir":360,"wspd":6,"visib":"6+","altim":1017,"clouds":[{"cover":"FEW","base":2800}],"obsTime":1775138400},"SBUY":{"icaoId":"SBUY","flightCategory":"VFR","rawOb":"METAR SBUY 021400Z 15006KT 9999 FEW020 SCT100 29/24 Q1011","temp":29,"dewp":24,"wdir":150,"wspd":6,"visib":"6+","altim":1011,"clouds":[{"cover":"FEW","base":2000},{"cover":"SCT","base":10000}],"obsTime":1775138400},"SBCC":{"icaoId":"SBCC","flightCategory":"VFR","rawOb":"METAR SBCC 021400Z 01006KT 9999 -RA SCT007 OVC100 22/19 Q1016","temp":22,"dewp":19,"wdir":10,"wspd":6,"visib":"6+","altim":1016,"clouds":[{"cover":"SCT","base":700},{"cover":"OVC","base":10000}],"obsTime":1775138400},"SBAU":{"icaoId":"SBAU","flightCategory":"VFR","rawOb":"METAR SBAU 021400Z 03008KT CAVOK 29/21 Q1015","temp":29,"dewp":21,"wdir":30,"wspd":8,"visib":"6+","altim":1015,"clouds":[],"obsTime":1775138400},"SBJP":{"icaoId":"SBJP","flightCategory":"MVFR","rawOb":"METAR SBJP 021400Z VRB03KT 5000 -RA BKN015 BKN070 26/25 Q1013","temp":26,"dewp":25,"wdir":"VRB","wspd":3,"visib":3.11,"altim":1013,"clouds":[{"cover":"BKN","base":1500},{"cover":"BKN","base":7000}],"obsTime":1775138400},"SBAN":{"icaoId":"SBAN","flightCategory":"VFR","rawOb":"METAR SBAN 021400Z 05005KT 340V120 9999 SCT015 SCT100 24/18 Q1021","temp":24,"dewp":18,"wdir":50,"wspd":5,"visib":"6+","altim":1021,"clouds":[{"cover":"SCT","base":1500},{"cover":"SCT","base":10000}],"obsTime":1775138400},"SBLE":{"icaoId":"SBLE","flightCategory":"VFR","rawOb":"METAR SBLE 021400Z AUTO 16005KT 100V210 9999 FEW023 SCT033 BKN040 26/22 Q1017","temp":26,"dewp":22,"wdir":160,"wspd":5,"visib":"6+","altim":1017,"clouds":[{"cover":"FEW","base":2300},{"cover":"SCT","base":3300},{"cover":"BKN","base":4000}],"obsTime":1775138400},"SBIH":{"icaoId":"SBIH","flightCategory":"VFR","rawOb":"METAR SBIH 021400Z 15004KT 9999 FEW015 27/22 Q1014","temp":27,"dewp":22,"wdir":150,"wspd":4,"visib":"6+","altim":1014,"clouds":[{"cover":"FEW","base":1500}],"obsTime":1775138400},"SBJV":{"icaoId":"SBJV","flightCategory":"VFR","rawOb":"METAR SBJV 021400Z 13005KT 9999 FEW030 29/23 Q1012","temp":29,"dewp":23,"wdir":130,"wspd":5,"visib":"6+","altim":1012,"clouds":[{"cover":"FEW","base":3000}],"obsTime":1775138400},"SBNM":{"icaoId":"SBNM","flightCategory":"VFR","rawOb":"METAR SBNM 021400Z 30004KT 9999 FEW015 30/23 Q1013","temp":30,"dewp":23,"wdir":300,"wspd":4,"visib":"6+","altim":1013,"clouds":[{"cover":"FEW","base":1500}],"obsTime":1775138400},"SBPF":{"icaoId":"SBPF","flightCategory":"VFR","rawOb":"METAR SBPF 021400Z 31007KT CAVOK 25/19 Q1015","temp":25,"dewp":19,"wdir":310,"wspd":7,"visib":"6+","altim":1015,"clouds":[],"obsTime":1775138400},"SBAF":{"icaoId":"SBAF","flightCategory":"VFR","rawOb":"METAR SBAF 021400Z 01008KT 9999 FEW040 32/22 Q1013","temp":32,"dewp":22,"wdir":10,"wspd":8,"visib":"6+","altim":1013,"clouds":[{"cover":"FEW","base":4000}],"obsTime":1775138400},"SBGW":{"icaoId":"SBGW","flightCategory":"VFR","rawOb":"METAR SBGW 021400Z 03003KT 9999 FEW020 BKN100 29/18 Q1016","temp":29,"dewp":18,"wdir":30,"wspd":3,"visib":"6+","altim":1016,"clouds":[{"cover":"FEW","base":2000},{"cover":"BKN","base":10000}],"obsTime":1775138400},"SBJR":{"icaoId":"SBJR","flightCategory":"VFR","rawOb":"METAR SBJR 021400Z 03011KT 9999 FEW045 34/22 Q1013","temp":34,"dewp":22,"wdir":30,"wspd":11,"visib":"6+","altim":1013,"clouds":[{"cover":"FEW","base":4500}],"obsTime":1775138400},"SBLS":{"icaoId":"SBLS","flightCategory":"MVFR","rawOb":"METAR SBLS 021400Z 15004KT 030V190 9999 BKN030 26/19 Q1020","temp":26,"dewp":19,"wdir":150,"wspd":4,"visib":"6+","altim":1020,"clouds":[{"cover":"BKN","base":3000}],"obsTime":1775138400},"SBMT":{"icaoId":"SBMT","flightCategory":"VFR","rawOb":"METAR SBMT 021400Z 32009KT 9999 SCT030 27/18 Q1017","temp":27,"dewp":18,"wdir":320,"wspd":9,"visib":"6+","altim":1017,"clouds":[{"cover":"SCT","base":3000}],"obsTime":1775138400},"SBST":{"icaoId":"SBST","flightCategory":"VFR","rawOb":"METAR SBST 021400Z 26004KT 9999 SCT040 28/24 Q1012","temp":28,"dewp":24,"wdir":260,"wspd":4,"visib":"6+","altim":1012,"clouds":[{"cover":"SCT","base":4000}],"obsTime":1775138400},"SBTA":{"icaoId":"SBTA","flightCategory":"VFR","rawOb":"METAR SBTA 021400Z 04004KT 300V090 9999 FEW025 26/26 Q1016","temp":26,"dewp":26,"wdir":40,"wspd":4,"visib":"6+","altim":1016,"clouds":[{"cover":"FEW","base":2500}],"obsTime":1775138400}}}