{"updated":1783866007,"count":88,"data":{"SBKP":{"icaoId":"SBKP","flightCategory":"VFR","rawOb":"SPECI SBKP 121224Z 35005KT 9000 -TSRA BKN040 FEW050CB BKN080 17/16 Q1018 RERA","temp":17,"dewp":16,"wdir":350,"wspd":5,"visib":5.59,"altim":1018,"clouds":[{"cover":"BKN","base":4000},{"cover":"FEW","base":5000},{"cover":"BKN","base":8000}],"obsTime":1783859040},"SBSG":{"icaoId":"SBSG","flightCategory":"VFR","rawOb":"METAR SBSG 121300Z 15007KT 100V190 9999 VCSH SCT025 FEW030TCU BKN080 27/23 Q1016","temp":27,"dewp":23,"wdir":150,"wspd":7,"visib":"6+","altim":1016,"clouds":[{"cover":"SCT","base":2500},{"cover":"FEW","base":3000},{"cover":"BKN","base":8000}],"obsTime":1783861200},"SBSP":{"icaoId":"SBSP","flightCategory":"MVFR","rawOb":"METAR SBSP 121300Z 32010KT 270V350 9999 BKN017 18/15 Q1018","temp":18,"dewp":15,"wdir":320,"wspd":10,"visib":"6+","altim":1018,"clouds":[{"cover":"BKN","base":1700}],"obsTime":1783861200},"SBBE":{"icaoId":"SBBE","flightCategory":"MVFR","rawOb":"METAR SBBE 121300Z COR 08010KT 9999 BKN022 30/24 Q1014","temp":30,"dewp":24,"wdir":80,"wspd":10,"visib":"6+","altim":1014,"clouds":[{"cover":"BKN","base":2200}],"obsTime":1783861200},"SBSV":{"icaoId":"SBSV","flightCategory":"MVFR","rawOb":"METAR SBSV 121300Z 04006KT 360V090 9999 FEW021 BKN025 28/22 Q1017","temp":28,"dewp":22,"wdir":40,"wspd":6,"visib":"6+","altim":1017,"clouds":[{"cover":"FEW","base":2100},{"cover":"BKN","base":2500}],"obsTime":1783861200},"SBCF":{"icaoId":"SBCF","flightCategory":"VFR","rawOb":"METAR SBCF 121300Z 20003KT 170V230 CAVOK 20/11 Q1020","temp":20,"dewp":11,"wdir":200,"wspd":3,"visib":"6+","altim":1020,"clouds":[],"obsTime":1783861200},"SBCB":{"icaoId":"SBCB","flightCategory":"VFR","rawOb":"METAR SBCB 121300Z 33005KT 9999 SCT040 24/19 Q1011","temp":24,"dewp":19,"wdir":330,"wspd":5,"visib":"6+","altim":1011,"clouds":[{"cover":"SCT","base":4000}],"obsTime":1783861200},"SBCZ":{"icaoId":"SBCZ","flightCategory":"LIFR","rawOb":"METAR SBCZ 121300Z 00000KT 9999 BKN003 BKN080 24/24 Q1016","temp":24,"dewp":24,"wdir":0,"wspd":0,"visib":"6+","altim":1016,"clouds":[{"cover":"BKN","base":300},{"cover":"BKN","base":8000}],"obsTime":1783861200},"SBRB":{"icaoId":"SBRB","flightCategory":"VFR","rawOb":"METAR SBRB 121300Z 04002KT 9999 FEW005 BKN080 24/23 Q1017","temp":24,"dewp":23,"wdir":40,"wspd":2,"visib":"6+","altim":1017,"clouds":[{"cover":"FEW","base":500},{"cover":"BKN","base":8000}],"obsTime":1783861200},"SBLO":{"icaoId":"SBLO","flightCategory":"VFR","rawOb":"METAR SBLO 121300Z VRB03KT CAVOK 20/17 Q1017","temp":20,"dewp":17,"wdir":"VRB","wspd":3,"visib":"6+","altim":1017,"clouds":[],"obsTime":1783861200},"SBNT":{"icaoId":"SBNT","flightCategory":"VFR","rawOb":"METAR SBNT 121300Z 17011KT 9999 SCT022 FEW030TCU BKN080 28/22 Q1016","temp":28,"dewp":22,"wdir":170,"wspd":11,"visib":"6+","altim":1016,"clouds":[{"cover":"SCT","base":2200},{"cover":"FEW","base":3000},{"cover":"BKN","base":8000}],"obsTime":1783861200},"SBGO":{"icaoId":"SBGO","flightCategory":"VFR","rawOb":"METAR SBGO 121300Z 00000KT CAVOK 24/16 Q1020","temp":24,"dewp":16,"wdir":0,"wspd":0,"visib":"6+","altim":1020,"clouds":[],"obsTime":1783861200},"SBEG":{"icaoId":"SBEG","flightCategory":"VFR","rawOb":"METAR SBEG 121300Z 07007KT CAVOK 29/23 Q1015","temp":29,"dewp":23,"wdir":70,"wspd":7,"visib":"6+","altim":1015,"clouds":[],"obsTime":1783861200},"SBMO":{"icaoId":"SBMO","flightCategory":"MVFR","rawOb":"METAR SBMO 121300Z 08006KT 040V150 9999 BKN023 28/21 Q1017","temp":28,"dewp":21,"wdir":80,"wspd":6,"visib":"6+","altim":1017,"clouds":[{"cover":"BKN","base":2300}],"obsTime":1783861200},"SBVT":{"icaoId":"SBVT","flightCategory":"VFR","rawOb":"METAR SBVT 121300Z 02007KT CAVOK 26/19 Q1013","temp":26,"dewp":19,"wdir":20,"wspd":7,"visib":"6+","altim":1013,"clouds":[],"obsTime":1783861200},"SBCR":{"icaoId":"SBCR","flightCategory":"IFR","rawOb":"METAR SBCR 121300Z 24006KT 210V290 9999 OVC006 21/20 Q1018","temp":21,"dewp":20,"wdir":240,"wspd":6,"visib":"6+","altim":1018,"clouds":[{"cover":"OVC","base":600}],"obsTime":1783861200},"SBGR":{"icaoId":"SBGR","flightCategory":"VFR","rawOb":"METAR SBGR 121300Z 28010KT 9999 FEW023 BKN100 19/15 Q1017","temp":19,"dewp":15,"wdir":280,"wspd":10,"visib":"6+","altim":1017,"clouds":[{"cover":"FEW","base":2300},{"cover":"BKN","base":10000}],"obsTime":1783861200},"SBMQ":{"icaoId":"SBMQ","flightCategory":"MVFR","rawOb":"METAR SBMQ 121300Z 07004KT 9999 SCT014 BKN030 BKN050 29/26 Q1015","temp":29,"dewp":26,"wdir":70,"wspd":4,"visib":"6+","altim":1015,"clouds":[{"cover":"SCT","base":1400},{"cover":"BKN","base":3000},{"cover":"BKN","base":5000}],"obsTime":1783861200},"SBCG":{"icaoId":"SBCG","flightCategory":"VFR","rawOb":"METAR SBCG 121300Z 00000KT 9999 FEW020 FEW040TCU BKN100 22/19 Q1018","temp":22,"dewp":19,"wdir":0,"wspd":0,"visib":"6+","altim":1018,"clouds":[{"cover":"FEW","base":2000},{"cover":"FEW","base":4000},{"cover":"BKN","base":10000}],"obsTime":1783861200},"SBTE":{"icaoId":"SBTE","flightCategory":"MVFR","rawOb":"METAR SBTE 121300Z 11005KT 9999 BKN016 28/23 Q1015","temp":28,"dewp":23,"wdir":110,"wspd":5,"visib":"6+","altim":1015,"clouds":[{"cover":"BKN","base":1600}],"obsTime":1783861200},"SBPA":{"icaoId":"SBPA","flightCategory":"VFR","rawOb":"SPECI SBPA 121229Z 21004KT 9999 SCT011 BKN040 14/12 Q1017","temp":14,"dewp":12,"wdir":210,"wspd":4,"visib":"6+","altim":1017,"clouds":[{"cover":"SCT","base":1100},{"cover":"BKN","base":4000}],"obsTime":1783859340},"SBPJ":{"icaoId":"SBPJ","flightCategory":"VFR","rawOb":"METAR SBPJ 121300Z 24006KT CAVOK 29/22 Q1016","temp":29,"dewp":22,"wdir":240,"wspd":6,"visib":"6+","altim":1016,"clouds":[],"obsTime":1783861200},"SBMG":{"icaoId":"SBMG","flightCategory":"LIFR","rawOb":"METAR SBMG 121300Z 23007KT 0100 R10/0250N FG VV001 18/17 Q1017","temp":18,"dewp":17,"wdir":230,"wspd":7,"visib":0.06,"altim":1017,"clouds":[{"cover":"OVX","base":100}],"obsTime":1783861200},"SBIL":{"icaoId":"SBIL","flightCategory":"VFR","rawOb":"METAR SBIL 121300Z 36006KT 9999 FEW020 28/22 Q1017","temp":28,"dewp":22,"wdir":360,"wspd":6,"visib":"6+","altim":1017,"clouds":[{"cover":"FEW","base":2000}],"obsTime":1783861200},"SBJU":{"icaoId":"SBJU","flightCategory":"VFR","rawOb":"METAR SBJU 121300Z 00000KT CAVOK 28/18 Q1018","temp":28,"dewp":18,"wdir":0,"wspd":0,"visib":"6+","altim":1018,"clouds":[],"obsTime":1783861200},"SBAT":{"icaoId":"SBAT","flightCategory":"VFR","rawOb":"METAR SBAT 121300Z 17001KT CAVOK 28/23 Q1017","temp":28,"dewp":23,"wdir":170,"wspd":1,"visib":"6+","altim":1017,"clouds":[],"obsTime":1783861200},"SBFZ":{"icaoId":"SBFZ","flightCategory":"MVFR","rawOb":"METAR SBFZ 121300Z 15012KT 9999 BKN030 28/22 Q1015","temp":28,"dewp":22,"wdir":150,"wspd":12,"visib":"6+","altim":1015,"clouds":[{"cover":"BKN","base":3000}],"obsTime":1783861200},"SBHT":{"icaoId":"SBHT","flightCategory":"MVFR","rawOb":"METAR SBHT 121300Z 00000KT 9999 BKN015 27/25 Q1015","temp":27,"dewp":25,"wdir":0,"wspd":0,"visib":"6+","altim":1015,"clouds":[{"cover":"BKN","base":1500}],"obsTime":1783861200},"SBME":{"icaoId":"SBME","flightCategory":"VFR","rawOb":"METAR SBME 121300Z 35005KT CAVOK 28/17 Q1011","temp":28,"dewp":17,"wdir":350,"wspd":5,"visib":"6+","altim":1011,"clouds":[],"obsTime":1783861200},"SBMK":{"icaoId":"SBMK","flightCategory":"VFR","rawOb":"METAR SBMK 121300Z 00000KT 9999 SCT030 BKN080 21/16 Q1020","temp":21,"dewp":16,"wdir":0,"wspd":0,"visib":"6+","altim":1020,"clouds":[{"cover":"SCT","base":3000},{"cover":"BKN","base":8000}],"obsTime":1783861200},"SBUL":{"icaoId":"SBUL","flightCategory":"VFR","rawOb":"METAR SBUL 121300Z 28007KT CAVOK 25/11 Q1020","temp":25,"dewp":11,"wdir":280,"wspd":7,"visib":"6+","altim":1020,"clouds":[],"obsTime":1783861200},"SBUR":{"icaoId":"SBUR","flightCategory":"VFR","rawOb":"METAR SBUR 121300Z 29005KT CAVOK 23/12 Q1019","temp":23,"dewp":12,"wdir":290,"wspd":5,"visib":"6+","altim":1019,"clouds":[],"obsTime":1783861200},"SBCP":{"icaoId":"SBCP","flightCategory":"VFR","rawOb":"METAR SBCP 121300Z 01013KT CAVOK 27/17 Q1012","temp":27,"dewp":17,"wdir":10,"wspd":13,"visib":"6+","altim":1012,"clouds":[],"obsTime":1783861200},"SBFL":{"icaoId":"SBFL","flightCategory":"VFR","rawOb":"METAR SBFL 121300Z 11011KT 9999 SCT048 17/15 Q1015","temp":17,"dewp":15,"wdir":110,"wspd":11,"visib":"6+","altim":1015,"clouds":[{"cover":"SCT","base":4800}],"obsTime":1783861200},"SBSN":{"icaoId":"SBSN","flightCategory":"VFR","rawOb":"METAR SBSN 121300Z 10010KT 9999 FEW019 29/24 Q1014","temp":29,"dewp":24,"wdir":100,"wspd":10,"visib":"6+","altim":1014,"clouds":[{"cover":"FEW","base":1900}],"obsTime":1783861200},"SBBV":{"icaoId":"SBBV","flightCategory":"VFR","rawOb":"METAR SBBV 121300Z 07008KT CAVOK 29/23 Q1015","temp":29,"dewp":23,"wdir":70,"wspd":8,"visib":"6+","altim":1015,"clouds":[],"obsTime":1783861200},"SBPV":{"icaoId":"SBPV","flightCategory":"VFR","rawOb":"METAR SBPV 121300Z 09004KT CAVOK 26/22 Q1015","temp":26,"dewp":22,"wdir":90,"wspd":4,"visib":"6+","altim":1015,"clouds":[],"obsTime":1783861200},"SBBR":{"icaoId":"SBBR","flightCategory":"VFR","rawOb":"METAR SBBR 121300Z VRB02KT CAVOK 24/15 Q1023","temp":24,"dewp":15,"wdir":"VRB","wspd":2,"visib":"6+","altim":1023,"clouds":[],"obsTime":1783861200},"SBFI":{"icaoId":"SBFI","flightCategory":"MVFR","rawOb":"METAR SBFI 121300Z 20008KT 9999 BKN015 SCT030 16/14 Q1020","temp":16,"dewp":14,"wdir":200,"wspd":8,"visib":"6+","altim":1020,"clouds":[{"cover":"BKN","base":1500},{"cover":"SCT","base":3000}],"obsTime":1783861200},"SBSL":{"icaoId":"SBSL","flightCategory":"MVFR","rawOb":"METAR SBSL 121300Z 07010KT 040V110 9999 BKN025 29/24 Q1014","temp":29,"dewp":24,"wdir":70,"wspd":10,"visib":"6+","altim":1014,"clouds":[{"cover":"BKN","base":2500}],"obsTime":1783861200},"SBGL":{"icaoId":"SBGL","flightCategory":"VFR","rawOb":"METAR SBGL 121300Z VRB04KT 9999 SCT030 BKN070 26/17 Q1011","temp":26,"dewp":17,"wdir":"VRB","wspd":4,"visib":"6+","altim":1011,"clouds":[{"cover":"SCT","base":3000},{"cover":"BKN","base":7000}],"obsTime":1783861200},"SBRF":{"icaoId":"SBRF","flightCategory":"VFR","rawOb":"METAR SBRF 121300Z 14009KT 9999 FEW025 28/22 Q1017","temp":28,"dewp":22,"wdir":140,"wspd":9,"visib":"6+","altim":1017,"clouds":[{"cover":"FEW","base":2500}],"obsTime":1783861200},"SBMA":{"icaoId":"SBMA","flightCategory":"VFR","rawOb":"METAR SBMA 121300Z 34005KT 9999 FEW020 30/22 Q1015","temp":30,"dewp":22,"wdir":340,"wspd":5,"visib":"6+","altim":1015,"clouds":[{"cover":"FEW","base":2000}],"obsTime":1783861200},"SBCT":{"icaoId":"SBCT","flightCategory":"MVFR","rawOb":"METAR SBCT 121300Z 24012G22KT 9999 SCT013 BKN020 16/14 Q1017","temp":16,"dewp":14,"wdir":240,"wspd":12,"visib":"6+","altim":1017,"clouds":[{"cover":"SCT","base":1300},{"cover":"BKN","base":2000}],"obsTime":1783861200},"SBTU":{"icaoId":"SBTU","flightCategory":"MVFR","rawOb":"METAR SBTU 121300Z AUTO 21006KT 9999 // SCT007/// BKN016/// 26/24 Q1017","temp":26,"dewp":24,"wdir":210,"wspd":6,"visib":"6+","altim":1017,"clouds":[{"cover":"SCT","base":700},{"cover":"BKN","base":1600}],"obsTime":1783861200},"SBES":{"icaoId":"SBES","flightCategory":"VFR","rawOb":"METAR SBES 121300Z VRB03KT 9999 FEW030 25/// Q1011","temp":null,"dewp":null,"wdir":"VRB","wspd":3,"visib":"6+","altim":1011,"clouds":[{"cover":"FEW","base":3000}],"obsTime":1783861200},"SBAR":{"icaoId":"SBAR","flightCategory":"VFR","rawOb":"METAR SBAR 121300Z 06007KT 350V120 9999 FEW020 28/22 Q1017","temp":28,"dewp":22,"wdir":60,"wspd":7,"visib":"6+","altim":1017,"clouds":[{"cover":"FEW","base":2000}],"obsTime":1783861200},"SBPB":{"icaoId":"SBPB","flightCategory":"VFR","rawOb":"METAR SBPB 121300Z 11011KT 9999 FEW020 31/22 Q1014","temp":31,"dewp":22,"wdir":110,"wspd":11,"visib":"6+","altim":1014,"clouds":[{"cover":"FEW","base":2000}],"obsTime":1783861200},"SBPS":{"icaoId":"SBPS","flightCategory":"VFR","rawOb":"METAR SBPS 121300Z 34009KT 310V010 9999 SCT025 27/21 Q1016","temp":27,"dewp":21,"wdir":340,"wspd":9,"visib":"6+","altim":1016,"clouds":[{"cover":"SCT","base":2500}],"obsTime":1783861200},"SBOI":{"icaoId":"SBOI","flightCategory":"VFR","rawOb":"METAR SBOI 121300Z AUTO 15008KT 9999 SCT019 29/25 Q1015","temp":29,"dewp":25,"wdir":150,"wspd":8,"visib":"6+","altim":1015,"clouds":[{"cover":"SCT","base":1900}],"obsTime":1783861200},"SBCJ":{"icaoId":"SBCJ","flightCategory":"VFR","rawOb":"METAR SBCJ 121300Z 03002KT CAVOK 27/21 Q1018","temp":27,"dewp":21,"wdir":30,"wspd":2,"visib":"6+","altim":1018,"clouds":[],"obsTime":1783861200},"SBTF":{"icaoId":"SBTF","flightCategory":"VFR","rawOb":"METAR SBTF 121300Z 15007KT 9999 FEW010 BKN080 25/24 Q1015","temp":25,"dewp":24,"wdir":150,"wspd":7,"visib":"6+","altim":1015,"clouds":[{"cover":"FEW","base":1000},{"cover":"BKN","base":8000}],"obsTime":1783861200},"SBPL":{"icaoId":"SBPL","flightCategory":"VFR","rawOb":"METAR SBPL 121300Z 10010KT CAVOK 28/19 Q1018","temp":28,"dewp":19,"wdir":100,"wspd":10,"visib":"6+","altim":1018,"clouds":[],"obsTime":1783861200},"SBUY":{"icaoId":"SBUY","flightCategory":"VFR","rawOb":"METAR SBUY 121300Z 17002KT 9999 FEW006 BKN090 24/23 Q1015","temp":24,"dewp":23,"wdir":170,"wspd":2,"visib":"6+","altim":1015,"clouds":[{"cover":"FEW","base":600},{"cover":"BKN","base":9000}],"obsTime":1783861200},"SBCA":{"icaoId":"SBCA","flightCategory":"VFR","rawOb":"METAR SBCA 121300Z 19014KT 9999 SCT007 14/12 Q1020","temp":14,"dewp":12,"wdir":190,"wspd":14,"visib":"6+","altim":1020,"clouds":[{"cover":"SCT","base":700}],"obsTime":1783861200},"SBCO":{"icaoId":"SBCO","flightCategory":"VFR","rawOb":"METAR SBCO 121300Z 24006KT 200V270 9999 SCT013 BKN035 15/11 Q1018","temp":15,"dewp":11,"wdir":240,"wspd":6,"visib":"6+","altim":1018,"clouds":[{"cover":"SCT","base":1300},{"cover":"BKN","base":3500}],"obsTime":1783861200},"SBSM":{"icaoId":"SBSM","flightCategory":"MVFR","rawOb":"METAR SBSM 121300Z 26005KT 220V300 9999 BKN012 BKN016 11/10 Q1021","temp":11,"dewp":10,"wdir":260,"wspd":5,"visib":"6+","altim":1021,"clouds":[{"cover":"BKN","base":1200},{"cover":"BKN","base":1600}],"obsTime":1783861200},"SBKG":{"icaoId":"SBKG","flightCategory":"VFR","rawOb":"METAR SBKG 121300Z 12010KT 9999 FEW022 26/19 Q1019","temp":26,"dewp":19,"wdir":120,"wspd":10,"visib":"6+","altim":1019,"clouds":[{"cover":"FEW","base":2200}],"obsTime":1783861200},"SBCC":{"icaoId":"SBCC","flightCategory":"VFR","rawOb":"METAR SBCC 121300Z 14002KT 9999 SCT040 BKN100 26/21 Q1018","temp":26,"dewp":21,"wdir":140,"wspd":2,"visib":"6+","altim":1018,"clouds":[{"cover":"SCT","base":4000},{"cover":"BKN","base":10000}],"obsTime":1783861200},"SBGM":{"icaoId":"SBGM","flightCategory":"MVFR","rawOb":"METAR SBGM 121300Z 32002KT 9999 BKN016 24/21 Q1016","temp":24,"dewp":21,"wdir":320,"wspd":2,"visib":"6+","altim":1016,"clouds":[{"cover":"BKN","base":1600}],"obsTime":1783861200},"SBVH":{"icaoId":"SBVH","flightCategory":"MVFR","rawOb":"METAR SBVH 121300Z 29004KT 9999 BKN030 24/21 Q1019","temp":24,"dewp":21,"wdir":290,"wspd":4,"visib":"6+","altim":1019,"clouds":[{"cover":"BKN","base":3000}],"obsTime":1783861200},"SBAU":{"icaoId":"SBAU","flightCategory":"VFR","rawOb":"METAR SBAU 121300Z 16004KT CAVOK 25/18 Q1017","temp":25,"dewp":18,"wdir":160,"wspd":4,"visib":"6+","altim":1017,"clouds":[],"obsTime":1783861200},"SBAX":{"icaoId":"SBAX","flightCategory":"VFR","rawOb":"METAR SBAX 121300Z AUTO 33004KT 270V030 CAVOK 22/12 Q1020","temp":22,"dewp":12,"wdir":330,"wspd":4,"visib":"6+","altim":1020,"clouds":[],"obsTime":1783861200},"SBBH":{"icaoId":"SBBH","flightCategory":"VFR","rawOb":"METAR SBBH 121300Z 00000KT CAVOK 23/10 Q1019","temp":23,"dewp":10,"wdir":0,"wspd":0,"visib":"6+","altim":1019,"clouds":[],"obsTime":1783861200},"SBBQ":{"icaoId":"SBBQ","flightCategory":"VFR","rawOb":"METAR SBBQ 121300Z 28005KT 240V310 CAVOK 19/12 Q1021","temp":19,"dewp":12,"wdir":280,"wspd":5,"visib":"6+","altim":1021,"clouds":[],"obsTime":1783861200},"SBBU":{"icaoId":"SBBU","flightCategory":"MVFR","rawOb":"METAR SBBU 121300Z 35007KT 7000 -RA FEW002 SCT035 BKN085 19/19 Q1018","temp":19,"dewp":19,"wdir":350,"wspd":7,"visib":4.35,"altim":1018,"clouds":[{"cover":"FEW","base":200},{"cover":"SCT","base":3500},{"cover":"BKN","base":8500}],"obsTime":1783861200},"SBDN":{"icaoId":"SBDN","flightCategory":"IFR","rawOb":"METAR SBDN 121300Z 26006KT 9999 BKN005 21/19 Q1017","temp":21,"dewp":19,"wdir":260,"wspd":6,"visib":"6+","altim":1017,"clouds":[{"cover":"BKN","base":500}],"obsTime":1783861200},"SBIP":{"icaoId":"SBIP","flightCategory":"VFR","rawOb":"METAR SBIP 121300Z AUTO VRB02KT CAVOK 23/14 Q1016","temp":23,"dewp":14,"wdir":"VRB","wspd":2,"visib":"6+","altim":1016,"clouds":[],"obsTime":1783861200},"SBSC":{"icaoId":"SBSC","flightCategory":"VFR","rawOb":"METAR SBSC 121300Z 02007KT CAVOK 26/17 Q1011","temp":26,"dewp":17,"wdir":20,"wspd":7,"visib":"6+","altim":1011,"clouds":[],"obsTime":1783861200},"SBSR":{"icaoId":"SBSR","flightCategory":"VFR","rawOb":"METAR SBSR 121300Z 27002KT 9999 FEW030 SCT070 23/14 Q1018","temp":23,"dewp":14,"wdir":270,"wspd":2,"visib":"6+","altim":1018,"clouds":[{"cover":"FEW","base":3000},{"cover":"SCT","base":7000}],"obsTime":1783861200},"SBSJ":{"icaoId":"SBSJ","flightCategory":"VFR","rawOb":"METAR SBSJ 121300Z VRB01KT 9999 FEW045 BKN100 18/16 Q1016","temp":18,"dewp":16,"wdir":"VRB","wspd":1,"visib":"6+","altim":1016,"clouds":[{"cover":"FEW","base":4500},{"cover":"BKN","base":10000}],"obsTime":1783861200},"SBPP":{"icaoId":"SBPP","flightCategory":"LIFR","rawOb":"METAR SBPP 121300Z 21010KT 0000 FG VV000 16/16 Q1020","temp":16,"dewp":16,"wdir":210,"wspd":10,"visib":0,"altim":1020,"clouds":[{"cover":"OVX","base":0}],"obsTime":1783861200},"SBTT":{"icaoId":"SBTT","flightCategory":"MVFR","rawOb":"METAR SBTT 121300Z 23003KT 9000 BKN020 BKN070 24/23 Q1015","temp":24,"dewp":23,"wdir":230,"wspd":3,"visib":5.59,"altim":1015,"clouds":[{"cover":"BKN","base":2000},{"cover":"BKN","base":7000}],"obsTime":1783861200},"SBJP":{"icaoId":"SBJP","flightCategory":"MVFR","rawOb":"METAR SBJP 121300Z 15009KT 110V180 9999 BKN025 28/22 Q1017","temp":28,"dewp":22,"wdir":150,"wspd":9,"visib":"6+","altim":1017,"clouds":[{"cover":"BKN","base":2500}],"obsTime":1783861200},"SBJV":{"icaoId":"SBJV","flightCategory":"LIFR","rawOb":"METAR SBJV 121300Z 20002KT 5000 BR BKN004 OVC009 16/16 Q1015","temp":16,"dewp":16,"wdir":200,"wspd":2,"visib":3.11,"altim":1015,"clouds":[{"cover":"BKN","base":400},{"cover":"OVC","base":900}],"obsTime":1783861200},"SBNM":{"icaoId":"SBNM","flightCategory":"VFR","rawOb":"METAR SBNM 121300Z AUTO 22006KT 9999 SCT007 BKN036 13/11 Q1021","temp":13,"dewp":11,"wdir":220,"wspd":6,"visib":"6+","altim":1021,"clouds":[{"cover":"SCT","base":700},{"cover":"BKN","base":3600}],"obsTime":1783861200},"SBPF":{"icaoId":"SBPF","flightCategory":"MVFR","rawOb":"METAR SBPF 121400Z 24012KT 9999 BKN010 BKN025 13/10 Q1020","temp":13,"dewp":10,"wdir":240,"wspd":12,"visib":"6+","altim":1020,"clouds":[{"cover":"BKN","base":1000},{"cover":"BKN","base":2500}],"obsTime":1783864800},"SBAN":{"icaoId":"SBAN","flightCategory":"VFR","rawOb":"METAR SBAN 121300Z 28003KT CAVOK 25/12 Q1023","temp":25,"dewp":12,"wdir":280,"wspd":3,"visib":"6+","altim":1023,"clouds":[],"obsTime":1783861200},"SBLE":{"icaoId":"SBLE","flightCategory":"MVFR","rawOb":"METAR SBLE 121300Z AUTO 05004KT 010V100 9999 FEW014 BKN023 ///// Q1020","temp":null,"dewp":null,"wdir":50,"wspd":4,"visib":"6+","altim":1020,"clouds":[{"cover":"FEW","base":1400},{"cover":"BKN","base":2300}],"obsTime":1783861200},"SBTC":{"icaoId":"SBTC","flightCategory":"VFR","rawOb":"METAR SBTC 121300Z 31008KT CAVOK 28/22 Q1017","temp":28,"dewp":22,"wdir":310,"wspd":8,"visib":"6+","altim":1017,"clouds":[],"obsTime":1783861200},"SBIH":{"icaoId":"SBIH","flightCategory":"VFR","rawOb":"METAR SBIH 121300Z 00000KT 9999 FEW010 29/24 Q1015","temp":29,"dewp":24,"wdir":0,"wspd":0,"visib":"6+","altim":1015,"clouds":[{"cover":"FEW","base":1000}],"obsTime":1783861200},"SBAF":{"icaoId":"SBAF","flightCategory":"VFR","rawOb":"METAR SBAF 121300Z 29007KT 9999 FEW030 SCT090 26/16 Q1011","temp":26,"dewp":16,"wdir":290,"wspd":7,"visib":"6+","altim":1011,"clouds":[{"cover":"FEW","base":3000},{"cover":"SCT","base":9000}],"obsTime":1783861200},"SBGW":{"icaoId":"SBGW","flightCategory":"VFR","rawOb":"METAR SBGW 121300Z 11003KT 060V170 9999 FEW025 BKN100 21/14 Q1015","temp":21,"dewp":14,"wdir":110,"wspd":3,"visib":"6+","altim":1015,"clouds":[{"cover":"FEW","base":2500},{"cover":"BKN","base":10000}],"obsTime":1783861200},"SBJR":{"icaoId":"SBJR","flightCategory":"VFR","rawOb":"METAR SBJR 121300Z 04002KT 9999 FEW030 33/16 Q1011","temp":33,"dewp":16,"wdir":40,"wspd":2,"visib":"6+","altim":1011,"clouds":[{"cover":"FEW","base":3000}],"obsTime":1783861200},"SBLS":{"icaoId":"SBLS","flightCategory":"VFR","rawOb":"METAR SBLS 121300Z 22003KT CAVOK 20/11 Q1019","temp":20,"dewp":11,"wdir":220,"wspd":3,"visib":"6+","altim":1019,"clouds":[],"obsTime":1783861200},"SBMT":{"icaoId":"SBMT","flightCategory":"VFR","rawOb":"METAR SBMT 121300Z 28010KT 9999 FEW030 BKN070 18/15 Q1017","temp":18,"dewp":15,"wdir":280,"wspd":10,"visib":"6+","altim":1017,"clouds":[{"cover":"FEW","base":3000},{"cover":"BKN","base":7000}],"obsTime":1783861200},"SBST":{"icaoId":"SBST","flightCategory":"VFR","rawOb":"METAR SBST 121300Z 34008KT CAVOK 25/16 Q1012","temp":25,"dewp":16,"wdir":340,"wspd":8,"visib":"6+","altim":1012,"clouds":[],"obsTime":1783861200},"SBTA":{"icaoId":"SBTA","flightCategory":"VFR","rawOb":"METAR SBTA 121300Z 28003KT 9999 VCSH FEW040 FEW045TCU BKN070 20/17 Q1015","temp":20,"dewp":17,"wdir":280,"wspd":3,"visib":"6+","altim":1015,"clouds":[{"cover":"FEW","base":4000},{"cover":"FEW","base":4500},{"cover":"BKN","base":7000}],"obsTime":1783861200}}}