{"updated":1774707747,"count":86,"data":{"SBSN":{"icaoId":"SBSN","flightCategory":"VFR","rawOb":"METAR SBSN 281300Z 07006KT 9999 SCT013 BKN070 28/25 Q1012 RETS","temp":28,"dewp":25,"wdir":70,"wspd":6,"visib":"6+","altim":1012,"clouds":[{"cover":"SCT","base":1300},{"cover":"BKN","base":7000}],"obsTime":1774702800},"SBMA":{"icaoId":"SBMA","flightCategory":"VFR","rawOb":"METAR SBMA 281300Z 07006KT 9999 SCT015 SCT018 BKN100 29/25 Q1012","temp":29,"dewp":25,"wdir":70,"wspd":6,"visib":"6+","altim":1012,"clouds":[{"cover":"SCT","base":1500},{"cover":"SCT","base":1800},{"cover":"BKN","base":10000}],"obsTime":1774702800},"SBBE":{"icaoId":"SBBE","flightCategory":"VFR","rawOb":"METAR SBBE 281300Z 07007KT 9999 SCT015 29/25 Q1012","temp":29,"dewp":25,"wdir":70,"wspd":7,"visib":"6+","altim":1012,"clouds":[{"cover":"SCT","base":1500}],"obsTime":1774702800},"SBME":{"icaoId":"SBME","flightCategory":"VFR","rawOb":"METAR SBME 281300Z 16005KT 9999 SCT023 30/22 Q1020","temp":30,"dewp":22,"wdir":160,"wspd":5,"visib":"6+","altim":1020,"clouds":[{"cover":"SCT","base":2300}],"obsTime":1774702800},"SBFI":{"icaoId":"SBFI","flightCategory":"VFR","rawOb":"METAR SBFI 281300Z 05005KT CAVOK 29/23 Q1018","temp":29,"dewp":23,"wdir":50,"wspd":5,"visib":"6+","altim":1018,"clouds":[],"obsTime":1774702800},"SBMG":{"icaoId":"SBMG","flightCategory":"VFR","rawOb":"METAR SBMG 281300Z 11008KT 070V150 CAVOK 28/17 Q1020","temp":28,"dewp":17,"wdir":110,"wspd":8,"visib":"6+","altim":1020,"clouds":[],"obsTime":1774702800},"SBFL":{"icaoId":"SBFL","flightCategory":"VFR","rawOb":"METAR SBFL 281300Z 35014KT 9999 FEW033 29/23 Q1019","temp":29,"dewp":23,"wdir":350,"wspd":14,"visib":"6+","altim":1019,"clouds":[{"cover":"FEW","base":3300}],"obsTime":1774702800},"SBMK":{"icaoId":"SBMK","flightCategory":"MVFR","rawOb":"METAR SBMK 281300Z 11011KT 9999 BKN030 26/18 Q1020","temp":26,"dewp":18,"wdir":110,"wspd":11,"visib":"6+","altim":1020,"clouds":[{"cover":"BKN","base":3000}],"obsTime":1774702800},"SBCG":{"icaoId":"SBCG","flightCategory":"VFR","rawOb":"METAR SBCG 281300Z 07011KT CAVOK 29/20 Q1018","temp":29,"dewp":20,"wdir":70,"wspd":11,"visib":"6+","altim":1018,"clouds":[],"obsTime":1774702800},"SBVT":{"icaoId":"SBVT","flightCategory":"VFR","rawOb":"METAR SBVT 281300Z 26003KT 200V310 9999 SCT025 SCT045 25/23 Q1019","temp":25,"dewp":23,"wdir":260,"wspd":3,"visib":"6+","altim":1019,"clouds":[{"cover":"SCT","base":2500},{"cover":"SCT","base":4500}],"obsTime":1774702800},"SBMO":{"icaoId":"SBMO","flightCategory":"IFR","rawOb":"SPECI SBMO 281237Z 15010KT 3000 RA BR SCT011 BKN030 BKN070 25/23 Q1013","temp":25,"dewp":23,"wdir":150,"wspd":10,"visib":1.86,"altim":1013,"clouds":[{"cover":"SCT","base":1100},{"cover":"BKN","base":3000},{"cover":"BKN","base":7000}],"obsTime":1774701420},"SBCP":{"icaoId":"SBCP","flightCategory":"MVFR","rawOb":"METAR SBCP 281300Z 11005KT 9999 BKN015 29/23 Q1020","temp":29,"dewp":23,"wdir":110,"wspd":5,"visib":"6+","altim":1020,"clouds":[{"cover":"BKN","base":1500}],"obsTime":1774702800},"SBMQ":{"icaoId":"SBMQ","flightCategory":"MVFR","rawOb":"METAR SBMQ 281300Z 01006KT 9999 BKN015 29/26 Q1012","temp":29,"dewp":26,"wdir":10,"wspd":6,"visib":"6+","altim":1012,"clouds":[{"cover":"BKN","base":1500}],"obsTime":1774702800},"SBNT":{"icaoId":"SBNT","flightCategory":"VFR","rawOb":"METAR SBNT 281300Z 10012KT 070V130 9999 FEW030 31/22 Q1012","temp":31,"dewp":22,"wdir":100,"wspd":12,"visib":"6+","altim":1012,"clouds":[{"cover":"FEW","base":3000}],"obsTime":1774702800},"SBFZ":{"icaoId":"SBFZ","flightCategory":"MVFR","rawOb":"METAR SBFZ 281300Z 16006KT 9999 FEW015 BKN030 28/25 Q1011","temp":28,"dewp":25,"wdir":160,"wspd":6,"visib":"6+","altim":1011,"clouds":[{"cover":"FEW","base":1500},{"cover":"BKN","base":3000}],"obsTime":1774702800},"SBBV":{"icaoId":"SBBV","flightCategory":"MVFR","rawOb":"METAR SBBV 281300Z 04006KT 9999 BKN030 FEW035TCU SCT100 26/24 Q1014","temp":26,"dewp":24,"wdir":40,"wspd":6,"visib":"6+","altim":1014,"clouds":[{"cover":"BKN","base":3000},{"cover":"FEW","base":3500},{"cover":"SCT","base":10000}],"obsTime":1774702800},"SBPA":{"icaoId":"SBPA","flightCategory":"VFR","rawOb":"METAR SBPA 281300Z 35005KT 290V040 CAVOK 30/23 Q1017","temp":30,"dewp":23,"wdir":350,"wspd":5,"visib":"6+","altim":1017,"clouds":[],"obsTime":1774702800},"SBGL":{"icaoId":"SBGL","flightCategory":"VFR","rawOb":"METAR SBGL 281300Z 04004KT 9999 FEW020 30/23 Q1019","temp":30,"dewp":23,"wdir":40,"wspd":4,"visib":"6+","altim":1019,"clouds":[{"cover":"FEW","base":2000}],"obsTime":1774702800},"SBPJ":{"icaoId":"SBPJ","flightCategory":"VFR","rawOb":"METAR SBPJ 281300Z 13010KT 100V160 9999 FEW017 30/21 Q1014","temp":30,"dewp":21,"wdir":130,"wspd":10,"visib":"6+","altim":1014,"clouds":[{"cover":"FEW","base":1700}],"obsTime":1774702800},"SBCB":{"icaoId":"SBCB","flightCategory":"VFR","rawOb":"METAR SBCB 281300Z 07007KT 9999 SCT020 SCT040 28/22 Q1020","temp":28,"dewp":22,"wdir":70,"wspd":7,"visib":"6+","altim":1020,"clouds":[{"cover":"SCT","base":2000},{"cover":"SCT","base":4000}],"obsTime":1774702800},"SBPV":{"icaoId":"SBPV","flightCategory":"VFR","rawOb":"METAR SBPV 281300Z 10003KT 9999 SCT007 BKN100 26/23 Q1013","temp":26,"dewp":23,"wdir":100,"wspd":3,"visib":"6+","altim":1013,"clouds":[{"cover":"SCT","base":700},{"cover":"BKN","base":10000}],"obsTime":1774702800},"SBGO":{"icaoId":"SBGO","flightCategory":"VFR","rawOb":"METAR SBGO 281300Z 09012KT 9999 FEW020 27/19 Q1020","temp":27,"dewp":19,"wdir":90,"wspd":12,"visib":"6+","altim":1020,"clouds":[{"cover":"FEW","base":2000}],"obsTime":1774702800},"SBRB":{"icaoId":"SBRB","flightCategory":"VFR","rawOb":"METAR SBRB 281300Z 03008KT 9999 FEW005 BKN100 25/24 Q1013","temp":25,"dewp":24,"wdir":30,"wspd":8,"visib":"6+","altim":1013,"clouds":[{"cover":"FEW","base":500},{"cover":"BKN","base":10000}],"obsTime":1774702800},"SBRF":{"icaoId":"SBRF","flightCategory":"VFR","rawOb":"METAR SBRF 281300Z 10007KT 9999 SCT020 SCT060 30/25 Q1012","temp":30,"dewp":25,"wdir":100,"wspd":7,"visib":"6+","altim":1012,"clouds":[{"cover":"SCT","base":2000},{"cover":"SCT","base":6000}],"obsTime":1774702800},"SBCR":{"icaoId":"SBCR","flightCategory":"VFR","rawOb":"METAR SBCR 281300Z 07007KT 050V110 CAVOK 28/23 Q1015","temp":28,"dewp":23,"wdir":70,"wspd":7,"visib":"6+","altim":1015,"clouds":[],"obsTime":1774702800},"SBGR":{"icaoId":"SBGR","flightCategory":"VFR","rawOb":"METAR SBGR 281300Z 06012KT 9999 SCT017 24/19 Q1023","temp":24,"dewp":19,"wdir":60,"wspd":12,"visib":"6+","altim":1023,"clouds":[{"cover":"SCT","base":1700}],"obsTime":1774702800},"SBSG":{"icaoId":"SBSG","flightCategory":"VFR","rawOb":"METAR SBSG 281300Z 11007KT 070V150 9999 SCT023 30/22 Q1012","temp":30,"dewp":22,"wdir":110,"wspd":7,"visib":"6+","altim":1012,"clouds":[{"cover":"SCT","base":2300}],"obsTime":1774702800},"SBAT":{"icaoId":"SBAT","flightCategory":"VFR","rawOb":"METAR SBAT 281300Z 10004KT 9999 SCT016 BKN100 25/23 Q1014","temp":25,"dewp":23,"wdir":100,"wspd":4,"visib":"6+","altim":1014,"clouds":[{"cover":"SCT","base":1600},{"cover":"BKN","base":10000}],"obsTime":1774702800},"SBSL":{"icaoId":"SBSL","flightCategory":"MVFR","rawOb":"METAR SBSL 281300Z 09011KT 9999 BKN023 30/25 Q1011","temp":30,"dewp":25,"wdir":90,"wspd":11,"visib":"6+","altim":1011,"clouds":[{"cover":"BKN","base":2300}],"obsTime":1774702800},"SBHT":{"icaoId":"SBHT","flightCategory":"VFR","rawOb":"METAR SBHT 281300Z 10005KT 9999 SCT010 BKN080 25/24 Q1013","temp":25,"dewp":24,"wdir":100,"wspd":5,"visib":"6+","altim":1013,"clouds":[{"cover":"SCT","base":1000},{"cover":"BKN","base":8000}],"obsTime":1774702800},"SBCF":{"icaoId":"SBCF","flightCategory":"MVFR","rawOb":"METAR SBCF 281300Z 12012KT 090V160 9999 BKN030 24/17 Q1023","temp":24,"dewp":17,"wdir":120,"wspd":12,"visib":"6+","altim":1023,"clouds":[{"cover":"BKN","base":3000}],"obsTime":1774702800},"SBEG":{"icaoId":"SBEG","flightCategory":"MVFR","rawOb":"METAR SBEG 281300Z 36002KT 8000 -SHRA SCT013 BKN019 BKN100 25/24 Q1013","temp":25,"dewp":24,"wdir":360,"wspd":2,"visib":4.97,"altim":1013,"clouds":[{"cover":"SCT","base":1300},{"cover":"BKN","base":1900},{"cover":"BKN","base":10000}],"obsTime":1774702800},"SBSP":{"icaoId":"SBSP","flightCategory":"VFR","rawOb":"METAR SBSP 281300Z 10007KT 050V130 CAVOK 25/17 Q1024","temp":25,"dewp":17,"wdir":100,"wspd":7,"visib":"6+","altim":1024,"clouds":[],"obsTime":1774702800},"SBCT":{"icaoId":"SBCT","flightCategory":"VFR","rawOb":"METAR SBCT 281300Z 08008KT 030V110 9999 FEW020 23/16 Q1024","temp":23,"dewp":16,"wdir":80,"wspd":8,"visib":"6+","altim":1024,"clouds":[{"cover":"FEW","base":2000}],"obsTime":1774702800},"SBIL":{"icaoId":"SBIL","flightCategory":"MVFR","rawOb":"METAR SBIL 281300Z 07008KT 040V110 8000 2000W -RA SCT018 FEW025TCU BKN060 27/24 Q1016","temp":27,"dewp":24,"wdir":70,"wspd":8,"visib":4.97,"altim":1016,"clouds":[{"cover":"SCT","base":1800},{"cover":"FEW","base":2500},{"cover":"BKN","base":6000}],"obsTime":1774702800},"SBSV":{"icaoId":"SBSV","flightCategory":"VFR","rawOb":"METAR SBSV 281300Z 12010KT 090V160 9999 SCT024 30/22 Q1014","temp":30,"dewp":22,"wdir":120,"wspd":10,"visib":"6+","altim":1014,"clouds":[{"cover":"SCT","base":2400}],"obsTime":1774702800},"SBCZ":{"icaoId":"SBCZ","flightCategory":"VFR","rawOb":"METAR SBCZ 281300Z VRB02KT 9999 FEW004 26/24 Q1013","temp":26,"dewp":24,"wdir":"VRB","wspd":2,"visib":"6+","altim":1013,"clouds":[{"cover":"FEW","base":400}],"obsTime":1774702800},"SBTE":{"icaoId":"SBTE","flightCategory":"MVFR","rawOb":"METAR SBTE 281300Z 00000KT 9999 BKN020 29/24 Q1012","temp":29,"dewp":24,"wdir":0,"wspd":0,"visib":"6+","altim":1012,"clouds":[{"cover":"BKN","base":2000}],"obsTime":1774702800},"SBJU":{"icaoId":"SBJU","flightCategory":"MVFR","rawOb":"METAR SBJU 281300Z 12008KT 9999 BKN018 26/21 Q1015","temp":26,"dewp":21,"wdir":120,"wspd":8,"visib":"6+","altim":1015,"clouds":[{"cover":"BKN","base":1800}],"obsTime":1774702800},"SBUL":{"icaoId":"SBUL","flightCategory":"VFR","rawOb":"METAR SBUL 281300Z 11010KT CAVOK 24/17 Q1023","temp":24,"dewp":17,"wdir":110,"wspd":10,"visib":"6+","altim":1023,"clouds":[],"obsTime":1774702800},"SBBR":{"icaoId":"SBBR","flightCategory":"VFR","rawOb":"METAR SBBR 281300Z 11013KT 9999 FEW025 23/17 Q1022","temp":23,"dewp":17,"wdir":110,"wspd":13,"visib":"6+","altim":1022,"clouds":[{"cover":"FEW","base":2500}],"obsTime":1774702800},"SBUR":{"icaoId":"SBUR","flightCategory":"VFR","rawOb":"METAR SBUR 281300Z 06011KT CAVOK 26/16 Q1022","temp":26,"dewp":16,"wdir":60,"wspd":11,"visib":"6+","altim":1022,"clouds":[],"obsTime":1774702800},"SBKP":{"icaoId":"SBKP","flightCategory":"VFR","rawOb":"METAR SBKP 281300Z 09004KT 020V160 CAVOK 27/18 Q1022","temp":27,"dewp":18,"wdir":90,"wspd":4,"visib":"6+","altim":1022,"clouds":[],"obsTime":1774702800},"SBLO":{"icaoId":"SBLO","flightCategory":"VFR","rawOb":"METAR SBLO 281300Z 10007KT CAVOK 26/17 Q1021","temp":26,"dewp":17,"wdir":100,"wspd":7,"visib":"6+","altim":1021,"clouds":[],"obsTime":1774702800},"SBAR":{"icaoId":"SBAR","flightCategory":"VFR","rawOb":"METAR SBAR 281300Z 10012KT 9999 SCT020 30/24 Q1013","temp":30,"dewp":24,"wdir":100,"wspd":12,"visib":"6+","altim":1013,"clouds":[{"cover":"SCT","base":2000}],"obsTime":1774702800},"SBAU":{"icaoId":"SBAU","flightCategory":"VFR","rawOb":"METAR SBAU 281300Z 09010KT CAVOK 30/19 Q1019","temp":30,"dewp":19,"wdir":90,"wspd":10,"visib":"6+","altim":1019,"clouds":[],"obsTime":1774702800},"SBAX":{"icaoId":"SBAX","flightCategory":"VFR","rawOb":"METAR SBAX 281300Z AUTO 09009KT 9999 FEW030 24/17 Q1023","temp":24,"dewp":17,"wdir":90,"wspd":9,"visib":"6+","altim":1023,"clouds":[{"cover":"FEW","base":3000}],"obsTime":1774702800},"SBBH":{"icaoId":"SBBH","flightCategory":"MVFR","rawOb":"METAR SBBH 281300Z 09010KT 9999 BKN025 24/17 Q1023","temp":24,"dewp":17,"wdir":90,"wspd":10,"visib":"6+","altim":1023,"clouds":[{"cover":"BKN","base":2500}],"obsTime":1774702800},"SBBQ":{"icaoId":"SBBQ","flightCategory":"IFR","rawOb":"METAR SBBQ 281300Z 09006KT 4000 -DZ FEW007 BKN014 19/17 Q1027","temp":19,"dewp":17,"wdir":90,"wspd":6,"visib":2.49,"altim":1027,"clouds":[{"cover":"FEW","base":700},{"cover":"BKN","base":1400}],"obsTime":1774702800},"SBBU":{"icaoId":"SBBU","flightCategory":"VFR","rawOb":"METAR SBBU 281300Z 06008KT CAVOK 27/19 Q1021","temp":27,"dewp":19,"wdir":60,"wspd":8,"visib":"6+","altim":1021,"clouds":[],"obsTime":1774702800},"SBCA":{"icaoId":"SBCA","flightCategory":"VFR","rawOb":"METAR SBCA 281300Z 05013KT CAVOK 26/19 Q1022","temp":26,"dewp":19,"wdir":50,"wspd":13,"visib":"6+","altim":1022,"clouds":[],"obsTime":1774702800},"SBCC":{"icaoId":"SBCC","flightCategory":"VFR","rawOb":"METAR SBCC 281300Z 12010KT 9999 FEW015 BKN100 26/20 Q1015","temp":26,"dewp":20,"wdir":120,"wspd":10,"visib":"6+","altim":1015,"clouds":[{"cover":"FEW","base":1500},{"cover":"BKN","base":10000}],"obsTime":1774702800},"SBCJ":{"icaoId":"SBCJ","flightCategory":"MVFR","rawOb":"METAR SBCJ 281300Z 12006KT 9999 SCT007 BKN010 25/22 Q1017","temp":25,"dewp":22,"wdir":120,"wspd":6,"visib":"6+","altim":1017,"clouds":[{"cover":"SCT","base":700},{"cover":"BKN","base":1000}],"obsTime":1774702800},"SBCO":{"icaoId":"SBCO","flightCategory":"VFR","rawOb":"METAR SBCO 281300Z 33005KT CAVOK 31/22 Q1018","temp":31,"dewp":22,"wdir":330,"wspd":5,"visib":"6+","altim":1018,"clouds":[],"obsTime":1774702800},"SBDN":{"icaoId":"SBDN","flightCategory":"VFR","rawOb":"METAR SBDN 281300Z 09008KT CAVOK 28/20 Q1020","temp":28,"dewp":20,"wdir":90,"wspd":8,"visib":"6+","altim":1020,"clouds":[],"obsTime":1774702800},"SBES":{"icaoId":"SBES","flightCategory":"VFR","rawOb":"METAR SBES 281300Z 06006KT 020V080 9999 VCSH FEW015 SCT020 27/// Q1020","temp":null,"dewp":null,"wdir":60,"wspd":6,"visib":"6+","altim":1020,"clouds":[{"cover":"FEW","base":1500},{"cover":"SCT","base":2000}],"obsTime":1774702800},"SBGM":{"icaoId":"SBGM","flightCategory":"VFR","rawOb":"METAR SBGM 281300Z 07003KT 9999 SCT030 BKN060 26/23 Q1013","temp":26,"dewp":23,"wdir":70,"wspd":3,"visib":"6+","altim":1013,"clouds":[{"cover":"SCT","base":3000},{"cover":"BKN","base":6000}],"obsTime":1774702800},"SBIP":{"icaoId":"SBIP","flightCategory":"VFR","rawOb":"METAR SBIP 281300Z AUTO VRB04KT 9999 FEW028 27/19 Q1020","temp":27,"dewp":19,"wdir":"VRB","wspd":4,"visib":"6+","altim":1020,"clouds":[{"cover":"FEW","base":2800}],"obsTime":1774702800},"SBKG":{"icaoId":"SBKG","flightCategory":"VFR","rawOb":"METAR SBKG 281300Z 09010KT 9999 SCT012 BKN070 26/22 Q1015","temp":26,"dewp":22,"wdir":90,"wspd":10,"visib":"6+","altim":1015,"clouds":[{"cover":"SCT","base":1200},{"cover":"BKN","base":7000}],"obsTime":1774702800},"SBOI":{"icaoId":"SBOI","flightCategory":"MVFR","rawOb":"METAR SBOI 281400Z AUTO 06007KT 010V090 9999 BKN026 30/25 Q1012","temp":30,"dewp":25,"wdir":60,"wspd":7,"visib":"6+","altim":1012,"clouds":[{"cover":"BKN","base":2600}],"obsTime":1774706400},"SBPB":{"icaoId":"SBPB","flightCategory":"VFR","rawOb":"METAR SBPB 281300Z 07011KT 9999 SCT020 31/25 Q1011","temp":31,"dewp":25,"wdir":70,"wspd":11,"visib":"6+","altim":1011,"clouds":[{"cover":"SCT","base":2000}],"obsTime":1774702800},"SBPL":{"icaoId":"SBPL","flightCategory":"MVFR","rawOb":"METAR SBPL 281300Z 10010KT 9999 BKN025 29/21 Q1014","temp":29,"dewp":21,"wdir":100,"wspd":10,"visib":"6+","altim":1014,"clouds":[{"cover":"BKN","base":2500}],"obsTime":1774702800},"SBPP":{"icaoId":"SBPP","flightCategory":"VFR","rawOb":"METAR SBPP 281300Z 06009KT CAVOK 27/21 Q1020","temp":27,"dewp":21,"wdir":60,"wspd":9,"visib":"6+","altim":1020,"clouds":[],"obsTime":1774702800},"SBPS":{"icaoId":"SBPS","flightCategory":"MVFR","rawOb":"METAR SBPS 281300Z VRB04KT 9999 BKN020 BKN100 27/23 Q1017","temp":27,"dewp":23,"wdir":"VRB","wspd":4,"visib":"6+","altim":1017,"clouds":[{"cover":"BKN","base":2000},{"cover":"BKN","base":10000}],"obsTime":1774702800},"SBSC":{"icaoId":"SBSC","flightCategory":"VFR","rawOb":"METAR SBSC 281300Z 01005KT 9999 FEW030 29/21 Q1020","temp":29,"dewp":21,"wdir":10,"wspd":5,"visib":"6+","altim":1020,"clouds":[{"cover":"FEW","base":3000}],"obsTime":1774702800},"SBSJ":{"icaoId":"SBSJ","flightCategory":"MVFR","rawOb":"METAR SBSJ 281300Z 04007KT 8000 FEW025 24/19 Q1023","temp":24,"dewp":19,"wdir":40,"wspd":7,"visib":4.97,"altim":1023,"clouds":[{"cover":"FEW","base":2500}],"obsTime":1774702800},"SBSM":{"icaoId":"SBSM","flightCategory":"VFR","rawOb":"METAR SBSM 281300Z 05006KT CAVOK 31/23 Q1017","temp":31,"dewp":23,"wdir":50,"wspd":6,"visib":"6+","altim":1017,"clouds":[],"obsTime":1774702800},"SBSR":{"icaoId":"SBSR","flightCategory":"VFR","rawOb":"METAR SBSR 281300Z 06009KT 360V120 CAVOK 28/17 Q1020","temp":28,"dewp":17,"wdir":60,"wspd":9,"visib":"6+","altim":1020,"clouds":[],"obsTime":1774702800},"SBTF":{"icaoId":"SBTF","flightCategory":"VFR","rawOb":"METAR SBTF 281300Z COR 14005KT 9999 SCT008 SCT011 BKN040 27/26 Q1013","temp":27,"dewp":26,"wdir":140,"wspd":5,"visib":"6+","altim":1013,"clouds":[{"cover":"SCT","base":800},{"cover":"SCT","base":1100},{"cover":"BKN","base":4000}],"obsTime":1774702800},"SBTT":{"icaoId":"SBTT","flightCategory":"MVFR","rawOb":"METAR SBTT 281300Z 09003KT 020V130 5000 -RA BKN012 OVC060 23/21 Q1014","temp":23,"dewp":21,"wdir":90,"wspd":3,"visib":3.11,"altim":1014,"clouds":[{"cover":"BKN","base":1200},{"cover":"OVC","base":6000}],"obsTime":1774702800},"SBUY":{"icaoId":"SBUY","flightCategory":"IFR","rawOb":"METAR SBUY 281300Z 07002KT 9999 BKN008 BKN100 25/24 Q1012","temp":25,"dewp":24,"wdir":70,"wspd":2,"visib":"6+","altim":1012,"clouds":[{"cover":"BKN","base":800},{"cover":"BKN","base":10000}],"obsTime":1774702800},"SBVH":{"icaoId":"SBVH","flightCategory":"VFR","rawOb":"METAR SBVH 281300Z 12006KT 9999 FEW020 BKN080 24/21 Q1017","temp":24,"dewp":21,"wdir":120,"wspd":6,"visib":"6+","altim":1017,"clouds":[{"cover":"FEW","base":2000},{"cover":"BKN","base":8000}],"obsTime":1774702800},"SBPF":{"icaoId":"SBPF","flightCategory":"VFR","rawOb":"METAR SBPF 281300Z 05014KT CAVOK 25/19 Q1022","temp":25,"dewp":19,"wdir":50,"wspd":14,"visib":"6+","altim":1022,"clouds":[],"obsTime":1774702800},"SBJP":{"icaoId":"SBJP","flightCategory":"MVFR","rawOb":"METAR SBJP 281300Z 08008KT 9999 BKN020 31/23 Q1012","temp":31,"dewp":23,"wdir":80,"wspd":8,"visib":"6+","altim":1012,"clouds":[{"cover":"BKN","base":2000}],"obsTime":1774702800},"SBLE":{"icaoId":"SBLE","flightCategory":"MVFR","rawOb":"METAR SBLE 281300Z AUTO 13007KT 090V160 9999 FEW009 BKN012 BKN040 25/25 Q1017","temp":25,"dewp":25,"wdir":130,"wspd":7,"visib":"6+","altim":1017,"clouds":[{"cover":"FEW","base":900},{"cover":"BKN","base":1200},{"cover":"BKN","base":4000}],"obsTime":1774702800},"SBIH":{"icaoId":"SBIH","flightCategory":"VFR","rawOb":"METAR SBIH 281300Z 13003KT 9999 FEW010 BKN100 28/24 Q1012","temp":28,"dewp":24,"wdir":130,"wspd":3,"visib":"6+","altim":1012,"clouds":[{"cover":"FEW","base":1000},{"cover":"BKN","base":10000}],"obsTime":1774702800},"SBAN":{"icaoId":"SBAN","flightCategory":"VFR","rawOb":"METAR SBAN 281300Z COR 14022KT 100V160 9999 FEW015 23/16 Q1023","temp":23,"dewp":16,"wdir":140,"wspd":22,"visib":"6+","altim":1023,"clouds":[{"cover":"FEW","base":1500}],"obsTime":1774702800},"SBAF":{"icaoId":"SBAF","flightCategory":"VFR","rawOb":"METAR SBAF 281300Z 12004KT 9999 SCT040 30/21 Q1020","temp":30,"dewp":21,"wdir":120,"wspd":4,"visib":"6+","altim":1020,"clouds":[{"cover":"SCT","base":4000}],"obsTime":1774702800},"SBGW":{"icaoId":"SBGW","flightCategory":"MVFR","rawOb":"METAR SBGW 281300Z 06005KT 9999 BKN025 26/17 Q1022","temp":26,"dewp":17,"wdir":60,"wspd":5,"visib":"6+","altim":1022,"clouds":[{"cover":"BKN","base":2500}],"obsTime":1774702800},"SBJR":{"icaoId":"SBJR","flightCategory":"VFR","rawOb":"METAR SBJR 281300Z 17006KT 9999 FEW020 31/22 Q1019","temp":31,"dewp":22,"wdir":170,"wspd":6,"visib":"6+","altim":1019,"clouds":[{"cover":"FEW","base":2000}],"obsTime":1774702800},"SBLS":{"icaoId":"SBLS","flightCategory":"MVFR","rawOb":"METAR SBLS 281300Z 14012KT 070V130 9999 BKN023 22/17 Q1023","temp":22,"dewp":17,"wdir":140,"wspd":12,"visib":"6+","altim":1023,"clouds":[{"cover":"BKN","base":2300}],"obsTime":1774702800},"SBJV":{"icaoId":"SBJV","flightCategory":"VFR","rawOb":"METAR SBJV 281300Z 02004KT 9999 SCT025 29/23 Q1020","temp":29,"dewp":23,"wdir":20,"wspd":4,"visib":"6+","altim":1020,"clouds":[{"cover":"SCT","base":2500}],"obsTime":1774702800},"SBMT":{"icaoId":"SBMT","flightCategory":"VFR","rawOb":"METAR SBMT 281300Z 08010KT CAVOK 24/18 Q1023","temp":24,"dewp":18,"wdir":80,"wspd":10,"visib":"6+","altim":1023,"clouds":[],"obsTime":1774702800},"SBST":{"icaoId":"SBST","flightCategory":"VFR","rawOb":"METAR SBST 281300Z 07003KT 9999 SCT023 28/22 Q1019","temp":28,"dewp":22,"wdir":70,"wspd":3,"visib":"6+","altim":1019,"clouds":[{"cover":"SCT","base":2300}],"obsTime":1774702800},"SBTA":{"icaoId":"SBTA","flightCategory":"VFR","rawOb":"METAR SBTA 281300Z 06009KT 030V090 9999 SCT022 25/22 Q1022","temp":25,"dewp":22,"wdir":60,"wspd":9,"visib":"6+","altim":1022,"clouds":[{"cover":"SCT","base":2200}],"obsTime":1774702800},"SBNM":{"icaoId":"SBNM","flightCategory":"VFR","rawOb":"METAR SBNM 281300Z 05004KT CAVOK 30/22 Q1019","temp":30,"dewp":22,"wdir":50,"wspd":4,"visib":"6+","altim":1019,"clouds":[],"obsTime":1774702800}}}