{"updated":1776011137,"count":85,"data":{"SBRF":{"icaoId":"SBRF","flightCategory":"IFR","rawOb":"SPECI SBRF 121428Z 18008KT 4000 RA BR BKN009 BKN014 FEW024TCU BKN060 25/24 Q1013","temp":25,"dewp":24,"wdir":180,"wspd":8,"visib":2.49,"altim":1013,"clouds":[{"cover":"BKN","base":900},{"cover":"BKN","base":1400},{"cover":"FEW","base":2400},{"cover":"BKN","base":6000}],"obsTime":1776004080},"SBFZ":{"icaoId":"SBFZ","flightCategory":"VFR","rawOb":"METAR SBFZ 121500Z 09011KT 9999 VCSH FEW020 FEW025TCU BKN100 29/24 Q1012","temp":29,"dewp":24,"wdir":90,"wspd":11,"visib":"6+","altim":1012,"clouds":[{"cover":"FEW","base":2000},{"cover":"FEW","base":2500},{"cover":"BKN","base":10000}],"obsTime":1776006000},"SBBE":{"icaoId":"SBBE","flightCategory":"MVFR","rawOb":"METAR SBBE 121500Z 07007KT 9999 BKN025 31/24 Q1012","temp":31,"dewp":24,"wdir":70,"wspd":7,"visib":"6+","altim":1012,"clouds":[{"cover":"BKN","base":2500}],"obsTime":1776006000},"SBMG":{"icaoId":"SBMG","flightCategory":"VFR","rawOb":"METAR SBMG 121500Z 04010KT 010V070 CAVOK 27/18 Q1018","temp":27,"dewp":18,"wdir":40,"wspd":10,"visib":"6+","altim":1018,"clouds":[],"obsTime":1776006000},"SBFL":{"icaoId":"SBFL","flightCategory":"VFR","rawOb":"METAR SBFL 121500Z 35006KT 230V020 CAVOK 24/20 Q1020","temp":24,"dewp":20,"wdir":350,"wspd":6,"visib":"6+","altim":1020,"clouds":[],"obsTime":1776006000},"SBMK":{"icaoId":"SBMK","flightCategory":"VFR","rawOb":"METAR SBMK 121500Z 09008KT 9999 SCT038 BKN070 26/19 Q1020","temp":26,"dewp":19,"wdir":90,"wspd":8,"visib":"6+","altim":1020,"clouds":[{"cover":"SCT","base":3800},{"cover":"BKN","base":7000}],"obsTime":1776006000},"SBCG":{"icaoId":"SBCG","flightCategory":"VFR","rawOb":"METAR SBCG 121500Z 04014KT 9999 FEW035 31/22 Q1017","temp":31,"dewp":22,"wdir":40,"wspd":14,"visib":"6+","altim":1017,"clouds":[{"cover":"FEW","base":3500}],"obsTime":1776006000},"SBMO":{"icaoId":"SBMO","flightCategory":"VFR","rawOb":"METAR SBMO 121500Z 11008KT 070V160 9999 SCT036 FEW040TCU BKN080 30/21 Q1013","temp":30,"dewp":21,"wdir":110,"wspd":8,"visib":"6+","altim":1013,"clouds":[{"cover":"SCT","base":3600},{"cover":"FEW","base":4000},{"cover":"BKN","base":8000}],"obsTime":1776006000},"SBBV":{"icaoId":"SBBV","flightCategory":"VFR","rawOb":"METAR SBBV 121500Z 10020G31KT 9999 SCT040 32/21 Q1014","temp":32,"dewp":21,"wdir":100,"wspd":20,"visib":"6+","altim":1014,"clouds":[{"cover":"SCT","base":4000}],"obsTime":1776006000},"SBMQ":{"icaoId":"SBMQ","flightCategory":"VFR","rawOb":"METAR SBMQ 121500Z 03007KT 9999 SCT025 31/26 Q1013","temp":31,"dewp":26,"wdir":30,"wspd":7,"visib":"6+","altim":1013,"clouds":[{"cover":"SCT","base":2500}],"obsTime":1776006000},"SBNT":{"icaoId":"SBNT","flightCategory":"MVFR","rawOb":"METAR SBNT 121500Z 15009KT 120V180 9999 VCSH BKN025 FEW027TCU BKN100 30/24 Q1012","temp":30,"dewp":24,"wdir":150,"wspd":9,"visib":"6+","altim":1012,"clouds":[{"cover":"BKN","base":2500},{"cover":"FEW","base":2700},{"cover":"BKN","base":10000}],"obsTime":1776006000},"SBPA":{"icaoId":"SBPA","flightCategory":"VFR","rawOb":"METAR SBPA 121500Z 33007KT 310V010 CAVOK 24/16 Q1018","temp":24,"dewp":16,"wdir":330,"wspd":7,"visib":"6+","altim":1018,"clouds":[],"obsTime":1776006000},"SBCP":{"icaoId":"SBCP","flightCategory":"MVFR","rawOb":"METAR SBCP 121500Z 26003KT 9999 -RA BKN015 BKN090 24/24 Q1020","temp":24,"dewp":24,"wdir":260,"wspd":3,"visib":"6+","altim":1020,"clouds":[{"cover":"BKN","base":1500},{"cover":"BKN","base":9000}],"obsTime":1776006000},"SBPJ":{"icaoId":"SBPJ","flightCategory":"VFR","rawOb":"METAR SBPJ 121500Z 26006KT 9999 SCT020 29/24 Q1015","temp":29,"dewp":24,"wdir":260,"wspd":6,"visib":"6+","altim":1015,"clouds":[{"cover":"SCT","base":2000}],"obsTime":1776006000},"SBGL":{"icaoId":"SBGL","flightCategory":"VFR","rawOb":"METAR SBGL 121500Z 05007KT 360V100 9999 SCT025 27/21 Q1020","temp":27,"dewp":21,"wdir":50,"wspd":7,"visib":"6+","altim":1020,"clouds":[{"cover":"SCT","base":2500}],"obsTime":1776006000},"SBPV":{"icaoId":"SBPV","flightCategory":"VFR","rawOb":"METAR SBPV 121500Z 01005KT 9999 SCT030 29/26 Q1013","temp":29,"dewp":26,"wdir":10,"wspd":5,"visib":"6+","altim":1013,"clouds":[{"cover":"SCT","base":3000}],"obsTime":1776006000},"SBAT":{"icaoId":"SBAT","flightCategory":"VFR","rawOb":"METAR SBAT 121500Z 04002KT 9999 SCT025 31/25 Q1015","temp":31,"dewp":25,"wdir":40,"wspd":2,"visib":"6+","altim":1015,"clouds":[{"cover":"SCT","base":2500}],"obsTime":1776006000},"SBRB":{"icaoId":"SBRB","flightCategory":"VFR","rawOb":"METAR SBRB 121500Z 29002KT 9999 SCT008 SCT020 BKN090 28/26 Q1015","temp":28,"dewp":26,"wdir":290,"wspd":2,"visib":"6+","altim":1015,"clouds":[{"cover":"SCT","base":800},{"cover":"SCT","base":2000},{"cover":"BKN","base":9000}],"obsTime":1776006000},"SBVT":{"icaoId":"SBVT","flightCategory":"MVFR","rawOb":"METAR SBVT 121500Z 19007KT 9999 BKN013 OVC050 23/21 Q1019","temp":23,"dewp":21,"wdir":190,"wspd":7,"visib":"6+","altim":1019,"clouds":[{"cover":"BKN","base":1300},{"cover":"OVC","base":5000}],"obsTime":1776006000},"SBEG":{"icaoId":"SBEG","flightCategory":"VFR","rawOb":"METAR SBEG 121500Z 08004KT 010V130 9999 SCT012 SCT018 FEW025TCU BKN060 29/25 Q1015","temp":29,"dewp":25,"wdir":80,"wspd":4,"visib":"6+","altim":1015,"clouds":[{"cover":"SCT","base":1200},{"cover":"SCT","base":1800},{"cover":"FEW","base":2500},{"cover":"BKN","base":6000}],"obsTime":1776006000},"SBFI":{"icaoId":"SBFI","flightCategory":"IFR","rawOb":"METAR SBFI 121500Z 11006KT 4000 -TSRA FEW006 SCT015 FEW035CB BKN070 18/18 Q1020","temp":18,"dewp":18,"wdir":110,"wspd":6,"visib":2.49,"altim":1020,"clouds":[{"cover":"FEW","base":600},{"cover":"SCT","base":1500},{"cover":"FEW","base":3500},{"cover":"BKN","base":7000}],"obsTime":1776006000},"SBME":{"icaoId":"SBME","flightCategory":"VFR","rawOb":"METAR SBME 121500Z 20006KT 9999 SCT025 SCT070 28/21 Q1020","temp":28,"dewp":21,"wdir":200,"wspd":6,"visib":"6+","altim":1020,"clouds":[{"cover":"SCT","base":2500},{"cover":"SCT","base":7000}],"obsTime":1776006000},"SBMA":{"icaoId":"SBMA","flightCategory":"VFR","rawOb":"METAR SBMA 121500Z 18005KT 9999 SCT020 FEW025TCU 28/24 Q1014","temp":28,"dewp":24,"wdir":180,"wspd":5,"visib":"6+","altim":1014,"clouds":[{"cover":"SCT","base":2000},{"cover":"FEW","base":2500}],"obsTime":1776006000},"SBGO":{"icaoId":"SBGO","flightCategory":"MVFR","rawOb":"METAR SBGO 121500Z 07009KT 030V110 9999 BKN030 28/20 Q1020","temp":28,"dewp":20,"wdir":70,"wspd":9,"visib":"6+","altim":1020,"clouds":[{"cover":"BKN","base":3000}],"obsTime":1776006000},"SBUR":{"icaoId":"SBUR","flightCategory":"VFR","rawOb":"METAR SBUR 121500Z 12006KT 9999 BKN040 27/18 Q1020","temp":27,"dewp":18,"wdir":120,"wspd":6,"visib":"6+","altim":1020,"clouds":[{"cover":"BKN","base":4000}],"obsTime":1776006000},"SBCR":{"icaoId":"SBCR","flightCategory":"VFR","rawOb":"METAR SBCR 121500Z 07005KT 030V130 9999 SCT035 33/23 Q1013","temp":33,"dewp":23,"wdir":70,"wspd":5,"visib":"6+","altim":1013,"clouds":[{"cover":"SCT","base":3500}],"obsTime":1776006000},"SBSG":{"icaoId":"SBSG","flightCategory":"MVFR","rawOb":"METAR SBSG 121500Z 14004KT 100V170 8000 -RA BKN025 BKN050 26/25 Q1012","temp":26,"dewp":25,"wdir":140,"wspd":4,"visib":4.97,"altim":1012,"clouds":[{"cover":"BKN","base":2500},{"cover":"BKN","base":5000}],"obsTime":1776006000},"SBGR":{"icaoId":"SBGR","flightCategory":"VFR","rawOb":"METAR SBGR 121500Z 06007KT CAVOK 24/15 Q1022","temp":24,"dewp":15,"wdir":60,"wspd":7,"visib":"6+","altim":1022,"clouds":[],"obsTime":1776006000},"SBSL":{"icaoId":"SBSL","flightCategory":"VFR","rawOb":"METAR SBSL 121500Z 09011KT 050V110 9999 BKN033 31/24 Q1012","temp":31,"dewp":24,"wdir":90,"wspd":11,"visib":"6+","altim":1012,"clouds":[{"cover":"BKN","base":3300}],"obsTime":1776006000},"SBCB":{"icaoId":"SBCB","flightCategory":"VFR","rawOb":"METAR SBCB 121500Z 08009KT 9999 SCT015 27/21 Q1020","temp":27,"dewp":21,"wdir":80,"wspd":9,"visib":"6+","altim":1020,"clouds":[{"cover":"SCT","base":1500}],"obsTime":1776006000},"SBSN":{"icaoId":"SBSN","flightCategory":"VFR","rawOb":"METAR SBSN 121500Z 10011KT 9999 SCT023 FEW040TCU 30/24 Q1014","temp":30,"dewp":24,"wdir":100,"wspd":11,"visib":"6+","altim":1014,"clouds":[{"cover":"SCT","base":2300},{"cover":"FEW","base":4000}],"obsTime":1776006000},"SBHT":{"icaoId":"SBHT","flightCategory":"MVFR","rawOb":"METAR SBHT 121500Z 13004KT 9999 BKN025 31/23 Q1014","temp":31,"dewp":23,"wdir":130,"wspd":4,"visib":"6+","altim":1014,"clouds":[{"cover":"BKN","base":2500}],"obsTime":1776006000},"SBSP":{"icaoId":"SBSP","flightCategory":"VFR","rawOb":"METAR SBSP 121500Z 06006KT 350V130 9999 FEW040 24/14 Q1023","temp":24,"dewp":14,"wdir":60,"wspd":6,"visib":"6+","altim":1023,"clouds":[{"cover":"FEW","base":4000}],"obsTime":1776006000},"SBCT":{"icaoId":"SBCT","flightCategory":"VFR","rawOb":"METAR SBCT 121500Z 09009KT 9999 SCT030 23/12 Q1024","temp":23,"dewp":12,"wdir":90,"wspd":9,"visib":"6+","altim":1024,"clouds":[{"cover":"SCT","base":3000}],"obsTime":1776006000},"SBSV":{"icaoId":"SBSV","flightCategory":"VFR","rawOb":"METAR SBSV 121500Z 13005KT 9999 SCT023 30/24 Q1014","temp":30,"dewp":24,"wdir":130,"wspd":5,"visib":"6+","altim":1014,"clouds":[{"cover":"SCT","base":2300}],"obsTime":1776006000},"SBIL":{"icaoId":"SBIL","flightCategory":"VFR","rawOb":"METAR SBIL 121500Z 18007KT 130V200 9999 FEW020 28/23 Q1016","temp":28,"dewp":23,"wdir":180,"wspd":7,"visib":"6+","altim":1016,"clouds":[{"cover":"FEW","base":2000}],"obsTime":1776006000},"SBTE":{"icaoId":"SBTE","flightCategory":"MVFR","rawOb":"METAR SBTE 121500Z 09006KT 9999 BKN025 31/23 Q1012","temp":31,"dewp":23,"wdir":90,"wspd":6,"visib":"6+","altim":1012,"clouds":[{"cover":"BKN","base":2500}],"obsTime":1776006000},"SBCZ":{"icaoId":"SBCZ","flightCategory":"MVFR","rawOb":"METAR SBCZ 121500Z 08003KT 9999 FEW008 BKN015 BKN090 27/24 Q1015","temp":27,"dewp":24,"wdir":80,"wspd":3,"visib":"6+","altim":1015,"clouds":[{"cover":"FEW","base":800},{"cover":"BKN","base":1500},{"cover":"BKN","base":9000}],"obsTime":1776006000},"SBUL":{"icaoId":"SBUL","flightCategory":"VFR","rawOb":"METAR SBUL 121500Z 09011KT 050V120 9999 FEW026 SCT029 25/18 Q1022","temp":25,"dewp":18,"wdir":90,"wspd":11,"visib":"6+","altim":1022,"clouds":[{"cover":"FEW","base":2600},{"cover":"SCT","base":2900}],"obsTime":1776006000},"SBJU":{"icaoId":"SBJU","flightCategory":"VFR","rawOb":"METAR SBJU 121500Z 14009KT 9999 SCT022 30/22 Q1014","temp":30,"dewp":22,"wdir":140,"wspd":9,"visib":"6+","altim":1014,"clouds":[{"cover":"SCT","base":2200}],"obsTime":1776006000},"SBBR":{"icaoId":"SBBR","flightCategory":"MVFR","rawOb":"METAR SBBR 121500Z 11011KT 070V140 9999 BKN030 FEW040TCU 25/19 Q1021","temp":25,"dewp":19,"wdir":110,"wspd":11,"visib":"6+","altim":1021,"clouds":[{"cover":"BKN","base":3000},{"cover":"FEW","base":4000}],"obsTime":1776006000},"SBKP":{"icaoId":"SBKP","flightCategory":"VFR","rawOb":"METAR SBKP 121500Z VRB03KT 9999 FEW045 28/16 Q1021","temp":28,"dewp":16,"wdir":"VRB","wspd":3,"visib":"6+","altim":1021,"clouds":[{"cover":"FEW","base":4500}],"obsTime":1776006000},"SBCF":{"icaoId":"SBCF","flightCategory":"MVFR","rawOb":"METAR SBCF 121500Z 11009KT 9999 BKN030 24/17 Q1022","temp":24,"dewp":17,"wdir":110,"wspd":9,"visib":"6+","altim":1022,"clouds":[{"cover":"BKN","base":3000}],"obsTime":1776006000},"SBLO":{"icaoId":"SBLO","flightCategory":"VFR","rawOb":"METAR SBLO 121500Z 08006KT 9999 FEW030 25/18 Q1020","temp":25,"dewp":18,"wdir":80,"wspd":6,"visib":"6+","altim":1020,"clouds":[{"cover":"FEW","base":3000}],"obsTime":1776006000},"SBBH":{"icaoId":"SBBH","flightCategory":"VFR","rawOb":"METAR SBBH 121500Z 09008KT 9999 SCT036 24/17 Q1022","temp":24,"dewp":17,"wdir":90,"wspd":8,"visib":"6+","altim":1022,"clouds":[{"cover":"SCT","base":3600}],"obsTime":1776006000},"SBCJ":{"icaoId":"SBCJ","flightCategory":"MVFR","rawOb":"METAR SBCJ 121500Z 05002KT 9999 BKN012 26/22 Q1018","temp":26,"dewp":22,"wdir":50,"wspd":2,"visib":"6+","altim":1018,"clouds":[{"cover":"BKN","base":1200}],"obsTime":1776006000},"SBOI":{"icaoId":"SBOI","flightCategory":"VFR","rawOb":"METAR SBOI 121500Z AUTO 04010KT 360V080 9999 FEW024 31/25 Q1014","temp":31,"dewp":25,"wdir":40,"wspd":10,"visib":"6+","altim":1014,"clouds":[{"cover":"FEW","base":2400}],"obsTime":1776006000},"SBKG":{"icaoId":"SBKG","flightCategory":"MVFR","rawOb":"METAR SBKG 121500Z 14008KT 080V210 9999 BKN025 SCT080 29/21 Q1014","temp":29,"dewp":21,"wdir":140,"wspd":8,"visib":"6+","altim":1014,"clouds":[{"cover":"BKN","base":2500},{"cover":"SCT","base":8000}],"obsTime":1776006000},"SBPB":{"icaoId":"SBPB","flightCategory":"VFR","rawOb":"METAR SBPB 121500Z 05011KT 9999 SCT020 31/25 Q1012","temp":31,"dewp":25,"wdir":50,"wspd":11,"visib":"6+","altim":1012,"clouds":[{"cover":"SCT","base":2000}],"obsTime":1776006000},"SBAR":{"icaoId":"SBAR","flightCategory":"VFR","rawOb":"METAR SBAR 121500Z 13013KT 9999 SCT021 BKN070 30/23 Q1013","temp":30,"dewp":23,"wdir":130,"wspd":13,"visib":"6+","altim":1013,"clouds":[{"cover":"SCT","base":2100},{"cover":"BKN","base":7000}],"obsTime":1776006000},"SBPL":{"icaoId":"SBPL","flightCategory":"VFR","rawOb":"METAR SBPL 121500Z 09010KT 9999 SCT022 SCT070 30/21 Q1014","temp":30,"dewp":21,"wdir":90,"wspd":10,"visib":"6+","altim":1014,"clouds":[{"cover":"SCT","base":2200},{"cover":"SCT","base":7000}],"obsTime":1776006000},"SBBU":{"icaoId":"SBBU","flightCategory":"VFR","rawOb":"METAR SBBU 121500Z 12009KT CAVOK 28/19 Q1020","temp":28,"dewp":19,"wdir":120,"wspd":9,"visib":"6+","altim":1020,"clouds":[],"obsTime":1776006000},"SBPP":{"icaoId":"SBPP","flightCategory":"VFR","rawOb":"METAR SBPP 121500Z 03013KT 9999 FEW015 27/21 Q1018","temp":27,"dewp":21,"wdir":30,"wspd":13,"visib":"6+","altim":1018,"clouds":[{"cover":"FEW","base":1500}],"obsTime":1776006000},"SBCO":{"icaoId":"SBCO","flightCategory":"VFR","rawOb":"METAR SBCO 121500Z 32006KT CAVOK 24/16 Q1018","temp":24,"dewp":16,"wdir":320,"wspd":6,"visib":"6+","altim":1018,"clouds":[],"obsTime":1776006000},"SBPS":{"icaoId":"SBPS","flightCategory":"VFR","rawOb":"METAR SBPS 121500Z 15006KT 090V200 9999 SCT009 BKN070 25/23 Q1016","temp":25,"dewp":23,"wdir":150,"wspd":6,"visib":"6+","altim":1016,"clouds":[{"cover":"SCT","base":900},{"cover":"BKN","base":7000}],"obsTime":1776006000},"SBAX":{"icaoId":"SBAX","flightCategory":"MVFR","rawOb":"METAR SBAX 121500Z AUTO 08009KT 030V120 9999 BKN026 23/16 Q1022","temp":23,"dewp":16,"wdir":80,"wspd":9,"visib":"6+","altim":1022,"clouds":[{"cover":"BKN","base":2600}],"obsTime":1776006000},"SBSC":{"icaoId":"SBSC","flightCategory":"VFR","rawOb":"METAR SBSC 121500Z 03003KT 9999 SCT030 SCT070 28/19 Q1020","temp":28,"dewp":19,"wdir":30,"wspd":3,"visib":"6+","altim":1020,"clouds":[{"cover":"SCT","base":3000},{"cover":"SCT","base":7000}],"obsTime":1776006000},"SBSJ":{"icaoId":"SBSJ","flightCategory":"VFR","rawOb":"METAR SBSJ 121500Z 06005KT 340V120 9999 FEW025 25/16 Q1022","temp":25,"dewp":16,"wdir":60,"wspd":5,"visib":"6+","altim":1022,"clouds":[{"cover":"FEW","base":2500}],"obsTime":1776006000},"SBDN":{"icaoId":"SBDN","flightCategory":"VFR","rawOb":"METAR SBDN 121500Z 04008KT CAVOK 29/19 Q1018","temp":29,"dewp":19,"wdir":40,"wspd":8,"visib":"6+","altim":1018,"clouds":[],"obsTime":1776006000},"SBCA":{"icaoId":"SBCA","flightCategory":"VFR","rawOb":"METAR SBCA 121500Z 23006KT 9999 FEW005 SCT030 FEW035TCU BKN080 20/15 Q1022","temp":20,"dewp":15,"wdir":230,"wspd":6,"visib":"6+","altim":1022,"clouds":[{"cover":"FEW","base":500},{"cover":"SCT","base":3000},{"cover":"FEW","base":3500},{"cover":"BKN","base":8000}],"obsTime":1776006000},"SBSM":{"icaoId":"SBSM","flightCategory":"MVFR","rawOb":"METAR SBSM 121500Z VRB04KT 6000 RA FEW020 SCT040 BKN090 21/19 Q1017","temp":21,"dewp":19,"wdir":"VRB","wspd":4,"visib":3.73,"altim":1017,"clouds":[{"cover":"FEW","base":2000},{"cover":"SCT","base":4000},{"cover":"BKN","base":9000}],"obsTime":1776006000},"SBES":{"icaoId":"SBES","flightCategory":"VFR","rawOb":"METAR SBES 121500Z VRB05KT 9999 FEW015 SCT020 24/// Q1020","temp":null,"dewp":null,"wdir":"VRB","wspd":5,"visib":"6+","altim":1020,"clouds":[{"cover":"FEW","base":1500},{"cover":"SCT","base":2000}],"obsTime":1776006000},"SBSR":{"icaoId":"SBSR","flightCategory":"VFR","rawOb":"METAR SBSR 121500Z 07008KT 020V100 CAVOK 29/18 Q1019","temp":29,"dewp":18,"wdir":70,"wspd":8,"visib":"6+","altim":1019,"clouds":[],"obsTime":1776006000},"SBBQ":{"icaoId":"SBBQ","flightCategory":"MVFR","rawOb":"METAR SBBQ 121500Z 10007KT 9999 BKN020 19/15 Q1026","temp":19,"dewp":15,"wdir":100,"wspd":7,"visib":"6+","altim":1026,"clouds":[{"cover":"BKN","base":2000}],"obsTime":1776006000},"SBTF":{"icaoId":"SBTF","flightCategory":"VFR","rawOb":"METAR SBTF 121500Z 06002KT 9999 SCT015 SCT100 32/26 Q1013","temp":32,"dewp":26,"wdir":60,"wspd":2,"visib":"6+","altim":1013,"clouds":[{"cover":"SCT","base":1500},{"cover":"SCT","base":10000}],"obsTime":1776006000},"SBGM":{"icaoId":"SBGM","flightCategory":"MVFR","rawOb":"METAR SBGM 121500Z 29005KT 9999 SCT015 BKN020 30/24 Q1014","temp":30,"dewp":24,"wdir":290,"wspd":5,"visib":"6+","altim":1014,"clouds":[{"cover":"SCT","base":1500},{"cover":"BKN","base":2000}],"obsTime":1776006000},"SBTT":{"icaoId":"SBTT","flightCategory":"MVFR","rawOb":"METAR SBTT 121500Z 34006KT 9999 BKN015 BKN080 27/23 Q1015","temp":27,"dewp":23,"wdir":340,"wspd":6,"visib":"6+","altim":1015,"clouds":[{"cover":"BKN","base":1500},{"cover":"BKN","base":8000}],"obsTime":1776006000},"SBCC":{"icaoId":"SBCC","flightCategory":"VFR","rawOb":"METAR SBCC 121500Z 01006KT 9999 SCT030 BKN100 28/22 Q1015","temp":28,"dewp":22,"wdir":10,"wspd":6,"visib":"6+","altim":1015,"clouds":[{"cover":"SCT","base":3000},{"cover":"BKN","base":10000}],"obsTime":1776006000},"SBUY":{"icaoId":"SBUY","flightCategory":"VFR","rawOb":"METAR SBUY 121500Z 31002KT 9999 SCT020 BKN100 30/25 Q1013","temp":30,"dewp":25,"wdir":310,"wspd":2,"visib":"6+","altim":1013,"clouds":[{"cover":"SCT","base":2000},{"cover":"BKN","base":10000}],"obsTime":1776006000},"SBIP":{"icaoId":"SBIP","flightCategory":"VFR","rawOb":"METAR SBIP 121500Z AUTO VRB03KT 9999 BKN032 27/19 Q1020","temp":27,"dewp":19,"wdir":"VRB","wspd":3,"visib":"6+","altim":1020,"clouds":[{"cover":"BKN","base":3200}],"obsTime":1776006000},"SBVH":{"icaoId":"SBVH","flightCategory":"VFR","rawOb":"METAR SBVH 121500Z 06007KT 9999 FEW020 SCT030 29/23 Q1017","temp":29,"dewp":23,"wdir":60,"wspd":7,"visib":"6+","altim":1017,"clouds":[{"cover":"FEW","base":2000},{"cover":"SCT","base":3000}],"obsTime":1776006000},"SBJP":{"icaoId":"SBJP","flightCategory":"IFR","rawOb":"METAR SBJP 121500Z 14009KT 3000 -RA BKN010 BKN030 27/25 Q1013","temp":27,"dewp":25,"wdir":140,"wspd":9,"visib":1.86,"altim":1013,"clouds":[{"cover":"BKN","base":1000},{"cover":"BKN","base":3000}],"obsTime":1776006000},"SBAN":{"icaoId":"SBAN","flightCategory":"MVFR","rawOb":"METAR SBAN 121500Z 12009KT 9999 BKN025 24/18 Q1022","temp":24,"dewp":18,"wdir":120,"wspd":9,"visib":"6+","altim":1022,"clouds":[{"cover":"BKN","base":2500}],"obsTime":1776006000},"SBJV":{"icaoId":"SBJV","flightCategory":"VFR","rawOb":"METAR SBJV 121500Z 16004KT 9999 SCT020 26/21 Q1021","temp":26,"dewp":21,"wdir":160,"wspd":4,"visib":"6+","altim":1021,"clouds":[{"cover":"SCT","base":2000}],"obsTime":1776006000},"SBNM":{"icaoId":"SBNM","flightCategory":"VFR","rawOb":"METAR SBNM 121500Z 05020KT 9999 SCT005 SCT020 BKN070 21/18 Q1017","temp":21,"dewp":18,"wdir":50,"wspd":20,"visib":"6+","altim":1017,"clouds":[{"cover":"SCT","base":500},{"cover":"SCT","base":2000},{"cover":"BKN","base":7000}],"obsTime":1776006000},"SBLE":{"icaoId":"SBLE","flightCategory":"VFR","rawOb":"METAR SBLE 121500Z AUTO 23005KT 180V280 9999 FEW029 SCT041 27/20 Q1017","temp":27,"dewp":20,"wdir":230,"wspd":5,"visib":"6+","altim":1017,"clouds":[{"cover":"FEW","base":2900},{"cover":"SCT","base":4100}],"obsTime":1776006000},"SBTC":{"icaoId":"SBTC","flightCategory":"VFR","rawOb":"METAR SBTC 121500Z 20006KT 9999 SCT025 28/23 Q1016","temp":28,"dewp":23,"wdir":200,"wspd":6,"visib":"6+","altim":1016,"clouds":[{"cover":"SCT","base":2500}],"obsTime":1776006000},"SBIH":{"icaoId":"SBIH","flightCategory":"VFR","rawOb":"METAR SBIH 121500Z 06004KT 9999 SCT016 FEW023TCU 29/26 Q1014","temp":29,"dewp":26,"wdir":60,"wspd":4,"visib":"6+","altim":1014,"clouds":[{"cover":"SCT","base":1600},{"cover":"FEW","base":2300}],"obsTime":1776006000},"SBAF":{"icaoId":"SBAF","flightCategory":"VFR","rawOb":"METAR SBAF 121500Z 09007KT 020V130 9999 SCT033 27/21 Q1020","temp":27,"dewp":21,"wdir":90,"wspd":7,"visib":"6+","altim":1020,"clouds":[{"cover":"SCT","base":3300}],"obsTime":1776006000},"SBGW":{"icaoId":"SBGW","flightCategory":"VFR","rawOb":"METAR SBGW 121500Z VRB05KT 9999 SCT033 27/16 Q1021","temp":27,"dewp":16,"wdir":"VRB","wspd":5,"visib":"6+","altim":1021,"clouds":[{"cover":"SCT","base":3300}],"obsTime":1776006000},"SBJR":{"icaoId":"SBJR","flightCategory":"MVFR","rawOb":"METAR SBJR 121500Z 36004KT 9999 FEW025 BKN030 30/20 Q1020","temp":30,"dewp":20,"wdir":360,"wspd":4,"visib":"6+","altim":1020,"clouds":[{"cover":"FEW","base":2500},{"cover":"BKN","base":3000}],"obsTime":1776006000},"SBLS":{"icaoId":"SBLS","flightCategory":"MVFR","rawOb":"METAR SBLS 121500Z 14010KT 060V150 9999 BKN030 24/17 Q1022","temp":24,"dewp":17,"wdir":140,"wspd":10,"visib":"6+","altim":1022,"clouds":[{"cover":"BKN","base":3000}],"obsTime":1776006000},"SBMT":{"icaoId":"SBMT","flightCategory":"VFR","rawOb":"METAR SBMT 121500Z 12007KT 070V160 9999 FEW020 24/15 Q1022","temp":24,"dewp":15,"wdir":120,"wspd":7,"visib":"6+","altim":1022,"clouds":[{"cover":"FEW","base":2000}],"obsTime":1776006000},"SBST":{"icaoId":"SBST","flightCategory":"VFR","rawOb":"METAR SBST 121500Z 14007KT 9999 FEW020 27/20 Q1019","temp":27,"dewp":20,"wdir":140,"wspd":7,"visib":"6+","altim":1019,"clouds":[{"cover":"FEW","base":2000}],"obsTime":1776006000},"SBTA":{"icaoId":"SBTA","flightCategory":"VFR","rawOb":"METAR SBTA 121500Z 07012KT 030V090 9999 FEW030 25/15 Q1021","temp":25,"dewp":15,"wdir":70,"wspd":12,"visib":"6+","altim":1021,"clouds":[{"cover":"FEW","base":3000}],"obsTime":1776006000}}}