{"updated":1775600752,"count":80,"data":{"SBMQ":{"icaoId":"SBMQ","flightCategory":"VFR","rawOb":"METAR SBMQ 072100Z 04006KT 9999 SCT019 FEW034TCU 28/26 Q1011","temp":28,"dewp":26,"wdir":40,"wspd":6,"visib":"6+","altim":1011,"clouds":[{"cover":"SCT","base":1900},{"cover":"FEW","base":3400}],"obsTime":1775595600},"SBMG":{"icaoId":"SBMG","flightCategory":"VFR","rawOb":"METAR SBMG 072100Z 36006KT 9999 FEW040 FEW040TCU 29/20 Q1011 RETS","temp":29,"dewp":20,"wdir":360,"wspd":6,"visib":"6+","altim":1011,"clouds":[{"cover":"FEW","base":4000},{"cover":"FEW","base":4000}],"obsTime":1775595600},"SBFI":{"icaoId":"SBFI","flightCategory":"VFR","rawOb":"METAR SBFI 072100Z 04003KT 9999 VCTS FEW005 SCT030 FEW035CB BKN080 23/23 Q1010","temp":23,"dewp":23,"wdir":40,"wspd":3,"visib":"6+","altim":1010,"clouds":[{"cover":"FEW","base":500},{"cover":"SCT","base":3000},{"cover":"FEW","base":3500},{"cover":"BKN","base":8000}],"obsTime":1775595600},"SBBV":{"icaoId":"SBBV","flightCategory":"VFR","rawOb":"METAR SBBV 072100Z 03006KT 9999 SCT040 FEW045TCU 31/22 Q1008","temp":31,"dewp":22,"wdir":30,"wspd":6,"visib":"6+","altim":1008,"clouds":[{"cover":"SCT","base":4000},{"cover":"FEW","base":4500}],"obsTime":1775595600},"SBMK":{"icaoId":"SBMK","flightCategory":"VFR","rawOb":"METAR SBMK 072100Z 08006KT CAVOK 28/18 Q1016","temp":28,"dewp":18,"wdir":80,"wspd":6,"visib":"6+","altim":1016,"clouds":[],"obsTime":1775595600},"SBFL":{"icaoId":"SBFL","flightCategory":"MVFR","rawOb":"METAR SBFL 072100Z 36009G21KT 9999 BKN017 27/24 Q1009","temp":27,"dewp":24,"wdir":360,"wspd":9,"visib":"6+","altim":1009,"clouds":[{"cover":"BKN","base":1700}],"obsTime":1775595600},"SBMO":{"icaoId":"SBMO","flightCategory":"MVFR","rawOb":"METAR SBMO 072100Z 08008G21KT 7000 -RA FEW013 SCT020 FEW025TCU BKN080 25/24 Q1014","temp":25,"dewp":24,"wdir":80,"wspd":8,"visib":4.35,"altim":1014,"clouds":[{"cover":"FEW","base":1300},{"cover":"SCT","base":2000},{"cover":"FEW","base":2500},{"cover":"BKN","base":8000}],"obsTime":1775595600},"SBCG":{"icaoId":"SBCG","flightCategory":"LIFR","rawOb":"SPECI SBCG 072042Z 30009KT 270V020 1000 R24///// R06/P2000N +TSRA FEW013 BKN018 FEW035CB BKN070 22/21 Q1016 RERA","temp":22,"dewp":21,"wdir":300,"wspd":9,"visib":0.62,"altim":1016,"clouds":[{"cover":"FEW","base":1300},{"cover":"BKN","base":1800},{"cover":"FEW","base":3500},{"cover":"BKN","base":7000}],"obsTime":1775594520},"SBCZ":{"icaoId":"SBCZ","flightCategory":"VFR","rawOb":"METAR SBCZ 072100Z 12005KT 020V180 9999 FEW030 FEW035TCU 30/24 Q1008","temp":30,"dewp":24,"wdir":120,"wspd":5,"visib":"6+","altim":1008,"clouds":[{"cover":"FEW","base":3000},{"cover":"FEW","base":3500}],"obsTime":1775595600},"SBVT":{"icaoId":"SBVT","flightCategory":"VFR","rawOb":"METAR SBVT 072100Z 06005KT 9999 FEW025 26/24 Q1015","temp":26,"dewp":24,"wdir":60,"wspd":5,"visib":"6+","altim":1015,"clouds":[{"cover":"FEW","base":2500}],"obsTime":1775595600},"SBUL":{"icaoId":"SBUL","flightCategory":"VFR","rawOb":"METAR SBUL 072100Z 30004KT 9999 4000W -TSRA SCT025 FEW035CB BKN080 24/19 Q1019","temp":24,"dewp":19,"wdir":300,"wspd":4,"visib":"6+","altim":1019,"clouds":[{"cover":"SCT","base":2500},{"cover":"FEW","base":3500},{"cover":"BKN","base":8000}],"obsTime":1775595600},"SBKP":{"icaoId":"SBKP","flightCategory":"VFR","rawOb":"METAR SBKP 072100Z 01004KT 9999 FEW050TCU 28/21 Q1016","temp":28,"dewp":21,"wdir":10,"wspd":4,"visib":"6+","altim":1016,"clouds":[{"cover":"FEW","base":5000}],"obsTime":1775595600},"SBLO":{"icaoId":"SBLO","flightCategory":"VFR","rawOb":"METAR SBLO 072100Z 02008KT 9999 FEW030 29/21 Q1012","temp":29,"dewp":21,"wdir":20,"wspd":8,"visib":"6+","altim":1012,"clouds":[{"cover":"FEW","base":3000}],"obsTime":1775595600},"SBEG":{"icaoId":"SBEG","flightCategory":"VFR","rawOb":"METAR SBEG 072100Z 11006KT 9999 VCSH VCTS SCT020 FEW025CB SCT080 27/25 Q1009","temp":27,"dewp":25,"wdir":110,"wspd":6,"visib":"6+","altim":1009,"clouds":[{"cover":"SCT","base":2000},{"cover":"FEW","base":2500},{"cover":"SCT","base":8000}],"obsTime":1775595600},"SBMA":{"icaoId":"SBMA","flightCategory":"VFR","rawOb":"METAR SBMA 072100Z 26003KT 9999 FEW020 SCT023TCU 32/23 Q1009","temp":32,"dewp":23,"wdir":260,"wspd":3,"visib":"6+","altim":1009,"clouds":[{"cover":"FEW","base":2000},{"cover":"SCT","base":2300}],"obsTime":1775595600},"SBNT":{"icaoId":"SBNT","flightCategory":"VFR","rawOb":"METAR SBNT 072100Z 15005KT 9999 SCT017 FEW020TCU 27/25 Q1013","temp":27,"dewp":25,"wdir":150,"wspd":5,"visib":"6+","altim":1013,"clouds":[{"cover":"SCT","base":1700},{"cover":"FEW","base":2000}],"obsTime":1775595600},"SBFZ":{"icaoId":"SBFZ","flightCategory":"VFR","rawOb":"METAR SBFZ 072100Z 09006KT 9999 FEW016 SCT100 27/24 Q1011","temp":27,"dewp":24,"wdir":90,"wspd":6,"visib":"6+","altim":1011,"clouds":[{"cover":"FEW","base":1600},{"cover":"SCT","base":10000}],"obsTime":1775595600},"SBBR":{"icaoId":"SBBR","flightCategory":"VFR","rawOb":"METAR SBBR 072100Z 07004KT 9999 VCTS SCT040 FEW045CB SCT100 26/18 Q1019","temp":26,"dewp":18,"wdir":70,"wspd":4,"visib":"6+","altim":1019,"clouds":[{"cover":"SCT","base":4000},{"cover":"FEW","base":4500},{"cover":"SCT","base":10000}],"obsTime":1775595600},"SBPA":{"icaoId":"SBPA","flightCategory":"MVFR","rawOb":"METAR SBPA 072100Z 07008KT 8000 -RA BKN025 FEW040TCU BKN070 22/21 Q1006 RERA","temp":22,"dewp":21,"wdir":70,"wspd":8,"visib":4.97,"altim":1006,"clouds":[{"cover":"BKN","base":2500},{"cover":"FEW","base":4000},{"cover":"BKN","base":7000}],"obsTime":1775595600},"SBPJ":{"icaoId":"SBPJ","flightCategory":"MVFR","rawOb":"METAR SBPJ 072100Z 17012G25KT 8000 3000SE +TSRA SCT033 FEW035CB 28/23 Q1012","temp":28,"dewp":23,"wdir":170,"wspd":12,"visib":4.97,"altim":1012,"clouds":[{"cover":"SCT","base":3300},{"cover":"FEW","base":3500}],"obsTime":1775595600},"SBGL":{"icaoId":"SBGL","flightCategory":"VFR","rawOb":"METAR SBGL 072100Z 13006KT 9999 FEW030 28/22 Q1012","temp":28,"dewp":22,"wdir":130,"wspd":6,"visib":"6+","altim":1012,"clouds":[{"cover":"FEW","base":3000}],"obsTime":1775595600},"SBCP":{"icaoId":"SBCP","flightCategory":"VFR","rawOb":"METAR SBCP 072100Z /////KT 9999 FEW020 ///// Q1015","temp":null,"dewp":null,"wdir":null,"wspd":null,"visib":"6+","altim":1015,"clouds":[{"cover":"FEW","base":2000}],"obsTime":1775595600},"SBPV":{"icaoId":"SBPV","flightCategory":"VFR","rawOb":"METAR SBPV 072100Z 33004KT 9999 FEW030 FEW035TCU 32/24 Q1008","temp":32,"dewp":24,"wdir":330,"wspd":4,"visib":"6+","altim":1008,"clouds":[{"cover":"FEW","base":3000},{"cover":"FEW","base":3500}],"obsTime":1775595600},"SBUR":{"icaoId":"SBUR","flightCategory":"VFR","rawOb":"METAR SBUR 072100Z 00000KT 9999 FEW025TCU BKN080 25/20 Q1017","temp":25,"dewp":20,"wdir":0,"wspd":0,"visib":"6+","altim":1017,"clouds":[{"cover":"FEW","base":2500},{"cover":"BKN","base":8000}],"obsTime":1775595600},"SBRB":{"icaoId":"SBRB","flightCategory":"LIFR","rawOb":"SPECI SBRB 072029Z 03014KT 0800 R07///// R25/P2000U +TSRA BKN020 FEW036CB BKN100 26/25 Q1010","temp":26,"dewp":25,"wdir":30,"wspd":14,"visib":0.5,"altim":1010,"clouds":[{"cover":"BKN","base":2000},{"cover":"FEW","base":3600},{"cover":"BKN","base":10000}],"obsTime":1775593740},"SBGO":{"icaoId":"SBGO","flightCategory":"VFR","rawOb":"METAR SBGO 072100Z 10011KT 9999 -TSRA FEW043 FEW050CB BKN100 23/21 Q1018","temp":23,"dewp":21,"wdir":100,"wspd":11,"visib":"6+","altim":1018,"clouds":[{"cover":"FEW","base":4300},{"cover":"FEW","base":5000},{"cover":"BKN","base":10000}],"obsTime":1775595600},"SBGR":{"icaoId":"SBGR","flightCategory":"VFR","rawOb":"METAR SBGR 072100Z 07005KT 9999 BKN045 BKN100 22/21 Q1017","temp":22,"dewp":21,"wdir":70,"wspd":5,"visib":"6+","altim":1017,"clouds":[{"cover":"BKN","base":4500},{"cover":"BKN","base":10000}],"obsTime":1775595600},"SBRF":{"icaoId":"SBRF","flightCategory":"MVFR","rawOb":"METAR SBRF 072100Z 08003KT 8000 VCSH BKN015 BKN050 26/24 Q1013","temp":26,"dewp":24,"wdir":80,"wspd":3,"visib":4.97,"altim":1013,"clouds":[{"cover":"BKN","base":1500},{"cover":"BKN","base":5000}],"obsTime":1775595600},"SBBE":{"icaoId":"SBBE","flightCategory":"VFR","rawOb":"METAR SBBE 072100Z 03004KT 9999 FEW045 27/26 Q1010","temp":27,"dewp":26,"wdir":30,"wspd":4,"visib":"6+","altim":1010,"clouds":[{"cover":"FEW","base":4500}],"obsTime":1775595600},"SBSG":{"icaoId":"SBSG","flightCategory":"VFR","rawOb":"METAR SBSG 072100Z 14003KT 110V170 9999 SCT020 FEW030TCU 26/24 Q1013","temp":26,"dewp":24,"wdir":140,"wspd":3,"visib":"6+","altim":1013,"clouds":[{"cover":"SCT","base":2000},{"cover":"FEW","base":3000}],"obsTime":1775595600},"SBCF":{"icaoId":"SBCF","flightCategory":"VFR","rawOb":"METAR SBCF 072100Z 11006KT 9999 FEW040 26/18 Q1018","temp":26,"dewp":18,"wdir":110,"wspd":6,"visib":"6+","altim":1018,"clouds":[{"cover":"FEW","base":4000}],"obsTime":1775595600},"SBSL":{"icaoId":"SBSL","flightCategory":"VFR","rawOb":"METAR SBSL 072100Z 05013KT 020V080 9999 SCT030 FEW035TCU 29/24 Q1010","temp":29,"dewp":24,"wdir":50,"wspd":13,"visib":"6+","altim":1010,"clouds":[{"cover":"SCT","base":3000},{"cover":"FEW","base":3500}],"obsTime":1775595600},"SBSN":{"icaoId":"SBSN","flightCategory":"VFR","rawOb":"METAR SBSN 072100Z 11009KT 9999 FEW025 FEW026TCU 30/25 Q1009","temp":30,"dewp":25,"wdir":110,"wspd":9,"visib":"6+","altim":1009,"clouds":[{"cover":"FEW","base":2500},{"cover":"FEW","base":2600}],"obsTime":1775595600},"SBIL":{"icaoId":"SBIL","flightCategory":"VFR","rawOb":"METAR SBIL 072100Z 16006KT 9999 FEW023 29/25 Q1015","temp":29,"dewp":25,"wdir":160,"wspd":6,"visib":"6+","altim":1015,"clouds":[{"cover":"FEW","base":2300}],"obsTime":1775595600},"SBCT":{"icaoId":"SBCT","flightCategory":"VFR","rawOb":"METAR SBCT 072100Z 01004KT 9999 SCT040 24/20 Q1015","temp":24,"dewp":20,"wdir":10,"wspd":4,"visib":"6+","altim":1015,"clouds":[{"cover":"SCT","base":4000}],"obsTime":1775595600},"SBSP":{"icaoId":"SBSP","flightCategory":"VFR","rawOb":"METAR SBSP 072100Z 05006KT 9999 FEW040 23/19 Q1018","temp":23,"dewp":19,"wdir":50,"wspd":6,"visib":"6+","altim":1018,"clouds":[{"cover":"FEW","base":4000}],"obsTime":1775595600},"SBME":{"icaoId":"SBME","flightCategory":"VFR","rawOb":"METAR SBME 072100Z 09009KT 9999 FEW030 26/22 Q1014","temp":26,"dewp":22,"wdir":90,"wspd":9,"visib":"6+","altim":1014,"clouds":[{"cover":"FEW","base":3000}],"obsTime":1775595600},"SBSV":{"icaoId":"SBSV","flightCategory":"VFR","rawOb":"METAR SBSV 072100Z 11006KT 9999 SCT020 28/23 Q1014","temp":28,"dewp":23,"wdir":110,"wspd":6,"visib":"6+","altim":1014,"clouds":[{"cover":"SCT","base":2000}],"obsTime":1775595600},"SBJU":{"icaoId":"SBJU","flightCategory":"VFR","rawOb":"METAR SBJU 072100Z 17009KT 9999 SCT020 FEW022TCU 27/23 Q1014 RETS","temp":27,"dewp":23,"wdir":170,"wspd":9,"visib":"6+","altim":1014,"clouds":[{"cover":"SCT","base":2000},{"cover":"FEW","base":2200}],"obsTime":1775595600},"SBTE":{"icaoId":"SBTE","flightCategory":"VFR","rawOb":"METAR SBTE 072100Z 26004KT 9999 VCTS FEW030CB BKN070 28/23 Q1009","temp":28,"dewp":23,"wdir":260,"wspd":4,"visib":"6+","altim":1009,"clouds":[{"cover":"FEW","base":3000},{"cover":"BKN","base":7000}],"obsTime":1775595600},"SBCB":{"icaoId":"SBCB","flightCategory":"VFR","rawOb":"METAR SBCB 072100Z 07013KT 9999 SCT008 SCT025 26/23 Q1015","temp":26,"dewp":23,"wdir":70,"wspd":13,"visib":"6+","altim":1015,"clouds":[{"cover":"SCT","base":800},{"cover":"SCT","base":2500}],"obsTime":1775595600},"SBCR":{"icaoId":"SBCR","flightCategory":"VFR","rawOb":"METAR SBCR 072100Z 04004KT 010V080 9999 SCT040 FEW045TCU SCT100 31/23 Q1009","temp":31,"dewp":23,"wdir":40,"wspd":4,"visib":"6+","altim":1009,"clouds":[{"cover":"SCT","base":4000},{"cover":"FEW","base":4500},{"cover":"SCT","base":10000}],"obsTime":1775595600},"SBHT":{"icaoId":"SBHT","flightCategory":"VFR","rawOb":"METAR SBHT 072100Z 12003KT 9999 FEW025 30/24 Q1010","temp":30,"dewp":24,"wdir":120,"wspd":3,"visib":"6+","altim":1010,"clouds":[{"cover":"FEW","base":2500}],"obsTime":1775595600},"SBAT":{"icaoId":"SBAT","flightCategory":"VFR","rawOb":"METAR SBAT 072100Z 15012KT 9999 -TSRA SCT030 FEW035CB 29/24 Q1011","temp":29,"dewp":24,"wdir":150,"wspd":12,"visib":"6+","altim":1011,"clouds":[{"cover":"SCT","base":3000},{"cover":"FEW","base":3500}],"obsTime":1775595600},"SBAR":{"icaoId":"SBAR","flightCategory":"VFR","rawOb":"METAR SBAR 072100Z 10009KT 9999 FEW023 FEW025TCU BKN050 28/24 Q1014","temp":28,"dewp":24,"wdir":100,"wspd":9,"visib":"6+","altim":1014,"clouds":[{"cover":"FEW","base":2300},{"cover":"FEW","base":2500},{"cover":"BKN","base":5000}],"obsTime":1775595600},"SBAX":{"icaoId":"SBAX","flightCategory":"VFR","rawOb":"METAR SBAX 072100Z 35006KT 9999 SCT025 SCT045 24/19 Q1019","temp":24,"dewp":19,"wdir":350,"wspd":6,"visib":"6+","altim":1019,"clouds":[{"cover":"SCT","base":2500},{"cover":"SCT","base":4500}],"obsTime":1775595600},"SBBH":{"icaoId":"SBBH","flightCategory":"VFR","rawOb":"METAR SBBH 072100Z 07006KT CAVOK 26/17 Q1018","temp":26,"dewp":17,"wdir":70,"wspd":6,"visib":"6+","altim":1018,"clouds":[],"obsTime":1775595600},"SBBU":{"icaoId":"SBBU","flightCategory":"VFR","rawOb":"METAR SBBU 072100Z /////KT 9999 FEW035 30/22 Q1014","temp":30,"dewp":22,"wdir":null,"wspd":null,"visib":"6+","altim":1014,"clouds":[{"cover":"FEW","base":3500}],"obsTime":1775595600},"SBCA":{"icaoId":"SBCA","flightCategory":"MVFR","rawOb":"METAR SBCA 072100Z 33007KT 9999 -TSRA BKN030 FEW040CB SCT070 21/20 Q1013","temp":21,"dewp":20,"wdir":330,"wspd":7,"visib":"6+","altim":1013,"clouds":[{"cover":"BKN","base":3000},{"cover":"FEW","base":4000},{"cover":"SCT","base":7000}],"obsTime":1775595600},"SBCO":{"icaoId":"SBCO","flightCategory":"MVFR","rawOb":"METAR SBCO 072100Z 06007KT 020V080 8000 -RA FEW009 FEW030TCU BKN100 21/20 Q1006 RETSRA","temp":21,"dewp":20,"wdir":60,"wspd":7,"visib":4.97,"altim":1006,"clouds":[{"cover":"FEW","base":900},{"cover":"FEW","base":3000},{"cover":"BKN","base":10000}],"obsTime":1775595600},"SBDN":{"icaoId":"SBDN","flightCategory":"VFR","rawOb":"METAR SBDN 072100Z 02004KT 9999 FEW050 FEW060TCU 30/21 Q1012","temp":30,"dewp":21,"wdir":20,"wspd":4,"visib":"6+","altim":1012,"clouds":[{"cover":"FEW","base":5000},{"cover":"FEW","base":6000}],"obsTime":1775595600},"SBES":{"icaoId":"SBES","flightCategory":"VFR","rawOb":"METAR SBES 072100Z 06011KT 010V080 CAVOK 25/// Q1014","temp":null,"dewp":null,"wdir":60,"wspd":11,"visib":"6+","altim":1014,"clouds":[],"obsTime":1775595600},"SBIP":{"icaoId":"SBIP","flightCategory":"VFR","rawOb":"METAR SBIP 072100Z AUTO VRB02KT CAVOK 24/20 Q1016","temp":24,"dewp":20,"wdir":"VRB","wspd":2,"visib":"6+","altim":1016,"clouds":[],"obsTime":1775595600},"SBKG":{"icaoId":"SBKG","flightCategory":"MVFR","rawOb":"METAR SBKG 072100Z 07003KT 8000 FEW012 OVC080 23/21 Q1016","temp":23,"dewp":21,"wdir":70,"wspd":3,"visib":4.97,"altim":1016,"clouds":[{"cover":"FEW","base":1200},{"cover":"OVC","base":8000}],"obsTime":1775595600},"SBPL":{"icaoId":"SBPL","flightCategory":"VFR","rawOb":"METAR SBPL 072100Z 18003KT 9999 SCT030 31/20 Q1013","temp":31,"dewp":20,"wdir":180,"wspd":3,"visib":"6+","altim":1013,"clouds":[{"cover":"SCT","base":3000}],"obsTime":1775595600},"SBPS":{"icaoId":"SBPS","flightCategory":"VFR","rawOb":"METAR SBPS 072100Z VRB02KT 9999 SCT015 SCT050 BKN070 26/24 Q1016","temp":26,"dewp":24,"wdir":"VRB","wspd":2,"visib":"6+","altim":1016,"clouds":[{"cover":"SCT","base":1500},{"cover":"SCT","base":5000},{"cover":"BKN","base":7000}],"obsTime":1775595600},"SBSC":{"icaoId":"SBSC","flightCategory":"VFR","rawOb":"METAR SBSC 072100Z 26004KT CAVOK 27/24 Q1012","temp":27,"dewp":24,"wdir":260,"wspd":4,"visib":"6+","altim":1012,"clouds":[],"obsTime":1775595600},"SBSJ":{"icaoId":"SBSJ","flightCategory":"LIFR","rawOb":"SPECI SBSJ 072030Z 29014KT 1500 TSRA BR SCT009 BKN025 FEW045CB 22/20 Q1017 RETS","temp":22,"dewp":20,"wdir":290,"wspd":14,"visib":0.93,"altim":1017,"clouds":[{"cover":"SCT","base":900},{"cover":"BKN","base":2500},{"cover":"FEW","base":4500}],"obsTime":1775593800},"SBSM":{"icaoId":"SBSM","flightCategory":"VFR","rawOb":"METAR SBSM 072100Z 30010G20KT 9999 SCT026 23/19 Q1005","temp":23,"dewp":19,"wdir":300,"wspd":10,"visib":"6+","altim":1005,"clouds":[{"cover":"SCT","base":2600}],"obsTime":1775595600},"SBSR":{"icaoId":"SBSR","flightCategory":"VFR","rawOb":"METAR SBSR 072100Z VRB04KT 9999 SCT030 FEW035TCU SCT070 30/18 Q1014","temp":30,"dewp":18,"wdir":"VRB","wspd":4,"visib":"6+","altim":1014,"clouds":[{"cover":"SCT","base":3000},{"cover":"FEW","base":3500},{"cover":"SCT","base":7000}],"obsTime":1775595600},"SBTF":{"icaoId":"SBTF","flightCategory":"VFR","rawOb":"METAR SBTF 072100Z 00000KT 9999 FEW004 SCT090 26/25 Q1009","temp":26,"dewp":25,"wdir":0,"wspd":0,"visib":"6+","altim":1009,"clouds":[{"cover":"FEW","base":400},{"cover":"SCT","base":9000}],"obsTime":1775595600},"SBTT":{"icaoId":"SBTT","flightCategory":"VFR","rawOb":"METAR SBTT 072100Z 11005KT 9999 FEW030 FEW035TCU SCT090 30/22 Q1008","temp":30,"dewp":22,"wdir":110,"wspd":5,"visib":"6+","altim":1008,"clouds":[{"cover":"FEW","base":3000},{"cover":"FEW","base":3500},{"cover":"SCT","base":9000}],"obsTime":1775595600},"SBUY":{"icaoId":"SBUY","flightCategory":"VFR","rawOb":"METAR SBUY 072100Z 11001KT 9999 FEW020 FEW025TCU SCT100 29/24 Q1008","temp":29,"dewp":24,"wdir":110,"wspd":1,"visib":"6+","altim":1008,"clouds":[{"cover":"FEW","base":2000},{"cover":"FEW","base":2500},{"cover":"SCT","base":10000}],"obsTime":1775595600},"SBVH":{"icaoId":"SBVH","flightCategory":"VFR","rawOb":"METAR SBVH 072100Z 35005KT 9999 FEW040 SCT090 29/23 Q1013","temp":29,"dewp":23,"wdir":350,"wspd":5,"visib":"6+","altim":1013,"clouds":[{"cover":"FEW","base":4000},{"cover":"SCT","base":9000}],"obsTime":1775595600},"SBPB":{"icaoId":"SBPB","flightCategory":"VFR","rawOb":"METAR SBPB 072100Z 07005KT 9999 VCTS SCT016 FEW025CB BKN080 25/23 Q1011 RETS","temp":25,"dewp":23,"wdir":70,"wspd":5,"visib":"6+","altim":1011,"clouds":[{"cover":"SCT","base":1600},{"cover":"FEW","base":2500},{"cover":"BKN","base":8000}],"obsTime":1775595600},"SBCJ":{"icaoId":"SBCJ","flightCategory":"VFR","rawOb":"METAR SBCJ 072100Z 15004KT 9999 FEW035 27/22 Q1014","temp":27,"dewp":22,"wdir":150,"wspd":4,"visib":"6+","altim":1014,"clouds":[{"cover":"FEW","base":3500}],"obsTime":1775595600},"SBOI":{"icaoId":"SBOI","flightCategory":"VFR","rawOb":"METAR SBOI 072100Z AUTO 06005KT 020V090 9999 FEW042 29/24 Q1011","temp":29,"dewp":24,"wdir":60,"wspd":5,"visib":"6+","altim":1011,"clouds":[{"cover":"FEW","base":4200}],"obsTime":1775595600},"SBPP":{"icaoId":"SBPP","flightCategory":"MVFR","rawOb":"METAR SBPP 072100Z 31009KT 9999 TS BKN020 FEW025CB OVC070 23/21 Q1013","temp":23,"dewp":21,"wdir":310,"wspd":9,"visib":"6+","altim":1013,"clouds":[{"cover":"BKN","base":2000},{"cover":"FEW","base":2500},{"cover":"OVC","base":7000}],"obsTime":1775595600},"SBAF":{"icaoId":"SBAF","flightCategory":"VFR","rawOb":"METAR SBAF 072100Z 09006KT 9999 FEW035 30/23 Q1013","temp":30,"dewp":23,"wdir":90,"wspd":6,"visib":"6+","altim":1013,"clouds":[{"cover":"FEW","base":3500}],"obsTime":1775595600},"SBTA":{"icaoId":"SBTA","flightCategory":"VFR","rawOb":"METAR SBTA 072100Z VRB01KT 9999 TS VCSH SCT040 FEW045CB BKN070 27/20 Q1015 RETS","temp":27,"dewp":20,"wdir":"VRB","wspd":1,"visib":"6+","altim":1015,"clouds":[{"cover":"SCT","base":4000},{"cover":"FEW","base":4500},{"cover":"BKN","base":7000}],"obsTime":1775595600},"SBGW":{"icaoId":"SBGW","flightCategory":"VFR","rawOb":"METAR SBGW 072100Z VRB04KT 9999 VCSH SCT030 FEW035TCU 27/19 Q1015","temp":27,"dewp":19,"wdir":"VRB","wspd":4,"visib":"6+","altim":1015,"clouds":[{"cover":"SCT","base":3000},{"cover":"FEW","base":3500}],"obsTime":1775595600},"SBJV":{"icaoId":"SBJV","flightCategory":"MVFR","rawOb":"METAR SBJV 072100Z 03004KT 9999 FEW010 BKN025 27/24 Q1009","temp":27,"dewp":24,"wdir":30,"wspd":4,"visib":"6+","altim":1009,"clouds":[{"cover":"FEW","base":1000},{"cover":"BKN","base":2500}],"obsTime":1775595600},"SBJR":{"icaoId":"SBJR","flightCategory":"VFR","rawOb":"METAR SBJR 072100Z 07003KT CAVOK 29/22 Q1012","temp":29,"dewp":22,"wdir":70,"wspd":3,"visib":"6+","altim":1012,"clouds":[],"obsTime":1775595600},"SBLS":{"icaoId":"SBLS","flightCategory":"VFR","rawOb":"METAR SBLS 072100Z 13006KT 9999 FEW045 25/18 Q1018","temp":25,"dewp":18,"wdir":130,"wspd":6,"visib":"6+","altim":1018,"clouds":[{"cover":"FEW","base":4500}],"obsTime":1775595600},"SBAN":{"icaoId":"SBAN","flightCategory":"VFR","rawOb":"METAR SBAN 072100Z 01002KT 9999 VCTS SCT035 FEW040CB SCT100 20/18 Q1020","temp":20,"dewp":18,"wdir":10,"wspd":2,"visib":"6+","altim":1020,"clouds":[{"cover":"SCT","base":3500},{"cover":"FEW","base":4000},{"cover":"SCT","base":10000}],"obsTime":1775595600},"SBMT":{"icaoId":"SBMT","flightCategory":"VFR","rawOb":"METAR SBMT 072100Z 06005KT 9999 SCT020 22/20 Q1017","temp":22,"dewp":20,"wdir":60,"wspd":5,"visib":"6+","altim":1017,"clouds":[{"cover":"SCT","base":2000}],"obsTime":1775595600},"SBJP":{"icaoId":"SBJP","flightCategory":"MVFR","rawOb":"METAR SBJP 072100Z 00000KT 9999 BKN020 26/25 Q1014","temp":26,"dewp":25,"wdir":0,"wspd":0,"visib":"6+","altim":1014,"clouds":[{"cover":"BKN","base":2000}],"obsTime":1775595600},"SBST":{"icaoId":"SBST","flightCategory":"MVFR","rawOb":"METAR SBST 072100Z 10003KT 8000 -TSRA SCT029 FEW030CB BKN066 26/25 Q1012","temp":26,"dewp":25,"wdir":100,"wspd":3,"visib":4.97,"altim":1012,"clouds":[{"cover":"SCT","base":2900},{"cover":"FEW","base":3000},{"cover":"BKN","base":6600}],"obsTime":1775595600},"SBIH":{"icaoId":"SBIH","flightCategory":"VFR","rawOb":"METAR SBIH 072100Z 11004KT 9999 FEW020 FEW025TCU SCT100 31/25 Q1008","temp":31,"dewp":25,"wdir":110,"wspd":4,"visib":"6+","altim":1008,"clouds":[{"cover":"FEW","base":2000},{"cover":"FEW","base":2500},{"cover":"SCT","base":10000}],"obsTime":1775595600},"SBPF":{"icaoId":"SBPF","flightCategory":"VFR","rawOb":"METAR SBPF 072100Z 34009KT 9000 -RA NSC 17/16 Q1012","temp":17,"dewp":16,"wdir":340,"wspd":9,"visib":5.59,"altim":1012,"clouds":[],"obsTime":1775595600}}}