{"updated":1780481641,"count":71,"data":{"SBRF":{"icaoId":"SBRF","flightCategory":"MVFR","rawOb":"METAR SBRF 030900Z 23004KT 9999 SCT010 BKN015 BKN050 24/23 Q1016","temp":24,"dewp":23,"wdir":230,"wspd":4,"visib":"6+","altim":1016,"clouds":[{"cover":"SCT","base":1000},{"cover":"BKN","base":1500},{"cover":"BKN","base":5000}],"obsTime":1780477200},"SBBE":{"icaoId":"SBBE","flightCategory":"VFR","rawOb":"METAR SBBE 030900Z 05003KT CAVOK 25/24 Q1014","temp":25,"dewp":24,"wdir":50,"wspd":3,"visib":"6+","altim":1014,"clouds":[],"obsTime":1780477200},"SBMK":{"icaoId":"SBMK","flightCategory":"VFR","rawOb":"METAR SBMK 030900Z 27001KT CAVOK 14/14 Q1023","temp":14,"dewp":14,"wdir":270,"wspd":1,"visib":"6+","altim":1023,"clouds":[],"obsTime":1780477200},"SBMO":{"icaoId":"SBMO","flightCategory":"VFR","rawOb":"METAR SBMO 030900Z 30003KT 9999 FEW020 BKN070 23/22 Q1017","temp":23,"dewp":22,"wdir":300,"wspd":3,"visib":"6+","altim":1017,"clouds":[{"cover":"FEW","base":2000},{"cover":"BKN","base":7000}],"obsTime":1780477200},"SBCG":{"icaoId":"SBCG","flightCategory":"VFR","rawOb":"METAR SBCG 030900Z 10009KT CAVOK 15/10 Q1022","temp":15,"dewp":10,"wdir":100,"wspd":9,"visib":"6+","altim":1022,"clouds":[],"obsTime":1780477200},"SBFZ":{"icaoId":"SBFZ","flightCategory":"VFR","rawOb":"METAR SBFZ 030900Z 11006KT 9999 SCT018 FEW025TCU BKN100 27/25 Q1014","temp":27,"dewp":25,"wdir":110,"wspd":6,"visib":"6+","altim":1014,"clouds":[{"cover":"SCT","base":1800},{"cover":"FEW","base":2500},{"cover":"BKN","base":10000}],"obsTime":1780477200},"SBMQ":{"icaoId":"SBMQ","flightCategory":"VFR","rawOb":"METAR SBMQ 030900Z 31003KT 9999 FEW014 BKN066 26/26 Q1014","temp":26,"dewp":26,"wdir":310,"wspd":3,"visib":"6+","altim":1014,"clouds":[{"cover":"FEW","base":1400},{"cover":"BKN","base":6600}],"obsTime":1780477200},"SBBV":{"icaoId":"SBBV","flightCategory":"VFR","rawOb":"METAR SBBV 030900Z 35001KT 9999 SCT020 FEW030TCU BKN080 25/24 Q1013","temp":25,"dewp":24,"wdir":350,"wspd":1,"visib":"6+","altim":1013,"clouds":[{"cover":"SCT","base":2000},{"cover":"FEW","base":3000},{"cover":"BKN","base":8000}],"obsTime":1780477200},"SBNT":{"icaoId":"SBNT","flightCategory":"VFR","rawOb":"METAR SBNT 030900Z 14005KT 9999 VCSH FEW021 FEW027TCU SCT080 23/22 Q1016","temp":23,"dewp":22,"wdir":140,"wspd":5,"visib":"6+","altim":1016,"clouds":[{"cover":"FEW","base":2100},{"cover":"FEW","base":2700},{"cover":"SCT","base":8000}],"obsTime":1780477200},"SBGL":{"icaoId":"SBGL","flightCategory":"VFR","rawOb":"METAR SBGL 030900Z 03001KT 9999 FEW006 BKN035 19/18 Q1024","temp":19,"dewp":18,"wdir":30,"wspd":1,"visib":"6+","altim":1024,"clouds":[{"cover":"FEW","base":600},{"cover":"BKN","base":3500}],"obsTime":1780477200},"SBPA":{"icaoId":"SBPA","flightCategory":"VFR","rawOb":"METAR SBPA 030900Z 09003KT CAVOK 13/13 Q1025","temp":13,"dewp":13,"wdir":90,"wspd":3,"visib":"6+","altim":1025,"clouds":[],"obsTime":1780477200},"SBCP":{"icaoId":"SBCP","flightCategory":"VFR","rawOb":"METAR SBCP 031000Z 25004KT 9999 FEW020 BKN090 20/17 Q1024","temp":20,"dewp":17,"wdir":250,"wspd":4,"visib":"6+","altim":1024,"clouds":[{"cover":"FEW","base":2000},{"cover":"BKN","base":9000}],"obsTime":1780480800},"SBPJ":{"icaoId":"SBPJ","flightCategory":"VFR","rawOb":"METAR SBPJ 030900Z 13004KT 9999 FEW040 SCT090 23/20 Q1015","temp":23,"dewp":20,"wdir":130,"wspd":4,"visib":"6+","altim":1015,"clouds":[{"cover":"FEW","base":4000},{"cover":"SCT","base":9000}],"obsTime":1780477200},"SBGO":{"icaoId":"SBGO","flightCategory":"VFR","rawOb":"METAR SBGO 030900Z 14005KT CAVOK 13/10 Q1022","temp":13,"dewp":10,"wdir":140,"wspd":5,"visib":"6+","altim":1022,"clouds":[],"obsTime":1780477200},"SBPV":{"icaoId":"SBPV","flightCategory":"VFR","rawOb":"METAR SBPV 030900Z 00000KT CAVOK 23/22 Q1014","temp":23,"dewp":22,"wdir":0,"wspd":0,"visib":"6+","altim":1014,"clouds":[],"obsTime":1780477200},"SBCT":{"icaoId":"SBCT","flightCategory":"VFR","rawOb":"METAR SBCT 030900Z 11004KT 070V140 9000 SCT016 09/09 Q1027","temp":9,"dewp":9,"wdir":110,"wspd":4,"visib":5.59,"altim":1027,"clouds":[{"cover":"SCT","base":1600}],"obsTime":1780477200},"SBRB":{"icaoId":"SBRB","flightCategory":"VFR","rawOb":"METAR SBRB 030900Z 00000KT CAVOK 21/21 Q1014","temp":21,"dewp":21,"wdir":0,"wspd":0,"visib":"6+","altim":1014,"clouds":[],"obsTime":1780477200},"SBGR":{"icaoId":"SBGR","flightCategory":"MVFR","rawOb":"METAR SBGR 030900Z 06002KT 7000 FEW011 13/12 Q1026","temp":13,"dewp":12,"wdir":60,"wspd":2,"visib":4.35,"altim":1026,"clouds":[{"cover":"FEW","base":1100}],"obsTime":1780477200},"SBHT":{"icaoId":"SBHT","flightCategory":"VFR","rawOb":"METAR SBHT 031000Z 05002KT CAVOK 25/24 Q1014","temp":25,"dewp":24,"wdir":50,"wspd":2,"visib":"6+","altim":1014,"clouds":[],"obsTime":1780480800},"SBSG":{"icaoId":"SBSG","flightCategory":"VFR","rawOb":"METAR SBSG 030900Z 17004KT 140V200 9999 FEW013 23/22 Q1017","temp":23,"dewp":22,"wdir":170,"wspd":4,"visib":"6+","altim":1017,"clouds":[{"cover":"FEW","base":1300}],"obsTime":1780477200},"SBIL":{"icaoId":"SBIL","flightCategory":"VFR","rawOb":"METAR SBIL 031000Z 25006KT 9999 FEW020 23/21 Q1020","temp":23,"dewp":21,"wdir":250,"wspd":6,"visib":"6+","altim":1020,"clouds":[{"cover":"FEW","base":2000}],"obsTime":1780480800},"SBSL":{"icaoId":"SBSL","flightCategory":"VFR","rawOb":"METAR SBSL 030900Z 07004KT CAVOK 26/24 Q1014","temp":26,"dewp":24,"wdir":70,"wspd":4,"visib":"6+","altim":1014,"clouds":[],"obsTime":1780477200},"SBCB":{"icaoId":"SBCB","flightCategory":"VFR","rawOb":"METAR SBCB 030900Z /////KT 9999 FEW025 20/18 Q1024","temp":20,"dewp":18,"wdir":null,"wspd":null,"visib":"6+","altim":1024,"clouds":[{"cover":"FEW","base":2500}],"obsTime":1780477200},"SBSN":{"icaoId":"SBSN","flightCategory":"VFR","rawOb":"METAR SBSN 030900Z 18004KT CAVOK 23/23 Q1013","temp":23,"dewp":23,"wdir":180,"wspd":4,"visib":"6+","altim":1013,"clouds":[],"obsTime":1780477200},"SBSP":{"icaoId":"SBSP","flightCategory":"MVFR","rawOb":"SPECI SBSP 030815Z AUTO 13004KT 9999 SCT007 BKN014 BKN017 15/14 Q1026","temp":15,"dewp":14,"wdir":130,"wspd":4,"visib":"6+","altim":1026,"clouds":[{"cover":"SCT","base":700},{"cover":"BKN","base":1400},{"cover":"BKN","base":1700}],"obsTime":1780474500},"SBVT":{"icaoId":"SBVT","flightCategory":"MVFR","rawOb":"METAR SBVT 030900Z 17005KT 140V210 9999 SCT006 BKN015 BKN030 20/19 Q1022 RERA","temp":20,"dewp":19,"wdir":170,"wspd":5,"visib":"6+","altim":1022,"clouds":[{"cover":"SCT","base":600},{"cover":"BKN","base":1500},{"cover":"BKN","base":3000}],"obsTime":1780477200},"SBUR":{"icaoId":"SBUR","flightCategory":"VFR","rawOb":"METAR SBUR 030900Z 06006KT CAVOK 16/12 Q1022","temp":16,"dewp":12,"wdir":60,"wspd":6,"visib":"6+","altim":1022,"clouds":[],"obsTime":1780477200},"SBUL":{"icaoId":"SBUL","flightCategory":"VFR","rawOb":"METAR SBUL 030900Z 14008KT CAVOK 15/11 Q1023","temp":15,"dewp":11,"wdir":140,"wspd":8,"visib":"6+","altim":1023,"clouds":[],"obsTime":1780477200},"SBJU":{"icaoId":"SBJU","flightCategory":"VFR","rawOb":"METAR SBJU 030900Z 00000KT 9999 FEW020 20/17 Q1018","temp":20,"dewp":17,"wdir":0,"wspd":0,"visib":"6+","altim":1018,"clouds":[{"cover":"FEW","base":2000}],"obsTime":1780477200},"SBKP":{"icaoId":"SBKP","flightCategory":"VFR","rawOb":"METAR SBKP 030900Z 12010KT CAVOK 14/12 Q1024","temp":14,"dewp":12,"wdir":120,"wspd":10,"visib":"6+","altim":1024,"clouds":[],"obsTime":1780477200},"SBSV":{"icaoId":"SBSV","flightCategory":"MVFR","rawOb":"METAR SBSV 030900Z 15005KT 120V190 9000 VCSH BKN015 FEW023TCU BKN050 24/23 Q1018","temp":24,"dewp":23,"wdir":150,"wspd":5,"visib":5.59,"altim":1018,"clouds":[{"cover":"BKN","base":1500},{"cover":"FEW","base":2300},{"cover":"BKN","base":5000}],"obsTime":1780477200},"SBBR":{"icaoId":"SBBR","flightCategory":"VFR","rawOb":"METAR SBBR 030900Z VRB01KT CAVOK 14/13 Q1023","temp":14,"dewp":13,"wdir":"VRB","wspd":1,"visib":"6+","altim":1023,"clouds":[],"obsTime":1780477200},"SBTE":{"icaoId":"SBTE","flightCategory":"IFR","rawOb":"METAR SBTE 030900Z 03004KT 9999 OVC009 26/24 Q1014","temp":26,"dewp":24,"wdir":30,"wspd":4,"visib":"6+","altim":1014,"clouds":[{"cover":"OVC","base":900}],"obsTime":1780477200},"SBEG":{"icaoId":"SBEG","flightCategory":"VFR","rawOb":"METAR SBEG 030900Z 09001KT CAVOK 24/24 Q1013","temp":24,"dewp":24,"wdir":90,"wspd":1,"visib":"6+","altim":1013,"clouds":[],"obsTime":1780477200},"SBLO":{"icaoId":"SBLO","flightCategory":"VFR","rawOb":"METAR SBLO 030900Z 13006KT CAVOK 12/10 Q1024","temp":12,"dewp":10,"wdir":130,"wspd":6,"visib":"6+","altim":1024,"clouds":[],"obsTime":1780477200},"SBFI":{"icaoId":"SBFI","flightCategory":"VFR","rawOb":"METAR SBFI 030900Z 11004KT CAVOK 15/14 Q1023","temp":15,"dewp":14,"wdir":110,"wspd":4,"visib":"6+","altim":1023,"clouds":[],"obsTime":1780477200},"SBMA":{"icaoId":"SBMA","flightCategory":"VFR","rawOb":"METAR SBMA 030900Z 00000KT CAVOK 25/24 Q1014","temp":25,"dewp":24,"wdir":0,"wspd":0,"visib":"6+","altim":1014,"clouds":[],"obsTime":1780477200},"SBCF":{"icaoId":"SBCF","flightCategory":"VFR","rawOb":"METAR SBCF 030900Z 13011KT 9999 FEW015 17/14 Q1024","temp":17,"dewp":14,"wdir":130,"wspd":11,"visib":"6+","altim":1024,"clouds":[{"cover":"FEW","base":1500}],"obsTime":1780477200},"SBME":{"icaoId":"SBME","flightCategory":"VFR","rawOb":"METAR SBME 030900Z 30003KT CAVOK 17/16 Q1024","temp":17,"dewp":16,"wdir":300,"wspd":3,"visib":"6+","altim":1024,"clouds":[],"obsTime":1780477200},"SBMG":{"icaoId":"SBMG","flightCategory":"VFR","rawOb":"METAR SBMG 030900Z AUTO 13007KT CAVOK 11/10 Q1023","temp":11,"dewp":10,"wdir":130,"wspd":7,"visib":"6+","altim":1023,"clouds":[],"obsTime":1780477200},"SBFL":{"icaoId":"SBFL","flightCategory":"MVFR","rawOb":"METAR SBFL 030900Z 23002KT 9999 SCT017 BKN030 15/13 Q1026","temp":15,"dewp":13,"wdir":230,"wspd":2,"visib":"6+","altim":1026,"clouds":[{"cover":"SCT","base":1700},{"cover":"BKN","base":3000}],"obsTime":1780477200},"SBOI":{"icaoId":"SBOI","flightCategory":"LIFR","rawOb":"SPECI SBOI 030815Z AUTO 00000KT 0700 // VV002 24/24 Q1014","temp":24,"dewp":24,"wdir":0,"wspd":0,"visib":0.43,"altim":1014,"clouds":[{"cover":"OVX","base":200}],"obsTime":1780474500},"SBTU":{"icaoId":"SBTU","flightCategory":"MVFR","rawOb":"METAR SBTU 030900Z AUTO 21005KT 9999 // BKN026/// ///// Q1016","temp":null,"dewp":null,"wdir":210,"wspd":5,"visib":"6+","altim":1016,"clouds":[{"cover":"BKN","base":2600}],"obsTime":1780477200},"SBBH":{"icaoId":"SBBH","flightCategory":"VFR","rawOb":"METAR SBBH 030900Z 08004KT CAVOK 16/14 Q1024","temp":16,"dewp":14,"wdir":80,"wspd":4,"visib":"6+","altim":1024,"clouds":[],"obsTime":1780477200},"SBCO":{"icaoId":"SBCO","flightCategory":"VFR","rawOb":"METAR SBCO 030900Z VRB02KT CAVOK 10/10 Q1025","temp":10,"dewp":10,"wdir":"VRB","wspd":2,"visib":"6+","altim":1025,"clouds":[],"obsTime":1780477200},"SBPL":{"icaoId":"SBPL","flightCategory":"VFR","rawOb":"METAR SBPL 030900Z 08004KT CAVOK 21/18 Q1019","temp":21,"dewp":18,"wdir":80,"wspd":4,"visib":"6+","altim":1019,"clouds":[],"obsTime":1780477200},"SBAX":{"icaoId":"SBAX","flightCategory":"VFR","rawOb":"METAR SBAX 030900Z AUTO 12010KT CAVOK ///// Q1024","temp":null,"dewp":null,"wdir":120,"wspd":10,"visib":"6+","altim":1024,"clouds":[],"obsTime":1780477200},"SBPS":{"icaoId":"SBPS","flightCategory":"MVFR","rawOb":"METAR SBPS 030900Z 23005KT 9999 BKN020 BKN100 21/20 Q1020","temp":21,"dewp":20,"wdir":230,"wspd":5,"visib":"6+","altim":1020,"clouds":[{"cover":"BKN","base":2000},{"cover":"BKN","base":10000}],"obsTime":1780477200},"SBDN":{"icaoId":"SBDN","flightCategory":"VFR","rawOb":"METAR SBDN 030900Z 11009KT CAVOK 13/10 Q1023","temp":13,"dewp":10,"wdir":110,"wspd":9,"visib":"6+","altim":1023,"clouds":[],"obsTime":1780477200},"SBSC":{"icaoId":"SBSC","flightCategory":"MVFR","rawOb":"METAR SBSC 030900Z 36002KT 8000 FEW020 SCT030 BKN040 18/17 Q1024","temp":18,"dewp":17,"wdir":360,"wspd":2,"visib":4.97,"altim":1024,"clouds":[{"cover":"FEW","base":2000},{"cover":"SCT","base":3000},{"cover":"BKN","base":4000}],"obsTime":1780477200},"SBBU":{"icaoId":"SBBU","flightCategory":"VFR","rawOb":"METAR SBBU 030900Z 11012KT CAVOK 15/13 Q1023","temp":15,"dewp":13,"wdir":110,"wspd":12,"visib":"6+","altim":1023,"clouds":[],"obsTime":1780477200},"SBSJ":{"icaoId":"SBSJ","flightCategory":"VFR","rawOb":"SPECI SBSJ 030830Z 31002KT CAVOK 12/11 Q1025","temp":12,"dewp":11,"wdir":310,"wspd":2,"visib":"6+","altim":1025,"clouds":[],"obsTime":1780475400},"SBSR":{"icaoId":"SBSR","flightCategory":"VFR","rawOb":"METAR SBSR 030900Z 18007KT CAVOK 14/12 Q1022","temp":14,"dewp":12,"wdir":180,"wspd":7,"visib":"6+","altim":1022,"clouds":[],"obsTime":1780477200},"SBES":{"icaoId":"SBES","flightCategory":"VFR","rawOb":"METAR SBES 030900Z VRB01KT 9999 FEW015 14/// Q1024","temp":null,"dewp":null,"wdir":"VRB","wspd":1,"visib":"6+","altim":1024,"clouds":[{"cover":"FEW","base":1500}],"obsTime":1780477200},"SBSM":{"icaoId":"SBSM","flightCategory":"LIFR","rawOb":"METAR SBSM 030900Z 07004KT 020V100 0100 R29///// R11/1100D FG VV002 12/12 Q1024","temp":12,"dewp":12,"wdir":70,"wspd":4,"visib":0.06,"altim":1024,"clouds":[{"cover":"OVX","base":200}],"obsTime":1780477200},"SBAR":{"icaoId":"SBAR","flightCategory":"VFR","rawOb":"METAR SBAR 030900Z 31002KT 9999 SCT023 21/20 Q1017","temp":21,"dewp":20,"wdir":310,"wspd":2,"visib":"6+","altim":1017,"clouds":[{"cover":"SCT","base":2300}],"obsTime":1780477200},"SBIP":{"icaoId":"SBIP","flightCategory":"VFR","rawOb":"METAR SBIP 030900Z AUTO 19003KT 9999 BKN034 19/19 Q1023","temp":19,"dewp":19,"wdir":190,"wspd":3,"visib":"6+","altim":1023,"clouds":[{"cover":"BKN","base":3400}],"obsTime":1780477200},"SBKG":{"icaoId":"SBKG","flightCategory":"VFR","rawOb":"METAR SBKG 030900Z 15003KT CAVOK 21/19 Q1019","temp":21,"dewp":19,"wdir":150,"wspd":3,"visib":"6+","altim":1019,"clouds":[],"obsTime":1780477200},"SBCA":{"icaoId":"SBCA","flightCategory":"VFR","rawOb":"METAR SBCA 030900Z 07006KT CAVOK 13/10 Q1025","temp":13,"dewp":10,"wdir":70,"wspd":6,"visib":"6+","altim":1025,"clouds":[],"obsTime":1780477200},"SBNM":{"icaoId":"SBNM","flightCategory":"MVFR","rawOb":"METAR SBNM 030900Z AUTO 09008KT 6000 NCD 10/09 Q1023","temp":10,"dewp":9,"wdir":90,"wspd":8,"visib":3.73,"altim":1023,"clouds":[],"obsTime":1780477200},"SBMT":{"icaoId":"SBMT","flightCategory":"VFR","rawOb":"METAR SBMT 030900Z COR 12005KT 9999 SCT020 14/12 Q1026","temp":14,"dewp":12,"wdir":120,"wspd":5,"visib":"6+","altim":1026,"clouds":[{"cover":"SCT","base":2000}],"obsTime":1780477200},"SBAN":{"icaoId":"SBAN","flightCategory":"VFR","rawOb":"METAR SBAN 030900Z 15006KT CAVOK 15/07 Q1023","temp":15,"dewp":7,"wdir":150,"wspd":6,"visib":"6+","altim":1023,"clouds":[],"obsTime":1780477200},"SBTA":{"icaoId":"SBTA","flightCategory":"VFR","rawOb":"METAR SBTA 030900Z VRB01KT 9999 FEW015 SCT035 BKN050 13/// Q1025","temp":null,"dewp":null,"wdir":"VRB","wspd":1,"visib":"6+","altim":1025,"clouds":[{"cover":"FEW","base":1500},{"cover":"SCT","base":3500},{"cover":"BKN","base":5000}],"obsTime":1780477200},"SBLS":{"icaoId":"SBLS","flightCategory":"VFR","rawOb":"METAR SBLS 030900Z 14010KT 9999 FEW010 16/14 Q1024","temp":16,"dewp":14,"wdir":140,"wspd":10,"visib":"6+","altim":1024,"clouds":[{"cover":"FEW","base":1000}],"obsTime":1780477200},"SBLE":{"icaoId":"SBLE","flightCategory":"LIFR","rawOb":"METAR SBLE 030900Z AUTO 16004KT 120V200 1200 BR VV003 ///// Q////","temp":null,"dewp":null,"wdir":160,"wspd":4,"visib":0.75,"altim":null,"clouds":[{"cover":"OVX","base":300}],"obsTime":1780477200},"SBPF":{"icaoId":"SBPF","flightCategory":"VFR","rawOb":"METAR SBPF 030900Z 04007KT CAVOK 11/09 Q1025","temp":11,"dewp":9,"wdir":40,"wspd":7,"visib":"6+","altim":1025,"clouds":[],"obsTime":1780477200},"SBJP":{"icaoId":"SBJP","flightCategory":"VFR","rawOb":"METAR SBJP 030900Z 19013KT 9999 FEW015 BKN080 23/21 Q1017","temp":23,"dewp":21,"wdir":190,"wspd":13,"visib":"6+","altim":1017,"clouds":[{"cover":"FEW","base":1500},{"cover":"BKN","base":8000}],"obsTime":1780477200},"SBAF":{"icaoId":"SBAF","flightCategory":"MVFR","rawOb":"METAR SBAF 031000Z 22002KT 7000 FEW004 17/17 Q1025","temp":17,"dewp":17,"wdir":220,"wspd":2,"visib":4.35,"altim":1025,"clouds":[{"cover":"FEW","base":400}],"obsTime":1780480800},"SBJV":{"icaoId":"SBJV","flightCategory":"VFR","rawOb":"METAR SBJV 030900Z 00000KT CAVOK 15/14 Q1026","temp":15,"dewp":14,"wdir":0,"wspd":0,"visib":"6+","altim":1026,"clouds":[],"obsTime":1780477200},"SBGW":{"icaoId":"SBGW","flightCategory":"IFR","rawOb":"METAR SBGW 030900Z 03002KT 3000 BR FEW007 BKN015 BKN025 16/12 Q1025","temp":16,"dewp":12,"wdir":30,"wspd":2,"visib":1.86,"altim":1025,"clouds":[{"cover":"FEW","base":700},{"cover":"BKN","base":1500},{"cover":"BKN","base":2500}],"obsTime":1780477200},"SBJR":{"icaoId":"SBJR","flightCategory":"VFR","rawOb":"METAR SBJR 031000Z 02002KT 9999 FEW008 SCT050 19/18 Q1024","temp":19,"dewp":18,"wdir":20,"wspd":2,"visib":"6+","altim":1024,"clouds":[{"cover":"FEW","base":800},{"cover":"SCT","base":5000}],"obsTime":1780480800}}}