{"updated":1778500424,"count":84,"data":{"SBKP":{"icaoId":"SBKP","flightCategory":"MVFR","rawOb":"METAR SBKP 111000Z 19002KT 8000 1500NW R33///// R15/P2000 PRFG FEW001 09/08 Q1021","temp":9,"dewp":8,"wdir":190,"wspd":2,"visib":4.97,"altim":1021,"clouds":[{"cover":"FEW","base":100}],"obsTime":1778493600},"SBFZ":{"icaoId":"SBFZ","flightCategory":"VFR","rawOb":"METAR SBFZ 111000Z 18003KT 9999 FEW023 26/24 Q1012","temp":26,"dewp":24,"wdir":180,"wspd":3,"visib":"6+","altim":1012,"clouds":[{"cover":"FEW","base":2300}],"obsTime":1778493600},"SBBR":{"icaoId":"SBBR","flightCategory":"LIFR","rawOb":"METAR SBBR 111000Z 17004KT 0500 R11L/1500 R29R/1500 R11R/1500 R29L/1500 FG VV002 16/16 Q1021","temp":16,"dewp":16,"wdir":170,"wspd":4,"visib":0.31,"altim":1021,"clouds":[{"cover":"OVX","base":200}],"obsTime":1778493600},"SBBV":{"icaoId":"SBBV","flightCategory":"VFR","rawOb":"METAR SBBV 111000Z 09003KT 9999 FEW030 FEW035TCU SCT100 25/24 Q1012","temp":25,"dewp":24,"wdir":90,"wspd":3,"visib":"6+","altim":1012,"clouds":[{"cover":"FEW","base":3000},{"cover":"FEW","base":3500},{"cover":"SCT","base":10000}],"obsTime":1778493600},"SBFI":{"icaoId":"SBFI","flightCategory":"VFR","rawOb":"METAR SBFI 111000Z 14003KT CAVOK 03/03 Q1024","temp":3,"dewp":3,"wdir":140,"wspd":3,"visib":"6+","altim":1024,"clouds":[],"obsTime":1778493600},"SBBE":{"icaoId":"SBBE","flightCategory":"LIFR","rawOb":"METAR SBBE 111000Z 16005KT 7000 BKN003 24/24 Q1011","temp":24,"dewp":24,"wdir":160,"wspd":5,"visib":4.35,"altim":1011,"clouds":[{"cover":"BKN","base":300}],"obsTime":1778493600},"SBCB":{"icaoId":"SBCB","flightCategory":"MVFR","rawOb":"METAR SBCB 111000Z 24012KT 7000 -DZ BKN010 OVC025 21/19 Q1017","temp":21,"dewp":19,"wdir":240,"wspd":12,"visib":4.35,"altim":1017,"clouds":[{"cover":"BKN","base":1000},{"cover":"OVC","base":2500}],"obsTime":1778493600},"SBCF":{"icaoId":"SBCF","flightCategory":"VFR","rawOb":"METAR SBCF 111000Z 25001KT 9999 SCT040 BKN080 19/18 Q1019","temp":19,"dewp":18,"wdir":250,"wspd":1,"visib":"6+","altim":1019,"clouds":[{"cover":"SCT","base":4000},{"cover":"BKN","base":8000}],"obsTime":1778493600},"SBCG":{"icaoId":"SBCG","flightCategory":"VFR","rawOb":"METAR SBCG 111000Z 12008KT CAVOK 08/05 Q1022","temp":8,"dewp":5,"wdir":120,"wspd":8,"visib":"6+","altim":1022,"clouds":[],"obsTime":1778493600},"SBCP":{"icaoId":"SBCP","flightCategory":"VFR","rawOb":"METAR SBCP 111000Z 23011KT 9999 FEW015 SCT020 BKN090 21/19 Q1016","temp":21,"dewp":19,"wdir":230,"wspd":11,"visib":"6+","altim":1016,"clouds":[{"cover":"FEW","base":1500},{"cover":"SCT","base":2000},{"cover":"BKN","base":9000}],"obsTime":1778493600},"SBCR":{"icaoId":"SBCR","flightCategory":"VFR","rawOb":"METAR SBCR 111100Z 26005KT 200V280 CAVOK 12/09 Q1022","temp":12,"dewp":9,"wdir":260,"wspd":5,"visib":"6+","altim":1022,"clouds":[],"obsTime":1778497200},"SBCT":{"icaoId":"SBCT","flightCategory":"VFR","rawOb":"METAR SBCT 111000Z 25005KT CAVOK 03/02 Q1022","temp":3,"dewp":2,"wdir":250,"wspd":5,"visib":"6+","altim":1022,"clouds":[],"obsTime":1778493600},"SBEG":{"icaoId":"SBEG","flightCategory":"VFR","rawOb":"METAR SBEG 111000Z 23002KT 9999 FEW007 SCT017 25/24 Q1011","temp":25,"dewp":24,"wdir":230,"wspd":2,"visib":"6+","altim":1011,"clouds":[{"cover":"FEW","base":700},{"cover":"SCT","base":1700}],"obsTime":1778493600},"SBAT":{"icaoId":"SBAT","flightCategory":"MVFR","rawOb":"METAR SBAT 111100Z 20006KT 9999 BKN018 19/18 Q1016","temp":19,"dewp":18,"wdir":200,"wspd":6,"visib":"6+","altim":1016,"clouds":[{"cover":"BKN","base":1800}],"obsTime":1778497200},"SBFL":{"icaoId":"SBFL","flightCategory":"VFR","rawOb":"METAR SBFL 111000Z 28006KT CAVOK 11/06 Q1019","temp":11,"dewp":6,"wdir":280,"wspd":6,"visib":"6+","altim":1019,"clouds":[],"obsTime":1778493600},"SBGL":{"icaoId":"SBGL","flightCategory":"MVFR","rawOb":"METAR SBGL 111000Z 22009KT 9000 FEW010 BKN015 OVC030 20/17 Q1018","temp":20,"dewp":17,"wdir":220,"wspd":9,"visib":5.59,"altim":1018,"clouds":[{"cover":"FEW","base":1000},{"cover":"BKN","base":1500},{"cover":"OVC","base":3000}],"obsTime":1778493600},"SBGO":{"icaoId":"SBGO","flightCategory":"IFR","rawOb":"METAR SBGO 111000Z 13006KT 8000 -DZ OVC005 16/15 Q1021","temp":16,"dewp":15,"wdir":130,"wspd":6,"visib":4.97,"altim":1021,"clouds":[{"cover":"OVC","base":500}],"obsTime":1778493600},"SBGR":{"icaoId":"SBGR","flightCategory":"VFR","rawOb":"METAR SBGR 111000Z 00000KT CAVOK 08/07 Q1021","temp":8,"dewp":7,"wdir":0,"wspd":0,"visib":"6+","altim":1021,"clouds":[],"obsTime":1778493600},"SBHT":{"icaoId":"SBHT","flightCategory":"IFR","rawOb":"METAR SBHT 111000Z 00000KT 2000 -RA BR BKN010 BKN080 25/24 Q1013","temp":25,"dewp":24,"wdir":0,"wspd":0,"visib":1.24,"altim":1013,"clouds":[{"cover":"BKN","base":1000},{"cover":"BKN","base":8000}],"obsTime":1778493600},"SBIL":{"icaoId":"SBIL","flightCategory":"VFR","rawOb":"METAR SBIL 111000Z 29005KT CAVOK 22/21 Q1015","temp":22,"dewp":21,"wdir":290,"wspd":5,"visib":"6+","altim":1015,"clouds":[],"obsTime":1778493600},"SBJU":{"icaoId":"SBJU","flightCategory":"MVFR","rawOb":"METAR SBJU 111000Z 00000KT 9999 BKN020 24/22 Q1015","temp":24,"dewp":22,"wdir":0,"wspd":0,"visib":"6+","altim":1015,"clouds":[{"cover":"BKN","base":2000}],"obsTime":1778493600},"SBLO":{"icaoId":"SBLO","flightCategory":"VFR","rawOb":"METAR SBLO 111000Z 24003KT CAVOK 07/05 Q1022","temp":7,"dewp":5,"wdir":240,"wspd":3,"visib":"6+","altim":1022,"clouds":[],"obsTime":1778493600},"SBMA":{"icaoId":"SBMA","flightCategory":"VFR","rawOb":"METAR SBMA 111000Z 00000KT 9999 SCT008 BKN080 25/24 Q1013","temp":25,"dewp":24,"wdir":0,"wspd":0,"visib":"6+","altim":1013,"clouds":[{"cover":"SCT","base":800},{"cover":"BKN","base":8000}],"obsTime":1778493600},"SBME":{"icaoId":"SBME","flightCategory":"MVFR","rawOb":"METAR SBME 111000Z 24006KT 6000 -RA SCT015 OVC050 20/19 Q1017 RERA","temp":20,"dewp":19,"wdir":240,"wspd":6,"visib":3.73,"altim":1017,"clouds":[{"cover":"SCT","base":1500},{"cover":"OVC","base":5000}],"obsTime":1778493600},"SBMG":{"icaoId":"SBMG","flightCategory":"VFR","rawOb":"METAR SBMG 111000Z 17003KT 9999 VCFG NSC 04/04 Q1021","temp":4,"dewp":4,"wdir":170,"wspd":3,"visib":"6+","altim":1021,"clouds":[],"obsTime":1778493600},"SBMK":{"icaoId":"SBMK","flightCategory":"VFR","rawOb":"METAR SBMK 111000Z 22003KT CAVOK 17/14 Q1018","temp":17,"dewp":14,"wdir":220,"wspd":3,"visib":"6+","altim":1018,"clouds":[],"obsTime":1778493600},"SBMO":{"icaoId":"SBMO","flightCategory":"VFR","rawOb":"METAR SBMO 111000Z 28004KT 9999 FEW020 24/23 Q1014","temp":24,"dewp":23,"wdir":280,"wspd":4,"visib":"6+","altim":1014,"clouds":[{"cover":"FEW","base":2000}],"obsTime":1778493600},"SBMQ":{"icaoId":"SBMQ","flightCategory":"VFR","rawOb":"METAR SBMQ 111000Z 33002KT 9999 FEW004 SCT020 25/25 Q1012","temp":25,"dewp":25,"wdir":330,"wspd":2,"visib":"6+","altim":1012,"clouds":[{"cover":"FEW","base":400},{"cover":"SCT","base":2000}],"obsTime":1778493600},"SBNT":{"icaoId":"SBNT","flightCategory":"VFR","rawOb":"METAR SBNT 111000Z 18005KT 160V220 CAVOK 24/22 Q1013","temp":24,"dewp":22,"wdir":180,"wspd":5,"visib":"6+","altim":1013,"clouds":[],"obsTime":1778493600},"SBPA":{"icaoId":"SBPA","flightCategory":"VFR","rawOb":"METAR SBPA 111000Z 29006KT CAVOK 08/06 Q1021","temp":8,"dewp":6,"wdir":290,"wspd":6,"visib":"6+","altim":1021,"clouds":[],"obsTime":1778493600},"SBPJ":{"icaoId":"SBPJ","flightCategory":"VFR","rawOb":"METAR SBPJ 111000Z 09003KT 060V120 CAVOK 25/22 Q1014","temp":25,"dewp":22,"wdir":90,"wspd":3,"visib":"6+","altim":1014,"clouds":[],"obsTime":1778493600},"SBPV":{"icaoId":"SBPV","flightCategory":"MVFR","rawOb":"METAR SBPV 111000Z 18008KT 9999 BKN016 19/16 Q1015","temp":19,"dewp":16,"wdir":180,"wspd":8,"visib":"6+","altim":1015,"clouds":[{"cover":"BKN","base":1600}],"obsTime":1778493600},"SBRB":{"icaoId":"SBRB","flightCategory":"MVFR","rawOb":"METAR SBRB 111000Z 17006KT 8000 FEW010 SCT030 BKN100 15/13 Q1018","temp":15,"dewp":13,"wdir":170,"wspd":6,"visib":4.97,"altim":1018,"clouds":[{"cover":"FEW","base":1000},{"cover":"SCT","base":3000},{"cover":"BKN","base":10000}],"obsTime":1778493600},"SBRF":{"icaoId":"SBRF","flightCategory":"VFR","rawOb":"METAR SBRF 111000Z 21006KT 9999 SCT020 25/23 Q1013","temp":25,"dewp":23,"wdir":210,"wspd":6,"visib":"6+","altim":1013,"clouds":[{"cover":"SCT","base":2000}],"obsTime":1778493600},"SBSG":{"icaoId":"SBSG","flightCategory":"VFR","rawOb":"METAR SBSG 111000Z 18004KT 9999 FEW030 24/23 Q1013","temp":24,"dewp":23,"wdir":180,"wspd":4,"visib":"6+","altim":1013,"clouds":[{"cover":"FEW","base":3000}],"obsTime":1778493600},"SBSL":{"icaoId":"SBSL","flightCategory":"VFR","rawOb":"METAR SBSL 111000Z VRB05KT 9999 0100N PRFG FEW009 24/24 Q1011","temp":24,"dewp":24,"wdir":"VRB","wspd":5,"visib":"6+","altim":1011,"clouds":[{"cover":"FEW","base":900}],"obsTime":1778493600},"SBSN":{"icaoId":"SBSN","flightCategory":"IFR","rawOb":"METAR SBSN 111000Z 12002KT 8000 -RA FEW006 BKN008 OVC100 25/24 Q1012","temp":25,"dewp":24,"wdir":120,"wspd":2,"visib":4.97,"altim":1012,"clouds":[{"cover":"FEW","base":600},{"cover":"BKN","base":800},{"cover":"OVC","base":10000}],"obsTime":1778493600},"SBSP":{"icaoId":"SBSP","flightCategory":"VFR","rawOb":"METAR SBSP 111000Z 24003KT 210V330 CAVOK 10/07 Q1022","temp":10,"dewp":7,"wdir":240,"wspd":3,"visib":"6+","altim":1022,"clouds":[],"obsTime":1778493600},"SBSV":{"icaoId":"SBSV","flightCategory":"MVFR","rawOb":"METAR SBSV 111000Z 21004KT 9999 VCSH FEW012 BKN023 FEW025TCU BKN050 25/23 Q1014","temp":25,"dewp":23,"wdir":210,"wspd":4,"visib":"6+","altim":1014,"clouds":[{"cover":"FEW","base":1200},{"cover":"BKN","base":2300},{"cover":"FEW","base":2500},{"cover":"BKN","base":5000}],"obsTime":1778493600},"SBTE":{"icaoId":"SBTE","flightCategory":"VFR","rawOb":"METAR SBTE 111000Z 17002KT 9999 SCT015 BKN090 25/24 Q1012","temp":25,"dewp":24,"wdir":170,"wspd":2,"visib":"6+","altim":1012,"clouds":[{"cover":"SCT","base":1500},{"cover":"BKN","base":9000}],"obsTime":1778493600},"SBUL":{"icaoId":"SBUL","flightCategory":"LIFR","rawOb":"METAR SBUL 111000Z 23007KT 5000 BR OVC003 13/13 Q1022","temp":13,"dewp":13,"wdir":230,"wspd":7,"visib":3.11,"altim":1022,"clouds":[{"cover":"OVC","base":300}],"obsTime":1778493600},"SBUR":{"icaoId":"SBUR","flightCategory":"LIFR","rawOb":"METAR SBUR 111000Z 21006KT 0900 FG OVC002 13/12 Q1021","temp":13,"dewp":12,"wdir":210,"wspd":6,"visib":0.56,"altim":1021,"clouds":[{"cover":"OVC","base":200}],"obsTime":1778493600},"SBVT":{"icaoId":"SBVT","flightCategory":"VFR","rawOb":"METAR SBVT 111000Z 24006KT 9999 FEW015 BKN045 22/21 Q1016","temp":22,"dewp":21,"wdir":240,"wspd":6,"visib":"6+","altim":1016,"clouds":[{"cover":"FEW","base":1500},{"cover":"BKN","base":4500}],"obsTime":1778493600},"SBTF":{"icaoId":"SBTF","flightCategory":"VFR","rawOb":"SPECI SBTF 111115Z 17005KT 9999 SCT004 OVC070 24/24 Q1012","temp":24,"dewp":24,"wdir":170,"wspd":5,"visib":"6+","altim":1012,"clouds":[{"cover":"SCT","base":400},{"cover":"OVC","base":7000}],"obsTime":1778498100},"SBPP":{"icaoId":"SBPP","flightCategory":"VFR","rawOb":"SPECI SBPP 111115Z 13004KT CAVOK 06/03 Q1024","temp":6,"dewp":3,"wdir":130,"wspd":4,"visib":"6+","altim":1024,"clouds":[],"obsTime":1778498100},"SBUY":{"icaoId":"SBUY","flightCategory":"IFR","rawOb":"METAR SBUY 111100Z 22004KT 1800 BR BKN006 BKN070 21/20 Q1013 RERA","temp":21,"dewp":20,"wdir":220,"wspd":4,"visib":1.12,"altim":1013,"clouds":[{"cover":"BKN","base":600},{"cover":"BKN","base":7000}],"obsTime":1778497200},"SBTU":{"icaoId":"SBTU","flightCategory":"LIFR","rawOb":"METAR SBTU 111000Z AUTO 23006KT 0900 // ///////// ///// Q1014","temp":null,"dewp":null,"wdir":230,"wspd":6,"visib":0.56,"altim":1014,"clouds":[],"obsTime":1778493600},"SBBH":{"icaoId":"SBBH","flightCategory":"VFR","rawOb":"METAR SBBH 111000Z 08002KT 9999 BKN049 20/18 Q1019","temp":20,"dewp":18,"wdir":80,"wspd":2,"visib":"6+","altim":1019,"clouds":[{"cover":"BKN","base":4900}],"obsTime":1778493600},"SBTT":{"icaoId":"SBTT","flightCategory":"IFR","rawOb":"METAR SBTT 111100Z 23009KT 4000 -DZ BKN008 21/18 Q1014","temp":21,"dewp":18,"wdir":230,"wspd":9,"visib":2.49,"altim":1014,"clouds":[{"cover":"BKN","base":800}],"obsTime":1778497200},"SBBU":{"icaoId":"SBBU","flightCategory":"VFR","rawOb":"METAR SBBU 111000Z 11002KT CAVOK 10/09 Q1021","temp":10,"dewp":9,"wdir":110,"wspd":2,"visib":"6+","altim":1021,"clouds":[],"obsTime":1778493600},"SBCA":{"icaoId":"SBCA","flightCategory":"VFR","rawOb":"METAR SBCA 111000Z 18007KT 9999 BCFG FEW001 02/02 Q1022","temp":2,"dewp":2,"wdir":180,"wspd":7,"visib":"6+","altim":1022,"clouds":[{"cover":"FEW","base":100}],"obsTime":1778493600},"SBCC":{"icaoId":"SBCC","flightCategory":"MVFR","rawOb":"METAR SBCC 111100Z 15007KT 120V190 9999 OVC010 20/19 Q1016","temp":20,"dewp":19,"wdir":150,"wspd":7,"visib":"6+","altim":1016,"clouds":[{"cover":"OVC","base":1000}],"obsTime":1778497200},"SBAR":{"icaoId":"SBAR","flightCategory":"VFR","rawOb":"METAR SBAR 111000Z VRB02KT 9999 VCSH SCT021 SCT050 24/23 Q1014","temp":24,"dewp":23,"wdir":"VRB","wspd":2,"visib":"6+","altim":1014,"clouds":[{"cover":"SCT","base":2100},{"cover":"SCT","base":5000}],"obsTime":1778493600},"SBCJ":{"icaoId":"SBCJ","flightCategory":"VFR","rawOb":"SPECI SBCJ 111015Z 00000KT 9999 SCT010 SCT080 22/20 Q1017","temp":22,"dewp":20,"wdir":0,"wspd":0,"visib":"6+","altim":1017,"clouds":[{"cover":"SCT","base":1000},{"cover":"SCT","base":8000}],"obsTime":1778494500},"SBTD":{"icaoId":"SBTD","flightCategory":"VFR","rawOb":"METAR SBTD 111100Z /////KT CAVOK 05/04 Q1023","temp":5,"dewp":4,"wdir":null,"wspd":null,"visib":"6+","altim":1023,"clouds":[],"obsTime":1778497200},"SBCO":{"icaoId":"SBCO","flightCategory":"VFR","rawOb":"METAR SBCO 111000Z 30009KT 9999 FEW015 08/05 Q1022","temp":8,"dewp":5,"wdir":300,"wspd":9,"visib":"6+","altim":1022,"clouds":[{"cover":"FEW","base":1500}],"obsTime":1778493600},"SBSR":{"icaoId":"SBSR","flightCategory":"VFR","rawOb":"METAR SBSR 111000Z 19002KT 9999 FEW020 BKN070 12/11 Q1021","temp":12,"dewp":11,"wdir":190,"wspd":2,"visib":"6+","altim":1021,"clouds":[{"cover":"FEW","base":2000},{"cover":"BKN","base":7000}],"obsTime":1778493600},"SBDN":{"icaoId":"SBDN","flightCategory":"VFR","rawOb":"METAR SBDN 111000Z 23001KT CAVOK 06/05 Q1022","temp":6,"dewp":5,"wdir":230,"wspd":1,"visib":"6+","altim":1022,"clouds":[],"obsTime":1778493600},"SBSM":{"icaoId":"SBSM","flightCategory":"VFR","rawOb":"METAR SBSM 111000Z 06003KT CAVOK 03/03 Q1023","temp":3,"dewp":3,"wdir":60,"wspd":3,"visib":"6+","altim":1023,"clouds":[],"obsTime":1778493600},"SBES":{"icaoId":"SBES","flightCategory":"MVFR","rawOb":"METAR SBES 111000Z VRB01G12KT 6000 -DZ SCT006 BKN011 OVC023 18/// Q1017","temp":null,"dewp":null,"wdir":"VRB","wspd":1,"visib":3.73,"altim":1017,"clouds":[{"cover":"SCT","base":600},{"cover":"BKN","base":1100},{"cover":"OVC","base":2300}],"obsTime":1778493600},"SBSJ":{"icaoId":"SBSJ","flightCategory":"MVFR","rawOb":"METAR SBSJ 111000Z 19006KT 9999 BKN020 12/09 Q1021","temp":12,"dewp":9,"wdir":190,"wspd":6,"visib":"6+","altim":1021,"clouds":[{"cover":"BKN","base":2000}],"obsTime":1778493600},"SBSC":{"icaoId":"SBSC","flightCategory":"IFR","rawOb":"METAR SBSC 111000Z 20010G21KT 7000 -RA FEW005 BKN009 BKN025 18/17 Q1019","temp":18,"dewp":17,"wdir":200,"wspd":10,"visib":4.35,"altim":1019,"clouds":[{"cover":"FEW","base":500},{"cover":"BKN","base":900},{"cover":"BKN","base":2500}],"obsTime":1778493600},"SBIP":{"icaoId":"SBIP","flightCategory":"IFR","rawOb":"METAR SBIP 111000Z AUTO 21001KT 1800 BR VV001 19/19 Q1017","temp":19,"dewp":19,"wdir":210,"wspd":1,"visib":1.12,"altim":1017,"clouds":[{"cover":"OVX","base":100}],"obsTime":1778493600},"SBPS":{"icaoId":"SBPS","flightCategory":"VFR","rawOb":"METAR SBPS 111000Z 26005KT 9999 FEW020 21/20 Q1016","temp":21,"dewp":20,"wdir":260,"wspd":5,"visib":"6+","altim":1016,"clouds":[{"cover":"FEW","base":2000}],"obsTime":1778493600},"SBKG":{"icaoId":"SBKG","flightCategory":"MVFR","rawOb":"METAR SBKG 111000Z 21003KT 9999 BKN010 SCT070 22/21 Q1016","temp":22,"dewp":21,"wdir":210,"wspd":3,"visib":"6+","altim":1016,"clouds":[{"cover":"BKN","base":1000},{"cover":"SCT","base":7000}],"obsTime":1778493600},"SBOI":{"icaoId":"SBOI","flightCategory":"VFR","rawOb":"SPECI SBOI 111010Z AUTO VRB04KT 9999 // SCT008/// SCT032/// BKN045/// 25/24 Q1012","temp":25,"dewp":24,"wdir":"VRB","wspd":4,"visib":"6+","altim":1012,"clouds":[{"cover":"SCT","base":800},{"cover":"SCT","base":3200},{"cover":"BKN","base":4500}],"obsTime":1778494200},"SBVH":{"icaoId":"SBVH","flightCategory":"VFR","rawOb":"METAR SBVH 111100Z 14010KT CAVOK 13/10 Q1019","temp":13,"dewp":10,"wdir":140,"wspd":10,"visib":"6+","altim":1019,"clouds":[],"obsTime":1778497200},"SBPB":{"icaoId":"SBPB","flightCategory":"VFR","rawOb":"SPECI SBPB 111015Z 18003KT 9999 FEW020 26/24 Q1011","temp":26,"dewp":24,"wdir":180,"wspd":3,"visib":"6+","altim":1011,"clouds":[{"cover":"FEW","base":2000}],"obsTime":1778494500},"SBPL":{"icaoId":"SBPL","flightCategory":"VFR","rawOb":"METAR SBPL 111000Z 13004KT 9999 FEW022 23/19 Q1016","temp":23,"dewp":19,"wdir":130,"wspd":4,"visib":"6+","altim":1016,"clouds":[{"cover":"FEW","base":2200}],"obsTime":1778493600},"SBAX":{"icaoId":"SBAX","flightCategory":"IFR","rawOb":"METAR SBAX 111000Z 21004KT 9999 BKN008 15/15 Q1021","temp":15,"dewp":15,"wdir":210,"wspd":4,"visib":"6+","altim":1021,"clouds":[{"cover":"BKN","base":800}],"obsTime":1778493600},"SBJP":{"icaoId":"SBJP","flightCategory":"VFR","rawOb":"METAR SBJP 111000Z 19005KT 9999 FEW020 BKN070 25/24 Q1013","temp":25,"dewp":24,"wdir":190,"wspd":5,"visib":"6+","altim":1013,"clouds":[{"cover":"FEW","base":2000},{"cover":"BKN","base":7000}],"obsTime":1778493600},"SBLE":{"icaoId":"SBLE","flightCategory":"VFR","rawOb":"METAR SBLE 111000Z AUTO 28003KT 9999 FEW035 ///// Q////","temp":null,"dewp":null,"wdir":280,"wspd":3,"visib":"6+","altim":null,"clouds":[{"cover":"FEW","base":3500}],"obsTime":1778493600},"SBJV":{"icaoId":"SBJV","flightCategory":"VFR","rawOb":"METAR SBJV 111000Z 30002KT CAVOK 06/05 Q1021","temp":6,"dewp":5,"wdir":300,"wspd":2,"visib":"6+","altim":1021,"clouds":[],"obsTime":1778493600},"SBNM":{"icaoId":"SBNM","flightCategory":"VFR","rawOb":"METAR SBNM 111000Z AUTO 34001KT CAVOK 04/03 Q1023","temp":4,"dewp":3,"wdir":340,"wspd":1,"visib":"6+","altim":1023,"clouds":[],"obsTime":1778493600},"SBPF":{"icaoId":"SBPF","flightCategory":"VFR","rawOb":"METAR SBPF 111000Z 35009KT CAVOK 04/02 Q1022","temp":4,"dewp":2,"wdir":350,"wspd":9,"visib":"6+","altim":1022,"clouds":[],"obsTime":1778493600},"SBIH":{"icaoId":"SBIH","flightCategory":"VFR","rawOb":"METAR SBIH 111100Z 00000KT 9999 SCT008 26/25 Q1012","temp":26,"dewp":25,"wdir":0,"wspd":0,"visib":"6+","altim":1012,"clouds":[{"cover":"SCT","base":800}],"obsTime":1778497200},"SBAF":{"icaoId":"SBAF","flightCategory":"MVFR","rawOb":"METAR SBAF 111000Z 21004KT 9999 BKN013 BKN026 19/19 Q1019","temp":19,"dewp":19,"wdir":210,"wspd":4,"visib":"6+","altim":1019,"clouds":[{"cover":"BKN","base":1300},{"cover":"BKN","base":2600}],"obsTime":1778493600},"SBGW":{"icaoId":"SBGW","flightCategory":"MVFR","rawOb":"METAR SBGW 111000Z 24003KT 210V290 5000 BR BKN011 OVC033 15/11 Q1020","temp":15,"dewp":11,"wdir":240,"wspd":3,"visib":3.11,"altim":1020,"clouds":[{"cover":"BKN","base":1100},{"cover":"OVC","base":3300}],"obsTime":1778493600},"SBJR":{"icaoId":"SBJR","flightCategory":"LIFR","rawOb":"METAR SBJR 111000Z 27005KT 1500 -RADZ FEW002 BKN004 OVC010 19/18 Q1018","temp":19,"dewp":18,"wdir":270,"wspd":5,"visib":0.93,"altim":1018,"clouds":[{"cover":"FEW","base":200},{"cover":"BKN","base":400},{"cover":"OVC","base":1000}],"obsTime":1778493600},"SBLS":{"icaoId":"SBLS","flightCategory":"MVFR","rawOb":"METAR SBLS 111000Z 20003KT 140V220 6000 0500W PRFG FEW001 BKN040 BKN070 18/18 Q1019","temp":18,"dewp":18,"wdir":200,"wspd":3,"visib":3.73,"altim":1019,"clouds":[{"cover":"FEW","base":100},{"cover":"BKN","base":4000},{"cover":"BKN","base":7000}],"obsTime":1778493600},"SBMT":{"icaoId":"SBMT","flightCategory":"VFR","rawOb":"METAR SBMT 111000Z 00000KT CAVOK 08/08 Q1021","temp":8,"dewp":8,"wdir":0,"wspd":0,"visib":"6+","altim":1021,"clouds":[],"obsTime":1778493600},"SBST":{"icaoId":"SBST","flightCategory":"VFR","rawOb":"METAR SBST 111100Z 00000KT CAVOK 13/13 Q1021","temp":13,"dewp":13,"wdir":0,"wspd":0,"visib":"6+","altim":1021,"clouds":[],"obsTime":1778497200},"SBTA":{"icaoId":"SBTA","flightCategory":"IFR","rawOb":"METAR SBTA 111000Z 27006KT 9999 BKN008 OVC023 14/12 Q1020","temp":14,"dewp":12,"wdir":270,"wspd":6,"visib":"6+","altim":1020,"clouds":[{"cover":"BKN","base":800},{"cover":"OVC","base":2300}],"obsTime":1778493600},"SBAN":{"icaoId":"SBAN","flightCategory":"LIFR","rawOb":"METAR SBAN 111000Z 27008KT 0200 R06L/0600 R24R/1300 FG BKN002 OVC009 14/13 Q1022","temp":14,"dewp":13,"wdir":270,"wspd":8,"visib":0.12,"altim":1022,"clouds":[{"cover":"BKN","base":200},{"cover":"OVC","base":900}],"obsTime":1778493600}}}