{"updated":1776177858,"count":87,"data":{"SBKP":{"icaoId":"SBKP","flightCategory":"VFR","rawOb":"METAR SBKP 141300Z 10009KT CAVOK 23/16 Q1019","temp":23,"dewp":16,"wdir":100,"wspd":9,"visib":"6+","altim":1019,"clouds":[],"obsTime":1776171600},"SBCZ":{"icaoId":"SBCZ","flightCategory":"VFR","rawOb":"METAR SBCZ 141300Z 00000KT 9999 FEW003 26/24 Q1011","temp":26,"dewp":24,"wdir":0,"wspd":0,"visib":"6+","altim":1011,"clouds":[{"cover":"FEW","base":300}],"obsTime":1776171600},"SBBE":{"icaoId":"SBBE","flightCategory":"VFR","rawOb":"METAR SBBE 141300Z 05005KT 9999 SCT015 27/24 Q1011","temp":27,"dewp":24,"wdir":50,"wspd":5,"visib":"6+","altim":1011,"clouds":[{"cover":"SCT","base":1500}],"obsTime":1776171600},"SBMA":{"icaoId":"SBMA","flightCategory":"MVFR","rawOb":"METAR SBMA 141300Z 22003KT 9999 BKN015 29/24 Q1011","temp":29,"dewp":24,"wdir":220,"wspd":3,"visib":"6+","altim":1011,"clouds":[{"cover":"BKN","base":1500}],"obsTime":1776171600},"SBEG":{"icaoId":"SBEG","flightCategory":"IFR","rawOb":"METAR SBEG 141300Z 04004KT 320V070 9999 BKN007 BKN046 26/25 Q1012 RERA","temp":26,"dewp":25,"wdir":40,"wspd":4,"visib":"6+","altim":1012,"clouds":[{"cover":"BKN","base":700},{"cover":"BKN","base":4600}],"obsTime":1776171600},"SBME":{"icaoId":"SBME","flightCategory":"VFR","rawOb":"METAR SBME 141300Z 16006KT 9999 FEW030 27/19 Q1016","temp":27,"dewp":19,"wdir":160,"wspd":6,"visib":"6+","altim":1016,"clouds":[{"cover":"FEW","base":3000}],"obsTime":1776171600},"SBFI":{"icaoId":"SBFI","flightCategory":"VFR","rawOb":"METAR SBFI 141300Z 08008KT CAVOK 25/22 Q1014","temp":25,"dewp":22,"wdir":80,"wspd":8,"visib":"6+","altim":1014,"clouds":[],"obsTime":1776171600},"SBMG":{"icaoId":"SBMG","flightCategory":"VFR","rawOb":"METAR SBMG 141300Z 09012KT 9999 FEW045 25/18 Q1016","temp":25,"dewp":18,"wdir":90,"wspd":12,"visib":"6+","altim":1016,"clouds":[{"cover":"FEW","base":4500}],"obsTime":1776171600},"SBCF":{"icaoId":"SBCF","flightCategory":"VFR","rawOb":"METAR SBCF 141300Z 08004KT 020V140 9999 SCT020 23/16 Q1020","temp":23,"dewp":16,"wdir":80,"wspd":4,"visib":"6+","altim":1020,"clouds":[{"cover":"SCT","base":2000}],"obsTime":1776171600},"SBMK":{"icaoId":"SBMK","flightCategory":"MVFR","rawOb":"METAR SBMK 141300Z 09005KT 9999 BKN025 24/17 Q1018","temp":24,"dewp":17,"wdir":90,"wspd":5,"visib":"6+","altim":1018,"clouds":[{"cover":"BKN","base":2500}],"obsTime":1776171600},"SBCG":{"icaoId":"SBCG","flightCategory":"VFR","rawOb":"METAR SBCG 141300Z 07010KT CAVOK 27/20 Q1015","temp":27,"dewp":20,"wdir":70,"wspd":10,"visib":"6+","altim":1015,"clouds":[],"obsTime":1776171600},"SBMO":{"icaoId":"SBMO","flightCategory":"MVFR","rawOb":"METAR SBMO 141300Z 11004KT 060V150 8000 VCSH SCT017 BKN023 BKN065 25/24 Q1012 RERA","temp":25,"dewp":24,"wdir":110,"wspd":4,"visib":4.97,"altim":1012,"clouds":[{"cover":"SCT","base":1700},{"cover":"BKN","base":2300},{"cover":"BKN","base":6500}],"obsTime":1776171600},"SBFL":{"icaoId":"SBFL","flightCategory":"VFR","rawOb":"METAR SBFL 141300Z 28005KT 9999 FEW020 BKN070 24/21 Q1018","temp":24,"dewp":21,"wdir":280,"wspd":5,"visib":"6+","altim":1018,"clouds":[{"cover":"FEW","base":2000},{"cover":"BKN","base":7000}],"obsTime":1776171600},"SBMQ":{"icaoId":"SBMQ","flightCategory":"MVFR","rawOb":"METAR SBMQ 141300Z 36005KT 9999 BKN015 28/25 Q1011","temp":28,"dewp":25,"wdir":360,"wspd":5,"visib":"6+","altim":1011,"clouds":[{"cover":"BKN","base":1500}],"obsTime":1776171600},"SBBR":{"icaoId":"SBBR","flightCategory":"MVFR","rawOb":"METAR SBBR 141300Z 09008KT 9999 BKN014 21/18 Q1019","temp":21,"dewp":18,"wdir":90,"wspd":8,"visib":"6+","altim":1019,"clouds":[{"cover":"BKN","base":1400}],"obsTime":1776171600},"SBNT":{"icaoId":"SBNT","flightCategory":"MVFR","rawOb":"METAR SBNT 141300Z 11014KT 080V140 9999 VCSH FEW015 BKN025 FEW027TCU 30/25 Q1011","temp":30,"dewp":25,"wdir":110,"wspd":14,"visib":"6+","altim":1011,"clouds":[{"cover":"FEW","base":1500},{"cover":"BKN","base":2500},{"cover":"FEW","base":2700}],"obsTime":1776171600},"SBFZ":{"icaoId":"SBFZ","flightCategory":"VFR","rawOb":"METAR SBFZ 141300Z 07003KT 9999 SCT020 BKN080 26/24 Q1011","temp":26,"dewp":24,"wdir":70,"wspd":3,"visib":"6+","altim":1011,"clouds":[{"cover":"SCT","base":2000},{"cover":"BKN","base":8000}],"obsTime":1776171600},"SBPA":{"icaoId":"SBPA","flightCategory":"VFR","rawOb":"METAR SBPA 141300Z 05006KT 9999 FEW011 24/21 Q1016","temp":24,"dewp":21,"wdir":50,"wspd":6,"visib":"6+","altim":1016,"clouds":[{"cover":"FEW","base":1100}],"obsTime":1776171600},"SBAT":{"icaoId":"SBAT","flightCategory":"VFR","rawOb":"METAR SBAT 141300Z 36001KT 9999 SCT018 29/26 Q1013","temp":29,"dewp":26,"wdir":360,"wspd":1,"visib":"6+","altim":1013,"clouds":[{"cover":"SCT","base":1800}],"obsTime":1776171600},"SBPJ":{"icaoId":"SBPJ","flightCategory":"VFR","rawOb":"METAR SBPJ 141300Z 28005KT 9999 FEW027 30/25 Q1012","temp":30,"dewp":25,"wdir":280,"wspd":5,"visib":"6+","altim":1012,"clouds":[{"cover":"FEW","base":2700}],"obsTime":1776171600},"SBGL":{"icaoId":"SBGL","flightCategory":"VFR","rawOb":"METAR SBGL 141300Z 36003KT 310V090 9999 FEW025 26/19 Q1017","temp":26,"dewp":19,"wdir":360,"wspd":3,"visib":"6+","altim":1017,"clouds":[{"cover":"FEW","base":2500}],"obsTime":1776171600},"SBPV":{"icaoId":"SBPV","flightCategory":"VFR","rawOb":"METAR SBPV 141300Z 13001KT 9999 FEW007 BKN100 26/24 Q1011","temp":26,"dewp":24,"wdir":130,"wspd":1,"visib":"6+","altim":1011,"clouds":[{"cover":"FEW","base":700},{"cover":"BKN","base":10000}],"obsTime":1776171600},"SBCP":{"icaoId":"SBCP","flightCategory":"VFR","rawOb":"METAR SBCP 141300Z 26004KT 9999 FEW020 27/18 Q1016","temp":27,"dewp":18,"wdir":260,"wspd":4,"visib":"6+","altim":1016,"clouds":[{"cover":"FEW","base":2000}],"obsTime":1776171600},"SBRB":{"icaoId":"SBRB","flightCategory":"MVFR","rawOb":"METAR SBRB 141300Z 33004KT 300V360 8000 SCT008 BKN080 27/25 Q1012","temp":27,"dewp":25,"wdir":330,"wspd":4,"visib":4.97,"altim":1012,"clouds":[{"cover":"SCT","base":800},{"cover":"BKN","base":8000}],"obsTime":1776171600},"SBGO":{"icaoId":"SBGO","flightCategory":"VFR","rawOb":"METAR SBGO 141300Z 05008KT 020V080 9999 FEW028 26/20 Q1017","temp":26,"dewp":20,"wdir":50,"wspd":8,"visib":"6+","altim":1017,"clouds":[{"cover":"FEW","base":2800}],"obsTime":1776171600},"SBRF":{"icaoId":"SBRF","flightCategory":"MVFR","rawOb":"METAR SBRF 141300Z 14011KT 100V170 9999 FEW014 BKN018 29/25 Q1011","temp":29,"dewp":25,"wdir":140,"wspd":11,"visib":"6+","altim":1011,"clouds":[{"cover":"FEW","base":1400},{"cover":"BKN","base":1800}],"obsTime":1776171600},"SBBV":{"icaoId":"SBBV","flightCategory":"VFR","rawOb":"METAR SBBV 141300Z 11014G26KT 9999 FEW040 SCT100 29/20 Q1012","temp":29,"dewp":20,"wdir":110,"wspd":14,"visib":"6+","altim":1012,"clouds":[{"cover":"FEW","base":4000},{"cover":"SCT","base":10000}],"obsTime":1776171600},"SBSG":{"icaoId":"SBSG","flightCategory":"MVFR","rawOb":"METAR SBSG 141300Z 10013KT 8000 VCSH BKN017 FEW023TCU BKN050 27/25 Q1011","temp":27,"dewp":25,"wdir":100,"wspd":13,"visib":4.97,"altim":1011,"clouds":[{"cover":"BKN","base":1700},{"cover":"FEW","base":2300},{"cover":"BKN","base":5000}],"obsTime":1776171600},"SBGR":{"icaoId":"SBGR","flightCategory":"MVFR","rawOb":"METAR SBGR 141300Z 05005KT 9999 BKN020 22/16 Q1020","temp":22,"dewp":16,"wdir":50,"wspd":5,"visib":"6+","altim":1020,"clouds":[{"cover":"BKN","base":2000}],"obsTime":1776171600},"SBSL":{"icaoId":"SBSL","flightCategory":"VFR","rawOb":"METAR SBSL 141300Z 08010KT 040V100 9999 FEW015 SCT020 BKN100 29/25 Q1010","temp":29,"dewp":25,"wdir":80,"wspd":10,"visib":"6+","altim":1010,"clouds":[{"cover":"FEW","base":1500},{"cover":"SCT","base":2000},{"cover":"BKN","base":10000}],"obsTime":1776171600},"SBCR":{"icaoId":"SBCR","flightCategory":"VFR","rawOb":"METAR SBCR 141300Z 03007KT 9999 FEW030 29/23 Q1012","temp":29,"dewp":23,"wdir":30,"wspd":7,"visib":"6+","altim":1012,"clouds":[{"cover":"FEW","base":3000}],"obsTime":1776171600},"SBSN":{"icaoId":"SBSN","flightCategory":"VFR","rawOb":"METAR SBSN 141300Z 04005KT 9999 SCT015 BKN100 27/24 Q1011","temp":27,"dewp":24,"wdir":40,"wspd":5,"visib":"6+","altim":1011,"clouds":[{"cover":"SCT","base":1500},{"cover":"BKN","base":10000}],"obsTime":1776171600},"SBHT":{"icaoId":"SBHT","flightCategory":"VFR","rawOb":"METAR SBHT 141300Z 30003KT 9999 SCT015 BKN080 28/23 Q1012","temp":28,"dewp":23,"wdir":300,"wspd":3,"visib":"6+","altim":1012,"clouds":[{"cover":"SCT","base":1500},{"cover":"BKN","base":8000}],"obsTime":1776171600},"SBSP":{"icaoId":"SBSP","flightCategory":"VFR","rawOb":"METAR SBSP 141300Z 10006KT 050V210 9999 SCT023 22/16 Q1021","temp":22,"dewp":16,"wdir":100,"wspd":6,"visib":"6+","altim":1021,"clouds":[{"cover":"SCT","base":2300}],"obsTime":1776171600},"SBCT":{"icaoId":"SBCT","flightCategory":"MVFR","rawOb":"METAR SBCT 141300Z 07009KT 9999 BKN019 BKN025 19/16 Q1021","temp":19,"dewp":16,"wdir":70,"wspd":9,"visib":"6+","altim":1021,"clouds":[{"cover":"BKN","base":1900},{"cover":"BKN","base":2500}],"obsTime":1776171600},"SBSV":{"icaoId":"SBSV","flightCategory":"VFR","rawOb":"METAR SBSV 141300Z 12006KT 080V150 9999 VCSH FEW015 SCT021 FEW025TCU BKN055 27/21 Q1013","temp":27,"dewp":21,"wdir":120,"wspd":6,"visib":"6+","altim":1013,"clouds":[{"cover":"FEW","base":1500},{"cover":"SCT","base":2100},{"cover":"FEW","base":2500},{"cover":"BKN","base":5500}],"obsTime":1776171600},"SBIL":{"icaoId":"SBIL","flightCategory":"VFR","rawOb":"METAR SBIL 141300Z 19008KT 150V240 9999 SCT020 30/22 Q1015","temp":30,"dewp":22,"wdir":190,"wspd":8,"visib":"6+","altim":1015,"clouds":[{"cover":"SCT","base":2000}],"obsTime":1776171600},"SBTE":{"icaoId":"SBTE","flightCategory":"MVFR","rawOb":"METAR SBTE 141300Z 13006KT 9999 BKN016 29/24 Q1010","temp":29,"dewp":24,"wdir":130,"wspd":6,"visib":"6+","altim":1010,"clouds":[{"cover":"BKN","base":1600}],"obsTime":1776171600},"SBLO":{"icaoId":"SBLO","flightCategory":"VFR","rawOb":"METAR SBLO 141300Z 13008KT 9999 FEW017 23/19 Q1018","temp":23,"dewp":19,"wdir":130,"wspd":8,"visib":"6+","altim":1018,"clouds":[{"cover":"FEW","base":1700}],"obsTime":1776171600},"SBUL":{"icaoId":"SBUL","flightCategory":"VFR","rawOb":"METAR SBUL 141300Z 07011KT 9999 FEW020 24/18 Q1019","temp":24,"dewp":18,"wdir":70,"wspd":11,"visib":"6+","altim":1019,"clouds":[{"cover":"FEW","base":2000}],"obsTime":1776171600},"SBJU":{"icaoId":"SBJU","flightCategory":"MVFR","rawOb":"METAR SBJU 141300Z 12007KT 9999 BKN020 26/22 Q1014","temp":26,"dewp":22,"wdir":120,"wspd":7,"visib":"6+","altim":1014,"clouds":[{"cover":"BKN","base":2000}],"obsTime":1776171600},"SBUR":{"icaoId":"SBUR","flightCategory":"VFR","rawOb":"METAR SBUR 141300Z 04005KT 9999 FEW030 26/17 Q1018","temp":26,"dewp":17,"wdir":40,"wspd":5,"visib":"6+","altim":1018,"clouds":[{"cover":"FEW","base":3000}],"obsTime":1776171600},"SBCB":{"icaoId":"SBCB","flightCategory":"VFR","rawOb":"METAR SBCB 141300Z 30005KT 9999 FEW020 25/21 Q1017","temp":25,"dewp":21,"wdir":300,"wspd":5,"visib":"6+","altim":1017,"clouds":[{"cover":"FEW","base":2000}],"obsTime":1776171600},"SBVT":{"icaoId":"SBVT","flightCategory":"VFR","rawOb":"METAR SBVT 141300Z 14006KT 9999 FEW040 27/19 Q1015","temp":27,"dewp":19,"wdir":140,"wspd":6,"visib":"6+","altim":1015,"clouds":[{"cover":"FEW","base":4000}],"obsTime":1776171600},"SBKG":{"icaoId":"SBKG","flightCategory":"MVFR","rawOb":"METAR SBKG 141300Z 11013KT 9999 BKN016 27/22 Q1014","temp":27,"dewp":22,"wdir":110,"wspd":13,"visib":"6+","altim":1014,"clouds":[{"cover":"BKN","base":1600}],"obsTime":1776171600},"SBCC":{"icaoId":"SBCC","flightCategory":"VFR","rawOb":"METAR SBCC 141300Z 05005KT 020V100 9999 FEW020 SCT100 28/23 Q1013","temp":28,"dewp":23,"wdir":50,"wspd":5,"visib":"6+","altim":1013,"clouds":[{"cover":"FEW","base":2000},{"cover":"SCT","base":10000}],"obsTime":1776171600},"SBOI":{"icaoId":"SBOI","flightCategory":"MVFR","rawOb":"METAR SBOI 141300Z AUTO 02006KT 360V060 9999 BKN017 29/25 Q1011","temp":29,"dewp":25,"wdir":20,"wspd":6,"visib":"6+","altim":1011,"clouds":[{"cover":"BKN","base":1700}],"obsTime":1776171600},"SBCJ":{"icaoId":"SBCJ","flightCategory":"VFR","rawOb":"METAR SBCJ 141300Z 10005KT 9999 SCT008 BKN080 26/23 Q1016","temp":26,"dewp":23,"wdir":100,"wspd":5,"visib":"6+","altim":1016,"clouds":[{"cover":"SCT","base":800},{"cover":"BKN","base":8000}],"obsTime":1776171600},"SBPB":{"icaoId":"SBPB","flightCategory":"VFR","rawOb":"METAR SBPB 141300Z 15003KT 9999 SCT010 SCT015 28/25 Q1011","temp":28,"dewp":25,"wdir":150,"wspd":3,"visib":"6+","altim":1011,"clouds":[{"cover":"SCT","base":1000},{"cover":"SCT","base":1500}],"obsTime":1776171600},"SBAR":{"icaoId":"SBAR","flightCategory":"MVFR","rawOb":"METAR SBAR 141300Z 18005KT 9999 VCSH BKN016 SCT030 BKN070 27/24 Q1012","temp":27,"dewp":24,"wdir":180,"wspd":5,"visib":"6+","altim":1012,"clouds":[{"cover":"BKN","base":1600},{"cover":"SCT","base":3000},{"cover":"BKN","base":7000}],"obsTime":1776171600},"SBPL":{"icaoId":"SBPL","flightCategory":"MVFR","rawOb":"METAR SBPL 141300Z 14012KT 9999 BKN023 27/20 Q1014","temp":27,"dewp":20,"wdir":140,"wspd":12,"visib":"6+","altim":1014,"clouds":[{"cover":"BKN","base":2300}],"obsTime":1776171600},"SBBQ":{"icaoId":"SBBQ","flightCategory":"MVFR","rawOb":"METAR SBBQ 141300Z 09005KT 9999 BKN014 20/15 Q1023","temp":20,"dewp":15,"wdir":90,"wspd":5,"visib":"6+","altim":1023,"clouds":[{"cover":"BKN","base":1400}],"obsTime":1776171600},"SBPP":{"icaoId":"SBPP","flightCategory":"VFR","rawOb":"METAR SBPP 141300Z 02011KT 9999 FEW015 BKN080 24/20 Q1016","temp":24,"dewp":20,"wdir":20,"wspd":11,"visib":"6+","altim":1016,"clouds":[{"cover":"FEW","base":1500},{"cover":"BKN","base":8000}],"obsTime":1776171600},"SBCO":{"icaoId":"SBCO","flightCategory":"VFR","rawOb":"METAR SBCO 141300Z 11004KT 080V150 9999 SCT009 23/20 Q1017","temp":23,"dewp":20,"wdir":110,"wspd":4,"visib":"6+","altim":1017,"clouds":[{"cover":"SCT","base":900}],"obsTime":1776171600},"SBPS":{"icaoId":"SBPS","flightCategory":"VFR","rawOb":"METAR SBPS 141300Z VRB05KT 9999 SCT025 27/21 Q1015","temp":27,"dewp":21,"wdir":"VRB","wspd":5,"visib":"6+","altim":1015,"clouds":[{"cover":"SCT","base":2500}],"obsTime":1776171600},"SBAX":{"icaoId":"SBAX","flightCategory":"VFR","rawOb":"METAR SBAX 141300Z 08006KT 9999 SCT020 23/17 Q1019","temp":23,"dewp":17,"wdir":80,"wspd":6,"visib":"6+","altim":1019,"clouds":[{"cover":"SCT","base":2000}],"obsTime":1776171600},"SBSC":{"icaoId":"SBSC","flightCategory":"VFR","rawOb":"METAR SBSC 141300Z 02003KT 9999 SCT042 27/20 Q1017","temp":27,"dewp":20,"wdir":20,"wspd":3,"visib":"6+","altim":1017,"clouds":[{"cover":"SCT","base":4200}],"obsTime":1776171600},"SBDN":{"icaoId":"SBDN","flightCategory":"VFR","rawOb":"METAR SBDN 141300Z 08009KT CAVOK 26/19 Q1016","temp":26,"dewp":19,"wdir":80,"wspd":9,"visib":"6+","altim":1016,"clouds":[],"obsTime":1776171600},"SBSJ":{"icaoId":"SBSJ","flightCategory":"VFR","rawOb":"METAR SBSJ 141300Z 35004KT 320V040 9999 SCT030 21/16 Q1020","temp":21,"dewp":16,"wdir":350,"wspd":4,"visib":"6+","altim":1020,"clouds":[{"cover":"SCT","base":3000}],"obsTime":1776171600},"SBBU":{"icaoId":"SBBU","flightCategory":"VFR","rawOb":"METAR SBBU 141300Z 09012KT CAVOK 25/19 Q1018","temp":25,"dewp":19,"wdir":90,"wspd":12,"visib":"6+","altim":1018,"clouds":[],"obsTime":1776171600},"SBSM":{"icaoId":"SBSM","flightCategory":"VFR","rawOb":"METAR SBSM 141300Z 11008KT 9999 SCT008 22/20 Q1015","temp":22,"dewp":20,"wdir":110,"wspd":8,"visib":"6+","altim":1015,"clouds":[{"cover":"SCT","base":800}],"obsTime":1776171600},"SBES":{"icaoId":"SBES","flightCategory":"VFR","rawOb":"METAR SBES 141300Z 22003KT 9999 FEW023 26/// Q1016","temp":null,"dewp":null,"wdir":220,"wspd":3,"visib":"6+","altim":1016,"clouds":[{"cover":"FEW","base":2300}],"obsTime":1776171600},"SBSR":{"icaoId":"SBSR","flightCategory":"VFR","rawOb":"METAR SBSR 141300Z 07005KT CAVOK 26/16 Q1017","temp":26,"dewp":16,"wdir":70,"wspd":5,"visib":"6+","altim":1017,"clouds":[],"obsTime":1776171600},"SBAU":{"icaoId":"SBAU","flightCategory":"VFR","rawOb":"METAR SBAU 141300Z 10006KT CAVOK 28/19 Q1016","temp":28,"dewp":19,"wdir":100,"wspd":6,"visib":"6+","altim":1016,"clouds":[],"obsTime":1776171600},"SBTD":{"icaoId":"SBTD","flightCategory":"VFR","rawOb":"METAR SBTD 141300Z /////KT CAVOK 26/20 Q1017","temp":26,"dewp":20,"wdir":null,"wspd":null,"visib":"6+","altim":1017,"clouds":[],"obsTime":1776171600},"SBGM":{"icaoId":"SBGM","flightCategory":"MVFR","rawOb":"METAR SBGM 141300Z 35003KT 270V050 9999 FEW006 OVC023 27/22 Q1011","temp":27,"dewp":22,"wdir":350,"wspd":3,"visib":"6+","altim":1011,"clouds":[{"cover":"FEW","base":600},{"cover":"OVC","base":2300}],"obsTime":1776171600},"SBTF":{"icaoId":"SBTF","flightCategory":"IFR","rawOb":"METAR SBTF 141300Z 07007KT 9999 BKN007 BKN090 27/26 Q1011","temp":27,"dewp":26,"wdir":70,"wspd":7,"visib":"6+","altim":1011,"clouds":[{"cover":"BKN","base":700},{"cover":"BKN","base":9000}],"obsTime":1776171600},"SBCA":{"icaoId":"SBCA","flightCategory":"VFR","rawOb":"METAR SBCA 141300Z 07012KT CAVOK 23/17 Q1018","temp":23,"dewp":17,"wdir":70,"wspd":12,"visib":"6+","altim":1018,"clouds":[],"obsTime":1776171600},"SBTT":{"icaoId":"SBTT","flightCategory":"VFR","rawOb":"METAR SBTT 141300Z 18003KT 140V230 9999 FEW017 27/23 Q1011","temp":27,"dewp":23,"wdir":180,"wspd":3,"visib":"6+","altim":1011,"clouds":[{"cover":"FEW","base":1700}],"obsTime":1776171600},"SBIP":{"icaoId":"SBIP","flightCategory":"VFR","rawOb":"METAR SBIP 141300Z AUTO 03006KT 360V080 9999 FEW020 25/19 Q1017","temp":25,"dewp":19,"wdir":30,"wspd":6,"visib":"6+","altim":1017,"clouds":[{"cover":"FEW","base":2000}],"obsTime":1776171600},"SBUY":{"icaoId":"SBUY","flightCategory":"MVFR","rawOb":"METAR SBUY 141300Z 07001KT 6000 FEW006 SCT090 26/25 Q1010","temp":26,"dewp":25,"wdir":70,"wspd":1,"visib":3.73,"altim":1010,"clouds":[{"cover":"FEW","base":600},{"cover":"SCT","base":9000}],"obsTime":1776171600},"SBBH":{"icaoId":"SBBH","flightCategory":"VFR","rawOb":"METAR SBBH 141300Z 08006KT 9999 SCT023 23/17 Q1019","temp":23,"dewp":17,"wdir":80,"wspd":6,"visib":"6+","altim":1019,"clouds":[{"cover":"SCT","base":2300}],"obsTime":1776171600},"SBVH":{"icaoId":"SBVH","flightCategory":"VFR","rawOb":"METAR SBVH 141300Z 06002KT CAVOK 24/23 Q1014","temp":24,"dewp":23,"wdir":60,"wspd":2,"visib":"6+","altim":1014,"clouds":[],"obsTime":1776171600},"SBPF":{"icaoId":"SBPF","flightCategory":"VFR","rawOb":"METAR SBPF 141300Z 04015KT CAVOK 22/16 Q1019","temp":22,"dewp":16,"wdir":40,"wspd":15,"visib":"6+","altim":1019,"clouds":[],"obsTime":1776171600},"SBJP":{"icaoId":"SBJP","flightCategory":"MVFR","rawOb":"METAR SBJP 141300Z 09010KT 5000 -RA SCT020 FEW025TCU 28/26 Q1011","temp":28,"dewp":26,"wdir":90,"wspd":10,"visib":3.11,"altim":1011,"clouds":[{"cover":"SCT","base":2000},{"cover":"FEW","base":2500}],"obsTime":1776171600},"SBAN":{"icaoId":"SBAN","flightCategory":"VFR","rawOb":"METAR SBAN 141300Z 12010KT 9999 SCT020 23/17 Q1020","temp":23,"dewp":17,"wdir":120,"wspd":10,"visib":"6+","altim":1020,"clouds":[{"cover":"SCT","base":2000}],"obsTime":1776171600},"SBLE":{"icaoId":"SBLE","flightCategory":"VFR","rawOb":"METAR SBLE 141300Z AUTO 14006KT 090V190 9999 SCT019 BKN031 24/22 Q1017","temp":24,"dewp":22,"wdir":140,"wspd":6,"visib":"6+","altim":1017,"clouds":[{"cover":"SCT","base":1900},{"cover":"BKN","base":3100}],"obsTime":1776171600},"SBIH":{"icaoId":"SBIH","flightCategory":"VFR","rawOb":"METAR SBIH 141300Z 02002KT 9999 SCT012 28/25 Q1011","temp":28,"dewp":25,"wdir":20,"wspd":2,"visib":"6+","altim":1011,"clouds":[{"cover":"SCT","base":1200}],"obsTime":1776171600},"SBAF":{"icaoId":"SBAF","flightCategory":"VFR","rawOb":" SBAF 141300Z 02002KT 9999 FEW025 26/19 Q1017","temp":26,"dewp":19,"wdir":20,"wspd":2,"visib":"6+","altim":1017,"clouds":[{"cover":"FEW","base":2500}],"obsTime":1776171600},"SBGW":{"icaoId":"SBGW","flightCategory":"MVFR","rawOb":"METAR SBGW 141300Z VRB04KT 9999 BKN022 23/14 Q1019","temp":23,"dewp":14,"wdir":"VRB","wspd":4,"visib":"6+","altim":1019,"clouds":[{"cover":"BKN","base":2200}],"obsTime":1776171600},"SBJR":{"icaoId":"SBJR","flightCategory":"VFR","rawOb":"METAR SBJR 141300Z 17005KT 9999 FEW025 30/20 Q1017","temp":30,"dewp":20,"wdir":170,"wspd":5,"visib":"6+","altim":1017,"clouds":[{"cover":"FEW","base":2500}],"obsTime":1776171600},"SBLS":{"icaoId":"SBLS","flightCategory":"MVFR","rawOb":"METAR SBLS 141300Z 11003KT 030V140 9999 BKN023 22/17 Q1019","temp":22,"dewp":17,"wdir":110,"wspd":3,"visib":"6+","altim":1019,"clouds":[{"cover":"BKN","base":2300}],"obsTime":1776171600},"SBMT":{"icaoId":"SBMT","flightCategory":"MVFR","rawOb":"METAR SBMT 141300Z 07008KT 9999 BKN020 22/15 Q1020","temp":22,"dewp":15,"wdir":70,"wspd":8,"visib":"6+","altim":1020,"clouds":[{"cover":"BKN","base":2000}],"obsTime":1776171600},"SBST":{"icaoId":"SBST","flightCategory":"VFR","rawOb":"METAR SBST 141300Z 15003KT 080V210 9999 SCT030 25/22 Q1017","temp":25,"dewp":22,"wdir":150,"wspd":3,"visib":"6+","altim":1017,"clouds":[{"cover":"SCT","base":3000}],"obsTime":1776171600},"SBTA":{"icaoId":"SBTA","flightCategory":"VFR","rawOb":"METAR SBTA 141300Z 06004KT 360V110 9999 SCT035 23/16 Q1019","temp":23,"dewp":16,"wdir":60,"wspd":4,"visib":"6+","altim":1019,"clouds":[{"cover":"SCT","base":3500}],"obsTime":1776171600},"SBJV":{"icaoId":"SBJV","flightCategory":"VFR","rawOb":"METAR SBJV 141300Z 00000KT 9999 SCT020 26/22 Q1017","temp":26,"dewp":22,"wdir":0,"wspd":0,"visib":"6+","altim":1017,"clouds":[{"cover":"SCT","base":2000}],"obsTime":1776171600},"SBNM":{"icaoId":"SBNM","flightCategory":"VFR","rawOb":"METAR SBNM 141300Z 12004KT CAVOK 24/20 Q1015","temp":24,"dewp":20,"wdir":120,"wspd":4,"visib":"6+","altim":1015,"clouds":[],"obsTime":1776171600}}}