{"updated":1777678767,"count":71,"data":{"SBPA":{"icaoId":"SBPA","flightCategory":"IFR","rawOb":"SPECI SBPA 012147Z 14007KT 2000 +TSRA BKN007 FEW040CB BKN050 19/18 Q1014","temp":19,"dewp":18,"wdir":140,"wspd":7,"visib":1.24,"altim":1014,"clouds":[{"cover":"BKN","base":700},{"cover":"FEW","base":4000},{"cover":"BKN","base":5000}],"obsTime":1777672020},"SBBR":{"icaoId":"SBBR","flightCategory":"VFR","rawOb":"METAR SBBR 012200Z 12007KT 9999 SCT045 24/15 Q1020","temp":24,"dewp":15,"wdir":120,"wspd":7,"visib":"6+","altim":1020,"clouds":[{"cover":"SCT","base":4500}],"obsTime":1777672800},"SBVT":{"icaoId":"SBVT","flightCategory":"VFR","rawOb":"METAR SBVT 012200Z 29002KT 9999 FEW020 24/22 Q1018","temp":24,"dewp":22,"wdir":290,"wspd":2,"visib":"6+","altim":1018,"clouds":[{"cover":"FEW","base":2000}],"obsTime":1777672800},"SBBV":{"icaoId":"SBBV","flightCategory":"VFR","rawOb":"METAR SBBV 012200Z 08005KT 9999 SCT040 FEW045TCU SCT090 29/23 Q1009","temp":29,"dewp":23,"wdir":80,"wspd":5,"visib":"6+","altim":1009,"clouds":[{"cover":"SCT","base":4000},{"cover":"FEW","base":4500},{"cover":"SCT","base":9000}],"obsTime":1777672800},"SBCF":{"icaoId":"SBCF","flightCategory":"VFR","rawOb":"METAR SBCF 012200Z 12009KT CAVOK 24/15 Q1021","temp":24,"dewp":15,"wdir":120,"wspd":9,"visib":"6+","altim":1021,"clouds":[],"obsTime":1777672800},"SBCG":{"icaoId":"SBCG","flightCategory":"VFR","rawOb":"METAR SBCG 012200Z 34003KT CAVOK 27/19 Q1015","temp":27,"dewp":19,"wdir":340,"wspd":3,"visib":"6+","altim":1015,"clouds":[],"obsTime":1777672800},"SBCT":{"icaoId":"SBCT","flightCategory":"VFR","rawOb":"METAR SBCT 012200Z 01005KT 9999 FEW015 21/17 Q1020","temp":21,"dewp":17,"wdir":10,"wspd":5,"visib":"6+","altim":1020,"clouds":[{"cover":"FEW","base":1500}],"obsTime":1777672800},"SBCZ":{"icaoId":"SBCZ","flightCategory":"MVFR","rawOb":"METAR SBCZ 012200Z 13005KT 9999 BKN025 FEW025TCU SCT050 29/25 Q1008","temp":29,"dewp":25,"wdir":130,"wspd":5,"visib":"6+","altim":1008,"clouds":[{"cover":"BKN","base":2500},{"cover":"FEW","base":2500},{"cover":"SCT","base":5000}],"obsTime":1777672800},"SBEG":{"icaoId":"SBEG","flightCategory":"VFR","rawOb":"METAR SBEG 012200Z VRB02KT 9999 FEW020 FEW025TCU SCT100 26/25 Q1010","temp":26,"dewp":25,"wdir":"VRB","wspd":2,"visib":"6+","altim":1010,"clouds":[{"cover":"FEW","base":2000},{"cover":"FEW","base":2500},{"cover":"SCT","base":10000}],"obsTime":1777672800},"SBFI":{"icaoId":"SBFI","flightCategory":"VFR","rawOb":"METAR SBFI 012200Z 03005KT CAVOK 27/23 Q1012","temp":27,"dewp":23,"wdir":30,"wspd":5,"visib":"6+","altim":1012,"clouds":[],"obsTime":1777672800},"SBFL":{"icaoId":"SBFL","flightCategory":"VFR","rawOb":"METAR SBFL 012200Z 35012KT CAVOK 24/20 Q1014","temp":24,"dewp":20,"wdir":350,"wspd":12,"visib":"6+","altim":1014,"clouds":[],"obsTime":1777672800},"SBFZ":{"icaoId":"SBFZ","flightCategory":"VFR","rawOb":"METAR SBFZ 012200Z 17005KT 9999 FEW020 27/24 Q1011","temp":27,"dewp":24,"wdir":170,"wspd":5,"visib":"6+","altim":1011,"clouds":[{"cover":"FEW","base":2000}],"obsTime":1777672800},"SBGL":{"icaoId":"SBGL","flightCategory":"VFR","rawOb":"METAR SBGL 012200Z 14006KT 9999 FEW008 25/23 Q1017","temp":25,"dewp":23,"wdir":140,"wspd":6,"visib":"6+","altim":1017,"clouds":[{"cover":"FEW","base":800}],"obsTime":1777672800},"SBGO":{"icaoId":"SBGO","flightCategory":"VFR","rawOb":"METAR SBGO 012200Z 10008KT CAVOK 27/16 Q1018","temp":27,"dewp":16,"wdir":100,"wspd":8,"visib":"6+","altim":1018,"clouds":[],"obsTime":1777672800},"SBGR":{"icaoId":"SBGR","flightCategory":"VFR","rawOb":"METAR SBGR 012200Z 07006KT 9999 SCT048 23/20 Q1019","temp":23,"dewp":20,"wdir":70,"wspd":6,"visib":"6+","altim":1019,"clouds":[{"cover":"SCT","base":4800}],"obsTime":1777672800},"SBIL":{"icaoId":"SBIL","flightCategory":"VFR","rawOb":"METAR SBIL 012200Z 12010KT 9999 SCT018 BKN060 28/24 Q1016","temp":28,"dewp":24,"wdir":120,"wspd":10,"visib":"6+","altim":1016,"clouds":[{"cover":"SCT","base":1800},{"cover":"BKN","base":6000}],"obsTime":1777672800},"SBJU":{"icaoId":"SBJU","flightCategory":"VFR","rawOb":"METAR SBJU 012200Z 00000KT 9999 SCT020 26/22 Q1015","temp":26,"dewp":22,"wdir":0,"wspd":0,"visib":"6+","altim":1015,"clouds":[{"cover":"SCT","base":2000}],"obsTime":1777672800},"SBKP":{"icaoId":"SBKP","flightCategory":"VFR","rawOb":"METAR SBKP 012200Z 36002KT CAVOK 26/19 Q1019","temp":26,"dewp":19,"wdir":360,"wspd":2,"visib":"6+","altim":1019,"clouds":[],"obsTime":1777672800},"SBLO":{"icaoId":"SBLO","flightCategory":"VFR","rawOb":"METAR SBLO 012200Z 11003KT CAVOK 24/20 Q1017","temp":24,"dewp":20,"wdir":110,"wspd":3,"visib":"6+","altim":1017,"clouds":[],"obsTime":1777672800},"SBMA":{"icaoId":"SBMA","flightCategory":"VFR","rawOb":"METAR SBMA 012200Z 00000KT 9999 FEW020 FEW023TCU BKN090 29/23 Q1010","temp":29,"dewp":23,"wdir":0,"wspd":0,"visib":"6+","altim":1010,"clouds":[{"cover":"FEW","base":2000},{"cover":"FEW","base":2300},{"cover":"BKN","base":9000}],"obsTime":1777672800},"SBME":{"icaoId":"SBME","flightCategory":"VFR","rawOb":"METAR SBME 012200Z 11003KT 9999 FEW008 25/24 Q1018","temp":25,"dewp":24,"wdir":110,"wspd":3,"visib":"6+","altim":1018,"clouds":[{"cover":"FEW","base":800}],"obsTime":1777672800},"SBMG":{"icaoId":"SBMG","flightCategory":"VFR","rawOb":"METAR SBMG 012200Z 04005KT CAVOK 24/20 Q1016","temp":24,"dewp":20,"wdir":40,"wspd":5,"visib":"6+","altim":1016,"clouds":[],"obsTime":1777672800},"SBMK":{"icaoId":"SBMK","flightCategory":"VFR","rawOb":"METAR SBMK 012200Z 09005KT CAVOK 24/18 Q1019","temp":24,"dewp":18,"wdir":90,"wspd":5,"visib":"6+","altim":1019,"clouds":[],"obsTime":1777672800},"SBMO":{"icaoId":"SBMO","flightCategory":"MVFR","rawOb":"METAR SBMO 012200Z 07008KT 9999 FEW004 BKN020 OVC100 24/24 Q1014 RERA","temp":24,"dewp":24,"wdir":70,"wspd":8,"visib":"6+","altim":1014,"clouds":[{"cover":"FEW","base":400},{"cover":"BKN","base":2000},{"cover":"OVC","base":10000}],"obsTime":1777672800},"SBMQ":{"icaoId":"SBMQ","flightCategory":"VFR","rawOb":"METAR SBMQ 012200Z 03002KT 9999 FEW020 FEW036TCU SCT050 27/25 Q1010","temp":27,"dewp":25,"wdir":30,"wspd":2,"visib":"6+","altim":1010,"clouds":[{"cover":"FEW","base":2000},{"cover":"FEW","base":3600},{"cover":"SCT","base":5000}],"obsTime":1777672800},"SBNT":{"icaoId":"SBNT","flightCategory":"VFR","rawOb":"METAR SBNT 012200Z 16003KT 130V190 9999 FEW012 SCT020 FEW030TCU BKN100 25/24 Q1012","temp":25,"dewp":24,"wdir":160,"wspd":3,"visib":"6+","altim":1012,"clouds":[{"cover":"FEW","base":1200},{"cover":"SCT","base":2000},{"cover":"FEW","base":3000},{"cover":"BKN","base":10000}],"obsTime":1777672800},"SBPJ":{"icaoId":"SBPJ","flightCategory":"VFR","rawOb":"METAR SBPJ 012200Z 00000KT 9999 FEW045 29/24 Q1012","temp":29,"dewp":24,"wdir":0,"wspd":0,"visib":"6+","altim":1012,"clouds":[{"cover":"FEW","base":4500}],"obsTime":1777672800},"SBPV":{"icaoId":"SBPV","flightCategory":"VFR","rawOb":"METAR SBPV 012200Z 06003KT 020V100 9999 FEW030 FEW035TCU 31/24 Q1007","temp":31,"dewp":24,"wdir":60,"wspd":3,"visib":"6+","altim":1007,"clouds":[{"cover":"FEW","base":3000},{"cover":"FEW","base":3500}],"obsTime":1777672800},"SBRB":{"icaoId":"SBRB","flightCategory":"MVFR","rawOb":"METAR SBRB 012200Z 12001KT 8000 FEW030 FEW035TCU SCT100 29/26 Q1008","temp":29,"dewp":26,"wdir":120,"wspd":1,"visib":4.97,"altim":1008,"clouds":[{"cover":"FEW","base":3000},{"cover":"FEW","base":3500},{"cover":"SCT","base":10000}],"obsTime":1777672800},"SBRF":{"icaoId":"SBRF","flightCategory":"VFR","rawOb":"METAR SBRF 012200Z 21006KT 9999 FEW025 BKN060 23/22 Q1012","temp":23,"dewp":22,"wdir":210,"wspd":6,"visib":"6+","altim":1012,"clouds":[{"cover":"FEW","base":2500},{"cover":"BKN","base":6000}],"obsTime":1777672800},"SBSG":{"icaoId":"SBSG","flightCategory":"VFR","rawOb":"METAR SBSG 012200Z 22003KT 170V260 9999 FEW010 BKN035 BKN100 25/24 Q1012","temp":25,"dewp":24,"wdir":220,"wspd":3,"visib":"6+","altim":1012,"clouds":[{"cover":"FEW","base":1000},{"cover":"BKN","base":3500},{"cover":"BKN","base":10000}],"obsTime":1777672800},"SBSL":{"icaoId":"SBSL","flightCategory":"VFR","rawOb":"METAR SBSL 012200Z 15003KT 130V200 9999 SCT025 BKN080 26/24 Q1010","temp":26,"dewp":24,"wdir":150,"wspd":3,"visib":"6+","altim":1010,"clouds":[{"cover":"SCT","base":2500},{"cover":"BKN","base":8000}],"obsTime":1777672800},"SBSN":{"icaoId":"SBSN","flightCategory":"VFR","rawOb":"METAR SBSN 012200Z 12006KT 9999 VCSH FEW020 FEW025TCU 27/25 Q1009","temp":27,"dewp":25,"wdir":120,"wspd":6,"visib":"6+","altim":1009,"clouds":[{"cover":"FEW","base":2000},{"cover":"FEW","base":2500}],"obsTime":1777672800},"SBSP":{"icaoId":"SBSP","flightCategory":"VFR","rawOb":"METAR SBSP 012200Z 15004KT 9999 FEW035 22/20 Q1020","temp":22,"dewp":20,"wdir":150,"wspd":4,"visib":"6+","altim":1020,"clouds":[{"cover":"FEW","base":3500}],"obsTime":1777672800},"SBSV":{"icaoId":"SBSV","flightCategory":"VFR","rawOb":"METAR SBSV 012200Z 14007KT 120V200 9999 SCT022 SCT030 28/24 Q1015","temp":28,"dewp":24,"wdir":140,"wspd":7,"visib":"6+","altim":1015,"clouds":[{"cover":"SCT","base":2200},{"cover":"SCT","base":3000}],"obsTime":1777672800},"SBTE":{"icaoId":"SBTE","flightCategory":"VFR","rawOb":"METAR SBTE 012200Z 14004KT 9999 VCTS SCT020 FEW030CB BKN100 30/24 Q1010","temp":30,"dewp":24,"wdir":140,"wspd":4,"visib":"6+","altim":1010,"clouds":[{"cover":"SCT","base":2000},{"cover":"FEW","base":3000},{"cover":"BKN","base":10000}],"obsTime":1777672800},"SBUL":{"icaoId":"SBUL","flightCategory":"VFR","rawOb":"METAR SBUL 012200Z 06004KT CAVOK 24/13 Q1020","temp":24,"dewp":13,"wdir":60,"wspd":4,"visib":"6+","altim":1020,"clouds":[],"obsTime":1777672800},"SBUR":{"icaoId":"SBUR","flightCategory":"VFR","rawOb":"METAR SBUR 012200Z 03003KT CAVOK 27/14 Q1019","temp":27,"dewp":14,"wdir":30,"wspd":3,"visib":"6+","altim":1019,"clouds":[],"obsTime":1777672800},"SBBE":{"icaoId":"SBBE","flightCategory":"MVFR","rawOb":"METAR SBBE 012200Z 10005KT 9999 -RA SCT010 BKN030 FEW035TCU 25/25 Q1010","temp":25,"dewp":25,"wdir":100,"wspd":5,"visib":"6+","altim":1010,"clouds":[{"cover":"SCT","base":1000},{"cover":"BKN","base":3000},{"cover":"FEW","base":3500}],"obsTime":1777672800},"SBCP":{"icaoId":"SBCP","flightCategory":"VFR","rawOb":"METAR SBCP 012200Z 09004KT CAVOK 23/22 Q1018","temp":23,"dewp":22,"wdir":90,"wspd":4,"visib":"6+","altim":1018,"clouds":[],"obsTime":1777672800},"SBCA":{"icaoId":"SBCA","flightCategory":"VFR","rawOb":"METAR SBCA 012200Z 02008G18KT CAVOK 24/19 Q1017","temp":24,"dewp":19,"wdir":20,"wspd":8,"visib":"6+","altim":1017,"clouds":[],"obsTime":1777672800},"SBAR":{"icaoId":"SBAR","flightCategory":"VFR","rawOb":"METAR SBAR 012200Z 10006KT 9999 SCT026 28/23 Q1014","temp":28,"dewp":23,"wdir":100,"wspd":6,"visib":"6+","altim":1014,"clouds":[{"cover":"SCT","base":2600}],"obsTime":1777672800},"SBVH":{"icaoId":"SBVH","flightCategory":"VFR","rawOb":"METAR SBVH 012200Z 07003KT 9999 FEW040 26/24 Q1013","temp":26,"dewp":24,"wdir":70,"wspd":3,"visib":"6+","altim":1013,"clouds":[{"cover":"FEW","base":4000}],"obsTime":1777672800},"SBAX":{"icaoId":"SBAX","flightCategory":"VFR","rawOb":"METAR SBAX 012200Z AUTO 12007KT CAVOK 22/13 Q1021","temp":22,"dewp":13,"wdir":120,"wspd":7,"visib":"6+","altim":1021,"clouds":[],"obsTime":1777672800},"SBTT":{"icaoId":"SBTT","flightCategory":"VFR","rawOb":"METAR SBTT 012200Z 31004KT 9999 VCSH SCT023 SCT100 27/24 Q1009","temp":27,"dewp":24,"wdir":310,"wspd":4,"visib":"6+","altim":1009,"clouds":[{"cover":"SCT","base":2300},{"cover":"SCT","base":10000}],"obsTime":1777672800},"SBBH":{"icaoId":"SBBH","flightCategory":"VFR","rawOb":"METAR SBBH 012200Z 09004KT CAVOK 24/15 Q1021","temp":24,"dewp":15,"wdir":90,"wspd":4,"visib":"6+","altim":1021,"clouds":[],"obsTime":1777672800},"SBSR":{"icaoId":"SBSR","flightCategory":"VFR","rawOb":"METAR SBSR 012200Z 13003KT CAVOK 28/15 Q1017","temp":28,"dewp":15,"wdir":130,"wspd":3,"visib":"6+","altim":1017,"clouds":[],"obsTime":1777672800},"SBBU":{"icaoId":"SBBU","flightCategory":"VFR","rawOb":"METAR SBBU 012200Z 11002KT CAVOK 29/19 Q1018","temp":29,"dewp":19,"wdir":110,"wspd":2,"visib":"6+","altim":1018,"clouds":[],"obsTime":1777672800},"SBSM":{"icaoId":"SBSM","flightCategory":"IFR","rawOb":"METAR SBSM 012200Z 10008KT 3000 TSRA SCT013 BKN025 FEW045CB OVC100 18/18 Q1010 RERA","temp":18,"dewp":18,"wdir":100,"wspd":8,"visib":1.86,"altim":1010,"clouds":[{"cover":"SCT","base":1300},{"cover":"BKN","base":2500},{"cover":"FEW","base":4500},{"cover":"OVC","base":10000}],"obsTime":1777672800},"SBSJ":{"icaoId":"SBSJ","flightCategory":"VFR","rawOb":"METAR SBSJ 012200Z 05002KT CAVOK 24/19 Q1019","temp":24,"dewp":19,"wdir":50,"wspd":2,"visib":"6+","altim":1019,"clouds":[],"obsTime":1777672800},"SBCO":{"icaoId":"SBCO","flightCategory":"IFR","rawOb":"METAR SBCO 012200Z 14006KT 2000 TSRA BKN005 OVC040 //////CB 19/18 Q1015","temp":19,"dewp":18,"wdir":140,"wspd":6,"visib":1.24,"altim":1015,"clouds":[{"cover":"BKN","base":500},{"cover":"OVC","base":4000}],"obsTime":1777672800},"SBSC":{"icaoId":"SBSC","flightCategory":"VFR","rawOb":"METAR SBSC 012200Z VRB02KT 9999 FEW015 23/22 Q1017","temp":23,"dewp":22,"wdir":"VRB","wspd":2,"visib":"6+","altim":1017,"clouds":[{"cover":"FEW","base":1500}],"obsTime":1777672800},"SBDN":{"icaoId":"SBDN","flightCategory":"VFR","rawOb":"METAR SBDN 012200Z 06004KT CAVOK 27/18 Q1016","temp":27,"dewp":18,"wdir":60,"wspd":4,"visib":"6+","altim":1016,"clouds":[],"obsTime":1777672800},"SBPS":{"icaoId":"SBPS","flightCategory":"VFR","rawOb":"METAR SBPS 012200Z 14003KT 060V190 9999 SCT020 BKN070 26/24 Q1016","temp":26,"dewp":24,"wdir":140,"wspd":3,"visib":"6+","altim":1016,"clouds":[{"cover":"SCT","base":2000},{"cover":"BKN","base":7000}],"obsTime":1777672800},"SBIP":{"icaoId":"SBIP","flightCategory":"VFR","rawOb":"METAR SBIP 012200Z AUTO 00000KT CAVOK 22/19 Q1018","temp":22,"dewp":19,"wdir":0,"wspd":0,"visib":"6+","altim":1018,"clouds":[],"obsTime":1777672800},"SBPL":{"icaoId":"SBPL","flightCategory":"VFR","rawOb":"METAR SBPL 012200Z 13004KT CAVOK 29/19 Q1013","temp":29,"dewp":19,"wdir":130,"wspd":4,"visib":"6+","altim":1013,"clouds":[],"obsTime":1777672800},"SBOI":{"icaoId":"SBOI","flightCategory":"VFR","rawOb":"METAR SBOI 012200Z AUTO 05003KT 9999 FEW026 27/24 Q1011","temp":27,"dewp":24,"wdir":50,"wspd":3,"visib":"6+","altim":1011,"clouds":[{"cover":"FEW","base":2600}],"obsTime":1777672800},"SBKG":{"icaoId":"SBKG","flightCategory":"VFR","rawOb":"METAR SBKG 012200Z 10001KT 9999 SCT008 BKN070 21/21 Q1015","temp":21,"dewp":21,"wdir":100,"wspd":1,"visib":"6+","altim":1015,"clouds":[{"cover":"SCT","base":800},{"cover":"BKN","base":7000}],"obsTime":1777672800},"SBTF":{"icaoId":"SBTF","flightCategory":"VFR","rawOb":"METAR SBTF 012200Z 12003KT 9999 FEW015 BKN080 26/26 Q1009 RETS","temp":26,"dewp":26,"wdir":120,"wspd":3,"visib":"6+","altim":1009,"clouds":[{"cover":"FEW","base":1500},{"cover":"BKN","base":8000}],"obsTime":1777672800},"SBUY":{"icaoId":"SBUY","flightCategory":"VFR","rawOb":"METAR SBUY 012200Z 01003KT 9999 -RA SCT020 BKN080 23/22 Q1007","temp":23,"dewp":22,"wdir":10,"wspd":3,"visib":"6+","altim":1007,"clouds":[{"cover":"SCT","base":2000},{"cover":"BKN","base":8000}],"obsTime":1777672800},"SBPB":{"icaoId":"SBPB","flightCategory":"VFR","rawOb":"SPECI SBPB 012145Z 03006KT 9999 FEW020 FEW025TCU BKN090 28/25 Q1010","temp":28,"dewp":25,"wdir":30,"wspd":6,"visib":"6+","altim":1010,"clouds":[{"cover":"FEW","base":2000},{"cover":"FEW","base":2500},{"cover":"BKN","base":9000}],"obsTime":1777671900},"SBMT":{"icaoId":"SBMT","flightCategory":"VFR","rawOb":"METAR SBMT 012200Z 05003KT 010V080 9999 FEW040 24/20 Q1019","temp":24,"dewp":20,"wdir":50,"wspd":3,"visib":"6+","altim":1019,"clouds":[{"cover":"FEW","base":4000}],"obsTime":1777672800},"SBJP":{"icaoId":"SBJP","flightCategory":"VFR","rawOb":"METAR SBJP 012200Z 15003KT CAVOK 23/23 Q1013","temp":23,"dewp":23,"wdir":150,"wspd":3,"visib":"6+","altim":1013,"clouds":[],"obsTime":1777672800},"SBLE":{"icaoId":"SBLE","flightCategory":"VFR","rawOb":"METAR SBLE 012200Z AUTO VRB01KT CAVOK ///// Q////","temp":null,"dewp":null,"wdir":"VRB","wspd":1,"visib":"6+","altim":null,"clouds":[],"obsTime":1777672800},"SBJV":{"icaoId":"SBJV","flightCategory":"VFR","rawOb":"METAR SBJV 012200Z 01005KT 340V050 9999 FEW013 SCT035 23/21 Q1015","temp":23,"dewp":21,"wdir":10,"wspd":5,"visib":"6+","altim":1015,"clouds":[{"cover":"FEW","base":1300},{"cover":"SCT","base":3500}],"obsTime":1777672800},"SBIH":{"icaoId":"SBIH","flightCategory":"VFR","rawOb":"METAR SBIH 012200Z 00000KT 9999 FEW017 FEW025TCU SCT100 25/25 Q1009","temp":25,"dewp":25,"wdir":0,"wspd":0,"visib":"6+","altim":1009,"clouds":[{"cover":"FEW","base":1700},{"cover":"FEW","base":2500},{"cover":"SCT","base":10000}],"obsTime":1777672800},"SBAN":{"icaoId":"SBAN","flightCategory":"VFR","rawOb":"METAR SBAN 012200Z 17003KT CAVOK 22/15 Q1021","temp":22,"dewp":15,"wdir":170,"wspd":3,"visib":"6+","altim":1021,"clouds":[],"obsTime":1777672800},"SBAF":{"icaoId":"SBAF","flightCategory":"VFR","rawOb":"METAR SBAF 012200Z 29001KT 9999 FEW040 24/24 Q1017","temp":24,"dewp":24,"wdir":290,"wspd":1,"visib":"6+","altim":1017,"clouds":[{"cover":"FEW","base":4000}],"obsTime":1777672800},"SBJR":{"icaoId":"SBJR","flightCategory":"VFR","rawOb":"METAR SBJR 012200Z 08004KT 9999 FEW025 26/23 Q1017","temp":26,"dewp":23,"wdir":80,"wspd":4,"visib":"6+","altim":1017,"clouds":[{"cover":"FEW","base":2500}],"obsTime":1777672800},"SBLS":{"icaoId":"SBLS","flightCategory":"VFR","rawOb":"METAR SBLS 012200Z 14007KT 9999 FEW048 23/16 Q1021","temp":23,"dewp":16,"wdir":140,"wspd":7,"visib":"6+","altim":1021,"clouds":[{"cover":"FEW","base":4800}],"obsTime":1777672800},"SBGW":{"icaoId":"SBGW","flightCategory":"VFR","rawOb":"METAR SBGW 012200Z 03005KT 9999 SCT035 23/18 Q1019","temp":23,"dewp":18,"wdir":30,"wspd":5,"visib":"6+","altim":1019,"clouds":[{"cover":"SCT","base":3500}],"obsTime":1777672800}}}