{"updated":1774424638,"count":49,"data":{"SBRB":{"icaoId":"SBRB","flightCategory":"MVFR","rawOb":"METAR SBRB 250600Z 08003KT 6000 -RA SCT004 BKN011 BKN030 FEW035TCU 23/23 Q1010","temp":23,"dewp":23,"wdir":80,"wspd":3,"visib":3.73,"altim":1010,"clouds":[{"cover":"SCT","base":400},{"cover":"BKN","base":1100},{"cover":"BKN","base":3000},{"cover":"FEW","base":3500}],"obsTime":1774418400},"SBMO":{"icaoId":"SBMO","flightCategory":"VFR","rawOb":"METAR SBMO 250600Z 30003KT 9999 FEW020 23/23 Q1011","temp":23,"dewp":23,"wdir":300,"wspd":3,"visib":"6+","altim":1011,"clouds":[{"cover":"FEW","base":2000}],"obsTime":1774418400},"SBGL":{"icaoId":"SBGL","flightCategory":"VFR","rawOb":"METAR SBGL 250600Z 07003KT CAVOK 24/22 Q1012","temp":24,"dewp":22,"wdir":70,"wspd":3,"visib":"6+","altim":1012,"clouds":[],"obsTime":1774418400},"SBMQ":{"icaoId":"SBMQ","flightCategory":"MVFR","rawOb":"METAR SBMQ 250600Z 28003KT 9999 SCT019 BKN030 25/24 Q1010","temp":25,"dewp":24,"wdir":280,"wspd":3,"visib":"6+","altim":1010,"clouds":[{"cover":"SCT","base":1900},{"cover":"BKN","base":3000}],"obsTime":1774418400},"SBNT":{"icaoId":"SBNT","flightCategory":"VFR","rawOb":"METAR SBNT 250600Z VRB02KT 9999 FEW026 24/23 Q1010","temp":24,"dewp":23,"wdir":"VRB","wspd":2,"visib":"6+","altim":1010,"clouds":[{"cover":"FEW","base":2600}],"obsTime":1774418400},"SBBV":{"icaoId":"SBBV","flightCategory":"VFR","rawOb":"METAR SBBV 250600Z 09012KT CAVOK 27/23 Q1009","temp":27,"dewp":23,"wdir":90,"wspd":12,"visib":"6+","altim":1009,"clouds":[],"obsTime":1774418400},"SBCT":{"icaoId":"SBCT","flightCategory":"VFR","rawOb":"METAR SBCT 250600Z 09003KT CAVOK 17/16 Q1017","temp":17,"dewp":16,"wdir":90,"wspd":3,"visib":"6+","altim":1017,"clouds":[],"obsTime":1774418400},"SBPA":{"icaoId":"SBPA","flightCategory":"MVFR","rawOb":"METAR SBPA 250600Z 10005KT 9999 OVC017 22/18 Q1013","temp":22,"dewp":18,"wdir":100,"wspd":5,"visib":"6+","altim":1013,"clouds":[{"cover":"OVC","base":1700}],"obsTime":1774418400},"SBGO":{"icaoId":"SBGO","flightCategory":"VFR","rawOb":"METAR SBGO 250600Z 09004KT 9999 FEW045 BKN100 21/20 Q1015","temp":21,"dewp":20,"wdir":90,"wspd":4,"visib":"6+","altim":1015,"clouds":[{"cover":"FEW","base":4500},{"cover":"BKN","base":10000}],"obsTime":1774418400},"SBPJ":{"icaoId":"SBPJ","flightCategory":"VFR","rawOb":"METAR SBPJ 250600Z 11003KT 9999 SCT016 BKN080 24/23 Q1012","temp":24,"dewp":23,"wdir":110,"wspd":3,"visib":"6+","altim":1012,"clouds":[{"cover":"SCT","base":1600},{"cover":"BKN","base":8000}],"obsTime":1774418400},"SBPV":{"icaoId":"SBPV","flightCategory":"VFR","rawOb":"METAR SBPV 250600Z 18007KT CAVOK 25/23 Q1010","temp":25,"dewp":23,"wdir":180,"wspd":7,"visib":"6+","altim":1010,"clouds":[],"obsTime":1774418400},"SBBR":{"icaoId":"SBBR","flightCategory":"MVFR","rawOb":"METAR SBBR 250600Z 19004KT 9999 VCTS BKN020 FEW035CB BKN100 20/18 Q1017","temp":20,"dewp":18,"wdir":190,"wspd":4,"visib":"6+","altim":1017,"clouds":[{"cover":"BKN","base":2000},{"cover":"FEW","base":3500},{"cover":"BKN","base":10000}],"obsTime":1774418400},"SBGR":{"icaoId":"SBGR","flightCategory":"VFR","rawOb":"METAR SBGR 250600Z 07007KT CAVOK 20/19 Q1015","temp":20,"dewp":19,"wdir":70,"wspd":7,"visib":"6+","altim":1015,"clouds":[],"obsTime":1774418400},"SBCG":{"icaoId":"SBCG","flightCategory":"LIFR","rawOb":"METAR SBCG 250600Z 19005KT 9999 VCTS BKN003 FEW045CB 22/22 Q1013","temp":22,"dewp":22,"wdir":190,"wspd":5,"visib":"6+","altim":1013,"clouds":[{"cover":"BKN","base":300},{"cover":"FEW","base":4500}],"obsTime":1774418400},"SBFZ":{"icaoId":"SBFZ","flightCategory":"VFR","rawOb":"METAR SBFZ 250600Z 11007KT 9999 SCT017 27/23 Q1009","temp":27,"dewp":23,"wdir":110,"wspd":7,"visib":"6+","altim":1009,"clouds":[{"cover":"SCT","base":1700}],"obsTime":1774418400},"SBEG":{"icaoId":"SBEG","flightCategory":"VFR","rawOb":"METAR SBEG 250600Z 11009KT 9999 VCTS SCT020 FEW030CB SCT100 26/24 Q1008","temp":26,"dewp":24,"wdir":110,"wspd":9,"visib":"6+","altim":1008,"clouds":[{"cover":"SCT","base":2000},{"cover":"FEW","base":3000},{"cover":"SCT","base":10000}],"obsTime":1774418400},"SBRF":{"icaoId":"SBRF","flightCategory":"VFR","rawOb":"METAR SBRF 250600Z VRB01KT 9999 SCT025 26/23 Q1010","temp":26,"dewp":23,"wdir":"VRB","wspd":1,"visib":"6+","altim":1010,"clouds":[{"cover":"SCT","base":2500}],"obsTime":1774418400},"SBJU":{"icaoId":"SBJU","flightCategory":"VFR","rawOb":"METAR SBJU 250600Z 00000KT 9999 SCT017 21/21 Q1012","temp":21,"dewp":21,"wdir":0,"wspd":0,"visib":"6+","altim":1012,"clouds":[{"cover":"SCT","base":1700}],"obsTime":1774418400},"SBSG":{"icaoId":"SBSG","flightCategory":"VFR","rawOb":"METAR SBSG 250600Z 20004KT 9999 SCT020 23/22 Q1010","temp":23,"dewp":22,"wdir":200,"wspd":4,"visib":"6+","altim":1010,"clouds":[{"cover":"SCT","base":2000}],"obsTime":1774418400},"SBFI":{"icaoId":"SBFI","flightCategory":"VFR","rawOb":"METAR SBFI 250600Z 14002KT CAVOK 24/24 Q1010","temp":24,"dewp":24,"wdir":140,"wspd":2,"visib":"6+","altim":1010,"clouds":[],"obsTime":1774418400},"SBSL":{"icaoId":"SBSL","flightCategory":"VFR","rawOb":"METAR SBSL 250600Z 03006KT 9999 FEW018 BKN080 26/24 Q1010","temp":26,"dewp":24,"wdir":30,"wspd":6,"visib":"6+","altim":1010,"clouds":[{"cover":"FEW","base":1800},{"cover":"BKN","base":8000}],"obsTime":1774418400},"SBKP":{"icaoId":"SBKP","flightCategory":"VFR","rawOb":"METAR SBKP 250600Z 11004KT CAVOK 21/19 Q1015","temp":21,"dewp":19,"wdir":110,"wspd":4,"visib":"6+","altim":1015,"clouds":[],"obsTime":1774418400},"SBSN":{"icaoId":"SBSN","flightCategory":"VFR","rawOb":"METAR SBSN 250600Z 08011KT 9999 FEW015 28/25 Q1009","temp":28,"dewp":25,"wdir":80,"wspd":11,"visib":"6+","altim":1009,"clouds":[{"cover":"FEW","base":1500}],"obsTime":1774418400},"SBCF":{"icaoId":"SBCF","flightCategory":"VFR","rawOb":"METAR SBCF 250600Z 00000KT CAVOK 18/18 Q1018","temp":18,"dewp":18,"wdir":0,"wspd":0,"visib":"6+","altim":1018,"clouds":[],"obsTime":1774418400},"SBSP":{"icaoId":"SBSP","flightCategory":"VFR","rawOb":"METAR SBSP 250600Z AUTO VRB02KT CAVOK 20/19 Q1016","temp":20,"dewp":19,"wdir":"VRB","wspd":2,"visib":"6+","altim":1016,"clouds":[],"obsTime":1774418400},"SBLO":{"icaoId":"SBLO","flightCategory":"MVFR","rawOb":"METAR SBLO 250600Z 12004KT 6000 FEW005 BKN100 22/22 Q1013","temp":22,"dewp":22,"wdir":120,"wspd":4,"visib":3.73,"altim":1013,"clouds":[{"cover":"FEW","base":500},{"cover":"BKN","base":10000}],"obsTime":1774418400},"SBSV":{"icaoId":"SBSV","flightCategory":"MVFR","rawOb":"METAR SBSV 250600Z 25004KT 9999 BKN013 24/23 Q1011","temp":24,"dewp":23,"wdir":250,"wspd":4,"visib":"6+","altim":1011,"clouds":[{"cover":"BKN","base":1300}],"obsTime":1774418400},"SBBE":{"icaoId":"SBBE","flightCategory":"MVFR","rawOb":"METAR SBBE 250600Z 23002KT 8000 -RA SCT008 BKN020 OVC040 25/25 Q1010","temp":25,"dewp":25,"wdir":230,"wspd":2,"visib":4.97,"altim":1010,"clouds":[{"cover":"SCT","base":800},{"cover":"BKN","base":2000},{"cover":"OVC","base":4000}],"obsTime":1774418400},"SBTE":{"icaoId":"SBTE","flightCategory":"VFR","rawOb":"METAR SBTE 250600Z 06002KT 9999 FEW020 OVC100 23/21 Q1010","temp":23,"dewp":21,"wdir":60,"wspd":2,"visib":"6+","altim":1010,"clouds":[{"cover":"FEW","base":2000},{"cover":"OVC","base":10000}],"obsTime":1774418400},"SBUL":{"icaoId":"SBUL","flightCategory":"VFR","rawOb":"METAR SBUL 250600Z 02002KT 9999 SCT017 SCT080 20/18 Q1016","temp":20,"dewp":18,"wdir":20,"wspd":2,"visib":"6+","altim":1016,"clouds":[{"cover":"SCT","base":1700},{"cover":"SCT","base":8000}],"obsTime":1774418400},"SBMA":{"icaoId":"SBMA","flightCategory":"VFR","rawOb":"METAR SBMA 250600Z 17004KT 9999 FEW012 BKN080 26/24 Q1010","temp":26,"dewp":24,"wdir":170,"wspd":4,"visib":"6+","altim":1010,"clouds":[{"cover":"FEW","base":1200},{"cover":"BKN","base":8000}],"obsTime":1774418400},"SBUR":{"icaoId":"SBUR","flightCategory":"VFR","rawOb":"METAR SBUR 250600Z 01006KT 9999 SCT025 BKN100 21/19 Q1015","temp":21,"dewp":19,"wdir":10,"wspd":6,"visib":"6+","altim":1015,"clouds":[{"cover":"SCT","base":2500},{"cover":"BKN","base":10000}],"obsTime":1774418400},"SBME":{"icaoId":"SBME","flightCategory":"VFR","rawOb":"METAR SBME 250600Z 06010KT CAVOK 25/23 Q1012","temp":25,"dewp":23,"wdir":60,"wspd":10,"visib":"6+","altim":1012,"clouds":[],"obsTime":1774418400},"SBFL":{"icaoId":"SBFL","flightCategory":"VFR","rawOb":"METAR SBFL 250600Z 12005KT 9999 SCT036 22/21 Q1013","temp":22,"dewp":21,"wdir":120,"wspd":5,"visib":"6+","altim":1013,"clouds":[{"cover":"SCT","base":3600}],"obsTime":1774418400},"SBVT":{"icaoId":"SBVT","flightCategory":"VFR","rawOb":"METAR SBVT 250600Z 00000KT CAVOK 22/22 Q1014","temp":22,"dewp":22,"wdir":0,"wspd":0,"visib":"6+","altim":1014,"clouds":[],"obsTime":1774418400},"SBMG":{"icaoId":"SBMG","flightCategory":"VFR","rawOb":"METAR SBMG 250600Z AUTO 12006KT CAVOK 22/22 Q1012","temp":22,"dewp":22,"wdir":120,"wspd":6,"visib":"6+","altim":1012,"clouds":[],"obsTime":1774418400},"SBOI":{"icaoId":"SBOI","flightCategory":"MVFR","rawOb":"METAR SBOI 250600Z AUTO 35002KT 9999 // FEW001/// SCT004/// OVC014/// 23/22 Q1011","temp":23,"dewp":22,"wdir":350,"wspd":2,"visib":"6+","altim":1011,"clouds":[{"cover":"FEW","base":100},{"cover":"SCT","base":400},{"cover":"OVC","base":1400}],"obsTime":1774418400},"SBAR":{"icaoId":"SBAR","flightCategory":"VFR","rawOb":"METAR SBAR 250600Z 09005KT 9999 FEW025 BKN080 27/23 Q1010","temp":27,"dewp":23,"wdir":90,"wspd":5,"visib":"6+","altim":1010,"clouds":[{"cover":"FEW","base":2500},{"cover":"BKN","base":8000}],"obsTime":1774418400},"SBAX":{"icaoId":"SBAX","flightCategory":"MVFR","rawOb":"METAR SBAX 250600Z AUTO 11006KT 9999 BKN027 BKN042 20/20 Q1017","temp":20,"dewp":20,"wdir":110,"wspd":6,"visib":"6+","altim":1017,"clouds":[{"cover":"BKN","base":2700},{"cover":"BKN","base":4200}],"obsTime":1774418400},"SBSR":{"icaoId":"SBSR","flightCategory":"VFR","rawOb":"METAR SBSR 250600Z 33002KT 9999 SCT040 BKN070 21/20 Q1013","temp":21,"dewp":20,"wdir":330,"wspd":2,"visib":"6+","altim":1013,"clouds":[{"cover":"SCT","base":4000},{"cover":"BKN","base":7000}],"obsTime":1774418400},"SBDN":{"icaoId":"SBDN","flightCategory":"VFR","rawOb":"METAR SBDN 250600Z 07003KT CAVOK 22/21 Q1012","temp":22,"dewp":21,"wdir":70,"wspd":3,"visib":"6+","altim":1012,"clouds":[],"obsTime":1774418400},"SBIP":{"icaoId":"SBIP","flightCategory":"VFR","rawOb":"METAR SBIP 250600Z AUTO 00000KT 9999 FEW046 22/22 Q1016","temp":22,"dewp":22,"wdir":0,"wspd":0,"visib":"6+","altim":1016,"clouds":[{"cover":"FEW","base":4600}],"obsTime":1774418400},"SBKG":{"icaoId":"SBKG","flightCategory":"VFR","rawOb":"METAR SBKG 250600Z 09007KT CAVOK 22/21 Q1013","temp":22,"dewp":21,"wdir":90,"wspd":7,"visib":"6+","altim":1013,"clouds":[],"obsTime":1774418400},"SBPL":{"icaoId":"SBPL","flightCategory":"VFR","rawOb":"METAR SBPL 250600Z 13003KT 9999 SCT025 25/22 Q1012","temp":25,"dewp":22,"wdir":130,"wspd":3,"visib":"6+","altim":1012,"clouds":[{"cover":"SCT","base":2500}],"obsTime":1774418400},"SBPS":{"icaoId":"SBPS","flightCategory":"VFR","rawOb":"METAR SBPS 250600Z 24002KT 9999 FEW020 BKN100 23/23 Q1014","temp":23,"dewp":23,"wdir":240,"wspd":2,"visib":"6+","altim":1014,"clouds":[{"cover":"FEW","base":2000},{"cover":"BKN","base":10000}],"obsTime":1774418400},"SBSC":{"icaoId":"SBSC","flightCategory":"VFR","rawOb":"METAR SBSC 250600Z 36007KT CAVOK 25/20 Q1013","temp":25,"dewp":20,"wdir":360,"wspd":7,"visib":"6+","altim":1013,"clouds":[],"obsTime":1774418400},"SBLE":{"icaoId":"SBLE","flightCategory":"MVFR","rawOb":"METAR SBLE 250600Z AUTO VRB01KT 9999 BKN017 OVC030 ///// Q////","temp":null,"dewp":null,"wdir":"VRB","wspd":1,"visib":"6+","altim":null,"clouds":[{"cover":"BKN","base":1700},{"cover":"OVC","base":3000}],"obsTime":1774418400},"SBAN":{"icaoId":"SBAN","flightCategory":"VFR","rawOb":"METAR SBAN 250600Z 28001KT 9999 FEW035 19/18 Q1017","temp":19,"dewp":18,"wdir":280,"wspd":1,"visib":"6+","altim":1017,"clouds":[{"cover":"FEW","base":3500}],"obsTime":1774418400},"SBJP":{"icaoId":"SBJP","flightCategory":"VFR","rawOb":"METAR SBJP 250600Z 18004KT CAVOK 24/22 Q1010","temp":24,"dewp":22,"wdir":180,"wspd":4,"visib":"6+","altim":1010,"clouds":[],"obsTime":1774418400}}}