{"updated":1776641776,"count":71,"data":{"SBME":{"icaoId":"SBME","flightCategory":"VFR","rawOb":"METAR SBME 192200Z 21007KT 9999 FEW040 25/21 Q1012","temp":25,"dewp":21,"wdir":210,"wspd":7,"visib":"6+","altim":1012,"clouds":[{"cover":"FEW","base":4000}],"obsTime":1776636000},"SBFZ":{"icaoId":"SBFZ","flightCategory":"VFR","rawOb":"METAR SBFZ 192200Z 26002KT 9999 FEW020 BKN100 26/24 Q1008","temp":26,"dewp":24,"wdir":260,"wspd":2,"visib":"6+","altim":1008,"clouds":[{"cover":"FEW","base":2000},{"cover":"BKN","base":10000}],"obsTime":1776636000},"SBMG":{"icaoId":"SBMG","flightCategory":"VFR","rawOb":"METAR SBMG 192200Z 13005KT 9999 FEW040 27/19 Q1012","temp":27,"dewp":19,"wdir":130,"wspd":5,"visib":"6+","altim":1012,"clouds":[{"cover":"FEW","base":4000}],"obsTime":1776636000},"SBCT":{"icaoId":"SBCT","flightCategory":"VFR","rawOb":"METAR SBCT 192200Z 11005KT CAVOK 19/18 Q1017","temp":19,"dewp":18,"wdir":110,"wspd":5,"visib":"6+","altim":1017,"clouds":[],"obsTime":1776636000},"SBMK":{"icaoId":"SBMK","flightCategory":"VFR","rawOb":"METAR SBMK 192200Z 19002KT CAVOK 26/16 Q1013","temp":26,"dewp":16,"wdir":190,"wspd":2,"visib":"6+","altim":1013,"clouds":[],"obsTime":1776636000},"SBGL":{"icaoId":"SBGL","flightCategory":"VFR","rawOb":"METAR SBGL 192200Z 20005KT 9999 FEW020 25/19 Q1013","temp":25,"dewp":19,"wdir":200,"wspd":5,"visib":"6+","altim":1013,"clouds":[{"cover":"FEW","base":2000}],"obsTime":1776636000},"SBMO":{"icaoId":"SBMO","flightCategory":"VFR","rawOb":"METAR SBMO 192200Z 10006KT CAVOK 26/24 Q1010","temp":26,"dewp":24,"wdir":100,"wspd":6,"visib":"6+","altim":1010,"clouds":[],"obsTime":1776636000},"SBMQ":{"icaoId":"SBMQ","flightCategory":"VFR","rawOb":"METAR SBMQ 192200Z 02005KT 9999 FEW020 FEW025TCU 27/25 Q1009","temp":27,"dewp":25,"wdir":20,"wspd":5,"visib":"6+","altim":1009,"clouds":[{"cover":"FEW","base":2000},{"cover":"FEW","base":2500}],"obsTime":1776636000},"SBGO":{"icaoId":"SBGO","flightCategory":"VFR","rawOb":"METAR SBGO 192200Z 12005KT CAVOK 27/17 Q1013","temp":27,"dewp":17,"wdir":120,"wspd":5,"visib":"6+","altim":1013,"clouds":[],"obsTime":1776636000},"SBCZ":{"icaoId":"SBCZ","flightCategory":"VFR","rawOb":"METAR SBCZ 192200Z 28002KT 9999 FEW030 BKN100 27/23 Q1007","temp":27,"dewp":23,"wdir":280,"wspd":2,"visib":"6+","altim":1007,"clouds":[{"cover":"FEW","base":3000},{"cover":"BKN","base":10000}],"obsTime":1776636000},"SBNT":{"icaoId":"SBNT","flightCategory":"VFR","rawOb":"METAR SBNT 192200Z 13004KT 9999 FEW020 27/25 Q1009","temp":27,"dewp":25,"wdir":130,"wspd":4,"visib":"6+","altim":1009,"clouds":[{"cover":"FEW","base":2000}],"obsTime":1776636000},"SBCF":{"icaoId":"SBCF","flightCategory":"VFR","rawOb":"METAR SBCF 192200Z 11013KT 9999 VCSH VCTS SCT040 FEW045CB 24/16 Q1015","temp":24,"dewp":16,"wdir":110,"wspd":13,"visib":"6+","altim":1015,"clouds":[{"cover":"SCT","base":4000},{"cover":"FEW","base":4500}],"obsTime":1776636000},"SBPA":{"icaoId":"SBPA","flightCategory":"VFR","rawOb":"METAR SBPA 192200Z 14005KT CAVOK 24/16 Q1014","temp":24,"dewp":16,"wdir":140,"wspd":5,"visib":"6+","altim":1014,"clouds":[],"obsTime":1776636000},"SBGR":{"icaoId":"SBGR","flightCategory":"VFR","rawOb":"METAR SBGR 192200Z 16005KT CAVOK 21/17 Q1016","temp":21,"dewp":17,"wdir":160,"wspd":5,"visib":"6+","altim":1016,"clouds":[],"obsTime":1776636000},"SBPJ":{"icaoId":"SBPJ","flightCategory":"VFR","rawOb":"METAR SBPJ 192200Z 11007KT 080V140 9999 VCSH VCTS FEW015 SCT030 FEW035CB BKN080 27/23 Q1010","temp":27,"dewp":23,"wdir":110,"wspd":7,"visib":"6+","altim":1010,"clouds":[{"cover":"FEW","base":1500},{"cover":"SCT","base":3000},{"cover":"FEW","base":3500},{"cover":"BKN","base":8000}],"obsTime":1776636000},"SBBR":{"icaoId":"SBBR","flightCategory":"VFR","rawOb":"METAR SBBR 192200Z 14005KT CAVOK 26/14 Q1015","temp":26,"dewp":14,"wdir":140,"wspd":5,"visib":"6+","altim":1015,"clouds":[],"obsTime":1776636000},"SBPV":{"icaoId":"SBPV","flightCategory":"MVFR","rawOb":"METAR SBPV 192200Z VRB01KT 8000 -RA SCT010 BKN060 24/22 Q1008","temp":24,"dewp":22,"wdir":"VRB","wspd":1,"visib":4.97,"altim":1008,"clouds":[{"cover":"SCT","base":1000},{"cover":"BKN","base":6000}],"obsTime":1776636000},"SBEG":{"icaoId":"SBEG","flightCategory":"VFR","rawOb":"METAR SBEG 192200Z VRB02KT 9999 FEW020 FEW025TCU SCT100 27/25 Q1008","temp":27,"dewp":25,"wdir":"VRB","wspd":2,"visib":"6+","altim":1008,"clouds":[{"cover":"FEW","base":2000},{"cover":"FEW","base":2500},{"cover":"SCT","base":10000}],"obsTime":1776636000},"SBRB":{"icaoId":"SBRB","flightCategory":"VFR","rawOb":"METAR SBRB 192200Z 02003KT 9999 FEW009 SCT017 BKN100 25/24 Q1008","temp":25,"dewp":24,"wdir":20,"wspd":3,"visib":"6+","altim":1008,"clouds":[{"cover":"FEW","base":900},{"cover":"SCT","base":1700},{"cover":"BKN","base":10000}],"obsTime":1776636000},"SBRF":{"icaoId":"SBRF","flightCategory":"VFR","rawOb":"METAR SBRF 192200Z 10011KT 9999 SCT022 BKN080 27/24 Q1009","temp":27,"dewp":24,"wdir":100,"wspd":11,"visib":"6+","altim":1009,"clouds":[{"cover":"SCT","base":2200},{"cover":"BKN","base":8000}],"obsTime":1776636000},"SBIL":{"icaoId":"SBIL","flightCategory":"VFR","rawOb":"METAR SBIL 192200Z 11006KT 9999 FEW023 28/24 Q1011","temp":28,"dewp":24,"wdir":110,"wspd":6,"visib":"6+","altim":1011,"clouds":[{"cover":"FEW","base":2300}],"obsTime":1776636000},"SBFI":{"icaoId":"SBFI","flightCategory":"VFR","rawOb":"METAR SBFI 192200Z 12003KT 9999 FEW035 27/23 Q1011","temp":27,"dewp":23,"wdir":120,"wspd":3,"visib":"6+","altim":1011,"clouds":[{"cover":"FEW","base":3500}],"obsTime":1776636000},"SBSG":{"icaoId":"SBSG","flightCategory":"VFR","rawOb":"METAR SBSG 192200Z 14003KT 110V170 9999 FEW020 26/25 Q1009","temp":26,"dewp":25,"wdir":140,"wspd":3,"visib":"6+","altim":1009,"clouds":[{"cover":"FEW","base":2000}],"obsTime":1776636000},"SBJU":{"icaoId":"SBJU","flightCategory":"VFR","rawOb":"METAR SBJU 192200Z 00000KT CAVOK 26/23 Q1011","temp":26,"dewp":23,"wdir":0,"wspd":0,"visib":"6+","altim":1011,"clouds":[],"obsTime":1776636000},"SBSL":{"icaoId":"SBSL","flightCategory":"VFR","rawOb":"METAR SBSL 192200Z 10002KT 9999 FEW025 BKN080 26/24 Q1009 WS R06","temp":26,"dewp":24,"wdir":100,"wspd":2,"visib":"6+","altim":1009,"clouds":[{"cover":"FEW","base":2500},{"cover":"BKN","base":8000}],"obsTime":1776636000},"SBSN":{"icaoId":"SBSN","flightCategory":"VFR","rawOb":"METAR SBSN 192200Z 09003KT 9999 FEW020 SCT100 27/24 Q1008","temp":27,"dewp":24,"wdir":90,"wspd":3,"visib":"6+","altim":1008,"clouds":[{"cover":"FEW","base":2000},{"cover":"SCT","base":10000}],"obsTime":1776636000},"SBCG":{"icaoId":"SBCG","flightCategory":"VFR","rawOb":"METAR SBCG 192200Z 08003KT 9999 SCT045 FEW050TCU SCT090 25/19 Q1012","temp":25,"dewp":19,"wdir":80,"wspd":3,"visib":"6+","altim":1012,"clouds":[{"cover":"SCT","base":4500},{"cover":"FEW","base":5000},{"cover":"SCT","base":9000}],"obsTime":1776636000},"SBSP":{"icaoId":"SBSP","flightCategory":"VFR","rawOb":"METAR SBSP 192200Z 16011KT 9999 FEW013 20/17 Q1017","temp":20,"dewp":17,"wdir":160,"wspd":11,"visib":"6+","altim":1017,"clouds":[{"cover":"FEW","base":1300}],"obsTime":1776636000},"SBKP":{"icaoId":"SBKP","flightCategory":"VFR","rawOb":"METAR SBKP 192200Z 18005KT CAVOK 26/17 Q1015","temp":26,"dewp":17,"wdir":180,"wspd":5,"visib":"6+","altim":1015,"clouds":[],"obsTime":1776636000},"SBFL":{"icaoId":"SBFL","flightCategory":"VFR","rawOb":"METAR SBFL 192200Z 13006KT CAVOK 23/16 Q1014","temp":23,"dewp":16,"wdir":130,"wspd":6,"visib":"6+","altim":1014,"clouds":[],"obsTime":1776636000},"SBSV":{"icaoId":"SBSV","flightCategory":"VFR","rawOb":"METAR SBSV 192200Z 11007KT 9999 SCT022 SCT100 28/24 Q1010","temp":28,"dewp":24,"wdir":110,"wspd":7,"visib":"6+","altim":1010,"clouds":[{"cover":"SCT","base":2200},{"cover":"SCT","base":10000}],"obsTime":1776636000},"SBTE":{"icaoId":"SBTE","flightCategory":"VFR","rawOb":"METAR SBTE 192200Z 25003KT 9999 SCT010 BKN090 25/24 Q1009","temp":25,"dewp":24,"wdir":250,"wspd":3,"visib":"6+","altim":1009,"clouds":[{"cover":"SCT","base":1000},{"cover":"BKN","base":9000}],"obsTime":1776636000},"SBLO":{"icaoId":"SBLO","flightCategory":"VFR","rawOb":"METAR SBLO 192200Z 17002KT CAVOK 27/20 Q1013","temp":27,"dewp":20,"wdir":170,"wspd":2,"visib":"6+","altim":1013,"clouds":[],"obsTime":1776636000},"SBMA":{"icaoId":"SBMA","flightCategory":"VFR","rawOb":"METAR SBMA 192200Z 00000KT 9999 FEW017 BKN090 27/25 Q1009","temp":27,"dewp":25,"wdir":0,"wspd":0,"visib":"6+","altim":1009,"clouds":[{"cover":"FEW","base":1700},{"cover":"BKN","base":9000}],"obsTime":1776636000},"SBUL":{"icaoId":"SBUL","flightCategory":"VFR","rawOb":"METAR SBUL 192200Z 21008KT 9999 VCTS FEW048 FEW050CB SCT100 26/18 Q1015","temp":26,"dewp":18,"wdir":210,"wspd":8,"visib":"6+","altim":1015,"clouds":[{"cover":"FEW","base":4800},{"cover":"FEW","base":5000},{"cover":"SCT","base":10000}],"obsTime":1776636000},"SBBV":{"icaoId":"SBBV","flightCategory":"VFR","rawOb":"METAR SBBV 192200Z 32005KT 9999 SCT035 FEW040TCU SCT070 32/21 Q1007","temp":32,"dewp":21,"wdir":320,"wspd":5,"visib":"6+","altim":1007,"clouds":[{"cover":"SCT","base":3500},{"cover":"FEW","base":4000},{"cover":"SCT","base":7000}],"obsTime":1776636000},"SBUR":{"icaoId":"SBUR","flightCategory":"VFR","rawOb":"METAR SBUR 192200Z 18003KT 9999 FEW045 27/18 Q1014","temp":27,"dewp":18,"wdir":180,"wspd":3,"visib":"6+","altim":1014,"clouds":[{"cover":"FEW","base":4500}],"obsTime":1776636000},"SBVT":{"icaoId":"SBVT","flightCategory":"VFR","rawOb":"METAR SBVT 192200Z 23007KT 9999 SCT025 BKN070 26/21 Q1012","temp":26,"dewp":21,"wdir":230,"wspd":7,"visib":"6+","altim":1012,"clouds":[{"cover":"SCT","base":2500},{"cover":"BKN","base":7000}],"obsTime":1776636000},"SBBE":{"icaoId":"SBBE","flightCategory":"MVFR","rawOb":"METAR SBBE 192200Z 09006KT 5000 -RA SCT035 BKN097 23/23 Q1011 RERA","temp":23,"dewp":23,"wdir":90,"wspd":6,"visib":3.11,"altim":1011,"clouds":[{"cover":"SCT","base":3500},{"cover":"BKN","base":9700}],"obsTime":1776636000},"SBCP":{"icaoId":"SBCP","flightCategory":"VFR","rawOb":"METAR SBCP 192200Z 20005KT 9999 FEW020 SCT100 25/22 Q1012","temp":25,"dewp":22,"wdir":200,"wspd":5,"visib":"6+","altim":1012,"clouds":[{"cover":"FEW","base":2000},{"cover":"SCT","base":10000}],"obsTime":1776636000},"SBHT":{"icaoId":"SBHT","flightCategory":"VFR","rawOb":"METAR SBHT 192200Z 00000KT 9999 FEW025 SCT100 26/24 Q1008","temp":26,"dewp":24,"wdir":0,"wspd":0,"visib":"6+","altim":1008,"clouds":[{"cover":"FEW","base":2500},{"cover":"SCT","base":10000}],"obsTime":1776636000},"SBOI":{"icaoId":"SBOI","flightCategory":"VFR","rawOb":"METAR SBOI 192200Z AUTO VRB02KT 9999 -RA BKN041 25/24 Q1010 RERA","temp":25,"dewp":24,"wdir":"VRB","wspd":2,"visib":"6+","altim":1010,"clouds":[{"cover":"BKN","base":4100}],"obsTime":1776636000},"SBVH":{"icaoId":"SBVH","flightCategory":"VFR","rawOb":"METAR SBVH 192200Z 32005KT CAVOK 24/21 Q1011","temp":24,"dewp":21,"wdir":320,"wspd":5,"visib":"6+","altim":1011,"clouds":[],"obsTime":1776636000},"SBAX":{"icaoId":"SBAX","flightCategory":"VFR","rawOb":"METAR SBAX 192200Z AUTO VRB02KT CAVOK 24/16 Q1015","temp":24,"dewp":16,"wdir":"VRB","wspd":2,"visib":"6+","altim":1015,"clouds":[],"obsTime":1776636000},"SBBH":{"icaoId":"SBBH","flightCategory":"VFR","rawOb":"METAR SBBH 192200Z 10006KT 9999 VCTS FEW040CB 22/18 Q1015 RETS","temp":22,"dewp":18,"wdir":100,"wspd":6,"visib":"6+","altim":1015,"clouds":[{"cover":"FEW","base":4000}],"obsTime":1776636000},"SBBU":{"icaoId":"SBBU","flightCategory":"VFR","rawOb":"METAR SBBU 192200Z 12005KT CAVOK 27/20 Q1013","temp":27,"dewp":20,"wdir":120,"wspd":5,"visib":"6+","altim":1013,"clouds":[],"obsTime":1776636000},"SBCO":{"icaoId":"SBCO","flightCategory":"VFR","rawOb":"METAR SBCO 192200Z 12007KT CAVOK 21/15 Q1014","temp":21,"dewp":15,"wdir":120,"wspd":7,"visib":"6+","altim":1014,"clouds":[],"obsTime":1776636000},"SBDN":{"icaoId":"SBDN","flightCategory":"VFR","rawOb":"METAR SBDN 192200Z 12004KT CAVOK 27/20 Q1012","temp":27,"dewp":20,"wdir":120,"wspd":4,"visib":"6+","altim":1012,"clouds":[],"obsTime":1776636000},"SBIP":{"icaoId":"SBIP","flightCategory":"VFR","rawOb":"METAR SBIP 192200Z AUTO 00000KT CAVOK 24/22 Q1011","temp":24,"dewp":22,"wdir":0,"wspd":0,"visib":"6+","altim":1011,"clouds":[],"obsTime":1776636000},"SBKG":{"icaoId":"SBKG","flightCategory":"IFR","rawOb":"METAR SBKG 192200Z 08007KT 4000 RA FEW009 SCT013 BKN070 24/22 Q1012","temp":24,"dewp":22,"wdir":80,"wspd":7,"visib":2.49,"altim":1012,"clouds":[{"cover":"FEW","base":900},{"cover":"SCT","base":1300},{"cover":"BKN","base":7000}],"obsTime":1776636000},"SBPL":{"icaoId":"SBPL","flightCategory":"VFR","rawOb":"METAR SBPL 192200Z 00000KT CAVOK 28/21 Q1010","temp":28,"dewp":21,"wdir":0,"wspd":0,"visib":"6+","altim":1010,"clouds":[],"obsTime":1776636000},"SBPS":{"icaoId":"SBPS","flightCategory":"VFR","rawOb":"METAR SBPS 192200Z 07007KT 9999 FEW020 27/23 Q1011","temp":27,"dewp":23,"wdir":70,"wspd":7,"visib":"6+","altim":1011,"clouds":[{"cover":"FEW","base":2000}],"obsTime":1776636000},"SBSC":{"icaoId":"SBSC","flightCategory":"VFR","rawOb":"METAR SBSC 192200Z 23004KT 9999 FEW020 23/22 Q1014","temp":23,"dewp":22,"wdir":230,"wspd":4,"visib":"6+","altim":1014,"clouds":[{"cover":"FEW","base":2000}],"obsTime":1776636000},"SBSJ":{"icaoId":"SBSJ","flightCategory":"VFR","rawOb":"METAR SBSJ 192200Z 13011KT CAVOK 21/18 Q1015","temp":21,"dewp":18,"wdir":130,"wspd":11,"visib":"6+","altim":1015,"clouds":[],"obsTime":1776636000},"SBSM":{"icaoId":"SBSM","flightCategory":"VFR","rawOb":"METAR SBSM 192200Z 09003KT CAVOK 20/16 Q1013","temp":20,"dewp":16,"wdir":90,"wspd":3,"visib":"6+","altim":1013,"clouds":[],"obsTime":1776636000},"SBSR":{"icaoId":"SBSR","flightCategory":"VFR","rawOb":"METAR SBSR 192200Z 21004KT 9999 FEW045 28/17 Q1012","temp":28,"dewp":17,"wdir":210,"wspd":4,"visib":"6+","altim":1012,"clouds":[{"cover":"FEW","base":4500}],"obsTime":1776636000},"SBAR":{"icaoId":"SBAR","flightCategory":"VFR","rawOb":"METAR SBAR 192200Z 11008KT CAVOK 28/23 Q1009","temp":28,"dewp":23,"wdir":110,"wspd":8,"visib":"6+","altim":1009,"clouds":[],"obsTime":1776636000},"SBTF":{"icaoId":"SBTF","flightCategory":"VFR","rawOb":"METAR SBTF 192200Z 18004KT 9999 FEW012 SCT090 27/26 Q1007","temp":27,"dewp":26,"wdir":180,"wspd":4,"visib":"6+","altim":1007,"clouds":[{"cover":"FEW","base":1200},{"cover":"SCT","base":9000}],"obsTime":1776636000},"SBUY":{"icaoId":"SBUY","flightCategory":"VFR","rawOb":"METAR SBUY 192200Z 35002KT 9999 FEW018 SCT090 26/24 Q1007","temp":26,"dewp":24,"wdir":350,"wspd":2,"visib":"6+","altim":1007,"clouds":[{"cover":"FEW","base":1800},{"cover":"SCT","base":9000}],"obsTime":1776636000},"SBCC":{"icaoId":"SBCC","flightCategory":"MVFR","rawOb":"METAR SBCC 192200Z 23006KT 200V260 9999 BKN010 SCT030 FEW035TCU BKN100 23/22 Q1011","temp":23,"dewp":22,"wdir":230,"wspd":6,"visib":"6+","altim":1011,"clouds":[{"cover":"BKN","base":1000},{"cover":"SCT","base":3000},{"cover":"FEW","base":3500},{"cover":"BKN","base":10000}],"obsTime":1776636000},"SBTT":{"icaoId":"SBTT","flightCategory":"VFR","rawOb":"METAR SBTT 192200Z COR 17001KT 9999 SCT025 BKN100 27/23 Q1007","temp":27,"dewp":23,"wdir":170,"wspd":1,"visib":"6+","altim":1007,"clouds":[{"cover":"SCT","base":2500},{"cover":"BKN","base":10000}],"obsTime":1776636000},"SBPB":{"icaoId":"SBPB","flightCategory":"VFR","rawOb":"SPECI SBPB 192145Z 06004KT 9999 FEW020 OVC100 27/24 Q1008","temp":27,"dewp":24,"wdir":60,"wspd":4,"visib":"6+","altim":1008,"clouds":[{"cover":"FEW","base":2000},{"cover":"OVC","base":10000}],"obsTime":1776635100},"SBJP":{"icaoId":"SBJP","flightCategory":"VFR","rawOb":"METAR SBJP 192200Z 12006KT 9999 FEW020 SCT070 26/24 Q1010","temp":26,"dewp":24,"wdir":120,"wspd":6,"visib":"6+","altim":1010,"clouds":[{"cover":"FEW","base":2000},{"cover":"SCT","base":7000}],"obsTime":1776636000},"SBLE":{"icaoId":"SBLE","flightCategory":"VFR","rawOb":"METAR SBLE 192300Z AUTO 33002KT CAVOK ///// Q////","temp":null,"dewp":null,"wdir":330,"wspd":2,"visib":"6+","altim":null,"clouds":[],"obsTime":1776639600},"SBAN":{"icaoId":"SBAN","flightCategory":"VFR","rawOb":"METAR SBAN 192200Z 19004KT 9999 SCT020 22/14 Q1016","temp":22,"dewp":14,"wdir":190,"wspd":4,"visib":"6+","altim":1016,"clouds":[{"cover":"SCT","base":2000}],"obsTime":1776636000},"SBJV":{"icaoId":"SBJV","flightCategory":"VFR","rawOb":"METAR SBJV 192200Z 12003KT 060V160 9999 BKN035 24/21 Q1013","temp":24,"dewp":21,"wdir":120,"wspd":3,"visib":"6+","altim":1013,"clouds":[{"cover":"BKN","base":3500}],"obsTime":1776636000},"SBAF":{"icaoId":"SBAF","flightCategory":"VFR","rawOb":"METAR SBAF 192200Z 20004KT 9999 FEW020 24/23 Q1014","temp":24,"dewp":23,"wdir":200,"wspd":4,"visib":"6+","altim":1014,"clouds":[{"cover":"FEW","base":2000}],"obsTime":1776636000},"SBJR":{"icaoId":"SBJR","flightCategory":"VFR","rawOb":"METAR SBJR 192200Z 27001KT 9999 FEW023 SCT033 23/21 Q1013","temp":23,"dewp":21,"wdir":270,"wspd":1,"visib":"6+","altim":1013,"clouds":[{"cover":"FEW","base":2300},{"cover":"SCT","base":3300}],"obsTime":1776636000},"SBLS":{"icaoId":"SBLS","flightCategory":"VFR","rawOb":"METAR SBLS 192200Z 13013KT 070V160 9999 TS VCSH FEW040 FEW045CB SCT070 23/16 Q1015 RETS","temp":23,"dewp":16,"wdir":130,"wspd":13,"visib":"6+","altim":1015,"clouds":[{"cover":"FEW","base":4000},{"cover":"FEW","base":4500},{"cover":"SCT","base":7000}],"obsTime":1776636000},"SBMT":{"icaoId":"SBMT","flightCategory":"VFR","rawOb":"METAR SBMT 192200Z 13007KT 090V170 CAVOK 21/17 Q1016","temp":21,"dewp":17,"wdir":130,"wspd":7,"visib":"6+","altim":1016,"clouds":[],"obsTime":1776636000},"SBGW":{"icaoId":"SBGW","flightCategory":"VFR","rawOb":"METAR SBGW 192200Z 32002KT CAVOK 21/16 Q1014","temp":21,"dewp":16,"wdir":320,"wspd":2,"visib":"6+","altim":1014,"clouds":[],"obsTime":1776636000}}}