{"updated":1776621440,"count":84,"data":{"SBAT":{"icaoId":"SBAT","flightCategory":"MVFR","rawOb":"METAR SBAT 191600Z 28001KT 9999 VCSH BKN018 FEW035TCU 27/26 Q1012","temp":27,"dewp":26,"wdir":280,"wspd":1,"visib":"6+","altim":1012,"clouds":[{"cover":"BKN","base":1800},{"cover":"FEW","base":3500}],"obsTime":1776614400},"SBBE":{"icaoId":"SBBE","flightCategory":"VFR","rawOb":"METAR SBBE 191600Z 32006KT 9999 FEW012 SCT030 BKN054 27/25 Q1010","temp":27,"dewp":25,"wdir":320,"wspd":6,"visib":"6+","altim":1010,"clouds":[{"cover":"FEW","base":1200},{"cover":"SCT","base":3000},{"cover":"BKN","base":5400}],"obsTime":1776614400},"SBBR":{"icaoId":"SBBR","flightCategory":"VFR","rawOb":"METAR SBBR 191600Z 13004KT 070V210 9999 FEW045 29/13 Q1017","temp":29,"dewp":13,"wdir":130,"wspd":4,"visib":"6+","altim":1017,"clouds":[{"cover":"FEW","base":4500}],"obsTime":1776614400},"SBBV":{"icaoId":"SBBV","flightCategory":"VFR","rawOb":"METAR SBBV 191600Z 10004KT 9999 SCT030 FEW035TCU 31/23 Q1011","temp":31,"dewp":23,"wdir":100,"wspd":4,"visib":"6+","altim":1011,"clouds":[{"cover":"SCT","base":3000},{"cover":"FEW","base":3500}],"obsTime":1776614400},"SBCB":{"icaoId":"SBCB","flightCategory":"VFR","rawOb":"METAR SBCB 191600Z 25015KT 9999 SCT025 26/23 Q1012","temp":26,"dewp":23,"wdir":250,"wspd":15,"visib":"6+","altim":1012,"clouds":[{"cover":"SCT","base":2500}],"obsTime":1776614400},"SBCF":{"icaoId":"SBCF","flightCategory":"VFR","rawOb":"METAR SBCF 191600Z 23004KT 9999 SCT046 30/17 Q1015","temp":30,"dewp":17,"wdir":230,"wspd":4,"visib":"6+","altim":1015,"clouds":[{"cover":"SCT","base":4600}],"obsTime":1776614400},"SBCG":{"icaoId":"SBCG","flightCategory":"VFR","rawOb":"METAR SBCG 191600Z 03008KT 340V070 9999 SCT045 32/20 Q1013","temp":32,"dewp":20,"wdir":30,"wspd":8,"visib":"6+","altim":1013,"clouds":[{"cover":"SCT","base":4500}],"obsTime":1776614400},"SBCP":{"icaoId":"SBCP","flightCategory":"MVFR","rawOb":"METAR SBCP 191600Z 21009KT 9999 BKN020 33/22 Q1010","temp":33,"dewp":22,"wdir":210,"wspd":9,"visib":"6+","altim":1010,"clouds":[{"cover":"BKN","base":2000}],"obsTime":1776614400},"SBCR":{"icaoId":"SBCR","flightCategory":"VFR","rawOb":"METAR SBCR 191600Z 01005KT 320V100 9999 SCT035 33/23 Q1009","temp":33,"dewp":23,"wdir":10,"wspd":5,"visib":"6+","altim":1009,"clouds":[{"cover":"SCT","base":3500}],"obsTime":1776614400},"SBCT":{"icaoId":"SBCT","flightCategory":"VFR","rawOb":"METAR SBCT 191600Z 33005KT 9999 SCT030 25/15 Q1017","temp":25,"dewp":15,"wdir":330,"wspd":5,"visib":"6+","altim":1017,"clouds":[{"cover":"SCT","base":3000}],"obsTime":1776614400},"SBCZ":{"icaoId":"SBCZ","flightCategory":"MVFR","rawOb":"METAR SBCZ 191600Z 03003KT 9999 BKN015 OVC100 27/24 Q1012","temp":27,"dewp":24,"wdir":30,"wspd":3,"visib":"6+","altim":1012,"clouds":[{"cover":"BKN","base":1500},{"cover":"OVC","base":10000}],"obsTime":1776614400},"SBEG":{"icaoId":"SBEG","flightCategory":"VFR","rawOb":"METAR SBEG 191600Z 21005KT 170V230 9999 SCT020 28/24 Q1012","temp":28,"dewp":24,"wdir":210,"wspd":5,"visib":"6+","altim":1012,"clouds":[{"cover":"SCT","base":2000}],"obsTime":1776614400},"SBFI":{"icaoId":"SBFI","flightCategory":"VFR","rawOb":"METAR SBFI 191600Z 11005KT 9999 SCT040 30/23 Q1012","temp":30,"dewp":23,"wdir":110,"wspd":5,"visib":"6+","altim":1012,"clouds":[{"cover":"SCT","base":4000}],"obsTime":1776614400},"SBFL":{"icaoId":"SBFL","flightCategory":"VFR","rawOb":"METAR SBFL 191600Z 12009KT 9999 FEW025 28/15 Q1013","temp":28,"dewp":15,"wdir":120,"wspd":9,"visib":"6+","altim":1013,"clouds":[{"cover":"FEW","base":2500}],"obsTime":1776614400},"SBFZ":{"icaoId":"SBFZ","flightCategory":"MVFR","rawOb":"METAR SBFZ 191600Z 07005KT 030V120 9999 BKN022 29/24 Q1009","temp":29,"dewp":24,"wdir":70,"wspd":5,"visib":"6+","altim":1009,"clouds":[{"cover":"BKN","base":2200}],"obsTime":1776614400},"SBGL":{"icaoId":"SBGL","flightCategory":"VFR","rawOb":"METAR SBGL 191600Z 20010KT 160V240 9999 SCT035 SCT050 29/20 Q1012","temp":29,"dewp":20,"wdir":200,"wspd":10,"visib":"6+","altim":1012,"clouds":[{"cover":"SCT","base":3500},{"cover":"SCT","base":5000}],"obsTime":1776614400},"SBGO":{"icaoId":"SBGO","flightCategory":"VFR","rawOb":"METAR SBGO 191600Z VRB04KT 9999 SCT045 30/18 Q1015","temp":30,"dewp":18,"wdir":"VRB","wspd":4,"visib":"6+","altim":1015,"clouds":[{"cover":"SCT","base":4500}],"obsTime":1776614400},"SBGR":{"icaoId":"SBGR","flightCategory":"VFR","rawOb":"METAR SBGR 191600Z 12004KT CAVOK 27/13 Q1016","temp":27,"dewp":13,"wdir":120,"wspd":4,"visib":"6+","altim":1016,"clouds":[],"obsTime":1776614400},"SBHT":{"icaoId":"SBHT","flightCategory":"VFR","rawOb":"METAR SBHT 191600Z 26005KT 9999 SCT016 BKN090 28/23 Q1012","temp":28,"dewp":23,"wdir":260,"wspd":5,"visib":"6+","altim":1012,"clouds":[{"cover":"SCT","base":1600},{"cover":"BKN","base":9000}],"obsTime":1776614400},"SBIL":{"icaoId":"SBIL","flightCategory":"VFR","rawOb":"METAR SBIL 191600Z 09007KT 9999 FEW024 31/24 Q1011","temp":31,"dewp":24,"wdir":90,"wspd":7,"visib":"6+","altim":1011,"clouds":[{"cover":"FEW","base":2400}],"obsTime":1776614400},"SBJU":{"icaoId":"SBJU","flightCategory":"MVFR","rawOb":"METAR SBJU 191600Z 06004KT 9999 BKN022 29/22 Q1012","temp":29,"dewp":22,"wdir":60,"wspd":4,"visib":"6+","altim":1012,"clouds":[{"cover":"BKN","base":2200}],"obsTime":1776614400},"SBKP":{"icaoId":"SBKP","flightCategory":"VFR","rawOb":"METAR SBKP 191600Z 12005KT 070V220 9999 FEW040 28/14 Q1015","temp":28,"dewp":14,"wdir":120,"wspd":5,"visib":"6+","altim":1015,"clouds":[{"cover":"FEW","base":4000}],"obsTime":1776614400},"SBLO":{"icaoId":"SBLO","flightCategory":"VFR","rawOb":"METAR SBLO 191600Z 19004KT 120V270 9999 SCT033 29/20 Q1014","temp":29,"dewp":20,"wdir":190,"wspd":4,"visib":"6+","altim":1014,"clouds":[{"cover":"SCT","base":3300}],"obsTime":1776614400},"SBMA":{"icaoId":"SBMA","flightCategory":"MVFR","rawOb":"METAR SBMA 191600Z 27008KT 9999 BKN020 FEW023TCU BKN080 28/24 Q1011","temp":28,"dewp":24,"wdir":270,"wspd":8,"visib":"6+","altim":1011,"clouds":[{"cover":"BKN","base":2000},{"cover":"FEW","base":2300},{"cover":"BKN","base":8000}],"obsTime":1776614400},"SBME":{"icaoId":"SBME","flightCategory":"VFR","rawOb":"METAR SBME 191600Z 21011KT 9999 SCT040 30/22 Q1010","temp":30,"dewp":22,"wdir":210,"wspd":11,"visib":"6+","altim":1010,"clouds":[{"cover":"SCT","base":4000}],"obsTime":1776614400},"SBMG":{"icaoId":"SBMG","flightCategory":"VFR","rawOb":"METAR SBMG 191600Z 19006KT 120V250 9999 SCT036 29/21 Q1013","temp":29,"dewp":21,"wdir":190,"wspd":6,"visib":"6+","altim":1013,"clouds":[{"cover":"SCT","base":3600}],"obsTime":1776614400},"SBMK":{"icaoId":"SBMK","flightCategory":"VFR","rawOb":"METAR SBMK 191600Z 23006KT 9999 FEW040 30/17 Q1014","temp":30,"dewp":17,"wdir":230,"wspd":6,"visib":"6+","altim":1014,"clouds":[{"cover":"FEW","base":4000}],"obsTime":1776614400},"SBMO":{"icaoId":"SBMO","flightCategory":"VFR","rawOb":"METAR SBMO 191600Z 10005KT 9999 FEW043 31/21 Q1010","temp":31,"dewp":21,"wdir":100,"wspd":5,"visib":"6+","altim":1010,"clouds":[{"cover":"FEW","base":4300}],"obsTime":1776614400},"SBMQ":{"icaoId":"SBMQ","flightCategory":"MVFR","rawOb":"METAR SBMQ 191600Z 00000KT 9999 BKN015 BKN100 29/25 Q1011","temp":29,"dewp":25,"wdir":0,"wspd":0,"visib":"6+","altim":1011,"clouds":[{"cover":"BKN","base":1500},{"cover":"BKN","base":10000}],"obsTime":1776614400},"SBNT":{"icaoId":"SBNT","flightCategory":"MVFR","rawOb":"METAR SBNT 191600Z 15006KT 9999 BKN020 SCT050 BKN080 28/25 Q1009","temp":28,"dewp":25,"wdir":150,"wspd":6,"visib":"6+","altim":1009,"clouds":[{"cover":"BKN","base":2000},{"cover":"SCT","base":5000},{"cover":"BKN","base":8000}],"obsTime":1776614400},"SBPA":{"icaoId":"SBPA","flightCategory":"VFR","rawOb":"METAR SBPA 191600Z VRB03KT CAVOK 27/15 Q1013","temp":27,"dewp":15,"wdir":"VRB","wspd":3,"visib":"6+","altim":1013,"clouds":[],"obsTime":1776614400},"SBPJ":{"icaoId":"SBPJ","flightCategory":"VFR","rawOb":"METAR SBPJ 191600Z 24004KT 9999 SCT023 BKN100 29/21 Q1012","temp":29,"dewp":21,"wdir":240,"wspd":4,"visib":"6+","altim":1012,"clouds":[{"cover":"SCT","base":2300},{"cover":"BKN","base":10000}],"obsTime":1776614400},"SBPV":{"icaoId":"SBPV","flightCategory":"MVFR","rawOb":"METAR SBPV 191600Z 34003KT 5000 1500S RA BKN012 BKN035 27/24 Q1011","temp":27,"dewp":24,"wdir":340,"wspd":3,"visib":3.11,"altim":1011,"clouds":[{"cover":"BKN","base":1200},{"cover":"BKN","base":3500}],"obsTime":1776614400},"SBRB":{"icaoId":"SBRB","flightCategory":"MVFR","rawOb":"METAR SBRB 191600Z 33004KT 9999 BKN015 BKN100 30/25 Q1012","temp":30,"dewp":25,"wdir":330,"wspd":4,"visib":"6+","altim":1012,"clouds":[{"cover":"BKN","base":1500},{"cover":"BKN","base":10000}],"obsTime":1776614400},"SBRF":{"icaoId":"SBRF","flightCategory":"VFR","rawOb":"METAR SBRF 191600Z 14010KT 110V170 9999 SCT021 FEW025TCU SCT100 30/24 Q1009","temp":30,"dewp":24,"wdir":140,"wspd":10,"visib":"6+","altim":1009,"clouds":[{"cover":"SCT","base":2100},{"cover":"FEW","base":2500},{"cover":"SCT","base":10000}],"obsTime":1776614400},"SBSG":{"icaoId":"SBSG","flightCategory":"VFR","rawOb":"METAR SBSG 191600Z 14005KT 080V190 9999 SCT023 BKN100 29/25 Q1009","temp":29,"dewp":25,"wdir":140,"wspd":5,"visib":"6+","altim":1009,"clouds":[{"cover":"SCT","base":2300},{"cover":"BKN","base":10000}],"obsTime":1776614400},"SBSL":{"icaoId":"SBSL","flightCategory":"MVFR","rawOb":"METAR SBSL 191600Z 08012KT 9999 VCSH BKN015 FEW025TCU BKN080 26/24 Q1010","temp":26,"dewp":24,"wdir":80,"wspd":12,"visib":"6+","altim":1010,"clouds":[{"cover":"BKN","base":1500},{"cover":"FEW","base":2500},{"cover":"BKN","base":8000}],"obsTime":1776614400},"SBSN":{"icaoId":"SBSN","flightCategory":"VFR","rawOb":"METAR SBSN 191600Z 08005KT 9999 SCT020 29/24 Q1011","temp":29,"dewp":24,"wdir":80,"wspd":5,"visib":"6+","altim":1011,"clouds":[{"cover":"SCT","base":2000}],"obsTime":1776614400},"SBSP":{"icaoId":"SBSP","flightCategory":"VFR","rawOb":"METAR SBSP 191600Z 17006KT CAVOK 27/15 Q1017","temp":27,"dewp":15,"wdir":170,"wspd":6,"visib":"6+","altim":1017,"clouds":[],"obsTime":1776614400},"SBSV":{"icaoId":"SBSV","flightCategory":"VFR","rawOb":"METAR SBSV 191600Z 14008KT 100V180 9999 VCSH SCT021 FEW023TCU BKN100 30/23 Q1010","temp":30,"dewp":23,"wdir":140,"wspd":8,"visib":"6+","altim":1010,"clouds":[{"cover":"SCT","base":2100},{"cover":"FEW","base":2300},{"cover":"BKN","base":10000}],"obsTime":1776614400},"SBTE":{"icaoId":"SBTE","flightCategory":"MVFR","rawOb":"METAR SBTE 191600Z 36005KT 9999 BKN021 BKN080 30/24 Q1009","temp":30,"dewp":24,"wdir":360,"wspd":5,"visib":"6+","altim":1009,"clouds":[{"cover":"BKN","base":2100},{"cover":"BKN","base":8000}],"obsTime":1776614400},"SBUL":{"icaoId":"SBUL","flightCategory":"VFR","rawOb":"METAR SBUL 191600Z 11005KT 9999 SCT045 29/16 Q1016","temp":29,"dewp":16,"wdir":110,"wspd":5,"visib":"6+","altim":1016,"clouds":[{"cover":"SCT","base":4500}],"obsTime":1776614400},"SBUR":{"icaoId":"SBUR","flightCategory":"VFR","rawOb":"METAR SBUR 191600Z 19007KT 9999 SCT040 31/18 Q1015","temp":31,"dewp":18,"wdir":190,"wspd":7,"visib":"6+","altim":1015,"clouds":[{"cover":"SCT","base":4000}],"obsTime":1776614400},"SBVT":{"icaoId":"SBVT","flightCategory":"VFR","rawOb":"METAR SBVT 191600Z 16011KT 9999 SCT030 28/21 Q1010","temp":28,"dewp":21,"wdir":160,"wspd":11,"visib":"6+","altim":1010,"clouds":[{"cover":"SCT","base":3000}],"obsTime":1776614400},"SBOI":{"icaoId":"SBOI","flightCategory":"VFR","rawOb":"METAR SBOI 191600Z AUTO 04005KT 9999 -RA FEW019 BKN034 26/25 Q1011","temp":26,"dewp":25,"wdir":40,"wspd":5,"visib":"6+","altim":1011,"clouds":[{"cover":"FEW","base":1900},{"cover":"BKN","base":3400}],"obsTime":1776614400},"SBCO":{"icaoId":"SBCO","flightCategory":"VFR","rawOb":"METAR SBCO 191600Z 23004KT CAVOK 27/15 Q1014","temp":27,"dewp":15,"wdir":230,"wspd":4,"visib":"6+","altim":1014,"clouds":[],"obsTime":1776614400},"SBPB":{"icaoId":"SBPB","flightCategory":"VFR","rawOb":"METAR SBPB 191600Z 12007KT 9999 SCT020 27/23 Q1010","temp":27,"dewp":23,"wdir":120,"wspd":7,"visib":"6+","altim":1010,"clouds":[{"cover":"SCT","base":2000}],"obsTime":1776614400},"SBAR":{"icaoId":"SBAR","flightCategory":"VFR","rawOb":"METAR SBAR 191600Z 09009KT 9999 FEW025 31/24 Q1010","temp":31,"dewp":24,"wdir":90,"wspd":9,"visib":"6+","altim":1010,"clouds":[{"cover":"FEW","base":2500}],"obsTime":1776614400},"SBPL":{"icaoId":"SBPL","flightCategory":"VFR","rawOb":"METAR SBPL 191600Z 04003KT 9999 SCT030 33/20 Q1011","temp":33,"dewp":20,"wdir":40,"wspd":3,"visib":"6+","altim":1011,"clouds":[{"cover":"SCT","base":3000}],"obsTime":1776614400},"SBPP":{"icaoId":"SBPP","flightCategory":"VFR","rawOb":"METAR SBPP 191600Z 01009KT 9999 FEW025 30/22 Q1014","temp":30,"dewp":22,"wdir":10,"wspd":9,"visib":"6+","altim":1014,"clouds":[{"cover":"FEW","base":2500}],"obsTime":1776614400},"SBAU":{"icaoId":"SBAU","flightCategory":"VFR","rawOb":"METAR SBAU 191700Z 15003KT 9999 FEW040 33/20 Q1012","temp":33,"dewp":20,"wdir":150,"wspd":3,"visib":"6+","altim":1012,"clouds":[{"cover":"FEW","base":4000}],"obsTime":1776618000},"SBDN":{"icaoId":"SBDN","flightCategory":"VFR","rawOb":"METAR SBDN 191600Z 25002KT 9999 SCT049 33/19 Q1013","temp":33,"dewp":19,"wdir":250,"wspd":2,"visib":"6+","altim":1013,"clouds":[{"cover":"SCT","base":4900}],"obsTime":1776614400},"SBPS":{"icaoId":"SBPS","flightCategory":"VFR","rawOb":"METAR SBPS 191600Z 07009KT 9999 SCT020 30/24 Q1010","temp":30,"dewp":24,"wdir":70,"wspd":9,"visib":"6+","altim":1010,"clouds":[{"cover":"SCT","base":2000}],"obsTime":1776614400},"SBSC":{"icaoId":"SBSC","flightCategory":"VFR","rawOb":"METAR SBSC 191600Z 21012KT 9999 FEW040 26/22 Q1012","temp":26,"dewp":22,"wdir":210,"wspd":12,"visib":"6+","altim":1012,"clouds":[{"cover":"FEW","base":4000}],"obsTime":1776614400},"SBBU":{"icaoId":"SBBU","flightCategory":"VFR","rawOb":"METAR SBBU 191600Z 29003KT 9999 FEW040 30/21 Q1014","temp":30,"dewp":21,"wdir":290,"wspd":3,"visib":"6+","altim":1014,"clouds":[{"cover":"FEW","base":4000}],"obsTime":1776614400},"SBES":{"icaoId":"SBES","flightCategory":"VFR","rawOb":"METAR SBES 191600Z 23012G23KT 140V270 9999 SCT015 27/// Q1011","temp":null,"dewp":null,"wdir":230,"wspd":12,"visib":"6+","altim":1011,"clouds":[{"cover":"SCT","base":1500}],"obsTime":1776614400},"SBSJ":{"icaoId":"SBSJ","flightCategory":"VFR","rawOb":"METAR SBSJ 191600Z 17006KT CAVOK 27/14 Q1015","temp":27,"dewp":14,"wdir":170,"wspd":6,"visib":"6+","altim":1015,"clouds":[],"obsTime":1776614400},"SBSM":{"icaoId":"SBSM","flightCategory":"VFR","rawOb":"METAR SBSM 191600Z 12006KT 070V180 CAVOK 27/17 Q1013","temp":27,"dewp":17,"wdir":120,"wspd":6,"visib":"6+","altim":1013,"clouds":[],"obsTime":1776614400},"SBBH":{"icaoId":"SBBH","flightCategory":"VFR","rawOb":"METAR SBBH 191600Z 26006KT 9999 SCT045 29/16 Q1015","temp":29,"dewp":16,"wdir":260,"wspd":6,"visib":"6+","altim":1015,"clouds":[{"cover":"SCT","base":4500}],"obsTime":1776614400},"SBSR":{"icaoId":"SBSR","flightCategory":"VFR","rawOb":"METAR SBSR 191600Z 27006KT 190V360 9999 FEW040 31/17 Q1013","temp":31,"dewp":17,"wdir":270,"wspd":6,"visib":"6+","altim":1013,"clouds":[{"cover":"FEW","base":4000}],"obsTime":1776614400},"SBGM":{"icaoId":"SBGM","flightCategory":"VFR","rawOb":"METAR SBGM 191600Z 29007KT 9999 FEW016 BKN096 30/20 Q1011","temp":30,"dewp":20,"wdir":290,"wspd":7,"visib":"6+","altim":1011,"clouds":[{"cover":"FEW","base":1600},{"cover":"BKN","base":9600}],"obsTime":1776614400},"SBCC":{"icaoId":"SBCC","flightCategory":"IFR","rawOb":"METAR SBCC 191600Z 04006KT 010V120 3000 RA BKN025 FEW030TCU OVC100 24/22 Q1013 RERA","temp":24,"dewp":22,"wdir":40,"wspd":6,"visib":1.86,"altim":1013,"clouds":[{"cover":"BKN","base":2500},{"cover":"FEW","base":3000},{"cover":"OVC","base":10000}],"obsTime":1776614400},"SBTF":{"icaoId":"SBTF","flightCategory":"VFR","rawOb":"METAR SBTF 191600Z 05002KT 9999 FEW011 OVC100 26/25 Q1012","temp":26,"dewp":25,"wdir":50,"wspd":2,"visib":"6+","altim":1012,"clouds":[{"cover":"FEW","base":1100},{"cover":"OVC","base":10000}],"obsTime":1776614400},"SBTT":{"icaoId":"SBTT","flightCategory":"MVFR","rawOb":"METAR SBTT 191600Z 32005KT 9999 BKN016 BKN070 27/22 Q1012","temp":27,"dewp":22,"wdir":320,"wspd":5,"visib":"6+","altim":1012,"clouds":[{"cover":"BKN","base":1600},{"cover":"BKN","base":7000}],"obsTime":1776614400},"SBIP":{"icaoId":"SBIP","flightCategory":"VFR","rawOb":"METAR SBIP 191600Z AUTO VRB03KT CAVOK 32/19 Q1011","temp":32,"dewp":19,"wdir":"VRB","wspd":3,"visib":"6+","altim":1011,"clouds":[],"obsTime":1776614400},"SBAX":{"icaoId":"SBAX","flightCategory":"VFR","rawOb":"METAR SBAX 191600Z AUTO 25005KT 190V310 9999 FEW047 29/16 Q1016","temp":29,"dewp":16,"wdir":250,"wspd":5,"visib":"6+","altim":1016,"clouds":[{"cover":"FEW","base":4700}],"obsTime":1776614400},"SBUY":{"icaoId":"SBUY","flightCategory":"MVFR","rawOb":"METAR SBUY 191600Z 12003KT 9999 BKN015 BKN090 25/23 Q1011","temp":25,"dewp":23,"wdir":120,"wspd":3,"visib":"6+","altim":1011,"clouds":[{"cover":"BKN","base":1500},{"cover":"BKN","base":9000}],"obsTime":1776614400},"SBVH":{"icaoId":"SBVH","flightCategory":"VFR","rawOb":"METAR SBVH 191600Z 32008KT 9999 FEW011 SCT025 BKN100 25/22 Q1014","temp":25,"dewp":22,"wdir":320,"wspd":8,"visib":"6+","altim":1014,"clouds":[{"cover":"FEW","base":1100},{"cover":"SCT","base":2500},{"cover":"BKN","base":10000}],"obsTime":1776614400},"SBKG":{"icaoId":"SBKG","flightCategory":"MVFR","rawOb":"METAR SBKG 191600Z 10007KT 9999 BKN023 BKN080 29/22 Q1012","temp":29,"dewp":22,"wdir":100,"wspd":7,"visib":"6+","altim":1012,"clouds":[{"cover":"BKN","base":2300},{"cover":"BKN","base":8000}],"obsTime":1776614400},"SBBQ":{"icaoId":"SBBQ","flightCategory":"VFR","rawOb":"METAR SBBQ 191600Z 26006KT 210V290 9999 SCT035 25/15 Q1018","temp":25,"dewp":15,"wdir":260,"wspd":6,"visib":"6+","altim":1018,"clouds":[{"cover":"SCT","base":3500}],"obsTime":1776614400},"SBCJ":{"icaoId":"SBCJ","flightCategory":"VFR","rawOb":"METAR SBCJ 191600Z 00000KT 9999 FEW004 BKN100 23/21 Q1015","temp":23,"dewp":21,"wdir":0,"wspd":0,"visib":"6+","altim":1015,"clouds":[{"cover":"FEW","base":400},{"cover":"BKN","base":10000}],"obsTime":1776614400},"SBJP":{"icaoId":"SBJP","flightCategory":"MVFR","rawOb":"METAR SBJP 191600Z 13008KT 9999 BKN020 30/24 Q1009","temp":30,"dewp":24,"wdir":130,"wspd":8,"visib":"6+","altim":1009,"clouds":[{"cover":"BKN","base":2000}],"obsTime":1776614400},"SBJV":{"icaoId":"SBJV","flightCategory":"VFR","rawOb":"METAR SBJV 191600Z 13010KT 9999 SCT030 29/21 Q1012","temp":29,"dewp":21,"wdir":130,"wspd":10,"visib":"6+","altim":1012,"clouds":[{"cover":"SCT","base":3000}],"obsTime":1776614400},"SBAN":{"icaoId":"SBAN","flightCategory":"MVFR","rawOb":"METAR SBAN 191600Z 15005KT 9999 BKN020 28/15 Q1018","temp":28,"dewp":15,"wdir":150,"wspd":5,"visib":"6+","altim":1018,"clouds":[{"cover":"BKN","base":2000}],"obsTime":1776614400},"SBLE":{"icaoId":"SBLE","flightCategory":"VFR","rawOb":"METAR SBLE 191600Z AUTO VRB03KT 9999 FEW030 BKN034 29/21 Q1013","temp":29,"dewp":21,"wdir":"VRB","wspd":3,"visib":"6+","altim":1013,"clouds":[{"cover":"FEW","base":3000},{"cover":"BKN","base":3400}],"obsTime":1776614400},"SBTC":{"icaoId":"SBTC","flightCategory":"VFR","rawOb":"METAR SBTC 191600Z 08005KT 9999 SCT020 29/24 Q1010","temp":29,"dewp":24,"wdir":80,"wspd":5,"visib":"6+","altim":1010,"clouds":[{"cover":"SCT","base":2000}],"obsTime":1776614400},"SBIH":{"icaoId":"SBIH","flightCategory":"VFR","rawOb":"METAR SBIH 191600Z 00000KT 9999 SCT018 30/24 Q1011","temp":30,"dewp":24,"wdir":0,"wspd":0,"visib":"6+","altim":1011,"clouds":[{"cover":"SCT","base":1800}],"obsTime":1776614400},"SBAF":{"icaoId":"SBAF","flightCategory":"VFR","rawOb":"METAR SBAF 191600Z 23011KT 9999 FEW030 SCT060 28/21 Q1012","temp":28,"dewp":21,"wdir":230,"wspd":11,"visib":"6+","altim":1012,"clouds":[{"cover":"FEW","base":3000},{"cover":"SCT","base":6000}],"obsTime":1776614400},"SBGW":{"icaoId":"SBGW","flightCategory":"VFR","rawOb":"METAR SBGW 191600Z 26004KT 9999 FEW030 28/15 Q1014","temp":28,"dewp":15,"wdir":260,"wspd":4,"visib":"6+","altim":1014,"clouds":[{"cover":"FEW","base":3000}],"obsTime":1776614400},"SBJR":{"icaoId":"SBJR","flightCategory":"VFR","rawOb":"METAR SBJR 191600Z 22011KT 9999 FEW025 29/23 Q1012","temp":29,"dewp":23,"wdir":220,"wspd":11,"visib":"6+","altim":1012,"clouds":[{"cover":"FEW","base":2500}],"obsTime":1776614400},"SBLS":{"icaoId":"SBLS","flightCategory":"VFR","rawOb":"METAR SBLS 191600Z 25004KT 120V280 CAVOK 29/17 Q1015","temp":29,"dewp":17,"wdir":250,"wspd":4,"visib":"6+","altim":1015,"clouds":[],"obsTime":1776614400},"SBMT":{"icaoId":"SBMT","flightCategory":"VFR","rawOb":"METAR SBMT 191600Z VRB04KT CAVOK 27/12 Q1015","temp":27,"dewp":12,"wdir":"VRB","wspd":4,"visib":"6+","altim":1015,"clouds":[],"obsTime":1776614400},"SBST":{"icaoId":"SBST","flightCategory":"VFR","rawOb":"METAR SBST 191600Z 21005KT 9999 FEW040 27/22 Q1012","temp":27,"dewp":22,"wdir":210,"wspd":5,"visib":"6+","altim":1012,"clouds":[{"cover":"FEW","base":4000}],"obsTime":1776614400},"SBTA":{"icaoId":"SBTA","flightCategory":"VFR","rawOb":"METAR SBTA 191600Z VRB04KT 9999 FEW035 28/15 Q1014","temp":28,"dewp":15,"wdir":"VRB","wspd":4,"visib":"6+","altim":1014,"clouds":[{"cover":"FEW","base":3500}],"obsTime":1776614400}}}