{"updated":1774787209,"count":86,"data":{"SBRB":{"icaoId":"SBRB","flightCategory":"LIFR","rawOb":"METAR SBRB 291100Z 10003KT 0250 R07///// R25/M0050 FG BKN002 22/21 Q1013","temp":22,"dewp":21,"wdir":100,"wspd":3,"visib":0.16,"altim":1013,"clouds":[{"cover":"BKN","base":200}],"obsTime":1774782000},"SBMQ":{"icaoId":"SBMQ","flightCategory":"IFR","rawOb":"METAR SBMQ 291100Z 32004KT 9999 BKN008 SCT017 27/26 Q1012","temp":27,"dewp":26,"wdir":320,"wspd":4,"visib":"6+","altim":1012,"clouds":[{"cover":"BKN","base":800},{"cover":"SCT","base":1700}],"obsTime":1774782000},"SBMG":{"icaoId":"SBMG","flightCategory":"VFR","rawOb":"METAR SBMG 291100Z 16005KT CAVOK 22/18 Q1019","temp":22,"dewp":18,"wdir":160,"wspd":5,"visib":"6+","altim":1019,"clouds":[],"obsTime":1774782000},"SBFL":{"icaoId":"SBFL","flightCategory":"VFR","rawOb":"METAR SBFL 291100Z 32008KT CAVOK 26/21 Q1018","temp":26,"dewp":21,"wdir":320,"wspd":8,"visib":"6+","altim":1018,"clouds":[],"obsTime":1774782000},"SBMK":{"icaoId":"SBMK","flightCategory":"VFR","rawOb":"METAR SBMK 291100Z 16004KT CAVOK 22/17 Q1020","temp":22,"dewp":17,"wdir":160,"wspd":4,"visib":"6+","altim":1020,"clouds":[],"obsTime":1774782000},"SBMO":{"icaoId":"SBMO","flightCategory":"MVFR","rawOb":"METAR SBMO 291100Z 23004KT 210V270 6000 -RA SCT007 BKN018 FEW027TCU BKN060 25/24 Q1013","temp":25,"dewp":24,"wdir":230,"wspd":4,"visib":3.73,"altim":1013,"clouds":[{"cover":"SCT","base":700},{"cover":"BKN","base":1800},{"cover":"FEW","base":2700},{"cover":"BKN","base":6000}],"obsTime":1774782000},"SBBE":{"icaoId":"SBBE","flightCategory":"VFR","rawOb":"METAR SBBE 291100Z 07008KT 9999 FEW010 SCT032 BKN070 27/25 Q1012","temp":27,"dewp":25,"wdir":70,"wspd":8,"visib":"6+","altim":1012,"clouds":[{"cover":"FEW","base":1000},{"cover":"SCT","base":3200},{"cover":"BKN","base":7000}],"obsTime":1774782000},"SBFZ":{"icaoId":"SBFZ","flightCategory":"VFR","rawOb":"METAR SBFZ 291100Z 16003KT 9999 SCT020 BKN080 27/25 Q1011","temp":27,"dewp":25,"wdir":160,"wspd":3,"visib":"6+","altim":1011,"clouds":[{"cover":"SCT","base":2000},{"cover":"BKN","base":8000}],"obsTime":1774782000},"SBGL":{"icaoId":"SBGL","flightCategory":"VFR","rawOb":"METAR SBGL 291100Z VRB03KT 9999 FEW007 SCT009 25/22 Q1018","temp":25,"dewp":22,"wdir":"VRB","wspd":3,"visib":"6+","altim":1018,"clouds":[{"cover":"FEW","base":700},{"cover":"SCT","base":900}],"obsTime":1774782000},"SBNT":{"icaoId":"SBNT","flightCategory":"VFR","rawOb":"METAR SBNT 291100Z 20007KT 170V230 9999 FEW030 27/23 Q1012","temp":27,"dewp":23,"wdir":200,"wspd":7,"visib":"6+","altim":1012,"clouds":[{"cover":"FEW","base":3000}],"obsTime":1774782000},"SBCP":{"icaoId":"SBCP","flightCategory":"MVFR","rawOb":"METAR SBCP 291100Z 24004KT 9999 BKN015 26/22 Q1018","temp":26,"dewp":22,"wdir":240,"wspd":4,"visib":"6+","altim":1018,"clouds":[{"cover":"BKN","base":1500}],"obsTime":1774782000},"SBPA":{"icaoId":"SBPA","flightCategory":"MVFR","rawOb":"METAR SBPA 291100Z 00000KT 6000 FEW006 26/24 Q1017","temp":26,"dewp":24,"wdir":0,"wspd":0,"visib":3.73,"altim":1017,"clouds":[{"cover":"FEW","base":600}],"obsTime":1774782000},"SBCR":{"icaoId":"SBCR","flightCategory":"VFR","rawOb":"METAR SBCR 291100Z VRB01KT 9999 FEW023 28/24 Q1015","temp":28,"dewp":24,"wdir":"VRB","wspd":1,"visib":"6+","altim":1015,"clouds":[{"cover":"FEW","base":2300}],"obsTime":1774782000},"SBPJ":{"icaoId":"SBPJ","flightCategory":"VFR","rawOb":"METAR SBPJ 291100Z 03003KT 9999 SCT020 SCT090 27/23 Q1014","temp":27,"dewp":23,"wdir":30,"wspd":3,"visib":"6+","altim":1014,"clouds":[{"cover":"SCT","base":2000},{"cover":"SCT","base":9000}],"obsTime":1774782000},"SBGO":{"icaoId":"SBGO","flightCategory":"VFR","rawOb":"METAR SBGO 291100Z 12003KT CAVOK 22/18 Q1020","temp":22,"dewp":18,"wdir":120,"wspd":3,"visib":"6+","altim":1020,"clouds":[],"obsTime":1774782000},"SBPV":{"icaoId":"SBPV","flightCategory":"IFR","rawOb":"METAR SBPV 291100Z 12002KT 9999 BKN005 24/22 Q1012","temp":24,"dewp":22,"wdir":120,"wspd":2,"visib":"6+","altim":1012,"clouds":[{"cover":"BKN","base":500}],"obsTime":1774782000},"SBCB":{"icaoId":"SBCB","flightCategory":"VFR","rawOb":"METAR SBCB 291100Z 33004KT CAVOK 26/22 Q1018","temp":26,"dewp":22,"wdir":330,"wspd":4,"visib":"6+","altim":1018,"clouds":[],"obsTime":1774782000},"SBGR":{"icaoId":"SBGR","flightCategory":"MVFR","rawOb":"METAR SBGR 291100Z 06010KT 9999 BKN011 21/19 Q1022","temp":21,"dewp":19,"wdir":60,"wspd":10,"visib":"6+","altim":1022,"clouds":[{"cover":"BKN","base":1100}],"obsTime":1774782000},"SBRF":{"icaoId":"SBRF","flightCategory":"VFR","rawOb":"METAR SBRF 291100Z 20003KT 150V280 9999 FEW021 28/24 Q1012","temp":28,"dewp":24,"wdir":200,"wspd":3,"visib":"6+","altim":1012,"clouds":[{"cover":"FEW","base":2100}],"obsTime":1774782000},"SBSG":{"icaoId":"SBSG","flightCategory":"VFR","rawOb":"METAR SBSG 291100Z 20004KT 170V240 9999 SCT025 FEW030TCU 26/23 Q1012","temp":26,"dewp":23,"wdir":200,"wspd":4,"visib":"6+","altim":1012,"clouds":[{"cover":"SCT","base":2500},{"cover":"FEW","base":3000}],"obsTime":1774782000},"SBCF":{"icaoId":"SBCF","flightCategory":"VFR","rawOb":"METAR SBCF 291100Z 16008KT 9999 FEW020 21/18 Q1022","temp":21,"dewp":18,"wdir":160,"wspd":8,"visib":"6+","altim":1022,"clouds":[{"cover":"FEW","base":2000}],"obsTime":1774782000},"SBHT":{"icaoId":"SBHT","flightCategory":"VFR","rawOb":"METAR SBHT 291100Z 00000KT 9999 SCT012 BKN080 24/24 Q1012","temp":24,"dewp":24,"wdir":0,"wspd":0,"visib":"6+","altim":1012,"clouds":[{"cover":"SCT","base":1200},{"cover":"BKN","base":8000}],"obsTime":1774782000},"SBSL":{"icaoId":"SBSL","flightCategory":"MVFR","rawOb":"METAR SBSL 291100Z 12006KT 9999 VCSH FEW012 BKN016 FEW025TCU BKN080 26/24 Q1012","temp":26,"dewp":24,"wdir":120,"wspd":6,"visib":"6+","altim":1012,"clouds":[{"cover":"FEW","base":1200},{"cover":"BKN","base":1600},{"cover":"FEW","base":2500},{"cover":"BKN","base":8000}],"obsTime":1774782000},"SBSN":{"icaoId":"SBSN","flightCategory":"VFR","rawOb":"METAR SBSN 291100Z 16001KT 9999 SCT016 SCT100 25/25 Q1012","temp":25,"dewp":25,"wdir":160,"wspd":1,"visib":"6+","altim":1012,"clouds":[{"cover":"SCT","base":1600},{"cover":"SCT","base":10000}],"obsTime":1774782000},"SBCT":{"icaoId":"SBCT","flightCategory":"MVFR","rawOb":"METAR SBCT 291100Z VRB02KT 9999 BKN010 18/17 Q1023","temp":18,"dewp":17,"wdir":"VRB","wspd":2,"visib":"6+","altim":1023,"clouds":[{"cover":"BKN","base":1000}],"obsTime":1774782000},"SBSP":{"icaoId":"SBSP","flightCategory":"VFR","rawOb":"METAR SBSP 291100Z 06007KT 9999 SCT011 21/18 Q1023","temp":21,"dewp":18,"wdir":60,"wspd":7,"visib":"6+","altim":1023,"clouds":[{"cover":"SCT","base":1100}],"obsTime":1774782000},"SBAT":{"icaoId":"SBAT","flightCategory":"VFR","rawOb":"METAR SBAT 291200Z 23005KT 9999 SCT017 SCT070 25/23 Q1015","temp":25,"dewp":23,"wdir":230,"wspd":5,"visib":"6+","altim":1015,"clouds":[{"cover":"SCT","base":1700},{"cover":"SCT","base":7000}],"obsTime":1774785600},"SBFI":{"icaoId":"SBFI","flightCategory":"VFR","rawOb":"METAR SBFI 291100Z 12006KT CAVOK 25/22 Q1017","temp":25,"dewp":22,"wdir":120,"wspd":6,"visib":"6+","altim":1017,"clouds":[],"obsTime":1774782000},"SBBR":{"icaoId":"SBBR","flightCategory":"VFR","rawOb":"METAR SBBR 291100Z 11010KT 9999 FEW015 20/17 Q1022","temp":20,"dewp":17,"wdir":110,"wspd":10,"visib":"6+","altim":1022,"clouds":[{"cover":"FEW","base":1500}],"obsTime":1774782000},"SBMA":{"icaoId":"SBMA","flightCategory":"MVFR","rawOb":"METAR SBMA 291100Z 09002KT 9999 FEW008 BKN012 FEW020TCU OVC100 25/24 Q1012 RERA","temp":25,"dewp":24,"wdir":90,"wspd":2,"visib":"6+","altim":1012,"clouds":[{"cover":"FEW","base":800},{"cover":"BKN","base":1200},{"cover":"FEW","base":2000},{"cover":"OVC","base":10000}],"obsTime":1774782000},"SBME":{"icaoId":"SBME","flightCategory":"VFR","rawOb":"METAR SBME 291100Z 30006KT CAVOK 26/21 Q1018","temp":26,"dewp":21,"wdir":300,"wspd":6,"visib":"6+","altim":1018,"clouds":[],"obsTime":1774782000},"SBSV":{"icaoId":"SBSV","flightCategory":"MVFR","rawOb":"METAR SBSV 291100Z 19008KT 150V220 6000 2000N +SHRA SCT011 FEW025TCU SCT050 26/24 Q1014","temp":26,"dewp":24,"wdir":190,"wspd":8,"visib":3.73,"altim":1014,"clouds":[{"cover":"SCT","base":1100},{"cover":"FEW","base":2500},{"cover":"SCT","base":5000}],"obsTime":1774782000},"SBIL":{"icaoId":"SBIL","flightCategory":"VFR","rawOb":"METAR SBIL 291100Z 24008KT 200V270 9999 VCSH FEW020 FEW025TCU BKN050 25/23 Q1015","temp":25,"dewp":23,"wdir":240,"wspd":8,"visib":"6+","altim":1015,"clouds":[{"cover":"FEW","base":2000},{"cover":"FEW","base":2500},{"cover":"BKN","base":5000}],"obsTime":1774782000},"SBCZ":{"icaoId":"SBCZ","flightCategory":"MVFR","rawOb":"METAR SBCZ 291200Z 12004KT 5000 BR SCT004 23/23 Q1011","temp":23,"dewp":23,"wdir":120,"wspd":4,"visib":3.11,"altim":1011,"clouds":[{"cover":"SCT","base":400}],"obsTime":1774785600},"SBTE":{"icaoId":"SBTE","flightCategory":"MVFR","rawOb":"METAR SBTE 291100Z 36004KT 9999 BKN017 26/24 Q1012","temp":26,"dewp":24,"wdir":360,"wspd":4,"visib":"6+","altim":1012,"clouds":[{"cover":"BKN","base":1700}],"obsTime":1774782000},"SBJU":{"icaoId":"SBJU","flightCategory":"VFR","rawOb":"METAR SBJU 291100Z 11003KT 9999 SCT020 26/22 Q1015","temp":26,"dewp":22,"wdir":110,"wspd":3,"visib":"6+","altim":1015,"clouds":[{"cover":"SCT","base":2000}],"obsTime":1774782000},"SBUL":{"icaoId":"SBUL","flightCategory":"VFR","rawOb":"METAR SBUL 291100Z 11007KT 050V140 CAVOK 21/17 Q1022","temp":21,"dewp":17,"wdir":110,"wspd":7,"visib":"6+","altim":1022,"clouds":[],"obsTime":1774782000},"SBKP":{"icaoId":"SBKP","flightCategory":"VFR","rawOb":"METAR SBKP 291100Z 11005KT CAVOK 22/19 Q1021","temp":22,"dewp":19,"wdir":110,"wspd":5,"visib":"6+","altim":1021,"clouds":[],"obsTime":1774782000},"SBUR":{"icaoId":"SBUR","flightCategory":"VFR","rawOb":"METAR SBUR 291100Z 04007KT CAVOK 23/17 Q1020","temp":23,"dewp":17,"wdir":40,"wspd":7,"visib":"6+","altim":1020,"clouds":[],"obsTime":1774782000},"SBEG":{"icaoId":"SBEG","flightCategory":"VFR","rawOb":"METAR SBEG 291100Z 00000KT 9999 FEW008 24/24 Q1012","temp":24,"dewp":24,"wdir":0,"wspd":0,"visib":"6+","altim":1012,"clouds":[{"cover":"FEW","base":800}],"obsTime":1774782000},"SBVT":{"icaoId":"SBVT","flightCategory":"VFR","rawOb":"METAR SBVT 291100Z 21004KT 9999 FEW020 SCT027 FEW030TCU 24/22 Q1017","temp":24,"dewp":22,"wdir":210,"wspd":4,"visib":"6+","altim":1017,"clouds":[{"cover":"FEW","base":2000},{"cover":"SCT","base":2700},{"cover":"FEW","base":3000}],"obsTime":1774782000},"SBLO":{"icaoId":"SBLO","flightCategory":"VFR","rawOb":"METAR SBLO 291100Z 15004KT 130V190 CAVOK 22/18 Q1020","temp":22,"dewp":18,"wdir":150,"wspd":4,"visib":"6+","altim":1020,"clouds":[],"obsTime":1774782000},"SBBV":{"icaoId":"SBBV","flightCategory":"VFR","rawOb":"METAR SBBV 291100Z 10006KT 9999 SCT020 FEW030TCU BKN100 25/23 Q1013","temp":25,"dewp":23,"wdir":100,"wspd":6,"visib":"6+","altim":1013,"clouds":[{"cover":"SCT","base":2000},{"cover":"FEW","base":3000},{"cover":"BKN","base":10000}],"obsTime":1774782000},"SBCG":{"icaoId":"SBCG","flightCategory":"VFR","rawOb":"METAR SBCG 291100Z 02004KT CAVOK 25/19 Q1018","temp":25,"dewp":19,"wdir":20,"wspd":4,"visib":"6+","altim":1018,"clouds":[],"obsTime":1774782000},"SBIP":{"icaoId":"SBIP","flightCategory":"LIFR","rawOb":"METAR SBIP 291100Z AUTO 19005KT 9999 BKN002 OVC004 21/21 Q1020","temp":21,"dewp":21,"wdir":190,"wspd":5,"visib":"6+","altim":1020,"clouds":[{"cover":"BKN","base":200},{"cover":"OVC","base":400}],"obsTime":1774782000},"SBOI":{"icaoId":"SBOI","flightCategory":"IFR","rawOb":"METAR SBOI 291100Z AUTO 36004KT 9999 FEW004 BKN007 24/24 Q1013","temp":24,"dewp":24,"wdir":360,"wspd":4,"visib":"6+","altim":1013,"clouds":[{"cover":"FEW","base":400},{"cover":"BKN","base":700}],"obsTime":1774782000},"SBAX":{"icaoId":"SBAX","flightCategory":"VFR","rawOb":"METAR SBAX 291100Z AUTO 09008KT CAVOK 20/18 Q1022","temp":20,"dewp":18,"wdir":90,"wspd":8,"visib":"6+","altim":1022,"clouds":[],"obsTime":1774782000},"SBBH":{"icaoId":"SBBH","flightCategory":"MVFR","rawOb":"METAR SBBH 291100Z 10005KT 9999 BKN030 21/17 Q1022","temp":21,"dewp":17,"wdir":100,"wspd":5,"visib":"6+","altim":1022,"clouds":[{"cover":"BKN","base":3000}],"obsTime":1774782000},"SBBQ":{"icaoId":"SBBQ","flightCategory":"VFR","rawOb":"METAR SBBQ 291200Z 09005KT CAVOK 20/15 Q1026","temp":20,"dewp":15,"wdir":90,"wspd":5,"visib":"6+","altim":1026,"clouds":[],"obsTime":1774785600},"SBSC":{"icaoId":"SBSC","flightCategory":"VFR","rawOb":"METAR SBSC 291100Z 03007KT CAVOK 25/23 Q1018","temp":25,"dewp":23,"wdir":30,"wspd":7,"visib":"6+","altim":1018,"clouds":[],"obsTime":1774782000},"SBAR":{"icaoId":"SBAR","flightCategory":"MVFR","rawOb":"METAR SBAR 291100Z 11011KT 9999 VCSH BKN020 FEW023TCU 29/24 Q1013","temp":29,"dewp":24,"wdir":110,"wspd":11,"visib":"6+","altim":1013,"clouds":[{"cover":"BKN","base":2000},{"cover":"FEW","base":2300}],"obsTime":1774782000},"SBBU":{"icaoId":"SBBU","flightCategory":"VFR","rawOb":"METAR SBBU 291100Z 09009KT CAVOK 23/19 Q1020","temp":23,"dewp":19,"wdir":90,"wspd":9,"visib":"6+","altim":1020,"clouds":[],"obsTime":1774782000},"SBCA":{"icaoId":"SBCA","flightCategory":"VFR","rawOb":"METAR SBCA 291100Z 06005KT CAVOK 24/15 Q1021","temp":24,"dewp":15,"wdir":60,"wspd":5,"visib":"6+","altim":1021,"clouds":[],"obsTime":1774782000},"SBCC":{"icaoId":"SBCC","flightCategory":"VFR","rawOb":"METAR SBCC 291100Z 13003KT CAVOK 23/22 Q1015","temp":23,"dewp":22,"wdir":130,"wspd":3,"visib":"6+","altim":1015,"clouds":[],"obsTime":1774782000},"SBCJ":{"icaoId":"SBCJ","flightCategory":"VFR","rawOb":"METAR SBCJ 291100Z 00000KT CAVOK 23/21 Q1016","temp":23,"dewp":21,"wdir":0,"wspd":0,"visib":"6+","altim":1016,"clouds":[],"obsTime":1774782000},"SBCO":{"icaoId":"SBCO","flightCategory":"IFR","rawOb":"METAR SBCO 291100Z 00000KT 7000 OVC005 25/24 Q1017","temp":25,"dewp":24,"wdir":0,"wspd":0,"visib":4.35,"altim":1017,"clouds":[{"cover":"OVC","base":500}],"obsTime":1774782000},"SBDN":{"icaoId":"SBDN","flightCategory":"VFR","rawOb":"METAR SBDN 291100Z 12006KT CAVOK 23/18 Q1019","temp":23,"dewp":18,"wdir":120,"wspd":6,"visib":"6+","altim":1019,"clouds":[],"obsTime":1774782000},"SBES":{"icaoId":"SBES","flightCategory":"VFR","rawOb":"METAR SBES 291100Z 35003KT 270V080 9999 FEW020 24/// Q1018","temp":null,"dewp":null,"wdir":350,"wspd":3,"visib":"6+","altim":1018,"clouds":[{"cover":"FEW","base":2000}],"obsTime":1774782000},"SBGM":{"icaoId":"SBGM","flightCategory":"VFR","rawOb":"METAR SBGM 291200Z 10004KT 9999 SCT020 BKN040 24/22 Q1014","temp":24,"dewp":22,"wdir":100,"wspd":4,"visib":"6+","altim":1014,"clouds":[{"cover":"SCT","base":2000},{"cover":"BKN","base":4000}],"obsTime":1774785600},"SBKG":{"icaoId":"SBKG","flightCategory":"VFR","rawOb":"METAR SBKG 291100Z 13007KT 9999 SCT018 24/21 Q1015","temp":24,"dewp":21,"wdir":130,"wspd":7,"visib":"6+","altim":1015,"clouds":[{"cover":"SCT","base":1800}],"obsTime":1774782000},"SBPB":{"icaoId":"SBPB","flightCategory":"MVFR","rawOb":"METAR SBPB 291100Z 10006KT 9999 BKN016 BKN080 28/25 Q1011","temp":28,"dewp":25,"wdir":100,"wspd":6,"visib":"6+","altim":1011,"clouds":[{"cover":"BKN","base":1600},{"cover":"BKN","base":8000}],"obsTime":1774782000},"SBPL":{"icaoId":"SBPL","flightCategory":"VFR","rawOb":"METAR SBPL 291100Z 11008KT 9999 SCT025 27/22 Q1015","temp":27,"dewp":22,"wdir":110,"wspd":8,"visib":"6+","altim":1015,"clouds":[{"cover":"SCT","base":2500}],"obsTime":1774782000},"SBPP":{"icaoId":"SBPP","flightCategory":"VFR","rawOb":"SPECI SBPP 291115Z 03007KT CAVOK 25/21 Q1020","temp":25,"dewp":21,"wdir":30,"wspd":7,"visib":"6+","altim":1020,"clouds":[],"obsTime":1774782900},"SBPS":{"icaoId":"SBPS","flightCategory":"VFR","rawOb":"METAR SBPS 291100Z 25005KT 9999 SCT006 SCT020 BKN070 24/24 Q1016","temp":24,"dewp":24,"wdir":250,"wspd":5,"visib":"6+","altim":1016,"clouds":[{"cover":"SCT","base":600},{"cover":"SCT","base":2000},{"cover":"BKN","base":7000}],"obsTime":1774782000},"SBSJ":{"icaoId":"SBSJ","flightCategory":"MVFR","rawOb":"METAR SBSJ 291100Z 06002KT 5000 BR BKN012 21/19 Q1022","temp":21,"dewp":19,"wdir":60,"wspd":2,"visib":3.11,"altim":1022,"clouds":[{"cover":"BKN","base":1200}],"obsTime":1774782000},"SBSM":{"icaoId":"SBSM","flightCategory":"LIFR","rawOb":"METAR SBSM 291100Z 00000KT 0150 R29///// R11/0300 FG VV001 24/24 Q1017","temp":24,"dewp":24,"wdir":0,"wspd":0,"visib":0.09,"altim":1017,"clouds":[{"cover":"OVX","base":100}],"obsTime":1774782000},"SBSR":{"icaoId":"SBSR","flightCategory":"VFR","rawOb":"METAR SBSR 291100Z 08005KT CAVOK 24/16 Q1019","temp":24,"dewp":16,"wdir":80,"wspd":5,"visib":"6+","altim":1019,"clouds":[],"obsTime":1774782000},"SBTF":{"icaoId":"SBTF","flightCategory":"IFR","rawOb":"SPECI SBTF 291115Z 20004KT 9999 BKN007 OVC008 25/25 Q1012","temp":25,"dewp":25,"wdir":200,"wspd":4,"visib":"6+","altim":1012,"clouds":[{"cover":"BKN","base":700},{"cover":"OVC","base":800}],"obsTime":1774782900},"SBTT":{"icaoId":"SBTT","flightCategory":"VFR","rawOb":"METAR SBTT 291100Z 15002KT CAVOK 23/21 Q1012","temp":23,"dewp":21,"wdir":150,"wspd":2,"visib":"6+","altim":1012,"clouds":[],"obsTime":1774782000},"SBUY":{"icaoId":"SBUY","flightCategory":"MVFR","rawOb":"METAR SBUY 291100Z 00000KT 6000 SCT002 BKN090 23/23 Q1011","temp":23,"dewp":23,"wdir":0,"wspd":0,"visib":3.73,"altim":1011,"clouds":[{"cover":"SCT","base":200},{"cover":"BKN","base":9000}],"obsTime":1774782000},"SBVH":{"icaoId":"SBVH","flightCategory":"VFR","rawOb":"METAR SBVH 291100Z 14004KT CAVOK 22/21 Q1016","temp":22,"dewp":21,"wdir":140,"wspd":4,"visib":"6+","altim":1016,"clouds":[],"obsTime":1774782000},"SBIH":{"icaoId":"SBIH","flightCategory":"VFR","rawOb":"METAR SBIH 291100Z 00000KT 9999 SCT008 SCT080 24/24 Q1012","temp":24,"dewp":24,"wdir":0,"wspd":0,"visib":"6+","altim":1012,"clouds":[{"cover":"SCT","base":800},{"cover":"SCT","base":8000}],"obsTime":1774782000},"SBJP":{"icaoId":"SBJP","flightCategory":"VFR","rawOb":"METAR SBJP 291100Z 17005KT 140V200 9999 FEW027 28/24 Q1012","temp":28,"dewp":24,"wdir":170,"wspd":5,"visib":"6+","altim":1012,"clouds":[{"cover":"FEW","base":2700}],"obsTime":1774782000},"SBLE":{"icaoId":"SBLE","flightCategory":"MVFR","rawOb":"METAR SBLE 291100Z AUTO 15006KT 110V190 9999 BKN012 BKN019 OVC039 23/23 Q1018","temp":23,"dewp":23,"wdir":150,"wspd":6,"visib":"6+","altim":1018,"clouds":[{"cover":"BKN","base":1200},{"cover":"BKN","base":1900},{"cover":"OVC","base":3900}],"obsTime":1774782000},"SBTC":{"icaoId":"SBTC","flightCategory":"VFR","rawOb":"METAR SBTC 291100Z 24007KT 9999 VCSH SCT020 BKN060 24/23 Q1016","temp":24,"dewp":23,"wdir":240,"wspd":7,"visib":"6+","altim":1016,"clouds":[{"cover":"SCT","base":2000},{"cover":"BKN","base":6000}],"obsTime":1774782000},"SBJV":{"icaoId":"SBJV","flightCategory":"VFR","rawOb":"METAR SBJV 291100Z 34002KT 9999 FEW005 22/22 Q1019","temp":22,"dewp":22,"wdir":340,"wspd":2,"visib":"6+","altim":1019,"clouds":[{"cover":"FEW","base":500}],"obsTime":1774782000},"SBNM":{"icaoId":"SBNM","flightCategory":"VFR","rawOb":"METAR SBNM 291200Z 08002KT CAVOK 27/23 Q1019","temp":27,"dewp":23,"wdir":80,"wspd":2,"visib":"6+","altim":1019,"clouds":[],"obsTime":1774785600},"SBPF":{"icaoId":"SBPF","flightCategory":"VFR","rawOb":"METAR SBPF 291100Z 06010KT CAVOK 22/18 Q1021","temp":22,"dewp":18,"wdir":60,"wspd":10,"visib":"6+","altim":1021,"clouds":[],"obsTime":1774782000},"SBAF":{"icaoId":"SBAF","flightCategory":"VFR","rawOb":"METAR SBAF 291100Z 36003KT 9999 FEW010 26/24 Q1018","temp":26,"dewp":24,"wdir":360,"wspd":3,"visib":"6+","altim":1018,"clouds":[{"cover":"FEW","base":1000}],"obsTime":1774782000},"SBGW":{"icaoId":"SBGW","flightCategory":"MVFR","rawOb":"METAR SBGW 291100Z 08003KT 030V160 5000 HZ SCT015 22/16 Q1021","temp":22,"dewp":16,"wdir":80,"wspd":3,"visib":3.11,"altim":1021,"clouds":[{"cover":"SCT","base":1500}],"obsTime":1774782000},"SBJR":{"icaoId":"SBJR","flightCategory":"VFR","rawOb":"METAR SBJR 291100Z 06002KT CAVOK 28/22 Q1018","temp":28,"dewp":22,"wdir":60,"wspd":2,"visib":"6+","altim":1018,"clouds":[],"obsTime":1774782000},"SBLS":{"icaoId":"SBLS","flightCategory":"VFR","rawOb":"METAR SBLS 291100Z 15009KT 9999 FEW015 21/18 Q1022","temp":21,"dewp":18,"wdir":150,"wspd":9,"visib":"6+","altim":1022,"clouds":[{"cover":"FEW","base":1500}],"obsTime":1774782000},"SBMT":{"icaoId":"SBMT","flightCategory":"VFR","rawOb":"METAR SBMT 291100Z 09008KT 050V120 9999 SCT013 21/18 Q1022","temp":21,"dewp":18,"wdir":90,"wspd":8,"visib":"6+","altim":1022,"clouds":[{"cover":"SCT","base":1300}],"obsTime":1774782000},"SBST":{"icaoId":"SBST","flightCategory":"VFR","rawOb":"METAR SBST 291100Z 10001KT CAVOK 23/22 Q1018","temp":23,"dewp":22,"wdir":100,"wspd":1,"visib":"6+","altim":1018,"clouds":[],"obsTime":1774782000},"SBTA":{"icaoId":"SBTA","flightCategory":"VFR","rawOb":"METAR SBTA 291100Z VRB01KT 9999 SCT015 21/20 Q1021","temp":21,"dewp":20,"wdir":"VRB","wspd":1,"visib":"6+","altim":1021,"clouds":[{"cover":"SCT","base":1500}],"obsTime":1774782000},"SBAN":{"icaoId":"SBAN","flightCategory":"VFR","rawOb":"METAR SBAN 291100Z 13014KT CAVOK 20/17 Q1022","temp":20,"dewp":17,"wdir":130,"wspd":14,"visib":"6+","altim":1022,"clouds":[],"obsTime":1774782000}}}