{"updated":1776192057,"count":85,"data":{"SBTE":{"icaoId":"SBTE","flightCategory":"VFR","rawOb":"METAR SBTE 141700Z 03008KT 9999 VCSH SCT020 FEW025TCU BKN090 28/23 Q1006","temp":28,"dewp":23,"wdir":30,"wspd":8,"visib":"6+","altim":1006,"clouds":[{"cover":"SCT","base":2000},{"cover":"FEW","base":2500},{"cover":"BKN","base":9000}],"obsTime":1776186000},"SBSN":{"icaoId":"SBSN","flightCategory":"VFR","rawOb":"METAR SBSN 141700Z 08005KT 9999 FEW017 SCT100 30/25 Q1009","temp":30,"dewp":25,"wdir":80,"wspd":5,"visib":"6+","altim":1009,"clouds":[{"cover":"FEW","base":1700},{"cover":"SCT","base":10000}],"obsTime":1776186000},"SBFI":{"icaoId":"SBFI","flightCategory":"VFR","rawOb":"METAR SBFI 141700Z 03011KT 9999 SCT030 30/22 Q1011","temp":30,"dewp":22,"wdir":30,"wspd":11,"visib":"6+","altim":1011,"clouds":[{"cover":"SCT","base":3000}],"obsTime":1776186000},"SBMG":{"icaoId":"SBMG","flightCategory":"VFR","rawOb":"METAR SBMG 141700Z 06007KT 350V100 9999 BKN046 29/19 Q1013","temp":29,"dewp":19,"wdir":60,"wspd":7,"visib":"6+","altim":1013,"clouds":[{"cover":"BKN","base":4600}],"obsTime":1776186000},"SBBE":{"icaoId":"SBBE","flightCategory":"MVFR","rawOb":"METAR SBBE 141700Z 33009KT 9999 4000SW -TSRA BKN015 BKN020 FEW025CB 24/24 Q1008","temp":24,"dewp":24,"wdir":330,"wspd":9,"visib":"6+","altim":1008,"clouds":[{"cover":"BKN","base":1500},{"cover":"BKN","base":2000},{"cover":"FEW","base":2500}],"obsTime":1776186000},"SBMK":{"icaoId":"SBMK","flightCategory":"VFR","rawOb":"METAR SBMK 141700Z 06007KT 9999 BKN034 28/18 Q1014","temp":28,"dewp":18,"wdir":60,"wspd":7,"visib":"6+","altim":1014,"clouds":[{"cover":"BKN","base":3400}],"obsTime":1776186000},"SBFL":{"icaoId":"SBFL","flightCategory":"MVFR","rawOb":"METAR SBFL 141700Z 33008KT 9999 BKN030 27/21 Q1015","temp":27,"dewp":21,"wdir":330,"wspd":8,"visib":"6+","altim":1015,"clouds":[{"cover":"BKN","base":3000}],"obsTime":1776186000},"SBMO":{"icaoId":"SBMO","flightCategory":"MVFR","rawOb":"METAR SBMO 141700Z 11009KT 9999 VCSH BKN025 BKN060 30/24 Q1009","temp":30,"dewp":24,"wdir":110,"wspd":9,"visib":"6+","altim":1009,"clouds":[{"cover":"BKN","base":2500},{"cover":"BKN","base":6000}],"obsTime":1776186000},"SBBV":{"icaoId":"SBBV","flightCategory":"VFR","rawOb":"METAR SBBV 141700Z 10006KT 9999 SCT040 32/21 Q1010","temp":32,"dewp":21,"wdir":100,"wspd":6,"visib":"6+","altim":1010,"clouds":[{"cover":"SCT","base":4000}],"obsTime":1776186000},"SBMQ":{"icaoId":"SBMQ","flightCategory":"VFR","rawOb":"METAR SBMQ 141700Z 08004KT 9999 SCT033 FEW050TCU 32/25 Q1008","temp":32,"dewp":25,"wdir":80,"wspd":4,"visib":"6+","altim":1008,"clouds":[{"cover":"SCT","base":3300},{"cover":"FEW","base":5000}],"obsTime":1776186000},"SBNT":{"icaoId":"SBNT","flightCategory":"VFR","rawOb":"METAR SBNT 141700Z 11011KT 080V140 9999 VCSH SCT021 FEW026TCU BKN049 BKN060 27/24 Q1008","temp":27,"dewp":24,"wdir":110,"wspd":11,"visib":"6+","altim":1008,"clouds":[{"cover":"SCT","base":2100},{"cover":"FEW","base":2600},{"cover":"BKN","base":4900},{"cover":"BKN","base":6000}],"obsTime":1776186000},"SBFZ":{"icaoId":"SBFZ","flightCategory":"MVFR","rawOb":"METAR SBFZ 141700Z 12009KT 8000 -RA FEW008 BKN013 BKN080 26/24 Q1008","temp":26,"dewp":24,"wdir":120,"wspd":9,"visib":4.97,"altim":1008,"clouds":[{"cover":"FEW","base":800},{"cover":"BKN","base":1300},{"cover":"BKN","base":8000}],"obsTime":1776186000},"SBPA":{"icaoId":"SBPA","flightCategory":"VFR","rawOb":"METAR SBPA 141700Z VRB02KT CAVOK 29/20 Q1013","temp":29,"dewp":20,"wdir":"VRB","wspd":2,"visib":"6+","altim":1013,"clouds":[],"obsTime":1776186000},"SBCP":{"icaoId":"SBCP","flightCategory":"VFR","rawOb":"METAR SBCP 141700Z 25008KT 9999 SCT020 30/17 Q1013","temp":30,"dewp":17,"wdir":250,"wspd":8,"visib":"6+","altim":1013,"clouds":[{"cover":"SCT","base":2000}],"obsTime":1776186000},"SBPJ":{"icaoId":"SBPJ","flightCategory":"VFR","rawOb":"METAR SBPJ 141700Z 28005KT 9999 BKN035 33/24 Q1009","temp":33,"dewp":24,"wdir":280,"wspd":5,"visib":"6+","altim":1009,"clouds":[{"cover":"BKN","base":3500}],"obsTime":1776186000},"SBGL":{"icaoId":"SBGL","flightCategory":"VFR","rawOb":"METAR SBGL 141700Z 13010KT 9999 SCT035 28/17 Q1013","temp":28,"dewp":17,"wdir":130,"wspd":10,"visib":"6+","altim":1013,"clouds":[{"cover":"SCT","base":3500}],"obsTime":1776186000},"SBAT":{"icaoId":"SBAT","flightCategory":"VFR","rawOb":"METAR SBAT 141700Z 30002KT 9999 VCSH FEW025 SCT030 FEW032TCU 33/24 Q1009","temp":33,"dewp":24,"wdir":300,"wspd":2,"visib":"6+","altim":1009,"clouds":[{"cover":"FEW","base":2500},{"cover":"SCT","base":3000},{"cover":"FEW","base":3200}],"obsTime":1776186000},"SBPV":{"icaoId":"SBPV","flightCategory":"MVFR","rawOb":"METAR SBPV 141700Z 02005KT 9999 BKN025 SCT100 30/26 Q1009","temp":30,"dewp":26,"wdir":20,"wspd":5,"visib":"6+","altim":1009,"clouds":[{"cover":"BKN","base":2500},{"cover":"SCT","base":10000}],"obsTime":1776186000},"SBRB":{"icaoId":"SBRB","flightCategory":"MVFR","rawOb":"METAR SBRB 141700Z 10003KT 070V140 6000 -RA FEW010 BKN030 FEW035TCU BKN080 25/25 Q1010 RERA","temp":25,"dewp":25,"wdir":100,"wspd":3,"visib":3.73,"altim":1010,"clouds":[{"cover":"FEW","base":1000},{"cover":"BKN","base":3000},{"cover":"FEW","base":3500},{"cover":"BKN","base":8000}],"obsTime":1776186000},"SBGO":{"icaoId":"SBGO","flightCategory":"VFR","rawOb":"METAR SBGO 141700Z 06004KT 010V100 CAVOK 30/17 Q1014","temp":30,"dewp":17,"wdir":60,"wspd":4,"visib":"6+","altim":1014,"clouds":[],"obsTime":1776186000},"SBCR":{"icaoId":"SBCR","flightCategory":"VFR","rawOb":"METAR SBCR 141700Z 34011KT 310V030 9999 SCT035 33/23 Q1008","temp":33,"dewp":23,"wdir":340,"wspd":11,"visib":"6+","altim":1008,"clouds":[{"cover":"SCT","base":3500}],"obsTime":1776186000},"SBRF":{"icaoId":"SBRF","flightCategory":"MVFR","rawOb":"METAR SBRF 141700Z 14013KT 9999 BKN020 FEW025TCU 29/24 Q1008","temp":29,"dewp":24,"wdir":140,"wspd":13,"visib":"6+","altim":1008,"clouds":[{"cover":"BKN","base":2000},{"cover":"FEW","base":2500}],"obsTime":1776186000},"SBGR":{"icaoId":"SBGR","flightCategory":"VFR","rawOb":"METAR SBGR 141700Z 10005KT 9999 SCT045 25/14 Q1017","temp":25,"dewp":14,"wdir":100,"wspd":5,"visib":"6+","altim":1017,"clouds":[{"cover":"SCT","base":4500}],"obsTime":1776186000},"SBSG":{"icaoId":"SBSG","flightCategory":"MVFR","rawOb":"METAR SBSG 141700Z 11008KT 090V150 9999 VCSH BKN023 FEW025TCU 28/25 Q1008","temp":28,"dewp":25,"wdir":110,"wspd":8,"visib":"6+","altim":1008,"clouds":[{"cover":"BKN","base":2300},{"cover":"FEW","base":2500}],"obsTime":1776186000},"SBCB":{"icaoId":"SBCB","flightCategory":"VFR","rawOb":"METAR SBCB 141700Z 20011KT CAVOK 26/20 Q1014","temp":26,"dewp":20,"wdir":200,"wspd":11,"visib":"6+","altim":1014,"clouds":[],"obsTime":1776186000},"SBSL":{"icaoId":"SBSL","flightCategory":"MVFR","rawOb":"METAR SBSL 141700Z 04011KT 9999 VCSH BKN020 FEW025TCU 29/25 Q1007","temp":29,"dewp":25,"wdir":40,"wspd":11,"visib":"6+","altim":1007,"clouds":[{"cover":"BKN","base":2000},{"cover":"FEW","base":2500}],"obsTime":1776186000},"SBHT":{"icaoId":"SBHT","flightCategory":"MVFR","rawOb":"METAR SBHT 141700Z 07005KT 9999 BKN030 32/23 Q1009","temp":32,"dewp":23,"wdir":70,"wspd":5,"visib":"6+","altim":1009,"clouds":[{"cover":"BKN","base":3000}],"obsTime":1776186000},"SBCT":{"icaoId":"SBCT","flightCategory":"VFR","rawOb":"METAR SBCT 141700Z 11008KT 070V150 9999 SCT033 22/14 Q1019","temp":22,"dewp":14,"wdir":110,"wspd":8,"visib":"6+","altim":1019,"clouds":[{"cover":"SCT","base":3300}],"obsTime":1776186000},"SBSP":{"icaoId":"SBSP","flightCategory":"VFR","rawOb":"METAR SBSP 141700Z 21010KT 170V240 9999 SCT043 25/16 Q1018","temp":25,"dewp":16,"wdir":210,"wspd":10,"visib":"6+","altim":1018,"clouds":[{"cover":"SCT","base":4300}],"obsTime":1776186000},"SBIL":{"icaoId":"SBIL","flightCategory":"VFR","rawOb":"METAR SBIL 141700Z 17008KT 140V210 9999 FEW023 30/23 Q1011","temp":30,"dewp":23,"wdir":170,"wspd":8,"visib":"6+","altim":1011,"clouds":[{"cover":"FEW","base":2300}],"obsTime":1776186000},"SBSV":{"icaoId":"SBSV","flightCategory":"VFR","rawOb":"METAR SBSV 141700Z 15011KT 9999 VCSH SCT023 FEW025TCU BKN070 30/23 Q1010","temp":30,"dewp":23,"wdir":150,"wspd":11,"visib":"6+","altim":1010,"clouds":[{"cover":"SCT","base":2300},{"cover":"FEW","base":2500},{"cover":"BKN","base":7000}],"obsTime":1776186000},"SBCZ":{"icaoId":"SBCZ","flightCategory":"VFR","rawOb":"METAR SBCZ 141700Z 33003KT 9999 SCT025 32/22 Q1010","temp":32,"dewp":22,"wdir":330,"wspd":3,"visib":"6+","altim":1010,"clouds":[{"cover":"SCT","base":2500}],"obsTime":1776186000},"SBJU":{"icaoId":"SBJU","flightCategory":"MVFR","rawOb":"METAR SBJU 141700Z 17008KT 9999 BKN020 29/22 Q1010","temp":29,"dewp":22,"wdir":170,"wspd":8,"visib":"6+","altim":1010,"clouds":[{"cover":"BKN","base":2000}],"obsTime":1776186000},"SBUL":{"icaoId":"SBUL","flightCategory":"VFR","rawOb":"METAR SBUL 141700Z 06006KT 9999 BKN040 27/16 Q1016","temp":27,"dewp":16,"wdir":60,"wspd":6,"visib":"6+","altim":1016,"clouds":[{"cover":"BKN","base":4000}],"obsTime":1776186000},"SBCF":{"icaoId":"SBCF","flightCategory":"VFR","rawOb":"METAR SBCF 141700Z 06006KT 020V120 9999 SCT040 26/15 Q1016","temp":26,"dewp":15,"wdir":60,"wspd":6,"visib":"6+","altim":1016,"clouds":[{"cover":"SCT","base":4000}],"obsTime":1776186000},"SBUR":{"icaoId":"SBUR","flightCategory":"VFR","rawOb":"METAR SBUR 141700Z 24002KT 9999 BKN048 28/15 Q1015","temp":28,"dewp":15,"wdir":240,"wspd":2,"visib":"6+","altim":1015,"clouds":[{"cover":"BKN","base":4800}],"obsTime":1776186000},"SBKP":{"icaoId":"SBKP","flightCategory":"VFR","rawOb":"METAR SBKP 141700Z 18006KT 9999 SCT040 28/14 Q1016","temp":28,"dewp":14,"wdir":180,"wspd":6,"visib":"6+","altim":1016,"clouds":[{"cover":"SCT","base":4000}],"obsTime":1776186000},"SBVT":{"icaoId":"SBVT","flightCategory":"VFR","rawOb":"METAR SBVT 141700Z 16013KT 9999 FEW040 28/21 Q1012","temp":28,"dewp":21,"wdir":160,"wspd":13,"visib":"6+","altim":1012,"clouds":[{"cover":"FEW","base":4000}],"obsTime":1776186000},"SBEG":{"icaoId":"SBEG","flightCategory":"VFR","rawOb":"METAR SBEG 141700Z 17002KT 9999 SCT015 BKN046 25/24 Q1011","temp":25,"dewp":24,"wdir":170,"wspd":2,"visib":"6+","altim":1011,"clouds":[{"cover":"SCT","base":1500},{"cover":"BKN","base":4600}],"obsTime":1776186000},"SBLO":{"icaoId":"SBLO","flightCategory":"VFR","rawOb":"METAR SBLO 141700Z 11009KT 9999 SCT041 28/18 Q1014","temp":28,"dewp":18,"wdir":110,"wspd":9,"visib":"6+","altim":1014,"clouds":[{"cover":"SCT","base":4100}],"obsTime":1776186000},"SBBR":{"icaoId":"SBBR","flightCategory":"VFR","rawOb":"METAR SBBR 141700Z 09007KT 040V140 9999 SCT035 FEW040TCU 27/16 Q1016","temp":27,"dewp":16,"wdir":90,"wspd":7,"visib":"6+","altim":1016,"clouds":[{"cover":"SCT","base":3500},{"cover":"FEW","base":4000}],"obsTime":1776186000},"SBMA":{"icaoId":"SBMA","flightCategory":"MVFR","rawOb":"METAR SBMA 141700Z 08004KT 9999 BKN025 FEW030TCU 32/24 Q1008","temp":32,"dewp":24,"wdir":80,"wspd":4,"visib":"6+","altim":1008,"clouds":[{"cover":"BKN","base":2500},{"cover":"FEW","base":3000}],"obsTime":1776186000},"SBCG":{"icaoId":"SBCG","flightCategory":"VFR","rawOb":"METAR SBCG 141700Z 01005KT 310V090 9999 FEW040 31/19 Q1012","temp":31,"dewp":19,"wdir":10,"wspd":5,"visib":"6+","altim":1012,"clouds":[{"cover":"FEW","base":4000}],"obsTime":1776186000},"SBME":{"icaoId":"SBME","flightCategory":"VFR","rawOb":"METAR SBME 141700Z 17008KT 9999 FEW030 28/20 Q1013","temp":28,"dewp":20,"wdir":170,"wspd":8,"visib":"6+","altim":1013,"clouds":[{"cover":"FEW","base":3000}],"obsTime":1776186000},"SBCJ":{"icaoId":"SBCJ","flightCategory":"MVFR","rawOb":"METAR SBCJ 141700Z 13007KT 9999 BKN019 28/23 Q1012","temp":28,"dewp":23,"wdir":130,"wspd":7,"visib":"6+","altim":1012,"clouds":[{"cover":"BKN","base":1900}],"obsTime":1776186000},"SBAX":{"icaoId":"SBAX","flightCategory":"VFR","rawOb":"METAR SBAX 141800Z 08004KT 9999 SCT025 27/12 Q1015","temp":27,"dewp":12,"wdir":80,"wspd":4,"visib":"6+","altim":1015,"clouds":[{"cover":"SCT","base":2500}],"obsTime":1776189600},"SBBH":{"icaoId":"SBBH","flightCategory":"VFR","rawOb":"METAR SBBH 141700Z 12006KT 9999 SCT035 FEW040TCU 26/15 Q1016","temp":26,"dewp":15,"wdir":120,"wspd":6,"visib":"6+","altim":1016,"clouds":[{"cover":"SCT","base":3500},{"cover":"FEW","base":4000}],"obsTime":1776186000},"SBBQ":{"icaoId":"SBBQ","flightCategory":"VFR","rawOb":"METAR SBBQ 141700Z 17005KT 9999 BKN040 23/13 Q1019","temp":23,"dewp":13,"wdir":170,"wspd":5,"visib":"6+","altim":1019,"clouds":[{"cover":"BKN","base":4000}],"obsTime":1776186000},"SBBU":{"icaoId":"SBBU","flightCategory":"VFR","rawOb":"METAR SBBU 141700Z 11009KT 9999 FEW030 29/18 Q1015","temp":29,"dewp":18,"wdir":110,"wspd":9,"visib":"6+","altim":1015,"clouds":[{"cover":"FEW","base":3000}],"obsTime":1776186000},"SBCA":{"icaoId":"SBCA","flightCategory":"MVFR","rawOb":"METAR SBCA 141700Z 04011KT 360V080 9999 BKN025 BKN070 25/19 Q1015","temp":25,"dewp":19,"wdir":40,"wspd":11,"visib":"6+","altim":1015,"clouds":[{"cover":"BKN","base":2500},{"cover":"BKN","base":7000}],"obsTime":1776186000},"SBCC":{"icaoId":"SBCC","flightCategory":"MVFR","rawOb":"METAR SBCC 141700Z 05001KT 9999 VCSH BKN025 FEW030TCU BKN100 27/22 Q1011","temp":27,"dewp":22,"wdir":50,"wspd":1,"visib":"6+","altim":1011,"clouds":[{"cover":"BKN","base":2500},{"cover":"FEW","base":3000},{"cover":"BKN","base":10000}],"obsTime":1776186000},"SBAR":{"icaoId":"SBAR","flightCategory":"VFR","rawOb":"METAR SBAR 141700Z COR 14010KT 9999 VCSH FEW018 FEW020TCU SCT100 28/24 Q1009","temp":28,"dewp":24,"wdir":140,"wspd":10,"visib":"6+","altim":1009,"clouds":[{"cover":"FEW","base":1800},{"cover":"FEW","base":2000},{"cover":"SCT","base":10000}],"obsTime":1776186000},"SBCO":{"icaoId":"SBCO","flightCategory":"VFR","rawOb":"METAR SBCO 141700Z VRB02KT 9999 FEW040 29/19 Q1013","temp":29,"dewp":19,"wdir":"VRB","wspd":2,"visib":"6+","altim":1013,"clouds":[{"cover":"FEW","base":4000}],"obsTime":1776186000},"SBDN":{"icaoId":"SBDN","flightCategory":"VFR","rawOb":"METAR SBDN 141700Z 08008KT 9999 SCT049 30/17 Q1012","temp":30,"dewp":17,"wdir":80,"wspd":8,"visib":"6+","altim":1012,"clouds":[{"cover":"SCT","base":4900}],"obsTime":1776186000},"SBES":{"icaoId":"SBES","flightCategory":"VFR","rawOb":"METAR SBES 141700Z 20008KT 130V260 9999 FEW025 27/// Q1014","temp":null,"dewp":null,"wdir":200,"wspd":8,"visib":"6+","altim":1014,"clouds":[{"cover":"FEW","base":2500}],"obsTime":1776186000},"SBGM":{"icaoId":"SBGM","flightCategory":"MVFR","rawOb":"METAR SBGM 141700Z VRB05KT 9999 BKN013 OVC050 29/22 Q1009","temp":29,"dewp":22,"wdir":"VRB","wspd":5,"visib":"6+","altim":1009,"clouds":[{"cover":"BKN","base":1300},{"cover":"OVC","base":5000}],"obsTime":1776186000},"SBIP":{"icaoId":"SBIP","flightCategory":"VFR","rawOb":"METAR SBIP 141700Z AUTO 10003KT 070V160 9999 FEW045 28/17 Q1013","temp":28,"dewp":17,"wdir":100,"wspd":3,"visib":"6+","altim":1013,"clouds":[{"cover":"FEW","base":4500}],"obsTime":1776186000},"SBKG":{"icaoId":"SBKG","flightCategory":"MVFR","rawOb":"METAR SBKG 141700Z 11013KT 9999 BKN010 26/23 Q1011","temp":26,"dewp":23,"wdir":110,"wspd":13,"visib":"6+","altim":1011,"clouds":[{"cover":"BKN","base":1000}],"obsTime":1776186000},"SBOI":{"icaoId":"SBOI","flightCategory":"MVFR","rawOb":"METAR SBOI 141700Z AUTO 17004KT 140V220 9999 -RA FEW007 BKN015 OVC029 26/25 Q1009","temp":26,"dewp":25,"wdir":170,"wspd":4,"visib":"6+","altim":1009,"clouds":[{"cover":"FEW","base":700},{"cover":"BKN","base":1500},{"cover":"OVC","base":2900}],"obsTime":1776186000},"SBPB":{"icaoId":"SBPB","flightCategory":"MVFR","rawOb":"METAR SBPB 141700Z 04011KT 9999 BKN015 OVC070 27/25 Q1008","temp":27,"dewp":25,"wdir":40,"wspd":11,"visib":"6+","altim":1008,"clouds":[{"cover":"BKN","base":1500},{"cover":"OVC","base":7000}],"obsTime":1776186000},"SBPL":{"icaoId":"SBPL","flightCategory":"MVFR","rawOb":"METAR SBPL 141700Z 15009KT 9999 BKN030 32/21 Q1010","temp":32,"dewp":21,"wdir":150,"wspd":9,"visib":"6+","altim":1010,"clouds":[{"cover":"BKN","base":3000}],"obsTime":1776186000},"SBPP":{"icaoId":"SBPP","flightCategory":"VFR","rawOb":"METAR SBPP 141700Z 04013KT CAVOK 28/21 Q1012","temp":28,"dewp":21,"wdir":40,"wspd":13,"visib":"6+","altim":1012,"clouds":[],"obsTime":1776186000},"SBPS":{"icaoId":"SBPS","flightCategory":"VFR","rawOb":"METAR SBPS 141700Z 14005KT 090V210 9999 FEW025 28/22 Q1012","temp":28,"dewp":22,"wdir":140,"wspd":5,"visib":"6+","altim":1012,"clouds":[{"cover":"FEW","base":2500}],"obsTime":1776186000},"SBSC":{"icaoId":"SBSC","flightCategory":"VFR","rawOb":"METAR SBSC 141700Z 20008KT CAVOK 27/20 Q1014","temp":27,"dewp":20,"wdir":200,"wspd":8,"visib":"6+","altim":1014,"clouds":[],"obsTime":1776186000},"SBSJ":{"icaoId":"SBSJ","flightCategory":"VFR","rawOb":"METAR SBSJ 141700Z VRB06KT 9999 SCT035 26/15 Q1016","temp":26,"dewp":15,"wdir":"VRB","wspd":6,"visib":"6+","altim":1016,"clouds":[{"cover":"SCT","base":3500}],"obsTime":1776186000},"SBSM":{"icaoId":"SBSM","flightCategory":"VFR","rawOb":"METAR SBSM 141700Z 11008KT 9999 FEW020 27/21 Q1012","temp":27,"dewp":21,"wdir":110,"wspd":8,"visib":"6+","altim":1012,"clouds":[{"cover":"FEW","base":2000}],"obsTime":1776186000},"SBSR":{"icaoId":"SBSR","flightCategory":"VFR","rawOb":"METAR SBSR 141700Z 10007KT 040V190 9999 SCT035 29/14 Q1013","temp":29,"dewp":14,"wdir":100,"wspd":7,"visib":"6+","altim":1013,"clouds":[{"cover":"SCT","base":3500}],"obsTime":1776186000},"SBTF":{"icaoId":"SBTF","flightCategory":"VFR","rawOb":"METAR SBTF 141700Z 09005KT 9999 SCT013 29/25 Q1010","temp":29,"dewp":25,"wdir":90,"wspd":5,"visib":"6+","altim":1010,"clouds":[{"cover":"SCT","base":1300}],"obsTime":1776186000},"SBTT":{"icaoId":"SBTT","flightCategory":"VFR","rawOb":"METAR SBTT 141700Z 26005KT 210V290 9999 FEW040 31/21 Q1009","temp":31,"dewp":21,"wdir":260,"wspd":5,"visib":"6+","altim":1009,"clouds":[{"cover":"FEW","base":4000}],"obsTime":1776186000},"SBUY":{"icaoId":"SBUY","flightCategory":"VFR","rawOb":"METAR SBUY 141700Z 09007KT 9999 SCT025 FEW030TCU 31/22 Q1008","temp":31,"dewp":22,"wdir":90,"wspd":7,"visib":"6+","altim":1008,"clouds":[{"cover":"SCT","base":2500},{"cover":"FEW","base":3000}],"obsTime":1776186000},"SBVH":{"icaoId":"SBVH","flightCategory":"VFR","rawOb":"METAR SBVH 141700Z 34009KT 9999 SCT030 FEW035TCU BKN100 27/22 Q1012","temp":27,"dewp":22,"wdir":340,"wspd":9,"visib":"6+","altim":1012,"clouds":[{"cover":"SCT","base":3000},{"cover":"FEW","base":3500},{"cover":"BKN","base":10000}],"obsTime":1776186000},"SBAU":{"icaoId":"SBAU","flightCategory":"VFR","rawOb":"METAR SBAU 141700Z 06008KT CAVOK 32/17 Q1012","temp":32,"dewp":17,"wdir":60,"wspd":8,"visib":"6+","altim":1012,"clouds":[],"obsTime":1776186000},"SBJP":{"icaoId":"SBJP","flightCategory":"MVFR","rawOb":"METAR SBJP 141700Z 10013KT 030V160 9999 BKN024 SCT070 30/24 Q1009","temp":30,"dewp":24,"wdir":100,"wspd":13,"visib":"6+","altim":1009,"clouds":[{"cover":"BKN","base":2400},{"cover":"SCT","base":7000}],"obsTime":1776186000},"SBIH":{"icaoId":"SBIH","flightCategory":"VFR","rawOb":"METAR SBIH 141700Z 07003KT 9999 SCT020 FEW025TCU 30/24 Q1009","temp":30,"dewp":24,"wdir":70,"wspd":3,"visib":"6+","altim":1009,"clouds":[{"cover":"SCT","base":2000},{"cover":"FEW","base":2500}],"obsTime":1776186000},"SBAN":{"icaoId":"SBAN","flightCategory":"VFR","rawOb":"METAR SBAN 141700Z 11005KT 9999 BKN035 FEW040TCU 28/15 Q1016","temp":28,"dewp":15,"wdir":110,"wspd":5,"visib":"6+","altim":1016,"clouds":[{"cover":"BKN","base":3500},{"cover":"FEW","base":4000}],"obsTime":1776186000},"SBJV":{"icaoId":"SBJV","flightCategory":"VFR","rawOb":"METAR SBJV 141700Z 07007KT 020V100 9999 SCT030 29/20 Q1015","temp":29,"dewp":20,"wdir":70,"wspd":7,"visib":"6+","altim":1015,"clouds":[{"cover":"SCT","base":3000}],"obsTime":1776186000},"SBNM":{"icaoId":"SBNM","flightCategory":"VFR","rawOb":"METAR SBNM 141700Z 06010KT 9999 SCT020 BKN100 31/23 Q1011","temp":31,"dewp":23,"wdir":60,"wspd":10,"visib":"6+","altim":1011,"clouds":[{"cover":"SCT","base":2000},{"cover":"BKN","base":10000}],"obsTime":1776186000},"SBLE":{"icaoId":"SBLE","flightCategory":"VFR","rawOb":"METAR SBLE 141700Z AUTO VRB05KT CAVOK 27/18 Q1013","temp":27,"dewp":18,"wdir":"VRB","wspd":5,"visib":"6+","altim":1013,"clouds":[],"obsTime":1776186000},"SBAF":{"icaoId":"SBAF","flightCategory":"VFR","rawOb":"METAR SBAF 141700Z 19010KT 9999 FEW030 28/18 Q1013","temp":28,"dewp":18,"wdir":190,"wspd":10,"visib":"6+","altim":1013,"clouds":[{"cover":"FEW","base":3000}],"obsTime":1776186000},"SBGW":{"icaoId":"SBGW","flightCategory":"VFR","rawOb":"METAR SBGW 141700Z 08003KT 9999 FEW035 27/14 Q1016","temp":27,"dewp":14,"wdir":80,"wspd":3,"visib":"6+","altim":1016,"clouds":[{"cover":"FEW","base":3500}],"obsTime":1776186000},"SBJR":{"icaoId":"SBJR","flightCategory":"VFR","rawOb":"METAR SBJR 141700Z 17007KT 9999 FEW025 28/20 Q1014","temp":28,"dewp":20,"wdir":170,"wspd":7,"visib":"6+","altim":1014,"clouds":[{"cover":"FEW","base":2500}],"obsTime":1776186000},"SBLS":{"icaoId":"SBLS","flightCategory":"VFR","rawOb":"METAR SBLS 141700Z VRB03KT 9999 SCT040 27/15 Q1016","temp":27,"dewp":15,"wdir":"VRB","wspd":3,"visib":"6+","altim":1016,"clouds":[{"cover":"SCT","base":4000}],"obsTime":1776186000},"SBMT":{"icaoId":"SBMT","flightCategory":"VFR","rawOb":"METAR SBMT 141700Z 10006KT 050V150 9999 SCT040 24/13 Q1017","temp":24,"dewp":13,"wdir":100,"wspd":6,"visib":"6+","altim":1017,"clouds":[{"cover":"SCT","base":4000}],"obsTime":1776186000},"SBST":{"icaoId":"SBST","flightCategory":"VFR","rawOb":"METAR SBST 141700Z 18007KT 9999 FEW045 27/19 Q1014","temp":27,"dewp":19,"wdir":180,"wspd":7,"visib":"6+","altim":1014,"clouds":[{"cover":"FEW","base":4500}],"obsTime":1776186000},"SBTA":{"icaoId":"SBTA","flightCategory":"VFR","rawOb":"METAR SBTA 141700Z VRB04KT 9999 SCT045 26/13 Q1015","temp":26,"dewp":13,"wdir":"VRB","wspd":4,"visib":"6+","altim":1015,"clouds":[{"cover":"SCT","base":4500}],"obsTime":1776186000}}}