{"updated":1777567949,"count":87,"data":{"SBBE":{"icaoId":"SBBE","flightCategory":"VFR","rawOb":"METAR SBBE 301500Z 02005KT 9999 VCSH SCT025 SCT090 29/25 Q1010","temp":29,"dewp":25,"wdir":20,"wspd":5,"visib":"6+","altim":1010,"clouds":[{"cover":"SCT","base":2500},{"cover":"SCT","base":9000}],"obsTime":1777561200},"SBCT":{"icaoId":"SBCT","flightCategory":"MVFR","rawOb":"METAR SBCT 301500Z 34003KT 300V040 9999 BKN013 OVC016 18/15 Q1020","temp":18,"dewp":15,"wdir":340,"wspd":3,"visib":"6+","altim":1020,"clouds":[{"cover":"BKN","base":1300},{"cover":"OVC","base":1600}],"obsTime":1777561200},"SBVT":{"icaoId":"SBVT","flightCategory":"VFR","rawOb":"METAR SBVT 301500Z 16010KT 9999 FEW030 28/23 Q1016","temp":28,"dewp":23,"wdir":160,"wspd":10,"visib":"6+","altim":1016,"clouds":[{"cover":"FEW","base":3000}],"obsTime":1777561200},"SBBR":{"icaoId":"SBBR","flightCategory":"VFR","rawOb":"METAR SBBR 301500Z 14011KT 9999 FEW035 25/13 Q1020","temp":25,"dewp":13,"wdir":140,"wspd":11,"visib":"6+","altim":1020,"clouds":[{"cover":"FEW","base":3500}],"obsTime":1777561200},"SBBV":{"icaoId":"SBBV","flightCategory":"IFR","rawOb":"METAR SBBV 301500Z 09011KT 9999 -RA BKN007 BKN030 FEW035TCU OVC100 26/25 Q1013","temp":26,"dewp":25,"wdir":90,"wspd":11,"visib":"6+","altim":1013,"clouds":[{"cover":"BKN","base":700},{"cover":"BKN","base":3000},{"cover":"FEW","base":3500},{"cover":"OVC","base":10000}],"obsTime":1777561200},"SBCB":{"icaoId":"SBCB","flightCategory":"VFR","rawOb":"METAR SBCB 301500Z 20010KT 9999 SCT020 27/22 Q1015","temp":27,"dewp":22,"wdir":200,"wspd":10,"visib":"6+","altim":1015,"clouds":[{"cover":"SCT","base":2000}],"obsTime":1777561200},"SBCF":{"icaoId":"SBCF","flightCategory":"VFR","rawOb":"METAR SBCF 301500Z 09005KT 9999 SCT035 27/15 Q1020","temp":27,"dewp":15,"wdir":90,"wspd":5,"visib":"6+","altim":1020,"clouds":[{"cover":"SCT","base":3500}],"obsTime":1777561200},"SBCG":{"icaoId":"SBCG","flightCategory":"VFR","rawOb":"METAR SBCG 301500Z 08012KT 9999 FEW015 28/21 Q1017","temp":28,"dewp":21,"wdir":80,"wspd":12,"visib":"6+","altim":1017,"clouds":[{"cover":"FEW","base":1500}],"obsTime":1777561200},"SBCP":{"icaoId":"SBCP","flightCategory":"VFR","rawOb":"METAR SBCP 301500Z 31005KT 9999 SCT020 31/22 Q1015","temp":31,"dewp":22,"wdir":310,"wspd":5,"visib":"6+","altim":1015,"clouds":[{"cover":"SCT","base":2000}],"obsTime":1777561200},"SBCR":{"icaoId":"SBCR","flightCategory":"VFR","rawOb":"METAR SBCR 301500Z 08009KT 050V120 9999 SCT030 32/24 Q1013","temp":32,"dewp":24,"wdir":80,"wspd":9,"visib":"6+","altim":1013,"clouds":[{"cover":"SCT","base":3000}],"obsTime":1777561200},"SBCZ":{"icaoId":"SBCZ","flightCategory":"VFR","rawOb":"METAR SBCZ 301500Z 32003KT 9999 -RA SCT010 OVC100 24/24 Q1013","temp":24,"dewp":24,"wdir":320,"wspd":3,"visib":"6+","altim":1013,"clouds":[{"cover":"SCT","base":1000},{"cover":"OVC","base":10000}],"obsTime":1777561200},"SBEG":{"icaoId":"SBEG","flightCategory":"MVFR","rawOb":"METAR SBEG 301500Z 26002KT 9999 BKN030 30/25 Q1012","temp":30,"dewp":25,"wdir":260,"wspd":2,"visib":"6+","altim":1012,"clouds":[{"cover":"BKN","base":3000}],"obsTime":1777561200},"SBFI":{"icaoId":"SBFI","flightCategory":"VFR","rawOb":"METAR SBFI 301500Z 10010KT 9999 SCT013 SCT015 23/20 Q1015","temp":23,"dewp":20,"wdir":100,"wspd":10,"visib":"6+","altim":1015,"clouds":[{"cover":"SCT","base":1300},{"cover":"SCT","base":1500}],"obsTime":1777561200},"SBFL":{"icaoId":"SBFL","flightCategory":"VFR","rawOb":"METAR SBFL 301500Z 16007KT 090V200 9999 FEW030 26/16 Q1017","temp":26,"dewp":16,"wdir":160,"wspd":7,"visib":"6+","altim":1017,"clouds":[{"cover":"FEW","base":3000}],"obsTime":1777561200},"SBFZ":{"icaoId":"SBFZ","flightCategory":"VFR","rawOb":"METAR SBFZ 301500Z 13009KT 9999 SCT030 30/22 Q1010","temp":30,"dewp":22,"wdir":130,"wspd":9,"visib":"6+","altim":1010,"clouds":[{"cover":"SCT","base":3000}],"obsTime":1777561200},"SBGL":{"icaoId":"SBGL","flightCategory":"VFR","rawOb":"METAR SBGL 301500Z 27006KT CAVOK 31/22 Q1014","temp":31,"dewp":22,"wdir":270,"wspd":6,"visib":"6+","altim":1014,"clouds":[],"obsTime":1777561200},"SBGO":{"icaoId":"SBGO","flightCategory":"VFR","rawOb":"METAR SBGO 301500Z 10016KT CAVOK 29/15 Q1018","temp":29,"dewp":15,"wdir":100,"wspd":16,"visib":"6+","altim":1018,"clouds":[],"obsTime":1777561200},"SBGR":{"icaoId":"SBGR","flightCategory":"VFR","rawOb":"METAR SBGR 301500Z 01003KT CAVOK 26/19 Q1019","temp":26,"dewp":19,"wdir":10,"wspd":3,"visib":"6+","altim":1019,"clouds":[],"obsTime":1777561200},"SBHT":{"icaoId":"SBHT","flightCategory":"MVFR","rawOb":"METAR SBHT 301500Z 10004KT 9999 BKN023 BKN100 29/26 Q1011","temp":29,"dewp":26,"wdir":100,"wspd":4,"visib":"6+","altim":1011,"clouds":[{"cover":"BKN","base":2300},{"cover":"BKN","base":10000}],"obsTime":1777561200},"SBIL":{"icaoId":"SBIL","flightCategory":"VFR","rawOb":"METAR SBIL 301500Z 18008KT 130V220 9999 VCSH SCT023 FEW025TCU SCT080 30/24 Q1016","temp":30,"dewp":24,"wdir":180,"wspd":8,"visib":"6+","altim":1016,"clouds":[{"cover":"SCT","base":2300},{"cover":"FEW","base":2500},{"cover":"SCT","base":8000}],"obsTime":1777561200},"SBJU":{"icaoId":"SBJU","flightCategory":"VFR","rawOb":"METAR SBJU 301500Z 18010KT 9999 SCT020 29/20 Q1014","temp":29,"dewp":20,"wdir":180,"wspd":10,"visib":"6+","altim":1014,"clouds":[{"cover":"SCT","base":2000}],"obsTime":1777561200},"SBKP":{"icaoId":"SBKP","flightCategory":"VFR","rawOb":"METAR SBKP 301500Z 02003KT CAVOK 27/19 Q1018","temp":27,"dewp":19,"wdir":20,"wspd":3,"visib":"6+","altim":1018,"clouds":[],"obsTime":1777561200},"SBLO":{"icaoId":"SBLO","flightCategory":"MVFR","rawOb":"METAR SBLO 301500Z 15004KT 090V230 9999 BKN017 24/20 Q1018","temp":24,"dewp":20,"wdir":150,"wspd":4,"visib":"6+","altim":1018,"clouds":[{"cover":"BKN","base":1700}],"obsTime":1777561200},"SBMA":{"icaoId":"SBMA","flightCategory":"MVFR","rawOb":"METAR SBMA 301500Z 34004KT 9999 BKN020 FEW023TCU 32/24 Q1010","temp":32,"dewp":24,"wdir":340,"wspd":4,"visib":"6+","altim":1010,"clouds":[{"cover":"BKN","base":2000},{"cover":"FEW","base":2300}],"obsTime":1777561200},"SBME":{"icaoId":"SBME","flightCategory":"VFR","rawOb":"METAR SBME 301500Z 13008KT 120V190 9999 FEW040 29/23 Q1014","temp":29,"dewp":23,"wdir":130,"wspd":8,"visib":"6+","altim":1014,"clouds":[{"cover":"FEW","base":4000}],"obsTime":1777561200},"SBMG":{"icaoId":"SBMG","flightCategory":"VFR","rawOb":"METAR SBMG 301500Z VRB04KT 9999 FEW020 24/21 Q1016","temp":24,"dewp":21,"wdir":"VRB","wspd":4,"visib":"6+","altim":1016,"clouds":[{"cover":"FEW","base":2000}],"obsTime":1777561200},"SBMK":{"icaoId":"SBMK","flightCategory":"VFR","rawOb":"METAR SBMK 301500Z 10010KT 9999 BKN045 27/15 Q1018","temp":27,"dewp":15,"wdir":100,"wspd":10,"visib":"6+","altim":1018,"clouds":[{"cover":"BKN","base":4500}],"obsTime":1777561200},"SBMO":{"icaoId":"SBMO","flightCategory":"VFR","rawOb":"METAR SBMO 301500Z 10011KT 070V130 9999 FEW027 SCT050 29/23 Q1012","temp":29,"dewp":23,"wdir":100,"wspd":11,"visib":"6+","altim":1012,"clouds":[{"cover":"FEW","base":2700},{"cover":"SCT","base":5000}],"obsTime":1777561200},"SBMQ":{"icaoId":"SBMQ","flightCategory":"MVFR","rawOb":"METAR SBMQ 301500Z 06006KT 360V100 9999 SCT014 BKN017 BKN100 30/26 Q1011","temp":30,"dewp":26,"wdir":60,"wspd":6,"visib":"6+","altim":1011,"clouds":[{"cover":"SCT","base":1400},{"cover":"BKN","base":1700},{"cover":"BKN","base":10000}],"obsTime":1777561200},"SBNT":{"icaoId":"SBNT","flightCategory":"VFR","rawOb":"METAR SBNT 301500Z 15015KT 9999 SCT032 FEW033TCU BKN044 BKN070 30/23 Q1011","temp":30,"dewp":23,"wdir":150,"wspd":15,"visib":"6+","altim":1011,"clouds":[{"cover":"SCT","base":3200},{"cover":"FEW","base":3300},{"cover":"BKN","base":4400},{"cover":"BKN","base":7000}],"obsTime":1777561200},"SBPA":{"icaoId":"SBPA","flightCategory":"VFR","rawOb":"METAR SBPA 301500Z 33003KT 250V050 CAVOK 22/13 Q1017","temp":22,"dewp":13,"wdir":330,"wspd":3,"visib":"6+","altim":1017,"clouds":[],"obsTime":1777561200},"SBPJ":{"icaoId":"SBPJ","flightCategory":"VFR","rawOb":"METAR SBPJ 301500Z 18006KT 120V240 9999 FEW030 33/22 Q1013","temp":33,"dewp":22,"wdir":180,"wspd":6,"visib":"6+","altim":1013,"clouds":[{"cover":"FEW","base":3000}],"obsTime":1777561200},"SBPV":{"icaoId":"SBPV","flightCategory":"MVFR","rawOb":"METAR SBPV 301500Z 12003KT 9999 BKN026 30/27 Q1011","temp":30,"dewp":27,"wdir":120,"wspd":3,"visib":"6+","altim":1011,"clouds":[{"cover":"BKN","base":2600}],"obsTime":1777561200},"SBRB":{"icaoId":"SBRB","flightCategory":"MVFR","rawOb":"METAR SBRB 301500Z 01003KT 340V070 9999 BKN019 30/25 Q1013","temp":30,"dewp":25,"wdir":10,"wspd":3,"visib":"6+","altim":1013,"clouds":[{"cover":"BKN","base":1900}],"obsTime":1777561200},"SBRF":{"icaoId":"SBRF","flightCategory":"VFR","rawOb":"METAR SBRF 301500Z 15010KT 9999 SCT023 FEW025TCU SCT060 30/24 Q1012","temp":30,"dewp":24,"wdir":150,"wspd":10,"visib":"6+","altim":1012,"clouds":[{"cover":"SCT","base":2300},{"cover":"FEW","base":2500},{"cover":"SCT","base":6000}],"obsTime":1777561200},"SBSG":{"icaoId":"SBSG","flightCategory":"MVFR","rawOb":"METAR SBSG 301500Z 14007KT 100V200 9999 VCSH BKN030 FEW033TCU 30/22 Q1011","temp":30,"dewp":22,"wdir":140,"wspd":7,"visib":"6+","altim":1011,"clouds":[{"cover":"BKN","base":3000},{"cover":"FEW","base":3300}],"obsTime":1777561200},"SBSL":{"icaoId":"SBSL","flightCategory":"MVFR","rawOb":"METAR SBSL 301500Z 10006KT 060V140 9999 BKN022 BKN100 28/25 Q1011","temp":28,"dewp":25,"wdir":100,"wspd":6,"visib":"6+","altim":1011,"clouds":[{"cover":"BKN","base":2200},{"cover":"BKN","base":10000}],"obsTime":1777561200},"SBSN":{"icaoId":"SBSN","flightCategory":"VFR","rawOb":"METAR SBSN 301500Z 06008KT 9999 VCSH SCT018 FEW025TCU 30/25 Q1011","temp":30,"dewp":25,"wdir":60,"wspd":8,"visib":"6+","altim":1011,"clouds":[{"cover":"SCT","base":1800},{"cover":"FEW","base":2500}],"obsTime":1777561200},"SBSP":{"icaoId":"SBSP","flightCategory":"VFR","rawOb":"METAR SBSP 301500Z 19005KT 090V250 CAVOK 26/18 Q1019","temp":26,"dewp":18,"wdir":190,"wspd":5,"visib":"6+","altim":1019,"clouds":[],"obsTime":1777561200},"SBSV":{"icaoId":"SBSV","flightCategory":"VFR","rawOb":"METAR SBSV 301500Z 11010KT 9999 SCT021 FEW025TCU SCT050 30/24 Q1014","temp":30,"dewp":24,"wdir":110,"wspd":10,"visib":"6+","altim":1014,"clouds":[{"cover":"SCT","base":2100},{"cover":"FEW","base":2500},{"cover":"SCT","base":5000}],"obsTime":1777561200},"SBTE":{"icaoId":"SBTE","flightCategory":"VFR","rawOb":"METAR SBTE 301500Z 13009KT 9999 SCT020 32/21 Q1010","temp":32,"dewp":21,"wdir":130,"wspd":9,"visib":"6+","altim":1010,"clouds":[{"cover":"SCT","base":2000}],"obsTime":1777561200},"SBUL":{"icaoId":"SBUL","flightCategory":"VFR","rawOb":"METAR SBUL 301500Z 09009KT CAVOK 27/13 Q1019","temp":27,"dewp":13,"wdir":90,"wspd":9,"visib":"6+","altim":1019,"clouds":[],"obsTime":1777561200},"SBUR":{"icaoId":"SBUR","flightCategory":"VFR","rawOb":"METAR SBUR 301500Z 03006KT CAVOK 29/15 Q1018","temp":29,"dewp":15,"wdir":30,"wspd":6,"visib":"6+","altim":1018,"clouds":[],"obsTime":1777561200},"SBAT":{"icaoId":"SBAT","flightCategory":"VFR","rawOb":"METAR SBAT 301500Z 10006KT 9999 VCSH FEW025 SCT030 33/25 Q1013","temp":33,"dewp":25,"wdir":100,"wspd":6,"visib":"6+","altim":1013,"clouds":[{"cover":"FEW","base":2500},{"cover":"SCT","base":3000}],"obsTime":1777561200},"SBOI":{"icaoId":"SBOI","flightCategory":"VFR","rawOb":"METAR SBOI 301500Z AUTO 33004KT 290V360 9999 FEW021 SCT040 29/26 Q1011","temp":29,"dewp":26,"wdir":330,"wspd":4,"visib":"6+","altim":1011,"clouds":[{"cover":"FEW","base":2100},{"cover":"SCT","base":4000}],"obsTime":1777561200},"SBPB":{"icaoId":"SBPB","flightCategory":"VFR","rawOb":"METAR SBPB 301500Z 06006KT 9999 SCT018 OVC100 28/25 Q1010","temp":28,"dewp":25,"wdir":60,"wspd":6,"visib":"6+","altim":1010,"clouds":[{"cover":"SCT","base":1800},{"cover":"OVC","base":10000}],"obsTime":1777561200},"SBBQ":{"icaoId":"SBBQ","flightCategory":"VFR","rawOb":"METAR SBBQ 301500Z 01006KT CAVOK 26/13 Q1022","temp":26,"dewp":13,"wdir":10,"wspd":6,"visib":"6+","altim":1022,"clouds":[],"obsTime":1777561200},"SBCJ":{"icaoId":"SBCJ","flightCategory":"VFR","rawOb":"METAR SBCJ 301500Z 16008KT 9999 SCT015 SCT018 29/21 Q1016","temp":29,"dewp":21,"wdir":160,"wspd":8,"visib":"6+","altim":1016,"clouds":[{"cover":"SCT","base":1500},{"cover":"SCT","base":1800}],"obsTime":1777561200},"SBPL":{"icaoId":"SBPL","flightCategory":"MVFR","rawOb":"METAR SBPL 301500Z 13011KT 9999 BKN030 29/20 Q1014","temp":29,"dewp":20,"wdir":130,"wspd":11,"visib":"6+","altim":1014,"clouds":[{"cover":"BKN","base":3000}],"obsTime":1777561200},"SBPP":{"icaoId":"SBPP","flightCategory":"VFR","rawOb":"METAR SBPP 301500Z 05011KT 9999 FEW020 25/21 Q1017","temp":25,"dewp":21,"wdir":50,"wspd":11,"visib":"6+","altim":1017,"clouds":[{"cover":"FEW","base":2000}],"obsTime":1777561200},"SBAR":{"icaoId":"SBAR","flightCategory":"MVFR","rawOb":"METAR SBAR 301500Z 13010KT 9999 3000NW -RA FEW006 SCT015 BKN025 25/25 Q1013 RERA","temp":25,"dewp":25,"wdir":130,"wspd":10,"visib":"6+","altim":1013,"clouds":[{"cover":"FEW","base":600},{"cover":"SCT","base":1500},{"cover":"BKN","base":2500}],"obsTime":1777561200},"SBCO":{"icaoId":"SBCO","flightCategory":"VFR","rawOb":"METAR SBCO 301500Z 33003KT CAVOK 22/12 Q1018","temp":22,"dewp":12,"wdir":330,"wspd":3,"visib":"6+","altim":1018,"clouds":[],"obsTime":1777561200},"SBPS":{"icaoId":"SBPS","flightCategory":"VFR","rawOb":"METAR SBPS 301500Z VRB04KT 9000 VCSH FEW008 SCT015 FEW025TCU BKN046 26/24 Q1016 RERA","temp":26,"dewp":24,"wdir":"VRB","wspd":4,"visib":5.59,"altim":1016,"clouds":[{"cover":"FEW","base":800},{"cover":"SCT","base":1500},{"cover":"FEW","base":2500},{"cover":"BKN","base":4600}],"obsTime":1777561200},"SBDN":{"icaoId":"SBDN","flightCategory":"VFR","rawOb":"METAR SBDN 301500Z 04007KT CAVOK 30/21 Q1016","temp":30,"dewp":21,"wdir":40,"wspd":7,"visib":"6+","altim":1016,"clouds":[],"obsTime":1777561200},"SBSC":{"icaoId":"SBSC","flightCategory":"VFR","rawOb":"METAR SBSC 301500Z 34005KT CAVOK 32/21 Q1014","temp":32,"dewp":21,"wdir":340,"wspd":5,"visib":"6+","altim":1014,"clouds":[],"obsTime":1777561200},"SBBU":{"icaoId":"SBBU","flightCategory":"VFR","rawOb":"METAR SBBU 301500Z 03004KT CAVOK 25/20 Q1018","temp":25,"dewp":20,"wdir":30,"wspd":4,"visib":"6+","altim":1018,"clouds":[],"obsTime":1777561200},"SBSJ":{"icaoId":"SBSJ","flightCategory":"VFR","rawOb":"METAR SBSJ 301500Z VRB02KT CAVOK 26/18 Q1019","temp":26,"dewp":18,"wdir":"VRB","wspd":2,"visib":"6+","altim":1019,"clouds":[],"obsTime":1777561200},"SBSM":{"icaoId":"SBSM","flightCategory":"VFR","rawOb":"METAR SBSM 301500Z 11005KT CAVOK 22/13 Q1017","temp":22,"dewp":13,"wdir":110,"wspd":5,"visib":"6+","altim":1017,"clouds":[],"obsTime":1777561200},"SBAU":{"icaoId":"SBAU","flightCategory":"VFR","rawOb":"METAR SBAU 301600Z 10008KT CAVOK 31/17 Q1015","temp":31,"dewp":17,"wdir":100,"wspd":8,"visib":"6+","altim":1015,"clouds":[],"obsTime":1777564800},"SBSR":{"icaoId":"SBSR","flightCategory":"VFR","rawOb":"METAR SBSR 301500Z 07007KT CAVOK 29/16 Q1017","temp":29,"dewp":16,"wdir":70,"wspd":7,"visib":"6+","altim":1017,"clouds":[],"obsTime":1777561200},"SBAX":{"icaoId":"SBAX","flightCategory":"VFR","rawOb":"METAR SBAX 301500Z 08008KT CAVOK 26/15 Q1020","temp":26,"dewp":15,"wdir":80,"wspd":8,"visib":"6+","altim":1020,"clouds":[],"obsTime":1777561200},"SBGM":{"icaoId":"SBGM","flightCategory":"VFR","rawOb":"METAR SBGM 301500Z 13004KT CAVOK 32/18 Q1012","temp":32,"dewp":18,"wdir":130,"wspd":4,"visib":"6+","altim":1012,"clouds":[],"obsTime":1777561200},"SBTD":{"icaoId":"SBTD","flightCategory":"VFR","rawOb":"METAR SBTD 301500Z /////KT 9999 FEW020 BKN100 25/21 Q1017","temp":25,"dewp":21,"wdir":null,"wspd":null,"visib":"6+","altim":1017,"clouds":[{"cover":"FEW","base":2000},{"cover":"BKN","base":10000}],"obsTime":1777561200},"SBCA":{"icaoId":"SBCA","flightCategory":"VFR","rawOb":"METAR SBCA 301500Z 01008KT 9999 SCT015 23/18 Q1018","temp":23,"dewp":18,"wdir":10,"wspd":8,"visib":"6+","altim":1018,"clouds":[{"cover":"SCT","base":1500}],"obsTime":1777561200},"SBTF":{"icaoId":"SBTF","flightCategory":"VFR","rawOb":"METAR SBTF 301500Z 15003KT 9999 SCT018 31/25 Q1011","temp":31,"dewp":25,"wdir":150,"wspd":3,"visib":"6+","altim":1011,"clouds":[{"cover":"SCT","base":1800}],"obsTime":1777561200},"SBTT":{"icaoId":"SBTT","flightCategory":"IFR","rawOb":"METAR SBTT 301500Z 10005KT 9999 BKN009 28/24 Q1013","temp":28,"dewp":24,"wdir":100,"wspd":5,"visib":"6+","altim":1013,"clouds":[{"cover":"BKN","base":900}],"obsTime":1777561200},"SBIP":{"icaoId":"SBIP","flightCategory":"VFR","rawOb":"METAR SBIP 301500Z AUTO VRB03KT 9999 FEW037 30/19 Q1017","temp":30,"dewp":19,"wdir":"VRB","wspd":3,"visib":"6+","altim":1017,"clouds":[{"cover":"FEW","base":3700}],"obsTime":1777561200},"SBUY":{"icaoId":"SBUY","flightCategory":"VFR","rawOb":"METAR SBUY 301500Z 14003KT 9999 FEW025 SCT080 30/24 Q1011","temp":30,"dewp":24,"wdir":140,"wspd":3,"visib":"6+","altim":1011,"clouds":[{"cover":"FEW","base":2500},{"cover":"SCT","base":8000}],"obsTime":1777561200},"SBBH":{"icaoId":"SBBH","flightCategory":"VFR","rawOb":"METAR SBBH 301500Z 08004KT 9999 SCT040 26/17 Q1019","temp":26,"dewp":17,"wdir":80,"wspd":4,"visib":"6+","altim":1019,"clouds":[{"cover":"SCT","base":4000}],"obsTime":1777561200},"SBVH":{"icaoId":"SBVH","flightCategory":"VFR","rawOb":"METAR SBVH 301500Z 11006KT 9999 SCT025 28/22 Q1016","temp":28,"dewp":22,"wdir":110,"wspd":6,"visib":"6+","altim":1016,"clouds":[{"cover":"SCT","base":2500}],"obsTime":1777561200},"SBKG":{"icaoId":"SBKG","flightCategory":"MVFR","rawOb":"METAR SBKG 301500Z 11012KT 9999 BKN010 27/21 Q1014","temp":27,"dewp":21,"wdir":110,"wspd":12,"visib":"6+","altim":1014,"clouds":[{"cover":"BKN","base":1000}],"obsTime":1777561200},"SBCC":{"icaoId":"SBCC","flightCategory":"VFR","rawOb":"METAR SBCC 301500Z 08009KT 9999 FEW020 31/20 Q1013","temp":31,"dewp":20,"wdir":80,"wspd":9,"visib":"6+","altim":1013,"clouds":[{"cover":"FEW","base":2000}],"obsTime":1777561200},"SBES":{"icaoId":"SBES","flightCategory":"VFR","rawOb":"METAR SBES 301500Z 19010KT 150V220 9999 SCT015 27/// Q1015","temp":null,"dewp":null,"wdir":190,"wspd":10,"visib":"6+","altim":1015,"clouds":[{"cover":"SCT","base":1500}],"obsTime":1777561200},"SBJP":{"icaoId":"SBJP","flightCategory":"VFR","rawOb":"METAR SBJP 301500Z 12015KT 9999 FEW025 BKN070 29/23 Q1012","temp":29,"dewp":23,"wdir":120,"wspd":15,"visib":"6+","altim":1012,"clouds":[{"cover":"FEW","base":2500},{"cover":"BKN","base":7000}],"obsTime":1777561200},"SBIH":{"icaoId":"SBIH","flightCategory":"VFR","rawOb":"METAR SBIH 301500Z 05005KT 9999 SCT016 31/24 Q1011","temp":31,"dewp":24,"wdir":50,"wspd":5,"visib":"6+","altim":1011,"clouds":[{"cover":"SCT","base":1600}],"obsTime":1777561200},"SBLE":{"icaoId":"SBLE","flightCategory":"VFR","rawOb":"METAR SBLE 301500Z AUTO 15005KT 080V190 9999 FEW019 SCT024 25/21 Q1018","temp":25,"dewp":21,"wdir":150,"wspd":5,"visib":"6+","altim":1018,"clouds":[{"cover":"FEW","base":1900},{"cover":"SCT","base":2400}],"obsTime":1777561200},"SBAF":{"icaoId":"SBAF","flightCategory":"VFR","rawOb":"METAR SBAF 301500Z 17009KT CAVOK 31/23 Q1014","temp":31,"dewp":23,"wdir":170,"wspd":9,"visib":"6+","altim":1014,"clouds":[],"obsTime":1777561200},"SBJR":{"icaoId":"SBJR","flightCategory":"VFR","rawOb":"METAR SBJR 301500Z 18007KT 9999 FEW030 30/23 Q1015","temp":30,"dewp":23,"wdir":180,"wspd":7,"visib":"6+","altim":1015,"clouds":[{"cover":"FEW","base":3000}],"obsTime":1777561200},"SBAN":{"icaoId":"SBAN","flightCategory":"VFR","rawOb":"METAR SBAN 301500Z 16013KT 130V210 CAVOK 25/12 Q1021","temp":25,"dewp":12,"wdir":160,"wspd":13,"visib":"6+","altim":1021,"clouds":[],"obsTime":1777561200},"SBLS":{"icaoId":"SBLS","flightCategory":"VFR","rawOb":"METAR SBLS 301500Z 12004KT 020V150 9999 SCT045 26/16 Q1020","temp":26,"dewp":16,"wdir":120,"wspd":4,"visib":"6+","altim":1020,"clouds":[{"cover":"SCT","base":4500}],"obsTime":1777561200},"SBMT":{"icaoId":"SBMT","flightCategory":"VFR","rawOb":"METAR SBMT 301500Z 06003KT CAVOK 26/19 Q1018","temp":26,"dewp":19,"wdir":60,"wspd":3,"visib":"6+","altim":1018,"clouds":[],"obsTime":1777561200},"SBTA":{"icaoId":"SBTA","flightCategory":"VFR","rawOb":"METAR SBTA 301500Z VRB03KT 9999 FEW035 26/18 Q1017","temp":26,"dewp":18,"wdir":"VRB","wspd":3,"visib":"6+","altim":1017,"clouds":[{"cover":"FEW","base":3500}],"obsTime":1777561200},"SBJV":{"icaoId":"SBJV","flightCategory":"VFR","rawOb":"METAR SBJV 301500Z 29003KT 9999 SCT015 BKN040 24/20 Q1017","temp":24,"dewp":20,"wdir":290,"wspd":3,"visib":"6+","altim":1017,"clouds":[{"cover":"SCT","base":1500},{"cover":"BKN","base":4000}],"obsTime":1777561200},"SBNM":{"icaoId":"SBNM","flightCategory":"VFR","rawOb":"METAR SBNM 301500Z 10004KT CAVOK 25/11 Q1017","temp":25,"dewp":11,"wdir":100,"wspd":4,"visib":"6+","altim":1017,"clouds":[],"obsTime":1777561200},"SBGW":{"icaoId":"SBGW","flightCategory":"VFR","rawOb":"METAR SBGW 301500Z VRB02KT 9999 FEW030 28/17 Q1017","temp":28,"dewp":17,"wdir":"VRB","wspd":2,"visib":"6+","altim":1017,"clouds":[{"cover":"FEW","base":3000}],"obsTime":1777561200},"SBST":{"icaoId":"SBST","flightCategory":"VFR","rawOb":"METAR SBST 301500Z /////KT 9999 FEW020 BKN040 ///// Q1016","temp":null,"dewp":null,"wdir":null,"wspd":null,"visib":"6+","altim":1016,"clouds":[{"cover":"FEW","base":2000},{"cover":"BKN","base":4000}],"obsTime":1777561200},"SBPF":{"icaoId":"SBPF","flightCategory":"VFR","rawOb":"METAR SBPF 301500Z 06005KT CAVOK 20/12 Q1019","temp":20,"dewp":12,"wdir":60,"wspd":5,"visib":"6+","altim":1019,"clouds":[],"obsTime":1777561200}}}