{"updated":1779137419,"count":87,"data":{"SBPV":{"icaoId":"SBPV","flightCategory":"MVFR","rawOb":"METAR SBPV 181900Z 26003KT 8000 2000S SHRA SCT030 FEW040TCU 33/28 Q1010","temp":33,"dewp":28,"wdir":260,"wspd":3,"visib":4.97,"altim":1010,"clouds":[{"cover":"SCT","base":3000},{"cover":"FEW","base":4000}],"obsTime":1779130800},"SBSL":{"icaoId":"SBSL","flightCategory":"VFR","rawOb":"METAR SBSL 181900Z 13006KT 090V150 9999 SCT020 FEW025TCU SCT100 27/24 Q1011","temp":27,"dewp":24,"wdir":130,"wspd":6,"visib":"6+","altim":1011,"clouds":[{"cover":"SCT","base":2000},{"cover":"FEW","base":2500},{"cover":"SCT","base":10000}],"obsTime":1779130800},"SBSP":{"icaoId":"SBSP","flightCategory":"MVFR","rawOb":"METAR SBSP 181900Z 22006KT 180V250 9999 BKN012 19/17 Q1020","temp":19,"dewp":17,"wdir":220,"wspd":6,"visib":"6+","altim":1020,"clouds":[{"cover":"BKN","base":1200}],"obsTime":1779130800},"SBCG":{"icaoId":"SBCG","flightCategory":"MVFR","rawOb":"METAR SBCG 181900Z 18008KT 9999 FEW011 OVC026 16/13 Q1020","temp":16,"dewp":13,"wdir":180,"wspd":8,"visib":"6+","altim":1020,"clouds":[{"cover":"FEW","base":1100},{"cover":"OVC","base":2600}],"obsTime":1779130800},"SBMK":{"icaoId":"SBMK","flightCategory":"VFR","rawOb":"METAR SBMK 181900Z 28002KT CAVOK 31/16 Q1016","temp":31,"dewp":16,"wdir":280,"wspd":2,"visib":"6+","altim":1016,"clouds":[],"obsTime":1779130800},"SBFL":{"icaoId":"SBFL","flightCategory":"VFR","rawOb":"METAR SBFL 181900Z 17007KT 9999 FEW010 BKN070 18/12 Q1020","temp":18,"dewp":12,"wdir":170,"wspd":7,"visib":"6+","altim":1020,"clouds":[{"cover":"FEW","base":1000},{"cover":"BKN","base":7000}],"obsTime":1779130800},"SBMO":{"icaoId":"SBMO","flightCategory":"VFR","rawOb":"METAR SBMO 181900Z 12008KT 9999 FEW030 28/22 Q1014","temp":28,"dewp":22,"wdir":120,"wspd":8,"visib":"6+","altim":1014,"clouds":[{"cover":"FEW","base":3000}],"obsTime":1779130800},"SBAT":{"icaoId":"SBAT","flightCategory":"VFR","rawOb":"METAR SBAT 181900Z 21003KT 9999 SCT030 FEW035TCU 32/25 Q1011","temp":32,"dewp":25,"wdir":210,"wspd":3,"visib":"6+","altim":1011,"clouds":[{"cover":"SCT","base":3000},{"cover":"FEW","base":3500}],"obsTime":1779130800},"SBMQ":{"icaoId":"SBMQ","flightCategory":"VFR","rawOb":"METAR SBMQ 181900Z 05009KT 9999 VCSH SCT033 FEW035TCU 31/25 Q1010","temp":31,"dewp":25,"wdir":50,"wspd":9,"visib":"6+","altim":1010,"clouds":[{"cover":"SCT","base":3300},{"cover":"FEW","base":3500}],"obsTime":1779130800},"SBNT":{"icaoId":"SBNT","flightCategory":"VFR","rawOb":"METAR SBNT 181900Z 12013KT 9999 SCT030 29/22 Q1013","temp":29,"dewp":22,"wdir":120,"wspd":13,"visib":"6+","altim":1013,"clouds":[{"cover":"SCT","base":3000}],"obsTime":1779130800},"SBFZ":{"icaoId":"SBFZ","flightCategory":"VFR","rawOb":"METAR SBFZ 181900Z 11014KT 9999 SCT024 29/24 Q1011","temp":29,"dewp":24,"wdir":110,"wspd":14,"visib":"6+","altim":1011,"clouds":[{"cover":"SCT","base":2400}],"obsTime":1779130800},"SBGL":{"icaoId":"SBGL","flightCategory":"MVFR","rawOb":"METAR SBGL 181900Z 26007KT 9999 BKN030 BKN100 27/20 Q1015","temp":27,"dewp":20,"wdir":260,"wspd":7,"visib":"6+","altim":1015,"clouds":[{"cover":"BKN","base":3000},{"cover":"BKN","base":10000}],"obsTime":1779130800},"SBPA":{"icaoId":"SBPA","flightCategory":"VFR","rawOb":"METAR SBPA 181900Z 18003KT 130V250 9999 BKN040 16/09 Q1023","temp":16,"dewp":9,"wdir":180,"wspd":3,"visib":"6+","altim":1023,"clouds":[{"cover":"BKN","base":4000}],"obsTime":1779130800},"SBCP":{"icaoId":"SBCP","flightCategory":"VFR","rawOb":"METAR SBCP 181900Z 20012KT CAVOK 28/22 Q1014","temp":28,"dewp":22,"wdir":200,"wspd":12,"visib":"6+","altim":1014,"clouds":[],"obsTime":1779130800},"SBPJ":{"icaoId":"SBPJ","flightCategory":"VFR","rawOb":"METAR SBPJ 181900Z 26005KT 9999 FEW045 34/20 Q1012","temp":34,"dewp":20,"wdir":260,"wspd":5,"visib":"6+","altim":1012,"clouds":[{"cover":"FEW","base":4500}],"obsTime":1779130800},"SBGO":{"icaoId":"SBGO","flightCategory":"VFR","rawOb":"METAR SBGO 181900Z 18004KT 9999 SCT045 FEW048TCU 31/17 Q1016","temp":31,"dewp":17,"wdir":180,"wspd":4,"visib":"6+","altim":1016,"clouds":[{"cover":"SCT","base":4500},{"cover":"FEW","base":4800}],"obsTime":1779130800},"SBCR":{"icaoId":"SBCR","flightCategory":"MVFR","rawOb":"METAR SBCR 181900Z 22006KT 140V300 9999 OVC013 15/12 Q1021","temp":15,"dewp":12,"wdir":220,"wspd":6,"visib":"6+","altim":1021,"clouds":[{"cover":"OVC","base":1300}],"obsTime":1779130800},"SBRB":{"icaoId":"SBRB","flightCategory":"MVFR","rawOb":"METAR SBRB 181900Z 13010G21KT 9999 BKN013 FEW030TCU 25/22 Q1014","temp":25,"dewp":22,"wdir":130,"wspd":10,"visib":"6+","altim":1014,"clouds":[{"cover":"BKN","base":1300},{"cover":"FEW","base":3000}],"obsTime":1779130800},"SBBR":{"icaoId":"SBBR","flightCategory":"VFR","rawOb":"METAR SBBR 181900Z 10006KT 9999 SCT045 28/14 Q1019","temp":28,"dewp":14,"wdir":100,"wspd":6,"visib":"6+","altim":1019,"clouds":[{"cover":"SCT","base":4500}],"obsTime":1779130800},"SBRF":{"icaoId":"SBRF","flightCategory":"VFR","rawOb":"METAR SBRF 181900Z 12010KT 9999 SCT025 28/22 Q1013","temp":28,"dewp":22,"wdir":120,"wspd":10,"visib":"6+","altim":1013,"clouds":[{"cover":"SCT","base":2500}],"obsTime":1779130800},"SBGR":{"icaoId":"SBGR","flightCategory":"MVFR","rawOb":"METAR SBGR 181900Z 23003KT 7000 -RA FEW015 OVC023 19/17 Q1020","temp":19,"dewp":17,"wdir":230,"wspd":3,"visib":4.35,"altim":1020,"clouds":[{"cover":"FEW","base":1500},{"cover":"OVC","base":2300}],"obsTime":1779130800},"SBSG":{"icaoId":"SBSG","flightCategory":"MVFR","rawOb":"METAR SBSG 181900Z 13009KT 100V160 9999 BKN026 28/23 Q1013","temp":28,"dewp":23,"wdir":130,"wspd":9,"visib":"6+","altim":1013,"clouds":[{"cover":"BKN","base":2600}],"obsTime":1779130800},"SBCB":{"icaoId":"SBCB","flightCategory":"VFR","rawOb":"METAR SBCB 181900Z 25009KT 9999 SCT015 BKN070 25/23 Q1015","temp":25,"dewp":23,"wdir":250,"wspd":9,"visib":"6+","altim":1015,"clouds":[{"cover":"SCT","base":1500},{"cover":"BKN","base":7000}],"obsTime":1779130800},"SBBV":{"icaoId":"SBBV","flightCategory":"VFR","rawOb":"METAR SBBV 181900Z 16009KT 9999 BKN040 FEW045TCU BKN090 30/22 Q1011","temp":30,"dewp":22,"wdir":160,"wspd":9,"visib":"6+","altim":1011,"clouds":[{"cover":"BKN","base":4000},{"cover":"FEW","base":4500},{"cover":"BKN","base":9000}],"obsTime":1779130800},"SBFI":{"icaoId":"SBFI","flightCategory":"VFR","rawOb":"METAR SBFI 181900Z 21010KT 9999 SCT007 SCT013 18/14 Q1020","temp":18,"dewp":14,"wdir":210,"wspd":10,"visib":"6+","altim":1020,"clouds":[{"cover":"SCT","base":700},{"cover":"SCT","base":1300}],"obsTime":1779130800},"SBMG":{"icaoId":"SBMG","flightCategory":"MVFR","rawOb":"METAR SBMG 181900Z 27008KT 9999 BKN017 BKN100 20/17 Q1018","temp":20,"dewp":17,"wdir":270,"wspd":8,"visib":"6+","altim":1018,"clouds":[{"cover":"BKN","base":1700},{"cover":"BKN","base":10000}],"obsTime":1779130800},"SBEG":{"icaoId":"SBEG","flightCategory":"VFR","rawOb":"METAR SBEG 181900Z 35002KT 9999 FEW010 SCT035 FEW040TCU BKN100 24/23 Q1012","temp":24,"dewp":23,"wdir":350,"wspd":2,"visib":"6+","altim":1012,"clouds":[{"cover":"FEW","base":1000},{"cover":"SCT","base":3500},{"cover":"FEW","base":4000},{"cover":"BKN","base":10000}],"obsTime":1779130800},"SBMA":{"icaoId":"SBMA","flightCategory":"VFR","rawOb":"METAR SBMA 181900Z 00000KT 9999 SCT025 FEW030TCU 32/23 Q1010","temp":32,"dewp":23,"wdir":0,"wspd":0,"visib":"6+","altim":1010,"clouds":[{"cover":"SCT","base":2500},{"cover":"FEW","base":3000}],"obsTime":1779130800},"SBME":{"icaoId":"SBME","flightCategory":"VFR","rawOb":"METAR SBME 181900Z 19004KT CAVOK 26/22 Q1014","temp":26,"dewp":22,"wdir":190,"wspd":4,"visib":"6+","altim":1014,"clouds":[],"obsTime":1779130800},"SBHT":{"icaoId":"SBHT","flightCategory":"VFR","rawOb":"METAR SBHT 181900Z 11006KT 9999 SCT030 32/24 Q1010","temp":32,"dewp":24,"wdir":110,"wspd":6,"visib":"6+","altim":1010,"clouds":[{"cover":"SCT","base":3000}],"obsTime":1779130800},"SBSN":{"icaoId":"SBSN","flightCategory":"VFR","rawOb":"METAR SBSN 181900Z 07006KT 9999 SCT020 FEW025TCU 31/25 Q1010","temp":31,"dewp":25,"wdir":70,"wspd":6,"visib":"6+","altim":1010,"clouds":[{"cover":"SCT","base":2000},{"cover":"FEW","base":2500}],"obsTime":1779130800},"SBCT":{"icaoId":"SBCT","flightCategory":"IFR","rawOb":"METAR SBCT 181900Z 10007KT 8000 BKN007 OVC030 14/14 Q1020","temp":14,"dewp":14,"wdir":100,"wspd":7,"visib":4.97,"altim":1020,"clouds":[{"cover":"BKN","base":700},{"cover":"OVC","base":3000}],"obsTime":1779130800},"SBIL":{"icaoId":"SBIL","flightCategory":"VFR","rawOb":"METAR SBIL 181900Z 10006KT 9999 SCT023 29/24 Q1015","temp":29,"dewp":24,"wdir":100,"wspd":6,"visib":"6+","altim":1015,"clouds":[{"cover":"SCT","base":2300}],"obsTime":1779130800},"SBSV":{"icaoId":"SBSV","flightCategory":"VFR","rawOb":"METAR SBSV 181900Z 14007KT 9999 FEW024 SCT100 28/23 Q1014","temp":28,"dewp":23,"wdir":140,"wspd":7,"visib":"6+","altim":1014,"clouds":[{"cover":"FEW","base":2400},{"cover":"SCT","base":10000}],"obsTime":1779130800},"SBTE":{"icaoId":"SBTE","flightCategory":"VFR","rawOb":"METAR SBTE 181900Z 16006KT 9999 SCT025 SCT100 32/24 Q1010","temp":32,"dewp":24,"wdir":160,"wspd":6,"visib":"6+","altim":1010,"clouds":[{"cover":"SCT","base":2500},{"cover":"SCT","base":10000}],"obsTime":1779130800},"SBBE":{"icaoId":"SBBE","flightCategory":"VFR","rawOb":"METAR SBBE 181900Z 03006KT 9999 4000E -RA BKN047 FEW049TCU 27/25 Q1010","temp":27,"dewp":25,"wdir":30,"wspd":6,"visib":"6+","altim":1010,"clouds":[{"cover":"BKN","base":4700},{"cover":"FEW","base":4900}],"obsTime":1779130800},"SBJU":{"icaoId":"SBJU","flightCategory":"VFR","rawOb":"METAR SBJU 181900Z 00000KT 9999 SCT022 27/22 Q1014","temp":27,"dewp":22,"wdir":0,"wspd":0,"visib":"6+","altim":1014,"clouds":[{"cover":"SCT","base":2200}],"obsTime":1779130800},"SBUL":{"icaoId":"SBUL","flightCategory":"VFR","rawOb":"METAR SBUL 181900Z 25007KT 9999 VCSH SCT040 FEW049TCU SCT100 27/18 Q1019","temp":27,"dewp":18,"wdir":250,"wspd":7,"visib":"6+","altim":1019,"clouds":[{"cover":"SCT","base":4000},{"cover":"FEW","base":4900},{"cover":"SCT","base":10000}],"obsTime":1779130800},"SBUR":{"icaoId":"SBUR","flightCategory":"VFR","rawOb":"METAR SBUR 181900Z 19008KT 9999 BKN040 25/18 Q1019","temp":25,"dewp":18,"wdir":190,"wspd":8,"visib":"6+","altim":1019,"clouds":[{"cover":"BKN","base":4000}],"obsTime":1779130800},"SBVT":{"icaoId":"SBVT","flightCategory":"VFR","rawOb":"METAR SBVT 181900Z 05015KT CAVOK 29/24 Q1012","temp":29,"dewp":24,"wdir":50,"wspd":15,"visib":"6+","altim":1012,"clouds":[],"obsTime":1779130800},"SBCZ":{"icaoId":"SBCZ","flightCategory":"MVFR","rawOb":"METAR SBCZ 181900Z 00000KT 9999 BKN030 30/26 Q1011","temp":30,"dewp":26,"wdir":0,"wspd":0,"visib":"6+","altim":1011,"clouds":[{"cover":"BKN","base":3000}],"obsTime":1779130800},"SBKP":{"icaoId":"SBKP","flightCategory":"MVFR","rawOb":"METAR SBKP 181900Z 20004KT 9000 FEW006 BKN012 BKN020 20/18 Q1019","temp":20,"dewp":18,"wdir":200,"wspd":4,"visib":5.59,"altim":1019,"clouds":[{"cover":"FEW","base":600},{"cover":"BKN","base":1200},{"cover":"BKN","base":2000}],"obsTime":1779130800},"SBCF":{"icaoId":"SBCF","flightCategory":"VFR","rawOb":"METAR SBCF 181900Z 25005KT 9999 FEW045 28/18 Q1018","temp":28,"dewp":18,"wdir":250,"wspd":5,"visib":"6+","altim":1018,"clouds":[{"cover":"FEW","base":4500}],"obsTime":1779130800},"SBLO":{"icaoId":"SBLO","flightCategory":"VFR","rawOb":"METAR SBLO 181900Z 27003KT 9999 SCT021 21/19 Q1018","temp":21,"dewp":19,"wdir":270,"wspd":3,"visib":"6+","altim":1018,"clouds":[{"cover":"SCT","base":2100}],"obsTime":1779130800},"SBSJ":{"icaoId":"SBSJ","flightCategory":"MVFR","rawOb":"METAR SBSJ 181900Z 25004KT 9999 BKN026 BKN033 21/18 Q1019","temp":21,"dewp":18,"wdir":250,"wspd":4,"visib":"6+","altim":1019,"clouds":[{"cover":"BKN","base":2600},{"cover":"BKN","base":3300}],"obsTime":1779130800},"SBOI":{"icaoId":"SBOI","flightCategory":"VFR","rawOb":"METAR SBOI 181900Z AUTO VRB02KT CAVOK 27/25 Q1011 RERA","temp":27,"dewp":25,"wdir":"VRB","wspd":2,"visib":"6+","altim":1011,"clouds":[],"obsTime":1779130800},"SBBH":{"icaoId":"SBBH","flightCategory":"VFR","rawOb":"METAR SBBH 181900Z 28006KT 9999 FEW048 28/19 Q1018","temp":28,"dewp":19,"wdir":280,"wspd":6,"visib":"6+","altim":1018,"clouds":[{"cover":"FEW","base":4800}],"obsTime":1779130800},"SBBU":{"icaoId":"SBBU","flightCategory":"MVFR","rawOb":"METAR SBBU 181900Z 20003KT 9999 BKN012 OVC060 23/20 Q1018","temp":23,"dewp":20,"wdir":200,"wspd":3,"visib":"6+","altim":1018,"clouds":[{"cover":"BKN","base":1200},{"cover":"OVC","base":6000}],"obsTime":1779130800},"SBCA":{"icaoId":"SBCA","flightCategory":"MVFR","rawOb":"SPECI SBCA 181905Z 24008KT 9999 BKN015 18/12 Q1021","temp":18,"dewp":12,"wdir":240,"wspd":8,"visib":"6+","altim":1021,"clouds":[{"cover":"BKN","base":1500}],"obsTime":1779131100},"SBCC":{"icaoId":"SBCC","flightCategory":"MVFR","rawOb":"METAR SBCC 181900Z /////KT 9999 BKN020 SCT100 ///// Q1013","temp":null,"dewp":null,"wdir":null,"wspd":null,"visib":"6+","altim":1013,"clouds":[{"cover":"BKN","base":2000},{"cover":"SCT","base":10000}],"obsTime":1779130800},"SBCJ":{"icaoId":"SBCJ","flightCategory":"VFR","rawOb":"METAR SBCJ 181900Z 14006KT 9999 SCT025 29/21 Q1015","temp":29,"dewp":21,"wdir":140,"wspd":6,"visib":"6+","altim":1015,"clouds":[{"cover":"SCT","base":2500}],"obsTime":1779130800},"SBCO":{"icaoId":"SBCO","flightCategory":"VFR","rawOb":"METAR SBCO 181900Z 19003KT 110V270 9999 BKN036 16/09 Q1023","temp":16,"dewp":9,"wdir":190,"wspd":3,"visib":"6+","altim":1023,"clouds":[{"cover":"BKN","base":3600}],"obsTime":1779130800},"SBDN":{"icaoId":"SBDN","flightCategory":"MVFR","rawOb":"METAR SBDN 181900Z 23007KT 9999 BKN010 OVC016 20/17 Q1018","temp":20,"dewp":17,"wdir":230,"wspd":7,"visib":"6+","altim":1018,"clouds":[{"cover":"BKN","base":1000},{"cover":"OVC","base":1600}],"obsTime":1779130800},"SBES":{"icaoId":"SBES","flightCategory":"VFR","rawOb":"METAR SBES 181900Z VRB08KT 9999 FEW015 FEW025TCU BKN070 24/// Q1015","temp":null,"dewp":null,"wdir":"VRB","wspd":8,"visib":"6+","altim":1015,"clouds":[{"cover":"FEW","base":1500},{"cover":"FEW","base":2500},{"cover":"BKN","base":7000}],"obsTime":1779130800},"SBIP":{"icaoId":"SBIP","flightCategory":"VFR","rawOb":"METAR SBIP 181900Z AUTO 05003KT 030V090 CAVOK 30/19 Q1015","temp":30,"dewp":19,"wdir":50,"wspd":3,"visib":"6+","altim":1015,"clouds":[],"obsTime":1779130800},"SBKG":{"icaoId":"SBKG","flightCategory":"VFR","rawOb":"METAR SBKG 181900Z 10008KT 070V140 9999 FEW030 SCT070 26/22 Q1015","temp":26,"dewp":22,"wdir":100,"wspd":8,"visib":"6+","altim":1015,"clouds":[{"cover":"FEW","base":3000},{"cover":"SCT","base":7000}],"obsTime":1779130800},"SBPB":{"icaoId":"SBPB","flightCategory":"VFR","rawOb":"METAR SBPB 181900Z 06013KT 9999 FEW016 30/25 Q1011","temp":30,"dewp":25,"wdir":60,"wspd":13,"visib":"6+","altim":1011,"clouds":[{"cover":"FEW","base":1600}],"obsTime":1779130800},"SBPL":{"icaoId":"SBPL","flightCategory":"VFR","rawOb":"METAR SBPL 181900Z 11005KT 9999 FEW030 33/15 Q1013","temp":33,"dewp":15,"wdir":110,"wspd":5,"visib":"6+","altim":1013,"clouds":[{"cover":"FEW","base":3000}],"obsTime":1779130800},"SBPP":{"icaoId":"SBPP","flightCategory":"MVFR","rawOb":"METAR SBPP 181900Z 23010KT 9000 OVC010 11/10 Q1023","temp":11,"dewp":10,"wdir":230,"wspd":10,"visib":5.59,"altim":1023,"clouds":[{"cover":"OVC","base":1000}],"obsTime":1779130800},"SBPS":{"icaoId":"SBPS","flightCategory":"VFR","rawOb":"METAR SBPS 181900Z 06008KT 9999 SCT025 28/23 Q1015","temp":28,"dewp":23,"wdir":60,"wspd":8,"visib":"6+","altim":1015,"clouds":[{"cover":"SCT","base":2500}],"obsTime":1779130800},"SBSC":{"icaoId":"SBSC","flightCategory":"MVFR","rawOb":"METAR SBSC 181900Z 20008KT 9999 SCT010 BKN015 BKN078 24/22 Q1016","temp":24,"dewp":22,"wdir":200,"wspd":8,"visib":"6+","altim":1016,"clouds":[{"cover":"SCT","base":1000},{"cover":"BKN","base":1500},{"cover":"BKN","base":7800}],"obsTime":1779130800},"SBAR":{"icaoId":"SBAR","flightCategory":"VFR","rawOb":"METAR SBAR 181900Z 12008KT 9999 FEW023 29/22 Q1014","temp":29,"dewp":22,"wdir":120,"wspd":8,"visib":"6+","altim":1014,"clouds":[{"cover":"FEW","base":2300}],"obsTime":1779130800},"SBSM":{"icaoId":"SBSM","flightCategory":"VFR","rawOb":"METAR SBSM 181900Z 17002KT CAVOK 16/06 Q1023","temp":16,"dewp":6,"wdir":170,"wspd":2,"visib":"6+","altim":1023,"clouds":[],"obsTime":1779130800},"SBSR":{"icaoId":"SBSR","flightCategory":"VFR","rawOb":"METAR SBSR 181900Z 24009KT 9999 FEW030TCU SCT035 BKN070 23/19 Q1018","temp":23,"dewp":19,"wdir":240,"wspd":9,"visib":"6+","altim":1018,"clouds":[{"cover":"FEW","base":3000},{"cover":"SCT","base":3500},{"cover":"BKN","base":7000}],"obsTime":1779130800},"SBTF":{"icaoId":"SBTF","flightCategory":"MVFR","rawOb":"METAR SBTF 181900Z 33003KT 9999 BKN019 31/25 Q1010","temp":31,"dewp":25,"wdir":330,"wspd":3,"visib":"6+","altim":1010,"clouds":[{"cover":"BKN","base":1900}],"obsTime":1779130800},"SBTT":{"icaoId":"SBTT","flightCategory":"MVFR","rawOb":"METAR SBTT 181900Z 00000KT 6000 VCSH BKN017 BKN090 27/23 Q1012","temp":27,"dewp":23,"wdir":0,"wspd":0,"visib":3.73,"altim":1012,"clouds":[{"cover":"BKN","base":1700},{"cover":"BKN","base":9000}],"obsTime":1779130800},"SBTU":{"icaoId":"SBTU","flightCategory":"VFR","rawOb":"METAR SBTU 181900Z AUTO 28005KT 240V320 9999 // FEW032/// ///// Q1012","temp":null,"dewp":null,"wdir":280,"wspd":5,"visib":"6+","altim":1012,"clouds":[{"cover":"FEW","base":3200}],"obsTime":1779130800},"SBUY":{"icaoId":"SBUY","flightCategory":"VFR","rawOb":"METAR SBUY 181900Z 20002KT 9999 SCT025 SCT100 30/24 Q1009","temp":30,"dewp":24,"wdir":200,"wspd":2,"visib":"6+","altim":1009,"clouds":[{"cover":"SCT","base":2500},{"cover":"SCT","base":10000}],"obsTime":1779130800},"SBVH":{"icaoId":"SBVH","flightCategory":"MVFR","rawOb":"METAR SBVH 181900Z 19011KT 9999 BKN018 OVC090 22/19 Q1017","temp":22,"dewp":19,"wdir":190,"wspd":11,"visib":"6+","altim":1017,"clouds":[{"cover":"BKN","base":1800},{"cover":"OVC","base":9000}],"obsTime":1779130800},"SBAX":{"icaoId":"SBAX","flightCategory":"MVFR","rawOb":"METAR SBAX 181900Z COR 17004KT 9999 SCT013 BKN030 24/19 Q1020","temp":24,"dewp":19,"wdir":170,"wspd":4,"visib":"6+","altim":1020,"clouds":[{"cover":"SCT","base":1300},{"cover":"BKN","base":3000}],"obsTime":1779130800},"SBBQ":{"icaoId":"SBBQ","flightCategory":"VFR","rawOb":"METAR SBBQ 181900Z 27004KT 210V310 9999 BKN035 FEW040TCU OVC100 24/16 Q1022","temp":24,"dewp":16,"wdir":270,"wspd":4,"visib":"6+","altim":1022,"clouds":[{"cover":"BKN","base":3500},{"cover":"FEW","base":4000},{"cover":"OVC","base":10000}],"obsTime":1779130800},"SBGM":{"icaoId":"SBGM","flightCategory":"IFR","rawOb":"METAR SBGM 181900Z 11012KT 9999 -RA FEW006 BKN008 21/20 Q1015","temp":21,"dewp":20,"wdir":110,"wspd":12,"visib":"6+","altim":1015,"clouds":[{"cover":"FEW","base":600},{"cover":"BKN","base":800}],"obsTime":1779130800},"SBAU":{"icaoId":"SBAU","flightCategory":"IFR","rawOb":"METAR SBAU 181900Z 18002KT 9999 BKN006 SCT070 22/21 Q1017","temp":22,"dewp":21,"wdir":180,"wspd":2,"visib":"6+","altim":1017,"clouds":[{"cover":"BKN","base":600},{"cover":"SCT","base":7000}],"obsTime":1779130800},"SBTA":{"icaoId":"SBTA","flightCategory":"VFR","rawOb":"METAR SBTA 181900Z 27003KT 220V300 9999 SCT035 FEW040TCU BKN050 BKN060 22/17 Q1018","temp":22,"dewp":17,"wdir":270,"wspd":3,"visib":"6+","altim":1018,"clouds":[{"cover":"SCT","base":3500},{"cover":"FEW","base":4000},{"cover":"BKN","base":5000},{"cover":"BKN","base":6000}],"obsTime":1779130800},"SBJV":{"icaoId":"SBJV","flightCategory":"MVFR","rawOb":"METAR SBJV 181900Z 32005KT 8000 BKN010 BKN040 18/17 Q1020","temp":18,"dewp":17,"wdir":320,"wspd":5,"visib":4.97,"altim":1020,"clouds":[{"cover":"BKN","base":1000},{"cover":"BKN","base":4000}],"obsTime":1779130800},"SBNM":{"icaoId":"SBNM","flightCategory":"VFR","rawOb":"METAR SBNM 181900Z AUTO 16006KT 130V190 CAVOK 17/08 Q1022","temp":17,"dewp":8,"wdir":160,"wspd":6,"visib":"6+","altim":1022,"clouds":[],"obsTime":1779130800},"SBJP":{"icaoId":"SBJP","flightCategory":"VFR","rawOb":"METAR SBJP 181900Z 11011KT 060V160 9999 FEW030 29/22 Q1013","temp":29,"dewp":22,"wdir":110,"wspd":11,"visib":"6+","altim":1013,"clouds":[{"cover":"FEW","base":3000}],"obsTime":1779130800},"SBPF":{"icaoId":"SBPF","flightCategory":"VFR","rawOb":"METAR SBPF 181900Z 16010KT 9999 SCT015 BKN070 12/08 Q1022","temp":12,"dewp":8,"wdir":160,"wspd":10,"visib":"6+","altim":1022,"clouds":[{"cover":"SCT","base":1500},{"cover":"BKN","base":7000}],"obsTime":1779130800},"SBAF":{"icaoId":"SBAF","flightCategory":"VFR","rawOb":" SBAF 181900Z 19009KT 9999 FEW025 BKN100 25/24 Q1016","temp":25,"dewp":24,"wdir":190,"wspd":9,"visib":"6+","altim":1016,"clouds":[{"cover":"FEW","base":2500},{"cover":"BKN","base":10000}],"obsTime":1779130800},"SBGW":{"icaoId":"SBGW","flightCategory":"VFR","rawOb":"METAR SBGW 181900Z 23006KT 9999 SCT013 BKN075 22/15 Q1018","temp":22,"dewp":15,"wdir":230,"wspd":6,"visib":"6+","altim":1018,"clouds":[{"cover":"SCT","base":1300},{"cover":"BKN","base":7500}],"obsTime":1779130800},"SBAN":{"icaoId":"SBAN","flightCategory":"VFR","rawOb":"METAR SBAN 181900Z 01002KT 9999 SCT045 28/16 Q1020","temp":28,"dewp":16,"wdir":10,"wspd":2,"visib":"6+","altim":1020,"clouds":[{"cover":"SCT","base":4500}],"obsTime":1779130800},"SBJR":{"icaoId":"SBJR","flightCategory":"VFR","rawOb":"METAR SBJR 181900Z 21005KT 9999 SCT020 BKN090 25/22 Q1015","temp":25,"dewp":22,"wdir":210,"wspd":5,"visib":"6+","altim":1015,"clouds":[{"cover":"SCT","base":2000},{"cover":"BKN","base":9000}],"obsTime":1779130800},"SBLE":{"icaoId":"SBLE","flightCategory":"VFR","rawOb":"METAR SBLE 181900Z AUTO 10003KT 020V140 CAVOK 30/18 Q1016","temp":30,"dewp":18,"wdir":100,"wspd":3,"visib":"6+","altim":1016,"clouds":[],"obsTime":1779130800},"SBLS":{"icaoId":"SBLS","flightCategory":"VFR","rawOb":"METAR SBLS 181900Z 27004KT 170V330 9999 FEW043 28/18 Q1018","temp":28,"dewp":18,"wdir":270,"wspd":4,"visib":"6+","altim":1018,"clouds":[{"cover":"FEW","base":4300}],"obsTime":1779130800},"SBIH":{"icaoId":"SBIH","flightCategory":"VFR","rawOb":"METAR SBIH 181900Z 01005KT 9999 FEW020 FEW025TCU BKN100 30/25 Q1010","temp":30,"dewp":25,"wdir":10,"wspd":5,"visib":"6+","altim":1010,"clouds":[{"cover":"FEW","base":2000},{"cover":"FEW","base":2500},{"cover":"BKN","base":10000}],"obsTime":1779130800},"SBMT":{"icaoId":"SBMT","flightCategory":"MVFR","rawOb":"METAR SBMT 181900Z 28004KT 8000 BKN014 OVC017 19/17 Q1020 RERA","temp":19,"dewp":17,"wdir":280,"wspd":4,"visib":4.97,"altim":1020,"clouds":[{"cover":"BKN","base":1400},{"cover":"OVC","base":1700}],"obsTime":1779130800},"SBST":{"icaoId":"SBST","flightCategory":"MVFR","rawOb":"METAR SBST 181900Z 28006KT 230V320 6000 -RA OVC021 21/20 Q1017","temp":21,"dewp":20,"wdir":280,"wspd":6,"visib":3.73,"altim":1017,"clouds":[{"cover":"OVC","base":2100}],"obsTime":1779130800}}}