{"updated":1781937829,"count":49,"data":{"SBME":{"icaoId":"SBME","flightCategory":"VFR","rawOb":"METAR SBME 200500Z 02010KT CAVOK 18/16 Q1018","temp":18,"dewp":16,"wdir":20,"wspd":10,"visib":"6+","altim":1018,"clouds":[],"obsTime":1781931600},"SBMG":{"icaoId":"SBMG","flightCategory":"VFR","rawOb":"METAR SBMG 200500Z AUTO 04009KT CAVOK 16/15 Q1015","temp":16,"dewp":15,"wdir":40,"wspd":9,"visib":"6+","altim":1015,"clouds":[],"obsTime":1781931600},"SBFL":{"icaoId":"SBFL","flightCategory":"VFR","rawOb":"METAR SBFL 200500Z 16002KT 9999 FEW033 OVC090 17/16 Q1016","temp":17,"dewp":16,"wdir":160,"wspd":2,"visib":"6+","altim":1016,"clouds":[{"cover":"FEW","base":3300},{"cover":"OVC","base":9000}],"obsTime":1781931600},"SBMO":{"icaoId":"SBMO","flightCategory":"VFR","rawOb":"METAR SBMO 200500Z 25005KT 9999 SCT020 22/22 Q1015","temp":22,"dewp":22,"wdir":250,"wspd":5,"visib":"6+","altim":1015,"clouds":[{"cover":"SCT","base":2000}],"obsTime":1781931600},"SBFZ":{"icaoId":"SBFZ","flightCategory":"MVFR","rawOb":"METAR SBFZ 200500Z 13010KT 6000 -SHRA BKN016 FEW025TCU BKN070 24/23 Q1013 RESHRA","temp":24,"dewp":23,"wdir":130,"wspd":10,"visib":3.73,"altim":1013,"clouds":[{"cover":"BKN","base":1600},{"cover":"FEW","base":2500},{"cover":"BKN","base":7000}],"obsTime":1781931600},"SBVT":{"icaoId":"SBVT","flightCategory":"VFR","rawOb":"METAR SBVT 200500Z 30002KT CAVOK 15/15 Q1019","temp":15,"dewp":15,"wdir":300,"wspd":2,"visib":"6+","altim":1019,"clouds":[],"obsTime":1781931600},"SBMQ":{"icaoId":"SBMQ","flightCategory":"MVFR","rawOb":"SPECI SBMQ 200453Z VRB08KT 9999 BKN013 SCT028 BKN070 26/23 Q1015","temp":26,"dewp":23,"wdir":"VRB","wspd":8,"visib":"6+","altim":1015,"clouds":[{"cover":"BKN","base":1300},{"cover":"SCT","base":2800},{"cover":"BKN","base":7000}],"obsTime":1781931180},"SBUR":{"icaoId":"SBUR","flightCategory":"VFR","rawOb":"METAR SBUR 200500Z 03008KT CAVOK 18/13 Q1019","temp":18,"dewp":13,"wdir":30,"wspd":8,"visib":"6+","altim":1019,"clouds":[],"obsTime":1781931600},"SBGL":{"icaoId":"SBGL","flightCategory":"VFR","rawOb":"METAR SBGL 200500Z 08001KT CAVOK 17/16 Q1016","temp":17,"dewp":16,"wdir":80,"wspd":1,"visib":"6+","altim":1016,"clouds":[],"obsTime":1781931600},"SBNT":{"icaoId":"SBNT","flightCategory":"VFR","rawOb":"METAR SBNT 200500Z 20009KT 9999 FEW017 SCT030 BKN070 23/22 Q1014","temp":23,"dewp":22,"wdir":200,"wspd":9,"visib":"6+","altim":1014,"clouds":[{"cover":"FEW","base":1700},{"cover":"SCT","base":3000},{"cover":"BKN","base":7000}],"obsTime":1781931600},"SBBE":{"icaoId":"SBBE","flightCategory":"VFR","rawOb":"METAR SBBE 200500Z 04003KT CAVOK 24/24 Q1014","temp":24,"dewp":24,"wdir":40,"wspd":3,"visib":"6+","altim":1014,"clouds":[],"obsTime":1781931600},"SBPA":{"icaoId":"SBPA","flightCategory":"VFR","rawOb":"METAR SBPA 200500Z 28006KT 9999 SCT020 BKN045 12/11 Q1019","temp":12,"dewp":11,"wdir":280,"wspd":6,"visib":"6+","altim":1019,"clouds":[{"cover":"SCT","base":2000},{"cover":"BKN","base":4500}],"obsTime":1781931600},"SBGO":{"icaoId":"SBGO","flightCategory":"VFR","rawOb":"METAR SBGO 200500Z 11003KT CAVOK 21/17 Q1019","temp":21,"dewp":17,"wdir":110,"wspd":3,"visib":"6+","altim":1019,"clouds":[],"obsTime":1781931600},"SBPJ":{"icaoId":"SBPJ","flightCategory":"VFR","rawOb":"METAR SBPJ 200500Z 21006KT 9999 FEW016 SCT070 26/22 Q1015","temp":26,"dewp":22,"wdir":210,"wspd":6,"visib":"6+","altim":1015,"clouds":[{"cover":"FEW","base":1600},{"cover":"SCT","base":7000}],"obsTime":1781931600},"SBBV":{"icaoId":"SBBV","flightCategory":"MVFR","rawOb":"METAR SBBV 200500Z 05002KT 9999 FEW010 BKN025 FEW035TCU 26/24 Q1015","temp":26,"dewp":24,"wdir":50,"wspd":2,"visib":"6+","altim":1015,"clouds":[{"cover":"FEW","base":1000},{"cover":"BKN","base":2500},{"cover":"FEW","base":3500}],"obsTime":1781931600},"SBPV":{"icaoId":"SBPV","flightCategory":"VFR","rawOb":"METAR SBPV 200500Z 00000KT CAVOK 25/23 Q1015","temp":25,"dewp":23,"wdir":0,"wspd":0,"visib":"6+","altim":1015,"clouds":[],"obsTime":1781931600},"SBCT":{"icaoId":"SBCT","flightCategory":"VFR","rawOb":"METAR SBCT 200500Z 04004KT 9999 FEW045 BKN100 12/11 Q1018","temp":12,"dewp":11,"wdir":40,"wspd":4,"visib":"6+","altim":1018,"clouds":[{"cover":"FEW","base":4500},{"cover":"BKN","base":10000}],"obsTime":1781931600},"SBRB":{"icaoId":"SBRB","flightCategory":"MVFR","rawOb":"METAR SBRB 200500Z 00000KT 7000 NSC 22/22 Q1016","temp":22,"dewp":22,"wdir":0,"wspd":0,"visib":4.35,"altim":1016,"clouds":[],"obsTime":1781931600},"SBGR":{"icaoId":"SBGR","flightCategory":"VFR","rawOb":"METAR SBGR 200500Z 09006KT CAVOK 15/13 Q1019","temp":15,"dewp":13,"wdir":90,"wspd":6,"visib":"6+","altim":1019,"clouds":[],"obsTime":1781931600},"SBRF":{"icaoId":"SBRF","flightCategory":"VFR","rawOb":"METAR SBRF 200500Z 22005KT 9999 SCT020 BKN050 24/23 Q1014","temp":24,"dewp":23,"wdir":220,"wspd":5,"visib":"6+","altim":1014,"clouds":[{"cover":"SCT","base":2000},{"cover":"BKN","base":5000}],"obsTime":1781931600},"SBEG":{"icaoId":"SBEG","flightCategory":"VFR","rawOb":"METAR SBEG 200500Z 00000KT CAVOK 24/23 Q1014","temp":24,"dewp":23,"wdir":0,"wspd":0,"visib":"6+","altim":1014,"clouds":[],"obsTime":1781931600},"SBSG":{"icaoId":"SBSG","flightCategory":"VFR","rawOb":"METAR SBSG 200500Z 19005KT 160V230 9999 FEW009 SCT030 23/22 Q1014","temp":23,"dewp":22,"wdir":190,"wspd":5,"visib":"6+","altim":1014,"clouds":[{"cover":"FEW","base":900},{"cover":"SCT","base":3000}],"obsTime":1781931600},"SBJU":{"icaoId":"SBJU","flightCategory":"VFR","rawOb":"METAR SBJU 200500Z 17006KT 9999 SCT020 23/17 Q1017","temp":23,"dewp":17,"wdir":170,"wspd":6,"visib":"6+","altim":1017,"clouds":[{"cover":"SCT","base":2000}],"obsTime":1781931600},"SBSL":{"icaoId":"SBSL","flightCategory":"VFR","rawOb":"METAR SBSL 200500Z 01003KT CAVOK 26/24 Q1013","temp":26,"dewp":24,"wdir":10,"wspd":3,"visib":"6+","altim":1013,"clouds":[],"obsTime":1781931600},"SBBR":{"icaoId":"SBBR","flightCategory":"VFR","rawOb":"METAR SBBR 200500Z 20003KT CAVOK 17/14 Q1022","temp":17,"dewp":14,"wdir":200,"wspd":3,"visib":"6+","altim":1022,"clouds":[],"obsTime":1781931600},"SBSN":{"icaoId":"SBSN","flightCategory":"VFR","rawOb":"METAR SBSN 200500Z 00000KT CAVOK 24/23 Q1014","temp":24,"dewp":23,"wdir":0,"wspd":0,"visib":"6+","altim":1014,"clouds":[],"obsTime":1781931600},"SBSP":{"icaoId":"SBSP","flightCategory":"VFR","rawOb":"METAR SBSP 200500Z AUTO VRB02KT CAVOK 16/13 Q1019","temp":16,"dewp":13,"wdir":"VRB","wspd":2,"visib":"6+","altim":1019,"clouds":[],"obsTime":1781931600},"SBKP":{"icaoId":"SBKP","flightCategory":"VFR","rawOb":"METAR SBKP 200500Z 10003KT CAVOK 15/12 Q1019","temp":15,"dewp":12,"wdir":100,"wspd":3,"visib":"6+","altim":1019,"clouds":[],"obsTime":1781931600},"SBCF":{"icaoId":"SBCF","flightCategory":"VFR","rawOb":"METAR SBCF 200500Z 16003KT CAVOK 13/11 Q1022","temp":13,"dewp":11,"wdir":160,"wspd":3,"visib":"6+","altim":1022,"clouds":[],"obsTime":1781931600},"SBSV":{"icaoId":"SBSV","flightCategory":"VFR","rawOb":"METAR SBSV 200500Z 15012KT 9999 SCT030 BKN060 25/19 Q1017","temp":25,"dewp":19,"wdir":150,"wspd":12,"visib":"6+","altim":1017,"clouds":[{"cover":"SCT","base":3000},{"cover":"BKN","base":6000}],"obsTime":1781931600},"SBLO":{"icaoId":"SBLO","flightCategory":"VFR","rawOb":"METAR SBLO 200500Z VRB02KT 9999 VCSH BKN033 17/17 Q1017","temp":17,"dewp":17,"wdir":"VRB","wspd":2,"visib":"6+","altim":1017,"clouds":[{"cover":"BKN","base":3300}],"obsTime":1781931600},"SBTE":{"icaoId":"SBTE","flightCategory":"VFR","rawOb":"METAR SBTE 200500Z 07003KT CAVOK 26/21 Q1013","temp":26,"dewp":21,"wdir":70,"wspd":3,"visib":"6+","altim":1013,"clouds":[],"obsTime":1781931600},"SBMA":{"icaoId":"SBMA","flightCategory":"VFR","rawOb":"METAR SBMA 200500Z 00000KT CAVOK 25/23 Q1014","temp":25,"dewp":23,"wdir":0,"wspd":0,"visib":"6+","altim":1014,"clouds":[],"obsTime":1781931600},"SBUL":{"icaoId":"SBUL","flightCategory":"VFR","rawOb":"METAR SBUL 200500Z 10008KT CAVOK 18/13 Q1021","temp":18,"dewp":13,"wdir":100,"wspd":8,"visib":"6+","altim":1021,"clouds":[],"obsTime":1781931600},"SBFI":{"icaoId":"SBFI","flightCategory":"IFR","rawOb":"METAR SBFI 200500Z 22007KT 9999 BKN005 13/13 Q1018","temp":13,"dewp":13,"wdir":220,"wspd":7,"visib":"6+","altim":1018,"clouds":[{"cover":"BKN","base":500}],"obsTime":1781931600},"SBCG":{"icaoId":"SBCG","flightCategory":"LIFR","rawOb":"SPECI SBCG 200445Z 29003KT 250V320 1500 R24///// R06/P2000N BR BKN002 BKN014 15/15 Q1018","temp":15,"dewp":15,"wdir":290,"wspd":3,"visib":0.93,"altim":1018,"clouds":[{"cover":"BKN","base":200},{"cover":"BKN","base":1400}],"obsTime":1781930700},"SBSR":{"icaoId":"SBSR","flightCategory":"VFR","rawOb":"METAR SBSR 200500Z 24008KT CAVOK 20/16 Q1018","temp":20,"dewp":16,"wdir":240,"wspd":8,"visib":"6+","altim":1018,"clouds":[],"obsTime":1781931600},"SBAR":{"icaoId":"SBAR","flightCategory":"MVFR","rawOb":"METAR SBAR 200500Z 20004KT 8000 -RA BKN020 OVC040 23/21 Q1016","temp":23,"dewp":21,"wdir":200,"wspd":4,"visib":4.97,"altim":1016,"clouds":[{"cover":"BKN","base":2000},{"cover":"OVC","base":4000}],"obsTime":1781931600},"SBAX":{"icaoId":"SBAX","flightCategory":"VFR","rawOb":"METAR SBAX 200500Z AUTO 13007KT CAVOK 15/12 Q1021","temp":15,"dewp":12,"wdir":130,"wspd":7,"visib":"6+","altim":1021,"clouds":[],"obsTime":1781931600},"SBDN":{"icaoId":"SBDN","flightCategory":"VFR","rawOb":"METAR SBDN 200500Z 04004KT CAVOK 18/17 Q1017","temp":18,"dewp":17,"wdir":40,"wspd":4,"visib":"6+","altim":1017,"clouds":[],"obsTime":1781931600},"SBIP":{"icaoId":"SBIP","flightCategory":"LIFR","rawOb":"METAR SBIP 200500Z AUTO 00000KT 1400 BR VV002 12/12 Q1020","temp":12,"dewp":12,"wdir":0,"wspd":0,"visib":0.87,"altim":1020,"clouds":[{"cover":"OVX","base":200}],"obsTime":1781931600},"SBKG":{"icaoId":"SBKG","flightCategory":"IFR","rawOb":"METAR SBKG 200500Z 17003KT 9999 SCT006 BKN009 21/20 Q1017","temp":21,"dewp":20,"wdir":170,"wspd":3,"visib":"6+","altim":1017,"clouds":[{"cover":"SCT","base":600},{"cover":"BKN","base":900}],"obsTime":1781931600},"SBPL":{"icaoId":"SBPL","flightCategory":"MVFR","rawOb":"METAR SBPL 200500Z 12006KT 9999 BKN020 23/19 Q1018","temp":23,"dewp":19,"wdir":120,"wspd":6,"visib":"6+","altim":1018,"clouds":[{"cover":"BKN","base":2000}],"obsTime":1781931600},"SBPS":{"icaoId":"SBPS","flightCategory":"VFR","rawOb":"METAR SBPS 200500Z 26005KT 9999 SCT030 19/18 Q1019","temp":19,"dewp":18,"wdir":260,"wspd":5,"visib":"6+","altim":1019,"clouds":[{"cover":"SCT","base":3000}],"obsTime":1781931600},"SBSC":{"icaoId":"SBSC","flightCategory":"VFR","rawOb":"METAR SBSC 200500Z 03004KT CAVOK 15/13 Q1017","temp":15,"dewp":13,"wdir":30,"wspd":4,"visib":"6+","altim":1017,"clouds":[],"obsTime":1781931600},"SBNM":{"icaoId":"SBNM","flightCategory":"LIFR","rawOb":"METAR SBNM 200500Z AUTO 21004KT 9999 BKN003 OVC022 10/10 Q1019","temp":10,"dewp":10,"wdir":210,"wspd":4,"visib":"6+","altim":1019,"clouds":[{"cover":"BKN","base":300},{"cover":"OVC","base":2200}],"obsTime":1781931600},"SBJP":{"icaoId":"SBJP","flightCategory":"IFR","rawOb":"METAR SBJP 200500Z 21004KT 4000 -RA BKN007 BKN020 23/23 Q1014","temp":23,"dewp":23,"wdir":210,"wspd":4,"visib":2.49,"altim":1014,"clouds":[{"cover":"BKN","base":700},{"cover":"BKN","base":2000}],"obsTime":1781931600},"SBAN":{"icaoId":"SBAN","flightCategory":"VFR","rawOb":"METAR SBAN 200500Z 13005KT CAVOK 18/15 Q1023","temp":18,"dewp":15,"wdir":130,"wspd":5,"visib":"6+","altim":1023,"clouds":[],"obsTime":1781931600},"SBLE":{"icaoId":"SBLE","flightCategory":"VFR","rawOb":"METAR SBLE 200500Z AUTO 16001KT 9999 SCT029 SCT041 ///// Q////","temp":null,"dewp":null,"wdir":160,"wspd":1,"visib":"6+","altim":null,"clouds":[{"cover":"SCT","base":2900},{"cover":"SCT","base":4100}],"obsTime":1781931600}}}