{"updated":1774227893,"count":63,"data":{"SBBR":{"icaoId":"SBBR","flightCategory":"VFR","rawOb":"METAR SBBR 230000Z 30005KT 9999 FEW036 BKN070 22/20 Q1017","temp":22,"dewp":20,"wdir":300,"wspd":5,"visib":"6+","altim":1017,"clouds":[{"cover":"FEW","base":3600},{"cover":"BKN","base":7000}],"obsTime":1774224000},"SBMA":{"icaoId":"SBMA","flightCategory":"VFR","rawOb":"METAR SBMA 230000Z 00000KT CAVOK 27/25 Q1010","temp":27,"dewp":25,"wdir":0,"wspd":0,"visib":"6+","altim":1010,"clouds":[],"obsTime":1774224000},"SBEG":{"icaoId":"SBEG","flightCategory":"VFR","rawOb":"METAR SBEG 230000Z 08002KT 9999 FEW030 28/26 Q1007","temp":28,"dewp":26,"wdir":80,"wspd":2,"visib":"6+","altim":1007,"clouds":[{"cover":"FEW","base":3000}],"obsTime":1774224000},"SBBV":{"icaoId":"SBBV","flightCategory":"VFR","rawOb":"METAR SBBV 230000Z 09011KT CAVOK 33/21 Q1007","temp":33,"dewp":21,"wdir":90,"wspd":11,"visib":"6+","altim":1007,"clouds":[],"obsTime":1774224000},"SBFI":{"icaoId":"SBFI","flightCategory":"VFR","rawOb":"METAR SBFI 230000Z 15004KT 9999 TS SCT030 FEW040CB BKN070 27/24 Q1011","temp":27,"dewp":24,"wdir":150,"wspd":4,"visib":"6+","altim":1011,"clouds":[{"cover":"SCT","base":3000},{"cover":"FEW","base":4000},{"cover":"BKN","base":7000}],"obsTime":1774224000},"SBMO":{"icaoId":"SBMO","flightCategory":"VFR","rawOb":"METAR SBMO 230000Z 04003KT 9999 FEW020 26/24 Q1013","temp":26,"dewp":24,"wdir":40,"wspd":3,"visib":"6+","altim":1013,"clouds":[{"cover":"FEW","base":2000}],"obsTime":1774224000},"SBFL":{"icaoId":"SBFL","flightCategory":"VFR","rawOb":"METAR SBFL 230000Z 12005KT 090V170 CAVOK 25/22 Q1013","temp":25,"dewp":22,"wdir":120,"wspd":5,"visib":"6+","altim":1013,"clouds":[],"obsTime":1774224000},"SBMQ":{"icaoId":"SBMQ","flightCategory":"VFR","rawOb":"METAR SBMQ 230000Z 02005KT 9999 SCT020 28/26 Q1010","temp":28,"dewp":26,"wdir":20,"wspd":5,"visib":"6+","altim":1010,"clouds":[{"cover":"SCT","base":2000}],"obsTime":1774224000},"SBKP":{"icaoId":"SBKP","flightCategory":"VFR","rawOb":"METAR SBKP 230000Z 12006KT CAVOK 25/18 Q1015","temp":25,"dewp":18,"wdir":120,"wspd":6,"visib":"6+","altim":1015,"clouds":[],"obsTime":1774224000},"SBBE":{"icaoId":"SBBE","flightCategory":"IFR","rawOb":"SPECI SBBE 222344Z 08012KT 3000 -TSRA BR BKN010 BKN030 FEW040CB 25/24 Q1011","temp":25,"dewp":24,"wdir":80,"wspd":12,"visib":1.86,"altim":1011,"clouds":[{"cover":"BKN","base":1000},{"cover":"BKN","base":3000},{"cover":"FEW","base":4000}],"obsTime":1774223040},"SBTE":{"icaoId":"SBTE","flightCategory":"VFR","rawOb":"METAR SBTE 230000Z 35005KT CAVOK 28/24 Q1010","temp":28,"dewp":24,"wdir":350,"wspd":5,"visib":"6+","altim":1010,"clouds":[],"obsTime":1774224000},"SBLO":{"icaoId":"SBLO","flightCategory":"VFR","rawOb":"METAR SBLO 230000Z 24003KT 200V270 9999 FEW025 FEW040TCU BKN090 24/20 Q1013","temp":24,"dewp":20,"wdir":240,"wspd":3,"visib":"6+","altim":1013,"clouds":[{"cover":"FEW","base":2500},{"cover":"FEW","base":4000},{"cover":"BKN","base":9000}],"obsTime":1774224000},"SBFZ":{"icaoId":"SBFZ","flightCategory":"VFR","rawOb":"METAR SBFZ 230000Z 07004KT CAVOK 28/24 Q1011","temp":28,"dewp":24,"wdir":70,"wspd":4,"visib":"6+","altim":1011,"clouds":[],"obsTime":1774224000},"SBPA":{"icaoId":"SBPA","flightCategory":"MVFR","rawOb":"METAR SBPA 230000Z 12004KT 090V150 9999 BKN019 24/21 Q1014","temp":24,"dewp":21,"wdir":120,"wspd":4,"visib":"6+","altim":1014,"clouds":[{"cover":"BKN","base":1900}],"obsTime":1774224000},"SBCF":{"icaoId":"SBCF","flightCategory":"VFR","rawOb":"METAR SBCF 230000Z 12010KT CAVOK 25/20 Q1015","temp":25,"dewp":20,"wdir":120,"wspd":10,"visib":"6+","altim":1015,"clouds":[],"obsTime":1774224000},"SBPJ":{"icaoId":"SBPJ","flightCategory":"VFR","rawOb":"METAR SBPJ 230000Z 15002KT 9999 SCT030 SCT090 27/25 Q1011","temp":27,"dewp":25,"wdir":150,"wspd":2,"visib":"6+","altim":1011,"clouds":[{"cover":"SCT","base":3000},{"cover":"SCT","base":9000}],"obsTime":1774224000},"SBGL":{"icaoId":"SBGL","flightCategory":"VFR","rawOb":"METAR SBGL 230000Z COR 15005KT 9999 FEW033 BKN050 25/21 Q1013","temp":25,"dewp":21,"wdir":150,"wspd":5,"visib":"6+","altim":1013,"clouds":[{"cover":"FEW","base":3300},{"cover":"BKN","base":5000}],"obsTime":1774224000},"SBPV":{"icaoId":"SBPV","flightCategory":"VFR","rawOb":"METAR SBPV 230000Z 00000KT 9999 FEW035 FEW040TCU 28/23 Q1007","temp":28,"dewp":23,"wdir":0,"wspd":0,"visib":"6+","altim":1007,"clouds":[{"cover":"FEW","base":3500},{"cover":"FEW","base":4000}],"obsTime":1774224000},"SBGO":{"icaoId":"SBGO","flightCategory":"VFR","rawOb":"METAR SBGO 230000Z 29003KT 9999 FEW048 26/21 Q1014","temp":26,"dewp":21,"wdir":290,"wspd":3,"visib":"6+","altim":1014,"clouds":[{"cover":"FEW","base":4800}],"obsTime":1774224000},"SBRB":{"icaoId":"SBRB","flightCategory":"MVFR","rawOb":"METAR SBRB 230000Z 00000KT 8000 FEW020 SCT100 22/22 Q1008","temp":22,"dewp":22,"wdir":0,"wspd":0,"visib":4.97,"altim":1008,"clouds":[{"cover":"FEW","base":2000},{"cover":"SCT","base":10000}],"obsTime":1774224000},"SBRF":{"icaoId":"SBRF","flightCategory":"VFR","rawOb":"METAR SBRF 230000Z 08008KT 9999 SCT021 29/24 Q1012","temp":29,"dewp":24,"wdir":80,"wspd":8,"visib":"6+","altim":1012,"clouds":[{"cover":"SCT","base":2100}],"obsTime":1774224000},"SBCG":{"icaoId":"SBCG","flightCategory":"VFR","rawOb":"METAR SBCG 230000Z 08002KT 9999 FEW040 SCT100 25/22 Q1012","temp":25,"dewp":22,"wdir":80,"wspd":2,"visib":"6+","altim":1012,"clouds":[{"cover":"FEW","base":4000},{"cover":"SCT","base":10000}],"obsTime":1774224000},"SBSG":{"icaoId":"SBSG","flightCategory":"VFR","rawOb":"METAR SBSG 230000Z 09008KT 9999 FEW027 28/24 Q1013","temp":28,"dewp":24,"wdir":90,"wspd":8,"visib":"6+","altim":1013,"clouds":[{"cover":"FEW","base":2700}],"obsTime":1774224000},"SBSL":{"icaoId":"SBSL","flightCategory":"VFR","rawOb":"METAR SBSL 230000Z 04008KT 9999 SCT013 SCT100 27/25 Q1010","temp":27,"dewp":25,"wdir":40,"wspd":8,"visib":"6+","altim":1010,"clouds":[{"cover":"SCT","base":1300},{"cover":"SCT","base":10000}],"obsTime":1774224000},"SBGR":{"icaoId":"SBGR","flightCategory":"VFR","rawOb":"METAR SBGR 230000Z 07007KT CAVOK 22/17 Q1016","temp":22,"dewp":17,"wdir":70,"wspd":7,"visib":"6+","altim":1016,"clouds":[],"obsTime":1774224000},"SBVT":{"icaoId":"SBVT","flightCategory":"VFR","rawOb":"METAR SBVT 230000Z 23005KT 9999 FEW023 BKN100 26/23 Q1012","temp":26,"dewp":23,"wdir":230,"wspd":5,"visib":"6+","altim":1012,"clouds":[{"cover":"FEW","base":2300},{"cover":"BKN","base":10000}],"obsTime":1774224000},"SBSN":{"icaoId":"SBSN","flightCategory":"VFR","rawOb":"METAR SBSN 230000Z 11004KT CAVOK 28/24 Q1008","temp":28,"dewp":24,"wdir":110,"wspd":4,"visib":"6+","altim":1008,"clouds":[],"obsTime":1774224000},"SBCT":{"icaoId":"SBCT","flightCategory":"MVFR","rawOb":"SPECI SBCT 222335Z 13005KT 9999 SCT020 BKN030 21/21 Q1018 RETS","temp":21,"dewp":21,"wdir":130,"wspd":5,"visib":"6+","altim":1018,"clouds":[{"cover":"SCT","base":2000},{"cover":"BKN","base":3000}],"obsTime":1774222500},"SBSP":{"icaoId":"SBSP","flightCategory":"VFR","rawOb":"METAR SBSP 230000Z 15002KT CAVOK 23/14 Q1017","temp":23,"dewp":14,"wdir":150,"wspd":2,"visib":"6+","altim":1017,"clouds":[],"obsTime":1774224000},"SBSV":{"icaoId":"SBSV","flightCategory":"VFR","rawOb":"METAR SBSV 230000Z 05011KT CAVOK 28/22 Q1011","temp":28,"dewp":22,"wdir":50,"wspd":11,"visib":"6+","altim":1011,"clouds":[],"obsTime":1774224000},"SBUL":{"icaoId":"SBUL","flightCategory":"VFR","rawOb":"METAR SBUL 230000Z 19011KT 9999 FEW030 25/12 Q1016","temp":25,"dewp":12,"wdir":190,"wspd":11,"visib":"6+","altim":1016,"clouds":[{"cover":"FEW","base":3000}],"obsTime":1774224000},"SBUR":{"icaoId":"SBUR","flightCategory":"VFR","rawOb":"METAR SBUR 230000Z 09003KT CAVOK 26/13 Q1015","temp":26,"dewp":13,"wdir":90,"wspd":3,"visib":"6+","altim":1015,"clouds":[],"obsTime":1774224000},"SBCZ":{"icaoId":"SBCZ","flightCategory":"VFR","rawOb":"METAR SBCZ 230000Z 21005KT 9999 FEW006 BKN090 23/22 Q1008","temp":23,"dewp":22,"wdir":210,"wspd":5,"visib":"6+","altim":1008,"clouds":[{"cover":"FEW","base":600},{"cover":"BKN","base":9000}],"obsTime":1774224000},"SBIL":{"icaoId":"SBIL","flightCategory":"VFR","rawOb":"METAR SBIL 230000Z 08008KT 9999 SCT020 FEW025TCU BKN080 29/24 Q1012","temp":29,"dewp":24,"wdir":80,"wspd":8,"visib":"6+","altim":1012,"clouds":[{"cover":"SCT","base":2000},{"cover":"FEW","base":2500},{"cover":"BKN","base":8000}],"obsTime":1774224000},"SBJU":{"icaoId":"SBJU","flightCategory":"MVFR","rawOb":"METAR SBJU 230000Z 00000KT 9999 BKN020 26/24 Q1013","temp":26,"dewp":24,"wdir":0,"wspd":0,"visib":"6+","altim":1013,"clouds":[{"cover":"BKN","base":2000}],"obsTime":1774224000},"SBME":{"icaoId":"SBME","flightCategory":"MVFR","rawOb":"METAR SBME 230000Z 32004KT 9999 BKN021 OVC080 25/23 Q1013","temp":25,"dewp":23,"wdir":320,"wspd":4,"visib":"6+","altim":1013,"clouds":[{"cover":"BKN","base":2100},{"cover":"OVC","base":8000}],"obsTime":1774224000},"SBMG":{"icaoId":"SBMG","flightCategory":"VFR","rawOb":"METAR SBMG 230000Z 03008KT CAVOK 23/20 Q1011","temp":23,"dewp":20,"wdir":30,"wspd":8,"visib":"6+","altim":1011,"clouds":[],"obsTime":1774224000},"SBMK":{"icaoId":"SBMK","flightCategory":"VFR","rawOb":"METAR SBMK 230000Z 03004KT CAVOK 23/21 Q1014","temp":23,"dewp":21,"wdir":30,"wspd":4,"visib":"6+","altim":1014,"clouds":[],"obsTime":1774224000},"SBNT":{"icaoId":"SBNT","flightCategory":"VFR","rawOb":"METAR SBNT 230000Z 08005KT 9999 SCT019 28/24 Q1012","temp":28,"dewp":24,"wdir":80,"wspd":5,"visib":"6+","altim":1012,"clouds":[{"cover":"SCT","base":1900}],"obsTime":1774224000},"SBOI":{"icaoId":"SBOI","flightCategory":"VFR","rawOb":"METAR SBOI 230000Z AUTO 05002KT CAVOK 26/24 Q1011","temp":26,"dewp":24,"wdir":50,"wspd":2,"visib":"6+","altim":1011,"clouds":[],"obsTime":1774224000},"SBPS":{"icaoId":"SBPS","flightCategory":"VFR","rawOb":"SPECI SBPS 222307Z 15002KT 9999 TS SCT020 FEW025CB BKN100 26/25 Q1012","temp":26,"dewp":25,"wdir":150,"wspd":2,"visib":"6+","altim":1012,"clouds":[{"cover":"SCT","base":2000},{"cover":"FEW","base":2500},{"cover":"BKN","base":10000}],"obsTime":1774220820},"SBSJ":{"icaoId":"SBSJ","flightCategory":"VFR","rawOb":"METAR SBSJ 230000Z 11009KT CAVOK 22/18 Q1016","temp":22,"dewp":18,"wdir":110,"wspd":9,"visib":"6+","altim":1016,"clouds":[],"obsTime":1774224000},"SBPL":{"icaoId":"SBPL","flightCategory":"VFR","rawOb":"METAR SBPL 230000Z 04010KT CAVOK 29/22 Q1012","temp":29,"dewp":22,"wdir":40,"wspd":10,"visib":"6+","altim":1012,"clouds":[],"obsTime":1774224000},"SBAR":{"icaoId":"SBAR","flightCategory":"VFR","rawOb":"METAR SBAR 230000Z 09011KT 9999 FEW020 28/24 Q1011","temp":28,"dewp":24,"wdir":90,"wspd":11,"visib":"6+","altim":1011,"clouds":[{"cover":"FEW","base":2000}],"obsTime":1774224000},"SBDN":{"icaoId":"SBDN","flightCategory":"VFR","rawOb":"METAR SBDN 230000Z 14005KT CAVOK 28/22 Q1012","temp":28,"dewp":22,"wdir":140,"wspd":5,"visib":"6+","altim":1012,"clouds":[],"obsTime":1774224000},"SBIP":{"icaoId":"SBIP","flightCategory":"VFR","rawOb":"METAR SBIP 230000Z AUTO VRB02KT CAVOK 23/23 Q1012","temp":23,"dewp":23,"wdir":"VRB","wspd":2,"visib":"6+","altim":1012,"clouds":[],"obsTime":1774224000},"SBKG":{"icaoId":"SBKG","flightCategory":"VFR","rawOb":"METAR SBKG 230000Z 08006KT 9999 VCTS SCT011 FEW025CB 24/23 Q1015","temp":24,"dewp":23,"wdir":80,"wspd":6,"visib":"6+","altim":1015,"clouds":[{"cover":"SCT","base":1100},{"cover":"FEW","base":2500}],"obsTime":1774224000},"SBSC":{"icaoId":"SBSC","flightCategory":"VFR","rawOb":"METAR SBSC 230000Z 12004KT 9999 FEW040 25/22 Q1013","temp":25,"dewp":22,"wdir":120,"wspd":4,"visib":"6+","altim":1013,"clouds":[{"cover":"FEW","base":4000}],"obsTime":1774224000},"SBSR":{"icaoId":"SBSR","flightCategory":"VFR","rawOb":"METAR SBSR 230000Z 17005KT CAVOK 29/18 Q1013","temp":29,"dewp":18,"wdir":170,"wspd":5,"visib":"6+","altim":1013,"clouds":[],"obsTime":1774224000},"SBAX":{"icaoId":"SBAX","flightCategory":"VFR","rawOb":"METAR SBAX 230000Z AUTO 17009KT CAVOK 23/09 Q1016","temp":23,"dewp":9,"wdir":170,"wspd":9,"visib":"6+","altim":1016,"clouds":[],"obsTime":1774224000},"SBBH":{"icaoId":"SBBH","flightCategory":"VFR","rawOb":"METAR SBBH 230000Z 06002KT CAVOK 24/20 Q1015","temp":24,"dewp":20,"wdir":60,"wspd":2,"visib":"6+","altim":1015,"clouds":[],"obsTime":1774224000},"SBBU":{"icaoId":"SBBU","flightCategory":"VFR","rawOb":"METAR SBBU 230000Z 07002KT CAVOK 30/20 Q1013","temp":30,"dewp":20,"wdir":70,"wspd":2,"visib":"6+","altim":1013,"clouds":[],"obsTime":1774224000},"SBCO":{"icaoId":"SBCO","flightCategory":"MVFR","rawOb":"METAR SBCO 230000Z 10004KT 9999 BKN017 OVC050 23/21 Q1014","temp":23,"dewp":21,"wdir":100,"wspd":4,"visib":"6+","altim":1014,"clouds":[{"cover":"BKN","base":1700},{"cover":"OVC","base":5000}],"obsTime":1774224000},"SBSM":{"icaoId":"SBSM","flightCategory":"MVFR","rawOb":"METAR SBSM 230000Z 11004KT 010V160 9999 OVC013 22/21 Q1012","temp":22,"dewp":21,"wdir":110,"wspd":4,"visib":"6+","altim":1012,"clouds":[{"cover":"OVC","base":1300}],"obsTime":1774224000},"SBJP":{"icaoId":"SBJP","flightCategory":"VFR","rawOb":"METAR SBJP 230000Z 08006KT 9999 FEW022 28/24 Q1012","temp":28,"dewp":24,"wdir":80,"wspd":6,"visib":"6+","altim":1012,"clouds":[{"cover":"FEW","base":2200}],"obsTime":1774224000},"SBAN":{"icaoId":"SBAN","flightCategory":"VFR","rawOb":"METAR SBAN 230000Z 34002KT 9999 SCT040 FEW045TCU 22/19 Q1018","temp":22,"dewp":19,"wdir":340,"wspd":2,"visib":"6+","altim":1018,"clouds":[{"cover":"SCT","base":4000},{"cover":"FEW","base":4500}],"obsTime":1774224000},"SBJR":{"icaoId":"SBJR","flightCategory":"VFR","rawOb":"METAR SBJR 230000Z 09004KT CAVOK 26/20 Q1013","temp":26,"dewp":20,"wdir":90,"wspd":4,"visib":"6+","altim":1013,"clouds":[],"obsTime":1774224000},"SBJV":{"icaoId":"SBJV","flightCategory":"MVFR","rawOb":"METAR SBJV 230000Z 00000KT 9999 SCT009 BKN020 26/25 Q1013","temp":26,"dewp":25,"wdir":0,"wspd":0,"visib":"6+","altim":1013,"clouds":[{"cover":"SCT","base":900},{"cover":"BKN","base":2000}],"obsTime":1774224000},"SBLE":{"icaoId":"SBLE","flightCategory":"VFR","rawOb":"METAR SBLE 230000Z AUTO 00000KT CAVOK 25/25 Q1014","temp":25,"dewp":25,"wdir":0,"wspd":0,"visib":"6+","altim":1014,"clouds":[],"obsTime":1774224000},"SBLS":{"icaoId":"SBLS","flightCategory":"VFR","rawOb":"METAR SBLS 230000Z 13007KT CAVOK 24/20 Q1015","temp":24,"dewp":20,"wdir":130,"wspd":7,"visib":"6+","altim":1015,"clouds":[],"obsTime":1774224000},"SBMT":{"icaoId":"SBMT","flightCategory":"VFR","rawOb":"METAR SBMT 230000Z 09004KT CAVOK 23/14 Q1016","temp":23,"dewp":14,"wdir":90,"wspd":4,"visib":"6+","altim":1016,"clouds":[],"obsTime":1774224000},"SBAF":{"icaoId":"SBAF","flightCategory":"VFR","rawOb":"METAR SBAF 230000Z 09005KT 050V120 9999 FEW020 SCT050 25/23 Q1013","temp":25,"dewp":23,"wdir":90,"wspd":5,"visib":"6+","altim":1013,"clouds":[{"cover":"FEW","base":2000},{"cover":"SCT","base":5000}],"obsTime":1774224000},"SBPF":{"icaoId":"SBPF","flightCategory":"VFR","rawOb":"METAR SBPF 230000Z AUTO 02004KT 340V060 9999 NSC 21/18 Q1016","temp":21,"dewp":18,"wdir":20,"wspd":4,"visib":"6+","altim":1016,"clouds":[],"obsTime":1774224000}}}