{"updated":1776365668,"count":86,"data":{"SBPV":{"icaoId":"SBPV","flightCategory":"VFR","rawOb":"METAR SBPV 161700Z 36004KT 9999 BKN035 32/26 Q1007","temp":32,"dewp":26,"wdir":360,"wspd":4,"visib":"6+","altim":1007,"clouds":[{"cover":"BKN","base":3500}],"obsTime":1776358800},"SBBE":{"icaoId":"SBBE","flightCategory":"VFR","rawOb":"METAR SBBE 161700Z 11008KT 9999 BKN035 FEW040TCU 32/24 Q1007","temp":32,"dewp":24,"wdir":110,"wspd":8,"visib":"6+","altim":1007,"clouds":[{"cover":"BKN","base":3500},{"cover":"FEW","base":4000}],"obsTime":1776358800},"SBBR":{"icaoId":"SBBR","flightCategory":"VFR","rawOb":"METAR SBBR 161700Z 07007KT 040V110 9999 SCT035 FEW040TCU BKN090 25/17 Q1015","temp":25,"dewp":17,"wdir":70,"wspd":7,"visib":"6+","altim":1015,"clouds":[{"cover":"SCT","base":3500},{"cover":"FEW","base":4000},{"cover":"BKN","base":9000}],"obsTime":1776358800},"SBBV":{"icaoId":"SBBV","flightCategory":"VFR","rawOb":"METAR SBBV 161700Z 10009KT 9999 SCT035 FEW040TCU 33/21 Q1009","temp":33,"dewp":21,"wdir":100,"wspd":9,"visib":"6+","altim":1009,"clouds":[{"cover":"SCT","base":3500},{"cover":"FEW","base":4000}],"obsTime":1776358800},"SBCB":{"icaoId":"SBCB","flightCategory":"VFR","rawOb":"METAR SBCB 161700Z 20008KT 9999 FEW020 27/21 Q1012","temp":27,"dewp":21,"wdir":200,"wspd":8,"visib":"6+","altim":1012,"clouds":[{"cover":"FEW","base":2000}],"obsTime":1776358800},"SBCF":{"icaoId":"SBCF","flightCategory":"VFR","rawOb":"METAR SBCF 161700Z 22005KT 180V260 9999 SCT040 27/14 Q1015","temp":27,"dewp":14,"wdir":220,"wspd":5,"visib":"6+","altim":1015,"clouds":[{"cover":"SCT","base":4000}],"obsTime":1776358800},"SBCG":{"icaoId":"SBCG","flightCategory":"VFR","rawOb":"METAR SBCG 161700Z 28008KT 9999 BKN035 30/22 Q1011","temp":30,"dewp":22,"wdir":280,"wspd":8,"visib":"6+","altim":1011,"clouds":[{"cover":"BKN","base":3500}],"obsTime":1776358800},"SBCP":{"icaoId":"SBCP","flightCategory":"MVFR","rawOb":"METAR SBCP 161700Z 05005KT 9999 BKN020 BKN090 25/23 Q1012","temp":25,"dewp":23,"wdir":50,"wspd":5,"visib":"6+","altim":1012,"clouds":[{"cover":"BKN","base":2000},{"cover":"BKN","base":9000}],"obsTime":1776358800},"SBCR":{"icaoId":"SBCR","flightCategory":"VFR","rawOb":"METAR SBCR 161700Z 32005KT 280V350 9999 FEW020 SCT030 30/23 Q1009","temp":30,"dewp":23,"wdir":320,"wspd":5,"visib":"6+","altim":1009,"clouds":[{"cover":"FEW","base":2000},{"cover":"SCT","base":3000}],"obsTime":1776358800},"SBCT":{"icaoId":"SBCT","flightCategory":"VFR","rawOb":"METAR SBCT 161700Z 34003KT 9999 SCT040 26/16 Q1015","temp":26,"dewp":16,"wdir":340,"wspd":3,"visib":"6+","altim":1015,"clouds":[{"cover":"SCT","base":4000}],"obsTime":1776358800},"SBCZ":{"icaoId":"SBCZ","flightCategory":"VFR","rawOb":"METAR SBCZ 161700Z 36005KT 9999 SCT020 OVC100 29/24 Q1010","temp":29,"dewp":24,"wdir":360,"wspd":5,"visib":"6+","altim":1010,"clouds":[{"cover":"SCT","base":2000},{"cover":"OVC","base":10000}],"obsTime":1776358800},"SBEG":{"icaoId":"SBEG","flightCategory":"VFR","rawOb":"METAR SBEG 161700Z 03007KT 9999 SCT020 31/24 Q1009","temp":31,"dewp":24,"wdir":30,"wspd":7,"visib":"6+","altim":1009,"clouds":[{"cover":"SCT","base":2000}],"obsTime":1776358800},"SBFI":{"icaoId":"SBFI","flightCategory":"MVFR","rawOb":"METAR SBFI 161700Z 34005KT 9999 VCSH BKN017 OVC030 26/22 Q1010","temp":26,"dewp":22,"wdir":340,"wspd":5,"visib":"6+","altim":1010,"clouds":[{"cover":"BKN","base":1700},{"cover":"OVC","base":3000}],"obsTime":1776358800},"SBFL":{"icaoId":"SBFL","flightCategory":"VFR","rawOb":"METAR SBFL 161700Z 36009KT 9999 FEW045 27/21 Q1011","temp":27,"dewp":21,"wdir":360,"wspd":9,"visib":"6+","altim":1011,"clouds":[{"cover":"FEW","base":4500}],"obsTime":1776358800},"SBFZ":{"icaoId":"SBFZ","flightCategory":"VFR","rawOb":"METAR SBFZ 161700Z 09011KT 060V120 9999 SCT025 BKN090 30/24 Q1007","temp":30,"dewp":24,"wdir":90,"wspd":11,"visib":"6+","altim":1007,"clouds":[{"cover":"SCT","base":2500},{"cover":"BKN","base":9000}],"obsTime":1776358800},"SBGL":{"icaoId":"SBGL","flightCategory":"VFR","rawOb":"METAR SBGL 161700Z 14009KT 9999 FEW030 28/21 Q1011","temp":28,"dewp":21,"wdir":140,"wspd":9,"visib":"6+","altim":1011,"clouds":[{"cover":"FEW","base":3000}],"obsTime":1776358800},"SBGO":{"icaoId":"SBGO","flightCategory":"VFR","rawOb":"METAR SBGO 161700Z 11004KT 080V150 9999 SCT048 29/19 Q1013","temp":29,"dewp":19,"wdir":110,"wspd":4,"visib":"6+","altim":1013,"clouds":[{"cover":"SCT","base":4800}],"obsTime":1776358800},"SBGR":{"icaoId":"SBGR","flightCategory":"VFR","rawOb":"METAR SBGR 161700Z 12004KT CAVOK 28/14 Q1015","temp":28,"dewp":14,"wdir":120,"wspd":4,"visib":"6+","altim":1015,"clouds":[],"obsTime":1776358800},"SBHT":{"icaoId":"SBHT","flightCategory":"MVFR","rawOb":"METAR SBHT 161700Z 09007KT 9999 BKN025 30/24 Q1008","temp":30,"dewp":24,"wdir":90,"wspd":7,"visib":"6+","altim":1008,"clouds":[{"cover":"BKN","base":2500}],"obsTime":1776358800},"SBIL":{"icaoId":"SBIL","flightCategory":"VFR","rawOb":"METAR SBIL 161700Z 16008KT 120V190 9999 FEW024 30/23 Q1010","temp":30,"dewp":23,"wdir":160,"wspd":8,"visib":"6+","altim":1010,"clouds":[{"cover":"FEW","base":2400}],"obsTime":1776358800},"SBJU":{"icaoId":"SBJU","flightCategory":"MVFR","rawOb":"METAR SBJU 161700Z 12005KT 9999 BKN022 30/20 Q1010","temp":30,"dewp":20,"wdir":120,"wspd":5,"visib":"6+","altim":1010,"clouds":[{"cover":"BKN","base":2200}],"obsTime":1776358800},"SBKP":{"icaoId":"SBKP","flightCategory":"VFR","rawOb":"METAR SBKP 161700Z VRB04KT 9999 FEW040 28/14 Q1014","temp":28,"dewp":14,"wdir":"VRB","wspd":4,"visib":"6+","altim":1014,"clouds":[{"cover":"FEW","base":4000}],"obsTime":1776358800},"SBLO":{"icaoId":"SBLO","flightCategory":"VFR","rawOb":"METAR SBLO 161700Z 02007KT 9999 FEW020 28/17 Q1013","temp":28,"dewp":17,"wdir":20,"wspd":7,"visib":"6+","altim":1013,"clouds":[{"cover":"FEW","base":2000}],"obsTime":1776358800},"SBMA":{"icaoId":"SBMA","flightCategory":"VFR","rawOb":"METAR SBMA 161700Z 01003KT 9999 SCT023 32/25 Q1007","temp":32,"dewp":25,"wdir":10,"wspd":3,"visib":"6+","altim":1007,"clouds":[{"cover":"SCT","base":2300}],"obsTime":1776358800},"SBME":{"icaoId":"SBME","flightCategory":"VFR","rawOb":"METAR SBME 161700Z 16006KT 9999 FEW025 28/22 Q1012","temp":28,"dewp":22,"wdir":160,"wspd":6,"visib":"6+","altim":1012,"clouds":[{"cover":"FEW","base":2500}],"obsTime":1776358800},"SBMG":{"icaoId":"SBMG","flightCategory":"VFR","rawOb":"METAR SBMG 161700Z 02011KT CAVOK 28/19 Q1011","temp":28,"dewp":19,"wdir":20,"wspd":11,"visib":"6+","altim":1011,"clouds":[],"obsTime":1776358800},"SBMK":{"icaoId":"SBMK","flightCategory":"VFR","rawOb":"METAR SBMK 161700Z 09005KT 9999 BKN040 29/15 Q1013","temp":29,"dewp":15,"wdir":90,"wspd":5,"visib":"6+","altim":1013,"clouds":[{"cover":"BKN","base":4000}],"obsTime":1776358800},"SBMO":{"icaoId":"SBMO","flightCategory":"VFR","rawOb":"METAR SBMO 161700Z 16011KT 9999 SCT030 29/24 Q1009","temp":29,"dewp":24,"wdir":160,"wspd":11,"visib":"6+","altim":1009,"clouds":[{"cover":"SCT","base":3000}],"obsTime":1776358800},"SBMQ":{"icaoId":"SBMQ","flightCategory":"MVFR","rawOb":"METAR SBMQ 161700Z 06006KT 9999 -RA FEW008 BKN010 OVC060 26/25 Q1008","temp":26,"dewp":25,"wdir":60,"wspd":6,"visib":"6+","altim":1008,"clouds":[{"cover":"FEW","base":800},{"cover":"BKN","base":1000},{"cover":"OVC","base":6000}],"obsTime":1776358800},"SBNT":{"icaoId":"SBNT","flightCategory":"VFR","rawOb":"METAR SBNT 161700Z 11009KT 080V140 9999 FEW025 31/23 Q1008","temp":31,"dewp":23,"wdir":110,"wspd":9,"visib":"6+","altim":1008,"clouds":[{"cover":"FEW","base":2500}],"obsTime":1776358800},"SBPA":{"icaoId":"SBPA","flightCategory":"VFR","rawOb":"METAR SBPA 161700Z 09004KT 9999 FEW035 SCT090 30/20 Q1007","temp":30,"dewp":20,"wdir":90,"wspd":4,"visib":"6+","altim":1007,"clouds":[{"cover":"FEW","base":3500},{"cover":"SCT","base":9000}],"obsTime":1776358800},"SBPJ":{"icaoId":"SBPJ","flightCategory":"MVFR","rawOb":"METAR SBPJ 161700Z 27004KT 9000 4000SE TSRA FEW010 SCT020 BKN030 FEW035CB 24/24 Q1010 RERA","temp":24,"dewp":24,"wdir":270,"wspd":4,"visib":5.59,"altim":1010,"clouds":[{"cover":"FEW","base":1000},{"cover":"SCT","base":2000},{"cover":"BKN","base":3000},{"cover":"FEW","base":3500}],"obsTime":1776358800},"SBAT":{"icaoId":"SBAT","flightCategory":"VFR","rawOb":"METAR SBAT 161700Z 00000KT 9999 VCSH BKN035 28/25 Q1009 RERA","temp":28,"dewp":25,"wdir":0,"wspd":0,"visib":"6+","altim":1009,"clouds":[{"cover":"BKN","base":3500}],"obsTime":1776358800},"SBRB":{"icaoId":"SBRB","flightCategory":"VFR","rawOb":"METAR SBRB 161700Z 34004KT 280V020 9999 FEW013 SCT030 BKN083 31/24 Q1010","temp":31,"dewp":24,"wdir":340,"wspd":4,"visib":"6+","altim":1010,"clouds":[{"cover":"FEW","base":1300},{"cover":"SCT","base":3000},{"cover":"BKN","base":8300}],"obsTime":1776358800},"SBRF":{"icaoId":"SBRF","flightCategory":"VFR","rawOb":"METAR SBRF 161700Z 15011KT 9999 SCT023 30/25 Q1008","temp":30,"dewp":25,"wdir":150,"wspd":11,"visib":"6+","altim":1008,"clouds":[{"cover":"SCT","base":2300}],"obsTime":1776358800},"SBSG":{"icaoId":"SBSG","flightCategory":"VFR","rawOb":"METAR SBSG 161700Z 12009KT 090V160 9999 SCT033 30/23 Q1008","temp":30,"dewp":23,"wdir":120,"wspd":9,"visib":"6+","altim":1008,"clouds":[{"cover":"SCT","base":3300}],"obsTime":1776358800},"SBSL":{"icaoId":"SBSL","flightCategory":"MVFR","rawOb":"METAR SBSL 161700Z 03012KT 9999 BKN025 29/24 Q1008","temp":29,"dewp":24,"wdir":30,"wspd":12,"visib":"6+","altim":1008,"clouds":[{"cover":"BKN","base":2500}],"obsTime":1776358800},"SBSN":{"icaoId":"SBSN","flightCategory":"VFR","rawOb":"METAR SBSN 161700Z 09011KT 9999 SCT035 FEW040TCU BKN080 30/25 Q1008","temp":30,"dewp":25,"wdir":90,"wspd":11,"visib":"6+","altim":1008,"clouds":[{"cover":"SCT","base":3500},{"cover":"FEW","base":4000},{"cover":"BKN","base":8000}],"obsTime":1776358800},"SBSP":{"icaoId":"SBSP","flightCategory":"VFR","rawOb":"METAR SBSP 161700Z 25004KT 190V340 9999 SCT040 27/11 Q1016","temp":27,"dewp":11,"wdir":250,"wspd":4,"visib":"6+","altim":1016,"clouds":[{"cover":"SCT","base":4000}],"obsTime":1776358800},"SBSV":{"icaoId":"SBSV","flightCategory":"VFR","rawOb":"METAR SBSV 161700Z 17009KT 140V220 9999 SCT023 30/23 Q1010","temp":30,"dewp":23,"wdir":170,"wspd":9,"visib":"6+","altim":1010,"clouds":[{"cover":"SCT","base":2300}],"obsTime":1776358800},"SBTE":{"icaoId":"SBTE","flightCategory":"VFR","rawOb":"METAR SBTE 161700Z 14006KT 9999 SCT030 32/24 Q1007","temp":32,"dewp":24,"wdir":140,"wspd":6,"visib":"6+","altim":1007,"clouds":[{"cover":"SCT","base":3000}],"obsTime":1776358800},"SBUL":{"icaoId":"SBUL","flightCategory":"VFR","rawOb":"METAR SBUL 161700Z 01004KT 9999 SCT030 27/15 Q1015","temp":27,"dewp":15,"wdir":10,"wspd":4,"visib":"6+","altim":1015,"clouds":[{"cover":"SCT","base":3000}],"obsTime":1776358800},"SBUR":{"icaoId":"SBUR","flightCategory":"VFR","rawOb":"METAR SBUR 161700Z 03002KT CAVOK 30/15 Q1014","temp":30,"dewp":15,"wdir":30,"wspd":2,"visib":"6+","altim":1014,"clouds":[],"obsTime":1776358800},"SBVT":{"icaoId":"SBVT","flightCategory":"VFR","rawOb":"METAR SBVT 161700Z 17014KT 9999 FEW040 SCT080 27/21 Q1011","temp":27,"dewp":21,"wdir":170,"wspd":14,"visib":"6+","altim":1011,"clouds":[{"cover":"FEW","base":4000},{"cover":"SCT","base":8000}],"obsTime":1776358800},"SBCC":{"icaoId":"SBCC","flightCategory":"MVFR","rawOb":"METAR SBCC 161700Z 34006KT 9999 BKN025 FEW035TCU BKN080 27/22 Q1011","temp":27,"dewp":22,"wdir":340,"wspd":6,"visib":"6+","altim":1011,"clouds":[{"cover":"BKN","base":2500},{"cover":"FEW","base":3500},{"cover":"BKN","base":8000}],"obsTime":1776358800},"SBBH":{"icaoId":"SBBH","flightCategory":"VFR","rawOb":"METAR SBBH 161700Z 20003KT 9999 SCT040 27/15 Q1015","temp":27,"dewp":15,"wdir":200,"wspd":3,"visib":"6+","altim":1015,"clouds":[{"cover":"SCT","base":4000}],"obsTime":1776358800},"SBOI":{"icaoId":"SBOI","flightCategory":"VFR","rawOb":"METAR SBOI 161700Z AUTO 04010KT 010V080 9999 FEW021 SCT027 30/25 Q1008","temp":30,"dewp":25,"wdir":40,"wspd":10,"visib":"6+","altim":1008,"clouds":[{"cover":"FEW","base":2100},{"cover":"SCT","base":2700}],"obsTime":1776358800},"SBAX":{"icaoId":"SBAX","flightCategory":"VFR","rawOb":"METAR SBAX 161700Z AUTO VRB05KT CAVOK 26/13 Q1016","temp":26,"dewp":13,"wdir":"VRB","wspd":5,"visib":"6+","altim":1016,"clouds":[],"obsTime":1776358800},"SBPB":{"icaoId":"SBPB","flightCategory":"VFR","rawOb":"METAR SBPB 161700Z 01009KT 9999 SCT020 FEW025TCU 30/24 Q1007","temp":30,"dewp":24,"wdir":10,"wspd":9,"visib":"6+","altim":1007,"clouds":[{"cover":"SCT","base":2000},{"cover":"FEW","base":2500}],"obsTime":1776358800},"SBPL":{"icaoId":"SBPL","flightCategory":"MVFR","rawOb":"METAR SBPL 161700Z 11009KT 9999 BKN030 33/20 Q1010","temp":33,"dewp":20,"wdir":110,"wspd":9,"visib":"6+","altim":1010,"clouds":[{"cover":"BKN","base":3000}],"obsTime":1776358800},"SBCJ":{"icaoId":"SBCJ","flightCategory":"MVFR","rawOb":"METAR SBCJ 161700Z 11006KT 9999 BKN021 28/23 Q1013","temp":28,"dewp":23,"wdir":110,"wspd":6,"visib":"6+","altim":1013,"clouds":[{"cover":"BKN","base":2100}],"obsTime":1776358800},"SBBQ":{"icaoId":"SBBQ","flightCategory":"VFR","rawOb":"METAR SBBQ 161700Z 11004KT 9999 SCT040 24/14 Q1018","temp":24,"dewp":14,"wdir":110,"wspd":4,"visib":"6+","altim":1018,"clouds":[{"cover":"SCT","base":4000}],"obsTime":1776358800},"SBPP":{"icaoId":"SBPP","flightCategory":"MVFR","rawOb":"METAR SBPP 161700Z 23009KT 9999 BKN015 26/22 Q1013","temp":26,"dewp":22,"wdir":230,"wspd":9,"visib":"6+","altim":1013,"clouds":[{"cover":"BKN","base":1500}],"obsTime":1776358800},"SBCO":{"icaoId":"SBCO","flightCategory":"VFR","rawOb":"METAR SBCO 161700Z 11007KT 9999 FEW040 30/21 Q1007","temp":30,"dewp":21,"wdir":110,"wspd":7,"visib":"6+","altim":1007,"clouds":[{"cover":"FEW","base":4000}],"obsTime":1776358800},"SBPS":{"icaoId":"SBPS","flightCategory":"VFR","rawOb":"METAR SBPS 161700Z 14006KT 090V220 9999 SCT020 28/22 Q1010","temp":28,"dewp":22,"wdir":140,"wspd":6,"visib":"6+","altim":1010,"clouds":[{"cover":"SCT","base":2000}],"obsTime":1776358800},"SBDN":{"icaoId":"SBDN","flightCategory":"VFR","rawOb":"METAR SBDN 161700Z 03004KT CAVOK 32/18 Q1012","temp":32,"dewp":18,"wdir":30,"wspd":4,"visib":"6+","altim":1012,"clouds":[],"obsTime":1776358800},"SBSC":{"icaoId":"SBSC","flightCategory":"VFR","rawOb":"METAR SBSC 161700Z 17010KT 9999 FEW030 27/21 Q1012","temp":27,"dewp":21,"wdir":170,"wspd":10,"visib":"6+","altim":1012,"clouds":[{"cover":"FEW","base":3000}],"obsTime":1776358800},"SBAR":{"icaoId":"SBAR","flightCategory":"VFR","rawOb":"METAR SBAR 161700Z 15010KT 9999 FEW025 29/24 Q1009","temp":29,"dewp":24,"wdir":150,"wspd":10,"visib":"6+","altim":1009,"clouds":[{"cover":"FEW","base":2500}],"obsTime":1776358800},"SBSJ":{"icaoId":"SBSJ","flightCategory":"VFR","rawOb":"METAR SBSJ 161700Z 01003KT 330V090 9999 FEW035 27/14 Q1014","temp":27,"dewp":14,"wdir":10,"wspd":3,"visib":"6+","altim":1014,"clouds":[{"cover":"FEW","base":3500}],"obsTime":1776358800},"SBSM":{"icaoId":"SBSM","flightCategory":"VFR","rawOb":"METAR SBSM 161700Z 32008KT 9999 SCT035 BKN045 26/19 Q1007","temp":26,"dewp":19,"wdir":320,"wspd":8,"visib":"6+","altim":1007,"clouds":[{"cover":"SCT","base":3500},{"cover":"BKN","base":4500}],"obsTime":1776358800},"SBBU":{"icaoId":"SBBU","flightCategory":"VFR","rawOb":"METAR SBBU 161700Z 05005KT CAVOK 29/17 Q1013","temp":29,"dewp":17,"wdir":50,"wspd":5,"visib":"6+","altim":1013,"clouds":[],"obsTime":1776358800},"SBSR":{"icaoId":"SBSR","flightCategory":"VFR","rawOb":"METAR SBSR 161700Z 02005KT 9999 SCT025 30/15 Q1012","temp":30,"dewp":15,"wdir":20,"wspd":5,"visib":"6+","altim":1012,"clouds":[{"cover":"SCT","base":2500}],"obsTime":1776358800},"SBES":{"icaoId":"SBES","flightCategory":"VFR","rawOb":"METAR SBES 161700Z 21007KT 100V250 9999 FEW020 26/// Q1012","temp":null,"dewp":null,"wdir":210,"wspd":7,"visib":"6+","altim":1012,"clouds":[{"cover":"FEW","base":2000}],"obsTime":1776358800},"SBCA":{"icaoId":"SBCA","flightCategory":"MVFR","rawOb":"METAR SBCA 161700Z 01012KT 9999 BKN025 24/20 Q1014","temp":24,"dewp":20,"wdir":10,"wspd":12,"visib":"6+","altim":1014,"clouds":[{"cover":"BKN","base":2500}],"obsTime":1776358800},"SBGM":{"icaoId":"SBGM","flightCategory":"VFR","rawOb":"METAR SBGM 161700Z 01003KT 9999 FEW013 BKN073 31/22 Q1009","temp":31,"dewp":22,"wdir":10,"wspd":3,"visib":"6+","altim":1009,"clouds":[{"cover":"FEW","base":1300},{"cover":"BKN","base":7300}],"obsTime":1776358800},"SBTF":{"icaoId":"SBTF","flightCategory":"VFR","rawOb":"METAR SBTF 161700Z 06008KT 9999 FEW018 33/25 Q1007","temp":33,"dewp":25,"wdir":60,"wspd":8,"visib":"6+","altim":1007,"clouds":[{"cover":"FEW","base":1800}],"obsTime":1776358800},"SBAU":{"icaoId":"SBAU","flightCategory":"VFR","rawOb":"METAR SBAU 161700Z 09006KT 9999 FEW040 33/17 Q1011","temp":33,"dewp":17,"wdir":90,"wspd":6,"visib":"6+","altim":1011,"clouds":[{"cover":"FEW","base":4000}],"obsTime":1776358800},"SBTT":{"icaoId":"SBTT","flightCategory":"VFR","rawOb":"METAR SBTT 161700Z 30004KT 9999 SCT017 SCT030 30/23 Q1009","temp":30,"dewp":23,"wdir":300,"wspd":4,"visib":"6+","altim":1009,"clouds":[{"cover":"SCT","base":1700},{"cover":"SCT","base":3000}],"obsTime":1776358800},"SBIP":{"icaoId":"SBIP","flightCategory":"VFR","rawOb":"METAR SBIP 161700Z AUTO 15003KT 090V210 CAVOK 31/16 Q1012","temp":31,"dewp":16,"wdir":150,"wspd":3,"visib":"6+","altim":1012,"clouds":[],"obsTime":1776358800},"SBUY":{"icaoId":"SBUY","flightCategory":"VFR","rawOb":"METAR SBUY 161700Z 16007KT 9999 SCT025 32/24 Q1007","temp":32,"dewp":24,"wdir":160,"wspd":7,"visib":"6+","altim":1007,"clouds":[{"cover":"SCT","base":2500}],"obsTime":1776358800},"SBKG":{"icaoId":"SBKG","flightCategory":"VFR","rawOb":"METAR SBKG 161700Z 11008KT 9999 SCT030 30/20 Q1011","temp":30,"dewp":20,"wdir":110,"wspd":8,"visib":"6+","altim":1011,"clouds":[{"cover":"SCT","base":3000}],"obsTime":1776358800},"SBVH":{"icaoId":"SBVH","flightCategory":"IFR","rawOb":"METAR SBVH 161700Z 20008KT 4000 TSRA BR BKN010 BKN025 FEW030CB BKN080 23/22 Q1012","temp":23,"dewp":22,"wdir":200,"wspd":8,"visib":2.49,"altim":1012,"clouds":[{"cover":"BKN","base":1000},{"cover":"BKN","base":2500},{"cover":"FEW","base":3000},{"cover":"BKN","base":8000}],"obsTime":1776358800},"SBTD":{"icaoId":"SBTD","flightCategory":"MVFR","rawOb":"METAR SBTD 161700Z /////KT 9999 BKN015 25/22 Q1012","temp":25,"dewp":22,"wdir":null,"wspd":null,"visib":"6+","altim":1012,"clouds":[{"cover":"BKN","base":1500}],"obsTime":1776358800},"SBST":{"icaoId":"SBST","flightCategory":"VFR","rawOb":"METAR SBST 161700Z 18006KT 150V230 9999 SCT029 26/20 Q1012","temp":26,"dewp":20,"wdir":180,"wspd":6,"visib":"6+","altim":1012,"clouds":[{"cover":"SCT","base":2900}],"obsTime":1776358800},"SBJV":{"icaoId":"SBJV","flightCategory":"VFR","rawOb":"METAR SBJV 161700Z 05008KT 9999 FEW030 29/21 Q1011","temp":29,"dewp":21,"wdir":50,"wspd":8,"visib":"6+","altim":1011,"clouds":[{"cover":"FEW","base":3000}],"obsTime":1776358800},"SBTA":{"icaoId":"SBTA","flightCategory":"VFR","rawOb":"METAR SBTA 161700Z VRB04KT 9999 FEW035 28/10 Q1013","temp":28,"dewp":10,"wdir":"VRB","wspd":4,"visib":"6+","altim":1013,"clouds":[{"cover":"FEW","base":3500}],"obsTime":1776358800},"SBLE":{"icaoId":"SBLE","flightCategory":"VFR","rawOb":"METAR SBLE 161700Z AUTO 17005KT 120V280 9999 FEW034 SCT041 27/19 Q1012","temp":27,"dewp":19,"wdir":170,"wspd":5,"visib":"6+","altim":1012,"clouds":[{"cover":"FEW","base":3400},{"cover":"SCT","base":4100}],"obsTime":1776358800},"SBJP":{"icaoId":"SBJP","flightCategory":"VFR","rawOb":"METAR SBJP 161700Z 11012KT 9999 SCT030 31/23 Q1008","temp":31,"dewp":23,"wdir":110,"wspd":12,"visib":"6+","altim":1008,"clouds":[{"cover":"SCT","base":3000}],"obsTime":1776358800},"SBAN":{"icaoId":"SBAN","flightCategory":"VFR","rawOb":"METAR SBAN 161700Z 11005KT 070V160 9999 BKN035 FEW040TCU BKN070 26/18 Q1016","temp":26,"dewp":18,"wdir":110,"wspd":5,"visib":"6+","altim":1016,"clouds":[{"cover":"BKN","base":3500},{"cover":"FEW","base":4000},{"cover":"BKN","base":7000}],"obsTime":1776358800},"SBIH":{"icaoId":"SBIH","flightCategory":"VFR","rawOb":"METAR SBIH 161700Z 05008KT 9999 SCT020 32/25 Q1008","temp":32,"dewp":25,"wdir":50,"wspd":8,"visib":"6+","altim":1008,"clouds":[{"cover":"SCT","base":2000}],"obsTime":1776358800},"SBAF":{"icaoId":"SBAF","flightCategory":"VFR","rawOb":"METAR SBAF 161700Z 20010KT 9999 FEW024 SCT050 28/22 Q1012","temp":28,"dewp":22,"wdir":200,"wspd":10,"visib":"6+","altim":1012,"clouds":[{"cover":"FEW","base":2400},{"cover":"SCT","base":5000}],"obsTime":1776358800},"SBGW":{"icaoId":"SBGW","flightCategory":"VFR","rawOb":"METAR SBGW 161700Z 34004KT 9999 FEW030 29/13 Q1013","temp":29,"dewp":13,"wdir":340,"wspd":4,"visib":"6+","altim":1013,"clouds":[{"cover":"FEW","base":3000}],"obsTime":1776358800},"SBJR":{"icaoId":"SBJR","flightCategory":"VFR","rawOb":"METAR SBJR 161700Z 19007KT 9999 FEW025 28/22 Q1012","temp":28,"dewp":22,"wdir":190,"wspd":7,"visib":"6+","altim":1012,"clouds":[{"cover":"FEW","base":2500}],"obsTime":1776358800},"SBNM":{"icaoId":"SBNM","flightCategory":"MVFR","rawOb":"METAR SBNM 161700Z 01008KT 9999 BKN020 24/19 Q1009","temp":24,"dewp":19,"wdir":10,"wspd":8,"visib":"6+","altim":1009,"clouds":[{"cover":"BKN","base":2000}],"obsTime":1776358800},"SBLS":{"icaoId":"SBLS","flightCategory":"VFR","rawOb":"METAR SBLS 161700Z VRB02KT 9999 SCT040 25/14 Q1015","temp":25,"dewp":14,"wdir":"VRB","wspd":2,"visib":"6+","altim":1015,"clouds":[{"cover":"SCT","base":4000}],"obsTime":1776358800},"SBMT":{"icaoId":"SBMT","flightCategory":"VFR","rawOb":"METAR SBMT 161700Z 28003KT 210V340 9999 SCT040 28/13 Q1014","temp":28,"dewp":13,"wdir":280,"wspd":3,"visib":"6+","altim":1014,"clouds":[{"cover":"SCT","base":4000}],"obsTime":1776358800}}}