{"updated":1782224036,"count":88,"data":{"SBMO":{"icaoId":"SBMO","flightCategory":"IFR","rawOb":"METAR SBMO 231300Z 09007KT 5000 -RA BR BKN008 24/23 Q1017","temp":24,"dewp":23,"wdir":90,"wspd":7,"visib":3.11,"altim":1017,"clouds":[{"cover":"BKN","base":800}],"obsTime":1782219600},"SBRF":{"icaoId":"SBRF","flightCategory":"MVFR","rawOb":"METAR SBRF 231300Z 18009KT 9000 VCSH FEW011 BKN020 BKN050 26/24 Q1015","temp":26,"dewp":24,"wdir":180,"wspd":9,"visib":5.59,"altim":1015,"clouds":[{"cover":"FEW","base":1100},{"cover":"BKN","base":2000},{"cover":"BKN","base":5000}],"obsTime":1782219600},"SBEG":{"icaoId":"SBEG","flightCategory":"VFR","rawOb":"METAR SBEG 231300Z 08004KT 040V140 9999 FEW015 29/24 Q1014","temp":29,"dewp":24,"wdir":80,"wspd":4,"visib":"6+","altim":1014,"clouds":[{"cover":"FEW","base":1500}],"obsTime":1782219600},"SBMA":{"icaoId":"SBMA","flightCategory":"VFR","rawOb":"METAR SBMA 231300Z 03005KT CAVOK 30/22 Q1014","temp":30,"dewp":22,"wdir":30,"wspd":5,"visib":"6+","altim":1014,"clouds":[],"obsTime":1782219600},"SBVT":{"icaoId":"SBVT","flightCategory":"VFR","rawOb":"METAR SBVT 231300Z 34007KT 290V020 CAVOK 26/18 Q1017","temp":26,"dewp":18,"wdir":340,"wspd":7,"visib":"6+","altim":1017,"clouds":[],"obsTime":1782219600},"SBME":{"icaoId":"SBME","flightCategory":"VFR","rawOb":"METAR SBME 231300Z 03008KT CAVOK 26/19 Q1013","temp":26,"dewp":19,"wdir":30,"wspd":8,"visib":"6+","altim":1013,"clouds":[],"obsTime":1782219600},"SBBE":{"icaoId":"SBBE","flightCategory":"VFR","rawOb":"METAR SBBE 231300Z 07007KT 9999 FEW020 30/24 Q1013","temp":30,"dewp":24,"wdir":70,"wspd":7,"visib":"6+","altim":1013,"clouds":[{"cover":"FEW","base":2000}],"obsTime":1782219600},"SBMG":{"icaoId":"SBMG","flightCategory":"VFR","rawOb":"METAR SBMG 231300Z 24008KT 9999 FEW010 BKN100 11/10 Q1018","temp":11,"dewp":10,"wdir":240,"wspd":8,"visib":"6+","altim":1018,"clouds":[{"cover":"FEW","base":1000},{"cover":"BKN","base":10000}],"obsTime":1782219600},"SBFI":{"icaoId":"SBFI","flightCategory":"IFR","rawOb":"SPECI SBFI 231231Z 21007KT 9000 OVC005 08/08 Q1022","temp":8,"dewp":8,"wdir":210,"wspd":7,"visib":5.59,"altim":1022,"clouds":[{"cover":"OVC","base":500}],"obsTime":1782217860},"SBMK":{"icaoId":"SBMK","flightCategory":"VFR","rawOb":"METAR SBMK 231300Z 07004KT CAVOK 22/13 Q1020","temp":22,"dewp":13,"wdir":70,"wspd":4,"visib":"6+","altim":1020,"clouds":[],"obsTime":1782219600},"SBFL":{"icaoId":"SBFL","flightCategory":"VFR","rawOb":"METAR SBFL 231300Z 08006KT 9999 FEW015 SCT030 BKN045 15/09 Q1017","temp":15,"dewp":9,"wdir":80,"wspd":6,"visib":"6+","altim":1017,"clouds":[{"cover":"FEW","base":1500},{"cover":"SCT","base":3000},{"cover":"BKN","base":4500}],"obsTime":1782219600},"SBCG":{"icaoId":"SBCG","flightCategory":"MVFR","rawOb":"METAR SBCG 231300Z 14009KT 110V170 9999 BKN010 BKN045 12/09 Q1020","temp":12,"dewp":9,"wdir":140,"wspd":9,"visib":"6+","altim":1020,"clouds":[{"cover":"BKN","base":1000},{"cover":"BKN","base":4500}],"obsTime":1782219600},"SBMQ":{"icaoId":"SBMQ","flightCategory":"MVFR","rawOb":"METAR SBMQ 231300Z 07008KT 9999 BKN019 30/26 Q1013","temp":30,"dewp":26,"wdir":70,"wspd":8,"visib":"6+","altim":1013,"clouds":[{"cover":"BKN","base":1900}],"obsTime":1782219600},"SBBV":{"icaoId":"SBBV","flightCategory":"VFR","rawOb":"METAR SBBV 231300Z 06007KT 9999 SCT030 FEW035TCU BKN070 29/23 Q1014","temp":29,"dewp":23,"wdir":60,"wspd":7,"visib":"6+","altim":1014,"clouds":[{"cover":"SCT","base":3000},{"cover":"FEW","base":3500},{"cover":"BKN","base":7000}],"obsTime":1782219600},"SBNT":{"icaoId":"SBNT","flightCategory":"VFR","rawOb":"METAR SBNT 231300Z 15012KT 9999 VCSH FEW015 SCT022 FEW027TCU BKN040 28/23 Q1014","temp":28,"dewp":23,"wdir":150,"wspd":12,"visib":"6+","altim":1014,"clouds":[{"cover":"FEW","base":1500},{"cover":"SCT","base":2200},{"cover":"FEW","base":2700},{"cover":"BKN","base":4000}],"obsTime":1782219600},"SBPA":{"icaoId":"SBPA","flightCategory":"VFR","rawOb":"METAR SBPA 231300Z 27012KT 9999 FEW013 09/06 Q1019","temp":9,"dewp":6,"wdir":270,"wspd":12,"visib":"6+","altim":1019,"clouds":[{"cover":"FEW","base":1300}],"obsTime":1782219600},"SBFZ":{"icaoId":"SBFZ","flightCategory":"MVFR","rawOb":"METAR SBFZ 231300Z 12012KT 9999 BKN020 30/23 Q1013","temp":30,"dewp":23,"wdir":120,"wspd":12,"visib":"6+","altim":1013,"clouds":[{"cover":"BKN","base":2000}],"obsTime":1782219600},"SBCP":{"icaoId":"SBCP","flightCategory":"VFR","rawOb":"METAR SBCP 231300Z 01011KT CAVOK 26/17 Q1015","temp":26,"dewp":17,"wdir":10,"wspd":11,"visib":"6+","altim":1015,"clouds":[],"obsTime":1782219600},"SBPJ":{"icaoId":"SBPJ","flightCategory":"VFR","rawOb":"METAR SBPJ 231300Z 24004KT CAVOK 28/19 Q1016","temp":28,"dewp":19,"wdir":240,"wspd":4,"visib":"6+","altim":1016,"clouds":[],"obsTime":1782219600},"SBPV":{"icaoId":"SBPV","flightCategory":"VFR","rawOb":"METAR SBPV 231300Z 15003KT CAVOK 28/23 Q1014","temp":28,"dewp":23,"wdir":150,"wspd":3,"visib":"6+","altim":1014,"clouds":[],"obsTime":1782219600},"SBGL":{"icaoId":"SBGL","flightCategory":"MVFR","rawOb":"SPECI SBGL 231220Z 30003KT 5000 HZ NSC 25/19 Q1014","temp":25,"dewp":19,"wdir":300,"wspd":3,"visib":3.11,"altim":1014,"clouds":[],"obsTime":1782217200},"SBRB":{"icaoId":"SBRB","flightCategory":"VFR","rawOb":"METAR SBRB 231300Z 05002KT CAVOK 25/24 Q1015","temp":25,"dewp":24,"wdir":50,"wspd":2,"visib":"6+","altim":1015,"clouds":[],"obsTime":1782219600},"SBUR":{"icaoId":"SBUR","flightCategory":"VFR","rawOb":"METAR SBUR 231300Z 33003KT CAVOK 22/13 Q1020","temp":22,"dewp":13,"wdir":330,"wspd":3,"visib":"6+","altim":1020,"clouds":[],"obsTime":1782219600},"SBCR":{"icaoId":"SBCR","flightCategory":"VFR","rawOb":"METAR SBCR 231300Z 20009KT 160V230 9999 FEW015 BKN055 16/11 Q1020","temp":16,"dewp":11,"wdir":200,"wspd":9,"visib":"6+","altim":1020,"clouds":[{"cover":"FEW","base":1500},{"cover":"BKN","base":5500}],"obsTime":1782219600},"SBGO":{"icaoId":"SBGO","flightCategory":"VFR","rawOb":"METAR SBGO 231300Z 32002KT CAVOK 24/16 Q1020","temp":24,"dewp":16,"wdir":320,"wspd":2,"visib":"6+","altim":1020,"clouds":[],"obsTime":1782219600},"SBSG":{"icaoId":"SBSG","flightCategory":"MVFR","rawOb":"METAR SBSG 231300Z 16005KT 100V210 9999 FEW009 BKN011 26/24 Q1015","temp":26,"dewp":24,"wdir":160,"wspd":5,"visib":"6+","altim":1015,"clouds":[{"cover":"FEW","base":900},{"cover":"BKN","base":1100}],"obsTime":1782219600},"SBSL":{"icaoId":"SBSL","flightCategory":"VFR","rawOb":"METAR SBSL 231300Z 09009KT 9999 SCT020 30/25 Q1013","temp":30,"dewp":25,"wdir":90,"wspd":9,"visib":"6+","altim":1013,"clouds":[{"cover":"SCT","base":2000}],"obsTime":1782219600},"SBCB":{"icaoId":"SBCB","flightCategory":"VFR","rawOb":"METAR SBCB 231300Z /////KT CAVOK 26/19 Q1014","temp":26,"dewp":19,"wdir":null,"wspd":null,"visib":"6+","altim":1014,"clouds":[],"obsTime":1782219600},"SBSN":{"icaoId":"SBSN","flightCategory":"VFR","rawOb":"METAR SBSN 231300Z 09008KT 9999 SCT013 29/26 Q1013","temp":29,"dewp":26,"wdir":90,"wspd":8,"visib":"6+","altim":1013,"clouds":[{"cover":"SCT","base":1300}],"obsTime":1782219600},"SBGR":{"icaoId":"SBGR","flightCategory":"VFR","rawOb":"METAR SBGR 231300Z 36009KT 9999 SCT040 19/17 Q1018","temp":19,"dewp":17,"wdir":360,"wspd":9,"visib":"6+","altim":1018,"clouds":[{"cover":"SCT","base":4000}],"obsTime":1782219600},"SBCT":{"icaoId":"SBCT","flightCategory":"MVFR","rawOb":"METAR SBCT 231300Z 30003KT 9999 OVC020 11/07 Q1019","temp":11,"dewp":7,"wdir":300,"wspd":3,"visib":"6+","altim":1019,"clouds":[{"cover":"OVC","base":2000}],"obsTime":1782219600},"SBSP":{"icaoId":"SBSP","flightCategory":"VFR","rawOb":"METAR SBSP 231300Z 01005KT CAVOK 19/18 Q1019","temp":19,"dewp":18,"wdir":10,"wspd":5,"visib":"6+","altim":1019,"clouds":[],"obsTime":1782219600},"SBHT":{"icaoId":"SBHT","flightCategory":"MVFR","rawOb":"METAR SBHT 231300Z 07002KT 9999 BKN015 28/25 Q1014","temp":28,"dewp":25,"wdir":70,"wspd":2,"visib":"6+","altim":1014,"clouds":[{"cover":"BKN","base":1500}],"obsTime":1782219600},"SBSV":{"icaoId":"SBSV","flightCategory":"MVFR","rawOb":"METAR SBSV 231300Z 08010KT 9000 VCSH FEW012 FEW025TCU BKN030 BKN060 25/22 Q1018","temp":25,"dewp":22,"wdir":80,"wspd":10,"visib":5.59,"altim":1018,"clouds":[{"cover":"FEW","base":1200},{"cover":"FEW","base":2500},{"cover":"BKN","base":3000},{"cover":"BKN","base":6000}],"obsTime":1782219600},"SBTE":{"icaoId":"SBTE","flightCategory":"MVFR","rawOb":"METAR SBTE 231300Z 28003KT 9999 BKN020 29/24 Q1013","temp":29,"dewp":24,"wdir":280,"wspd":3,"visib":"6+","altim":1013,"clouds":[{"cover":"BKN","base":2000}],"obsTime":1782219600},"SBAT":{"icaoId":"SBAT","flightCategory":"VFR","rawOb":"METAR SBAT 231300Z 00000KT CAVOK 30/24 Q1015","temp":30,"dewp":24,"wdir":0,"wspd":0,"visib":"6+","altim":1015,"clouds":[],"obsTime":1782219600},"SBIL":{"icaoId":"SBIL","flightCategory":"VFR","rawOb":"METAR SBIL 231300Z 23006KT 9999 FEW027 BKN070 27/20 Q1018","temp":27,"dewp":20,"wdir":230,"wspd":6,"visib":"6+","altim":1018,"clouds":[{"cover":"FEW","base":2700},{"cover":"BKN","base":7000}],"obsTime":1782219600},"SBUL":{"icaoId":"SBUL","flightCategory":"VFR","rawOb":"METAR SBUL 231300Z 07011KT CAVOK 22/13 Q1021","temp":22,"dewp":13,"wdir":70,"wspd":11,"visib":"6+","altim":1021,"clouds":[],"obsTime":1782219600},"SBBR":{"icaoId":"SBBR","flightCategory":"VFR","rawOb":"METAR SBBR 231300Z 07006KT CAVOK 23/14 Q1022","temp":23,"dewp":14,"wdir":70,"wspd":6,"visib":"6+","altim":1022,"clouds":[],"obsTime":1782219600},"SBJU":{"icaoId":"SBJU","flightCategory":"VFR","rawOb":"METAR SBJU 231300Z 24005KT 9999 FEW020 27/18 Q1017","temp":27,"dewp":18,"wdir":240,"wspd":5,"visib":"6+","altim":1017,"clouds":[{"cover":"FEW","base":2000}],"obsTime":1782219600},"SBCZ":{"icaoId":"SBCZ","flightCategory":"VFR","rawOb":"METAR SBCZ 231300Z 22001KT CAVOK 26/24 Q1015","temp":26,"dewp":24,"wdir":220,"wspd":1,"visib":"6+","altim":1015,"clouds":[],"obsTime":1782219600},"SBLO":{"icaoId":"SBLO","flightCategory":"MVFR","rawOb":"METAR SBLO 231300Z 22002KT 9999 BKN013 15/13 Q1017","temp":15,"dewp":13,"wdir":220,"wspd":2,"visib":"6+","altim":1017,"clouds":[{"cover":"BKN","base":1300}],"obsTime":1782219600},"SBKP":{"icaoId":"SBKP","flightCategory":"VFR","rawOb":"METAR SBKP 231300Z 04006KT 9000 -RA FEW030 BKN080 19/15 Q1018","temp":19,"dewp":15,"wdir":40,"wspd":6,"visib":5.59,"altim":1018,"clouds":[{"cover":"FEW","base":3000},{"cover":"BKN","base":8000}],"obsTime":1782219600},"SBCF":{"icaoId":"SBCF","flightCategory":"VFR","rawOb":"METAR SBCF 231300Z VRB02KT CAVOK 20/15 Q1022","temp":20,"dewp":15,"wdir":"VRB","wspd":2,"visib":"6+","altim":1022,"clouds":[],"obsTime":1782219600},"SBSM":{"icaoId":"SBSM","flightCategory":"VFR","rawOb":"METAR SBSM 231300Z 28009KT CAVOK 10/05 Q1020","temp":10,"dewp":5,"wdir":280,"wspd":9,"visib":"6+","altim":1020,"clouds":[],"obsTime":1782219600},"SBAR":{"icaoId":"SBAR","flightCategory":"IFR","rawOb":"METAR SBAR 231300Z 12007KT 090V170 2000 -RA SCT004 OVC009 24/23 Q1017","temp":24,"dewp":23,"wdir":120,"wspd":7,"visib":1.24,"altim":1017,"clouds":[{"cover":"SCT","base":400},{"cover":"OVC","base":900}],"obsTime":1782219600},"SBAU":{"icaoId":"SBAU","flightCategory":"LIFR","rawOb":"METAR SBAU 231300Z 27008KT 2000 BR BKN002 BKN010 18/17 Q1018","temp":18,"dewp":17,"wdir":270,"wspd":8,"visib":1.24,"altim":1018,"clouds":[{"cover":"BKN","base":200},{"cover":"BKN","base":1000}],"obsTime":1782219600},"SBAX":{"icaoId":"SBAX","flightCategory":"VFR","rawOb":"METAR SBAX 231300Z 05004KT CAVOK 20/14 Q1021","temp":20,"dewp":14,"wdir":50,"wspd":4,"visib":"6+","altim":1021,"clouds":[],"obsTime":1782219600},"SBBH":{"icaoId":"SBBH","flightCategory":"VFR","rawOb":"METAR SBBH 231300Z 11003KT CAVOK 21/14 Q1022","temp":21,"dewp":14,"wdir":110,"wspd":3,"visib":"6+","altim":1022,"clouds":[],"obsTime":1782219600},"SBBQ":{"icaoId":"SBBQ","flightCategory":"VFR","rawOb":"METAR SBBQ 231300Z 35005KT 310V040 CAVOK 20/13 Q1023","temp":20,"dewp":13,"wdir":350,"wspd":5,"visib":"6+","altim":1023,"clouds":[],"obsTime":1782219600},"SBBU":{"icaoId":"SBBU","flightCategory":"LIFR","rawOb":"METAR SBBU 231300Z 32006KT 2500 BR OVC003 20/20 Q1018","temp":20,"dewp":20,"wdir":320,"wspd":6,"visib":1.55,"altim":1018,"clouds":[{"cover":"OVC","base":300}],"obsTime":1782219600},"SBCA":{"icaoId":"SBCA","flightCategory":"VFR","rawOb":"METAR SBCA 231300Z 18011KT 9999 SCT004 SCT007 07/06 Q1021","temp":7,"dewp":6,"wdir":180,"wspd":11,"visib":"6+","altim":1021,"clouds":[{"cover":"SCT","base":400},{"cover":"SCT","base":700}],"obsTime":1782219600},"SBCC":{"icaoId":"SBCC","flightCategory":"VFR","rawOb":"METAR SBCC 231300Z 03004KT CAVOK 28/20 Q1016","temp":28,"dewp":20,"wdir":30,"wspd":4,"visib":"6+","altim":1016,"clouds":[],"obsTime":1782219600},"SBCJ":{"icaoId":"SBCJ","flightCategory":"VFR","rawOb":"METAR SBCJ 231300Z 03003KT CAVOK 27/20 Q1018","temp":27,"dewp":20,"wdir":30,"wspd":3,"visib":"6+","altim":1018,"clouds":[],"obsTime":1782219600},"SBCO":{"icaoId":"SBCO","flightCategory":"VFR","rawOb":"METAR SBCO 231300Z 28014KT 9999 SCT015 10/06 Q1019","temp":10,"dewp":6,"wdir":280,"wspd":14,"visib":"6+","altim":1019,"clouds":[{"cover":"SCT","base":1500}],"obsTime":1782219600},"SBDN":{"icaoId":"SBDN","flightCategory":"LIFR","rawOb":"METAR SBDN 231300Z 25003KT 5000 BR OVC003 13/12 Q1018","temp":13,"dewp":12,"wdir":250,"wspd":3,"visib":3.11,"altim":1018,"clouds":[{"cover":"OVC","base":300}],"obsTime":1782219600},"SBES":{"icaoId":"SBES","flightCategory":"VFR","rawOb":"METAR SBES 231300Z 05005KT 020V090 CAVOK 24/// Q1014","temp":null,"dewp":null,"wdir":50,"wspd":5,"visib":"6+","altim":1014,"clouds":[],"obsTime":1782219600},"SBGM":{"icaoId":"SBGM","flightCategory":"VFR","rawOb":"METAR SBGM 231300Z 30002KT CAVOK 28/23 Q1014","temp":28,"dewp":23,"wdir":300,"wspd":2,"visib":"6+","altim":1014,"clouds":[],"obsTime":1782219600},"SBIP":{"icaoId":"SBIP","flightCategory":"VFR","rawOb":"METAR SBIP 231300Z AUTO 03007KT 350V070 CAVOK 23/16 Q1020","temp":23,"dewp":16,"wdir":30,"wspd":7,"visib":"6+","altim":1020,"clouds":[],"obsTime":1782219600},"SBKG":{"icaoId":"SBKG","flightCategory":"VFR","rawOb":"METAR SBKG 231300Z 13009KT 9999 FEW020 SCT023 25/21 Q1017","temp":25,"dewp":21,"wdir":130,"wspd":9,"visib":"6+","altim":1017,"clouds":[{"cover":"FEW","base":2000},{"cover":"SCT","base":2300}],"obsTime":1782219600},"SBOI":{"icaoId":"SBOI","flightCategory":"VFR","rawOb":"METAR SBOI 231300Z AUTO VRB03KT 9999 FEW018 29/25 Q1014","temp":29,"dewp":25,"wdir":"VRB","wspd":3,"visib":"6+","altim":1014,"clouds":[{"cover":"FEW","base":1800}],"obsTime":1782219600},"SBPB":{"icaoId":"SBPB","flightCategory":"VFR","rawOb":"METAR SBPB 231300Z 10013KT 9999 FEW020 31/24 Q1013","temp":31,"dewp":24,"wdir":100,"wspd":13,"visib":"6+","altim":1013,"clouds":[{"cover":"FEW","base":2000}],"obsTime":1782219600},"SBPL":{"icaoId":"SBPL","flightCategory":"VFR","rawOb":"METAR SBPL 231300Z 11012KT CAVOK 27/15 Q1018","temp":27,"dewp":15,"wdir":110,"wspd":12,"visib":"6+","altim":1018,"clouds":[],"obsTime":1782219600},"SBPP":{"icaoId":"SBPP","flightCategory":"MVFR","rawOb":"METAR SBPP 231300Z 22013KT 9999 SCT005 BKN015 08/06 Q1021","temp":8,"dewp":6,"wdir":220,"wspd":13,"visib":"6+","altim":1021,"clouds":[{"cover":"SCT","base":500},{"cover":"BKN","base":1500}],"obsTime":1782219600},"SBPS":{"icaoId":"SBPS","flightCategory":"VFR","rawOb":"METAR SBPS 231300Z 15002KT 9999 SCT020 26/20 Q1018","temp":26,"dewp":20,"wdir":150,"wspd":2,"visib":"6+","altim":1018,"clouds":[{"cover":"SCT","base":2000}],"obsTime":1782219600},"SBSC":{"icaoId":"SBSC","flightCategory":"VFR","rawOb":"METAR SBSC 231300Z 35012KT CAVOK 27/18 Q1014","temp":27,"dewp":18,"wdir":350,"wspd":12,"visib":"6+","altim":1014,"clouds":[],"obsTime":1782219600},"SBSJ":{"icaoId":"SBSJ","flightCategory":"MVFR","rawOb":"METAR SBSJ 231300Z 00000KT 8000 FEW026 BKN100 20/15 Q1018","temp":20,"dewp":15,"wdir":0,"wspd":0,"visib":4.97,"altim":1018,"clouds":[{"cover":"FEW","base":2600},{"cover":"BKN","base":10000}],"obsTime":1782219600},"SBSR":{"icaoId":"SBSR","flightCategory":"IFR","rawOb":"METAR SBSR 231300Z 04003KT 6000 -DZ BKN006 OVC030 20/19 Q1018","temp":20,"dewp":19,"wdir":40,"wspd":3,"visib":3.73,"altim":1018,"clouds":[{"cover":"BKN","base":600},{"cover":"OVC","base":3000}],"obsTime":1782219600},"SBTD":{"icaoId":"SBTD","flightCategory":"VFR","rawOb":"METAR SBTD 231300Z /////KT 9999 SCT004 SCT025 10/06 Q1021","temp":10,"dewp":6,"wdir":null,"wspd":null,"visib":"6+","altim":1021,"clouds":[{"cover":"SCT","base":400},{"cover":"SCT","base":2500}],"obsTime":1782219600},"SBTF":{"icaoId":"SBTF","flightCategory":"VFR","rawOb":"METAR SBTF 231300Z 25003KT 9999 FEW007 BKN080 25/25 Q1014","temp":25,"dewp":25,"wdir":250,"wspd":3,"visib":"6+","altim":1014,"clouds":[{"cover":"FEW","base":700},{"cover":"BKN","base":8000}],"obsTime":1782219600},"SBTT":{"icaoId":"SBTT","flightCategory":"VFR","rawOb":"METAR SBTT 231300Z 01004KT 9999 FEW015 BKN100 27/24 Q1015","temp":27,"dewp":24,"wdir":10,"wspd":4,"visib":"6+","altim":1015,"clouds":[{"cover":"FEW","base":1500},{"cover":"BKN","base":10000}],"obsTime":1782219600},"SBTU":{"icaoId":"SBTU","flightCategory":"MVFR","rawOb":"METAR SBTU 231300Z AUTO 22006KT 9999 // FEW009/// BKN011/// ///// Q1015","temp":null,"dewp":null,"wdir":220,"wspd":6,"visib":"6+","altim":1015,"clouds":[{"cover":"FEW","base":900},{"cover":"BKN","base":1100}],"obsTime":1782219600},"SBUY":{"icaoId":"SBUY","flightCategory":"VFR","rawOb":"METAR SBUY 231300Z 02002KT 9999 SCT020 BKN080 26/25 Q1013","temp":26,"dewp":25,"wdir":20,"wspd":2,"visib":"6+","altim":1013,"clouds":[{"cover":"SCT","base":2000},{"cover":"BKN","base":8000}],"obsTime":1782219600},"SBVH":{"icaoId":"SBVH","flightCategory":"LIFR","rawOb":"METAR SBVH 231300Z 17007KT 1000 -DZ OVC003 21/21 Q1018","temp":21,"dewp":21,"wdir":170,"wspd":7,"visib":0.62,"altim":1018,"clouds":[{"cover":"OVC","base":300}],"obsTime":1782219600},"SBJP":{"icaoId":"SBJP","flightCategory":"MVFR","rawOb":"METAR SBJP 231300Z 13009KT 8000 VCSH BKN020 BKN070 28/24 Q1015","temp":28,"dewp":24,"wdir":130,"wspd":9,"visib":4.97,"altim":1015,"clouds":[{"cover":"BKN","base":2000},{"cover":"BKN","base":7000}],"obsTime":1782219600},"SBLE":{"icaoId":"SBLE","flightCategory":"VFR","rawOb":"METAR SBLE 231300Z AUTO 23003KT 150V320 CAVOK 22/16 Q1021","temp":22,"dewp":16,"wdir":230,"wspd":3,"visib":"6+","altim":1021,"clouds":[],"obsTime":1782219600},"SBAF":{"icaoId":"SBAF","flightCategory":"VFR","rawOb":"METAR SBAF 231300Z 31006KT CAVOK 28/17 Q1014","temp":28,"dewp":17,"wdir":310,"wspd":6,"visib":"6+","altim":1014,"clouds":[],"obsTime":1782219600},"SBGW":{"icaoId":"SBGW","flightCategory":"VFR","rawOb":"METAR SBGW 231300Z VRB01KT CAVOK 23/13 Q1018","temp":23,"dewp":13,"wdir":"VRB","wspd":1,"visib":"6+","altim":1018,"clouds":[],"obsTime":1782219600},"SBJR":{"icaoId":"SBJR","flightCategory":"VFR","rawOb":"METAR SBJR 231300Z 03010KT CAVOK 30/16 Q1013","temp":30,"dewp":16,"wdir":30,"wspd":10,"visib":"6+","altim":1013,"clouds":[],"obsTime":1782219600},"SBLS":{"icaoId":"SBLS","flightCategory":"VFR","rawOb":"METAR SBLS 231300Z 22003KT 140V240 CAVOK 20/14 Q1021","temp":20,"dewp":14,"wdir":220,"wspd":3,"visib":"6+","altim":1021,"clouds":[],"obsTime":1782219600},"SBMT":{"icaoId":"SBMT","flightCategory":"VFR","rawOb":"METAR SBMT 231300Z VRB03KT 9999 SCT030 19/19 Q1018","temp":19,"dewp":19,"wdir":"VRB","wspd":3,"visib":"6+","altim":1018,"clouds":[{"cover":"SCT","base":3000}],"obsTime":1782219600},"SBST":{"icaoId":"SBST","flightCategory":"MVFR","rawOb":"METAR SBST 231300Z 26004KT 7000 -RA OVC022 19/16 Q1017","temp":19,"dewp":16,"wdir":260,"wspd":4,"visib":4.35,"altim":1017,"clouds":[{"cover":"OVC","base":2200}],"obsTime":1782219600},"SBTA":{"icaoId":"SBTA","flightCategory":"VFR","rawOb":"METAR SBTA 231300Z 06003KT 9999 FEW020 SCT100 21/15 Q1018","temp":21,"dewp":15,"wdir":60,"wspd":3,"visib":"6+","altim":1018,"clouds":[{"cover":"FEW","base":2000},{"cover":"SCT","base":10000}],"obsTime":1782219600},"SBIH":{"icaoId":"SBIH","flightCategory":"VFR","rawOb":"METAR SBIH 231300Z 00000KT 9999 FEW010 29/25 Q1013","temp":29,"dewp":25,"wdir":0,"wspd":0,"visib":"6+","altim":1013,"clouds":[{"cover":"FEW","base":1000}],"obsTime":1782219600},"SBAN":{"icaoId":"SBAN","flightCategory":"VFR","rawOb":"METAR SBAN 231300Z 34002KT 9999 FEW020 25/14 Q1022","temp":25,"dewp":14,"wdir":340,"wspd":2,"visib":"6+","altim":1022,"clouds":[{"cover":"FEW","base":2000}],"obsTime":1782219600},"SBJV":{"icaoId":"SBJV","flightCategory":"VFR","rawOb":"METAR SBJV 231300Z 17006KT 9999 FEW015 OVC050 15/10 Q1017","temp":15,"dewp":10,"wdir":170,"wspd":6,"visib":"6+","altim":1017,"clouds":[{"cover":"FEW","base":1500},{"cover":"OVC","base":5000}],"obsTime":1782219600},"SBNM":{"icaoId":"SBNM","flightCategory":"VFR","rawOb":"METAR SBNM 231300Z 29004KT 9999 FEW030 09/05 Q1022","temp":9,"dewp":5,"wdir":290,"wspd":4,"visib":"6+","altim":1022,"clouds":[{"cover":"FEW","base":3000}],"obsTime":1782219600},"SBPF":{"icaoId":"SBPF","flightCategory":"VFR","rawOb":"METAR SBPF 231300Z 25006KT 9999 FEW003 SCT009 06/05 Q1021","temp":6,"dewp":5,"wdir":250,"wspd":6,"visib":"6+","altim":1021,"clouds":[{"cover":"FEW","base":300},{"cover":"SCT","base":900}],"obsTime":1782219600}}}