{"updated":1777801542,"count":64,"data":{"SBSG":{"icaoId":"SBSG","flightCategory":"VFR","rawOb":"METAR SBSG 030800Z 16003KT 130V190 9999 SCT020 24/23 Q1012","temp":24,"dewp":23,"wdir":160,"wspd":3,"visib":"6+","altim":1012,"clouds":[{"cover":"SCT","base":2000}],"obsTime":1777795200},"SBBE":{"icaoId":"SBBE","flightCategory":"MVFR","rawOb":"METAR SBBE 030800Z 12002KT 9999 SCT010 BKN015 FEW040TCU 24/24 Q1010","temp":24,"dewp":24,"wdir":120,"wspd":2,"visib":"6+","altim":1010,"clouds":[{"cover":"SCT","base":1000},{"cover":"BKN","base":1500},{"cover":"FEW","base":4000}],"obsTime":1777795200},"SBBR":{"icaoId":"SBBR","flightCategory":"VFR","rawOb":"METAR SBBR 030800Z 23002KT CAVOK 21/17 Q1020","temp":21,"dewp":17,"wdir":230,"wspd":2,"visib":"6+","altim":1020,"clouds":[],"obsTime":1777795200},"SBBV":{"icaoId":"SBBV","flightCategory":"VFR","rawOb":"METAR SBBV 030800Z 12006KT 9999 SCT020 FEW035TCU BKN080 26/24 Q1011","temp":26,"dewp":24,"wdir":120,"wspd":6,"visib":"6+","altim":1011,"clouds":[{"cover":"SCT","base":2000},{"cover":"FEW","base":3500},{"cover":"BKN","base":8000}],"obsTime":1777795200},"SBCB":{"icaoId":"SBCB","flightCategory":"MVFR","rawOb":"METAR SBCB 030900Z 26011KT 8000 FEW008 SCT015 BKN040 24/21 Q1016","temp":24,"dewp":21,"wdir":260,"wspd":11,"visib":4.97,"altim":1016,"clouds":[{"cover":"FEW","base":800},{"cover":"SCT","base":1500},{"cover":"BKN","base":4000}],"obsTime":1777798800},"SBCF":{"icaoId":"SBCF","flightCategory":"VFR","rawOb":"METAR SBCF 030800Z 17001KT 9999 FEW020 SCT070 18/16 Q1019","temp":18,"dewp":16,"wdir":170,"wspd":1,"visib":"6+","altim":1019,"clouds":[{"cover":"FEW","base":2000},{"cover":"SCT","base":7000}],"obsTime":1777795200},"SBCG":{"icaoId":"SBCG","flightCategory":"VFR","rawOb":"METAR SBCG 030800Z 07011KT CAVOK 21/15 Q1016","temp":21,"dewp":15,"wdir":70,"wspd":11,"visib":"6+","altim":1016,"clouds":[],"obsTime":1777795200},"SBCT":{"icaoId":"SBCT","flightCategory":"IFR","rawOb":"METAR SBCT 030800Z 13003KT 3000 BR BKN009 14/14 Q1022","temp":14,"dewp":14,"wdir":130,"wspd":3,"visib":1.86,"altim":1022,"clouds":[{"cover":"BKN","base":900}],"obsTime":1777795200},"SBEG":{"icaoId":"SBEG","flightCategory":"VFR","rawOb":"METAR SBEG 030800Z 10002KT 9999 SCT040 SCT090 25/24 Q1010","temp":25,"dewp":24,"wdir":100,"wspd":2,"visib":"6+","altim":1010,"clouds":[{"cover":"SCT","base":4000},{"cover":"SCT","base":9000}],"obsTime":1777795200},"SBFI":{"icaoId":"SBFI","flightCategory":"VFR","rawOb":"METAR SBFI 030800Z 19005KT 9999 FEW020 17/17 Q1018","temp":17,"dewp":17,"wdir":190,"wspd":5,"visib":"6+","altim":1018,"clouds":[{"cover":"FEW","base":2000}],"obsTime":1777795200},"SBFL":{"icaoId":"SBFL","flightCategory":"VFR","rawOb":"METAR SBFL 030800Z 16009KT 120V200 CAVOK 16/10 Q1021","temp":16,"dewp":10,"wdir":160,"wspd":9,"visib":"6+","altim":1021,"clouds":[],"obsTime":1777795200},"SBFZ":{"icaoId":"SBFZ","flightCategory":"MVFR","rawOb":"METAR SBFZ 030800Z 17006KT 6000 -RA SCT005 BKN017 OVC060 24/23 Q1012","temp":24,"dewp":23,"wdir":170,"wspd":6,"visib":3.73,"altim":1012,"clouds":[{"cover":"SCT","base":500},{"cover":"BKN","base":1700},{"cover":"OVC","base":6000}],"obsTime":1777795200},"SBGL":{"icaoId":"SBGL","flightCategory":"VFR","rawOb":"METAR SBGL 030800Z 22006KT 9000 -RA SCT025 BKN070 24/20 Q1016","temp":24,"dewp":20,"wdir":220,"wspd":6,"visib":5.59,"altim":1016,"clouds":[{"cover":"SCT","base":2500},{"cover":"BKN","base":7000}],"obsTime":1777795200},"SBGO":{"icaoId":"SBGO","flightCategory":"VFR","rawOb":"METAR SBGO 030800Z 13003KT CAVOK 20/17 Q1019","temp":20,"dewp":17,"wdir":130,"wspd":3,"visib":"6+","altim":1019,"clouds":[],"obsTime":1777795200},"SBGR":{"icaoId":"SBGR","flightCategory":"IFR","rawOb":"METAR SBGR 030800Z 05002KT 9999 OVC008 18/17 Q1021","temp":18,"dewp":17,"wdir":50,"wspd":2,"visib":"6+","altim":1021,"clouds":[{"cover":"OVC","base":800}],"obsTime":1777795200},"SBIL":{"icaoId":"SBIL","flightCategory":"VFR","rawOb":"SPECI SBIL 030805Z 30004KT 9999 FEW020 BKN070 24/24 Q1015","temp":24,"dewp":24,"wdir":300,"wspd":4,"visib":"6+","altim":1015,"clouds":[{"cover":"FEW","base":2000},{"cover":"BKN","base":7000}],"obsTime":1777795500},"SBJU":{"icaoId":"SBJU","flightCategory":"MVFR","rawOb":"METAR SBJU 030800Z 00000KT 8000 SCT010 BKN017 23/23 Q1015","temp":23,"dewp":23,"wdir":0,"wspd":0,"visib":4.97,"altim":1015,"clouds":[{"cover":"SCT","base":1000},{"cover":"BKN","base":1700}],"obsTime":1777795200},"SBKP":{"icaoId":"SBKP","flightCategory":"VFR","rawOb":"METAR SBKP 030800Z 13007KT CAVOK 18/16 Q1019","temp":18,"dewp":16,"wdir":130,"wspd":7,"visib":"6+","altim":1019,"clouds":[],"obsTime":1777795200},"SBLO":{"icaoId":"SBLO","flightCategory":"VFR","rawOb":"METAR SBLO 030800Z 19004KT 9999 FEW020 17/16 Q1018","temp":17,"dewp":16,"wdir":190,"wspd":4,"visib":"6+","altim":1018,"clouds":[{"cover":"FEW","base":2000}],"obsTime":1777795200},"SBMA":{"icaoId":"SBMA","flightCategory":"VFR","rawOb":"METAR SBMA 030800Z 00000KT 9999 FEW010 BKN080 24/24 Q1011","temp":24,"dewp":24,"wdir":0,"wspd":0,"visib":"6+","altim":1011,"clouds":[{"cover":"FEW","base":1000},{"cover":"BKN","base":8000}],"obsTime":1777795200},"SBME":{"icaoId":"SBME","flightCategory":"VFR","rawOb":"METAR SBME 030800Z 26007KT CAVOK 24/20 Q1015","temp":24,"dewp":20,"wdir":260,"wspd":7,"visib":"6+","altim":1015,"clouds":[],"obsTime":1777795200},"SBMG":{"icaoId":"SBMG","flightCategory":"LIFR","rawOb":"METAR SBMG 030800Z AUTO 15006KT 0450 R10/0500N FG VV001 16/16 Q1017","temp":16,"dewp":16,"wdir":150,"wspd":6,"visib":0.28,"altim":1017,"clouds":[{"cover":"OVX","base":100}],"obsTime":1777795200},"SBMK":{"icaoId":"SBMK","flightCategory":"VFR","rawOb":"METAR SBMK 030800Z 01002KT CAVOK 19/17 Q1018","temp":19,"dewp":17,"wdir":10,"wspd":2,"visib":"6+","altim":1018,"clouds":[],"obsTime":1777795200},"SBMO":{"icaoId":"SBMO","flightCategory":"VFR","rawOb":"METAR SBMO 030800Z 29004KT 9999 FEW020 22/22 Q1013","temp":22,"dewp":22,"wdir":290,"wspd":4,"visib":"6+","altim":1013,"clouds":[{"cover":"FEW","base":2000}],"obsTime":1777795200},"SBMQ":{"icaoId":"SBMQ","flightCategory":"VFR","rawOb":"METAR SBMQ 030800Z 01009KT 9999 -RA SCT006 BKN040 OVC050 25/24 Q1011","temp":25,"dewp":24,"wdir":10,"wspd":9,"visib":"6+","altim":1011,"clouds":[{"cover":"SCT","base":600},{"cover":"BKN","base":4000},{"cover":"OVC","base":5000}],"obsTime":1777795200},"SBNT":{"icaoId":"SBNT","flightCategory":"VFR","rawOb":"METAR SBNT 030800Z 16006KT 9999 SCT020 BKN045 24/23 Q1012","temp":24,"dewp":23,"wdir":160,"wspd":6,"visib":"6+","altim":1012,"clouds":[{"cover":"SCT","base":2000},{"cover":"BKN","base":4500}],"obsTime":1777795200},"SBPA":{"icaoId":"SBPA","flightCategory":"VFR","rawOb":"METAR SBPA 030800Z 21005KT CAVOK 12/04 Q1024","temp":12,"dewp":4,"wdir":210,"wspd":5,"visib":"6+","altim":1024,"clouds":[],"obsTime":1777795200},"SBPJ":{"icaoId":"SBPJ","flightCategory":"VFR","rawOb":"METAR SBPJ 030800Z 14004KT 9999 FEW025 SCT080 25/21 Q1012","temp":25,"dewp":21,"wdir":140,"wspd":4,"visib":"6+","altim":1012,"clouds":[{"cover":"FEW","base":2500},{"cover":"SCT","base":8000}],"obsTime":1777795200},"SBPV":{"icaoId":"SBPV","flightCategory":"VFR","rawOb":"METAR SBPV 030800Z 00000KT CAVOK 26/23 Q1011","temp":26,"dewp":23,"wdir":0,"wspd":0,"visib":"6+","altim":1011,"clouds":[],"obsTime":1777795200},"SBRB":{"icaoId":"SBRB","flightCategory":"VFR","rawOb":"METAR SBRB 030800Z 19001KT 9999 SCT002 24/24 Q1012","temp":24,"dewp":24,"wdir":190,"wspd":1,"visib":"6+","altim":1012,"clouds":[{"cover":"SCT","base":200}],"obsTime":1777795200},"SBRF":{"icaoId":"SBRF","flightCategory":"VFR","rawOb":"METAR SBRF 030800Z 23003KT 9999 SCT023 24/23 Q1012","temp":24,"dewp":23,"wdir":230,"wspd":3,"visib":"6+","altim":1012,"clouds":[{"cover":"SCT","base":2300}],"obsTime":1777795200},"SBSL":{"icaoId":"SBSL","flightCategory":"IFR","rawOb":"METAR SBSL 030800Z 11007KT 080V140 3000 RA BR SCT012 BKN020 FEW025TCU 24/23 Q1011 RERA","temp":24,"dewp":23,"wdir":110,"wspd":7,"visib":1.86,"altim":1011,"clouds":[{"cover":"SCT","base":1200},{"cover":"BKN","base":2000},{"cover":"FEW","base":2500}],"obsTime":1777795200},"SBSN":{"icaoId":"SBSN","flightCategory":"MVFR","rawOb":"METAR SBSN 030800Z 11006KT 070V130 5000 TSRA SCT007 SCT019 FEW023CB OVC090 24/24 Q1011","temp":24,"dewp":24,"wdir":110,"wspd":6,"visib":3.11,"altim":1011,"clouds":[{"cover":"SCT","base":700},{"cover":"SCT","base":1900},{"cover":"FEW","base":2300},{"cover":"OVC","base":9000}],"obsTime":1777795200},"SBSP":{"icaoId":"SBSP","flightCategory":"MVFR","rawOb":"SPECI SBSP 030749Z AUTO 16010KT 9999 -RA SCT008 BKN016 OVC023 18/17 Q1021","temp":18,"dewp":17,"wdir":160,"wspd":10,"visib":"6+","altim":1021,"clouds":[{"cover":"SCT","base":800},{"cover":"BKN","base":1600},{"cover":"OVC","base":2300}],"obsTime":1777794540},"SBSV":{"icaoId":"SBSV","flightCategory":"VFR","rawOb":"METAR SBSV 030800Z 16003KT 130V240 CAVOK 26/21 Q1014","temp":26,"dewp":21,"wdir":160,"wspd":3,"visib":"6+","altim":1014,"clouds":[],"obsTime":1777795200},"SBTE":{"icaoId":"SBTE","flightCategory":"VFR","rawOb":"METAR SBTE 030800Z 00000KT 9999 FEW012 BKN100 25/24 Q1010","temp":25,"dewp":24,"wdir":0,"wspd":0,"visib":"6+","altim":1010,"clouds":[{"cover":"FEW","base":1200},{"cover":"BKN","base":10000}],"obsTime":1777795200},"SBUL":{"icaoId":"SBUL","flightCategory":"VFR","rawOb":"METAR SBUL 030800Z 13007KT CAVOK 19/15 Q1020","temp":19,"dewp":15,"wdir":130,"wspd":7,"visib":"6+","altim":1020,"clouds":[],"obsTime":1777795200},"SBUR":{"icaoId":"SBUR","flightCategory":"VFR","rawOb":"METAR SBUR 030800Z 04004KT CAVOK 21/15 Q1018","temp":21,"dewp":15,"wdir":40,"wspd":4,"visib":"6+","altim":1018,"clouds":[],"obsTime":1777795200},"SBVT":{"icaoId":"SBVT","flightCategory":"VFR","rawOb":"METAR SBVT 030800Z 00000KT CAVOK 21/20 Q1014","temp":21,"dewp":20,"wdir":0,"wspd":0,"visib":"6+","altim":1014,"clouds":[],"obsTime":1777795200},"SBIP":{"icaoId":"SBIP","flightCategory":"LIFR","rawOb":"METAR SBIP 030800Z AUTO 32002KT 1200 BR VV002 19/19 Q1017","temp":19,"dewp":19,"wdir":320,"wspd":2,"visib":0.75,"altim":1017,"clouds":[{"cover":"OVX","base":200}],"obsTime":1777795200},"SBAR":{"icaoId":"SBAR","flightCategory":"MVFR","rawOb":"METAR SBAR 030800Z 15005KT 6000 -RA SCT017 BKN050 24/23 Q1013","temp":24,"dewp":23,"wdir":150,"wspd":5,"visib":3.73,"altim":1013,"clouds":[{"cover":"SCT","base":1700},{"cover":"BKN","base":5000}],"obsTime":1777795200},"SBPS":{"icaoId":"SBPS","flightCategory":"VFR","rawOb":"METAR SBPS 030800Z 28004KT 9999 SCT020 23/22 Q1015","temp":23,"dewp":22,"wdir":280,"wspd":4,"visib":"6+","altim":1015,"clouds":[{"cover":"SCT","base":2000}],"obsTime":1777795200},"SBDN":{"icaoId":"SBDN","flightCategory":"VFR","rawOb":"METAR SBDN 030800Z 11003KT CAVOK 18/14 Q1017","temp":18,"dewp":14,"wdir":110,"wspd":3,"visib":"6+","altim":1017,"clouds":[],"obsTime":1777795200},"SBSC":{"icaoId":"SBSC","flightCategory":"MVFR","rawOb":"METAR SBSC 030800Z 22007KT 8000 SCT020 BKN040 24/21 Q1016","temp":24,"dewp":21,"wdir":220,"wspd":7,"visib":4.97,"altim":1016,"clouds":[{"cover":"SCT","base":2000},{"cover":"BKN","base":4000}],"obsTime":1777795200},"SBSJ":{"icaoId":"SBSJ","flightCategory":"MVFR","rawOb":"SPECI SBSJ 030830Z 00000KT 8000 OVC022 18/16 Q1021","temp":18,"dewp":16,"wdir":0,"wspd":0,"visib":4.97,"altim":1021,"clouds":[{"cover":"OVC","base":2200}],"obsTime":1777797000},"SBSM":{"icaoId":"SBSM","flightCategory":"VFR","rawOb":"METAR SBSM 030900Z 00000KT 9999 MIFG NSC 05/05 Q1024","temp":5,"dewp":5,"wdir":0,"wspd":0,"visib":"6+","altim":1024,"clouds":[],"obsTime":1777798800},"SBES":{"icaoId":"SBES","flightCategory":"MVFR","rawOb":"METAR SBES 030900Z VRB06KT 5000 -RA BR FEW010 BKN040 21/// Q1017","temp":null,"dewp":null,"wdir":"VRB","wspd":6,"visib":3.11,"altim":1017,"clouds":[{"cover":"FEW","base":1000},{"cover":"BKN","base":4000}],"obsTime":1777798800},"SBSR":{"icaoId":"SBSR","flightCategory":"VFR","rawOb":"METAR SBSR 030800Z 05003KT CAVOK 21/13 Q1017","temp":21,"dewp":13,"wdir":50,"wspd":3,"visib":"6+","altim":1017,"clouds":[],"obsTime":1777795200},"SBPL":{"icaoId":"SBPL","flightCategory":"VFR","rawOb":"METAR SBPL 030800Z 11011KT CAVOK 24/20 Q1015","temp":24,"dewp":20,"wdir":110,"wspd":11,"visib":"6+","altim":1015,"clouds":[],"obsTime":1777795200},"SBOI":{"icaoId":"SBOI","flightCategory":"VFR","rawOb":"METAR SBOI 030800Z AUTO 00000KT 9999 // FEW021/// SCT065/// 24/24 Q1011","temp":24,"dewp":24,"wdir":0,"wspd":0,"visib":"6+","altim":1011,"clouds":[{"cover":"FEW","base":2100},{"cover":"SCT","base":6500}],"obsTime":1777795200},"SBCO":{"icaoId":"SBCO","flightCategory":"VFR","rawOb":"METAR SBCO 030900Z 22005KT CAVOK 10/05 Q1024","temp":10,"dewp":5,"wdir":220,"wspd":5,"visib":"6+","altim":1024,"clouds":[],"obsTime":1777798800},"SBAX":{"icaoId":"SBAX","flightCategory":"VFR","rawOb":"METAR SBAX 030800Z AUTO 05004KT CAVOK 16/16 Q1020","temp":16,"dewp":16,"wdir":50,"wspd":4,"visib":"6+","altim":1020,"clouds":[],"obsTime":1777795200},"SBBH":{"icaoId":"SBBH","flightCategory":"VFR","rawOb":"METAR SBBH 030900Z 11003KT CAVOK 17/15 Q1019","temp":17,"dewp":15,"wdir":110,"wspd":3,"visib":"6+","altim":1019,"clouds":[],"obsTime":1777798800},"SBKG":{"icaoId":"SBKG","flightCategory":"VFR","rawOb":"METAR SBKG 030800Z 15003KT 9999 FEW006 21/20 Q1015","temp":21,"dewp":20,"wdir":150,"wspd":3,"visib":"6+","altim":1015,"clouds":[{"cover":"FEW","base":600}],"obsTime":1777795200},"SBBU":{"icaoId":"SBBU","flightCategory":"VFR","rawOb":"METAR SBBU 030900Z 12007KT CAVOK 19/15 Q1019","temp":19,"dewp":15,"wdir":120,"wspd":7,"visib":"6+","altim":1019,"clouds":[],"obsTime":1777798800},"SBMT":{"icaoId":"SBMT","flightCategory":"MVFR","rawOb":"METAR SBMT 030900Z 11006KT 9999 FEW011 OVC013 18/16 Q1021","temp":18,"dewp":16,"wdir":110,"wspd":6,"visib":"6+","altim":1021,"clouds":[{"cover":"FEW","base":1100},{"cover":"OVC","base":1300}],"obsTime":1777798800},"SBPF":{"icaoId":"SBPF","flightCategory":"VFR","rawOb":"METAR SBPF 030900Z 16008KT CAVOK 08/05 Q1023","temp":8,"dewp":5,"wdir":160,"wspd":8,"visib":"6+","altim":1023,"clouds":[],"obsTime":1777798800},"SBLE":{"icaoId":"SBLE","flightCategory":"LIFR","rawOb":"METAR SBLE 030800Z AUTO 16003KT 130V200 9999 OVC002 ///// Q////","temp":null,"dewp":null,"wdir":160,"wspd":3,"visib":"6+","altim":null,"clouds":[{"cover":"OVC","base":200}],"obsTime":1777795200},"SBGW":{"icaoId":"SBGW","flightCategory":"MVFR","rawOb":"METAR SBGW 030900Z 21003KT 8000 FEW015 SCT070 18/14 Q1020","temp":18,"dewp":14,"wdir":210,"wspd":3,"visib":4.97,"altim":1020,"clouds":[{"cover":"FEW","base":1500},{"cover":"SCT","base":7000}],"obsTime":1777798800},"SBLS":{"icaoId":"SBLS","flightCategory":"VFR","rawOb":"METAR SBLS 030900Z 19004KT CAVOK 17/15 Q1019","temp":17,"dewp":15,"wdir":190,"wspd":4,"visib":"6+","altim":1019,"clouds":[],"obsTime":1777798800},"SBJP":{"icaoId":"SBJP","flightCategory":"MVFR","rawOb":"METAR SBJP 030800Z 23002KT 9999 BKN020 BKN070 24/23 Q1013","temp":24,"dewp":23,"wdir":230,"wspd":2,"visib":"6+","altim":1013,"clouds":[{"cover":"BKN","base":2000},{"cover":"BKN","base":7000}],"obsTime":1777795200},"SBTA":{"icaoId":"SBTA","flightCategory":"MVFR","rawOb":"METAR SBTA 030900Z 27003KT 8000 SCT015 BKN020 18/17 Q1020","temp":18,"dewp":17,"wdir":270,"wspd":3,"visib":4.97,"altim":1020,"clouds":[{"cover":"SCT","base":1500},{"cover":"BKN","base":2000}],"obsTime":1777798800},"SBAN":{"icaoId":"SBAN","flightCategory":"VFR","rawOb":"METAR SBAN 030800Z 17004KT CAVOK 19/14 Q1021","temp":19,"dewp":14,"wdir":170,"wspd":4,"visib":"6+","altim":1021,"clouds":[],"obsTime":1777795200},"SBJV":{"icaoId":"SBJV","flightCategory":"MVFR","rawOb":"METAR SBJV 030900Z 15006KT 9999 OVC020 20/17 Q1020","temp":20,"dewp":17,"wdir":150,"wspd":6,"visib":"6+","altim":1020,"clouds":[{"cover":"OVC","base":2000}],"obsTime":1777798800}}}