{"updated":1774159753,"count":49,"data":{"SBFI":{"icaoId":"SBFI","flightCategory":"VFR","rawOb":"METAR SBFI 220500Z 05002KT 9999 FEW035 25/25 Q1009","temp":25,"dewp":25,"wdir":50,"wspd":2,"visib":"6+","altim":1009,"clouds":[{"cover":"FEW","base":3500}],"obsTime":1774155600},"SBBE":{"icaoId":"SBBE","flightCategory":"VFR","rawOb":"METAR SBBE 220500Z 06005KT 9999 FEW036 26/24 Q1010","temp":26,"dewp":24,"wdir":60,"wspd":5,"visib":"6+","altim":1010,"clouds":[{"cover":"FEW","base":3600}],"obsTime":1774155600},"SBBR":{"icaoId":"SBBR","flightCategory":"MVFR","rawOb":"METAR SBBR 220500Z 02003KT 9999 BKN010 21/20 Q1018","temp":21,"dewp":20,"wdir":20,"wspd":3,"visib":"6+","altim":1018,"clouds":[{"cover":"BKN","base":1000}],"obsTime":1774155600},"SBBV":{"icaoId":"SBBV","flightCategory":"VFR","rawOb":"METAR SBBV 220500Z 11007KT CAVOK 28/21 Q1009","temp":28,"dewp":21,"wdir":110,"wspd":7,"visib":"6+","altim":1009,"clouds":[],"obsTime":1774155600},"SBCF":{"icaoId":"SBCF","flightCategory":"VFR","rawOb":"METAR SBCF 220500Z 20002KT 9999 BCFG SCT025 20/19 Q1016","temp":20,"dewp":19,"wdir":200,"wspd":2,"visib":"6+","altim":1016,"clouds":[{"cover":"SCT","base":2500}],"obsTime":1774155600},"SBCG":{"icaoId":"SBCG","flightCategory":"VFR","rawOb":"METAR SBCG 220500Z 01005KT CAVOK 24/22 Q1013","temp":24,"dewp":22,"wdir":10,"wspd":5,"visib":"6+","altim":1013,"clouds":[],"obsTime":1774155600},"SBCT":{"icaoId":"SBCT","flightCategory":"LIFR","rawOb":"METAR SBCT 220500Z 05002KT 4000 BR BKN002 21/20 Q1017","temp":21,"dewp":20,"wdir":50,"wspd":2,"visib":2.49,"altim":1017,"clouds":[{"cover":"BKN","base":200}],"obsTime":1774155600},"SBEG":{"icaoId":"SBEG","flightCategory":"VFR","rawOb":"METAR SBEG 220500Z 09004KT CAVOK 28/24 Q1010","temp":28,"dewp":24,"wdir":90,"wspd":4,"visib":"6+","altim":1010,"clouds":[],"obsTime":1774155600},"SBFL":{"icaoId":"SBFL","flightCategory":"VFR","rawOb":"METAR SBFL 220500Z 25007KT 9999 SCT017 SCT030 27/23 Q1012","temp":27,"dewp":23,"wdir":250,"wspd":7,"visib":"6+","altim":1012,"clouds":[{"cover":"SCT","base":1700},{"cover":"SCT","base":3000}],"obsTime":1774155600},"SBFZ":{"icaoId":"SBFZ","flightCategory":"VFR","rawOb":"METAR SBFZ 220500Z VRB02KT 9999 SCT015 FEW025TCU BKN090 26/23 Q1010","temp":26,"dewp":23,"wdir":"VRB","wspd":2,"visib":"6+","altim":1010,"clouds":[{"cover":"SCT","base":1500},{"cover":"FEW","base":2500},{"cover":"BKN","base":9000}],"obsTime":1774155600},"SBGL":{"icaoId":"SBGL","flightCategory":"VFR","rawOb":"METAR SBGL 220500Z VRB02KT 9999 FEW009 23/21 Q1012","temp":23,"dewp":21,"wdir":"VRB","wspd":2,"visib":"6+","altim":1012,"clouds":[{"cover":"FEW","base":900}],"obsTime":1774155600},"SBGR":{"icaoId":"SBGR","flightCategory":"MVFR","rawOb":"METAR SBGR 220500Z 13002KT 5000 BR NSC 18/17 Q1016","temp":18,"dewp":17,"wdir":130,"wspd":2,"visib":3.11,"altim":1016,"clouds":[],"obsTime":1774155600},"SBKP":{"icaoId":"SBKP","flightCategory":"MVFR","rawOb":"METAR SBKP 220500Z 12007KT 8000 NSC 21/19 Q1015","temp":21,"dewp":19,"wdir":120,"wspd":7,"visib":4.97,"altim":1015,"clouds":[],"obsTime":1774155600},"SBLO":{"icaoId":"SBLO","flightCategory":"VFR","rawOb":"METAR SBLO 220500Z 11003KT CAVOK 25/21 Q1013","temp":25,"dewp":21,"wdir":110,"wspd":3,"visib":"6+","altim":1013,"clouds":[],"obsTime":1774155600},"SBMA":{"icaoId":"SBMA","flightCategory":"VFR","rawOb":"METAR SBMA 220500Z 26002KT CAVOK 25/24 Q1011","temp":25,"dewp":24,"wdir":260,"wspd":2,"visib":"6+","altim":1011,"clouds":[],"obsTime":1774155600},"SBMO":{"icaoId":"SBMO","flightCategory":"VFR","rawOb":"METAR SBMO 220500Z 01003KT 9999 FEW021 25/24 Q1012","temp":25,"dewp":24,"wdir":10,"wspd":3,"visib":"6+","altim":1012,"clouds":[{"cover":"FEW","base":2100}],"obsTime":1774155600},"SBMQ":{"icaoId":"SBMQ","flightCategory":"VFR","rawOb":"METAR SBMQ 220500Z 01003KT 9999 FEW005 26/25 Q1009","temp":26,"dewp":25,"wdir":10,"wspd":3,"visib":"6+","altim":1009,"clouds":[{"cover":"FEW","base":500}],"obsTime":1774155600},"SBPA":{"icaoId":"SBPA","flightCategory":"VFR","rawOb":"METAR SBPA 220500Z 33008KT 9999 SCT035 BKN050 24/22 Q1008","temp":24,"dewp":22,"wdir":330,"wspd":8,"visib":"6+","altim":1008,"clouds":[{"cover":"SCT","base":3500},{"cover":"BKN","base":5000}],"obsTime":1774155600},"SBPJ":{"icaoId":"SBPJ","flightCategory":"VFR","rawOb":"METAR SBPJ 220500Z 35002KT 9999 FEW017 SCT070 25/25 Q1012","temp":25,"dewp":25,"wdir":350,"wspd":2,"visib":"6+","altim":1012,"clouds":[{"cover":"FEW","base":1700},{"cover":"SCT","base":7000}],"obsTime":1774155600},"SBPV":{"icaoId":"SBPV","flightCategory":"VFR","rawOb":"METAR SBPV 220500Z 07002KT CAVOK 27/23 Q1008","temp":27,"dewp":23,"wdir":70,"wspd":2,"visib":"6+","altim":1008,"clouds":[],"obsTime":1774155600},"SBRB":{"icaoId":"SBRB","flightCategory":"VFR","rawOb":"METAR SBRB 220500Z 33004KT 9999 TS SCT008 FEW034CB SCT100 24/23 Q1009","temp":24,"dewp":23,"wdir":330,"wspd":4,"visib":"6+","altim":1009,"clouds":[{"cover":"SCT","base":800},{"cover":"FEW","base":3400},{"cover":"SCT","base":10000}],"obsTime":1774155600},"SBRF":{"icaoId":"SBRF","flightCategory":"MVFR","rawOb":"METAR SBRF 220500Z 07005KT 9999 BKN021 28/24 Q1011","temp":28,"dewp":24,"wdir":70,"wspd":5,"visib":"6+","altim":1011,"clouds":[{"cover":"BKN","base":2100}],"obsTime":1774155600},"SBSG":{"icaoId":"SBSG","flightCategory":"VFR","rawOb":"METAR SBSG 220500Z 22004KT 9999 FEW021 24/23 Q1011","temp":24,"dewp":23,"wdir":220,"wspd":4,"visib":"6+","altim":1011,"clouds":[{"cover":"FEW","base":2100}],"obsTime":1774155600},"SBSL":{"icaoId":"SBSL","flightCategory":"VFR","rawOb":"METAR SBSL 220500Z 16004KT CAVOK 25/23 Q1009","temp":25,"dewp":23,"wdir":160,"wspd":4,"visib":"6+","altim":1009,"clouds":[],"obsTime":1774155600},"SBSN":{"icaoId":"SBSN","flightCategory":"VFR","rawOb":"METAR SBSN 220500Z 16003KT CAVOK 24/23 Q1009","temp":24,"dewp":23,"wdir":160,"wspd":3,"visib":"6+","altim":1009,"clouds":[],"obsTime":1774155600},"SBSV":{"icaoId":"SBSV","flightCategory":"VFR","rawOb":"METAR SBSV 220500Z 06008KT 9999 SCT020 27/23 Q1011","temp":27,"dewp":23,"wdir":60,"wspd":8,"visib":"6+","altim":1011,"clouds":[{"cover":"SCT","base":2000}],"obsTime":1774155600},"SBVT":{"icaoId":"SBVT","flightCategory":"VFR","rawOb":"METAR SBVT 220500Z 30003KT 9999 FEW020 SCT080 22/22 Q1011","temp":22,"dewp":22,"wdir":300,"wspd":3,"visib":"6+","altim":1011,"clouds":[{"cover":"FEW","base":2000},{"cover":"SCT","base":8000}],"obsTime":1774155600},"SBTE":{"icaoId":"SBTE","flightCategory":"VFR","rawOb":"METAR SBTE 220500Z 00000KT 9999 SCT016 SCT090 25/24 Q1010","temp":25,"dewp":24,"wdir":0,"wspd":0,"visib":"6+","altim":1010,"clouds":[{"cover":"SCT","base":1600},{"cover":"SCT","base":9000}],"obsTime":1774155600},"SBME":{"icaoId":"SBME","flightCategory":"VFR","rawOb":"METAR SBME 220500Z 01003KT CAVOK 23/20 Q1012","temp":23,"dewp":20,"wdir":10,"wspd":3,"visib":"6+","altim":1012,"clouds":[],"obsTime":1774155600},"SBMG":{"icaoId":"SBMG","flightCategory":"VFR","rawOb":"METAR SBMG 220500Z AUTO 03009KT CAVOK 26/22 Q1012","temp":26,"dewp":22,"wdir":30,"wspd":9,"visib":"6+","altim":1012,"clouds":[],"obsTime":1774155600},"SBUL":{"icaoId":"SBUL","flightCategory":"VFR","rawOb":"METAR SBUL 220500Z 13004KT CAVOK 21/20 Q1017","temp":21,"dewp":20,"wdir":130,"wspd":4,"visib":"6+","altim":1017,"clouds":[],"obsTime":1774155600},"SBNT":{"icaoId":"SBNT","flightCategory":"VFR","rawOb":"METAR SBNT 220500Z 23005KT 9999 FEW020 25/23 Q1011","temp":25,"dewp":23,"wdir":230,"wspd":5,"visib":"6+","altim":1011,"clouds":[{"cover":"FEW","base":2000}],"obsTime":1774155600},"SBUR":{"icaoId":"SBUR","flightCategory":"VFR","rawOb":"METAR SBUR 220500Z 10001KT CAVOK 23/20 Q1015","temp":23,"dewp":20,"wdir":100,"wspd":1,"visib":"6+","altim":1015,"clouds":[],"obsTime":1774155600},"SBSP":{"icaoId":"SBSP","flightCategory":"VFR","rawOb":"METAR SBSP 220500Z AUTO 02002KT CAVOK 20/19 Q1016","temp":20,"dewp":19,"wdir":20,"wspd":2,"visib":"6+","altim":1016,"clouds":[],"obsTime":1774155600},"SBGO":{"icaoId":"SBGO","flightCategory":"VFR","rawOb":"METAR SBGO 220500Z 31004KT CAVOK 22/21 Q1016","temp":22,"dewp":21,"wdir":310,"wspd":4,"visib":"6+","altim":1016,"clouds":[],"obsTime":1774155600},"SBJU":{"icaoId":"SBJU","flightCategory":"MVFR","rawOb":"METAR SBJU 220500Z 00000KT 9999 BKN020 23/22 Q1013","temp":23,"dewp":22,"wdir":0,"wspd":0,"visib":"6+","altim":1013,"clouds":[{"cover":"BKN","base":2000}],"obsTime":1774155600},"SBOI":{"icaoId":"SBOI","flightCategory":"IFR","rawOb":"METAR SBOI 220500Z AUTO 03001KT 2900 // VV002 23/23 Q1010","temp":23,"dewp":23,"wdir":30,"wspd":1,"visib":1.8,"altim":1010,"clouds":[{"cover":"OVX","base":200}],"obsTime":1774155600},"SBPS":{"icaoId":"SBPS","flightCategory":"VFR","rawOb":"METAR SBPS 220500Z 34003KT 310V030 9999 SCT015 26/24 Q1011","temp":26,"dewp":24,"wdir":340,"wspd":3,"visib":"6+","altim":1011,"clouds":[{"cover":"SCT","base":1500}],"obsTime":1774155600},"SBPL":{"icaoId":"SBPL","flightCategory":"VFR","rawOb":"METAR SBPL 220500Z 00000KT CAVOK 24/22 Q1012","temp":24,"dewp":22,"wdir":0,"wspd":0,"visib":"6+","altim":1012,"clouds":[],"obsTime":1774155600},"SBAR":{"icaoId":"SBAR","flightCategory":"VFR","rawOb":"METAR SBAR 220500Z 07007KT 9999 FEW020 28/24 Q1011","temp":28,"dewp":24,"wdir":70,"wspd":7,"visib":"6+","altim":1011,"clouds":[{"cover":"FEW","base":2000}],"obsTime":1774155600},"SBKG":{"icaoId":"SBKG","flightCategory":"VFR","rawOb":"METAR SBKG 220500Z 09004KT 9999 SCT010 23/22 Q1014","temp":23,"dewp":22,"wdir":90,"wspd":4,"visib":"6+","altim":1014,"clouds":[{"cover":"SCT","base":1000}],"obsTime":1774155600},"SBIP":{"icaoId":"SBIP","flightCategory":"VFR","rawOb":"METAR SBIP 220500Z AUTO 01006KT 9999 FEW012 OVC037 23/22 Q1013","temp":23,"dewp":22,"wdir":10,"wspd":6,"visib":"6+","altim":1013,"clouds":[{"cover":"FEW","base":1200},{"cover":"OVC","base":3700}],"obsTime":1774155600},"SBDN":{"icaoId":"SBDN","flightCategory":"VFR","rawOb":"METAR SBDN 220500Z 06002KT CAVOK 26/21 Q1012","temp":26,"dewp":21,"wdir":60,"wspd":2,"visib":"6+","altim":1012,"clouds":[],"obsTime":1774155600},"SBAX":{"icaoId":"SBAX","flightCategory":"VFR","rawOb":"METAR SBAX 220500Z AUTO 13003KT CAVOK 21/21 Q1017","temp":21,"dewp":21,"wdir":130,"wspd":3,"visib":"6+","altim":1017,"clouds":[],"obsTime":1774155600},"SBSC":{"icaoId":"SBSC","flightCategory":"VFR","rawOb":"METAR SBSC 220500Z 03003KT 9999 FEW025 22/21 Q1012","temp":22,"dewp":21,"wdir":30,"wspd":3,"visib":"6+","altim":1012,"clouds":[{"cover":"FEW","base":2500}],"obsTime":1774155600},"SBSR":{"icaoId":"SBSR","flightCategory":"VFR","rawOb":"METAR SBSR 220500Z 00000KT CAVOK 25/22 Q1013","temp":25,"dewp":22,"wdir":0,"wspd":0,"visib":"6+","altim":1013,"clouds":[],"obsTime":1774155600},"SBAN":{"icaoId":"SBAN","flightCategory":"LIFR","rawOb":"METAR SBAN 220500Z 23003KT 9999 BKN003 SCT100 19/19 Q1020","temp":19,"dewp":19,"wdir":230,"wspd":3,"visib":"6+","altim":1020,"clouds":[{"cover":"BKN","base":300},{"cover":"SCT","base":10000}],"obsTime":1774155600},"SBJP":{"icaoId":"SBJP","flightCategory":"VFR","rawOb":"METAR SBJP 220500Z 00000KT 9999 FEW020 25/24 Q1011","temp":25,"dewp":24,"wdir":0,"wspd":0,"visib":"6+","altim":1011,"clouds":[{"cover":"FEW","base":2000}],"obsTime":1774155600},"SBLE":{"icaoId":"SBLE","flightCategory":"VFR","rawOb":"METAR SBLE 220500Z AUTO 32002KT CAVOK 22/22 Q1014","temp":22,"dewp":22,"wdir":320,"wspd":2,"visib":"6+","altim":1014,"clouds":[],"obsTime":1774155600}}}