{"updated":1774724642,"count":85,"data":{"SBCT":{"icaoId":"SBCT","flightCategory":"VFR","rawOb":"METAR SBCT 281800Z 11008KT 9999 FEW035 26/17 Q1022","temp":26,"dewp":17,"wdir":110,"wspd":8,"visib":"6+","altim":1022,"clouds":[{"cover":"FEW","base":3500}],"obsTime":1774720800},"SBBR":{"icaoId":"SBBR","flightCategory":"VFR","rawOb":"METAR SBBR 281800Z 11009KT 070V130 9999 SCT045 27/16 Q1019","temp":27,"dewp":16,"wdir":110,"wspd":9,"visib":"6+","altim":1019,"clouds":[{"cover":"SCT","base":4500}],"obsTime":1774720800},"SBSN":{"icaoId":"SBSN","flightCategory":"VFR","rawOb":"METAR SBSN 281800Z 33005KT 9999 SCT016 SCT100 28/25 Q1009","temp":28,"dewp":25,"wdir":330,"wspd":5,"visib":"6+","altim":1009,"clouds":[{"cover":"SCT","base":1600},{"cover":"SCT","base":10000}],"obsTime":1774720800},"SBBE":{"icaoId":"SBBE","flightCategory":"MVFR","rawOb":"SPECI SBBE 281725Z 31004KT 5000 -RA SCT015 BKN025 FEW030TCU 25/25 Q1009 RERA","temp":25,"dewp":25,"wdir":310,"wspd":4,"visib":3.11,"altim":1009,"clouds":[{"cover":"SCT","base":1500},{"cover":"BKN","base":2500},{"cover":"FEW","base":3000}],"obsTime":1774718700},"SBKP":{"icaoId":"SBKP","flightCategory":"VFR","rawOb":"METAR SBKP 281800Z 04003KT 9999 SCT048 31/16 Q1019","temp":31,"dewp":16,"wdir":40,"wspd":3,"visib":"6+","altim":1019,"clouds":[{"cover":"SCT","base":4800}],"obsTime":1774720800},"SBLO":{"icaoId":"SBLO","flightCategory":"VFR","rawOb":"METAR SBLO 281800Z VRB03KT 9999 SCT043 31/17 Q1018","temp":31,"dewp":17,"wdir":"VRB","wspd":3,"visib":"6+","altim":1018,"clouds":[{"cover":"SCT","base":4300}],"obsTime":1774720800},"SBTE":{"icaoId":"SBTE","flightCategory":"VFR","rawOb":"METAR SBTE 281800Z 10005KT 9999 SCT025 33/22 Q1007","temp":33,"dewp":22,"wdir":100,"wspd":5,"visib":"6+","altim":1007,"clouds":[{"cover":"SCT","base":2500}],"obsTime":1774720800},"SBSV":{"icaoId":"SBSV","flightCategory":"MVFR","rawOb":"METAR SBSV 281800Z 11010KT 090V150 9999 BKN023 30/23 Q1012","temp":30,"dewp":23,"wdir":110,"wspd":10,"visib":"6+","altim":1012,"clouds":[{"cover":"BKN","base":2300}],"obsTime":1774720800},"SBMA":{"icaoId":"SBMA","flightCategory":"VFR","rawOb":"METAR SBMA 281800Z 24005KT 9999 SCT020 34/23 Q1008","temp":34,"dewp":23,"wdir":240,"wspd":5,"visib":"6+","altim":1008,"clouds":[{"cover":"SCT","base":2000}],"obsTime":1774720800},"SBCF":{"icaoId":"SBCF","flightCategory":"VFR","rawOb":"METAR SBCF 281800Z 13009KT 9999 BKN040 26/17 Q1020","temp":26,"dewp":17,"wdir":130,"wspd":9,"visib":"6+","altim":1020,"clouds":[{"cover":"BKN","base":4000}],"obsTime":1774720800},"SBEG":{"icaoId":"SBEG","flightCategory":"IFR","rawOb":"SPECI SBEG 281720Z VRB03KT 3000 -RA BR BKN008 SCT020 FEW025TCU 26/25 Q1011 RERA","temp":26,"dewp":25,"wdir":"VRB","wspd":3,"visib":1.86,"altim":1011,"clouds":[{"cover":"BKN","base":800},{"cover":"SCT","base":2000},{"cover":"FEW","base":2500}],"obsTime":1774718400},"SBFI":{"icaoId":"SBFI","flightCategory":"VFR","rawOb":"METAR SBFI 281800Z 22005KT 9999 SCT040 30/25 Q1015","temp":30,"dewp":25,"wdir":220,"wspd":5,"visib":"6+","altim":1015,"clouds":[{"cover":"SCT","base":4000}],"obsTime":1774720800},"SBBV":{"icaoId":"SBBV","flightCategory":"MVFR","rawOb":"METAR SBBV 281800Z 19007KT 9999 BKN015 FEW035TCU SCT100 28/24 Q1001","temp":28,"dewp":24,"wdir":190,"wspd":7,"visib":"6+","altim":1001,"clouds":[{"cover":"BKN","base":1500},{"cover":"FEW","base":3500},{"cover":"SCT","base":10000}],"obsTime":1774720800},"SBMO":{"icaoId":"SBMO","flightCategory":"MVFR","rawOb":"METAR SBMO 281800Z 11009KT 8000 VCSH BKN023 FEW027TCU 29/24 Q1010","temp":29,"dewp":24,"wdir":110,"wspd":9,"visib":4.97,"altim":1010,"clouds":[{"cover":"BKN","base":2300},{"cover":"FEW","base":2700}],"obsTime":1774720800},"SBCG":{"icaoId":"SBCG","flightCategory":"VFR","rawOb":"METAR SBCG 281800Z 03011KT 9999 BKN050 FEW055TCU 32/19 Q1016","temp":32,"dewp":19,"wdir":30,"wspd":11,"visib":"6+","altim":1016,"clouds":[{"cover":"BKN","base":5000},{"cover":"FEW","base":5500}],"obsTime":1774720800},"SBMQ":{"icaoId":"SBMQ","flightCategory":"VFR","rawOb":"METAR SBMQ 281800Z 04012KT 9999 SCT019 FEW030TCU SCT100 31/26 Q1008","temp":31,"dewp":26,"wdir":40,"wspd":12,"visib":"6+","altim":1008,"clouds":[{"cover":"SCT","base":1900},{"cover":"FEW","base":3000},{"cover":"SCT","base":10000}],"obsTime":1774720800},"SBFL":{"icaoId":"SBFL","flightCategory":"VFR","rawOb":"METAR SBFL 281800Z 01014KT 330V030 9999 FEW025 32/21 Q1017","temp":32,"dewp":21,"wdir":10,"wspd":14,"visib":"6+","altim":1017,"clouds":[{"cover":"FEW","base":2500}],"obsTime":1774720800},"SBFZ":{"icaoId":"SBFZ","flightCategory":"MVFR","rawOb":"METAR SBFZ 281800Z 08011KT 9999 BKN025 FEW030TCU 29/24 Q1008","temp":29,"dewp":24,"wdir":80,"wspd":11,"visib":"6+","altim":1008,"clouds":[{"cover":"BKN","base":2500},{"cover":"FEW","base":3000}],"obsTime":1774720800},"SBPA":{"icaoId":"SBPA","flightCategory":"VFR","rawOb":"METAR SBPA 281800Z 29004KT 240V360 9999 FEW040 35/23 Q1015","temp":35,"dewp":23,"wdir":290,"wspd":4,"visib":"6+","altim":1015,"clouds":[{"cover":"FEW","base":4000}],"obsTime":1774720800},"SBPJ":{"icaoId":"SBPJ","flightCategory":"VFR","rawOb":"METAR SBPJ 281800Z 09005KT 9999 SCT030 34/21 Q1011","temp":34,"dewp":21,"wdir":90,"wspd":5,"visib":"6+","altim":1011,"clouds":[{"cover":"SCT","base":3000}],"obsTime":1774720800},"SBCP":{"icaoId":"SBCP","flightCategory":"VFR","rawOb":"METAR SBCP 281800Z 11010KT 9999 SCT020 30/22 Q1017","temp":30,"dewp":22,"wdir":110,"wspd":10,"visib":"6+","altim":1017,"clouds":[{"cover":"SCT","base":2000}],"obsTime":1774720800},"SBVT":{"icaoId":"SBVT","flightCategory":"VFR","rawOb":"METAR SBVT 281800Z 16009KT 9999 FEW040 28/23 Q1016","temp":28,"dewp":23,"wdir":160,"wspd":9,"visib":"6+","altim":1016,"clouds":[{"cover":"FEW","base":4000}],"obsTime":1774720800},"SBPV":{"icaoId":"SBPV","flightCategory":"MVFR","rawOb":"METAR SBPV 281800Z 10007KT 9999 -RA SCT007 BKN025 FEW030TCU 24/22 Q1011","temp":24,"dewp":22,"wdir":100,"wspd":7,"visib":"6+","altim":1011,"clouds":[{"cover":"SCT","base":700},{"cover":"BKN","base":2500},{"cover":"FEW","base":3000}],"obsTime":1774720800},"SBGL":{"icaoId":"SBGL","flightCategory":"VFR","rawOb":"METAR SBGL 281800Z 14011KT 9999 FEW030 30/22 Q1016","temp":30,"dewp":22,"wdir":140,"wspd":11,"visib":"6+","altim":1016,"clouds":[{"cover":"FEW","base":3000}],"obsTime":1774720800},"SBRB":{"icaoId":"SBRB","flightCategory":"LIFR","rawOb":"SPECI SBRB 281712Z 22010G21KT 170V250 0500 R07///// R25/P2000D +TSRA BKN002 BKN010 FEW030CB 22/22 Q1014","temp":22,"dewp":22,"wdir":220,"wspd":10,"visib":0.31,"altim":1014,"clouds":[{"cover":"BKN","base":200},{"cover":"BKN","base":1000},{"cover":"FEW","base":3000}],"obsTime":1774717920},"SBSP":{"icaoId":"SBSP","flightCategory":"VFR","rawOb":"METAR SBSP 281800Z 17011KT CAVOK 28/19 Q1021","temp":28,"dewp":19,"wdir":170,"wspd":11,"visib":"6+","altim":1021,"clouds":[],"obsTime":1774720800},"SBRF":{"icaoId":"SBRF","flightCategory":"VFR","rawOb":"METAR SBRF 281800Z 08006KT 040V130 9999 SCT025 30/24 Q1010","temp":30,"dewp":24,"wdir":80,"wspd":6,"visib":"6+","altim":1010,"clouds":[{"cover":"SCT","base":2500}],"obsTime":1774720800},"SBCB":{"icaoId":"SBCB","flightCategory":"VFR","rawOb":"METAR SBCB 281800Z 08013KT CAVOK 29/22 Q1018","temp":29,"dewp":22,"wdir":80,"wspd":13,"visib":"6+","altim":1018,"clouds":[],"obsTime":1774720800},"SBSG":{"icaoId":"SBSG","flightCategory":"VFR","rawOb":"METAR SBSG 281800Z 11010KT 090V160 9999 SCT035 31/18 Q1009","temp":31,"dewp":18,"wdir":110,"wspd":10,"visib":"6+","altim":1009,"clouds":[{"cover":"SCT","base":3500}],"obsTime":1774720800},"SBGO":{"icaoId":"SBGO","flightCategory":"VFR","rawOb":"METAR SBGO 281800Z 08008KT 030V110 9999 SCT049 31/18 Q1017","temp":31,"dewp":18,"wdir":80,"wspd":8,"visib":"6+","altim":1017,"clouds":[{"cover":"SCT","base":4900}],"obsTime":1774720800},"SBGR":{"icaoId":"SBGR","flightCategory":"VFR","rawOb":"METAR SBGR 281800Z 09007KT CAVOK 29/16 Q1020","temp":29,"dewp":16,"wdir":90,"wspd":7,"visib":"6+","altim":1020,"clouds":[],"obsTime":1774720800},"SBSL":{"icaoId":"SBSL","flightCategory":"VFR","rawOb":"METAR SBSL 281800Z 10011KT 9999 SCT020 FEW025TCU BKN070 27/24 Q1008 RETS","temp":27,"dewp":24,"wdir":100,"wspd":11,"visib":"6+","altim":1008,"clouds":[{"cover":"SCT","base":2000},{"cover":"FEW","base":2500},{"cover":"BKN","base":7000}],"obsTime":1774720800},"SBCR":{"icaoId":"SBCR","flightCategory":"VFR","rawOb":"METAR SBCR 281800Z 05007KT 350V100 9999 FEW025 32/23 Q1012","temp":32,"dewp":23,"wdir":50,"wspd":7,"visib":"6+","altim":1012,"clouds":[{"cover":"FEW","base":2500}],"obsTime":1774720800},"SBCZ":{"icaoId":"SBCZ","flightCategory":"MVFR","rawOb":"METAR SBCZ 281800Z 15004KT 9999 TS VCSH BKN025 FEW025CB BKN090 27/25 Q1010","temp":27,"dewp":25,"wdir":150,"wspd":4,"visib":"6+","altim":1010,"clouds":[{"cover":"BKN","base":2500},{"cover":"FEW","base":2500},{"cover":"BKN","base":9000}],"obsTime":1774720800},"SBHT":{"icaoId":"SBHT","flightCategory":"MVFR","rawOb":"METAR SBHT 281800Z 02003KT 9999 BKN020 BKN100 29/24 Q1009","temp":29,"dewp":24,"wdir":20,"wspd":3,"visib":"6+","altim":1009,"clouds":[{"cover":"BKN","base":2000},{"cover":"BKN","base":10000}],"obsTime":1774720800},"SBIL":{"icaoId":"SBIL","flightCategory":"VFR","rawOb":"METAR SBIL 281800Z 19010KT 160V230 9999 VCSH SCT020 FEW025TCU 29/24 Q1013","temp":29,"dewp":24,"wdir":190,"wspd":10,"visib":"6+","altim":1013,"clouds":[{"cover":"SCT","base":2000},{"cover":"FEW","base":2500}],"obsTime":1774720800},"SBJU":{"icaoId":"SBJU","flightCategory":"VFR","rawOb":"METAR SBJU 281800Z 15004KT 9999 SCT020 29/22 Q1011","temp":29,"dewp":22,"wdir":150,"wspd":4,"visib":"6+","altim":1011,"clouds":[{"cover":"SCT","base":2000}],"obsTime":1774720800},"SBAT":{"icaoId":"SBAT","flightCategory":"VFR","rawOb":"METAR SBAT 281800Z 13005KT 9999 SCT028 FEW030TCU 32/24 Q1011","temp":32,"dewp":24,"wdir":130,"wspd":5,"visib":"6+","altim":1011,"clouds":[{"cover":"SCT","base":2800},{"cover":"FEW","base":3000}],"obsTime":1774720800},"SBME":{"icaoId":"SBME","flightCategory":"VFR","rawOb":"METAR SBME 281800Z 14005KT 9999 FEW025 30/23 Q1017","temp":30,"dewp":23,"wdir":140,"wspd":5,"visib":"6+","altim":1017,"clouds":[{"cover":"FEW","base":2500}],"obsTime":1774720800},"SBMG":{"icaoId":"SBMG","flightCategory":"VFR","rawOb":"METAR SBMG 281800Z VRB05KT CAVOK 32/17 Q1017","temp":32,"dewp":17,"wdir":"VRB","wspd":5,"visib":"6+","altim":1017,"clouds":[],"obsTime":1774720800},"SBMK":{"icaoId":"SBMK","flightCategory":"VFR","rawOb":"METAR SBMK 281800Z 06006KT 9999 SCT040 30/18 Q1016","temp":30,"dewp":18,"wdir":60,"wspd":6,"visib":"6+","altim":1016,"clouds":[{"cover":"SCT","base":4000}],"obsTime":1774720800},"SBNT":{"icaoId":"SBNT","flightCategory":"VFR","rawOb":"METAR SBNT 281800Z 11010KT 9999 FEW030 31/22 Q1009","temp":31,"dewp":22,"wdir":110,"wspd":10,"visib":"6+","altim":1009,"clouds":[{"cover":"FEW","base":3000}],"obsTime":1774720800},"SBUL":{"icaoId":"SBUL","flightCategory":"VFR","rawOb":"METAR SBUL 281800Z 10005KT 010V160 9999 BKN045 27/15 Q1020","temp":27,"dewp":15,"wdir":100,"wspd":5,"visib":"6+","altim":1020,"clouds":[{"cover":"BKN","base":4500}],"obsTime":1774720800},"SBUR":{"icaoId":"SBUR","flightCategory":"VFR","rawOb":"METAR SBUR 281800Z 09006KT CAVOK 29/14 Q1018","temp":29,"dewp":14,"wdir":90,"wspd":6,"visib":"6+","altim":1018,"clouds":[],"obsTime":1774720800},"SBPL":{"icaoId":"SBPL","flightCategory":"VFR","rawOb":"METAR SBPL 281800Z 08008KT 9999 BKN035 32/19 Q1011","temp":32,"dewp":19,"wdir":80,"wspd":8,"visib":"6+","altim":1011,"clouds":[{"cover":"BKN","base":3500}],"obsTime":1774720800},"SBSJ":{"icaoId":"SBSJ","flightCategory":"VFR","rawOb":"METAR SBSJ 281800Z 06005KT 340V100 9999 FEW030 30/16 Q1019","temp":30,"dewp":16,"wdir":60,"wspd":5,"visib":"6+","altim":1019,"clouds":[{"cover":"FEW","base":3000}],"obsTime":1774720800},"SBPB":{"icaoId":"SBPB","flightCategory":"VFR","rawOb":"METAR SBPB 281800Z 09013KT 9999 SCT016 FEW025TCU BKN080 27/24 Q1008","temp":27,"dewp":24,"wdir":90,"wspd":13,"visib":"6+","altim":1008,"clouds":[{"cover":"SCT","base":1600},{"cover":"FEW","base":2500},{"cover":"BKN","base":8000}],"obsTime":1774720800},"SBPP":{"icaoId":"SBPP","flightCategory":"VFR","rawOb":"METAR SBPP 281800Z 04006KT 9999 SCT025 30/20 Q1018","temp":30,"dewp":20,"wdir":40,"wspd":6,"visib":"6+","altim":1018,"clouds":[{"cover":"SCT","base":2500}],"obsTime":1774720800},"SBOI":{"icaoId":"SBOI","flightCategory":"VFR","rawOb":"METAR SBOI 281800Z AUTO VRB01KT 9999 FEW045 27/25 Q1010 RERA","temp":27,"dewp":25,"wdir":"VRB","wspd":1,"visib":"6+","altim":1010,"clouds":[{"cover":"FEW","base":4500}],"obsTime":1774720800},"SBTF":{"icaoId":"SBTF","flightCategory":"VFR","rawOb":"METAR SBTF 281800Z 10004KT 9999 SCT020 BKN080 29/27 Q1010","temp":29,"dewp":27,"wdir":100,"wspd":4,"visib":"6+","altim":1010,"clouds":[{"cover":"SCT","base":2000},{"cover":"BKN","base":8000}],"obsTime":1774720800},"SBTT":{"icaoId":"SBTT","flightCategory":"VFR","rawOb":"METAR SBTT 281800Z VRB02KT 9999 FEW015 BKN100 26/22 Q1011","temp":26,"dewp":22,"wdir":"VRB","wspd":2,"visib":"6+","altim":1011,"clouds":[{"cover":"FEW","base":1500},{"cover":"BKN","base":10000}],"obsTime":1774720800},"SBPS":{"icaoId":"SBPS","flightCategory":"VFR","rawOb":"METAR SBPS 281800Z 16008KT 9999 SCT025 27/22 Q1014","temp":27,"dewp":22,"wdir":160,"wspd":8,"visib":"6+","altim":1014,"clouds":[{"cover":"SCT","base":2500}],"obsTime":1774720800},"SBCJ":{"icaoId":"SBCJ","flightCategory":"VFR","rawOb":"METAR SBCJ 281800Z 11009KT 9999 SCT027 29/22 Q1013","temp":29,"dewp":22,"wdir":110,"wspd":9,"visib":"6+","altim":1013,"clouds":[{"cover":"SCT","base":2700}],"obsTime":1774720800},"SBUY":{"icaoId":"SBUY","flightCategory":"VFR","rawOb":"METAR SBUY 281800Z 06005KT 9999 SCT025 SCT100 29/24 Q1009","temp":29,"dewp":24,"wdir":60,"wspd":5,"visib":"6+","altim":1009,"clouds":[{"cover":"SCT","base":2500},{"cover":"SCT","base":10000}],"obsTime":1774720800},"SBAR":{"icaoId":"SBAR","flightCategory":"VFR","rawOb":"METAR SBAR 281800Z 12008KT 9999 SCT023 SCT070 31/24 Q1011","temp":31,"dewp":24,"wdir":120,"wspd":8,"visib":"6+","altim":1011,"clouds":[{"cover":"SCT","base":2300},{"cover":"SCT","base":7000}],"obsTime":1774720800},"SBES":{"icaoId":"SBES","flightCategory":"VFR","rawOb":"METAR SBES 281800Z 07011KT 030V100 9999 FEW020 29/// Q1017","temp":null,"dewp":null,"wdir":70,"wspd":11,"visib":"6+","altim":1017,"clouds":[{"cover":"FEW","base":2000}],"obsTime":1774720800},"SBGM":{"icaoId":"SBGM","flightCategory":"MVFR","rawOb":"METAR SBGM 281800Z 26005KT 9999 BKN020 OVC073 25/24 Q1011","temp":25,"dewp":24,"wdir":260,"wspd":5,"visib":"6+","altim":1011,"clouds":[{"cover":"BKN","base":2000},{"cover":"OVC","base":7300}],"obsTime":1774720800},"SBIP":{"icaoId":"SBIP","flightCategory":"VFR","rawOb":"METAR SBIP 281800Z AUTO VRB02KT CAVOK 32/18 Q1016","temp":32,"dewp":18,"wdir":"VRB","wspd":2,"visib":"6+","altim":1016,"clouds":[],"obsTime":1774720800},"SBKG":{"icaoId":"SBKG","flightCategory":"VFR","rawOb":"METAR SBKG 281800Z 12011KT 9999 SCT020 SCT070 28/21 Q1011","temp":28,"dewp":21,"wdir":120,"wspd":11,"visib":"6+","altim":1011,"clouds":[{"cover":"SCT","base":2000},{"cover":"SCT","base":7000}],"obsTime":1774720800},"SBSC":{"icaoId":"SBSC","flightCategory":"VFR","rawOb":"METAR SBSC 281800Z 18009KT 9999 FEW035 31/23 Q1016","temp":31,"dewp":23,"wdir":180,"wspd":9,"visib":"6+","altim":1016,"clouds":[{"cover":"FEW","base":3500}],"obsTime":1774720800},"SBSM":{"icaoId":"SBSM","flightCategory":"VFR","rawOb":"METAR SBSM 281800Z 15003KT 9999 VCSH SCT035 FEW040TCU 35/25 Q1015","temp":35,"dewp":25,"wdir":150,"wspd":3,"visib":"6+","altim":1015,"clouds":[{"cover":"SCT","base":3500},{"cover":"FEW","base":4000}],"obsTime":1774720800},"SBSR":{"icaoId":"SBSR","flightCategory":"VFR","rawOb":"METAR SBSR 281800Z 14004KT 9999 SCT040 31/14 Q1017","temp":31,"dewp":14,"wdir":140,"wspd":4,"visib":"6+","altim":1017,"clouds":[{"cover":"SCT","base":4000}],"obsTime":1774720800},"SBVH":{"icaoId":"SBVH","flightCategory":"MVFR","rawOb":"METAR SBVH 281800Z 09005KT 9999 BKN026 SCT090 29/21 Q1014","temp":29,"dewp":21,"wdir":90,"wspd":5,"visib":"6+","altim":1014,"clouds":[{"cover":"BKN","base":2600},{"cover":"SCT","base":9000}],"obsTime":1774720800},"SBAX":{"icaoId":"SBAX","flightCategory":"VFR","rawOb":"METAR SBAX 281800Z AUTO 09008KT 060V120 CAVOK 27/15 Q1020","temp":27,"dewp":15,"wdir":90,"wspd":8,"visib":"6+","altim":1020,"clouds":[],"obsTime":1774720800},"SBBH":{"icaoId":"SBBH","flightCategory":"MVFR","rawOb":"METAR SBBH 281800Z 09007KT 9999 BKN030 27/17 Q1020","temp":27,"dewp":17,"wdir":90,"wspd":7,"visib":"6+","altim":1020,"clouds":[{"cover":"BKN","base":3000}],"obsTime":1774720800},"SBBQ":{"icaoId":"SBBQ","flightCategory":"VFR","rawOb":"METAR SBBQ 281800Z 08008KT 9999 SCT025 22/16 Q1024","temp":22,"dewp":16,"wdir":80,"wspd":8,"visib":"6+","altim":1024,"clouds":[{"cover":"SCT","base":2500}],"obsTime":1774720800},"SBBU":{"icaoId":"SBBU","flightCategory":"VFR","rawOb":"METAR SBBU 281800Z 14004KT 9999 SCT040 32/17 Q1018","temp":32,"dewp":17,"wdir":140,"wspd":4,"visib":"6+","altim":1018,"clouds":[{"cover":"SCT","base":4000}],"obsTime":1774720800},"SBCA":{"icaoId":"SBCA","flightCategory":"MVFR","rawOb":"METAR SBCA 281800Z VRB03KT 9999 BKN025 29/18 Q1020","temp":29,"dewp":18,"wdir":"VRB","wspd":3,"visib":"6+","altim":1020,"clouds":[{"cover":"BKN","base":2500}],"obsTime":1774720800},"SBCC":{"icaoId":"SBCC","flightCategory":"MVFR","rawOb":"METAR SBCC 281800Z 09008KT 9999 BKN020 FEW025TCU SCT100 30/22 Q1012","temp":30,"dewp":22,"wdir":90,"wspd":8,"visib":"6+","altim":1012,"clouds":[{"cover":"BKN","base":2000},{"cover":"FEW","base":2500},{"cover":"SCT","base":10000}],"obsTime":1774720800},"SBCO":{"icaoId":"SBCO","flightCategory":"VFR","rawOb":"METAR SBCO 281800Z 18005KT 110V240 9999 FEW035 35/24 Q1015","temp":35,"dewp":24,"wdir":180,"wspd":5,"visib":"6+","altim":1015,"clouds":[{"cover":"FEW","base":3500}],"obsTime":1774720800},"SBDN":{"icaoId":"SBDN","flightCategory":"VFR","rawOb":"METAR SBDN 281800Z 04006KT CAVOK 33/18 Q1016","temp":33,"dewp":18,"wdir":40,"wspd":6,"visib":"6+","altim":1016,"clouds":[],"obsTime":1774720800},"SBJP":{"icaoId":"SBJP","flightCategory":"VFR","rawOb":"METAR SBJP 281800Z VRB01KT 9999 SCT033 30/22 Q1010","temp":30,"dewp":22,"wdir":"VRB","wspd":1,"visib":"6+","altim":1010,"clouds":[{"cover":"SCT","base":3300}],"obsTime":1774720800},"SBJV":{"icaoId":"SBJV","flightCategory":"VFR","rawOb":"METAR SBJV 281800Z 05008KT 9999 FEW035 31/22 Q1018","temp":31,"dewp":22,"wdir":50,"wspd":8,"visib":"6+","altim":1018,"clouds":[{"cover":"FEW","base":3500}],"obsTime":1774720800},"SBPF":{"icaoId":"SBPF","flightCategory":"VFR","rawOb":"METAR SBPF 281800Z 22005KT CAVOK 32/19 Q1020","temp":32,"dewp":19,"wdir":220,"wspd":5,"visib":"6+","altim":1020,"clouds":[],"obsTime":1774720800},"SBLE":{"icaoId":"SBLE","flightCategory":"VFR","rawOb":"METAR SBLE 281800Z AUTO 14008KT 110V180 9999 BKN040 29/21 Q1014","temp":29,"dewp":21,"wdir":140,"wspd":8,"visib":"6+","altim":1014,"clouds":[{"cover":"BKN","base":4000}],"obsTime":1774720800},"SBTC":{"icaoId":"SBTC","flightCategory":"MVFR","rawOb":"METAR SBTC 281800Z 13005KT 7000 -TSRA SCT015 BKN020 FEW025CB BKN060 24/22 Q1014","temp":24,"dewp":22,"wdir":130,"wspd":5,"visib":4.35,"altim":1014,"clouds":[{"cover":"SCT","base":1500},{"cover":"BKN","base":2000},{"cover":"FEW","base":2500},{"cover":"BKN","base":6000}],"obsTime":1774720800},"SBIH":{"icaoId":"SBIH","flightCategory":"VFR","rawOb":"METAR SBIH 281800Z 06009KT 9999 FEW020 FEW025TCU 33/24 Q1008","temp":33,"dewp":24,"wdir":60,"wspd":9,"visib":"6+","altim":1008,"clouds":[{"cover":"FEW","base":2000},{"cover":"FEW","base":2500}],"obsTime":1774720800},"SBAF":{"icaoId":"SBAF","flightCategory":"VFR","rawOb":"METAR SBAF 281800Z 20011KT 9999 SCT043 30/23 Q1016","temp":30,"dewp":23,"wdir":200,"wspd":11,"visib":"6+","altim":1016,"clouds":[{"cover":"SCT","base":4300}],"obsTime":1774720800},"SBAN":{"icaoId":"SBAN","flightCategory":"VFR","rawOb":"METAR SBAN 281800Z 16007G17KT 120V180 9999 BKN040 26/16 Q1020","temp":26,"dewp":16,"wdir":160,"wspd":7,"visib":"6+","altim":1020,"clouds":[{"cover":"BKN","base":4000}],"obsTime":1774720800},"SBJR":{"icaoId":"SBJR","flightCategory":"VFR","rawOb":"METAR SBJR 281800Z 15008KT 9999 FEW025 32/22 Q1016","temp":32,"dewp":22,"wdir":150,"wspd":8,"visib":"6+","altim":1016,"clouds":[{"cover":"FEW","base":2500}],"obsTime":1774720800},"SBLS":{"icaoId":"SBLS","flightCategory":"VFR","rawOb":"METAR SBLS 281800Z 12007KT 040V160 9999 SCT035 SCT070 26/17 Q1020","temp":26,"dewp":17,"wdir":120,"wspd":7,"visib":"6+","altim":1020,"clouds":[{"cover":"SCT","base":3500},{"cover":"SCT","base":7000}],"obsTime":1774720800},"SBMT":{"icaoId":"SBMT","flightCategory":"VFR","rawOb":"METAR SBMT 281800Z 13004KT CAVOK 29/15 Q1020","temp":29,"dewp":15,"wdir":130,"wspd":4,"visib":"6+","altim":1020,"clouds":[],"obsTime":1774720800},"SBST":{"icaoId":"SBST","flightCategory":"VFR","rawOb":"METAR SBST 281800Z 22006KT 9999 SCT027 27/23 Q1017","temp":27,"dewp":23,"wdir":220,"wspd":6,"visib":"6+","altim":1017,"clouds":[{"cover":"SCT","base":2700}],"obsTime":1774720800},"SBTA":{"icaoId":"SBTA","flightCategory":"VFR","rawOb":"METAR SBTA 281800Z 04006KT 350V090 9999 FEW035 28/19 Q1018","temp":28,"dewp":19,"wdir":40,"wspd":6,"visib":"6+","altim":1018,"clouds":[{"cover":"FEW","base":3500}],"obsTime":1774720800},"SBGW":{"icaoId":"SBGW","flightCategory":"VFR","rawOb":"METAR SBGW 281800Z 02006KT 350V080 9999 FEW035 30/15 Q1018","temp":30,"dewp":15,"wdir":20,"wspd":6,"visib":"6+","altim":1018,"clouds":[{"cover":"FEW","base":3500}],"obsTime":1774720800}}}