{"updated":1783457987,"count":84,"data":{"SBEG":{"icaoId":"SBEG","flightCategory":"VFR","rawOb":"METAR SBEG 071900Z 06004KT 9999 SCT030 FEW030TCU BKN060 28/23 Q1012","temp":28,"dewp":23,"wdir":60,"wspd":4,"visib":"6+","altim":1012,"clouds":[{"cover":"SCT","base":3000},{"cover":"FEW","base":3000},{"cover":"BKN","base":6000}],"obsTime":1783450800},"SBHT":{"icaoId":"SBHT","flightCategory":"VFR","rawOb":"METAR SBHT 071900Z 10005KT 9999 SCT030 32/24 Q1012","temp":32,"dewp":24,"wdir":100,"wspd":5,"visib":"6+","altim":1012,"clouds":[{"cover":"SCT","base":3000}],"obsTime":1783450800},"SBMO":{"icaoId":"SBMO","flightCategory":"VFR","rawOb":"METAR SBMO 071900Z 14009KT 9999 SCT030 26/21 Q1016","temp":26,"dewp":21,"wdir":140,"wspd":9,"visib":"6+","altim":1016,"clouds":[{"cover":"SCT","base":3000}],"obsTime":1783450800},"SBMQ":{"icaoId":"SBMQ","flightCategory":"VFR","rawOb":"METAR SBMQ 071900Z 07007KT 9999 VCSH SCT037 FEW040TCU 32/25 Q1012","temp":32,"dewp":25,"wdir":70,"wspd":7,"visib":"6+","altim":1012,"clouds":[{"cover":"SCT","base":3700},{"cover":"FEW","base":4000}],"obsTime":1783450800},"SBNT":{"icaoId":"SBNT","flightCategory":"VFR","rawOb":"METAR SBNT 071900Z 15016KT 9999 FEW028 SCT050 BKN090 28/21 Q1015","temp":28,"dewp":21,"wdir":150,"wspd":16,"visib":"6+","altim":1015,"clouds":[{"cover":"FEW","base":2800},{"cover":"SCT","base":5000},{"cover":"BKN","base":9000}],"obsTime":1783450800},"SBPV":{"icaoId":"SBPV","flightCategory":"VFR","rawOb":"METAR SBPV 071900Z 13008KT 100V160 9999 BKN040 33/19 Q1013","temp":33,"dewp":19,"wdir":130,"wspd":8,"visib":"6+","altim":1013,"clouds":[{"cover":"BKN","base":4000}],"obsTime":1783450800},"SBRB":{"icaoId":"SBRB","flightCategory":"MVFR","rawOb":"METAR SBRB 071900Z 16005KT 9999 BKN014 23/20 Q1016","temp":23,"dewp":20,"wdir":160,"wspd":5,"visib":"6+","altim":1016,"clouds":[{"cover":"BKN","base":1400}],"obsTime":1783450800},"SBSN":{"icaoId":"SBSN","flightCategory":"VFR","rawOb":"METAR SBSN 071900Z 09009KT 9999 FEW020TCU 32/25 Q1012","temp":32,"dewp":25,"wdir":90,"wspd":9,"visib":"6+","altim":1012,"clouds":[{"cover":"FEW","base":2000}],"obsTime":1783450800},"SBCP":{"icaoId":"SBCP","flightCategory":"VFR","rawOb":"METAR SBCP 071900Z 31010KT 9999 FEW030 29/16 Q1014","temp":29,"dewp":16,"wdir":310,"wspd":10,"visib":"6+","altim":1014,"clouds":[{"cover":"FEW","base":3000}],"obsTime":1783450800},"SBJU":{"icaoId":"SBJU","flightCategory":"VFR","rawOb":"METAR SBJU 071900Z 18008KT CAVOK 32/13 Q1015","temp":32,"dewp":13,"wdir":180,"wspd":8,"visib":"6+","altim":1015,"clouds":[],"obsTime":1783450800},"SBFL":{"icaoId":"SBFL","flightCategory":"VFR","rawOb":"METAR SBFL 071900Z 12009KT 9999 BKN033 14/08 Q1020","temp":14,"dewp":8,"wdir":120,"wspd":9,"visib":"6+","altim":1020,"clouds":[{"cover":"BKN","base":3300}],"obsTime":1783450800},"SBCT":{"icaoId":"SBCT","flightCategory":"VFR","rawOb":"METAR SBCT 071900Z 23008KT 190V260 CAVOK 17/01 Q1020","temp":17,"dewp":1,"wdir":230,"wspd":8,"visib":"6+","altim":1020,"clouds":[],"obsTime":1783450800},"SBVT":{"icaoId":"SBVT","flightCategory":"VFR","rawOb":"METAR SBVT 071900Z 03010KT 9999 FEW049 28/17 Q1014","temp":28,"dewp":17,"wdir":30,"wspd":10,"visib":"6+","altim":1014,"clouds":[{"cover":"FEW","base":4900}],"obsTime":1783450800},"SBFI":{"icaoId":"SBFI","flightCategory":"VFR","rawOb":"METAR SBFI 071900Z 23002KT CAVOK 16/07 Q1021","temp":16,"dewp":7,"wdir":230,"wspd":2,"visib":"6+","altim":1021,"clouds":[],"obsTime":1783450800},"SBLO":{"icaoId":"SBLO","flightCategory":"VFR","rawOb":"METAR SBLO 071900Z 28006KT CAVOK 23/07 Q1019","temp":23,"dewp":7,"wdir":280,"wspd":6,"visib":"6+","altim":1019,"clouds":[],"obsTime":1783450800},"SBSL":{"icaoId":"SBSL","flightCategory":"VFR","rawOb":"METAR SBSL 071900Z 02011KT 9999 SCT030 29/24 Q1013","temp":29,"dewp":24,"wdir":20,"wspd":11,"visib":"6+","altim":1013,"clouds":[{"cover":"SCT","base":3000}],"obsTime":1783450800},"SBMG":{"icaoId":"SBMG","flightCategory":"VFR","rawOb":"METAR SBMG 071900Z 25006KT CAVOK 21/09 Q1019","temp":21,"dewp":9,"wdir":250,"wspd":6,"visib":"6+","altim":1019,"clouds":[],"obsTime":1783450800},"SBPA":{"icaoId":"SBPA","flightCategory":"VFR","rawOb":"METAR SBPA 071900Z 29013KT CAVOK 15/05 Q1020","temp":15,"dewp":5,"wdir":290,"wspd":13,"visib":"6+","altim":1020,"clouds":[],"obsTime":1783450800},"SBCB":{"icaoId":"SBCB","flightCategory":"VFR","rawOb":"METAR SBCB 071900Z 28016KT 9999 FEW015 23/19 Q1016","temp":23,"dewp":19,"wdir":280,"wspd":16,"visib":"6+","altim":1016,"clouds":[{"cover":"FEW","base":1500}],"obsTime":1783450800},"SBCF":{"icaoId":"SBCF","flightCategory":"VFR","rawOb":"METAR SBCF 071900Z 27010KT 9999 SCT045 26/10 Q1019","temp":26,"dewp":10,"wdir":270,"wspd":10,"visib":"6+","altim":1019,"clouds":[{"cover":"SCT","base":4500}],"obsTime":1783450800},"SBGL":{"icaoId":"SBGL","flightCategory":"VFR","rawOb":"METAR SBGL 071900Z 21015KT 9999 SCT030 24/17 Q1016","temp":24,"dewp":17,"wdir":210,"wspd":15,"visib":"6+","altim":1016,"clouds":[{"cover":"SCT","base":3000}],"obsTime":1783450800},"SBGR":{"icaoId":"SBGR","flightCategory":"MVFR","rawOb":"METAR SBGR 071900Z 17006KT 9999 BKN015 17/14 Q1021","temp":17,"dewp":14,"wdir":170,"wspd":6,"visib":"6+","altim":1021,"clouds":[{"cover":"BKN","base":1500}],"obsTime":1783450800},"SBKP":{"icaoId":"SBKP","flightCategory":"VFR","rawOb":"METAR SBKP 071900Z 21003KT 160V240 9999 FEW040 23/14 Q1019","temp":23,"dewp":14,"wdir":210,"wspd":3,"visib":"6+","altim":1019,"clouds":[{"cover":"FEW","base":4000}],"obsTime":1783450800},"SBME":{"icaoId":"SBME","flightCategory":"VFR","rawOb":"METAR SBME 071900Z 19008KT 9999 FEW025 BKN080 27/18 Q1014","temp":27,"dewp":18,"wdir":190,"wspd":8,"visib":"6+","altim":1014,"clouds":[{"cover":"FEW","base":2500},{"cover":"BKN","base":8000}],"obsTime":1783450800},"SBSV":{"icaoId":"SBSV","flightCategory":"VFR","rawOb":"METAR SBSV 071900Z 16008KT 9999 VCSH FEW010 SCT018 FEW025TCU 25/22 Q1017","temp":25,"dewp":22,"wdir":160,"wspd":8,"visib":"6+","altim":1017,"clouds":[{"cover":"FEW","base":1000},{"cover":"SCT","base":1800},{"cover":"FEW","base":2500}],"obsTime":1783450800},"SBMK":{"icaoId":"SBMK","flightCategory":"VFR","rawOb":"METAR SBMK 071900Z 35005KT CAVOK 29/08 Q1017","temp":29,"dewp":8,"wdir":350,"wspd":5,"visib":"6+","altim":1017,"clouds":[],"obsTime":1783450800},"SBSP":{"icaoId":"SBSP","flightCategory":"MVFR","rawOb":"METAR SBSP 071900Z 16008KT 130V190 9999 BKN017 17/13 Q1021","temp":17,"dewp":13,"wdir":160,"wspd":8,"visib":"6+","altim":1021,"clouds":[{"cover":"BKN","base":1700}],"obsTime":1783450800},"SBUL":{"icaoId":"SBUL","flightCategory":"VFR","rawOb":"METAR SBUL 071900Z 27011KT 9999 FEW049 24/10 Q1021","temp":24,"dewp":10,"wdir":270,"wspd":11,"visib":"6+","altim":1021,"clouds":[{"cover":"FEW","base":4900}],"obsTime":1783450800},"SBUR":{"icaoId":"SBUR","flightCategory":"VFR","rawOb":"METAR SBUR 071900Z 26007KT 9999 SCT049 25/12 Q1020","temp":25,"dewp":12,"wdir":260,"wspd":7,"visib":"6+","altim":1020,"clouds":[{"cover":"SCT","base":4900}],"obsTime":1783450800},"SBMA":{"icaoId":"SBMA","flightCategory":"VFR","rawOb":"METAR SBMA 071900Z 06002KT 9999 FEW020 FEW025TCU 35/19 Q1011","temp":35,"dewp":19,"wdir":60,"wspd":2,"visib":"6+","altim":1011,"clouds":[{"cover":"FEW","base":2000},{"cover":"FEW","base":2500}],"obsTime":1783450800},"SBBE":{"icaoId":"SBBE","flightCategory":"VFR","rawOb":"METAR SBBE 071900Z 35009KT 9999 VCSH SCT040 FEW044TCU 27/22 Q1012","temp":27,"dewp":22,"wdir":350,"wspd":9,"visib":"6+","altim":1012,"clouds":[{"cover":"SCT","base":4000},{"cover":"FEW","base":4400}],"obsTime":1783450800},"SBFZ":{"icaoId":"SBFZ","flightCategory":"VFR","rawOb":"METAR SBFZ 071900Z 08010KT 9999 FEW025 29/23 Q1013","temp":29,"dewp":23,"wdir":80,"wspd":10,"visib":"6+","altim":1013,"clouds":[{"cover":"FEW","base":2500}],"obsTime":1783450800},"SBTE":{"icaoId":"SBTE","flightCategory":"VFR","rawOb":"METAR SBTE 071900Z 29006KT 9999 SCT030 33/20 Q1012","temp":33,"dewp":20,"wdir":290,"wspd":6,"visib":"6+","altim":1012,"clouds":[{"cover":"SCT","base":3000}],"obsTime":1783450800},"SBBR":{"icaoId":"SBBR","flightCategory":"VFR","rawOb":"METAR SBBR 071900Z 25006KT 200V290 CAVOK 29/06 Q1020","temp":29,"dewp":6,"wdir":250,"wspd":6,"visib":"6+","altim":1020,"clouds":[],"obsTime":1783450800},"SBCG":{"icaoId":"SBCG","flightCategory":"VFR","rawOb":"METAR SBCG 071900Z 21006KT 9999 FEW035 23/16 Q1019","temp":23,"dewp":16,"wdir":210,"wspd":6,"visib":"6+","altim":1019,"clouds":[{"cover":"FEW","base":3500}],"obsTime":1783450800},"SBAT":{"icaoId":"SBAT","flightCategory":"VFR","rawOb":"METAR SBAT 071900Z 15006KT 9999 SCT030 33/17 Q1014","temp":33,"dewp":17,"wdir":150,"wspd":6,"visib":"6+","altim":1014,"clouds":[{"cover":"SCT","base":3000}],"obsTime":1783450800},"SBCR":{"icaoId":"SBCR","flightCategory":"VFR","rawOb":"METAR SBCR 071900Z VRB03KT CAVOK 23/15 Q1018","temp":23,"dewp":15,"wdir":"VRB","wspd":3,"visib":"6+","altim":1018,"clouds":[],"obsTime":1783450800},"SBBV":{"icaoId":"SBBV","flightCategory":"MVFR","rawOb":"METAR SBBV 071900Z 07006KT 9999 VCSH BKN030 FEW035TCU SCT080 30/23 Q1012","temp":30,"dewp":23,"wdir":70,"wspd":6,"visib":"6+","altim":1012,"clouds":[{"cover":"BKN","base":3000},{"cover":"FEW","base":3500},{"cover":"SCT","base":8000}],"obsTime":1783450800},"SBGO":{"icaoId":"SBGO","flightCategory":"VFR","rawOb":"METAR SBGO 071900Z 20006KT 120V280 CAVOK 30/11 Q1019","temp":30,"dewp":11,"wdir":200,"wspd":6,"visib":"6+","altim":1019,"clouds":[],"obsTime":1783450800},"SBCZ":{"icaoId":"SBCZ","flightCategory":"MVFR","rawOb":"METAR SBCZ 071900Z 15005KT 9999 BKN030 32/22 Q1014","temp":32,"dewp":22,"wdir":150,"wspd":5,"visib":"6+","altim":1014,"clouds":[{"cover":"BKN","base":3000}],"obsTime":1783450800},"SBPJ":{"icaoId":"SBPJ","flightCategory":"VFR","rawOb":"METAR SBPJ 071900Z 25004KT 9999 FEW045 35/15 Q1014","temp":35,"dewp":15,"wdir":250,"wspd":4,"visib":"6+","altim":1014,"clouds":[{"cover":"FEW","base":4500}],"obsTime":1783450800},"SBRF":{"icaoId":"SBRF","flightCategory":"VFR","rawOb":"METAR SBRF 071900Z 15012KT 9999 SCT025 SCT080 27/21 Q1015","temp":27,"dewp":21,"wdir":150,"wspd":12,"visib":"6+","altim":1015,"clouds":[{"cover":"SCT","base":2500},{"cover":"SCT","base":8000}],"obsTime":1783450800},"SBIL":{"icaoId":"SBIL","flightCategory":"VFR","rawOb":"METAR SBIL 071900Z 12006KT 080V160 9999 FEW025 SCT070 27/22 Q1017","temp":27,"dewp":22,"wdir":120,"wspd":6,"visib":"6+","altim":1017,"clouds":[{"cover":"FEW","base":2500},{"cover":"SCT","base":7000}],"obsTime":1783450800},"SBES":{"icaoId":"SBES","flightCategory":"VFR","rawOb":"METAR SBES 071900Z 23011KT 210V270 9999 FEW012 22/// Q1016","temp":null,"dewp":null,"wdir":230,"wspd":11,"visib":"6+","altim":1016,"clouds":[{"cover":"FEW","base":1200}],"obsTime":1783450800},"SBAR":{"icaoId":"SBAR","flightCategory":"VFR","rawOb":"METAR SBAR 071900Z 14006KT 9999 FEW025 26/21 Q1016","temp":26,"dewp":21,"wdir":140,"wspd":6,"visib":"6+","altim":1016,"clouds":[{"cover":"FEW","base":2500}],"obsTime":1783450800},"SBKG":{"icaoId":"SBKG","flightCategory":"VFR","rawOb":"METAR SBKG 071900Z 10008KT CAVOK 27/18 Q1017","temp":27,"dewp":18,"wdir":100,"wspd":8,"visib":"6+","altim":1017,"clouds":[],"obsTime":1783450800},"SBPB":{"icaoId":"SBPB","flightCategory":"VFR","rawOb":"METAR SBPB 071900Z 04009KT 9999 FEW020 SCT100 30/25 Q1012","temp":30,"dewp":25,"wdir":40,"wspd":9,"visib":"6+","altim":1012,"clouds":[{"cover":"FEW","base":2000},{"cover":"SCT","base":10000}],"obsTime":1783450800},"SBPL":{"icaoId":"SBPL","flightCategory":"VFR","rawOb":"METAR SBPL 071900Z 11009KT 9999 FEW030 32/15 Q1015","temp":32,"dewp":15,"wdir":110,"wspd":9,"visib":"6+","altim":1015,"clouds":[{"cover":"FEW","base":3000}],"obsTime":1783450800},"SBPS":{"icaoId":"SBPS","flightCategory":"VFR","rawOb":"METAR SBPS 071900Z 08008KT 9999 FEW020 25/20 Q1016","temp":25,"dewp":20,"wdir":80,"wspd":8,"visib":"6+","altim":1016,"clouds":[{"cover":"FEW","base":2000}],"obsTime":1783450800},"SBCC":{"icaoId":"SBCC","flightCategory":"VFR","rawOb":"METAR SBCC 071900Z 07008KT 010V100 9999 SCT040 32/14 Q1015","temp":32,"dewp":14,"wdir":70,"wspd":8,"visib":"6+","altim":1015,"clouds":[{"cover":"SCT","base":4000}],"obsTime":1783450800},"SBCJ":{"icaoId":"SBCJ","flightCategory":"VFR","rawOb":"METAR SBCJ 071900Z 24003KT 160V290 9999 FEW040 SCT100 30/18 Q1016","temp":30,"dewp":18,"wdir":240,"wspd":3,"visib":"6+","altim":1016,"clouds":[{"cover":"FEW","base":4000},{"cover":"SCT","base":10000}],"obsTime":1783450800},"SBTF":{"icaoId":"SBTF","flightCategory":"VFR","rawOb":"METAR SBTF 071900Z 20005KT 9999 SCT020 31/24 Q1012","temp":31,"dewp":24,"wdir":200,"wspd":5,"visib":"6+","altim":1012,"clouds":[{"cover":"SCT","base":2000}],"obsTime":1783450800},"SBTT":{"icaoId":"SBTT","flightCategory":"VFR","rawOb":"METAR SBTT 071900Z 20004KT 170V230 9999 FEW020 BKN061 30/22 Q1014","temp":30,"dewp":22,"wdir":200,"wspd":4,"visib":"6+","altim":1014,"clouds":[{"cover":"FEW","base":2000},{"cover":"BKN","base":6100}],"obsTime":1783450800},"SBTU":{"icaoId":"SBTU","flightCategory":"VFR","rawOb":"METAR SBTU 071900Z AUTO 07004KT 040V110 9999 // FEW034/// SCT042/// 30/23 Q1014","temp":30,"dewp":23,"wdir":70,"wspd":4,"visib":"6+","altim":1014,"clouds":[{"cover":"FEW","base":3400},{"cover":"SCT","base":4200}],"obsTime":1783450800},"SBVH":{"icaoId":"SBVH","flightCategory":"VFR","rawOb":"METAR SBVH 071900Z 10003KT 020V170 9999 SCT035 28/17 Q1019","temp":28,"dewp":17,"wdir":100,"wspd":3,"visib":"6+","altim":1019,"clouds":[{"cover":"SCT","base":3500}],"obsTime":1783450800},"SBCA":{"icaoId":"SBCA","flightCategory":"VFR","rawOb":"METAR SBCA 071900Z 18006KT CAVOK 16/05 Q1021","temp":16,"dewp":5,"wdir":180,"wspd":6,"visib":"6+","altim":1021,"clouds":[],"obsTime":1783450800},"SBCO":{"icaoId":"SBCO","flightCategory":"VFR","rawOb":"METAR SBCO 071900Z 27015KT CAVOK 15/04 Q1020","temp":15,"dewp":4,"wdir":270,"wspd":15,"visib":"6+","altim":1020,"clouds":[],"obsTime":1783450800},"SBSM":{"icaoId":"SBSM","flightCategory":"VFR","rawOb":"METAR SBSM 071900Z 28008KT CAVOK 15/04 Q1021","temp":15,"dewp":4,"wdir":280,"wspd":8,"visib":"6+","altim":1021,"clouds":[],"obsTime":1783450800},"SBAX":{"icaoId":"SBAX","flightCategory":"VFR","rawOb":"METAR SBAX 071900Z 25010KT 9999 SCT035 24/11 Q1021","temp":24,"dewp":11,"wdir":250,"wspd":10,"visib":"6+","altim":1021,"clouds":[{"cover":"SCT","base":3500}],"obsTime":1783450800},"SBBH":{"icaoId":"SBBH","flightCategory":"VFR","rawOb":"METAR SBBH 071900Z 27009KT 9999 BKN035 26/11 Q1019","temp":26,"dewp":11,"wdir":270,"wspd":9,"visib":"6+","altim":1019,"clouds":[{"cover":"BKN","base":3500}],"obsTime":1783450800},"SBBU":{"icaoId":"SBBU","flightCategory":"VFR","rawOb":"METAR SBBU 071900Z 27007KT 9999 FEW045 26/15 Q1019","temp":26,"dewp":15,"wdir":270,"wspd":7,"visib":"6+","altim":1019,"clouds":[{"cover":"FEW","base":4500}],"obsTime":1783450800},"SBDN":{"icaoId":"SBDN","flightCategory":"VFR","rawOb":"METAR SBDN 071900Z 26007KT CAVOK 23/13 Q1019","temp":23,"dewp":13,"wdir":260,"wspd":7,"visib":"6+","altim":1019,"clouds":[],"obsTime":1783450800},"SBIP":{"icaoId":"SBIP","flightCategory":"VFR","rawOb":"METAR SBIP 071900Z AUTO 01003KT 300V070 CAVOK 28/16 Q1015","temp":28,"dewp":16,"wdir":10,"wspd":3,"visib":"6+","altim":1015,"clouds":[],"obsTime":1783450800},"SBSC":{"icaoId":"SBSC","flightCategory":"MVFR","rawOb":"METAR SBSC 071900Z 22011G21KT 8000 SCT013 OVC025 22/19 Q1017","temp":22,"dewp":19,"wdir":220,"wspd":11,"visib":4.97,"altim":1017,"clouds":[{"cover":"SCT","base":1300},{"cover":"OVC","base":2500}],"obsTime":1783450800},"SBSJ":{"icaoId":"SBSJ","flightCategory":"MVFR","rawOb":"METAR SBSJ 071900Z 17011KT 130V200 7000 BKN027 BKN040 19/14 Q1019","temp":19,"dewp":14,"wdir":170,"wspd":11,"visib":4.35,"altim":1019,"clouds":[{"cover":"BKN","base":2700},{"cover":"BKN","base":4000}],"obsTime":1783450800},"SBSR":{"icaoId":"SBSR","flightCategory":"VFR","rawOb":"METAR SBSR 071900Z 27005KT 9999 SCT035 26/13 Q1019","temp":26,"dewp":13,"wdir":270,"wspd":5,"visib":"6+","altim":1019,"clouds":[{"cover":"SCT","base":3500}],"obsTime":1783450800},"SBOI":{"icaoId":"SBOI","flightCategory":"VFR","rawOb":"METAR SBOI 071900Z AUTO 12004KT 020V190 9999 FEW037 31/22 Q1013","temp":31,"dewp":22,"wdir":120,"wspd":4,"visib":"6+","altim":1013,"clouds":[{"cover":"FEW","base":3700}],"obsTime":1783450800},"SBPP":{"icaoId":"SBPP","flightCategory":"VFR","rawOb":"METAR SBPP 071900Z 31002KT CAVOK 21/08 Q1020","temp":21,"dewp":8,"wdir":310,"wspd":2,"visib":"6+","altim":1020,"clouds":[],"obsTime":1783450800},"SBBQ":{"icaoId":"SBBQ","flightCategory":"VFR","rawOb":"METAR SBBQ 071900Z 25007KT 9999 FEW045 22/10 Q1022","temp":22,"dewp":10,"wdir":250,"wspd":7,"visib":"6+","altim":1022,"clouds":[{"cover":"FEW","base":4500}],"obsTime":1783450800},"SBGM":{"icaoId":"SBGM","flightCategory":"MVFR","rawOb":"METAR SBGM 071900Z 15009KT 9999 BKN016 25/19 Q1015","temp":25,"dewp":19,"wdir":150,"wspd":9,"visib":"6+","altim":1015,"clouds":[{"cover":"BKN","base":1600}],"obsTime":1783450800},"SBAN":{"icaoId":"SBAN","flightCategory":"VFR","rawOb":"METAR SBAN 071900Z 21007KT CAVOK 27/09 Q1021","temp":27,"dewp":9,"wdir":210,"wspd":7,"visib":"6+","altim":1021,"clouds":[],"obsTime":1783450800},"SBIH":{"icaoId":"SBIH","flightCategory":"VFR","rawOb":"METAR SBIH 071900Z 18003KT 9999 SCT020 FEW025TCU 33/24 Q1011","temp":33,"dewp":24,"wdir":180,"wspd":3,"visib":"6+","altim":1011,"clouds":[{"cover":"SCT","base":2000},{"cover":"FEW","base":2500}],"obsTime":1783450800},"SBJV":{"icaoId":"SBJV","flightCategory":"MVFR","rawOb":"METAR SBJV 071900Z 02003KT 9999 SCT013 BKN025 17/14 Q1020","temp":17,"dewp":14,"wdir":20,"wspd":3,"visib":"6+","altim":1020,"clouds":[{"cover":"SCT","base":1300},{"cover":"BKN","base":2500}],"obsTime":1783450800},"SBNM":{"icaoId":"SBNM","flightCategory":"VFR","rawOb":"METAR SBNM 071900Z 22002KT CAVOK 14/04 Q1022","temp":14,"dewp":4,"wdir":220,"wspd":2,"visib":"6+","altim":1022,"clouds":[],"obsTime":1783450800},"SBPF":{"icaoId":"SBPF","flightCategory":"VFR","rawOb":"METAR SBPF 072000Z 23004KT CAVOK 10/01 Q1022","temp":10,"dewp":1,"wdir":230,"wspd":4,"visib":"6+","altim":1022,"clouds":[],"obsTime":1783454400},"SBAF":{"icaoId":"SBAF","flightCategory":"MVFR","rawOb":"METAR SBAF 071900Z 22016KT 9999 BKN030 23/19 Q1017","temp":23,"dewp":19,"wdir":220,"wspd":16,"visib":"6+","altim":1017,"clouds":[{"cover":"BKN","base":3000}],"obsTime":1783450800},"SBGW":{"icaoId":"SBGW","flightCategory":"VFR","rawOb":"METAR SBGW 071900Z 26003KT 210V300 9000 SCT025 SCT075 22/13 Q1018","temp":22,"dewp":13,"wdir":260,"wspd":3,"visib":5.59,"altim":1018,"clouds":[{"cover":"SCT","base":2500},{"cover":"SCT","base":7500}],"obsTime":1783450800},"SBJR":{"icaoId":"SBJR","flightCategory":"MVFR","rawOb":"METAR SBJR 071900Z 24009KT 9999 FEW018 BKN025 23/19 Q1017","temp":23,"dewp":19,"wdir":240,"wspd":9,"visib":"6+","altim":1017,"clouds":[{"cover":"FEW","base":1800},{"cover":"BKN","base":2500}],"obsTime":1783450800},"SBLS":{"icaoId":"SBLS","flightCategory":"VFR","rawOb":"METAR SBLS 071900Z 29009KT 240V310 9999 BKN048 26/10 Q1019","temp":26,"dewp":10,"wdir":290,"wspd":9,"visib":"6+","altim":1019,"clouds":[{"cover":"BKN","base":4800}],"obsTime":1783450800},"SBMT":{"icaoId":"SBMT","flightCategory":"MVFR","rawOb":"METAR SBMT 071900Z 15004KT 9999 BKN017 17/11 Q1020","temp":17,"dewp":11,"wdir":150,"wspd":4,"visib":"6+","altim":1020,"clouds":[{"cover":"BKN","base":1700}],"obsTime":1783450800},"SBST":{"icaoId":"SBST","flightCategory":"IFR","rawOb":"METAR SBST 071900Z 25005KT 4000 -DZ BR BKN009 OVC016 17/16 Q1020","temp":17,"dewp":16,"wdir":250,"wspd":5,"visib":2.49,"altim":1020,"clouds":[{"cover":"BKN","base":900},{"cover":"OVC","base":1600}],"obsTime":1783450800},"SBTA":{"icaoId":"SBTA","flightCategory":"VFR","rawOb":"METAR SBTA 071900Z 22008KT 9999 FEW025 SCT030 23/15 Q1018","temp":23,"dewp":15,"wdir":220,"wspd":8,"visib":"6+","altim":1018,"clouds":[{"cover":"FEW","base":2500},{"cover":"SCT","base":3000}],"obsTime":1783450800},"SBJP":{"icaoId":"SBJP","flightCategory":"VFR","rawOb":"METAR SBJP 071900Z 13013KT 9999 FEW022 BKN070 27/21 Q1016","temp":27,"dewp":21,"wdir":130,"wspd":13,"visib":"6+","altim":1016,"clouds":[{"cover":"FEW","base":2200},{"cover":"BKN","base":7000}],"obsTime":1783450800},"SBLE":{"icaoId":"SBLE","flightCategory":"VFR","rawOb":"METAR SBLE 071900Z AUTO VRB02KT CAVOK ///// Q1018","temp":null,"dewp":null,"wdir":"VRB","wspd":2,"visib":"6+","altim":1018,"clouds":[],"obsTime":1783450800}}}