{"updated":1775247706,"count":84,"data":{"SBLO":{"icaoId":"SBLO","flightCategory":"VFR","rawOb":"METAR SBLO 031900Z 19005KT 9999 VCSH SCT030 FEW050TCU 23/20 Q1015","temp":23,"dewp":20,"wdir":190,"wspd":5,"visib":"6+","altim":1015,"clouds":[{"cover":"SCT","base":3000},{"cover":"FEW","base":5000}],"obsTime":1775242800},"SBCF":{"icaoId":"SBCF","flightCategory":"VFR","rawOb":"METAR SBCF 031900Z 35007KT 9999 SCT043 27/18 Q1016","temp":27,"dewp":18,"wdir":350,"wspd":7,"visib":"6+","altim":1016,"clouds":[{"cover":"SCT","base":4300}],"obsTime":1775242800},"SBEG":{"icaoId":"SBEG","flightCategory":"VFR","rawOb":"METAR SBEG 031900Z 12007KT 090V160 9999 SCT025 FEW030TCU 33/23 Q1008","temp":33,"dewp":23,"wdir":120,"wspd":7,"visib":"6+","altim":1008,"clouds":[{"cover":"SCT","base":2500},{"cover":"FEW","base":3000}],"obsTime":1775242800},"SBMA":{"icaoId":"SBMA","flightCategory":"VFR","rawOb":"METAR SBMA 031900Z 20002KT 9999 FEW025TCU 32/23 Q1010","temp":32,"dewp":23,"wdir":200,"wspd":2,"visib":"6+","altim":1010,"clouds":[{"cover":"FEW","base":2500}],"obsTime":1775242800},"SBME":{"icaoId":"SBME","flightCategory":"VFR","rawOb":"METAR SBME 031900Z 04014KT 9999 FEW030 34/20 Q1012","temp":34,"dewp":20,"wdir":40,"wspd":14,"visib":"6+","altim":1012,"clouds":[{"cover":"FEW","base":3000}],"obsTime":1775242800},"SBBE":{"icaoId":"SBBE","flightCategory":"VFR","rawOb":"METAR SBBE 031900Z 33007KT 9999 SCT040 FEW042TCU 30/25 Q1009","temp":30,"dewp":25,"wdir":330,"wspd":7,"visib":"6+","altim":1009,"clouds":[{"cover":"SCT","base":4000},{"cover":"FEW","base":4200}],"obsTime":1775242800},"SBMG":{"icaoId":"SBMG","flightCategory":"VFR","rawOb":"METAR SBMG 031900Z 28007KT 240V300 9999 VCSH SCT045 FEW050TCU 31/19 Q1013","temp":31,"dewp":19,"wdir":280,"wspd":7,"visib":"6+","altim":1013,"clouds":[{"cover":"SCT","base":4500},{"cover":"FEW","base":5000}],"obsTime":1775242800},"SBFI":{"icaoId":"SBFI","flightCategory":"VFR","rawOb":"METAR SBFI 031900Z 06007KT 9999 VCSH SCT040 FEW040TCU 29/23 Q1012","temp":29,"dewp":23,"wdir":60,"wspd":7,"visib":"6+","altim":1012,"clouds":[{"cover":"SCT","base":4000},{"cover":"FEW","base":4000}],"obsTime":1775242800},"SBCG":{"icaoId":"SBCG","flightCategory":"VFR","rawOb":"METAR SBCG 031900Z 26008KT CAVOK 32/19 Q1014","temp":32,"dewp":19,"wdir":260,"wspd":8,"visib":"6+","altim":1014,"clouds":[],"obsTime":1775242800},"SBMK":{"icaoId":"SBMK","flightCategory":"VFR","rawOb":"METAR SBMK 031900Z 09006KT 9999 FEW030 29/19 Q1017","temp":29,"dewp":19,"wdir":90,"wspd":6,"visib":"6+","altim":1017,"clouds":[{"cover":"FEW","base":3000}],"obsTime":1775242800},"SBFL":{"icaoId":"SBFL","flightCategory":"VFR","rawOb":"METAR SBFL 031900Z 11010KT 9999 VCSH FEW030 FEW050TCU 27/20 Q1011","temp":27,"dewp":20,"wdir":110,"wspd":10,"visib":"6+","altim":1011,"clouds":[{"cover":"FEW","base":3000},{"cover":"FEW","base":5000}],"obsTime":1775242800},"SBMO":{"icaoId":"SBMO","flightCategory":"MVFR","rawOb":"METAR SBMO 031900Z 11011KT 9999 BKN023 29/24 Q1013","temp":29,"dewp":24,"wdir":110,"wspd":11,"visib":"6+","altim":1013,"clouds":[{"cover":"BKN","base":2300}],"obsTime":1775242800},"SBMQ":{"icaoId":"SBMQ","flightCategory":"VFR","rawOb":"METAR SBMQ 031900Z 08009KT 030V140 9999 SCT040 FEW055TCU SCT070 32/23 Q1009","temp":32,"dewp":23,"wdir":80,"wspd":9,"visib":"6+","altim":1009,"clouds":[{"cover":"SCT","base":4000},{"cover":"FEW","base":5500},{"cover":"SCT","base":7000}],"obsTime":1775242800},"SBCP":{"icaoId":"SBCP","flightCategory":"VFR","rawOb":"METAR SBCP 031900Z 09010KT 9999 FEW020 BKN100 30/23 Q1013","temp":30,"dewp":23,"wdir":90,"wspd":10,"visib":"6+","altim":1013,"clouds":[{"cover":"FEW","base":2000},{"cover":"BKN","base":10000}],"obsTime":1775242800},"SBNT":{"icaoId":"SBNT","flightCategory":"VFR","rawOb":"METAR SBNT 031900Z 11012KT 090V150 9999 SCT030 30/24 Q1011","temp":30,"dewp":24,"wdir":110,"wspd":12,"visib":"6+","altim":1011,"clouds":[{"cover":"SCT","base":3000}],"obsTime":1775242800},"SBFZ":{"icaoId":"SBFZ","flightCategory":"VFR","rawOb":"METAR SBFZ 031900Z 09009KT 050V110 9999 SCT023 30/25 Q1010","temp":30,"dewp":25,"wdir":90,"wspd":9,"visib":"6+","altim":1010,"clouds":[{"cover":"SCT","base":2300}],"obsTime":1775242800},"SBBV":{"icaoId":"SBBV","flightCategory":"VFR","rawOb":"METAR SBBV 031900Z 16005KT 9999 SCT040 FEW045TCU 33/21 Q1008","temp":33,"dewp":21,"wdir":160,"wspd":5,"visib":"6+","altim":1008,"clouds":[{"cover":"SCT","base":4000},{"cover":"FEW","base":4500}],"obsTime":1775242800},"SBPA":{"icaoId":"SBPA","flightCategory":"VFR","rawOb":"METAR SBPA 031900Z 18007KT 140V210 9999 SCT035 29/22 Q1011","temp":29,"dewp":22,"wdir":180,"wspd":7,"visib":"6+","altim":1011,"clouds":[{"cover":"SCT","base":3500}],"obsTime":1775242800},"SBGL":{"icaoId":"SBGL","flightCategory":"VFR","rawOb":"METAR SBGL 031900Z 13008KT 9999 FEW030 FEW035TCU 30/22 Q1011","temp":30,"dewp":22,"wdir":130,"wspd":8,"visib":"6+","altim":1011,"clouds":[{"cover":"FEW","base":3000},{"cover":"FEW","base":3500}],"obsTime":1775242800},"SBPJ":{"icaoId":"SBPJ","flightCategory":"VFR","rawOb":"METAR SBPJ 031900Z 09003KT 9999 SCT030 SCT100 32/24 Q1011","temp":32,"dewp":24,"wdir":90,"wspd":3,"visib":"6+","altim":1011,"clouds":[{"cover":"SCT","base":3000},{"cover":"SCT","base":10000}],"obsTime":1775242800},"SBAT":{"icaoId":"SBAT","flightCategory":"MVFR","rawOb":"METAR SBAT 031900Z 14005KT 9999 BKN030 FEW035TCU 33/22 Q1010","temp":33,"dewp":22,"wdir":140,"wspd":5,"visib":"6+","altim":1010,"clouds":[{"cover":"BKN","base":3000},{"cover":"FEW","base":3500}],"obsTime":1775242800},"SBPV":{"icaoId":"SBPV","flightCategory":"VFR","rawOb":"METAR SBPV 031900Z 01006KT 340V070 9999 SCT030 FEW035TCU 32/23 Q1008","temp":32,"dewp":23,"wdir":10,"wspd":6,"visib":"6+","altim":1008,"clouds":[{"cover":"SCT","base":3000},{"cover":"FEW","base":3500}],"obsTime":1775242800},"SBVT":{"icaoId":"SBVT","flightCategory":"VFR","rawOb":"METAR SBVT 031900Z 06011KT 9999 FEW040 29/23 Q1014","temp":29,"dewp":23,"wdir":60,"wspd":11,"visib":"6+","altim":1014,"clouds":[{"cover":"FEW","base":4000}],"obsTime":1775242800},"SBGO":{"icaoId":"SBGO","flightCategory":"VFR","rawOb":"METAR SBGO 031900Z 06006KT 030V100 9999 TS SCT043 FEW045CB 29/20 Q1016","temp":29,"dewp":20,"wdir":60,"wspd":6,"visib":"6+","altim":1016,"clouds":[{"cover":"SCT","base":4300},{"cover":"FEW","base":4500}],"obsTime":1775242800},"SBRB":{"icaoId":"SBRB","flightCategory":"MVFR","rawOb":"SPECI SBRB 031830Z 33006KT 9999 TS VCSH SCT010 BKN020 FEW040CB BKN100 28/24 Q1010","temp":28,"dewp":24,"wdir":330,"wspd":6,"visib":"6+","altim":1010,"clouds":[{"cover":"SCT","base":1000},{"cover":"BKN","base":2000},{"cover":"FEW","base":4000},{"cover":"BKN","base":10000}],"obsTime":1775241000},"SBCR":{"icaoId":"SBCR","flightCategory":"VFR","rawOb":"METAR SBCR 031900Z 05008KT 360V100 9999 FEW045 FEW050TCU 34/21 Q1010","temp":34,"dewp":21,"wdir":50,"wspd":8,"visib":"6+","altim":1010,"clouds":[{"cover":"FEW","base":4500},{"cover":"FEW","base":5000}],"obsTime":1775242800},"SBRF":{"icaoId":"SBRF","flightCategory":"MVFR","rawOb":"METAR SBRF 031900Z 12010KT 090V150 9999 BKN023 30/24 Q1012","temp":30,"dewp":24,"wdir":120,"wspd":10,"visib":"6+","altim":1012,"clouds":[{"cover":"BKN","base":2300}],"obsTime":1775242800},"SBGR":{"icaoId":"SBGR","flightCategory":"VFR","rawOb":"METAR SBGR 031900Z 30010KT 9999 SCT046 FEW050TCU 29/19 Q1016","temp":29,"dewp":19,"wdir":300,"wspd":10,"visib":"6+","altim":1016,"clouds":[{"cover":"SCT","base":4600},{"cover":"FEW","base":5000}],"obsTime":1775242800},"SBSG":{"icaoId":"SBSG","flightCategory":"VFR","rawOb":"METAR SBSG 031900Z 10012KT 9999 VCSH VCTS SCT030 FEW035CB 30/24 Q1011","temp":30,"dewp":24,"wdir":100,"wspd":12,"visib":"6+","altim":1011,"clouds":[{"cover":"SCT","base":3000},{"cover":"FEW","base":3500}],"obsTime":1775242800},"SBHT":{"icaoId":"SBHT","flightCategory":"VFR","rawOb":"METAR SBHT 031900Z 14003KT 9999 SCT030 32/22 Q1010","temp":32,"dewp":22,"wdir":140,"wspd":3,"visib":"6+","altim":1010,"clouds":[{"cover":"SCT","base":3000}],"obsTime":1775242800},"SBSL":{"icaoId":"SBSL","flightCategory":"VFR","rawOb":"METAR SBSL 031900Z 11007KT 9999 SCT015 FEW025TCU 27/25 Q1010 RETS","temp":27,"dewp":25,"wdir":110,"wspd":7,"visib":"6+","altim":1010,"clouds":[{"cover":"SCT","base":1500},{"cover":"FEW","base":2500}],"obsTime":1775242800},"SBCB":{"icaoId":"SBCB","flightCategory":"VFR","rawOb":"METAR SBCB 031900Z 09009KT CAVOK 30/23 Q1013","temp":30,"dewp":23,"wdir":90,"wspd":9,"visib":"6+","altim":1013,"clouds":[],"obsTime":1775242800},"SBSN":{"icaoId":"SBSN","flightCategory":"VFR","rawOb":"METAR SBSN 031900Z 07009KT 9999 FEW020 FEW023TCU 31/25 Q1009","temp":31,"dewp":25,"wdir":70,"wspd":9,"visib":"6+","altim":1009,"clouds":[{"cover":"FEW","base":2000},{"cover":"FEW","base":2300}],"obsTime":1775242800},"SBIL":{"icaoId":"SBIL","flightCategory":"VFR","rawOb":"METAR SBIL 031900Z 18005KT 150V220 9999 VCSH FEW020 FEW023TCU 28/24 Q1014","temp":28,"dewp":24,"wdir":180,"wspd":5,"visib":"6+","altim":1014,"clouds":[{"cover":"FEW","base":2000},{"cover":"FEW","base":2300}],"obsTime":1775242800},"SBSP":{"icaoId":"SBSP","flightCategory":"VFR","rawOb":"METAR SBSP 031900Z 29009KT 250V320 9999 SCT045 27/18 Q1018","temp":27,"dewp":18,"wdir":290,"wspd":9,"visib":"6+","altim":1018,"clouds":[{"cover":"SCT","base":4500}],"obsTime":1775242800},"SBCT":{"icaoId":"SBCT","flightCategory":"VFR","rawOb":"METAR SBCT 031900Z 30009KT 9999 VCSH FEW040TCU SCT045 BKN100 29/16 Q1016","temp":29,"dewp":16,"wdir":300,"wspd":9,"visib":"6+","altim":1016,"clouds":[{"cover":"FEW","base":4000},{"cover":"SCT","base":4500},{"cover":"BKN","base":10000}],"obsTime":1775242800},"SBSV":{"icaoId":"SBSV","flightCategory":"VFR","rawOb":"METAR SBSV 031900Z 10006KT 9999 SCT019 BKN080 27/23 Q1014","temp":27,"dewp":23,"wdir":100,"wspd":6,"visib":"6+","altim":1014,"clouds":[{"cover":"SCT","base":1900},{"cover":"BKN","base":8000}],"obsTime":1775242800},"SBJU":{"icaoId":"SBJU","flightCategory":"VFR","rawOb":"METAR SBJU 031900Z 15010KT 9999 SCT022 31/23 Q1012","temp":31,"dewp":23,"wdir":150,"wspd":10,"visib":"6+","altim":1012,"clouds":[{"cover":"SCT","base":2200}],"obsTime":1775242800},"SBTE":{"icaoId":"SBTE","flightCategory":"VFR","rawOb":"METAR SBTE 031900Z 24002KT 9999 SCT020 32/23 Q1009","temp":32,"dewp":23,"wdir":240,"wspd":2,"visib":"6+","altim":1009,"clouds":[{"cover":"SCT","base":2000}],"obsTime":1775242800},"SBCZ":{"icaoId":"SBCZ","flightCategory":"MVFR","rawOb":"METAR SBCZ 031900Z 18008KT 9999 VCSH BKN025 FEW025TCU 27/25 Q1009","temp":27,"dewp":25,"wdir":180,"wspd":8,"visib":"6+","altim":1009,"clouds":[{"cover":"BKN","base":2500},{"cover":"FEW","base":2500}],"obsTime":1775242800},"SBUL":{"icaoId":"SBUL","flightCategory":"VFR","rawOb":"METAR SBUL 031900Z 05009KT 350V080 9999 VCTS SCT035 FEW040CB 27/18 Q1018","temp":27,"dewp":18,"wdir":50,"wspd":9,"visib":"6+","altim":1018,"clouds":[{"cover":"SCT","base":3500},{"cover":"FEW","base":4000}],"obsTime":1775242800},"SBUR":{"icaoId":"SBUR","flightCategory":"VFR","rawOb":"METAR SBUR 031900Z 33010KT 9999 TS VCSH SCT040 FEW042CB 25/18 Q1016","temp":25,"dewp":18,"wdir":330,"wspd":10,"visib":"6+","altim":1016,"clouds":[{"cover":"SCT","base":4000},{"cover":"FEW","base":4200}],"obsTime":1775242800},"SBKP":{"icaoId":"SBKP","flightCategory":"VFR","rawOb":"METAR SBKP 031900Z 24009KT 9999 FEW040 FEW042TCU 28/21 Q1016","temp":28,"dewp":21,"wdir":240,"wspd":9,"visib":"6+","altim":1016,"clouds":[{"cover":"FEW","base":4000},{"cover":"FEW","base":4200}],"obsTime":1775242800},"SBBR":{"icaoId":"SBBR","flightCategory":"VFR","rawOb":"METAR SBBR 031900Z 13007KT 9999 SCT030 BKN080 25/19 Q1019","temp":25,"dewp":19,"wdir":130,"wspd":7,"visib":"6+","altim":1019,"clouds":[{"cover":"SCT","base":3000},{"cover":"BKN","base":8000}],"obsTime":1775242800},"SBBQ":{"icaoId":"SBBQ","flightCategory":"MVFR","rawOb":"METAR SBBQ 031900Z 06003KT 9999 -TSRA BKN030 FEW040CB 21/20 Q1021 RERA","temp":21,"dewp":20,"wdir":60,"wspd":3,"visib":"6+","altim":1021,"clouds":[{"cover":"BKN","base":3000},{"cover":"FEW","base":4000}],"obsTime":1775242800},"SBCJ":{"icaoId":"SBCJ","flightCategory":"VFR","rawOb":"METAR SBCJ 031900Z 11004KT 9999 SCT023 26/22 Q1015","temp":26,"dewp":22,"wdir":110,"wspd":4,"visib":"6+","altim":1015,"clouds":[{"cover":"SCT","base":2300}],"obsTime":1775242800},"SBPB":{"icaoId":"SBPB","flightCategory":"VFR","rawOb":"METAR SBPB 031900Z 01005KT 9999 FEW016 BKN080 29/25 Q1010","temp":29,"dewp":25,"wdir":10,"wspd":5,"visib":"6+","altim":1010,"clouds":[{"cover":"FEW","base":1600},{"cover":"BKN","base":8000}],"obsTime":1775242800},"SBPL":{"icaoId":"SBPL","flightCategory":"VFR","rawOb":"METAR SBPL 031900Z 21001KT 9999 SCT025 32/22 Q1012","temp":32,"dewp":22,"wdir":210,"wspd":1,"visib":"6+","altim":1012,"clouds":[{"cover":"SCT","base":2500}],"obsTime":1775242800},"SBCO":{"icaoId":"SBCO","flightCategory":"VFR","rawOb":"METAR SBCO 031900Z 13006KT 100V180 9999 SCT036 BKN045 30/22 Q1012","temp":30,"dewp":22,"wdir":130,"wspd":6,"visib":"6+","altim":1012,"clouds":[{"cover":"SCT","base":3600},{"cover":"BKN","base":4500}],"obsTime":1775242800},"SBBU":{"icaoId":"SBBU","flightCategory":"VFR","rawOb":"METAR SBBU 031900Z 26006KT 9999 SCT040 31/21 Q1015","temp":31,"dewp":21,"wdir":260,"wspd":6,"visib":"6+","altim":1015,"clouds":[{"cover":"SCT","base":4000}],"obsTime":1775242800},"SBPP":{"icaoId":"SBPP","flightCategory":"VFR","rawOb":"METAR SBPP 031900Z 04008KT 9999 SCT020 29/20 Q1015","temp":29,"dewp":20,"wdir":40,"wspd":8,"visib":"6+","altim":1015,"clouds":[{"cover":"SCT","base":2000}],"obsTime":1775242800},"SBDN":{"icaoId":"SBDN","flightCategory":"VFR","rawOb":"METAR SBDN 031900Z 33003KT 9999 SCT043 FEW050TCU 32/20 Q1013","temp":32,"dewp":20,"wdir":330,"wspd":3,"visib":"6+","altim":1013,"clouds":[{"cover":"SCT","base":4300},{"cover":"FEW","base":5000}],"obsTime":1775242800},"SBPS":{"icaoId":"SBPS","flightCategory":"VFR","rawOb":"METAR SBPS 031900Z VRB02KT 9999 SCT025 BKN100 27/24 Q1015","temp":27,"dewp":24,"wdir":"VRB","wspd":2,"visib":"6+","altim":1015,"clouds":[{"cover":"SCT","base":2500},{"cover":"BKN","base":10000}],"obsTime":1775242800},"SBSC":{"icaoId":"SBSC","flightCategory":"VFR","rawOb":"METAR SBSC 031900Z 21006KT 9999 FEW025 FEW030TCU 27/23 Q1012","temp":27,"dewp":23,"wdir":210,"wspd":6,"visib":"6+","altim":1012,"clouds":[{"cover":"FEW","base":2500},{"cover":"FEW","base":3000}],"obsTime":1775242800},"SBBH":{"icaoId":"SBBH","flightCategory":"VFR","rawOb":"METAR SBBH 031900Z 06005KT 9999 SCT045 29/15 Q1017","temp":29,"dewp":15,"wdir":60,"wspd":5,"visib":"6+","altim":1017,"clouds":[{"cover":"SCT","base":4500}],"obsTime":1775242800},"SBCC":{"icaoId":"SBCC","flightCategory":"MVFR","rawOb":"METAR SBCC 031900Z 07009KT 9999 BKN020 FEW025TCU SCT100 30/20 Q1011","temp":30,"dewp":20,"wdir":70,"wspd":9,"visib":"6+","altim":1011,"clouds":[{"cover":"BKN","base":2000},{"cover":"FEW","base":2500},{"cover":"SCT","base":10000}],"obsTime":1775242800},"SBOI":{"icaoId":"SBOI","flightCategory":"VFR","rawOb":"METAR SBOI 031900Z AUTO 11006KT 080V150 CAVOK 31/24 Q1009","temp":31,"dewp":24,"wdir":110,"wspd":6,"visib":"6+","altim":1009,"clouds":[],"obsTime":1775242800},"SBVH":{"icaoId":"SBVH","flightCategory":"VFR","rawOb":"METAR SBVH 031900Z VRB04KT 9999 VCSH SCT025 FEW030TCU 27/22 Q1013","temp":27,"dewp":22,"wdir":"VRB","wspd":4,"visib":"6+","altim":1013,"clouds":[{"cover":"SCT","base":2500},{"cover":"FEW","base":3000}],"obsTime":1775242800},"SBSJ":{"icaoId":"SBSJ","flightCategory":"VFR","rawOb":"SPECI SBSJ 031846Z 03010KT 9999 TS VCSH BKN040 FEW045CB BKN080 23/19 Q1016","temp":23,"dewp":19,"wdir":30,"wspd":10,"visib":"6+","altim":1016,"clouds":[{"cover":"BKN","base":4000},{"cover":"FEW","base":4500},{"cover":"BKN","base":8000}],"obsTime":1775241960},"SBES":{"icaoId":"SBES","flightCategory":"VFR","rawOb":"METAR SBES 031900Z 05007KT 020V090 CAVOK 31/// Q1012","temp":null,"dewp":null,"wdir":50,"wspd":7,"visib":"6+","altim":1012,"clouds":[],"obsTime":1775242800},"SBSM":{"icaoId":"SBSM","flightCategory":"VFR","rawOb":"METAR SBSM 031900Z 32003KT 260V060 9999 SCT040 32/19 Q1011","temp":32,"dewp":19,"wdir":320,"wspd":3,"visib":"6+","altim":1011,"clouds":[{"cover":"SCT","base":4000}],"obsTime":1775242800},"SBAX":{"icaoId":"SBAX","flightCategory":"VFR","rawOb":"METAR SBAX 031900Z AUTO 03006KT 360V080 9999 FEW034 26/18 Q1018","temp":26,"dewp":18,"wdir":30,"wspd":6,"visib":"6+","altim":1018,"clouds":[{"cover":"FEW","base":3400}],"obsTime":1775242800},"SBCA":{"icaoId":"SBCA","flightCategory":"VFR","rawOb":"METAR SBCA 031900Z 35009KT 9999 SCT040 FEW050TCU 28/19 Q1017","temp":28,"dewp":19,"wdir":350,"wspd":9,"visib":"6+","altim":1017,"clouds":[{"cover":"SCT","base":4000},{"cover":"FEW","base":5000}],"obsTime":1775242800},"SBSR":{"icaoId":"SBSR","flightCategory":"VFR","rawOb":"METAR SBSR 031900Z 25007KT 9999 SCT030 31/18 Q1014","temp":31,"dewp":18,"wdir":250,"wspd":7,"visib":"6+","altim":1014,"clouds":[{"cover":"SCT","base":3000}],"obsTime":1775242800},"SBAR":{"icaoId":"SBAR","flightCategory":"MVFR","rawOb":"METAR SBAR 031900Z 10009KT 080V140 9999 BKN023 30/24 Q1012","temp":30,"dewp":24,"wdir":100,"wspd":9,"visib":"6+","altim":1012,"clouds":[{"cover":"BKN","base":2300}],"obsTime":1775242800},"SBTF":{"icaoId":"SBTF","flightCategory":"VFR","rawOb":"METAR SBTF 031900Z 27013KT 9999 -RA SCT008 SCT025TCU BKN070 24/23 Q1010","temp":24,"dewp":23,"wdir":270,"wspd":13,"visib":"6+","altim":1010,"clouds":[{"cover":"SCT","base":800},{"cover":"SCT","base":2500},{"cover":"BKN","base":7000}],"obsTime":1775242800},"SBIP":{"icaoId":"SBIP","flightCategory":"VFR","rawOb":"METAR SBIP 031900Z AUTO 02008KT CAVOK 31/19 Q1015","temp":31,"dewp":19,"wdir":20,"wspd":8,"visib":"6+","altim":1015,"clouds":[],"obsTime":1775242800},"SBTT":{"icaoId":"SBTT","flightCategory":"MVFR","rawOb":"METAR SBTT 031900Z 34004KT 9999 BKN014 BKN070 26/22 Q1011","temp":26,"dewp":22,"wdir":340,"wspd":4,"visib":"6+","altim":1011,"clouds":[{"cover":"BKN","base":1400},{"cover":"BKN","base":7000}],"obsTime":1775242800},"SBUY":{"icaoId":"SBUY","flightCategory":"IFR","rawOb":"METAR SBUY 031900Z 34009KT 3000 -RA BKN008 FEW030TCU SCT100 21/21 Q1009 RETS","temp":21,"dewp":21,"wdir":340,"wspd":9,"visib":1.86,"altim":1009,"clouds":[{"cover":"BKN","base":800},{"cover":"FEW","base":3000},{"cover":"SCT","base":10000}],"obsTime":1775242800},"SBKG":{"icaoId":"SBKG","flightCategory":"VFR","rawOb":"METAR SBKG 031900Z 12013KT 9999 SCT030 28/21 Q1014","temp":28,"dewp":21,"wdir":120,"wspd":13,"visib":"6+","altim":1014,"clouds":[{"cover":"SCT","base":3000}],"obsTime":1775242800},"SBGM":{"icaoId":"SBGM","flightCategory":"VFR","rawOb":"METAR SBGM 031900Z 36007KT 9999 BKN043 30/20 Q1009","temp":30,"dewp":20,"wdir":360,"wspd":7,"visib":"6+","altim":1009,"clouds":[{"cover":"BKN","base":4300}],"obsTime":1775242800},"SBGW":{"icaoId":"SBGW","flightCategory":"VFR","rawOb":"METAR SBGW 031900Z VRB02KT 9999 VCSH SCT030 FEW035TCU BKN100 27/19 Q1015","temp":27,"dewp":19,"wdir":"VRB","wspd":2,"visib":"6+","altim":1015,"clouds":[{"cover":"SCT","base":3000},{"cover":"FEW","base":3500},{"cover":"BKN","base":10000}],"obsTime":1775242800},"SBJR":{"icaoId":"SBJR","flightCategory":"VFR","rawOb":"METAR SBJR 031900Z 21005KT 9999 FEW030 SCT090 29/23 Q1012","temp":29,"dewp":23,"wdir":210,"wspd":5,"visib":"6+","altim":1012,"clouds":[{"cover":"FEW","base":3000},{"cover":"SCT","base":9000}],"obsTime":1775242800},"SBLS":{"icaoId":"SBLS","flightCategory":"VFR","rawOb":"METAR SBLS 031900Z 04003KT 310V090 9999 SCT040 SCT100 27/19 Q1018","temp":27,"dewp":19,"wdir":40,"wspd":3,"visib":"6+","altim":1018,"clouds":[{"cover":"SCT","base":4000},{"cover":"SCT","base":10000}],"obsTime":1775242800},"SBMT":{"icaoId":"SBMT","flightCategory":"VFR","rawOb":"METAR SBMT 031900Z 27009KT 240V300 9999 BKN040 FEW043TCU 27/18 Q1016","temp":27,"dewp":18,"wdir":270,"wspd":9,"visib":"6+","altim":1016,"clouds":[{"cover":"BKN","base":4000},{"cover":"FEW","base":4300}],"obsTime":1775242800},"SBST":{"icaoId":"SBST","flightCategory":"VFR","rawOb":"METAR SBST 031900Z 16007KT CAVOK 29/23 Q1012","temp":29,"dewp":23,"wdir":160,"wspd":7,"visib":"6+","altim":1012,"clouds":[],"obsTime":1775242800},"SBTA":{"icaoId":"SBTA","flightCategory":"VFR","rawOb":"METAR SBTA 031900Z 27005KT 9999 VCSH BKN035 FEW040TCU BKN100 22/22 Q1016 RETS","temp":22,"dewp":22,"wdir":270,"wspd":5,"visib":"6+","altim":1016,"clouds":[{"cover":"BKN","base":3500},{"cover":"FEW","base":4000},{"cover":"BKN","base":10000}],"obsTime":1775242800},"SBAF":{"icaoId":"SBAF","flightCategory":"VFR","rawOb":"METAR SBAF 031900Z 16009KT 9999 FEW030 FEW040TCU 32/23 Q1012","temp":32,"dewp":23,"wdir":160,"wspd":9,"visib":"6+","altim":1012,"clouds":[{"cover":"FEW","base":3000},{"cover":"FEW","base":4000}],"obsTime":1775242800},"SBAN":{"icaoId":"SBAN","flightCategory":"MVFR","rawOb":"METAR SBAN 031900Z 10008KT 9999 BKN030 SCT100 25/19 Q1019","temp":25,"dewp":19,"wdir":100,"wspd":8,"visib":"6+","altim":1019,"clouds":[{"cover":"BKN","base":3000},{"cover":"SCT","base":10000}],"obsTime":1775242800},"SBJV":{"icaoId":"SBJV","flightCategory":"VFR","rawOb":"METAR SBJV 031900Z 12006KT 9999 FEW030 31/25 Q1011","temp":31,"dewp":25,"wdir":120,"wspd":6,"visib":"6+","altim":1011,"clouds":[{"cover":"FEW","base":3000}],"obsTime":1775242800},"SBPF":{"icaoId":"SBPF","flightCategory":"VFR","rawOb":"METAR SBPF 032000Z 23007KT 9999 VCSH BKN045 FEW050TCU 28/17 Q1015","temp":28,"dewp":17,"wdir":230,"wspd":7,"visib":"6+","altim":1015,"clouds":[{"cover":"BKN","base":4500},{"cover":"FEW","base":5000}],"obsTime":1775246400},"SBIH":{"icaoId":"SBIH","flightCategory":"VFR","rawOb":"METAR SBIH 031900Z 06003KT 9999 SCT020 FEW025TCU 33/23 Q1008","temp":33,"dewp":23,"wdir":60,"wspd":3,"visib":"6+","altim":1008,"clouds":[{"cover":"SCT","base":2000},{"cover":"FEW","base":2500}],"obsTime":1775242800},"SBLE":{"icaoId":"SBLE","flightCategory":"VFR","rawOb":"METAR SBLE 031900Z AUTO VRB02KT 9999 FEW044 29/21 Q1015","temp":29,"dewp":21,"wdir":"VRB","wspd":2,"visib":"6+","altim":1015,"clouds":[{"cover":"FEW","base":4400}],"obsTime":1775242800},"SBJP":{"icaoId":"SBJP","flightCategory":"VFR","rawOb":"METAR SBJP 031900Z 11010KT 9999 FEW024 BKN089 29/24 Q1012","temp":29,"dewp":24,"wdir":110,"wspd":10,"visib":"6+","altim":1012,"clouds":[{"cover":"FEW","base":2400},{"cover":"BKN","base":8900}],"obsTime":1775242800}}}