{"updated":1782764433,"count":86,"data":{"SBMQ":{"icaoId":"SBMQ","flightCategory":"VFR","rawOb":"METAR SBMQ 291900Z 07011KT 9999 FEW020 FEW040TCU 30/25 Q1010","temp":30,"dewp":25,"wdir":70,"wspd":11,"visib":"6+","altim":1010,"clouds":[{"cover":"FEW","base":2000},{"cover":"FEW","base":4000}],"obsTime":1782759600},"SBTE":{"icaoId":"SBTE","flightCategory":"VFR","rawOb":"METAR SBTE 291900Z 16004KT 060V210 9999 FEW030 32/19 Q1011","temp":32,"dewp":19,"wdir":160,"wspd":4,"visib":"6+","altim":1011,"clouds":[{"cover":"FEW","base":3000}],"obsTime":1782759600},"SBBE":{"icaoId":"SBBE","flightCategory":"VFR","rawOb":"METAR SBBE 291900Z 04009KT 9999 BKN035 32/24 Q1010","temp":32,"dewp":24,"wdir":40,"wspd":9,"visib":"6+","altim":1010,"clouds":[{"cover":"BKN","base":3500}],"obsTime":1782759600},"SBSN":{"icaoId":"SBSN","flightCategory":"VFR","rawOb":"METAR SBSN 291900Z 08011KT 9999 FEW020 FEW025TCU 31/24 Q1009","temp":31,"dewp":24,"wdir":80,"wspd":11,"visib":"6+","altim":1009,"clouds":[{"cover":"FEW","base":2000},{"cover":"FEW","base":2500}],"obsTime":1782759600},"SBGL":{"icaoId":"SBGL","flightCategory":"VFR","rawOb":"METAR SBGL 291900Z 22011KT CAVOK 26/19 Q1017","temp":26,"dewp":19,"wdir":220,"wspd":11,"visib":"6+","altim":1017,"clouds":[],"obsTime":1782759600},"SBPJ":{"icaoId":"SBPJ","flightCategory":"VFR","rawOb":"METAR SBPJ 291900Z 11006KT 080V140 CAVOK 33/17 Q1013","temp":33,"dewp":17,"wdir":110,"wspd":6,"visib":"6+","altim":1013,"clouds":[],"obsTime":1782759600},"SBEG":{"icaoId":"SBEG","flightCategory":"VFR","rawOb":"METAR SBEG 291900Z 13011KT 9999 SCT035 FEW040TCU SCT100 32/24 Q1010","temp":32,"dewp":24,"wdir":130,"wspd":11,"visib":"6+","altim":1010,"clouds":[{"cover":"SCT","base":3500},{"cover":"FEW","base":4000},{"cover":"SCT","base":10000}],"obsTime":1782759600},"SBAT":{"icaoId":"SBAT","flightCategory":"VFR","rawOb":"METAR SBAT 291900Z 12008KT 9999 FEW030 35/16 Q1012","temp":35,"dewp":16,"wdir":120,"wspd":8,"visib":"6+","altim":1012,"clouds":[{"cover":"FEW","base":3000}],"obsTime":1782759600},"SBCZ":{"icaoId":"SBCZ","flightCategory":"MVFR","rawOb":"METAR SBCZ 291900Z 15003KT 9999 BKN030 BKN100 30/23 Q1013","temp":30,"dewp":23,"wdir":150,"wspd":3,"visib":"6+","altim":1013,"clouds":[{"cover":"BKN","base":3000},{"cover":"BKN","base":10000}],"obsTime":1782759600},"SBHT":{"icaoId":"SBHT","flightCategory":"MVFR","rawOb":"METAR SBHT 291900Z 10005KT 9999 BKN030 31/24 Q1010","temp":31,"dewp":24,"wdir":100,"wspd":5,"visib":"6+","altim":1010,"clouds":[{"cover":"BKN","base":3000}],"obsTime":1782759600},"SBFZ":{"icaoId":"SBFZ","flightCategory":"VFR","rawOb":"METAR SBFZ 291900Z 10015KT CAVOK 28/21 Q1012","temp":28,"dewp":21,"wdir":100,"wspd":15,"visib":"6+","altim":1012,"clouds":[],"obsTime":1782759600},"SBMG":{"icaoId":"SBMG","flightCategory":"VFR","rawOb":"METAR SBMG 291900Z 34006KT 300V010 9999 FEW025TCU SCT045 27/18 Q1015","temp":27,"dewp":18,"wdir":340,"wspd":6,"visib":"6+","altim":1015,"clouds":[{"cover":"FEW","base":2500},{"cover":"SCT","base":4500}],"obsTime":1782759600},"SBME":{"icaoId":"SBME","flightCategory":"VFR","rawOb":"METAR SBME 291900Z 02010KT CAVOK 29/18 Q1017","temp":29,"dewp":18,"wdir":20,"wspd":10,"visib":"6+","altim":1017,"clouds":[],"obsTime":1782759600},"SBMK":{"icaoId":"SBMK","flightCategory":"VFR","rawOb":"METAR SBMK 291900Z 07005KT CAVOK 27/10 Q1019","temp":27,"dewp":10,"wdir":70,"wspd":5,"visib":"6+","altim":1019,"clouds":[],"obsTime":1782759600},"SBSV":{"icaoId":"SBSV","flightCategory":"VFR","rawOb":"METAR SBSV 291900Z 12008KT 9999 SCT023 27/22 Q1017","temp":27,"dewp":22,"wdir":120,"wspd":8,"visib":"6+","altim":1017,"clouds":[{"cover":"SCT","base":2300}],"obsTime":1782759600},"SBUL":{"icaoId":"SBUL","flightCategory":"VFR","rawOb":"METAR SBUL 291900Z 06009KT 020V090 CAVOK 25/13 Q1021","temp":25,"dewp":13,"wdir":60,"wspd":9,"visib":"6+","altim":1021,"clouds":[],"obsTime":1782759600},"SBGO":{"icaoId":"SBGO","flightCategory":"VFR","rawOb":"METAR SBGO 291900Z 08004KT CAVOK 30/12 Q1018","temp":30,"dewp":12,"wdir":80,"wspd":4,"visib":"6+","altim":1018,"clouds":[],"obsTime":1782759600},"SBUR":{"icaoId":"SBUR","flightCategory":"VFR","rawOb":"METAR SBUR 291900Z 35008KT CAVOK 27/13 Q1019","temp":27,"dewp":13,"wdir":350,"wspd":8,"visib":"6+","altim":1019,"clouds":[],"obsTime":1782759600},"SBBV":{"icaoId":"SBBV","flightCategory":"MVFR","rawOb":"METAR SBBV 291900Z 12005KT 9999 VCSH BKN025 FEW030TCU BKN080 28/24 Q1010","temp":28,"dewp":24,"wdir":120,"wspd":5,"visib":"6+","altim":1010,"clouds":[{"cover":"BKN","base":2500},{"cover":"FEW","base":3000},{"cover":"BKN","base":8000}],"obsTime":1782759600},"SBIL":{"icaoId":"SBIL","flightCategory":"VFR","rawOb":"METAR SBIL 291900Z 19006KT 9999 FEW025 27/22 Q1018","temp":27,"dewp":22,"wdir":190,"wspd":6,"visib":"6+","altim":1018,"clouds":[{"cover":"FEW","base":2500}],"obsTime":1782759600},"SBNT":{"icaoId":"SBNT","flightCategory":"MVFR","rawOb":"METAR SBNT 291900Z 15008KT 9999 VCSH SCT020 FEW027TCU BKN030 BKN060 25/23 Q1013","temp":25,"dewp":23,"wdir":150,"wspd":8,"visib":"6+","altim":1013,"clouds":[{"cover":"SCT","base":2000},{"cover":"FEW","base":2700},{"cover":"BKN","base":3000},{"cover":"BKN","base":6000}],"obsTime":1782759600},"SBJU":{"icaoId":"SBJU","flightCategory":"VFR","rawOb":"METAR SBJU 291900Z 10010KT CAVOK 32/15 Q1014","temp":32,"dewp":15,"wdir":100,"wspd":10,"visib":"6+","altim":1014,"clouds":[],"obsTime":1782759600},"SBCF":{"icaoId":"SBCF","flightCategory":"VFR","rawOb":"METAR SBCF 291900Z 05006KT CAVOK 25/10 Q1022","temp":25,"dewp":10,"wdir":50,"wspd":6,"visib":"6+","altim":1022,"clouds":[],"obsTime":1782759600},"SBRB":{"icaoId":"SBRB","flightCategory":"VFR","rawOb":"METAR SBRB 291900Z 13003KT 9999 SCT030 31/22 Q1013","temp":31,"dewp":22,"wdir":130,"wspd":3,"visib":"6+","altim":1013,"clouds":[{"cover":"SCT","base":3000}],"obsTime":1782759600},"SBMA":{"icaoId":"SBMA","flightCategory":"VFR","rawOb":"METAR SBMA 291900Z 09004KT 9999 FEW020 FEW025TCU BKN080 32/21 Q1010","temp":32,"dewp":21,"wdir":90,"wspd":4,"visib":"6+","altim":1010,"clouds":[{"cover":"FEW","base":2000},{"cover":"FEW","base":2500},{"cover":"BKN","base":8000}],"obsTime":1782759600},"SBPA":{"icaoId":"SBPA","flightCategory":"VFR","rawOb":"METAR SBPA 291900Z 17006KT 9999 FEW025 16/10 Q1019","temp":16,"dewp":10,"wdir":170,"wspd":6,"visib":"6+","altim":1019,"clouds":[{"cover":"FEW","base":2500}],"obsTime":1782759600},"SBCT":{"icaoId":"SBCT","flightCategory":"IFR","rawOb":"METAR SBCT 291900Z 04007KT 8000 TS BKN006 BKN023 FEW035CB BKN080 15/15 Q1020 RETS","temp":15,"dewp":15,"wdir":40,"wspd":7,"visib":4.97,"altim":1020,"clouds":[{"cover":"BKN","base":600},{"cover":"BKN","base":2300},{"cover":"FEW","base":3500},{"cover":"BKN","base":8000}],"obsTime":1782759600},"SBFL":{"icaoId":"SBFL","flightCategory":"MVFR","rawOb":"METAR SBFL 291900Z 14006KT 9999 OVC030 17/10 Q1019","temp":17,"dewp":10,"wdir":140,"wspd":6,"visib":"6+","altim":1019,"clouds":[{"cover":"OVC","base":3000}],"obsTime":1782759600},"SBKP":{"icaoId":"SBKP","flightCategory":"VFR","rawOb":"METAR SBKP 291900Z 35004KT 290V040 9999 SCT048 27/16 Q1019","temp":27,"dewp":16,"wdir":350,"wspd":4,"visib":"6+","altim":1019,"clouds":[{"cover":"SCT","base":4800}],"obsTime":1782759600},"SBSG":{"icaoId":"SBSG","flightCategory":"MVFR","rawOb":"METAR SBSG 291900Z 12004KT 080V150 9999 VCSH BKN020 FEW026TCU BKN070 24/22 Q1014","temp":24,"dewp":22,"wdir":120,"wspd":4,"visib":"6+","altim":1014,"clouds":[{"cover":"BKN","base":2000},{"cover":"FEW","base":2600},{"cover":"BKN","base":7000}],"obsTime":1782759600},"SBSL":{"icaoId":"SBSL","flightCategory":"VFR","rawOb":"METAR SBSL 291900Z 07006KT 9999 SCT020 FEW025TCU 29/25 Q1011","temp":29,"dewp":25,"wdir":70,"wspd":6,"visib":"6+","altim":1011,"clouds":[{"cover":"SCT","base":2000},{"cover":"FEW","base":2500}],"obsTime":1782759600},"SBFI":{"icaoId":"SBFI","flightCategory":"IFR","rawOb":"METAR SBFI 291900Z 20005KT 5000 BR BKN006 SCT017 17/16 Q1016","temp":17,"dewp":16,"wdir":200,"wspd":5,"visib":3.11,"altim":1016,"clouds":[{"cover":"BKN","base":600},{"cover":"SCT","base":1700}],"obsTime":1782759600},"SBSP":{"icaoId":"SBSP","flightCategory":"VFR","rawOb":"METAR SBSP 291900Z 31004KT 250V360 9999 BKN043 26/15 Q1021","temp":26,"dewp":15,"wdir":310,"wspd":4,"visib":"6+","altim":1021,"clouds":[{"cover":"BKN","base":4300}],"obsTime":1782759600},"SBBR":{"icaoId":"SBBR","flightCategory":"VFR","rawOb":"METAR SBBR 291900Z 10007KT CAVOK 25/12 Q1021","temp":25,"dewp":12,"wdir":100,"wspd":7,"visib":"6+","altim":1021,"clouds":[],"obsTime":1782759600},"SBCB":{"icaoId":"SBCB","flightCategory":"VFR","rawOb":"METAR SBCB 291900Z 10008KT CAVOK 28/19 Q1017","temp":28,"dewp":19,"wdir":100,"wspd":8,"visib":"6+","altim":1017,"clouds":[],"obsTime":1782759600},"SBCG":{"icaoId":"SBCG","flightCategory":"VFR","rawOb":"METAR SBCG 291900Z 34007KT 9999 FEW040 29/17 Q1016","temp":29,"dewp":17,"wdir":340,"wspd":7,"visib":"6+","altim":1016,"clouds":[{"cover":"FEW","base":4000}],"obsTime":1782759600},"SBLO":{"icaoId":"SBLO","flightCategory":"VFR","rawOb":"METAR SBLO 291900Z 03007KT 9999 SCT040 27/19 Q1017","temp":27,"dewp":19,"wdir":30,"wspd":7,"visib":"6+","altim":1017,"clouds":[{"cover":"SCT","base":4000}],"obsTime":1782759600},"SBPV":{"icaoId":"SBPV","flightCategory":"VFR","rawOb":"METAR SBPV 291900Z 12004KT CAVOK 33/20 Q1010","temp":33,"dewp":20,"wdir":120,"wspd":4,"visib":"6+","altim":1010,"clouds":[],"obsTime":1782759600},"SBGR":{"icaoId":"SBGR","flightCategory":"VFR","rawOb":"METAR SBGR 291900Z 29005KT 9999 SCT045 26/16 Q1020","temp":26,"dewp":16,"wdir":290,"wspd":5,"visib":"6+","altim":1020,"clouds":[{"cover":"SCT","base":4500}],"obsTime":1782759600},"SBCP":{"icaoId":"SBCP","flightCategory":"VFR","rawOb":"METAR SBCP 291900Z 09009KT CAVOK 27/19 Q1018","temp":27,"dewp":19,"wdir":90,"wspd":9,"visib":"6+","altim":1018,"clouds":[],"obsTime":1782759600},"SBRF":{"icaoId":"SBRF","flightCategory":"MVFR","rawOb":"METAR SBRF 291900Z 12006KT 9999 VCSH BKN025 BKN070 26/23 Q1014","temp":26,"dewp":23,"wdir":120,"wspd":6,"visib":"6+","altim":1014,"clouds":[{"cover":"BKN","base":2500},{"cover":"BKN","base":7000}],"obsTime":1782759600},"SBMO":{"icaoId":"SBMO","flightCategory":"VFR","rawOb":"METAR SBMO 291900Z 09008KT 9999 VCSH SCT023 BKN070 24/23 Q1016","temp":24,"dewp":23,"wdir":90,"wspd":8,"visib":"6+","altim":1016,"clouds":[{"cover":"SCT","base":2300},{"cover":"BKN","base":7000}],"obsTime":1782759600},"SBVT":{"icaoId":"SBVT","flightCategory":"VFR","rawOb":"METAR SBVT 291900Z 05012KT 9999 FEW045 25/20 Q1018","temp":25,"dewp":20,"wdir":50,"wspd":12,"visib":"6+","altim":1018,"clouds":[{"cover":"FEW","base":4500}],"obsTime":1782759600},"SBCR":{"icaoId":"SBCR","flightCategory":"VFR","rawOb":"METAR SBCR 291900Z 35004KT 320V050 9999 FEW040 30/20 Q1013","temp":30,"dewp":20,"wdir":350,"wspd":4,"visib":"6+","altim":1013,"clouds":[{"cover":"FEW","base":4000}],"obsTime":1782759600},"SBUY":{"icaoId":"SBUY","flightCategory":"VFR","rawOb":"METAR SBUY 291900Z 27001KT 9999 VCSH FEW020 FEW030TCU SCT100 27/25 Q1010 RERA","temp":27,"dewp":25,"wdir":270,"wspd":1,"visib":"6+","altim":1010,"clouds":[{"cover":"FEW","base":2000},{"cover":"FEW","base":3000},{"cover":"SCT","base":10000}],"obsTime":1782759600},"SBTF":{"icaoId":"SBTF","flightCategory":"VFR","rawOb":"METAR SBTF 291900Z 03003KT 9999 FEW018 SCT080 25/24 Q1011","temp":25,"dewp":24,"wdir":30,"wspd":3,"visib":"6+","altim":1011,"clouds":[{"cover":"FEW","base":1800},{"cover":"SCT","base":8000}],"obsTime":1782759600},"SBSM":{"icaoId":"SBSM","flightCategory":"VFR","rawOb":"METAR SBSM 291900Z 16002KT 9999 SCT020 13/10 Q1019","temp":13,"dewp":10,"wdir":160,"wspd":2,"visib":"6+","altim":1019,"clouds":[{"cover":"SCT","base":2000}],"obsTime":1782759600},"SBCC":{"icaoId":"SBCC","flightCategory":"VFR","rawOb":"METAR SBCC 291900Z 07009KT 9999 SCT030 31/15 Q1013","temp":31,"dewp":15,"wdir":70,"wspd":9,"visib":"6+","altim":1013,"clouds":[{"cover":"SCT","base":3000}],"obsTime":1782759600},"SBVH":{"icaoId":"SBVH","flightCategory":"VFR","rawOb":"METAR SBVH 291900Z 11006KT 9999 SCT035 30/19 Q1015","temp":30,"dewp":19,"wdir":110,"wspd":6,"visib":"6+","altim":1015,"clouds":[{"cover":"SCT","base":3500}],"obsTime":1782759600},"SBCA":{"icaoId":"SBCA","flightCategory":"VFR","rawOb":"METAR SBCA 291900Z 33005KT 9999 SCT007 SCT020 21/19 Q1017","temp":21,"dewp":19,"wdir":330,"wspd":5,"visib":"6+","altim":1017,"clouds":[{"cover":"SCT","base":700},{"cover":"SCT","base":2000}],"obsTime":1782759600},"SBCO":{"icaoId":"SBCO","flightCategory":"VFR","rawOb":"METAR SBCO 291900Z 14006KT 9999 FEW030 16/10 Q1019","temp":16,"dewp":10,"wdir":140,"wspd":6,"visib":"6+","altim":1019,"clouds":[{"cover":"FEW","base":3000}],"obsTime":1782759600},"SBAX":{"icaoId":"SBAX","flightCategory":"VFR","rawOb":"METAR SBAX 291900Z COR AUTO 03005KT 360V080 CAVOK 24/13 Q1021","temp":24,"dewp":13,"wdir":30,"wspd":5,"visib":"6+","altim":1021,"clouds":[],"obsTime":1782759600},"SBBH":{"icaoId":"SBBH","flightCategory":"VFR","rawOb":"METAR SBBH 291900Z 07005KT CAVOK 26/11 Q1021","temp":26,"dewp":11,"wdir":70,"wspd":5,"visib":"6+","altim":1021,"clouds":[],"obsTime":1782759600},"SBBU":{"icaoId":"SBBU","flightCategory":"VFR","rawOb":"METAR SBBU 291900Z 32004KT CAVOK 29/18 Q1018","temp":29,"dewp":18,"wdir":320,"wspd":4,"visib":"6+","altim":1018,"clouds":[],"obsTime":1782759600},"SBDN":{"icaoId":"SBDN","flightCategory":"VFR","rawOb":"METAR SBDN 291900Z 35004KT 9999 SCT049 30/17 Q1016","temp":30,"dewp":17,"wdir":350,"wspd":4,"visib":"6+","altim":1016,"clouds":[{"cover":"SCT","base":4900}],"obsTime":1782759600},"SBIP":{"icaoId":"SBIP","flightCategory":"VFR","rawOb":"METAR SBIP 291900Z AUTO 36005KT 320V050 CAVOK 27/15 Q1019","temp":27,"dewp":15,"wdir":360,"wspd":5,"visib":"6+","altim":1019,"clouds":[],"obsTime":1782759600},"SBSC":{"icaoId":"SBSC","flightCategory":"VFR","rawOb":"METAR SBSC 291900Z 20010KT 9999 4500W FEW010 23/20 Q1018","temp":23,"dewp":20,"wdir":200,"wspd":10,"visib":"6+","altim":1018,"clouds":[{"cover":"FEW","base":1000}],"obsTime":1782759600},"SBSR":{"icaoId":"SBSR","flightCategory":"VFR","rawOb":"METAR SBSR 291900Z 02004KT CAVOK 28/15 Q1017","temp":28,"dewp":15,"wdir":20,"wspd":4,"visib":"6+","altim":1017,"clouds":[],"obsTime":1782759600},"SBKG":{"icaoId":"SBKG","flightCategory":"VFR","rawOb":"METAR SBKG 291900Z 10011KT 9999 FEW020 26/19 Q1016","temp":26,"dewp":19,"wdir":100,"wspd":11,"visib":"6+","altim":1016,"clouds":[{"cover":"FEW","base":2000}],"obsTime":1782759600},"SBTU":{"icaoId":"SBTU","flightCategory":"VFR","rawOb":"METAR SBTU 291900Z AUTO 23004KT 210V280 9999 // BKN064/// ///// Q1012","temp":null,"dewp":null,"wdir":230,"wspd":4,"visib":"6+","altim":1012,"clouds":[{"cover":"BKN","base":6400}],"obsTime":1782759600},"SBSJ":{"icaoId":"SBSJ","flightCategory":"VFR","rawOb":"METAR SBSJ 291900Z 13003KT CAVOK 27/16 Q1019","temp":27,"dewp":16,"wdir":130,"wspd":3,"visib":"6+","altim":1019,"clouds":[],"obsTime":1782759600},"SBES":{"icaoId":"SBES","flightCategory":"VFR","rawOb":"METAR SBES 291900Z 05005KT 360V070 CAVOK 27/// Q1017","temp":null,"dewp":null,"wdir":50,"wspd":5,"visib":"6+","altim":1017,"clouds":[],"obsTime":1782759600},"SBCJ":{"icaoId":"SBCJ","flightCategory":"VFR","rawOb":"METAR SBCJ 291900Z 13006KT 9999 SCT030 29/18 Q1016","temp":29,"dewp":18,"wdir":130,"wspd":6,"visib":"6+","altim":1016,"clouds":[{"cover":"SCT","base":3000}],"obsTime":1782759600},"SBPP":{"icaoId":"SBPP","flightCategory":"MVFR","rawOb":"METAR SBPP 291900Z 31007KT 9999 BKN025 24/20 Q1016","temp":24,"dewp":20,"wdir":310,"wspd":7,"visib":"6+","altim":1016,"clouds":[{"cover":"BKN","base":2500}],"obsTime":1782759600},"SBPL":{"icaoId":"SBPL","flightCategory":"VFR","rawOb":"METAR SBPL 291900Z 14012KT 9999 SCT030 29/20 Q1015","temp":29,"dewp":20,"wdir":140,"wspd":12,"visib":"6+","altim":1015,"clouds":[{"cover":"SCT","base":3000}],"obsTime":1782759600},"SBPB":{"icaoId":"SBPB","flightCategory":"VFR","rawOb":"METAR SBPB 291900Z 06010KT 9999 FEW020 30/24 Q1011","temp":30,"dewp":24,"wdir":60,"wspd":10,"visib":"6+","altim":1011,"clouds":[{"cover":"FEW","base":2000}],"obsTime":1782759600},"SBTT":{"icaoId":"SBTT","flightCategory":"VFR","rawOb":"METAR SBTT 291900Z 16005KT 9999 SCT015 BKN050 27/23 Q1013","temp":27,"dewp":23,"wdir":160,"wspd":5,"visib":"6+","altim":1013,"clouds":[{"cover":"SCT","base":1500},{"cover":"BKN","base":5000}],"obsTime":1782759600},"SBOI":{"icaoId":"SBOI","flightCategory":"VFR","rawOb":"METAR SBOI 291900Z AUTO 12008KT 050V170 9999 FEW038 31/23 Q1011","temp":31,"dewp":23,"wdir":120,"wspd":8,"visib":"6+","altim":1011,"clouds":[{"cover":"FEW","base":3800}],"obsTime":1782759600},"SBAR":{"icaoId":"SBAR","flightCategory":"VFR","rawOb":"METAR SBAR 291900Z 11008KT 9999 SCT023 27/23 Q1016","temp":27,"dewp":23,"wdir":110,"wspd":8,"visib":"6+","altim":1016,"clouds":[{"cover":"SCT","base":2300}],"obsTime":1782759600},"SBPS":{"icaoId":"SBPS","flightCategory":"VFR","rawOb":"METAR SBPS 291900Z 12006KT 9999 FEW016 OVC060 23/21 Q1019","temp":23,"dewp":21,"wdir":120,"wspd":6,"visib":"6+","altim":1019,"clouds":[{"cover":"FEW","base":1600},{"cover":"OVC","base":6000}],"obsTime":1782759600},"SBGM":{"icaoId":"SBGM","flightCategory":"VFR","rawOb":"METAR SBGM 291900Z 13005KT CAVOK 32/16 Q1012","temp":32,"dewp":16,"wdir":130,"wspd":5,"visib":"6+","altim":1012,"clouds":[],"obsTime":1782759600},"SBBQ":{"icaoId":"SBBQ","flightCategory":"VFR","rawOb":"METAR SBBQ 291900Z VRB03KT CAVOK 23/11 Q1024","temp":23,"dewp":11,"wdir":"VRB","wspd":3,"visib":"6+","altim":1024,"clouds":[],"obsTime":1782759600},"SBAN":{"icaoId":"SBAN","flightCategory":"VFR","rawOb":"METAR SBAN 291900Z 12005KT 9999 FEW030 26/12 Q1021","temp":26,"dewp":12,"wdir":120,"wspd":5,"visib":"6+","altim":1021,"clouds":[{"cover":"FEW","base":3000}],"obsTime":1782759600},"SBIH":{"icaoId":"SBIH","flightCategory":"VFR","rawOb":"METAR SBIH 291900Z 05005KT 9999 FEW020 FEW025TCU 32/24 Q1009","temp":32,"dewp":24,"wdir":50,"wspd":5,"visib":"6+","altim":1009,"clouds":[{"cover":"FEW","base":2000},{"cover":"FEW","base":2500}],"obsTime":1782759600},"SBJV":{"icaoId":"SBJV","flightCategory":"MVFR","rawOb":"METAR SBJV 291900Z 32005KT 300V360 7000 -RA SCT005 BKN013 BKN030 16/15 Q1020","temp":16,"dewp":15,"wdir":320,"wspd":5,"visib":4.35,"altim":1020,"clouds":[{"cover":"SCT","base":500},{"cover":"BKN","base":1300},{"cover":"BKN","base":3000}],"obsTime":1782759600},"SBAF":{"icaoId":"SBAF","flightCategory":"VFR","rawOb":"METAR SBAF 291900Z 19013KT 9999 FEW020 24/23 Q1018","temp":24,"dewp":23,"wdir":190,"wspd":13,"visib":"6+","altim":1018,"clouds":[{"cover":"FEW","base":2000}],"obsTime":1782759600},"SBGW":{"icaoId":"SBGW","flightCategory":"VFR","rawOb":"METAR SBGW 291900Z 06007KT CAVOK 28/14 Q1018","temp":28,"dewp":14,"wdir":60,"wspd":7,"visib":"6+","altim":1018,"clouds":[],"obsTime":1782759600},"SBJR":{"icaoId":"SBJR","flightCategory":"IFR","rawOb":"METAR SBJR 291900Z 21010KT 5000 BR BKN008 BKN020 24/20 Q1018","temp":24,"dewp":20,"wdir":210,"wspd":10,"visib":3.11,"altim":1018,"clouds":[{"cover":"BKN","base":800},{"cover":"BKN","base":2000}],"obsTime":1782759600},"SBLS":{"icaoId":"SBLS","flightCategory":"VFR","rawOb":"METAR SBLS 291900Z 13004KT 040V180 CAVOK 25/12 Q1021","temp":25,"dewp":12,"wdir":130,"wspd":4,"visib":"6+","altim":1021,"clouds":[],"obsTime":1782759600},"SBJP":{"icaoId":"SBJP","flightCategory":"VFR","rawOb":"METAR SBJP 291900Z 12007KT 090V150 9999 SCT026 BKN100 28/23 Q1014","temp":28,"dewp":23,"wdir":120,"wspd":7,"visib":"6+","altim":1014,"clouds":[{"cover":"SCT","base":2600},{"cover":"BKN","base":10000}],"obsTime":1782759600},"SBMT":{"icaoId":"SBMT","flightCategory":"VFR","rawOb":"METAR SBMT 291900Z 01003KT 9999 SCT040 27/18 Q1020","temp":27,"dewp":18,"wdir":10,"wspd":3,"visib":"6+","altim":1020,"clouds":[{"cover":"SCT","base":4000}],"obsTime":1782759600},"SBST":{"icaoId":"SBST","flightCategory":"MVFR","rawOb":"METAR SBST 291900Z 12003KT 080V150 9000 BKN026 20/18 Q1019","temp":20,"dewp":18,"wdir":120,"wspd":3,"visib":5.59,"altim":1019,"clouds":[{"cover":"BKN","base":2600}],"obsTime":1782759600},"SBNM":{"icaoId":"SBNM","flightCategory":"VFR","rawOb":"METAR SBNM 291900Z AUTO 17004KT 130V210 CAVOK 17/09 Q1018","temp":17,"dewp":9,"wdir":170,"wspd":4,"visib":"6+","altim":1018,"clouds":[],"obsTime":1782759600},"SBTA":{"icaoId":"SBTA","flightCategory":"VFR","rawOb":"METAR SBTA 291900Z 09005KT CAVOK 28/16 Q1018","temp":28,"dewp":16,"wdir":90,"wspd":5,"visib":"6+","altim":1018,"clouds":[],"obsTime":1782759600},"SBLE":{"icaoId":"SBLE","flightCategory":"VFR","rawOb":"METAR SBLE 291900Z AUTO 13006KT 090V160 9999 FEW045 ///// Q////","temp":null,"dewp":null,"wdir":130,"wspd":6,"visib":"6+","altim":null,"clouds":[{"cover":"FEW","base":4500}],"obsTime":1782759600},"SBPF":{"icaoId":"SBPF","flightCategory":"MVFR","rawOb":"METAR SBPF 291900Z 12003KT 9999 BKN016 14/11 Q1019","temp":14,"dewp":11,"wdir":120,"wspd":3,"visib":"6+","altim":1019,"clouds":[{"cover":"BKN","base":1600}],"obsTime":1782759600}}}