{"updated":1780266683,"count":82,"data":{"SBVT":{"icaoId":"SBVT","flightCategory":"VFR","rawOb":"METAR SBVT 312100Z 18006KT CAVOK 23/17 Q1017","temp":23,"dewp":17,"wdir":180,"wspd":6,"visib":"6+","altim":1017,"clouds":[],"obsTime":1780261200},"SBME":{"icaoId":"SBME","flightCategory":"VFR","rawOb":"METAR SBME 312100Z 20012KT 9999 BKN035 23/18 Q1018","temp":23,"dewp":18,"wdir":200,"wspd":12,"visib":"6+","altim":1018,"clouds":[{"cover":"BKN","base":3500}],"obsTime":1780261200},"SBFI":{"icaoId":"SBFI","flightCategory":"IFR","rawOb":"METAR SBFI 312100Z COR 22004KT 9999 OVC006 17/16 Q1019","temp":17,"dewp":16,"wdir":220,"wspd":4,"visib":"6+","altim":1019,"clouds":[{"cover":"OVC","base":600}],"obsTime":1780261200},"SBMG":{"icaoId":"SBMG","flightCategory":"VFR","rawOb":"METAR SBMG 312100Z 19005KT CAVOK 20/15 Q1018","temp":20,"dewp":15,"wdir":190,"wspd":5,"visib":"6+","altim":1018,"clouds":[],"obsTime":1780261200},"SBBR":{"icaoId":"SBBR","flightCategory":"VFR","rawOb":"METAR SBBR 312100Z 15006KT CAVOK 24/14 Q1020","temp":24,"dewp":14,"wdir":150,"wspd":6,"visib":"6+","altim":1020,"clouds":[],"obsTime":1780261200},"SBMK":{"icaoId":"SBMK","flightCategory":"VFR","rawOb":"METAR SBMK 312100Z 13005KT CAVOK 26/14 Q1018","temp":26,"dewp":14,"wdir":130,"wspd":5,"visib":"6+","altim":1018,"clouds":[],"obsTime":1780261200},"SBFL":{"icaoId":"SBFL","flightCategory":"VFR","rawOb":"METAR SBFL 312100Z 09007KT CAVOK 19/15 Q1019","temp":19,"dewp":15,"wdir":90,"wspd":7,"visib":"6+","altim":1019,"clouds":[],"obsTime":1780261200},"SBBE":{"icaoId":"SBBE","flightCategory":"VFR","rawOb":"METAR SBBE 312100Z 04008KT 9999 FEW020 SCT035 FEW040TCU 28/25 Q1011","temp":28,"dewp":25,"wdir":40,"wspd":8,"visib":"6+","altim":1011,"clouds":[{"cover":"FEW","base":2000},{"cover":"SCT","base":3500},{"cover":"FEW","base":4000}],"obsTime":1780261200},"SBMO":{"icaoId":"SBMO","flightCategory":"VFR","rawOb":"METAR SBMO 312100Z 18004KT 9999 FEW021 26/23 Q1014","temp":26,"dewp":23,"wdir":180,"wspd":4,"visib":"6+","altim":1014,"clouds":[{"cover":"FEW","base":2100}],"obsTime":1780261200},"SBFZ":{"icaoId":"SBFZ","flightCategory":"VFR","rawOb":"METAR SBFZ 312100Z 09007KT CAVOK 28/22 Q1011","temp":28,"dewp":22,"wdir":90,"wspd":7,"visib":"6+","altim":1011,"clouds":[],"obsTime":1780261200},"SBMQ":{"icaoId":"SBMQ","flightCategory":"VFR","rawOb":"METAR SBMQ 312100Z 05008KT 9999 FEW025 FEW035TCU 30/25 Q1010","temp":30,"dewp":25,"wdir":50,"wspd":8,"visib":"6+","altim":1010,"clouds":[{"cover":"FEW","base":2500},{"cover":"FEW","base":3500}],"obsTime":1780261200},"SBCF":{"icaoId":"SBCF","flightCategory":"VFR","rawOb":"METAR SBCF 312100Z 34001KT 9999 FEW048 23/13 Q1019","temp":23,"dewp":13,"wdir":340,"wspd":1,"visib":"6+","altim":1019,"clouds":[{"cover":"FEW","base":4800}],"obsTime":1780261200},"SBNT":{"icaoId":"SBNT","flightCategory":"VFR","rawOb":"METAR SBNT 312100Z 14008KT 9999 FEW025 26/24 Q1012","temp":26,"dewp":24,"wdir":140,"wspd":8,"visib":"6+","altim":1012,"clouds":[{"cover":"FEW","base":2500}],"obsTime":1780261200},"SBGL":{"icaoId":"SBGL","flightCategory":"VFR","rawOb":"METAR SBGL 312100Z 22008KT 9999 BKN040 BKN070 23/16 Q1018","temp":23,"dewp":16,"wdir":220,"wspd":8,"visib":"6+","altim":1018,"clouds":[{"cover":"BKN","base":4000},{"cover":"BKN","base":7000}],"obsTime":1780261200},"SBPA":{"icaoId":"SBPA","flightCategory":"VFR","rawOb":"METAR SBPA 312100Z 18005KT 9999 FEW010 SCT030 17/15 Q1019","temp":17,"dewp":15,"wdir":180,"wspd":5,"visib":"6+","altim":1019,"clouds":[{"cover":"FEW","base":1000},{"cover":"SCT","base":3000}],"obsTime":1780261200},"SBCT":{"icaoId":"SBCT","flightCategory":"VFR","rawOb":"METAR SBCT 312100Z 10005KT 9999 FEW045 16/14 Q1021","temp":16,"dewp":14,"wdir":100,"wspd":5,"visib":"6+","altim":1021,"clouds":[{"cover":"FEW","base":4500}],"obsTime":1780261200},"SBPJ":{"icaoId":"SBPJ","flightCategory":"VFR","rawOb":"METAR SBPJ 312100Z 21004KT 9999 FEW040 31/23 Q1013","temp":31,"dewp":23,"wdir":210,"wspd":4,"visib":"6+","altim":1013,"clouds":[{"cover":"FEW","base":4000}],"obsTime":1780261200},"SBGO":{"icaoId":"SBGO","flightCategory":"VFR","rawOb":"METAR SBGO 312100Z 14006KT CAVOK 27/15 Q1018","temp":27,"dewp":15,"wdir":140,"wspd":6,"visib":"6+","altim":1018,"clouds":[],"obsTime":1780261200},"SBPV":{"icaoId":"SBPV","flightCategory":"VFR","rawOb":"METAR SBPV 312100Z 05004KT 9999 FEW025 32/20 Q1012","temp":32,"dewp":20,"wdir":50,"wspd":4,"visib":"6+","altim":1012,"clouds":[{"cover":"FEW","base":2500}],"obsTime":1780261200},"SBCZ":{"icaoId":"SBCZ","flightCategory":"VFR","rawOb":"METAR SBCZ 312100Z 21004KT 9999 SCT033 32/23 Q1011","temp":32,"dewp":23,"wdir":210,"wspd":4,"visib":"6+","altim":1011,"clouds":[{"cover":"SCT","base":3300}],"obsTime":1780261200},"SBRB":{"icaoId":"SBRB","flightCategory":"VFR","rawOb":"METAR SBRB 312100Z 13002KT 9999 FEW025 29/23 Q1013","temp":29,"dewp":23,"wdir":130,"wspd":2,"visib":"6+","altim":1013,"clouds":[{"cover":"FEW","base":2500}],"obsTime":1780261200},"SBGR":{"icaoId":"SBGR","flightCategory":"VFR","rawOb":"METAR SBGR 312100Z 00000KT CAVOK 17/13 Q1021","temp":17,"dewp":13,"wdir":0,"wspd":0,"visib":"6+","altim":1021,"clouds":[],"obsTime":1780261200},"SBRF":{"icaoId":"SBRF","flightCategory":"VFR","rawOb":"METAR SBRF 312100Z 15009KT 9999 FEW021 27/23 Q1013","temp":27,"dewp":23,"wdir":150,"wspd":9,"visib":"6+","altim":1013,"clouds":[{"cover":"FEW","base":2100}],"obsTime":1780261200},"SBIL":{"icaoId":"SBIL","flightCategory":"VFR","rawOb":"METAR SBIL 312100Z 23004KT 9999 VCSH SCT018 BKN050 24/23 Q1016","temp":24,"dewp":23,"wdir":230,"wspd":4,"visib":"6+","altim":1016,"clouds":[{"cover":"SCT","base":1800},{"cover":"BKN","base":5000}],"obsTime":1780261200},"SBSG":{"icaoId":"SBSG","flightCategory":"VFR","rawOb":"METAR SBSG 312100Z 13005KT 100V170 9999 FEW030 26/23 Q1013","temp":26,"dewp":23,"wdir":130,"wspd":5,"visib":"6+","altim":1013,"clouds":[{"cover":"FEW","base":3000}],"obsTime":1780261200},"SBBV":{"icaoId":"SBBV","flightCategory":"MVFR","rawOb":"METAR SBBV 312100Z 22005KT 9999 -RA FEW010 BKN030 FEW035TCU OVC070 25/24 Q1012","temp":25,"dewp":24,"wdir":220,"wspd":5,"visib":"6+","altim":1012,"clouds":[{"cover":"FEW","base":1000},{"cover":"BKN","base":3000},{"cover":"FEW","base":3500},{"cover":"OVC","base":7000}],"obsTime":1780261200},"SBSL":{"icaoId":"SBSL","flightCategory":"VFR","rawOb":"METAR SBSL 312100Z 06012KT 9999 SCT030 29/24 Q1011","temp":29,"dewp":24,"wdir":60,"wspd":12,"visib":"6+","altim":1011,"clouds":[{"cover":"SCT","base":3000}],"obsTime":1780261200},"SBJU":{"icaoId":"SBJU","flightCategory":"VFR","rawOb":"METAR SBJU 312100Z 06003KT 9999 SCT022 27/18 Q1014","temp":27,"dewp":18,"wdir":60,"wspd":3,"visib":"6+","altim":1014,"clouds":[{"cover":"SCT","base":2200}],"obsTime":1780261200},"SBSN":{"icaoId":"SBSN","flightCategory":"VFR","rawOb":"METAR SBSN 312100Z 16002KT 9999 FEW019 SCT100 28/24 Q1011","temp":28,"dewp":24,"wdir":160,"wspd":2,"visib":"6+","altim":1011,"clouds":[{"cover":"FEW","base":1900},{"cover":"SCT","base":10000}],"obsTime":1780261200},"SBSP":{"icaoId":"SBSP","flightCategory":"VFR","rawOb":"METAR SBSP 312100Z 16007KT CAVOK 16/14 Q1022","temp":16,"dewp":14,"wdir":160,"wspd":7,"visib":"6+","altim":1022,"clouds":[],"obsTime":1780261200},"SBCG":{"icaoId":"SBCG","flightCategory":"VFR","rawOb":"METAR SBCG 312100Z 09005KT CAVOK 25/16 Q1018","temp":25,"dewp":16,"wdir":90,"wspd":5,"visib":"6+","altim":1018,"clouds":[],"obsTime":1780261200},"SBKP":{"icaoId":"SBKP","flightCategory":"VFR","rawOb":"METAR SBKP 312100Z 21005KT CAVOK 21/14 Q1019","temp":21,"dewp":14,"wdir":210,"wspd":5,"visib":"6+","altim":1019,"clouds":[],"obsTime":1780261200},"SBSV":{"icaoId":"SBSV","flightCategory":"MVFR","rawOb":"METAR SBSV 312100Z 21008KT 180V240 9999 VCSH BKN020 FEW023TCU 26/22 Q1015","temp":26,"dewp":22,"wdir":210,"wspd":8,"visib":"6+","altim":1015,"clouds":[{"cover":"BKN","base":2000},{"cover":"FEW","base":2300}],"obsTime":1780261200},"SBMA":{"icaoId":"SBMA","flightCategory":"VFR","rawOb":"METAR SBMA 312100Z 00000KT 9999 FEW025 SCT100 31/23 Q1010","temp":31,"dewp":23,"wdir":0,"wspd":0,"visib":"6+","altim":1010,"clouds":[{"cover":"FEW","base":2500},{"cover":"SCT","base":10000}],"obsTime":1780261200},"SBTE":{"icaoId":"SBTE","flightCategory":"VFR","rawOb":"METAR SBTE 312100Z 31005KT 9999 FEW025 31/23 Q1010","temp":31,"dewp":23,"wdir":310,"wspd":5,"visib":"6+","altim":1010,"clouds":[{"cover":"FEW","base":2500}],"obsTime":1780261200},"SBUL":{"icaoId":"SBUL","flightCategory":"VFR","rawOb":"METAR SBUL 312100Z 13002KT 9999 SCT049 SCT100 25/13 Q1020","temp":25,"dewp":13,"wdir":130,"wspd":2,"visib":"6+","altim":1020,"clouds":[{"cover":"SCT","base":4900},{"cover":"SCT","base":10000}],"obsTime":1780261200},"SBEG":{"icaoId":"SBEG","flightCategory":"IFR","rawOb":"METAR SBEG 312100Z 21003KT 9999 BKN005 FEW030TCU BKN100 24/23 Q1012","temp":24,"dewp":23,"wdir":210,"wspd":3,"visib":"6+","altim":1012,"clouds":[{"cover":"BKN","base":500},{"cover":"FEW","base":3000},{"cover":"BKN","base":10000}],"obsTime":1780261200},"SBUR":{"icaoId":"SBUR","flightCategory":"VFR","rawOb":"METAR SBUR 312100Z 19005KT CAVOK 24/13 Q1019","temp":24,"dewp":13,"wdir":190,"wspd":5,"visib":"6+","altim":1019,"clouds":[],"obsTime":1780261200},"SBLO":{"icaoId":"SBLO","flightCategory":"VFR","rawOb":"METAR SBLO 312100Z 00000KT 9999 FEW025 20/13 Q1019","temp":20,"dewp":13,"wdir":0,"wspd":0,"visib":"6+","altim":1019,"clouds":[{"cover":"FEW","base":2500}],"obsTime":1780261200},"SBCP":{"icaoId":"SBCP","flightCategory":"VFR","rawOb":"METAR SBCP 312100Z 20010KT CAVOK 23/19 Q1018","temp":23,"dewp":19,"wdir":200,"wspd":10,"visib":"6+","altim":1018,"clouds":[],"obsTime":1780261200},"SBCB":{"icaoId":"SBCB","flightCategory":"VFR","rawOb":"METAR SBCB 312100Z /////KT 9999 FEW030 22/19 Q1018","temp":22,"dewp":19,"wdir":null,"wspd":null,"visib":"6+","altim":1018,"clouds":[{"cover":"FEW","base":3000}],"obsTime":1780261200},"SBCR":{"icaoId":"SBCR","flightCategory":"VFR","rawOb":"METAR SBCR 312100Z 22004KT 100V260 9999 FEW030 29/20 Q1014","temp":29,"dewp":20,"wdir":220,"wspd":4,"visib":"6+","altim":1014,"clouds":[{"cover":"FEW","base":3000}],"obsTime":1780261200},"SBAT":{"icaoId":"SBAT","flightCategory":"VFR","rawOb":"METAR SBAT 312100Z 33001KT 9999 FEW035 33/20 Q1013","temp":33,"dewp":20,"wdir":330,"wspd":1,"visib":"6+","altim":1013,"clouds":[{"cover":"FEW","base":3500}],"obsTime":1780261200},"SBPL":{"icaoId":"SBPL","flightCategory":"VFR","rawOb":"METAR SBPL 312100Z 15006KT 9999 FEW030 28/18 Q1014","temp":28,"dewp":18,"wdir":150,"wspd":6,"visib":"6+","altim":1014,"clouds":[{"cover":"FEW","base":3000}],"obsTime":1780261200},"SBBU":{"icaoId":"SBBU","flightCategory":"VFR","rawOb":"METAR SBBU 312100Z 00000KT CAVOK 22/16 Q1019","temp":22,"dewp":16,"wdir":0,"wspd":0,"visib":"6+","altim":1019,"clouds":[],"obsTime":1780261200},"SBDN":{"icaoId":"SBDN","flightCategory":"VFR","rawOb":"METAR SBDN 312100Z 15002KT CAVOK 22/14 Q1018","temp":22,"dewp":14,"wdir":150,"wspd":2,"visib":"6+","altim":1018,"clouds":[],"obsTime":1780261200},"SBPS":{"icaoId":"SBPS","flightCategory":"MVFR","rawOb":"METAR SBPS 312100Z VRB02KT 9999 BKN025 BKN040 24/22 Q1016","temp":24,"dewp":22,"wdir":"VRB","wspd":2,"visib":"6+","altim":1016,"clouds":[{"cover":"BKN","base":2500},{"cover":"BKN","base":4000}],"obsTime":1780261200},"SBSC":{"icaoId":"SBSC","flightCategory":"VFR","rawOb":"METAR SBSC 312100Z 21008KT 9999 FEW020 SCT030 OVC066 22/18 Q1018","temp":22,"dewp":18,"wdir":210,"wspd":8,"visib":"6+","altim":1018,"clouds":[{"cover":"FEW","base":2000},{"cover":"SCT","base":3000},{"cover":"OVC","base":6600}],"obsTime":1780261200},"SBAR":{"icaoId":"SBAR","flightCategory":"VFR","rawOb":"METAR SBAR 312100Z 13008KT 9999 SCT020 27/23 Q1014","temp":27,"dewp":23,"wdir":130,"wspd":8,"visib":"6+","altim":1014,"clouds":[{"cover":"SCT","base":2000}],"obsTime":1780261200},"SBCA":{"icaoId":"SBCA","flightCategory":"VFR","rawOb":"METAR SBCA 312100Z 19005KT 9999 FEW030 18/15 Q1021","temp":18,"dewp":15,"wdir":190,"wspd":5,"visib":"6+","altim":1021,"clouds":[{"cover":"FEW","base":3000}],"obsTime":1780261200},"SBSJ":{"icaoId":"SBSJ","flightCategory":"VFR","rawOb":"METAR SBSJ 312100Z 19005KT 9999 FEW040 17/14 Q1020","temp":17,"dewp":14,"wdir":190,"wspd":5,"visib":"6+","altim":1020,"clouds":[{"cover":"FEW","base":4000}],"obsTime":1780261200},"SBSM":{"icaoId":"SBSM","flightCategory":"VFR","rawOb":"METAR SBSM 312100Z 28002KT CAVOK 14/13 Q1020","temp":14,"dewp":13,"wdir":280,"wspd":2,"visib":"6+","altim":1020,"clouds":[],"obsTime":1780261200},"SBIP":{"icaoId":"SBIP","flightCategory":"VFR","rawOb":"METAR SBIP 312100Z AUTO 30002KT CAVOK 20/18 Q1017","temp":20,"dewp":18,"wdir":300,"wspd":2,"visib":"6+","altim":1017,"clouds":[],"obsTime":1780261200},"SBSR":{"icaoId":"SBSR","flightCategory":"VFR","rawOb":"METAR SBSR 312100Z 28005KT CAVOK 24/12 Q1018","temp":24,"dewp":12,"wdir":280,"wspd":5,"visib":"6+","altim":1018,"clouds":[],"obsTime":1780261200},"SBBH":{"icaoId":"SBBH","flightCategory":"VFR","rawOb":"METAR SBBH 312100Z 00000KT 9999 SCT040 22/14 Q1019","temp":22,"dewp":14,"wdir":0,"wspd":0,"visib":"6+","altim":1019,"clouds":[{"cover":"SCT","base":4000}],"obsTime":1780261200},"SBKG":{"icaoId":"SBKG","flightCategory":"VFR","rawOb":"METAR SBKG 312100Z 08005KT CAVOK 24/22 Q1015","temp":24,"dewp":22,"wdir":80,"wspd":5,"visib":"6+","altim":1015,"clouds":[],"obsTime":1780261200},"SBTF":{"icaoId":"SBTF","flightCategory":"VFR","rawOb":"METAR SBTF 312100Z 08008KT 9999 SCT012 FEW025TCU BKN080 25/23 Q1013","temp":25,"dewp":23,"wdir":80,"wspd":8,"visib":"6+","altim":1013,"clouds":[{"cover":"SCT","base":1200},{"cover":"FEW","base":2500},{"cover":"BKN","base":8000}],"obsTime":1780261200},"SBAX":{"icaoId":"SBAX","flightCategory":"VFR","rawOb":"METAR SBAX 312100Z AUTO 22003KT 180V240 9999 BKN048 24/14 Q1020","temp":24,"dewp":14,"wdir":220,"wspd":3,"visib":"6+","altim":1020,"clouds":[{"cover":"BKN","base":4800}],"obsTime":1780261200},"SBTT":{"icaoId":"SBTT","flightCategory":"VFR","rawOb":"METAR SBTT 312100Z 26002KT 9999 FEW020 29/23 Q1012","temp":29,"dewp":23,"wdir":260,"wspd":2,"visib":"6+","altim":1012,"clouds":[{"cover":"FEW","base":2000}],"obsTime":1780261200},"SBVH":{"icaoId":"SBVH","flightCategory":"VFR","rawOb":"METAR SBVH 312100Z 07004KT 9999 SCT040 27/20 Q1016","temp":27,"dewp":20,"wdir":70,"wspd":4,"visib":"6+","altim":1016,"clouds":[{"cover":"SCT","base":4000}],"obsTime":1780261200},"SBCO":{"icaoId":"SBCO","flightCategory":"VFR","rawOb":"METAR SBCO 312100Z 11005KT 9999 FEW010 16/15 Q1020","temp":16,"dewp":15,"wdir":110,"wspd":5,"visib":"6+","altim":1020,"clouds":[{"cover":"FEW","base":1000}],"obsTime":1780261200},"SBTU":{"icaoId":"SBTU","flightCategory":"VFR","rawOb":"METAR SBTU 312100Z AUTO 20003KT 160V250 9999 // FEW011/// ///// Q1013","temp":null,"dewp":null,"wdir":200,"wspd":3,"visib":"6+","altim":1013,"clouds":[{"cover":"FEW","base":1100}],"obsTime":1780261200},"SBUY":{"icaoId":"SBUY","flightCategory":"VFR","rawOb":"METAR SBUY 312100Z 10005KT 9999 SCT025 BKN080 30/25 Q1010","temp":30,"dewp":25,"wdir":100,"wspd":5,"visib":"6+","altim":1010,"clouds":[{"cover":"SCT","base":2500},{"cover":"BKN","base":8000}],"obsTime":1780261200},"SBCJ":{"icaoId":"SBCJ","flightCategory":"VFR","rawOb":"METAR SBCJ 312100Z 00000KT 9999 FEW030 SCT100 25/21 Q1016","temp":25,"dewp":21,"wdir":0,"wspd":0,"visib":"6+","altim":1016,"clouds":[{"cover":"FEW","base":3000},{"cover":"SCT","base":10000}],"obsTime":1780261200},"SBPB":{"icaoId":"SBPB","flightCategory":"VFR","rawOb":"METAR SBPB 312100Z 03006KT 9999 FEW020 BKN100 28/25 Q1011","temp":28,"dewp":25,"wdir":30,"wspd":6,"visib":"6+","altim":1011,"clouds":[{"cover":"FEW","base":2000},{"cover":"BKN","base":10000}],"obsTime":1780261200},"SBES":{"icaoId":"SBES","flightCategory":"VFR","rawOb":"METAR SBES 312100Z 23008KT 200V260 9999 FEW020 SCT060 22/// Q1018","temp":null,"dewp":null,"wdir":230,"wspd":8,"visib":"6+","altim":1018,"clouds":[{"cover":"FEW","base":2000},{"cover":"SCT","base":6000}],"obsTime":1780261200},"SBPP":{"icaoId":"SBPP","flightCategory":"VFR","rawOb":"METAR SBPP 312100Z 16005KT CAVOK 22/17 Q1019","temp":22,"dewp":17,"wdir":160,"wspd":5,"visib":"6+","altim":1019,"clouds":[],"obsTime":1780261200},"SBJP":{"icaoId":"SBJP","flightCategory":"VFR","rawOb":"METAR SBJP 312100Z 12007KT CAVOK 26/23 Q1013","temp":26,"dewp":23,"wdir":120,"wspd":7,"visib":"6+","altim":1013,"clouds":[],"obsTime":1780261200},"SBAN":{"icaoId":"SBAN","flightCategory":"VFR","rawOb":"METAR SBAN 312100Z 21003KT 9999 SCT045 SCT070 22/14 Q1021","temp":22,"dewp":14,"wdir":210,"wspd":3,"visib":"6+","altim":1021,"clouds":[{"cover":"SCT","base":4500},{"cover":"SCT","base":7000}],"obsTime":1780261200},"SBJV":{"icaoId":"SBJV","flightCategory":"VFR","rawOb":"METAR SBJV 312100Z 00000KT 9999 FEW030 18/17 Q1018","temp":18,"dewp":17,"wdir":0,"wspd":0,"visib":"6+","altim":1018,"clouds":[{"cover":"FEW","base":3000}],"obsTime":1780261200},"SBNM":{"icaoId":"SBNM","flightCategory":"VFR","rawOb":"METAR SBNM 312100Z AUTO 18003KT CAVOK 18/13 Q1020","temp":18,"dewp":13,"wdir":180,"wspd":3,"visib":"6+","altim":1020,"clouds":[],"obsTime":1780261200},"SBPF":{"icaoId":"SBPF","flightCategory":"VFR","rawOb":"METAR SBPF 312200Z 21005KT CAVOK 16/12 Q1022","temp":16,"dewp":12,"wdir":210,"wspd":5,"visib":"6+","altim":1022,"clouds":[],"obsTime":1780264800},"SBAF":{"icaoId":"SBAF","flightCategory":"VFR","rawOb":"METAR SBAF 312100Z 24004KT 9999 FEW025 BKN043 OVC064 22/18 Q1018","temp":22,"dewp":18,"wdir":240,"wspd":4,"visib":"6+","altim":1018,"clouds":[{"cover":"FEW","base":2500},{"cover":"BKN","base":4300},{"cover":"OVC","base":6400}],"obsTime":1780261200},"SBGW":{"icaoId":"SBGW","flightCategory":"VFR","rawOb":"METAR SBGW 312100Z 24002KT 9999 SCT030 SCT070 19/13 Q1019","temp":19,"dewp":13,"wdir":240,"wspd":2,"visib":"6+","altim":1019,"clouds":[{"cover":"SCT","base":3000},{"cover":"SCT","base":7000}],"obsTime":1780261200},"SBJR":{"icaoId":"SBJR","flightCategory":"VFR","rawOb":"METAR SBJR 312100Z 32002KT 9999 FEW020 BKN050 22/18 Q1018","temp":22,"dewp":18,"wdir":320,"wspd":2,"visib":"6+","altim":1018,"clouds":[{"cover":"FEW","base":2000},{"cover":"BKN","base":5000}],"obsTime":1780261200},"SBLS":{"icaoId":"SBLS","flightCategory":"VFR","rawOb":"METAR SBLS 312100Z 11004KT 9999 FEW048 23/13 Q1019","temp":23,"dewp":13,"wdir":110,"wspd":4,"visib":"6+","altim":1019,"clouds":[{"cover":"FEW","base":4800}],"obsTime":1780261200},"SBMT":{"icaoId":"SBMT","flightCategory":"VFR","rawOb":"METAR SBMT 312100Z 12005KT CAVOK 17/13 Q1021","temp":17,"dewp":13,"wdir":120,"wspd":5,"visib":"6+","altim":1021,"clouds":[],"obsTime":1780261200},"SBLE":{"icaoId":"SBLE","flightCategory":"VFR","rawOb":"METAR SBLE 312100Z AUTO VRB01KT CAVOK ///// Q////","temp":null,"dewp":null,"wdir":"VRB","wspd":1,"visib":"6+","altim":null,"clouds":[],"obsTime":1780261200},"SBTA":{"icaoId":"SBTA","flightCategory":"VFR","rawOb":"METAR SBTA 312100Z 18007KT 9999 SCT030 19/15 Q1019","temp":19,"dewp":15,"wdir":180,"wspd":7,"visib":"6+","altim":1019,"clouds":[{"cover":"SCT","base":3000}],"obsTime":1780261200},"SBIH":{"icaoId":"SBIH","flightCategory":"VFR","rawOb":"METAR SBIH 312100Z 29004KT 9999 FEW016 FEW025TCU 27/25 Q1011","temp":27,"dewp":25,"wdir":290,"wspd":4,"visib":"6+","altim":1011,"clouds":[{"cover":"FEW","base":1600},{"cover":"FEW","base":2500}],"obsTime":1780261200},"SBTC":{"icaoId":"SBTC","flightCategory":"VFR","rawOb":"METAR SBTC 312100Z 23002KT 9999 SCT020 BKN050 23/22 Q1016","temp":23,"dewp":22,"wdir":230,"wspd":2,"visib":"6+","altim":1016,"clouds":[{"cover":"SCT","base":2000},{"cover":"BKN","base":5000}],"obsTime":1780261200},"SBST":{"icaoId":"SBST","flightCategory":"MVFR","rawOb":"METAR SBST 312100Z 14001KT 7000 SCT020 BKN038 18/18 Q1019","temp":18,"dewp":18,"wdir":140,"wspd":1,"visib":4.35,"altim":1019,"clouds":[{"cover":"SCT","base":2000},{"cover":"BKN","base":3800}],"obsTime":1780261200}}}