{"updated":1783790798,"count":86,"data":{"SBCR":{"icaoId":"SBCR","flightCategory":"VFR","rawOb":"METAR SBCR 111600Z 03003KT 310V110 CAVOK 32/20 Q1013","temp":32,"dewp":20,"wdir":30,"wspd":3,"visib":"6+","altim":1013,"clouds":[],"obsTime":1783785600},"SBFZ":{"icaoId":"SBFZ","flightCategory":"VFR","rawOb":"METAR SBFZ 111600Z 11018KT 9999 FEW030 29/23 Q1013","temp":29,"dewp":23,"wdir":110,"wspd":18,"visib":"6+","altim":1013,"clouds":[{"cover":"FEW","base":3000}],"obsTime":1783785600},"SBCZ":{"icaoId":"SBCZ","flightCategory":"VFR","rawOb":"METAR SBCZ 111600Z VRB02KT 9999 SCT016 SCT090 27/24 Q1015","temp":27,"dewp":24,"wdir":"VRB","wspd":2,"visib":"6+","altim":1015,"clouds":[{"cover":"SCT","base":1600},{"cover":"SCT","base":9000}],"obsTime":1783785600},"SBNT":{"icaoId":"SBNT","flightCategory":"MVFR","rawOb":"METAR SBNT 111600Z 15015KT 9999 BKN025 BKN080 28/22 Q1014","temp":28,"dewp":22,"wdir":150,"wspd":15,"visib":"6+","altim":1014,"clouds":[{"cover":"BKN","base":2500},{"cover":"BKN","base":8000}],"obsTime":1783785600},"SBSN":{"icaoId":"SBSN","flightCategory":"VFR","rawOb":"METAR SBSN 111600Z 08014KT 9999 FEW026TCU SCT040 30/24 Q1012","temp":30,"dewp":24,"wdir":80,"wspd":14,"visib":"6+","altim":1012,"clouds":[{"cover":"FEW","base":2600},{"cover":"SCT","base":4000}],"obsTime":1783785600},"SBKP":{"icaoId":"SBKP","flightCategory":"VFR","rawOb":"METAR SBKP 111600Z 33007KT 290V360 CAVOK 27/11 Q1016","temp":27,"dewp":11,"wdir":330,"wspd":7,"visib":"6+","altim":1016,"clouds":[],"obsTime":1783785600},"SBSG":{"icaoId":"SBSG","flightCategory":"VFR","rawOb":"METAR SBSG 111600Z 12005KT 090V170 9999 SCT025 25/24 Q1015","temp":25,"dewp":24,"wdir":120,"wspd":5,"visib":"6+","altim":1015,"clouds":[{"cover":"SCT","base":2500}],"obsTime":1783785600},"SBVT":{"icaoId":"SBVT","flightCategory":"VFR","rawOb":"METAR SBVT 111600Z 15009KT CAVOK 26/17 Q1014","temp":26,"dewp":17,"wdir":150,"wspd":9,"visib":"6+","altim":1014,"clouds":[],"obsTime":1783785600},"SBGO":{"icaoId":"SBGO","flightCategory":"VFR","rawOb":"METAR SBGO 111600Z 14003KT 9999 SCT049 31/13 Q1018","temp":31,"dewp":13,"wdir":140,"wspd":3,"visib":"6+","altim":1018,"clouds":[{"cover":"SCT","base":4900}],"obsTime":1783785600},"SBSV":{"icaoId":"SBSV","flightCategory":"MVFR","rawOb":"METAR SBSV 111600Z 08010KT 9999 BKN029 28/22 Q1016","temp":28,"dewp":22,"wdir":80,"wspd":10,"visib":"6+","altim":1016,"clouds":[{"cover":"BKN","base":2900}],"obsTime":1783785600},"SBBE":{"icaoId":"SBBE","flightCategory":"MVFR","rawOb":"METAR SBBE 111600Z 11010KT 9999 BKN030 31/23 Q1013","temp":31,"dewp":23,"wdir":110,"wspd":10,"visib":"6+","altim":1013,"clouds":[{"cover":"BKN","base":3000}],"obsTime":1783785600},"SBMO":{"icaoId":"SBMO","flightCategory":"MVFR","rawOb":"METAR SBMO 111600Z 12012KT 9999 BKN030 28/22 Q1016","temp":28,"dewp":22,"wdir":120,"wspd":12,"visib":"6+","altim":1016,"clouds":[{"cover":"BKN","base":3000}],"obsTime":1783785600},"SBRF":{"icaoId":"SBRF","flightCategory":"VFR","rawOb":"METAR SBRF 111600Z 13012KT 9999 SCT023 28/22 Q1015","temp":28,"dewp":22,"wdir":130,"wspd":12,"visib":"6+","altim":1015,"clouds":[{"cover":"SCT","base":2300}],"obsTime":1783785600},"SBEG":{"icaoId":"SBEG","flightCategory":"VFR","rawOb":"METAR SBEG 111600Z 07010KT 9999 SCT025 FEW030TCU 32/23 Q1013","temp":32,"dewp":23,"wdir":70,"wspd":10,"visib":"6+","altim":1013,"clouds":[{"cover":"SCT","base":2500},{"cover":"FEW","base":3000}],"obsTime":1783785600},"SBSL":{"icaoId":"SBSL","flightCategory":"MVFR","rawOb":"METAR SBSL 111600Z 07011KT 050V110 9999 BKN030 31/23 Q1012","temp":31,"dewp":23,"wdir":70,"wspd":11,"visib":"6+","altim":1012,"clouds":[{"cover":"BKN","base":3000}],"obsTime":1783785600},"SBCB":{"icaoId":"SBCB","flightCategory":"VFR","rawOb":"METAR SBCB 111600Z 12006KT CAVOK 26/19 Q1013","temp":26,"dewp":19,"wdir":120,"wspd":6,"visib":"6+","altim":1013,"clouds":[],"obsTime":1783785600},"SBCF":{"icaoId":"SBCF","flightCategory":"VFR","rawOb":"METAR SBCF 111600Z 01004KT 9999 FEW030 27/10 Q1019","temp":27,"dewp":10,"wdir":10,"wspd":4,"visib":"6+","altim":1019,"clouds":[{"cover":"FEW","base":3000}],"obsTime":1783785600},"SBRB":{"icaoId":"SBRB","flightCategory":"VFR","rawOb":"METAR SBRB 111600Z 29006KT 230V360 9999 FEW020 BKN080 27/22 Q1015","temp":27,"dewp":22,"wdir":290,"wspd":6,"visib":"6+","altim":1015,"clouds":[{"cover":"FEW","base":2000},{"cover":"BKN","base":8000}],"obsTime":1783785600},"SBGL":{"icaoId":"SBGL","flightCategory":"VFR","rawOb":"METAR SBGL 111600Z 04007KT CAVOK 27/15 Q1012","temp":27,"dewp":15,"wdir":40,"wspd":7,"visib":"6+","altim":1012,"clouds":[],"obsTime":1783785600},"SBBV":{"icaoId":"SBBV","flightCategory":"MVFR","rawOb":"METAR SBBV 111600Z 09007KT 9999 BKN030 FEW040TCU SCT070 31/23 Q1014","temp":31,"dewp":23,"wdir":90,"wspd":7,"visib":"6+","altim":1014,"clouds":[{"cover":"BKN","base":3000},{"cover":"FEW","base":4000},{"cover":"SCT","base":7000}],"obsTime":1783785600},"SBMG":{"icaoId":"SBMG","flightCategory":"VFR","rawOb":"METAR SBMG 111600Z 35014KT 320V020 9999 FEW030 FEW040TCU SCT100 29/16 Q1013","temp":29,"dewp":16,"wdir":350,"wspd":14,"visib":"6+","altim":1013,"clouds":[{"cover":"FEW","base":3000},{"cover":"FEW","base":4000},{"cover":"SCT","base":10000}],"obsTime":1783785600},"SBIL":{"icaoId":"SBIL","flightCategory":"VFR","rawOb":"METAR SBIL 111600Z 08006KT 9999 FEW023 28/23 Q1016","temp":28,"dewp":23,"wdir":80,"wspd":6,"visib":"6+","altim":1016,"clouds":[{"cover":"FEW","base":2300}],"obsTime":1783785600},"SBJU":{"icaoId":"SBJU","flightCategory":"VFR","rawOb":"METAR SBJU 111600Z 00000KT 9999 FEW022 33/16 Q1015","temp":33,"dewp":16,"wdir":0,"wspd":0,"visib":"6+","altim":1015,"clouds":[{"cover":"FEW","base":2200}],"obsTime":1783785600},"SBAT":{"icaoId":"SBAT","flightCategory":"VFR","rawOb":"METAR SBAT 111600Z 05008KT 9999 SCT035 33/23 Q1015","temp":33,"dewp":23,"wdir":50,"wspd":8,"visib":"6+","altim":1015,"clouds":[{"cover":"SCT","base":3500}],"obsTime":1783785600},"SBHT":{"icaoId":"SBHT","flightCategory":"MVFR","rawOb":"METAR SBHT 111600Z 10009KT 9999 BKN025 30/24 Q1013","temp":30,"dewp":24,"wdir":100,"wspd":9,"visib":"6+","altim":1013,"clouds":[{"cover":"BKN","base":2500}],"obsTime":1783785600},"SBME":{"icaoId":"SBME","flightCategory":"VFR","rawOb":"METAR SBME 111600Z 10008KT CAVOK 24/19 Q1013","temp":24,"dewp":19,"wdir":100,"wspd":8,"visib":"6+","altim":1013,"clouds":[],"obsTime":1783785600},"SBMK":{"icaoId":"SBMK","flightCategory":"VFR","rawOb":"METAR SBMK 111600Z 07004KT CAVOK 29/12 Q1017","temp":29,"dewp":12,"wdir":70,"wspd":4,"visib":"6+","altim":1017,"clouds":[],"obsTime":1783785600},"SBUL":{"icaoId":"SBUL","flightCategory":"VFR","rawOb":"METAR SBUL 111600Z 04009KT CAVOK 27/10 Q1020","temp":27,"dewp":10,"wdir":40,"wspd":9,"visib":"6+","altim":1020,"clouds":[],"obsTime":1783785600},"SBUR":{"icaoId":"SBUR","flightCategory":"VFR","rawOb":"METAR SBUR 111600Z 35007KT CAVOK 29/10 Q1018","temp":29,"dewp":10,"wdir":350,"wspd":7,"visib":"6+","altim":1018,"clouds":[],"obsTime":1783785600},"SBSP":{"icaoId":"SBSP","flightCategory":"VFR","rawOb":"METAR SBSP 111600Z 33013KT CAVOK 26/10 Q1016","temp":26,"dewp":10,"wdir":330,"wspd":13,"visib":"6+","altim":1016,"clouds":[],"obsTime":1783785600},"SBBR":{"icaoId":"SBBR","flightCategory":"VFR","rawOb":"METAR SBBR 111600Z 10005KT 040V130 9999 SCT045 28/11 Q1020","temp":28,"dewp":11,"wdir":100,"wspd":5,"visib":"6+","altim":1020,"clouds":[{"cover":"SCT","base":4500}],"obsTime":1783785600},"SBGR":{"icaoId":"SBGR","flightCategory":"VFR","rawOb":"METAR SBGR 111600Z 31014KT CAVOK 26/11 Q1016","temp":26,"dewp":11,"wdir":310,"wspd":14,"visib":"6+","altim":1016,"clouds":[],"obsTime":1783785600},"SBMA":{"icaoId":"SBMA","flightCategory":"VFR","rawOb":"METAR SBMA 111600Z 36007KT 9999 SCT020 31/22 Q1013","temp":31,"dewp":22,"wdir":360,"wspd":7,"visib":"6+","altim":1013,"clouds":[{"cover":"SCT","base":2000}],"obsTime":1783785600},"SBFI":{"icaoId":"SBFI","flightCategory":"MVFR","rawOb":"METAR SBFI 111600Z 25003KT 8000 -RA SCT020 FEW040TCU BKN070 21/21 Q1013","temp":21,"dewp":21,"wdir":250,"wspd":3,"visib":4.97,"altim":1013,"clouds":[{"cover":"SCT","base":2000},{"cover":"FEW","base":4000},{"cover":"BKN","base":7000}],"obsTime":1783785600},"SBPJ":{"icaoId":"SBPJ","flightCategory":"VFR","rawOb":"METAR SBPJ 111600Z 30006KT 9999 FEW033 34/19 Q1014","temp":34,"dewp":19,"wdir":300,"wspd":6,"visib":"6+","altim":1014,"clouds":[{"cover":"FEW","base":3300}],"obsTime":1783785600},"SBMQ":{"icaoId":"SBMQ","flightCategory":"VFR","rawOb":"METAR SBMQ 111600Z 06014KT 9999 SCT026 31/25 Q1013","temp":31,"dewp":25,"wdir":60,"wspd":14,"visib":"6+","altim":1013,"clouds":[{"cover":"SCT","base":2600}],"obsTime":1783785600},"SBLO":{"icaoId":"SBLO","flightCategory":"VFR","rawOb":"METAR SBLO 111600Z 36010KT 330V030 CAVOK 27/15 Q1014","temp":27,"dewp":15,"wdir":360,"wspd":10,"visib":"6+","altim":1014,"clouds":[],"obsTime":1783785600},"SBCT":{"icaoId":"SBCT","flightCategory":"VFR","rawOb":"METAR SBCT 111600Z 31010KT 9999 FEW045 BKN100 21/15 Q1014","temp":21,"dewp":15,"wdir":310,"wspd":10,"visib":"6+","altim":1014,"clouds":[{"cover":"FEW","base":4500},{"cover":"BKN","base":10000}],"obsTime":1783785600},"SBCP":{"icaoId":"SBCP","flightCategory":"VFR","rawOb":"METAR SBCP 111600Z 05006KT CAVOK 30/14 Q1013","temp":30,"dewp":14,"wdir":50,"wspd":6,"visib":"6+","altim":1013,"clouds":[],"obsTime":1783785600},"SBFL":{"icaoId":"SBFL","flightCategory":"IFR","rawOb":"SPECI SBFL 111538Z 33008KT 3000 RA SCT009 OVC086 16/15 Q1011","temp":16,"dewp":15,"wdir":330,"wspd":8,"visib":1.86,"altim":1011,"clouds":[{"cover":"SCT","base":900},{"cover":"OVC","base":8600}],"obsTime":1783784280},"SBPV":{"icaoId":"SBPV","flightCategory":"VFR","rawOb":"METAR SBPV 111600Z 34003KT 9999 SCT025 30/23 Q1013","temp":30,"dewp":23,"wdir":340,"wspd":3,"visib":"6+","altim":1013,"clouds":[{"cover":"SCT","base":2500}],"obsTime":1783785600},"SBTE":{"icaoId":"SBTE","flightCategory":"VFR","rawOb":"METAR SBTE 111600Z 08007KT 9999 SCT030 33/20 Q1012","temp":33,"dewp":20,"wdir":80,"wspd":7,"visib":"6+","altim":1012,"clouds":[{"cover":"SCT","base":3000}],"obsTime":1783785600},"SBCG":{"icaoId":"SBCG","flightCategory":"VFR","rawOb":"METAR SBCG 111600Z 30012KT 9999 FEW040 SCT100 30/15 Q1016","temp":30,"dewp":15,"wdir":300,"wspd":12,"visib":"6+","altim":1016,"clouds":[{"cover":"FEW","base":4000},{"cover":"SCT","base":10000}],"obsTime":1783785600},"SBPA":{"icaoId":"SBPA","flightCategory":"IFR","rawOb":"METAR SBPA 111600Z 06004KT 360V110 9000 BKN007 16/15 Q1010","temp":16,"dewp":15,"wdir":60,"wspd":4,"visib":5.59,"altim":1010,"clouds":[{"cover":"BKN","base":700}],"obsTime":1783785600},"SBCC":{"icaoId":"SBCC","flightCategory":"VFR","rawOb":"METAR SBCC 111600Z 04011KT 9999 SCT025 BKN100 28/19 Q1016","temp":28,"dewp":19,"wdir":40,"wspd":11,"visib":"6+","altim":1016,"clouds":[{"cover":"SCT","base":2500},{"cover":"BKN","base":10000}],"obsTime":1783785600},"SBVH":{"icaoId":"SBVH","flightCategory":"VFR","rawOb":"METAR SBVH 111600Z 32008KT 270V360 9999 FEW030 SCT100 30/20 Q1017","temp":30,"dewp":20,"wdir":320,"wspd":8,"visib":"6+","altim":1017,"clouds":[{"cover":"FEW","base":3000},{"cover":"SCT","base":10000}],"obsTime":1783785600},"SBAX":{"icaoId":"SBAX","flightCategory":"VFR","rawOb":"METAR SBAX 111600Z AUTO 35007KT 300V030 CAVOK 27/09 Q1019","temp":27,"dewp":9,"wdir":350,"wspd":7,"visib":"6+","altim":1019,"clouds":[],"obsTime":1783785600},"SBTT":{"icaoId":"SBTT","flightCategory":"VFR","rawOb":"METAR SBTT 111600Z 32005KT 9999 SCT008 BKN100 24/23 Q1015","temp":24,"dewp":23,"wdir":320,"wspd":5,"visib":"6+","altim":1015,"clouds":[{"cover":"SCT","base":800},{"cover":"BKN","base":10000}],"obsTime":1783785600},"SBBH":{"icaoId":"SBBH","flightCategory":"VFR","rawOb":"METAR SBBH 111600Z 35005KT CAVOK 28/10 Q1018","temp":28,"dewp":10,"wdir":350,"wspd":5,"visib":"6+","altim":1018,"clouds":[],"obsTime":1783785600},"SBBQ":{"icaoId":"SBBQ","flightCategory":"VFR","rawOb":"METAR SBBQ 111600Z 26006KT CAVOK 25/08 Q1021","temp":25,"dewp":8,"wdir":260,"wspd":6,"visib":"6+","altim":1021,"clouds":[],"obsTime":1783785600},"SBBU":{"icaoId":"SBBU","flightCategory":"VFR","rawOb":"METAR SBBU 111600Z 35007KT CAVOK 28/14 Q1016","temp":28,"dewp":14,"wdir":350,"wspd":7,"visib":"6+","altim":1016,"clouds":[],"obsTime":1783785600},"SBGM":{"icaoId":"SBGM","flightCategory":"MVFR","rawOb":"METAR SBGM 111600Z 25003KT 190V320 9999 BKN020 27/22 Q1014","temp":27,"dewp":22,"wdir":250,"wspd":3,"visib":"6+","altim":1014,"clouds":[{"cover":"BKN","base":2000}],"obsTime":1783785600},"SBDN":{"icaoId":"SBDN","flightCategory":"VFR","rawOb":"METAR SBDN 111600Z 34008KT CAVOK 30/15 Q1014","temp":30,"dewp":15,"wdir":340,"wspd":8,"visib":"6+","altim":1014,"clouds":[],"obsTime":1783785600},"SBCJ":{"icaoId":"SBCJ","flightCategory":"MVFR","rawOb":"METAR SBCJ 111600Z 00000KT 9999 BKN019 27/21 Q1016","temp":27,"dewp":21,"wdir":0,"wspd":0,"visib":"6+","altim":1016,"clouds":[{"cover":"BKN","base":1900}],"obsTime":1783785600},"SBIP":{"icaoId":"SBIP","flightCategory":"VFR","rawOb":"METAR SBIP 111600Z AUTO 08005KT 050V110 CAVOK 28/18 Q1015","temp":28,"dewp":18,"wdir":80,"wspd":5,"visib":"6+","altim":1015,"clouds":[],"obsTime":1783785600},"SBSC":{"icaoId":"SBSC","flightCategory":"VFR","rawOb":"METAR SBSC 111600Z 02006KT CAVOK 29/16 Q1012","temp":29,"dewp":16,"wdir":20,"wspd":6,"visib":"6+","altim":1012,"clouds":[],"obsTime":1783785600},"SBSR":{"icaoId":"SBSR","flightCategory":"VFR","rawOb":"METAR SBSR 111600Z 02005KT 290V090 CAVOK 29/11 Q1016","temp":29,"dewp":11,"wdir":20,"wspd":5,"visib":"6+","altim":1016,"clouds":[],"obsTime":1783785600},"SBTU":{"icaoId":"SBTU","flightCategory":"VFR","rawOb":"METAR SBTU 111600Z AUTO 26008KT 9999 // SCT026/// BKN031/// BKN045/// 29/23 Q1014","temp":29,"dewp":23,"wdir":260,"wspd":8,"visib":"6+","altim":1014,"clouds":[{"cover":"SCT","base":2600},{"cover":"BKN","base":3100},{"cover":"BKN","base":4500}],"obsTime":1783785600},"SBPB":{"icaoId":"SBPB","flightCategory":"VFR","rawOb":"METAR SBPB 111600Z 05012KT 9999 SCT020 31/25 Q1012","temp":31,"dewp":25,"wdir":50,"wspd":12,"visib":"6+","altim":1012,"clouds":[{"cover":"SCT","base":2000}],"obsTime":1783785600},"SBES":{"icaoId":"SBES","flightCategory":"VFR","rawOb":"METAR SBES 111600Z 16005KT 110V210 CAVOK 26/// Q1013","temp":null,"dewp":null,"wdir":160,"wspd":5,"visib":"6+","altim":1013,"clouds":[],"obsTime":1783785600},"SBCO":{"icaoId":"SBCO","flightCategory":"IFR","rawOb":"METAR SBCO 111600Z VRB02KT 8000 OVC007 16/15 Q1010","temp":16,"dewp":15,"wdir":"VRB","wspd":2,"visib":4.97,"altim":1010,"clouds":[{"cover":"OVC","base":700}],"obsTime":1783785600},"SBSM":{"icaoId":"SBSM","flightCategory":"MVFR","rawOb":"METAR SBSM 111600Z 14006KT 090V200 9999 BKN011 BKN100 17/15 Q1012","temp":17,"dewp":15,"wdir":140,"wspd":6,"visib":"6+","altim":1012,"clouds":[{"cover":"BKN","base":1100},{"cover":"BKN","base":10000}],"obsTime":1783785600},"SBPP":{"icaoId":"SBPP","flightCategory":"VFR","rawOb":"METAR SBPP 111600Z 32015KT 9999 SCT025 28/18 Q1016","temp":28,"dewp":18,"wdir":320,"wspd":15,"visib":"6+","altim":1016,"clouds":[{"cover":"SCT","base":2500}],"obsTime":1783785600},"SBUY":{"icaoId":"SBUY","flightCategory":"MVFR","rawOb":"METAR SBUY 111600Z 18002KT 9999 BKN010 BKN100 26/24 Q1012","temp":26,"dewp":24,"wdir":180,"wspd":2,"visib":"6+","altim":1012,"clouds":[{"cover":"BKN","base":1000},{"cover":"BKN","base":10000}],"obsTime":1783785600},"SBOI":{"icaoId":"SBOI","flightCategory":"MVFR","rawOb":"METAR SBOI 111600Z AUTO 12009G23KT 070V160 8000 +RA BKN023 26/24 Q1013","temp":26,"dewp":24,"wdir":120,"wspd":9,"visib":4.97,"altim":1013,"clouds":[{"cover":"BKN","base":2300}],"obsTime":1783785600},"SBPL":{"icaoId":"SBPL","flightCategory":"VFR","rawOb":"METAR SBPL 111600Z 11008KT CAVOK 32/15 Q1015","temp":32,"dewp":15,"wdir":110,"wspd":8,"visib":"6+","altim":1015,"clouds":[],"obsTime":1783785600},"SBKG":{"icaoId":"SBKG","flightCategory":"MVFR","rawOb":"METAR SBKG 111600Z 11012KT 9999 BKN020 27/19 Q1017","temp":27,"dewp":19,"wdir":110,"wspd":12,"visib":"6+","altim":1017,"clouds":[{"cover":"BKN","base":2000}],"obsTime":1783785600},"SBTF":{"icaoId":"SBTF","flightCategory":"VFR","rawOb":"METAR SBTF 111600Z 09009KT 9999 FEW017 SCT100 30/26 Q1012","temp":30,"dewp":26,"wdir":90,"wspd":9,"visib":"6+","altim":1012,"clouds":[{"cover":"FEW","base":1700},{"cover":"SCT","base":10000}],"obsTime":1783785600},"SBAR":{"icaoId":"SBAR","flightCategory":"VFR","rawOb":"METAR SBAR 111600Z 08010KT 050V120 9999 SCT025 28/21 Q1016","temp":28,"dewp":21,"wdir":80,"wspd":10,"visib":"6+","altim":1016,"clouds":[{"cover":"SCT","base":2500}],"obsTime":1783785600},"SBSJ":{"icaoId":"SBSJ","flightCategory":"VFR","rawOb":"METAR SBSJ 111600Z 34004KT CAVOK 24/14 Q1015","temp":24,"dewp":14,"wdir":340,"wspd":4,"visib":"6+","altim":1015,"clouds":[],"obsTime":1783785600},"SBPS":{"icaoId":"SBPS","flightCategory":"VFR","rawOb":"METAR SBPS 111600Z 07010KT 9999 SCT020 27/22 Q1016","temp":27,"dewp":22,"wdir":70,"wspd":10,"visib":"6+","altim":1016,"clouds":[{"cover":"SCT","base":2000}],"obsTime":1783785600},"SBAU":{"icaoId":"SBAU","flightCategory":"VFR","rawOb":"METAR SBAU 111600Z 33006KT CAVOK 30/12 Q1015","temp":30,"dewp":12,"wdir":330,"wspd":6,"visib":"6+","altim":1015,"clouds":[],"obsTime":1783785600},"SBJV":{"icaoId":"SBJV","flightCategory":"IFR","rawOb":"METAR SBJV 111600Z 00000KT 4000 -RA BKN005 BKN020 16/16 Q1013","temp":16,"dewp":16,"wdir":0,"wspd":0,"visib":2.49,"altim":1013,"clouds":[{"cover":"BKN","base":500},{"cover":"BKN","base":2000}],"obsTime":1783785600},"SBLE":{"icaoId":"SBLE","flightCategory":"VFR","rawOb":"METAR SBLE 111600Z AUTO 05005KT 360V120 9999 SCT032 ///// Q1018","temp":null,"dewp":null,"wdir":50,"wspd":5,"visib":"6+","altim":1018,"clouds":[{"cover":"SCT","base":3200}],"obsTime":1783785600},"SBTC":{"icaoId":"SBTC","flightCategory":"VFR","rawOb":"METAR SBTC 111600Z 06005KT 9999 SCT020 28/22 Q1016","temp":28,"dewp":22,"wdir":60,"wspd":5,"visib":"6+","altim":1016,"clouds":[{"cover":"SCT","base":2000}],"obsTime":1783785600},"SBIH":{"icaoId":"SBIH","flightCategory":"VFR","rawOb":"METAR SBIH 111600Z 03010KT 9999 SCT018 32/25 Q1013","temp":32,"dewp":25,"wdir":30,"wspd":10,"visib":"6+","altim":1013,"clouds":[{"cover":"SCT","base":1800}],"obsTime":1783785600},"SBAF":{"icaoId":"SBAF","flightCategory":"VFR","rawOb":"METAR SBAF 111600Z 06004KT 9000 NSC 27/14 Q1012","temp":27,"dewp":14,"wdir":60,"wspd":4,"visib":5.59,"altim":1012,"clouds":[],"obsTime":1783785600},"SBGW":{"icaoId":"SBGW","flightCategory":"VFR","rawOb":"METAR SBGW 111600Z VRB03KT CAVOK 27/12 Q1015","temp":27,"dewp":12,"wdir":"VRB","wspd":3,"visib":"6+","altim":1015,"clouds":[],"obsTime":1783785600},"SBAN":{"icaoId":"SBAN","flightCategory":"VFR","rawOb":"METAR SBAN 111600Z 35006KT 9999 FEW040 28/10 Q1021","temp":28,"dewp":10,"wdir":350,"wspd":6,"visib":"6+","altim":1021,"clouds":[{"cover":"FEW","base":4000}],"obsTime":1783785600},"SBNM":{"icaoId":"SBNM","flightCategory":"MVFR","rawOb":"METAR SBNM 111600Z 04002KT 9999 SCT007 BKN025 20/18 Q1012","temp":20,"dewp":18,"wdir":40,"wspd":2,"visib":"6+","altim":1012,"clouds":[{"cover":"SCT","base":700},{"cover":"BKN","base":2500}],"obsTime":1783785600},"SBJP":{"icaoId":"SBJP","flightCategory":"VFR","rawOb":"METAR SBJP 111600Z 12013KT 9999 SCT020 29/21 Q1015","temp":29,"dewp":21,"wdir":120,"wspd":13,"visib":"6+","altim":1015,"clouds":[{"cover":"SCT","base":2000}],"obsTime":1783785600},"SBLS":{"icaoId":"SBLS","flightCategory":"VFR","rawOb":"METAR SBLS 111600Z VRB06KT 9999 FEW048 27/10 Q1018","temp":27,"dewp":10,"wdir":"VRB","wspd":6,"visib":"6+","altim":1018,"clouds":[{"cover":"FEW","base":4800}],"obsTime":1783785600},"SBMT":{"icaoId":"SBMT","flightCategory":"VFR","rawOb":"METAR SBMT 111600Z 29013KT CAVOK 26/07 Q1015","temp":26,"dewp":7,"wdir":290,"wspd":13,"visib":"6+","altim":1015,"clouds":[],"obsTime":1783785600},"SBST":{"icaoId":"SBST","flightCategory":"VFR","rawOb":"METAR SBST 111600Z 16008KT CAVOK 26/15 Q1010","temp":26,"dewp":15,"wdir":160,"wspd":8,"visib":"6+","altim":1010,"clouds":[],"obsTime":1783785600},"SBTA":{"icaoId":"SBTA","flightCategory":"VFR","rawOb":"METAR SBTA 111600Z VRB02KT CAVOK 26/13 Q1014","temp":26,"dewp":13,"wdir":"VRB","wspd":2,"visib":"6+","altim":1014,"clouds":[],"obsTime":1783785600},"SBJR":{"icaoId":"SBJR","flightCategory":"VFR","rawOb":"METAR SBJR 111600Z 16006KT CAVOK 29/18 Q1012","temp":29,"dewp":18,"wdir":160,"wspd":6,"visib":"6+","altim":1012,"clouds":[],"obsTime":1783785600}}}