{"updated":1781737994,"count":76,"data":{"SBFI":{"icaoId":"SBFI","flightCategory":"VFR","rawOb":"METAR SBFI 172200Z 08001KT CAVOK 14/14 Q1021","temp":14,"dewp":14,"wdir":80,"wspd":1,"visib":"6+","altim":1021,"clouds":[],"obsTime":1781733600},"SBBR":{"icaoId":"SBBR","flightCategory":"VFR","rawOb":"METAR SBBR 172200Z 20004KT CAVOK 22/12 Q1022","temp":22,"dewp":12,"wdir":200,"wspd":4,"visib":"6+","altim":1022,"clouds":[],"obsTime":1781733600},"SBBV":{"icaoId":"SBBV","flightCategory":"VFR","rawOb":"METAR SBBV 172200Z 11006KT 9999 SCT035 FEW040TCU SCT080 31/23 Q1012","temp":31,"dewp":23,"wdir":110,"wspd":6,"visib":"6+","altim":1012,"clouds":[{"cover":"SCT","base":3500},{"cover":"FEW","base":4000},{"cover":"SCT","base":8000}],"obsTime":1781733600},"SBCF":{"icaoId":"SBCF","flightCategory":"VFR","rawOb":"METAR SBCF 172200Z 22001KT CAVOK 20/11 Q1022","temp":20,"dewp":11,"wdir":220,"wspd":1,"visib":"6+","altim":1022,"clouds":[],"obsTime":1781733600},"SBCG":{"icaoId":"SBCG","flightCategory":"VFR","rawOb":"METAR SBCG 172200Z 10007KT CAVOK 22/17 Q1020","temp":22,"dewp":17,"wdir":100,"wspd":7,"visib":"6+","altim":1020,"clouds":[],"obsTime":1781733600},"SBCT":{"icaoId":"SBCT","flightCategory":"VFR","rawOb":"METAR SBCT 172200Z 19004KT CAVOK 15/05 Q1025","temp":15,"dewp":5,"wdir":190,"wspd":4,"visib":"6+","altim":1025,"clouds":[],"obsTime":1781733600},"SBCZ":{"icaoId":"SBCZ","flightCategory":"VFR","rawOb":"METAR SBCZ 172200Z 25007KT 9999 SCT030 FEW035TCU 26/24 Q1014","temp":26,"dewp":24,"wdir":250,"wspd":7,"visib":"6+","altim":1014,"clouds":[{"cover":"SCT","base":3000},{"cover":"FEW","base":3500}],"obsTime":1781733600},"SBEG":{"icaoId":"SBEG","flightCategory":"VFR","rawOb":"METAR SBEG 172200Z 34002KT 9999 FEW030 FEW035TCU 27/24 Q1012","temp":27,"dewp":24,"wdir":340,"wspd":2,"visib":"6+","altim":1012,"clouds":[{"cover":"FEW","base":3000},{"cover":"FEW","base":3500}],"obsTime":1781733600},"SBBE":{"icaoId":"SBBE","flightCategory":"VFR","rawOb":"METAR SBBE 172200Z 00000KT 9999 SCT030 SCT100 26/26 Q1013","temp":26,"dewp":26,"wdir":0,"wspd":0,"visib":"6+","altim":1013,"clouds":[{"cover":"SCT","base":3000},{"cover":"SCT","base":10000}],"obsTime":1781733600},"SBFL":{"icaoId":"SBFL","flightCategory":"VFR","rawOb":"METAR SBFL 172200Z 17008KT CAVOK 16/09 Q1024","temp":16,"dewp":9,"wdir":170,"wspd":8,"visib":"6+","altim":1024,"clouds":[],"obsTime":1781733600},"SBFZ":{"icaoId":"SBFZ","flightCategory":"VFR","rawOb":"METAR SBFZ 172200Z 11007KT 9999 SCT020 26/24 Q1014","temp":26,"dewp":24,"wdir":110,"wspd":7,"visib":"6+","altim":1014,"clouds":[{"cover":"SCT","base":2000}],"obsTime":1781733600},"SBGL":{"icaoId":"SBGL","flightCategory":"VFR","rawOb":"METAR SBGL 172200Z 22009KT 9999 SCT025 20/16 Q1022","temp":20,"dewp":16,"wdir":220,"wspd":9,"visib":"6+","altim":1022,"clouds":[{"cover":"SCT","base":2500}],"obsTime":1781733600},"SBGO":{"icaoId":"SBGO","flightCategory":"VFR","rawOb":"METAR SBGO 172200Z 13005KT CAVOK 24/14 Q1021","temp":24,"dewp":14,"wdir":130,"wspd":5,"visib":"6+","altim":1021,"clouds":[],"obsTime":1781733600},"SBGR":{"icaoId":"SBGR","flightCategory":"MVFR","rawOb":"METAR SBGR 172200Z 15003KT 9999 BKN014 15/12 Q1024","temp":15,"dewp":12,"wdir":150,"wspd":3,"visib":"6+","altim":1024,"clouds":[{"cover":"BKN","base":1400}],"obsTime":1781733600},"SBIL":{"icaoId":"SBIL","flightCategory":"MVFR","rawOb":"METAR SBIL 172200Z 19012G22KT 160V220 9999 BKN025 26/23 Q1018","temp":26,"dewp":23,"wdir":190,"wspd":12,"visib":"6+","altim":1018,"clouds":[{"cover":"BKN","base":2500}],"obsTime":1781733600},"SBJU":{"icaoId":"SBJU","flightCategory":"VFR","rawOb":"METAR SBJU 172200Z 00000KT CAVOK 28/19 Q1016","temp":28,"dewp":19,"wdir":0,"wspd":0,"visib":"6+","altim":1016,"clouds":[],"obsTime":1781733600},"SBKP":{"icaoId":"SBKP","flightCategory":"VFR","rawOb":"METAR SBKP 172200Z 22005KT CAVOK 18/09 Q1023","temp":18,"dewp":9,"wdir":220,"wspd":5,"visib":"6+","altim":1023,"clouds":[],"obsTime":1781733600},"SBLO":{"icaoId":"SBLO","flightCategory":"VFR","rawOb":"METAR SBLO 172200Z 18002KT CAVOK 18/09 Q1023","temp":18,"dewp":9,"wdir":180,"wspd":2,"visib":"6+","altim":1023,"clouds":[],"obsTime":1781733600},"SBMA":{"icaoId":"SBMA","flightCategory":"VFR","rawOb":"METAR SBMA 172200Z 00000KT 9999 FEW020 27/25 Q1013","temp":27,"dewp":25,"wdir":0,"wspd":0,"visib":"6+","altim":1013,"clouds":[{"cover":"FEW","base":2000}],"obsTime":1781733600},"SBME":{"icaoId":"SBME","flightCategory":"VFR","rawOb":"METAR SBME 172200Z 25004KT 9999 BKN040 BKN075 20/17 Q1021","temp":20,"dewp":17,"wdir":250,"wspd":4,"visib":"6+","altim":1021,"clouds":[{"cover":"BKN","base":4000},{"cover":"BKN","base":7500}],"obsTime":1781733600},"SBMG":{"icaoId":"SBMG","flightCategory":"VFR","rawOb":"METAR SBMG 172200Z 15007KT CAVOK 17/11 Q1022","temp":17,"dewp":11,"wdir":150,"wspd":7,"visib":"6+","altim":1022,"clouds":[],"obsTime":1781733600},"SBMK":{"icaoId":"SBMK","flightCategory":"VFR","rawOb":"METAR SBMK 172200Z 15004KT CAVOK 23/13 Q1019","temp":23,"dewp":13,"wdir":150,"wspd":4,"visib":"6+","altim":1019,"clouds":[],"obsTime":1781733600},"SBMO":{"icaoId":"SBMO","flightCategory":"VFR","rawOb":"METAR SBMO 172200Z 09006KT CAVOK 24/23 Q1016","temp":24,"dewp":23,"wdir":90,"wspd":6,"visib":"6+","altim":1016,"clouds":[],"obsTime":1781733600},"SBMQ":{"icaoId":"SBMQ","flightCategory":"VFR","rawOb":"METAR SBMQ 172200Z 02004KT 9999 FEW015 27/25 Q1013","temp":27,"dewp":25,"wdir":20,"wspd":4,"visib":"6+","altim":1013,"clouds":[{"cover":"FEW","base":1500}],"obsTime":1781733600},"SBNT":{"icaoId":"SBNT","flightCategory":"VFR","rawOb":"METAR SBNT 172200Z 23002KT 9999 FEW049 SCT100 24/23 Q1015","temp":24,"dewp":23,"wdir":230,"wspd":2,"visib":"6+","altim":1015,"clouds":[{"cover":"FEW","base":4900},{"cover":"SCT","base":10000}],"obsTime":1781733600},"SBPA":{"icaoId":"SBPA","flightCategory":"VFR","rawOb":"METAR SBPA 172200Z 16003KT CAVOK 13/10 Q1025","temp":13,"dewp":10,"wdir":160,"wspd":3,"visib":"6+","altim":1025,"clouds":[],"obsTime":1781733600},"SBPJ":{"icaoId":"SBPJ","flightCategory":"VFR","rawOb":"METAR SBPJ 172200Z 14002KT 9999 FEW045 30/21 Q1014","temp":30,"dewp":21,"wdir":140,"wspd":2,"visib":"6+","altim":1014,"clouds":[{"cover":"FEW","base":4500}],"obsTime":1781733600},"SBPV":{"icaoId":"SBPV","flightCategory":"VFR","rawOb":"METAR SBPV 172200Z 21004KT 9999 SCT030 FEW035TCU 29/23 Q1012","temp":29,"dewp":23,"wdir":210,"wspd":4,"visib":"6+","altim":1012,"clouds":[{"cover":"SCT","base":3000},{"cover":"FEW","base":3500}],"obsTime":1781733600},"SBRB":{"icaoId":"SBRB","flightCategory":"VFR","rawOb":"METAR SBRB 172200Z 17004KT 9999 SCT018 24/21 Q1015","temp":24,"dewp":21,"wdir":170,"wspd":4,"visib":"6+","altim":1015,"clouds":[{"cover":"SCT","base":1800}],"obsTime":1781733600},"SBRF":{"icaoId":"SBRF","flightCategory":"MVFR","rawOb":"METAR SBRF 172200Z 12007KT 9999 BKN020 27/24 Q1016","temp":27,"dewp":24,"wdir":120,"wspd":7,"visib":"6+","altim":1016,"clouds":[{"cover":"BKN","base":2000}],"obsTime":1781733600},"SBSG":{"icaoId":"SBSG","flightCategory":"VFR","rawOb":"METAR SBSG 172200Z 21003KT 9999 FEW030 SCT090 23/23 Q1016","temp":23,"dewp":23,"wdir":210,"wspd":3,"visib":"6+","altim":1016,"clouds":[{"cover":"FEW","base":3000},{"cover":"SCT","base":9000}],"obsTime":1781733600},"SBSL":{"icaoId":"SBSL","flightCategory":"VFR","rawOb":"METAR SBSL 172200Z 04010KT 9999 FEW020 27/24 Q1013","temp":27,"dewp":24,"wdir":40,"wspd":10,"visib":"6+","altim":1013,"clouds":[{"cover":"FEW","base":2000}],"obsTime":1781733600},"SBSN":{"icaoId":"SBSN","flightCategory":"VFR","rawOb":"METAR SBSN 172200Z 09002KT 9999 FEW023TCU 27/25 Q1012","temp":27,"dewp":25,"wdir":90,"wspd":2,"visib":"6+","altim":1012,"clouds":[{"cover":"FEW","base":2300}],"obsTime":1781733600},"SBSP":{"icaoId":"SBSP","flightCategory":"VFR","rawOb":"METAR SBSP 172200Z 17008KT 150V210 9999 FEW011 14/13 Q1025","temp":14,"dewp":13,"wdir":170,"wspd":8,"visib":"6+","altim":1025,"clouds":[{"cover":"FEW","base":1100}],"obsTime":1781733600},"SBSV":{"icaoId":"SBSV","flightCategory":"VFR","rawOb":"METAR SBSV 172200Z 12006KT 100V160 9999 SCT013 SCT020 26/23 Q1017","temp":26,"dewp":23,"wdir":120,"wspd":6,"visib":"6+","altim":1017,"clouds":[{"cover":"SCT","base":1300},{"cover":"SCT","base":2000}],"obsTime":1781733600},"SBTE":{"icaoId":"SBTE","flightCategory":"VFR","rawOb":"METAR SBTE 172200Z 32003KT 9999 FEW025TCU 30/23 Q1012","temp":30,"dewp":23,"wdir":320,"wspd":3,"visib":"6+","altim":1012,"clouds":[{"cover":"FEW","base":2500}],"obsTime":1781733600},"SBUL":{"icaoId":"SBUL","flightCategory":"VFR","rawOb":"METAR SBUL 172200Z 22010KT CAVOK 19/08 Q1022","temp":19,"dewp":8,"wdir":220,"wspd":10,"visib":"6+","altim":1022,"clouds":[],"obsTime":1781733600},"SBUR":{"icaoId":"SBUR","flightCategory":"VFR","rawOb":"METAR SBUR 172200Z 19005KT CAVOK 19/13 Q1022","temp":19,"dewp":13,"wdir":190,"wspd":5,"visib":"6+","altim":1022,"clouds":[],"obsTime":1781733600},"SBVT":{"icaoId":"SBVT","flightCategory":"VFR","rawOb":"METAR SBVT 172200Z 18007KT 9999 SCT020 BKN048 22/18 Q1020","temp":22,"dewp":18,"wdir":180,"wspd":7,"visib":"6+","altim":1020,"clouds":[{"cover":"SCT","base":2000},{"cover":"BKN","base":4800}],"obsTime":1781733600},"SBCP":{"icaoId":"SBCP","flightCategory":"VFR","rawOb":"METAR SBCP 172200Z 22009KT 9999 BKN035 21/17 Q1021","temp":21,"dewp":17,"wdir":220,"wspd":9,"visib":"6+","altim":1021,"clouds":[{"cover":"BKN","base":3500}],"obsTime":1781733600},"SBKG":{"icaoId":"SBKG","flightCategory":"VFR","rawOb":"METAR SBKG 172200Z 08004KT CAVOK 22/21 Q1018","temp":22,"dewp":21,"wdir":80,"wspd":4,"visib":"6+","altim":1018,"clouds":[],"obsTime":1781733600},"SBBH":{"icaoId":"SBBH","flightCategory":"VFR","rawOb":"METAR SBBH 172200Z 00000KT CAVOK 18/13 Q1021","temp":18,"dewp":13,"wdir":0,"wspd":0,"visib":"6+","altim":1021,"clouds":[],"obsTime":1781733600},"SBTU":{"icaoId":"SBTU","flightCategory":"VFR","rawOb":"METAR SBTU 172200Z AUTO VRB02KT 9999 // NCD ///// Q1015","temp":null,"dewp":null,"wdir":"VRB","wspd":2,"visib":"6+","altim":1015,"clouds":[],"obsTime":1781733600},"SBCC":{"icaoId":"SBCC","flightCategory":"VFR","rawOb":"METAR SBCC 172200Z 06005KT CAVOK 28/20 Q1015","temp":28,"dewp":20,"wdir":60,"wspd":5,"visib":"6+","altim":1015,"clouds":[],"obsTime":1781733600},"SBPL":{"icaoId":"SBPL","flightCategory":"VFR","rawOb":"METAR SBPL 172200Z 09004KT CAVOK 30/15 Q1015","temp":30,"dewp":15,"wdir":90,"wspd":4,"visib":"6+","altim":1015,"clouds":[],"obsTime":1781733600},"SBVH":{"icaoId":"SBVH","flightCategory":"VFR","rawOb":"METAR SBVH 172200Z 23007KT 9999 SCT035 24/22 Q1017","temp":24,"dewp":22,"wdir":230,"wspd":7,"visib":"6+","altim":1017,"clouds":[{"cover":"SCT","base":3500}],"obsTime":1781733600},"SBPS":{"icaoId":"SBPS","flightCategory":"MVFR","rawOb":"METAR SBPS 172200Z 23004KT 9999 BKN025 23/22 Q1019","temp":23,"dewp":22,"wdir":230,"wspd":4,"visib":"6+","altim":1019,"clouds":[{"cover":"BKN","base":2500}],"obsTime":1781733600},"SBAX":{"icaoId":"SBAX","flightCategory":"VFR","rawOb":"METAR SBAX 172200Z 20004KT CAVOK 19/06 Q1023","temp":19,"dewp":6,"wdir":200,"wspd":4,"visib":"6+","altim":1023,"clouds":[],"obsTime":1781733600},"SBSC":{"icaoId":"SBSC","flightCategory":"MVFR","rawOb":"METAR SBSC 172200Z 20006KT 8000 SCT013 SCT030 BKN050 20/16 Q1022","temp":20,"dewp":16,"wdir":200,"wspd":6,"visib":4.97,"altim":1022,"clouds":[{"cover":"SCT","base":1300},{"cover":"SCT","base":3000},{"cover":"BKN","base":5000}],"obsTime":1781733600},"SBSJ":{"icaoId":"SBSJ","flightCategory":"VFR","rawOb":"METAR SBSJ 172200Z 17009KT CAVOK 15/13 Q1023","temp":15,"dewp":13,"wdir":170,"wspd":9,"visib":"6+","altim":1023,"clouds":[],"obsTime":1781733600},"SBCO":{"icaoId":"SBCO","flightCategory":"VFR","rawOb":"METAR SBCO 172200Z 07002KT CAVOK 10/08 Q1025","temp":10,"dewp":8,"wdir":70,"wspd":2,"visib":"6+","altim":1025,"clouds":[],"obsTime":1781733600},"SBBU":{"icaoId":"SBBU","flightCategory":"VFR","rawOb":"METAR SBBU 172200Z 17004KT CAVOK 18/15 Q1023","temp":18,"dewp":15,"wdir":170,"wspd":4,"visib":"6+","altim":1023,"clouds":[],"obsTime":1781733600},"SBSM":{"icaoId":"SBSM","flightCategory":"VFR","rawOb":"METAR SBSM 172200Z 09002KT CAVOK 10/10 Q1024","temp":10,"dewp":10,"wdir":90,"wspd":2,"visib":"6+","altim":1024,"clouds":[],"obsTime":1781733600},"SBDN":{"icaoId":"SBDN","flightCategory":"VFR","rawOb":"METAR SBDN 172200Z 14005KT CAVOK 18/12 Q1022","temp":18,"dewp":12,"wdir":140,"wspd":5,"visib":"6+","altim":1022,"clouds":[],"obsTime":1781733600},"SBSR":{"icaoId":"SBSR","flightCategory":"VFR","rawOb":"METAR SBSR 172200Z 18005KT CAVOK 19/11 Q1022","temp":19,"dewp":11,"wdir":180,"wspd":5,"visib":"6+","altim":1022,"clouds":[],"obsTime":1781733600},"SBOI":{"icaoId":"SBOI","flightCategory":"VFR","rawOb":"METAR SBOI 172200Z AUTO 06003KT 020V100 CAVOK 28/23 Q1014","temp":28,"dewp":23,"wdir":60,"wspd":3,"visib":"6+","altim":1014,"clouds":[],"obsTime":1781733600},"SBAR":{"icaoId":"SBAR","flightCategory":"VFR","rawOb":"METAR SBAR 172200Z 12005KT 9999 FEW020 27/23 Q1016","temp":27,"dewp":23,"wdir":120,"wspd":5,"visib":"6+","altim":1016,"clouds":[{"cover":"FEW","base":2000}],"obsTime":1781733600},"SBTT":{"icaoId":"SBTT","flightCategory":"VFR","rawOb":"METAR SBTT 172200Z 22003KT 9999 SCT028 29/23 Q1013","temp":29,"dewp":23,"wdir":220,"wspd":3,"visib":"6+","altim":1013,"clouds":[{"cover":"SCT","base":2800}],"obsTime":1781733600},"SBIP":{"icaoId":"SBIP","flightCategory":"VFR","rawOb":"METAR SBIP 172200Z AUTO 22002KT CAVOK 17/17 Q1019","temp":17,"dewp":17,"wdir":220,"wspd":2,"visib":"6+","altim":1019,"clouds":[],"obsTime":1781733600},"SBCA":{"icaoId":"SBCA","flightCategory":"VFR","rawOb":"METAR SBCA 172200Z 12004KT CAVOK 17/07 Q1024","temp":17,"dewp":7,"wdir":120,"wspd":4,"visib":"6+","altim":1024,"clouds":[],"obsTime":1781733600},"SBTF":{"icaoId":"SBTF","flightCategory":"VFR","rawOb":"METAR SBTF 172200Z 00000KT 9999 FEW017 SCT100 28/25 Q1012","temp":28,"dewp":25,"wdir":0,"wspd":0,"visib":"6+","altim":1012,"clouds":[{"cover":"FEW","base":1700},{"cover":"SCT","base":10000}],"obsTime":1781733600},"SBUY":{"icaoId":"SBUY","flightCategory":"VFR","rawOb":"METAR SBUY 172200Z 29001KT CAVOK 24/24 Q1012","temp":24,"dewp":24,"wdir":290,"wspd":1,"visib":"6+","altim":1012,"clouds":[],"obsTime":1781733600},"SBPB":{"icaoId":"SBPB","flightCategory":"MVFR","rawOb":"SPECI SBPB 172145Z 03005KT 9999 BKN020 28/24 Q1013","temp":28,"dewp":24,"wdir":30,"wspd":5,"visib":"6+","altim":1013,"clouds":[{"cover":"BKN","base":2000}],"obsTime":1781732700},"SBCJ":{"icaoId":"SBCJ","flightCategory":"VFR","rawOb":"SPECI SBCJ 172130Z 00000KT 9999 FEW015 SCT020 22/20 Q1018","temp":22,"dewp":20,"wdir":0,"wspd":0,"visib":"6+","altim":1018,"clouds":[{"cover":"FEW","base":1500},{"cover":"SCT","base":2000}],"obsTime":1781731800},"SBJP":{"icaoId":"SBJP","flightCategory":"VFR","rawOb":"METAR SBJP 172200Z 00000KT CAVOK 24/23 Q1016","temp":24,"dewp":23,"wdir":0,"wspd":0,"visib":"6+","altim":1016,"clouds":[],"obsTime":1781733600},"SBAN":{"icaoId":"SBAN","flightCategory":"VFR","rawOb":"METAR SBAN 172200Z 18006KT CAVOK 21/13 Q1023","temp":21,"dewp":13,"wdir":180,"wspd":6,"visib":"6+","altim":1023,"clouds":[],"obsTime":1781733600},"SBLE":{"icaoId":"SBLE","flightCategory":"VFR","rawOb":"METAR SBLE 172200Z AUTO 10002KT CAVOK 25/21 Q1018","temp":25,"dewp":21,"wdir":100,"wspd":2,"visib":"6+","altim":1018,"clouds":[],"obsTime":1781733600},"SBJV":{"icaoId":"SBJV","flightCategory":"VFR","rawOb":"METAR SBJV 172200Z 18004KT CAVOK 15/13 Q1024","temp":15,"dewp":13,"wdir":180,"wspd":4,"visib":"6+","altim":1024,"clouds":[],"obsTime":1781733600},"SBNM":{"icaoId":"SBNM","flightCategory":"VFR","rawOb":"METAR SBNM 172200Z AUTO 15005KT CAVOK 16/03 Q1024","temp":16,"dewp":3,"wdir":150,"wspd":5,"visib":"6+","altim":1024,"clouds":[],"obsTime":1781733600},"SBPF":{"icaoId":"SBPF","flightCategory":"VFR","rawOb":"METAR SBPF 172200Z 09003KT CAVOK 12/04 Q1025","temp":12,"dewp":4,"wdir":90,"wspd":3,"visib":"6+","altim":1025,"clouds":[],"obsTime":1781733600},"SBAF":{"icaoId":"SBAF","flightCategory":"VFR","rawOb":"METAR SBAF 172200Z 28003KT 9999 FEW025 BKN040 19/19 Q1022","temp":19,"dewp":19,"wdir":280,"wspd":3,"visib":"6+","altim":1022,"clouds":[{"cover":"FEW","base":2500},{"cover":"BKN","base":4000}],"obsTime":1781733600},"SBJR":{"icaoId":"SBJR","flightCategory":"VFR","rawOb":"METAR SBJR 172200Z 24006KT 9999 SCT020 BKN040 20/17 Q1022","temp":20,"dewp":17,"wdir":240,"wspd":6,"visib":"6+","altim":1022,"clouds":[{"cover":"SCT","base":2000},{"cover":"BKN","base":4000}],"obsTime":1781733600},"SBLS":{"icaoId":"SBLS","flightCategory":"VFR","rawOb":"METAR SBLS 172200Z 11005KT CAVOK 20/13 Q1021","temp":20,"dewp":13,"wdir":110,"wspd":5,"visib":"6+","altim":1021,"clouds":[],"obsTime":1781733600},"SBMT":{"icaoId":"SBMT","flightCategory":"VFR","rawOb":"METAR SBMT 172200Z 16006KT 9999 SCT015 15/11 Q1024","temp":15,"dewp":11,"wdir":160,"wspd":6,"visib":"6+","altim":1024,"clouds":[{"cover":"SCT","base":1500}],"obsTime":1781733600},"SBTA":{"icaoId":"SBTA","flightCategory":"VFR","rawOb":"METAR SBTA 172200Z 18008KT CAVOK 17/12 Q1022","temp":17,"dewp":12,"wdir":180,"wspd":8,"visib":"6+","altim":1022,"clouds":[],"obsTime":1781733600},"SBGW":{"icaoId":"SBGW","flightCategory":"VFR","rawOb":"METAR SBGW 172200Z VRB02KT CAVOK 15/09 Q1023","temp":15,"dewp":9,"wdir":"VRB","wspd":2,"visib":"6+","altim":1023,"clouds":[],"obsTime":1781733600}}}