{"updated":1783119045,"count":83,"data":{"SBMQ":{"icaoId":"SBMQ","flightCategory":"VFR","rawOb":"METAR SBMQ 032100Z 04003KT 9999 SCT040 BKN070 27/25 Q1011","temp":27,"dewp":25,"wdir":40,"wspd":3,"visib":"6+","altim":1011,"clouds":[{"cover":"SCT","base":4000},{"cover":"BKN","base":7000}],"obsTime":1783112400},"SBSL":{"icaoId":"SBSL","flightCategory":"VFR","rawOb":"METAR SBSL 032100Z 06006KT 9999 SCT030 29/25 Q1011","temp":29,"dewp":25,"wdir":60,"wspd":6,"visib":"6+","altim":1011,"clouds":[{"cover":"SCT","base":3000}],"obsTime":1783112400},"SBMA":{"icaoId":"SBMA","flightCategory":"VFR","rawOb":"METAR SBMA 032100Z 07004KT CAVOK 32/16 Q1011","temp":32,"dewp":16,"wdir":70,"wspd":4,"visib":"6+","altim":1011,"clouds":[],"obsTime":1783112400},"SBCG":{"icaoId":"SBCG","flightCategory":"MVFR","rawOb":"METAR SBCG 032100Z 20005KT 9999 BKN020 19/16 Q1021","temp":19,"dewp":16,"wdir":200,"wspd":5,"visib":"6+","altim":1021,"clouds":[{"cover":"BKN","base":2000}],"obsTime":1783112400},"SBTE":{"icaoId":"SBTE","flightCategory":"VFR","rawOb":"METAR SBTE 032100Z 00000KT CAVOK 33/14 Q1010","temp":33,"dewp":14,"wdir":0,"wspd":0,"visib":"6+","altim":1010,"clouds":[],"obsTime":1783112400},"SBGL":{"icaoId":"SBGL","flightCategory":"VFR","rawOb":"METAR SBGL 032100Z 23010KT 9999 SCT025 23/18 Q1019","temp":23,"dewp":18,"wdir":230,"wspd":10,"visib":"6+","altim":1019,"clouds":[{"cover":"SCT","base":2500}],"obsTime":1783112400},"SBSN":{"icaoId":"SBSN","flightCategory":"VFR","rawOb":"METAR SBSN 032100Z 07006KT 9999 FEW023 31/25 Q1010","temp":31,"dewp":25,"wdir":70,"wspd":6,"visib":"6+","altim":1010,"clouds":[{"cover":"FEW","base":2300}],"obsTime":1783112400},"SBSG":{"icaoId":"SBSG","flightCategory":"VFR","rawOb":"METAR SBSG 032100Z 15003KT 110V180 9999 SCT020 BKN033 25/24 Q1014","temp":25,"dewp":24,"wdir":150,"wspd":3,"visib":"6+","altim":1014,"clouds":[{"cover":"SCT","base":2000},{"cover":"BKN","base":3300}],"obsTime":1783112400},"SBCP":{"icaoId":"SBCP","flightCategory":"VFR","rawOb":"METAR SBCP 032100Z 08005KT CAVOK 23/21 Q1018","temp":23,"dewp":21,"wdir":80,"wspd":5,"visib":"6+","altim":1018,"clouds":[],"obsTime":1783112400},"SBCT":{"icaoId":"SBCT","flightCategory":"IFR","rawOb":"METAR SBCT 032100Z 12004KT 9999 OVC008 13/12 Q1022","temp":13,"dewp":12,"wdir":120,"wspd":4,"visib":"6+","altim":1022,"clouds":[{"cover":"OVC","base":800}],"obsTime":1783112400},"SBMO":{"icaoId":"SBMO","flightCategory":"VFR","rawOb":"METAR SBMO 032100Z 14005KT 9999 FEW035 25/21 Q1016","temp":25,"dewp":21,"wdir":140,"wspd":5,"visib":"6+","altim":1016,"clouds":[{"cover":"FEW","base":3500}],"obsTime":1783112400},"SBFZ":{"icaoId":"SBFZ","flightCategory":"MVFR","rawOb":"METAR SBFZ 032100Z 15008KT 8000 -RA BKN012 OVC060 25/24 Q1013 RERA","temp":25,"dewp":24,"wdir":150,"wspd":8,"visib":4.97,"altim":1013,"clouds":[{"cover":"BKN","base":1200},{"cover":"OVC","base":6000}],"obsTime":1783112400},"SBPV":{"icaoId":"SBPV","flightCategory":"VFR","rawOb":"METAR SBPV 032100Z 13006KT 9999 FEW040 32/18 Q1011","temp":32,"dewp":18,"wdir":130,"wspd":6,"visib":"6+","altim":1011,"clouds":[{"cover":"FEW","base":4000}],"obsTime":1783112400},"SBCZ":{"icaoId":"SBCZ","flightCategory":"VFR","rawOb":"METAR SBCZ 032100Z 09010KT 9999 SCT030 29/22 Q1013","temp":29,"dewp":22,"wdir":90,"wspd":10,"visib":"6+","altim":1013,"clouds":[{"cover":"SCT","base":3000}],"obsTime":1783112400},"SBSP":{"icaoId":"SBSP","flightCategory":"IFR","rawOb":"METAR SBSP 032100Z 17009KT 9999 BKN008 17/15 Q1023","temp":17,"dewp":15,"wdir":170,"wspd":9,"visib":"6+","altim":1023,"clouds":[{"cover":"BKN","base":800}],"obsTime":1783112400},"SBNT":{"icaoId":"SBNT","flightCategory":"VFR","rawOb":"METAR SBNT 032100Z 16007KT 9999 SCT017 SCT060 25/23 Q1014","temp":25,"dewp":23,"wdir":160,"wspd":7,"visib":"6+","altim":1014,"clouds":[{"cover":"SCT","base":1700},{"cover":"SCT","base":6000}],"obsTime":1783112400},"SBFL":{"icaoId":"SBFL","flightCategory":"VFR","rawOb":"METAR SBFL 032100Z VRB02KT 9999 SCT023 13/09 Q1022","temp":13,"dewp":9,"wdir":"VRB","wspd":2,"visib":"6+","altim":1022,"clouds":[{"cover":"SCT","base":2300}],"obsTime":1783112400},"SBBV":{"icaoId":"SBBV","flightCategory":"VFR","rawOb":"METAR SBBV 032100Z 04007KT 9999 VCSH SCT025 FEW030TCU BKN070 28/24 Q1010","temp":28,"dewp":24,"wdir":40,"wspd":7,"visib":"6+","altim":1010,"clouds":[{"cover":"SCT","base":2500},{"cover":"FEW","base":3000},{"cover":"BKN","base":7000}],"obsTime":1783112400},"SBPA":{"icaoId":"SBPA","flightCategory":"VFR","rawOb":"METAR SBPA 032100Z 29011KT 9999 BKN043 10/04 Q1025","temp":10,"dewp":4,"wdir":290,"wspd":11,"visib":"6+","altim":1025,"clouds":[{"cover":"BKN","base":4300}],"obsTime":1783112400},"SBRF":{"icaoId":"SBRF","flightCategory":"VFR","rawOb":"METAR SBRF 032100Z 17010KT 9999 SCT025 26/22 Q1015","temp":26,"dewp":22,"wdir":170,"wspd":10,"visib":"6+","altim":1015,"clouds":[{"cover":"SCT","base":2500}],"obsTime":1783112400},"SBMG":{"icaoId":"SBMG","flightCategory":"VFR","rawOb":"METAR SBMG 032100Z 29006KT 9999 SCT040 20/17 Q1020","temp":20,"dewp":17,"wdir":290,"wspd":6,"visib":"6+","altim":1020,"clouds":[{"cover":"SCT","base":4000}],"obsTime":1783112400},"SBGO":{"icaoId":"SBGO","flightCategory":"VFR","rawOb":"METAR SBGO 032100Z 09006KT CAVOK 26/11 Q1019","temp":26,"dewp":11,"wdir":90,"wspd":6,"visib":"6+","altim":1019,"clouds":[],"obsTime":1783112400},"SBIL":{"icaoId":"SBIL","flightCategory":"VFR","rawOb":"METAR SBIL 032100Z 15006KT CAVOK 25/20 Q1018","temp":25,"dewp":20,"wdir":150,"wspd":6,"visib":"6+","altim":1018,"clouds":[],"obsTime":1783112400},"SBJU":{"icaoId":"SBJU","flightCategory":"VFR","rawOb":"METAR SBJU 032100Z 00000KT 9999 FEW022 30/13 Q1015","temp":30,"dewp":13,"wdir":0,"wspd":0,"visib":"6+","altim":1015,"clouds":[{"cover":"FEW","base":2200}],"obsTime":1783112400},"SBGR":{"icaoId":"SBGR","flightCategory":"MVFR","rawOb":"METAR SBGR 032100Z 18004KT 8000 BKN011 18/15 Q1022","temp":18,"dewp":15,"wdir":180,"wspd":4,"visib":4.97,"altim":1022,"clouds":[{"cover":"BKN","base":1100}],"obsTime":1783112400},"SBME":{"icaoId":"SBME","flightCategory":"VFR","rawOb":"METAR SBME 032100Z 17006KT CAVOK 24/21 Q1018","temp":24,"dewp":21,"wdir":170,"wspd":6,"visib":"6+","altim":1018,"clouds":[],"obsTime":1783112400},"SBCF":{"icaoId":"SBCF","flightCategory":"VFR","rawOb":"METAR SBCF 032100Z 07002KT CAVOK 24/11 Q1021","temp":24,"dewp":11,"wdir":70,"wspd":2,"visib":"6+","altim":1021,"clouds":[],"obsTime":1783112400},"SBMK":{"icaoId":"SBMK","flightCategory":"VFR","rawOb":"METAR SBMK 032100Z 07006KT CAVOK 25/16 Q1019","temp":25,"dewp":16,"wdir":70,"wspd":6,"visib":"6+","altim":1019,"clouds":[],"obsTime":1783112400},"SBBR":{"icaoId":"SBBR","flightCategory":"VFR","rawOb":"METAR SBBR 032100Z 10007KT CAVOK 23/09 Q1021","temp":23,"dewp":9,"wdir":100,"wspd":7,"visib":"6+","altim":1021,"clouds":[],"obsTime":1783112400},"SBUL":{"icaoId":"SBUL","flightCategory":"VFR","rawOb":"METAR SBUL 032100Z 17002KT CAVOK 24/11 Q1021","temp":24,"dewp":11,"wdir":170,"wspd":2,"visib":"6+","altim":1021,"clouds":[],"obsTime":1783112400},"SBKP":{"icaoId":"SBKP","flightCategory":"VFR","rawOb":"METAR SBKP 032100Z 23006KT 210V310 CAVOK 24/13 Q1020","temp":24,"dewp":13,"wdir":230,"wspd":6,"visib":"6+","altim":1020,"clouds":[],"obsTime":1783112400},"SBLO":{"icaoId":"SBLO","flightCategory":"VFR","rawOb":"METAR SBLO 032100Z 28004KT 240V310 9999 FEW035 23/17 Q1020","temp":23,"dewp":17,"wdir":280,"wspd":4,"visib":"6+","altim":1020,"clouds":[{"cover":"FEW","base":3500}],"obsTime":1783112400},"SBSV":{"icaoId":"SBSV","flightCategory":"VFR","rawOb":"METAR SBSV 032100Z 13005KT 9999 FEW025 25/18 Q1017","temp":25,"dewp":18,"wdir":130,"wspd":5,"visib":"6+","altim":1017,"clouds":[{"cover":"FEW","base":2500}],"obsTime":1783112400},"SBPJ":{"icaoId":"SBPJ","flightCategory":"VFR","rawOb":"METAR SBPJ 032100Z 22003KT 190V250 CAVOK 30/19 Q1013","temp":30,"dewp":19,"wdir":220,"wspd":3,"visib":"6+","altim":1013,"clouds":[],"obsTime":1783112400},"SBVT":{"icaoId":"SBVT","flightCategory":"VFR","rawOb":"METAR SBVT 032100Z 03010KT CAVOK 24/19 Q1018","temp":24,"dewp":19,"wdir":30,"wspd":10,"visib":"6+","altim":1018,"clouds":[],"obsTime":1783112400},"SBEG":{"icaoId":"SBEG","flightCategory":"VFR","rawOb":"METAR SBEG 032100Z 13008KT 9999 FEW040 32/23 Q1010","temp":32,"dewp":23,"wdir":130,"wspd":8,"visib":"6+","altim":1010,"clouds":[{"cover":"FEW","base":4000}],"obsTime":1783112400},"SBUR":{"icaoId":"SBUR","flightCategory":"VFR","rawOb":"METAR SBUR 032100Z 21006KT CAVOK 24/14 Q1020","temp":24,"dewp":14,"wdir":210,"wspd":6,"visib":"6+","altim":1020,"clouds":[],"obsTime":1783112400},"SBBE":{"icaoId":"SBBE","flightCategory":"VFR","rawOb":"METAR SBBE 032100Z 12006KT 9999 FEW049 32/22 Q1010","temp":32,"dewp":22,"wdir":120,"wspd":6,"visib":"6+","altim":1010,"clouds":[{"cover":"FEW","base":4900}],"obsTime":1783112400},"SBRB":{"icaoId":"SBRB","flightCategory":"VFR","rawOb":"METAR SBRB 032100Z 17004KT 9999 SCT020 27/19 Q1015","temp":27,"dewp":19,"wdir":170,"wspd":4,"visib":"6+","altim":1015,"clouds":[{"cover":"SCT","base":2000}],"obsTime":1783112400},"SBFI":{"icaoId":"SBFI","flightCategory":"VFR","rawOb":"METAR SBFI 032100Z 22005KT CAVOK 12/08 Q1023","temp":12,"dewp":8,"wdir":220,"wspd":5,"visib":"6+","altim":1023,"clouds":[],"obsTime":1783112400},"SBHT":{"icaoId":"SBHT","flightCategory":"VFR","rawOb":"METAR SBHT 032100Z 00000KT 9999 FEW030 30/22 Q1010","temp":30,"dewp":22,"wdir":0,"wspd":0,"visib":"6+","altim":1010,"clouds":[{"cover":"FEW","base":3000}],"obsTime":1783112400},"SBCR":{"icaoId":"SBCR","flightCategory":"MVFR","rawOb":"METAR SBCR 032100Z 20008KT 150V240 9999 FEW013 BKN020 BKN066 15/12 Q1021","temp":15,"dewp":12,"wdir":200,"wspd":8,"visib":"6+","altim":1021,"clouds":[{"cover":"FEW","base":1300},{"cover":"BKN","base":2000},{"cover":"BKN","base":6600}],"obsTime":1783112400},"SBCB":{"icaoId":"SBCB","flightCategory":"VFR","rawOb":"METAR SBCB 032100Z 28013KT 9999 SCT010 23/20 Q1019","temp":23,"dewp":20,"wdir":280,"wspd":13,"visib":"6+","altim":1019,"clouds":[{"cover":"SCT","base":1000}],"obsTime":1783112400},"SBAT":{"icaoId":"SBAT","flightCategory":"VFR","rawOb":"METAR SBAT 032100Z 13007KT CAVOK 31/13 Q1013","temp":31,"dewp":13,"wdir":130,"wspd":7,"visib":"6+","altim":1013,"clouds":[],"obsTime":1783112400},"SBDN":{"icaoId":"SBDN","flightCategory":"IFR","rawOb":"METAR SBDN 032100Z 30003KT 9000 OVC006 18/18 Q1020","temp":18,"dewp":18,"wdir":300,"wspd":3,"visib":5.59,"altim":1020,"clouds":[{"cover":"OVC","base":600}],"obsTime":1783112400},"SBSC":{"icaoId":"SBSC","flightCategory":"MVFR","rawOb":"METAR SBSC 032100Z 19010KT 9999 BKN012 22/19 Q1020","temp":22,"dewp":19,"wdir":190,"wspd":10,"visib":"6+","altim":1020,"clouds":[{"cover":"BKN","base":1200}],"obsTime":1783112400},"SBSR":{"icaoId":"SBSR","flightCategory":"VFR","rawOb":"METAR SBSR 032100Z 26002KT CAVOK 26/13 Q1019","temp":26,"dewp":13,"wdir":260,"wspd":2,"visib":"6+","altim":1019,"clouds":[],"obsTime":1783112400},"SBBU":{"icaoId":"SBBU","flightCategory":"VFR","rawOb":"METAR SBBU 032100Z 30002KT CAVOK 26/14 Q1019","temp":26,"dewp":14,"wdir":300,"wspd":2,"visib":"6+","altim":1019,"clouds":[],"obsTime":1783112400},"SBIP":{"icaoId":"SBIP","flightCategory":"VFR","rawOb":"METAR SBIP 032100Z AUTO 20002KT CAVOK 19/18 Q1018","temp":19,"dewp":18,"wdir":200,"wspd":2,"visib":"6+","altim":1018,"clouds":[],"obsTime":1783112400},"SBTU":{"icaoId":"SBTU","flightCategory":"VFR","rawOb":"METAR SBTU 032100Z AUTO 35004KT 9999 // FEW064/// 30/20 Q1013","temp":30,"dewp":20,"wdir":350,"wspd":4,"visib":"6+","altim":1013,"clouds":[{"cover":"FEW","base":6400}],"obsTime":1783112400},"SBES":{"icaoId":"SBES","flightCategory":"MVFR","rawOb":"METAR SBES 032100Z 22013KT 6000 BKN010 22/// Q1018","temp":null,"dewp":null,"wdir":220,"wspd":13,"visib":3.73,"altim":1018,"clouds":[{"cover":"BKN","base":1000}],"obsTime":1783112400},"SBTF":{"icaoId":"SBTF","flightCategory":"VFR","rawOb":"METAR SBTF 032100Z 14008KT 9999 FEW020 33/24 Q1009","temp":33,"dewp":24,"wdir":140,"wspd":8,"visib":"6+","altim":1009,"clouds":[{"cover":"FEW","base":2000}],"obsTime":1783112400},"SBTT":{"icaoId":"SBTT","flightCategory":"VFR","rawOb":"METAR SBTT 032100Z 18007KT 9999 FEW020 31/23 Q1010","temp":31,"dewp":23,"wdir":180,"wspd":7,"visib":"6+","altim":1010,"clouds":[{"cover":"FEW","base":2000}],"obsTime":1783112400},"SBAR":{"icaoId":"SBAR","flightCategory":"VFR","rawOb":"METAR SBAR 032100Z 10004KT 9999 FEW030 26/20 Q1016","temp":26,"dewp":20,"wdir":100,"wspd":4,"visib":"6+","altim":1016,"clouds":[{"cover":"FEW","base":3000}],"obsTime":1783112400},"SBPL":{"icaoId":"SBPL","flightCategory":"VFR","rawOb":"METAR SBPL 032100Z 13008KT 9999 FEW030 29/17 Q1015","temp":29,"dewp":17,"wdir":130,"wspd":8,"visib":"6+","altim":1015,"clouds":[{"cover":"FEW","base":3000}],"obsTime":1783112400},"SBSJ":{"icaoId":"SBSJ","flightCategory":"VFR","rawOb":"METAR SBSJ 032100Z 21008KT CAVOK 18/15 Q1021","temp":18,"dewp":15,"wdir":210,"wspd":8,"visib":"6+","altim":1021,"clouds":[],"obsTime":1783112400},"SBPS":{"icaoId":"SBPS","flightCategory":"VFR","rawOb":"METAR SBPS 032100Z 11004KT 9999 FEW030 24/19 Q1019","temp":24,"dewp":19,"wdir":110,"wspd":4,"visib":"6+","altim":1019,"clouds":[{"cover":"FEW","base":3000}],"obsTime":1783112400},"SBOI":{"icaoId":"SBOI","flightCategory":"VFR","rawOb":"METAR SBOI 032100Z AUTO 09003KT 060V140 9999 FEW039 30/23 Q1011","temp":30,"dewp":23,"wdir":90,"wspd":3,"visib":"6+","altim":1011,"clouds":[{"cover":"FEW","base":3900}],"obsTime":1783112400},"SBVH":{"icaoId":"SBVH","flightCategory":"VFR","rawOb":"METAR SBVH 032100Z 21010KT CAVOK 23/17 Q1017","temp":23,"dewp":17,"wdir":210,"wspd":10,"visib":"6+","altim":1017,"clouds":[],"obsTime":1783112400},"SBCA":{"icaoId":"SBCA","flightCategory":"VFR","rawOb":"METAR SBCA 032100Z 19010KT 9999 FEW007 BKN100 12/09 Q1023","temp":12,"dewp":9,"wdir":190,"wspd":10,"visib":"6+","altim":1023,"clouds":[{"cover":"FEW","base":700},{"cover":"BKN","base":10000}],"obsTime":1783112400},"SBUY":{"icaoId":"SBUY","flightCategory":"VFR","rawOb":"METAR SBUY 032100Z 14004KT 9999 FEW025 31/22 Q1009","temp":31,"dewp":22,"wdir":140,"wspd":4,"visib":"6+","altim":1009,"clouds":[{"cover":"FEW","base":2500}],"obsTime":1783112400},"SBCO":{"icaoId":"SBCO","flightCategory":"VFR","rawOb":"METAR SBCO 032100Z 30010KT 9999 BKN043 09/04 Q1026","temp":9,"dewp":4,"wdir":300,"wspd":10,"visib":"6+","altim":1026,"clouds":[{"cover":"BKN","base":4300}],"obsTime":1783112400},"SBSM":{"icaoId":"SBSM","flightCategory":"VFR","rawOb":"METAR SBSM 032100Z 32002KT CAVOK 06/04 Q1027","temp":6,"dewp":4,"wdir":320,"wspd":2,"visib":"6+","altim":1027,"clouds":[],"obsTime":1783112400},"SBKG":{"icaoId":"SBKG","flightCategory":"MVFR","rawOb":"METAR SBKG 032100Z 15004KT 9999 BKN015 23/20 Q1017","temp":23,"dewp":20,"wdir":150,"wspd":4,"visib":"6+","altim":1017,"clouds":[{"cover":"BKN","base":1500}],"obsTime":1783112400},"SBAX":{"icaoId":"SBAX","flightCategory":"VFR","rawOb":"METAR SBAX 032100Z 17002KT CAVOK 24/10 Q1021","temp":24,"dewp":10,"wdir":170,"wspd":2,"visib":"6+","altim":1021,"clouds":[],"obsTime":1783112400},"SBBH":{"icaoId":"SBBH","flightCategory":"VFR","rawOb":"METAR SBBH 032100Z 00000KT CAVOK 20/12 Q1021","temp":20,"dewp":12,"wdir":0,"wspd":0,"visib":"6+","altim":1021,"clouds":[],"obsTime":1783112400},"SBPB":{"icaoId":"SBPB","flightCategory":"VFR","rawOb":"METAR SBPB 032100Z 09007KT 9999 SCT020 BKN100 29/24 Q1011","temp":29,"dewp":24,"wdir":90,"wspd":7,"visib":"6+","altim":1011,"clouds":[{"cover":"SCT","base":2000},{"cover":"BKN","base":10000}],"obsTime":1783112400},"SBCJ":{"icaoId":"SBCJ","flightCategory":"VFR","rawOb":"METAR SBCJ 032100Z 12004KT 9999 SCT030 28/17 Q1015","temp":28,"dewp":17,"wdir":120,"wspd":4,"visib":"6+","altim":1015,"clouds":[{"cover":"SCT","base":3000}],"obsTime":1783112400},"SBPP":{"icaoId":"SBPP","flightCategory":"LIFR","rawOb":"METAR SBPP 032100Z 21007KT 0050 FG VV000 10/10 Q1022","temp":10,"dewp":10,"wdir":210,"wspd":7,"visib":0.03,"altim":1022,"clouds":[{"cover":"OVX","base":0}],"obsTime":1783112400},"SBLE":{"icaoId":"SBLE","flightCategory":"VFR","rawOb":"METAR SBLE 032100Z AUTO 20003KT 160V230 9999 FEW023 OVC042 ///// Q1020","temp":null,"dewp":null,"wdir":200,"wspd":3,"visib":"6+","altim":1020,"clouds":[{"cover":"FEW","base":2300},{"cover":"OVC","base":4200}],"obsTime":1783112400},"SBMT":{"icaoId":"SBMT","flightCategory":"MVFR","rawOb":"METAR SBMT 032100Z 14006KT 5000 HZ BKN013 17/13 Q1022","temp":17,"dewp":13,"wdir":140,"wspd":6,"visib":3.11,"altim":1022,"clouds":[{"cover":"BKN","base":1300}],"obsTime":1783112400},"SBTA":{"icaoId":"SBTA","flightCategory":"VFR","rawOb":"METAR SBTA 032100Z 00000KT CAVOK 21/16 Q1019","temp":21,"dewp":16,"wdir":0,"wspd":0,"visib":"6+","altim":1019,"clouds":[],"obsTime":1783112400},"SBJP":{"icaoId":"SBJP","flightCategory":"VFR","rawOb":"METAR SBJP 032100Z 14007KT 9999 FEW025 BKN100 25/23 Q1015","temp":25,"dewp":23,"wdir":140,"wspd":7,"visib":"6+","altim":1015,"clouds":[{"cover":"FEW","base":2500},{"cover":"BKN","base":10000}],"obsTime":1783112400},"SBAN":{"icaoId":"SBAN","flightCategory":"VFR","rawOb":"METAR SBAN 032100Z 11003KT CAVOK 21/10 Q1022","temp":21,"dewp":10,"wdir":110,"wspd":3,"visib":"6+","altim":1022,"clouds":[],"obsTime":1783112400},"SBAF":{"icaoId":"SBAF","flightCategory":"MVFR","rawOb":"METAR SBAF 032100Z 19010KT 9999 BKN023 22/22 Q1019","temp":22,"dewp":22,"wdir":190,"wspd":10,"visib":"6+","altim":1019,"clouds":[{"cover":"BKN","base":2300}],"obsTime":1783112400},"SBJV":{"icaoId":"SBJV","flightCategory":"IFR","rawOb":"METAR SBJV 032100Z 13005KT 100V160 3000 -DZ BR BKN005 BKN015 14/13 Q1022","temp":14,"dewp":13,"wdir":130,"wspd":5,"visib":1.86,"altim":1022,"clouds":[{"cover":"BKN","base":500},{"cover":"BKN","base":1500}],"obsTime":1783112400},"SBGW":{"icaoId":"SBGW","flightCategory":"VFR","rawOb":"METAR SBGW 032100Z 36002KT CAVOK 21/13 Q1019","temp":21,"dewp":13,"wdir":360,"wspd":2,"visib":"6+","altim":1019,"clouds":[],"obsTime":1783112400},"SBNM":{"icaoId":"SBNM","flightCategory":"VFR","rawOb":"METAR SBNM 032100Z AUTO 14006KT CAVOK 06/01 Q1026","temp":6,"dewp":1,"wdir":140,"wspd":6,"visib":"6+","altim":1026,"clouds":[],"obsTime":1783112400},"SBLS":{"icaoId":"SBLS","flightCategory":"VFR","rawOb":"METAR SBLS 032100Z 12004KT CAVOK 23/12 Q1021","temp":23,"dewp":12,"wdir":120,"wspd":4,"visib":"6+","altim":1021,"clouds":[],"obsTime":1783112400},"SBJR":{"icaoId":"SBJR","flightCategory":"MVFR","rawOb":"METAR SBJR 032100Z 22006KT 9999 BKN010 BKN025 22/19 Q1019","temp":22,"dewp":19,"wdir":220,"wspd":6,"visib":"6+","altim":1019,"clouds":[{"cover":"BKN","base":1000},{"cover":"BKN","base":2500}],"obsTime":1783112400},"SBPF":{"icaoId":"SBPF","flightCategory":"VFR","rawOb":"METAR SBPF 032100Z 00000KT CAVOK 06/00 Q1025","temp":6,"dewp":0,"wdir":0,"wspd":0,"visib":"6+","altim":1025,"clouds":[],"obsTime":1783112400},"SBIH":{"icaoId":"SBIH","flightCategory":"VFR","rawOb":"METAR SBIH 032100Z 14003KT 9999 FEW020 33/21 Q1010","temp":33,"dewp":21,"wdir":140,"wspd":3,"visib":"6+","altim":1010,"clouds":[{"cover":"FEW","base":2000}],"obsTime":1783112400},"SBST":{"icaoId":"SBST","flightCategory":"MVFR","rawOb":"METAR SBST 032100Z 21004KT 5000 BR BKN011 18/18 Q1021","temp":18,"dewp":18,"wdir":210,"wspd":4,"visib":3.11,"altim":1021,"clouds":[{"cover":"BKN","base":1100}],"obsTime":1783112400}}}