{"updated":1777553958,"count":86,"data":{"SBCG":{"icaoId":"SBCG","flightCategory":"IFR","rawOb":"METAR SBCG 301100Z 10010KT 9999 BKN009 22/20 Q1017","temp":22,"dewp":20,"wdir":100,"wspd":10,"visib":"6+","altim":1017,"clouds":[{"cover":"BKN","base":900}],"obsTime":1777546800},"SBCZ":{"icaoId":"SBCZ","flightCategory":"VFR","rawOb":"METAR SBCZ 301100Z 00000KT 9999 SCT015 BKN100 24/24 Q1010","temp":24,"dewp":24,"wdir":0,"wspd":0,"visib":"6+","altim":1010,"clouds":[{"cover":"SCT","base":1500},{"cover":"BKN","base":10000}],"obsTime":1777546800},"SBBE":{"icaoId":"SBBE","flightCategory":"VFR","rawOb":"METAR SBBE 301100Z 10003KT 9000 FEW020 SCT100 27/25 Q1010","temp":27,"dewp":25,"wdir":100,"wspd":3,"visib":5.59,"altim":1010,"clouds":[{"cover":"FEW","base":2000},{"cover":"SCT","base":10000}],"obsTime":1777546800},"SBBR":{"icaoId":"SBBR","flightCategory":"VFR","rawOb":"METAR SBBR 301100Z VRB02KT CAVOK 20/15 Q1020","temp":20,"dewp":15,"wdir":"VRB","wspd":2,"visib":"6+","altim":1020,"clouds":[],"obsTime":1777546800},"SBBV":{"icaoId":"SBBV","flightCategory":"MVFR","rawOb":"METAR SBBV 301100Z 11008KT 9999 -RA SCT007 BKN020 FEW030TCU OVC100 24/23 Q1011","temp":24,"dewp":23,"wdir":110,"wspd":8,"visib":"6+","altim":1011,"clouds":[{"cover":"SCT","base":700},{"cover":"BKN","base":2000},{"cover":"FEW","base":3000},{"cover":"OVC","base":10000}],"obsTime":1777546800},"SBCB":{"icaoId":"SBCB","flightCategory":"VFR","rawOb":"METAR SBCB 301100Z 26012KT 9000 SCT020 25/24 Q1016","temp":25,"dewp":24,"wdir":260,"wspd":12,"visib":5.59,"altim":1016,"clouds":[{"cover":"SCT","base":2000}],"obsTime":1777546800},"SBCF":{"icaoId":"SBCF","flightCategory":"VFR","rawOb":"METAR SBCF 301100Z 20004KT CAVOK 19/16 Q1022","temp":19,"dewp":16,"wdir":200,"wspd":4,"visib":"6+","altim":1022,"clouds":[],"obsTime":1777546800},"SBCP":{"icaoId":"SBCP","flightCategory":"MVFR","rawOb":"METAR SBCP 301100Z 30003KT 9999 BKN020 BKN090 25/24 Q1016","temp":25,"dewp":24,"wdir":300,"wspd":3,"visib":"6+","altim":1016,"clouds":[{"cover":"BKN","base":2000},{"cover":"BKN","base":9000}],"obsTime":1777546800},"SBCR":{"icaoId":"SBCR","flightCategory":"VFR","rawOb":"METAR SBCR 301100Z 11004KT 080V140 CAVOK 26/23 Q1012","temp":26,"dewp":23,"wdir":110,"wspd":4,"visib":"6+","altim":1012,"clouds":[],"obsTime":1777546800},"SBCT":{"icaoId":"SBCT","flightCategory":"IFR","rawOb":"METAR SBCT 301100Z 19003KT 140V210 7000 OVC007 16/15 Q1020","temp":16,"dewp":15,"wdir":190,"wspd":3,"visib":4.35,"altim":1020,"clouds":[{"cover":"OVC","base":700}],"obsTime":1777546800},"SBAT":{"icaoId":"SBAT","flightCategory":"VFR","rawOb":"METAR SBAT 301100Z 00000KT 9999 VCSH FEW015 BKN080 25/25 Q1012","temp":25,"dewp":25,"wdir":0,"wspd":0,"visib":"6+","altim":1012,"clouds":[{"cover":"FEW","base":1500},{"cover":"BKN","base":8000}],"obsTime":1777546800},"SBEG":{"icaoId":"SBEG","flightCategory":"VFR","rawOb":"METAR SBEG 301100Z 34002KT 9999 1000W BCFG FEW010 24/24 Q1010","temp":24,"dewp":24,"wdir":340,"wspd":2,"visib":"6+","altim":1010,"clouds":[{"cover":"FEW","base":1000}],"obsTime":1777546800},"SBFI":{"icaoId":"SBFI","flightCategory":"IFR","rawOb":"METAR SBFI 301100Z 11005KT 9999 BKN009 19/19 Q1015","temp":19,"dewp":19,"wdir":110,"wspd":5,"visib":"6+","altim":1015,"clouds":[{"cover":"BKN","base":900}],"obsTime":1777546800},"SBFL":{"icaoId":"SBFL","flightCategory":"VFR","rawOb":"METAR SBFL 301100Z 20005KT 9999 FEW035 22/18 Q1016","temp":22,"dewp":18,"wdir":200,"wspd":5,"visib":"6+","altim":1016,"clouds":[{"cover":"FEW","base":3500}],"obsTime":1777546800},"SBFZ":{"icaoId":"SBFZ","flightCategory":"VFR","rawOb":"METAR SBFZ 301100Z 15010KT CAVOK 27/22 Q1010","temp":27,"dewp":22,"wdir":150,"wspd":10,"visib":"6+","altim":1010,"clouds":[],"obsTime":1777546800},"SBGL":{"icaoId":"SBGL","flightCategory":"VFR","rawOb":"METAR SBGL 301100Z 29004KT 9999 FEW014 26/21 Q1016","temp":26,"dewp":21,"wdir":290,"wspd":4,"visib":"6+","altim":1016,"clouds":[{"cover":"FEW","base":1400}],"obsTime":1777546800},"SBGO":{"icaoId":"SBGO","flightCategory":"VFR","rawOb":"METAR SBGO 301100Z 13004KT CAVOK 20/16 Q1019","temp":20,"dewp":16,"wdir":130,"wspd":4,"visib":"6+","altim":1019,"clouds":[],"obsTime":1777546800},"SBGR":{"icaoId":"SBGR","flightCategory":"VFR","rawOb":"METAR SBGR 301100Z 07005KT CAVOK 19/17 Q1019","temp":19,"dewp":17,"wdir":70,"wspd":5,"visib":"6+","altim":1019,"clouds":[],"obsTime":1777546800},"SBHT":{"icaoId":"SBHT","flightCategory":"VFR","rawOb":"METAR SBHT 301100Z 00000KT 9999 FEW010 BKN080 26/25 Q1010","temp":26,"dewp":25,"wdir":0,"wspd":0,"visib":"6+","altim":1010,"clouds":[{"cover":"FEW","base":1000},{"cover":"BKN","base":8000}],"obsTime":1777546800},"SBIL":{"icaoId":"SBIL","flightCategory":"VFR","rawOb":"METAR SBIL 301100Z 26005KT 230V300 9999 FEW018 SCT023 25/24 Q1016","temp":25,"dewp":24,"wdir":260,"wspd":5,"visib":"6+","altim":1016,"clouds":[{"cover":"FEW","base":1800},{"cover":"SCT","base":2300}],"obsTime":1777546800},"SBJU":{"icaoId":"SBJU","flightCategory":"VFR","rawOb":"METAR SBJU 301100Z 00000KT CAVOK 24/19 Q1014","temp":24,"dewp":19,"wdir":0,"wspd":0,"visib":"6+","altim":1014,"clouds":[],"obsTime":1777546800},"SBKP":{"icaoId":"SBKP","flightCategory":"VFR","rawOb":"METAR SBKP 301100Z 00000KT CAVOK 20/18 Q1019","temp":20,"dewp":18,"wdir":0,"wspd":0,"visib":"6+","altim":1019,"clouds":[],"obsTime":1777546800},"SBLO":{"icaoId":"SBLO","flightCategory":"LIFR","rawOb":"METAR SBLO 301100Z 15003KT 110V180 9999 BKN004 BKN092 19/18 Q1018","temp":19,"dewp":18,"wdir":150,"wspd":3,"visib":"6+","altim":1018,"clouds":[{"cover":"BKN","base":400},{"cover":"BKN","base":9200}],"obsTime":1777546800},"SBMA":{"icaoId":"SBMA","flightCategory":"VFR","rawOb":"METAR SBMA 301100Z 35004KT 9999 FEW020TCU SCT070 28/25 Q1011","temp":28,"dewp":25,"wdir":350,"wspd":4,"visib":"6+","altim":1011,"clouds":[{"cover":"FEW","base":2000},{"cover":"SCT","base":7000}],"obsTime":1777546800},"SBME":{"icaoId":"SBME","flightCategory":"VFR","rawOb":"METAR SBME 301100Z VRB02KT CAVOK 26/22 Q1016","temp":26,"dewp":22,"wdir":"VRB","wspd":2,"visib":"6+","altim":1016,"clouds":[],"obsTime":1777546800},"SBMG":{"icaoId":"SBMG","flightCategory":"VFR","rawOb":"METAR SBMG 301100Z 02009KT 9999 FEW010 BKN070 19/19 Q1016","temp":19,"dewp":19,"wdir":20,"wspd":9,"visib":"6+","altim":1016,"clouds":[{"cover":"FEW","base":1000},{"cover":"BKN","base":7000}],"obsTime":1777546800},"SBMK":{"icaoId":"SBMK","flightCategory":"VFR","rawOb":"METAR SBMK 301100Z 22003KT 9999 FEW020 SCT090 22/18 Q1020","temp":22,"dewp":18,"wdir":220,"wspd":3,"visib":"6+","altim":1020,"clouds":[{"cover":"FEW","base":2000},{"cover":"SCT","base":9000}],"obsTime":1777546800},"SBMO":{"icaoId":"SBMO","flightCategory":"IFR","rawOb":"METAR SBMO 301100Z 29003KT 260V340 9999 BKN008 BKN040 25/24 Q1013","temp":25,"dewp":24,"wdir":290,"wspd":3,"visib":"6+","altim":1013,"clouds":[{"cover":"BKN","base":800},{"cover":"BKN","base":4000}],"obsTime":1777546800},"SBMQ":{"icaoId":"SBMQ","flightCategory":"VFR","rawOb":"METAR SBMQ 301100Z 36004KT 9999 SCT007 SCT100 26/25 Q1010","temp":26,"dewp":25,"wdir":360,"wspd":4,"visib":"6+","altim":1010,"clouds":[{"cover":"SCT","base":700},{"cover":"SCT","base":10000}],"obsTime":1777546800},"SBNT":{"icaoId":"SBNT","flightCategory":"VFR","rawOb":"METAR SBNT 301100Z 16011KT 9999 FEW018 SCT030 BKN070 27/23 Q1011","temp":27,"dewp":23,"wdir":160,"wspd":11,"visib":"6+","altim":1011,"clouds":[{"cover":"FEW","base":1800},{"cover":"SCT","base":3000},{"cover":"BKN","base":7000}],"obsTime":1777546800},"SBPA":{"icaoId":"SBPA","flightCategory":"MVFR","rawOb":"METAR SBPA 301100Z 32003KT 290V040 5000 BR NSC 13/12 Q1017","temp":13,"dewp":12,"wdir":320,"wspd":3,"visib":3.11,"altim":1017,"clouds":[],"obsTime":1777546800},"SBPJ":{"icaoId":"SBPJ","flightCategory":"VFR","rawOb":"METAR SBPJ 301100Z 17006KT 9999 FEW012 26/24 Q1012","temp":26,"dewp":24,"wdir":170,"wspd":6,"visib":"6+","altim":1012,"clouds":[{"cover":"FEW","base":1200}],"obsTime":1777546800},"SBPV":{"icaoId":"SBPV","flightCategory":"VFR","rawOb":"METAR SBPV 301100Z 36001KT 9999 FEW005 SCT033 26/24 Q1010","temp":26,"dewp":24,"wdir":360,"wspd":1,"visib":"6+","altim":1010,"clouds":[{"cover":"FEW","base":500},{"cover":"SCT","base":3300}],"obsTime":1777546800},"SBRB":{"icaoId":"SBRB","flightCategory":"LIFR","rawOb":"METAR SBRB 301100Z 18001KT 1500 BR BKN001 22/22 Q1011","temp":22,"dewp":22,"wdir":180,"wspd":1,"visib":0.93,"altim":1011,"clouds":[{"cover":"BKN","base":100}],"obsTime":1777546800},"SBRF":{"icaoId":"SBRF","flightCategory":"MVFR","rawOb":"METAR SBRF 301100Z 20005KT 170V240 9000 VCSH BKN023 FEW025TCU 26/24 Q1012","temp":26,"dewp":24,"wdir":200,"wspd":5,"visib":5.59,"altim":1012,"clouds":[{"cover":"BKN","base":2300},{"cover":"FEW","base":2500}],"obsTime":1777546800},"SBSG":{"icaoId":"SBSG","flightCategory":"VFR","rawOb":"METAR SBSG 301100Z 16007KT 110V200 9999 SCT013 27/24 Q1012","temp":27,"dewp":24,"wdir":160,"wspd":7,"visib":"6+","altim":1012,"clouds":[{"cover":"SCT","base":1300}],"obsTime":1777546800},"SBSL":{"icaoId":"SBSL","flightCategory":"VFR","rawOb":"METAR SBSL 301100Z VRB02KT 9999 FEW020 BKN100 24/24 Q1011","temp":24,"dewp":24,"wdir":"VRB","wspd":2,"visib":"6+","altim":1011,"clouds":[{"cover":"FEW","base":2000},{"cover":"BKN","base":10000}],"obsTime":1777546800},"SBSN":{"icaoId":"SBSN","flightCategory":"VFR","rawOb":"METAR SBSN 301100Z 18004KT 9999 FEW017 25/24 Q1010","temp":25,"dewp":24,"wdir":180,"wspd":4,"visib":"6+","altim":1010,"clouds":[{"cover":"FEW","base":1700}],"obsTime":1777546800},"SBSP":{"icaoId":"SBSP","flightCategory":"VFR","rawOb":"METAR SBSP 301100Z 05005KT CAVOK 19/17 Q1020","temp":19,"dewp":17,"wdir":50,"wspd":5,"visib":"6+","altim":1020,"clouds":[],"obsTime":1777546800},"SBSV":{"icaoId":"SBSV","flightCategory":"VFR","rawOb":"METAR SBSV 301100Z 13007KT 9999 SCT025 29/22 Q1014","temp":29,"dewp":22,"wdir":130,"wspd":7,"visib":"6+","altim":1014,"clouds":[{"cover":"SCT","base":2500}],"obsTime":1777546800},"SBTE":{"icaoId":"SBTE","flightCategory":"MVFR","rawOb":"METAR SBTE 301100Z 00000KT 9999 SCT008 BKN016 BKN090 26/24 Q1011","temp":26,"dewp":24,"wdir":0,"wspd":0,"visib":"6+","altim":1011,"clouds":[{"cover":"SCT","base":800},{"cover":"BKN","base":1600},{"cover":"BKN","base":9000}],"obsTime":1777546800},"SBUL":{"icaoId":"SBUL","flightCategory":"VFR","rawOb":"METAR SBUL 301100Z 12007KT CAVOK 21/14 Q1020","temp":21,"dewp":14,"wdir":120,"wspd":7,"visib":"6+","altim":1020,"clouds":[],"obsTime":1777546800},"SBUR":{"icaoId":"SBUR","flightCategory":"MVFR","rawOb":"METAR SBUR 301100Z 17008KT 5000 BR NSC 20/17 Q1020","temp":20,"dewp":17,"wdir":170,"wspd":8,"visib":3.11,"altim":1020,"clouds":[],"obsTime":1777546800},"SBVT":{"icaoId":"SBVT","flightCategory":"VFR","rawOb":"METAR SBVT 301100Z 32003KT CAVOK 26/22 Q1016","temp":26,"dewp":22,"wdir":320,"wspd":3,"visib":"6+","altim":1016,"clouds":[],"obsTime":1777546800},"SBAR":{"icaoId":"SBAR","flightCategory":"VFR","rawOb":"METAR SBAR 301100Z 11010KT 9999 VCSH FEW006 SCT015 BKN050 25/24 Q1013 RERA","temp":25,"dewp":24,"wdir":110,"wspd":10,"visib":"6+","altim":1013,"clouds":[{"cover":"FEW","base":600},{"cover":"SCT","base":1500},{"cover":"BKN","base":5000}],"obsTime":1777546800},"SBPP":{"icaoId":"SBPP","flightCategory":"LIFR","rawOb":"SPECI SBPP 301115Z 07011KT 0000 FG VV000 19/19 Q1017","temp":19,"dewp":19,"wdir":70,"wspd":11,"visib":0,"altim":1017,"clouds":[{"cover":"OVX","base":0}],"obsTime":1777547700},"SBBH":{"icaoId":"SBBH","flightCategory":"VFR","rawOb":"METAR SBBH 301100Z 09004KT CAVOK 22/17 Q1021","temp":22,"dewp":17,"wdir":90,"wspd":4,"visib":"6+","altim":1021,"clouds":[],"obsTime":1777546800},"SBUY":{"icaoId":"SBUY","flightCategory":"MVFR","rawOb":"METAR SBUY 301100Z 00000KT 8000 NSC 23/22 Q1009","temp":23,"dewp":22,"wdir":0,"wspd":0,"visib":4.97,"altim":1009,"clouds":[],"obsTime":1777546800},"SBBQ":{"icaoId":"SBBQ","flightCategory":"VFR","rawOb":"METAR SBBQ 301200Z 09002KT CAVOK 20/17 Q1025","temp":20,"dewp":17,"wdir":90,"wspd":2,"visib":"6+","altim":1025,"clouds":[],"obsTime":1777550400},"SBBU":{"icaoId":"SBBU","flightCategory":"VFR","rawOb":"METAR SBBU 301100Z 06003KT 9999 FEW005 20/18 Q1017","temp":20,"dewp":18,"wdir":60,"wspd":3,"visib":"6+","altim":1017,"clouds":[{"cover":"FEW","base":500}],"obsTime":1777546800},"SBTT":{"icaoId":"SBTT","flightCategory":"VFR","rawOb":"METAR SBTT 301100Z 09002KT 9999 SCT009 SCT080 24/22 Q1010","temp":24,"dewp":22,"wdir":90,"wspd":2,"visib":"6+","altim":1010,"clouds":[{"cover":"SCT","base":900},{"cover":"SCT","base":8000}],"obsTime":1777546800},"SBCA":{"icaoId":"SBCA","flightCategory":"VFR","rawOb":"METAR SBCA 301100Z 08006KT 9999 BCFG FEW001 BKN100 18/17 Q1018","temp":18,"dewp":17,"wdir":80,"wspd":6,"visib":"6+","altim":1018,"clouds":[{"cover":"FEW","base":100},{"cover":"BKN","base":10000}],"obsTime":1777546800},"SBTF":{"icaoId":"SBTF","flightCategory":"VFR","rawOb":"SPECI SBTF 301115Z 15002KT 9999 FEW005 24/24 Q1010","temp":24,"dewp":24,"wdir":150,"wspd":2,"visib":"6+","altim":1010,"clouds":[{"cover":"FEW","base":500}],"obsTime":1777547700},"SBCC":{"icaoId":"SBCC","flightCategory":"VFR","rawOb":"METAR SBCC 301100Z 03003KT CAVOK 25/22 Q1013","temp":25,"dewp":22,"wdir":30,"wspd":3,"visib":"6+","altim":1013,"clouds":[],"obsTime":1777546800},"SBTD":{"icaoId":"SBTD","flightCategory":"VFR","rawOb":"METAR SBTD 301100Z /////KT CAVOK 18/18 Q1017","temp":18,"dewp":18,"wdir":null,"wspd":null,"visib":"6+","altim":1017,"clouds":[],"obsTime":1777546800},"SBSR":{"icaoId":"SBSR","flightCategory":"VFR","rawOb":"METAR SBSR 301100Z 09009KT 9000 NSC 22/16 Q1017","temp":22,"dewp":16,"wdir":90,"wspd":9,"visib":5.59,"altim":1017,"clouds":[],"obsTime":1777546800},"SBCJ":{"icaoId":"SBCJ","flightCategory":"VFR","rawOb":"METAR SBCJ 301100Z 00000KT CAVOK 26/22 Q1015","temp":26,"dewp":22,"wdir":0,"wspd":0,"visib":"6+","altim":1015,"clouds":[],"obsTime":1777546800},"SBCO":{"icaoId":"SBCO","flightCategory":"MVFR","rawOb":"METAR SBCO 301100Z VRB01KT 7000 NSC 11/11 Q1018","temp":11,"dewp":11,"wdir":"VRB","wspd":1,"visib":4.35,"altim":1018,"clouds":[],"obsTime":1777546800},"SBSM":{"icaoId":"SBSM","flightCategory":"VFR","rawOb":"METAR SBSM 301100Z 00000KT CAVOK 10/10 Q1017","temp":10,"dewp":10,"wdir":0,"wspd":0,"visib":"6+","altim":1017,"clouds":[],"obsTime":1777546800},"SBDN":{"icaoId":"SBDN","flightCategory":"VFR","rawOb":"METAR SBDN 301100Z 05007KT CAVOK 22/18 Q1016","temp":22,"dewp":18,"wdir":50,"wspd":7,"visib":"6+","altim":1016,"clouds":[],"obsTime":1777546800},"SBSJ":{"icaoId":"SBSJ","flightCategory":"VFR","rawOb":"METAR SBSJ 301100Z 19004KT CAVOK 18/17 Q1019","temp":18,"dewp":17,"wdir":190,"wspd":4,"visib":"6+","altim":1019,"clouds":[],"obsTime":1777546800},"SBSC":{"icaoId":"SBSC","flightCategory":"VFR","rawOb":"METAR SBSC 301100Z 03007KT 9999 FEW020 24/22 Q1015","temp":24,"dewp":22,"wdir":30,"wspd":7,"visib":"6+","altim":1015,"clouds":[{"cover":"FEW","base":2000}],"obsTime":1777546800},"SBES":{"icaoId":"SBES","flightCategory":"VFR","rawOb":"METAR SBES 301100Z VRB04KT 9999 FEW010 25/// Q1016","temp":null,"dewp":null,"wdir":"VRB","wspd":4,"visib":"6+","altim":1016,"clouds":[{"cover":"FEW","base":1000}],"obsTime":1777546800},"SBGM":{"icaoId":"SBGM","flightCategory":"VFR","rawOb":"METAR SBGM 301200Z 08004KT CAVOK 25/24 Q1011","temp":25,"dewp":24,"wdir":80,"wspd":4,"visib":"6+","altim":1011,"clouds":[],"obsTime":1777550400},"SBIP":{"icaoId":"SBIP","flightCategory":"VFR","rawOb":"METAR SBIP 301100Z AUTO 01005KT 9999 FEW034 26/20 Q1018","temp":26,"dewp":20,"wdir":10,"wspd":5,"visib":"6+","altim":1018,"clouds":[{"cover":"FEW","base":3400}],"obsTime":1777546800},"SBPS":{"icaoId":"SBPS","flightCategory":"MVFR","rawOb":"METAR SBPS 301100Z 26005KT 8000 VCSH SCT017 FEW025TCU BKN080 24/23 Q1016","temp":24,"dewp":23,"wdir":260,"wspd":5,"visib":4.97,"altim":1016,"clouds":[{"cover":"SCT","base":1700},{"cover":"FEW","base":2500},{"cover":"BKN","base":8000}],"obsTime":1777546800},"SBKG":{"icaoId":"SBKG","flightCategory":"VFR","rawOb":"METAR SBKG 301100Z 14008KT 110V180 9999 FEW010 SCT018 23/21 Q1015","temp":23,"dewp":21,"wdir":140,"wspd":8,"visib":"6+","altim":1015,"clouds":[{"cover":"FEW","base":1000},{"cover":"SCT","base":1800}],"obsTime":1777546800},"SBPB":{"icaoId":"SBPB","flightCategory":"VFR","rawOb":"METAR SBPB 301100Z 12008KT 9999 SCT017 BKN100 27/25 Q1010","temp":27,"dewp":25,"wdir":120,"wspd":8,"visib":"6+","altim":1010,"clouds":[{"cover":"SCT","base":1700},{"cover":"BKN","base":10000}],"obsTime":1777546800},"SBVH":{"icaoId":"SBVH","flightCategory":"VFR","rawOb":"METAR SBVH 301100Z 11005KT CAVOK 22/21 Q1015","temp":22,"dewp":21,"wdir":110,"wspd":5,"visib":"6+","altim":1015,"clouds":[],"obsTime":1777546800},"SBPL":{"icaoId":"SBPL","flightCategory":"MVFR","rawOb":"METAR SBPL 301100Z 16006KT 9999 BKN020 24/19 Q1015","temp":24,"dewp":19,"wdir":160,"wspd":6,"visib":"6+","altim":1015,"clouds":[{"cover":"BKN","base":2000}],"obsTime":1777546800},"SBOI":{"icaoId":"SBOI","flightCategory":"VFR","rawOb":"METAR SBOI 301100Z AUTO VRB01KT 9999 FEW020 BKN042 26/24 Q1011","temp":26,"dewp":24,"wdir":"VRB","wspd":1,"visib":"6+","altim":1011,"clouds":[{"cover":"FEW","base":2000},{"cover":"BKN","base":4200}],"obsTime":1777546800},"SBAX":{"icaoId":"SBAX","flightCategory":"VFR","rawOb":"METAR SBAX 301100Z 08004KT CAVOK 21/15 Q1021","temp":21,"dewp":15,"wdir":80,"wspd":4,"visib":"6+","altim":1021,"clouds":[],"obsTime":1777546800},"SBLE":{"icaoId":"SBLE","flightCategory":"VFR","rawOb":"METAR SBLE 301100Z AUTO 15005KT 110V180 9999 SCT025 BKN032 ///// Q////","temp":null,"dewp":null,"wdir":150,"wspd":5,"visib":"6+","altim":null,"clouds":[{"cover":"SCT","base":2500},{"cover":"BKN","base":3200}],"obsTime":1777546800},"SBAN":{"icaoId":"SBAN","flightCategory":"VFR","rawOb":"METAR SBAN 301100Z 17008KT CAVOK 19/15 Q1021","temp":19,"dewp":15,"wdir":170,"wspd":8,"visib":"6+","altim":1021,"clouds":[],"obsTime":1777546800},"SBAF":{"icaoId":"SBAF","flightCategory":"VFR","rawOb":"METAR SBAF 301100Z 32003KT 9999 FEW015 SCT070 25/24 Q1016","temp":25,"dewp":24,"wdir":320,"wspd":3,"visib":"6+","altim":1016,"clouds":[{"cover":"FEW","base":1500},{"cover":"SCT","base":7000}],"obsTime":1777546800},"SBGW":{"icaoId":"SBGW","flightCategory":"VFR","rawOb":"METAR SBGW 301100Z 06008KT CAVOK 21/15 Q1017","temp":21,"dewp":15,"wdir":60,"wspd":8,"visib":"6+","altim":1017,"clouds":[],"obsTime":1777546800},"SBJR":{"icaoId":"SBJR","flightCategory":"VFR","rawOb":"METAR SBJR 301100Z 02002KT 9999 FEW015 26/22 Q1015","temp":26,"dewp":22,"wdir":20,"wspd":2,"visib":"6+","altim":1015,"clouds":[{"cover":"FEW","base":1500}],"obsTime":1777546800},"SBLS":{"icaoId":"SBLS","flightCategory":"VFR","rawOb":"METAR SBLS 301100Z 18006KT CAVOK 19/17 Q1021","temp":19,"dewp":17,"wdir":180,"wspd":6,"visib":"6+","altim":1021,"clouds":[],"obsTime":1777546800},"SBMT":{"icaoId":"SBMT","flightCategory":"VFR","rawOb":"METAR SBMT 301100Z 09003KT CAVOK 19/17 Q1019","temp":19,"dewp":17,"wdir":90,"wspd":3,"visib":"6+","altim":1019,"clouds":[],"obsTime":1777546800},"SBTA":{"icaoId":"SBTA","flightCategory":"VFR","rawOb":"METAR SBTA 301100Z 11006KT 9999 FEW020 BKN100 19/18 Q1017","temp":19,"dewp":18,"wdir":110,"wspd":6,"visib":"6+","altim":1017,"clouds":[{"cover":"FEW","base":2000},{"cover":"BKN","base":10000}],"obsTime":1777546800},"SBIH":{"icaoId":"SBIH","flightCategory":"MVFR","rawOb":"METAR SBIH 301100Z 00000KT 7000 SCT009 26/25 Q1010","temp":26,"dewp":25,"wdir":0,"wspd":0,"visib":4.35,"altim":1010,"clouds":[{"cover":"SCT","base":900}],"obsTime":1777546800},"SBJV":{"icaoId":"SBJV","flightCategory":"LIFR","rawOb":"METAR SBJV 301100Z 17001KT 0500 R33/0500 FG BKN001 18/18 Q1017","temp":18,"dewp":18,"wdir":170,"wspd":1,"visib":0.31,"altim":1017,"clouds":[{"cover":"BKN","base":100}],"obsTime":1777546800},"SBNM":{"icaoId":"SBNM","flightCategory":"VFR","rawOb":"METAR SBNM 301200Z 09004KT CAVOK 15/12 Q1017","temp":15,"dewp":12,"wdir":90,"wspd":4,"visib":"6+","altim":1017,"clouds":[],"obsTime":1777550400},"SBST":{"icaoId":"SBST","flightCategory":"VFR","rawOb":"METAR SBST 301100Z /////KT 9999 SCT025 ///// Q1014","temp":null,"dewp":null,"wdir":null,"wspd":null,"visib":"6+","altim":1014,"clouds":[{"cover":"SCT","base":2500}],"obsTime":1777546800},"SBJP":{"icaoId":"SBJP","flightCategory":"VFR","rawOb":"METAR SBJP 301100Z 17007KT 120V220 9999 FEW020 27/24 Q1012","temp":27,"dewp":24,"wdir":170,"wspd":7,"visib":"6+","altim":1012,"clouds":[{"cover":"FEW","base":2000}],"obsTime":1777546800},"SBPF":{"icaoId":"SBPF","flightCategory":"VFR","rawOb":"METAR SBPF 301100Z 05007KT CAVOK 14/11 Q1019","temp":14,"dewp":11,"wdir":50,"wspd":7,"visib":"6+","altim":1019,"clouds":[],"obsTime":1777546800}}}