{"updated":1778696432,"count":86,"data":{"SBSL":{"icaoId":"SBSL","flightCategory":"MVFR","rawOb":"METAR SBSL 131700Z 04004KT 9999 VCSH SCT015 BKN020 FEW025TCU BKN100 28/26 Q1011","temp":28,"dewp":26,"wdir":40,"wspd":4,"visib":"6+","altim":1011,"clouds":[{"cover":"SCT","base":1500},{"cover":"BKN","base":2000},{"cover":"FEW","base":2500},{"cover":"BKN","base":10000}],"obsTime":1778691600},"SBCG":{"icaoId":"SBCG","flightCategory":"VFR","rawOb":"METAR SBCG 131700Z VRB03KT CAVOK 26/13 Q1017","temp":26,"dewp":13,"wdir":"VRB","wspd":3,"visib":"6+","altim":1017,"clouds":[],"obsTime":1778691600},"SBMA":{"icaoId":"SBMA","flightCategory":"VFR","rawOb":"METAR SBMA 131700Z 28007KT 9999 SCT020 FEW023TCU 30/25 Q1012","temp":30,"dewp":25,"wdir":280,"wspd":7,"visib":"6+","altim":1012,"clouds":[{"cover":"SCT","base":2000},{"cover":"FEW","base":2300}],"obsTime":1778691600},"SBME":{"icaoId":"SBME","flightCategory":"VFR","rawOb":"METAR SBME 131700Z 12010KT 9999 FEW030 27/20 Q1014","temp":27,"dewp":20,"wdir":120,"wspd":10,"visib":"6+","altim":1014,"clouds":[{"cover":"FEW","base":3000}],"obsTime":1778691600},"SBFI":{"icaoId":"SBFI","flightCategory":"VFR","rawOb":"METAR SBFI 131700Z 01006KT CAVOK 22/12 Q1017","temp":22,"dewp":12,"wdir":10,"wspd":6,"visib":"6+","altim":1017,"clouds":[],"obsTime":1778691600},"SBCP":{"icaoId":"SBCP","flightCategory":"MVFR","rawOb":"METAR SBCP 131700Z 08007KT 9999 BKN030 29/19 Q1015","temp":29,"dewp":19,"wdir":80,"wspd":7,"visib":"6+","altim":1015,"clouds":[{"cover":"BKN","base":3000}],"obsTime":1778691600},"SBMG":{"icaoId":"SBMG","flightCategory":"VFR","rawOb":"METAR SBMG 131700Z 19005KT 150V230 CAVOK 22/12 Q1017","temp":22,"dewp":12,"wdir":190,"wspd":5,"visib":"6+","altim":1017,"clouds":[],"obsTime":1778691600},"SBMK":{"icaoId":"SBMK","flightCategory":"VFR","rawOb":"METAR SBMK 131700Z 05004KT 9999 FEW030 29/16 Q1018","temp":29,"dewp":16,"wdir":50,"wspd":4,"visib":"6+","altim":1018,"clouds":[{"cover":"FEW","base":3000}],"obsTime":1778691600},"SBFL":{"icaoId":"SBFL","flightCategory":"VFR","rawOb":"METAR SBFL 131700Z 13008KT 100V160 CAVOK 21/14 Q1015","temp":21,"dewp":14,"wdir":130,"wspd":8,"visib":"6+","altim":1015,"clouds":[],"obsTime":1778691600},"SBBR":{"icaoId":"SBBR","flightCategory":"VFR","rawOb":"METAR SBBR 131700Z 07003KT 9999 FEW045 27/14 Q1020","temp":27,"dewp":14,"wdir":70,"wspd":3,"visib":"6+","altim":1020,"clouds":[{"cover":"FEW","base":4500}],"obsTime":1778691600},"SBMO":{"icaoId":"SBMO","flightCategory":"MVFR","rawOb":"METAR SBMO 131700Z 13011KT 9999 VCSH BKN030 BKN050 29/22 Q1014","temp":29,"dewp":22,"wdir":130,"wspd":11,"visib":"6+","altim":1014,"clouds":[{"cover":"BKN","base":3000},{"cover":"BKN","base":5000}],"obsTime":1778691600},"SBFZ":{"icaoId":"SBFZ","flightCategory":"VFR","rawOb":"METAR SBFZ 131700Z 13005KT 9999 SCT020 BKN063 28/23 Q1012","temp":28,"dewp":23,"wdir":130,"wspd":5,"visib":"6+","altim":1012,"clouds":[{"cover":"SCT","base":2000},{"cover":"BKN","base":6300}],"obsTime":1778691600},"SBMQ":{"icaoId":"SBMQ","flightCategory":"IFR","rawOb":"METAR SBMQ 131700Z 30002KT 8000 -RA BKN007 OVC012 25/24 Q1014","temp":25,"dewp":24,"wdir":300,"wspd":2,"visib":4.97,"altim":1014,"clouds":[{"cover":"BKN","base":700},{"cover":"OVC","base":1200}],"obsTime":1778691600},"SBNT":{"icaoId":"SBNT","flightCategory":"VFR","rawOb":"METAR SBNT 131700Z 16013KT 9999 SCT028 29/24 Q1012","temp":29,"dewp":24,"wdir":160,"wspd":13,"visib":"6+","altim":1012,"clouds":[{"cover":"SCT","base":2800}],"obsTime":1778691600},"SBCB":{"icaoId":"SBCB","flightCategory":"VFR","rawOb":"METAR SBCB 131700Z 07015KT CAVOK 26/19 Q1015","temp":26,"dewp":19,"wdir":70,"wspd":15,"visib":"6+","altim":1015,"clouds":[],"obsTime":1778691600},"SBGL":{"icaoId":"SBGL","flightCategory":"VFR","rawOb":"METAR SBGL 131700Z 13007KT CAVOK 27/17 Q1014","temp":27,"dewp":17,"wdir":130,"wspd":7,"visib":"6+","altim":1014,"clouds":[],"obsTime":1778691600},"SBPA":{"icaoId":"SBPA","flightCategory":"VFR","rawOb":"METAR SBPA 131700Z 27010KT 240V300 CAVOK 20/09 Q1016","temp":20,"dewp":9,"wdir":270,"wspd":10,"visib":"6+","altim":1016,"clouds":[],"obsTime":1778691600},"SBCR":{"icaoId":"SBCR","flightCategory":"VFR","rawOb":"METAR SBCR 131700Z VRB03KT CAVOK 25/13 Q1015","temp":25,"dewp":13,"wdir":"VRB","wspd":3,"visib":"6+","altim":1015,"clouds":[],"obsTime":1778691600},"SBPJ":{"icaoId":"SBPJ","flightCategory":"VFR","rawOb":"METAR SBPJ 131700Z 10006KT 9999 FEW040 34/20 Q1012","temp":34,"dewp":20,"wdir":100,"wspd":6,"visib":"6+","altim":1012,"clouds":[{"cover":"FEW","base":4000}],"obsTime":1778691600},"SBGO":{"icaoId":"SBGO","flightCategory":"VFR","rawOb":"METAR SBGO 131700Z 33004KT 280V010 9999 SCT045 30/17 Q1017","temp":30,"dewp":17,"wdir":330,"wspd":4,"visib":"6+","altim":1017,"clouds":[{"cover":"SCT","base":4500}],"obsTime":1778691600},"SBPV":{"icaoId":"SBPV","flightCategory":"MVFR","rawOb":"METAR SBPV 131700Z 26002KT 9999 BKN025 27/23 Q1014","temp":27,"dewp":23,"wdir":260,"wspd":2,"visib":"6+","altim":1014,"clouds":[{"cover":"BKN","base":2500}],"obsTime":1778691600},"SBGR":{"icaoId":"SBGR","flightCategory":"VFR","rawOb":"METAR SBGR 131700Z 26007KT CAVOK 25/09 Q1018","temp":25,"dewp":9,"wdir":260,"wspd":7,"visib":"6+","altim":1018,"clouds":[],"obsTime":1778691600},"SBRB":{"icaoId":"SBRB","flightCategory":"VFR","rawOb":"METAR SBRB 131700Z 29003KT 9999 FEW030 BKN100 25/20 Q1016","temp":25,"dewp":20,"wdir":290,"wspd":3,"visib":"6+","altim":1016,"clouds":[{"cover":"FEW","base":3000},{"cover":"BKN","base":10000}],"obsTime":1778691600},"SBRF":{"icaoId":"SBRF","flightCategory":"VFR","rawOb":"METAR SBRF 131700Z 15013KT 9999 SCT025 BKN073 29/23 Q1012","temp":29,"dewp":23,"wdir":150,"wspd":13,"visib":"6+","altim":1012,"clouds":[{"cover":"SCT","base":2500},{"cover":"BKN","base":7300}],"obsTime":1778691600},"SBCF":{"icaoId":"SBCF","flightCategory":"VFR","rawOb":"METAR SBCF 131700Z 04004KT 9999 SCT040 FEW050TCU SCT100 26/17 Q1019","temp":26,"dewp":17,"wdir":40,"wspd":4,"visib":"6+","altim":1019,"clouds":[{"cover":"SCT","base":4000},{"cover":"FEW","base":5000},{"cover":"SCT","base":10000}],"obsTime":1778691600},"SBHT":{"icaoId":"SBHT","flightCategory":"VFR","rawOb":"METAR SBHT 131700Z 34004KT 9999 SCT025 BKN100 29/24 Q1013","temp":29,"dewp":24,"wdir":340,"wspd":4,"visib":"6+","altim":1013,"clouds":[{"cover":"SCT","base":2500},{"cover":"BKN","base":10000}],"obsTime":1778691600},"SBSG":{"icaoId":"SBSG","flightCategory":"MVFR","rawOb":"METAR SBSG 131700Z 13008KT 110V180 9999 BKN027 28/24 Q1012","temp":28,"dewp":24,"wdir":130,"wspd":8,"visib":"6+","altim":1012,"clouds":[{"cover":"BKN","base":2700}],"obsTime":1778691600},"SBCT":{"icaoId":"SBCT","flightCategory":"VFR","rawOb":"METAR SBCT 131700Z 27004KT 200V320 CAVOK 22/05 Q1019","temp":22,"dewp":5,"wdir":270,"wspd":4,"visib":"6+","altim":1019,"clouds":[],"obsTime":1778691600},"SBBE":{"icaoId":"SBBE","flightCategory":"MVFR","rawOb":"METAR SBBE 131700Z 30003KT 9999 BKN015 27/24 Q1012","temp":27,"dewp":24,"wdir":300,"wspd":3,"visib":"6+","altim":1012,"clouds":[{"cover":"BKN","base":1500}],"obsTime":1778691600},"SBSN":{"icaoId":"SBSN","flightCategory":"VFR","rawOb":"METAR SBSN 131700Z 31010KT 9999 SCT009 BKN100 27/24 Q1013","temp":27,"dewp":24,"wdir":310,"wspd":10,"visib":"6+","altim":1013,"clouds":[{"cover":"SCT","base":900},{"cover":"BKN","base":10000}],"obsTime":1778691600},"SBAT":{"icaoId":"SBAT","flightCategory":"VFR","rawOb":"METAR SBAT 131700Z 14004KT 9999 SCT030 33/23 Q1014","temp":33,"dewp":23,"wdir":140,"wspd":4,"visib":"6+","altim":1014,"clouds":[{"cover":"SCT","base":3000}],"obsTime":1778691600},"SBSP":{"icaoId":"SBSP","flightCategory":"VFR","rawOb":"METAR SBSP 131700Z 34005KT CAVOK 24/05 Q1019","temp":24,"dewp":5,"wdir":340,"wspd":5,"visib":"6+","altim":1019,"clouds":[],"obsTime":1778691600},"SBIL":{"icaoId":"SBIL","flightCategory":"VFR","rawOb":"METAR SBIL 131700Z 12003KT 9999 SCT025 SCT100 29/23 Q1016","temp":29,"dewp":23,"wdir":120,"wspd":3,"visib":"6+","altim":1016,"clouds":[{"cover":"SCT","base":2500},{"cover":"SCT","base":10000}],"obsTime":1778691600},"SBSV":{"icaoId":"SBSV","flightCategory":"VFR","rawOb":"METAR SBSV 131700Z 16007KT 110V200 9999 FEW018 SCT026 BKN035 29/23 Q1014","temp":29,"dewp":23,"wdir":160,"wspd":7,"visib":"6+","altim":1014,"clouds":[{"cover":"FEW","base":1800},{"cover":"SCT","base":2600},{"cover":"BKN","base":3500}],"obsTime":1778691600},"SBJU":{"icaoId":"SBJU","flightCategory":"VFR","rawOb":"METAR SBJU 131700Z 09008KT 9999 SCT020 SCT070 29/21 Q1014","temp":29,"dewp":21,"wdir":90,"wspd":8,"visib":"6+","altim":1014,"clouds":[{"cover":"SCT","base":2000},{"cover":"SCT","base":7000}],"obsTime":1778691600},"SBTE":{"icaoId":"SBTE","flightCategory":"VFR","rawOb":"METAR SBTE 131700Z 14009KT 9999 SCT025 BKN100 31/23 Q1011","temp":31,"dewp":23,"wdir":140,"wspd":9,"visib":"6+","altim":1011,"clouds":[{"cover":"SCT","base":2500},{"cover":"BKN","base":10000}],"obsTime":1778691600},"SBUL":{"icaoId":"SBUL","flightCategory":"VFR","rawOb":"METAR SBUL 131700Z 36007KT 9999 BKN045 28/15 Q1019","temp":28,"dewp":15,"wdir":360,"wspd":7,"visib":"6+","altim":1019,"clouds":[{"cover":"BKN","base":4500}],"obsTime":1778691600},"SBCZ":{"icaoId":"SBCZ","flightCategory":"VFR","rawOb":"METAR SBCZ 131700Z 20004KT 9999 FEW020 BKN100 27/21 Q1016","temp":27,"dewp":21,"wdir":200,"wspd":4,"visib":"6+","altim":1016,"clouds":[{"cover":"FEW","base":2000},{"cover":"BKN","base":10000}],"obsTime":1778691600},"SBBV":{"icaoId":"SBBV","flightCategory":"VFR","rawOb":"METAR SBBV 131700Z 10006KT 9999 SCT025 FEW035TCU 29/23 Q1014","temp":29,"dewp":23,"wdir":100,"wspd":6,"visib":"6+","altim":1014,"clouds":[{"cover":"SCT","base":2500},{"cover":"FEW","base":3500}],"obsTime":1778691600},"SBUR":{"icaoId":"SBUR","flightCategory":"VFR","rawOb":"METAR SBUR 131700Z 27009KT 9999 BKN047 SCT080 29/15 Q1017","temp":29,"dewp":15,"wdir":270,"wspd":9,"visib":"6+","altim":1017,"clouds":[{"cover":"BKN","base":4700},{"cover":"SCT","base":8000}],"obsTime":1778691600},"SBKP":{"icaoId":"SBKP","flightCategory":"VFR","rawOb":"METAR SBKP 131700Z VRB02KT CAVOK 25/11 Q1018","temp":25,"dewp":11,"wdir":"VRB","wspd":2,"visib":"6+","altim":1018,"clouds":[],"obsTime":1778691600},"SBVT":{"icaoId":"SBVT","flightCategory":"VFR","rawOb":"METAR SBVT 131700Z 05011KT 9999 SCT040 28/21 Q1015","temp":28,"dewp":21,"wdir":50,"wspd":11,"visib":"6+","altim":1015,"clouds":[{"cover":"SCT","base":4000}],"obsTime":1778691600},"SBLO":{"icaoId":"SBLO","flightCategory":"VFR","rawOb":"METAR SBLO 131700Z 07004KT CAVOK 22/09 Q1018","temp":22,"dewp":9,"wdir":70,"wspd":4,"visib":"6+","altim":1018,"clouds":[],"obsTime":1778691600},"SBEG":{"icaoId":"SBEG","flightCategory":"MVFR","rawOb":"METAR SBEG 131700Z 30004KT 9999 BKN030 BKN100 28/23 Q1015","temp":28,"dewp":23,"wdir":300,"wspd":4,"visib":"6+","altim":1015,"clouds":[{"cover":"BKN","base":3000},{"cover":"BKN","base":10000}],"obsTime":1778691600},"SBVH":{"icaoId":"SBVH","flightCategory":"VFR","rawOb":"METAR SBVH 131700Z 34005KT 9999 FEW020 28/20 Q1017","temp":28,"dewp":20,"wdir":340,"wspd":5,"visib":"6+","altim":1017,"clouds":[{"cover":"FEW","base":2000}],"obsTime":1778691600},"SBAU":{"icaoId":"SBAU","flightCategory":"VFR","rawOb":"METAR SBAU 131700Z 00000KT CAVOK 28/07 Q1016","temp":28,"dewp":7,"wdir":0,"wspd":0,"visib":"6+","altim":1016,"clouds":[],"obsTime":1778691600},"SBAX":{"icaoId":"SBAX","flightCategory":"VFR","rawOb":"METAR SBAX 131700Z AUTO 33004KT 290V010 CAVOK 26/15 Q1019","temp":26,"dewp":15,"wdir":330,"wspd":4,"visib":"6+","altim":1019,"clouds":[],"obsTime":1778691600},"SBBH":{"icaoId":"SBBH","flightCategory":"VFR","rawOb":"METAR SBBH 131700Z 06004KT 9999 SCT043 SCT100 27/17 Q1018","temp":27,"dewp":17,"wdir":60,"wspd":4,"visib":"6+","altim":1018,"clouds":[{"cover":"SCT","base":4300},{"cover":"SCT","base":10000}],"obsTime":1778691600},"SBBQ":{"icaoId":"SBBQ","flightCategory":"MVFR","rawOb":"METAR SBBQ 131700Z 35006KT 300V040 9999 BKN023 24/17 Q1021","temp":24,"dewp":17,"wdir":350,"wspd":6,"visib":"6+","altim":1021,"clouds":[{"cover":"BKN","base":2300}],"obsTime":1778691600},"SBBU":{"icaoId":"SBBU","flightCategory":"VFR","rawOb":"METAR SBBU 131700Z 13003KT CAVOK 26/06 Q1017","temp":26,"dewp":6,"wdir":130,"wspd":3,"visib":"6+","altim":1017,"clouds":[],"obsTime":1778691600},"SBCA":{"icaoId":"SBCA","flightCategory":"VFR","rawOb":"METAR SBCA 131700Z 18005KT CAVOK 20/08 Q1019","temp":20,"dewp":8,"wdir":180,"wspd":5,"visib":"6+","altim":1019,"clouds":[],"obsTime":1778691600},"SBCC":{"icaoId":"SBCC","flightCategory":"VFR","rawOb":"METAR SBCC 131700Z /////KT 9999 SCT025 SCT100 ///// Q1015","temp":null,"dewp":null,"wdir":null,"wspd":null,"visib":"6+","altim":1015,"clouds":[{"cover":"SCT","base":2500},{"cover":"SCT","base":10000}],"obsTime":1778691600},"SBCJ":{"icaoId":"SBCJ","flightCategory":"VFR","rawOb":"METAR SBCJ 131700Z 00000KT 9999 SCT017 BKN100 26/23 Q1016","temp":26,"dewp":23,"wdir":0,"wspd":0,"visib":"6+","altim":1016,"clouds":[{"cover":"SCT","base":1700},{"cover":"BKN","base":10000}],"obsTime":1778691600},"SBCO":{"icaoId":"SBCO","flightCategory":"VFR","rawOb":"METAR SBCO 131700Z 27009KT CAVOK 21/09 Q1017","temp":21,"dewp":9,"wdir":270,"wspd":9,"visib":"6+","altim":1017,"clouds":[],"obsTime":1778691600},"SBDN":{"icaoId":"SBDN","flightCategory":"VFR","rawOb":"METAR SBDN 131700Z 00000KT CAVOK 25/08 Q1017","temp":25,"dewp":8,"wdir":0,"wspd":0,"visib":"6+","altim":1017,"clouds":[],"obsTime":1778691600},"SBES":{"icaoId":"SBES","flightCategory":"VFR","rawOb":"METAR SBES 131700Z 06011KT 010V100 CAVOK 27/// Q1015","temp":null,"dewp":null,"wdir":60,"wspd":11,"visib":"6+","altim":1015,"clouds":[],"obsTime":1778691600},"SBGM":{"icaoId":"SBGM","flightCategory":"VFR","rawOb":"METAR SBGM 131700Z 12003KT 9999 SCT028 27/18 Q1016","temp":27,"dewp":18,"wdir":120,"wspd":3,"visib":"6+","altim":1016,"clouds":[{"cover":"SCT","base":2800}],"obsTime":1778691600},"SBIP":{"icaoId":"SBIP","flightCategory":"VFR","rawOb":"METAR SBIP 131700Z AUTO 36006KT 320V030 9999 OVC046 26/18 Q1017","temp":26,"dewp":18,"wdir":360,"wspd":6,"visib":"6+","altim":1017,"clouds":[{"cover":"OVC","base":4600}],"obsTime":1778691600},"SBKG":{"icaoId":"SBKG","flightCategory":"MVFR","rawOb":"METAR SBKG 131700Z 14006KT 9999 BKN017 BKN080 24/21 Q1015","temp":24,"dewp":21,"wdir":140,"wspd":6,"visib":"6+","altim":1015,"clouds":[{"cover":"BKN","base":1700},{"cover":"BKN","base":8000}],"obsTime":1778691600},"SBOI":{"icaoId":"SBOI","flightCategory":"VFR","rawOb":"METAR SBOI 131700Z AUTO 04008KT 9999 BKN037 31/23 Q1013","temp":31,"dewp":23,"wdir":40,"wspd":8,"visib":"6+","altim":1013,"clouds":[{"cover":"BKN","base":3700}],"obsTime":1778691600},"SBPB":{"icaoId":"SBPB","flightCategory":"VFR","rawOb":"METAR SBPB 131700Z 09007KT 9999 SCT016 FEW025TCU BKN080 28/25 Q1010","temp":28,"dewp":25,"wdir":90,"wspd":7,"visib":"6+","altim":1010,"clouds":[{"cover":"SCT","base":1600},{"cover":"FEW","base":2500},{"cover":"BKN","base":8000}],"obsTime":1778691600},"SBPL":{"icaoId":"SBPL","flightCategory":"VFR","rawOb":"METAR SBPL 131700Z 10008KT 9999 FEW040 33/15 Q1013","temp":33,"dewp":15,"wdir":100,"wspd":8,"visib":"6+","altim":1013,"clouds":[{"cover":"FEW","base":4000}],"obsTime":1778691600},"SBPP":{"icaoId":"SBPP","flightCategory":"VFR","rawOb":"METAR SBPP 131700Z 23005KT CAVOK 23/08 Q1018","temp":23,"dewp":8,"wdir":230,"wspd":5,"visib":"6+","altim":1018,"clouds":[],"obsTime":1778691600},"SBPS":{"icaoId":"SBPS","flightCategory":"VFR","rawOb":"METAR SBPS 131700Z 15005KT 9999 SCT020 27/23 Q1016","temp":27,"dewp":23,"wdir":150,"wspd":5,"visib":"6+","altim":1016,"clouds":[{"cover":"SCT","base":2000}],"obsTime":1778691600},"SBSC":{"icaoId":"SBSC","flightCategory":"VFR","rawOb":"METAR SBSC 131700Z 21009KT CAVOK 25/19 Q1015","temp":25,"dewp":19,"wdir":210,"wspd":9,"visib":"6+","altim":1015,"clouds":[],"obsTime":1778691600},"SBSJ":{"icaoId":"SBSJ","flightCategory":"MVFR","rawOb":"METAR SBSJ 131700Z 21003KT 150V270 8000 NSC 23/13 Q1018","temp":23,"dewp":13,"wdir":210,"wspd":3,"visib":4.97,"altim":1018,"clouds":[],"obsTime":1778691600},"SBSM":{"icaoId":"SBSM","flightCategory":"VFR","rawOb":"METAR SBSM 131700Z VRB03KT CAVOK 21/07 Q1017","temp":21,"dewp":7,"wdir":"VRB","wspd":3,"visib":"6+","altim":1017,"clouds":[],"obsTime":1778691600},"SBSR":{"icaoId":"SBSR","flightCategory":"VFR","rawOb":"METAR SBSR 131700Z VRB04KT CAVOK 28/05 Q1017","temp":28,"dewp":5,"wdir":"VRB","wspd":4,"visib":"6+","altim":1017,"clouds":[],"obsTime":1778691600},"SBTF":{"icaoId":"SBTF","flightCategory":"VFR","rawOb":"METAR SBTF 131700Z 27004KT 9999 SCT015 OVC100 27/24 Q1015","temp":27,"dewp":24,"wdir":270,"wspd":4,"visib":"6+","altim":1015,"clouds":[{"cover":"SCT","base":1500},{"cover":"OVC","base":10000}],"obsTime":1778691600},"SBTT":{"icaoId":"SBTT","flightCategory":"MVFR","rawOb":"METAR SBTT 131700Z 27003KT 9999 SCT015 OVC020 24/19 Q1017","temp":24,"dewp":19,"wdir":270,"wspd":3,"visib":"6+","altim":1017,"clouds":[{"cover":"SCT","base":1500},{"cover":"OVC","base":2000}],"obsTime":1778691600},"SBTU":{"icaoId":"SBTU","flightCategory":"VFR","rawOb":"METAR SBTU 131700Z AUTO 11005KT 070V140 9999 // ///////// ///// Q1014","temp":null,"dewp":null,"wdir":110,"wspd":5,"visib":"6+","altim":1014,"clouds":[],"obsTime":1778691600},"SBUY":{"icaoId":"SBUY","flightCategory":"VFR","rawOb":"METAR SBUY 131700Z 33005KT 9999 SCT025 BKN100 28/23 Q1013","temp":28,"dewp":23,"wdir":330,"wspd":5,"visib":"6+","altim":1013,"clouds":[{"cover":"SCT","base":2500},{"cover":"BKN","base":10000}],"obsTime":1778691600},"SBAR":{"icaoId":"SBAR","flightCategory":"VFR","rawOb":"METAR SBAR 131700Z 13008KT 9999 SCT025 BKN076 29/23 Q1014","temp":29,"dewp":23,"wdir":130,"wspd":8,"visib":"6+","altim":1014,"clouds":[{"cover":"SCT","base":2500},{"cover":"BKN","base":7600}],"obsTime":1778691600},"SBJP":{"icaoId":"SBJP","flightCategory":"MVFR","rawOb":"METAR SBJP 131700Z 12011KT 060V160 9999 BKN022 28/24 Q1013","temp":28,"dewp":24,"wdir":120,"wspd":11,"visib":"6+","altim":1013,"clouds":[{"cover":"BKN","base":2200}],"obsTime":1778691600},"SBLS":{"icaoId":"SBLS","flightCategory":"VFR","rawOb":"METAR SBLS 131700Z VRB02KT 9999 SCT040 FEW045TCU SCT100 26/16 Q1019","temp":26,"dewp":16,"wdir":"VRB","wspd":2,"visib":"6+","altim":1019,"clouds":[{"cover":"SCT","base":4000},{"cover":"FEW","base":4500},{"cover":"SCT","base":10000}],"obsTime":1778691600},"SBNM":{"icaoId":"SBNM","flightCategory":"VFR","rawOb":"METAR SBNM 131700Z AUTO 26004KT 210V320 CAVOK 21/09 Q1017","temp":21,"dewp":9,"wdir":260,"wspd":4,"visib":"6+","altim":1017,"clouds":[],"obsTime":1778691600},"SBMT":{"icaoId":"SBMT","flightCategory":"VFR","rawOb":"METAR SBMT 131700Z 28005KT CAVOK 24/09 Q1018","temp":24,"dewp":9,"wdir":280,"wspd":5,"visib":"6+","altim":1018,"clouds":[],"obsTime":1778691600},"SBST":{"icaoId":"SBST","flightCategory":"VFR","rawOb":"METAR SBST 131700Z 25005KT 9999 FEW040 24/16 Q1015","temp":24,"dewp":16,"wdir":250,"wspd":5,"visib":"6+","altim":1015,"clouds":[{"cover":"FEW","base":4000}],"obsTime":1778691600},"SBJV":{"icaoId":"SBJV","flightCategory":"VFR","rawOb":"METAR SBJV 131700Z 02003KT CAVOK 24/13 Q1016","temp":24,"dewp":13,"wdir":20,"wspd":3,"visib":"6+","altim":1016,"clouds":[],"obsTime":1778691600},"SBTA":{"icaoId":"SBTA","flightCategory":"VFR","rawOb":"METAR SBTA 131700Z 31005KT 210V010 CAVOK 25/15 Q1016","temp":25,"dewp":15,"wdir":310,"wspd":5,"visib":"6+","altim":1016,"clouds":[],"obsTime":1778691600},"SBLE":{"icaoId":"SBLE","flightCategory":"VFR","rawOb":"METAR SBLE 131700Z AUTO 16006KT 080V200 9999 FEW047 29/18 Q1017","temp":29,"dewp":18,"wdir":160,"wspd":6,"visib":"6+","altim":1017,"clouds":[{"cover":"FEW","base":4700}],"obsTime":1778691600},"SBAN":{"icaoId":"SBAN","flightCategory":"VFR","rawOb":"METAR SBAN 131700Z 04003KT 9999 FEW040 27/15 Q1021","temp":27,"dewp":15,"wdir":40,"wspd":3,"visib":"6+","altim":1021,"clouds":[{"cover":"FEW","base":4000}],"obsTime":1778691600},"SBIH":{"icaoId":"SBIH","flightCategory":"VFR","rawOb":"METAR SBIH 131700Z 23005KT 9999 VCSH SCT016 FEW023TCU BKN080 30/25 Q1012","temp":30,"dewp":25,"wdir":230,"wspd":5,"visib":"6+","altim":1012,"clouds":[{"cover":"SCT","base":1600},{"cover":"FEW","base":2300},{"cover":"BKN","base":8000}],"obsTime":1778691600},"SBAF":{"icaoId":"SBAF","flightCategory":"VFR","rawOb":"METAR SBAF 131700Z 17009KT CAVOK 28/18 Q1014","temp":28,"dewp":18,"wdir":170,"wspd":9,"visib":"6+","altim":1014,"clouds":[],"obsTime":1778691600},"SBGW":{"icaoId":"SBGW","flightCategory":"VFR","rawOb":"METAR SBGW 131700Z VRB04KT 9999 FEW025 26/14 Q1016","temp":26,"dewp":14,"wdir":"VRB","wspd":4,"visib":"6+","altim":1016,"clouds":[{"cover":"FEW","base":2500}],"obsTime":1778691600},"SBJR":{"icaoId":"SBJR","flightCategory":"VFR","rawOb":"METAR SBJR 131700Z 18005KT CAVOK 28/19 Q1015","temp":28,"dewp":19,"wdir":180,"wspd":5,"visib":"6+","altim":1015,"clouds":[],"obsTime":1778691600}}}