{"updated":1774386189,"count":82,"data":{"SBMQ":{"icaoId":"SBMQ","flightCategory":"VFR","rawOb":"METAR SBMQ 242000Z 04006KT 9999 SCT023 30/24 Q1009","temp":30,"dewp":24,"wdir":40,"wspd":6,"visib":"6+","altim":1009,"clouds":[{"cover":"SCT","base":2300}],"obsTime":1774382400},"SBGR":{"icaoId":"SBGR","flightCategory":"VFR","rawOb":"METAR SBGR 242000Z 01006KT 330V060 CAVOK 30/16 Q1012","temp":30,"dewp":16,"wdir":10,"wspd":6,"visib":"6+","altim":1012,"clouds":[],"obsTime":1774382400},"SBBE":{"icaoId":"SBBE","flightCategory":"VFR","rawOb":"METAR SBBE 242000Z 01007KT 9999 SCT023 FEW025TCU BKN053 29/24 Q1010","temp":29,"dewp":24,"wdir":10,"wspd":7,"visib":"6+","altim":1010,"clouds":[{"cover":"SCT","base":2300},{"cover":"FEW","base":2500},{"cover":"BKN","base":5300}],"obsTime":1774382400},"SBPA":{"icaoId":"SBPA","flightCategory":"MVFR","rawOb":"METAR SBPA 242000Z 14007KT 9999 FEW020 BKN030 24/19 Q1011","temp":24,"dewp":19,"wdir":140,"wspd":7,"visib":"6+","altim":1011,"clouds":[{"cover":"FEW","base":2000},{"cover":"BKN","base":3000}],"obsTime":1774382400},"SBCB":{"icaoId":"SBCB","flightCategory":"VFR","rawOb":"METAR SBCB 242000Z 07018KT CAVOK 28/23 Q1010","temp":28,"dewp":23,"wdir":70,"wspd":18,"visib":"6+","altim":1010,"clouds":[],"obsTime":1774382400},"SBPJ":{"icaoId":"SBPJ","flightCategory":"VFR","rawOb":"METAR SBPJ 242000Z VRB01KT 9999 FEW012 SCT080 26/23 Q1010","temp":26,"dewp":23,"wdir":"VRB","wspd":1,"visib":"6+","altim":1010,"clouds":[{"cover":"FEW","base":1200},{"cover":"SCT","base":8000}],"obsTime":1774382400},"SBCP":{"icaoId":"SBCP","flightCategory":"VFR","rawOb":"METAR SBCP 242000Z 08014KT 9999 FEW020 27/22 Q1011","temp":27,"dewp":22,"wdir":80,"wspd":14,"visib":"6+","altim":1011,"clouds":[{"cover":"FEW","base":2000}],"obsTime":1774382400},"SBKP":{"icaoId":"SBKP","flightCategory":"VFR","rawOb":"METAR SBKP 242000Z 13005KT 9999 FEW045 30/14 Q1011","temp":30,"dewp":14,"wdir":130,"wspd":5,"visib":"6+","altim":1011,"clouds":[{"cover":"FEW","base":4500}],"obsTime":1774382400},"SBRB":{"icaoId":"SBRB","flightCategory":"VFR","rawOb":"METAR SBRB 242000Z COR 26004KT 9999 VCSH SCT035 FEW040TCU SCT100 32/24 Q1005","temp":32,"dewp":24,"wdir":260,"wspd":4,"visib":"6+","altim":1005,"clouds":[{"cover":"SCT","base":3500},{"cover":"FEW","base":4000},{"cover":"SCT","base":10000}],"obsTime":1774382400},"SBFI":{"icaoId":"SBFI","flightCategory":"VFR","rawOb":"METAR SBFI 242000Z 23007KT 9999 SCT030 FEW040TCU 30/24 Q1009","temp":30,"dewp":24,"wdir":230,"wspd":7,"visib":"6+","altim":1009,"clouds":[{"cover":"SCT","base":3000},{"cover":"FEW","base":4000}],"obsTime":1774382400},"SBRF":{"icaoId":"SBRF","flightCategory":"VFR","rawOb":"METAR SBRF 242000Z 11008KT 080V140 9999 SCT023 29/22 Q1011","temp":29,"dewp":22,"wdir":110,"wspd":8,"visib":"6+","altim":1011,"clouds":[{"cover":"SCT","base":2300}],"obsTime":1774382400},"SBFL":{"icaoId":"SBFL","flightCategory":"MVFR","rawOb":"METAR SBFL 242000Z 14007KT 100V190 9999 BKN027 BKN050 26/22 Q1010","temp":26,"dewp":22,"wdir":140,"wspd":7,"visib":"6+","altim":1010,"clouds":[{"cover":"BKN","base":2700},{"cover":"BKN","base":5000}],"obsTime":1774382400},"SBLO":{"icaoId":"SBLO","flightCategory":"VFR","rawOb":"METAR SBLO 242000Z 30005KT 9999 FEW030 FEW040TCU SCT100 24/23 Q1011 RERA","temp":24,"dewp":23,"wdir":300,"wspd":5,"visib":"6+","altim":1011,"clouds":[{"cover":"FEW","base":3000},{"cover":"FEW","base":4000},{"cover":"SCT","base":10000}],"obsTime":1774382400},"SBSL":{"icaoId":"SBSL","flightCategory":"VFR","rawOb":"METAR SBSL 242000Z 03012KT 9999 SCT030 29/25 Q1008","temp":29,"dewp":25,"wdir":30,"wspd":12,"visib":"6+","altim":1008,"clouds":[{"cover":"SCT","base":3000}],"obsTime":1774382400},"SBCR":{"icaoId":"SBCR","flightCategory":"VFR","rawOb":"METAR SBCR 242000Z 22009KT 180V250 9999 SCT028 SCT066 28/24 Q1007","temp":28,"dewp":24,"wdir":220,"wspd":9,"visib":"6+","altim":1007,"clouds":[{"cover":"SCT","base":2800},{"cover":"SCT","base":6600}],"obsTime":1774382400},"SBMA":{"icaoId":"SBMA","flightCategory":"VFR","rawOb":"METAR SBMA 242000Z 12003KT 9999 VCSH FEW020 FEW023TCU BKN100 31/25 Q1008","temp":31,"dewp":25,"wdir":120,"wspd":3,"visib":"6+","altim":1008,"clouds":[{"cover":"FEW","base":2000},{"cover":"FEW","base":2300},{"cover":"BKN","base":10000}],"obsTime":1774382400},"SBBR":{"icaoId":"SBBR","flightCategory":"MVFR","rawOb":"SPECI SBBR 241925Z 30009KT 9999 BKN030 FEW045TCU BKN080 20/18 Q1014 RETS","temp":20,"dewp":18,"wdir":300,"wspd":9,"visib":"6+","altim":1014,"clouds":[{"cover":"BKN","base":3000},{"cover":"FEW","base":4500},{"cover":"BKN","base":8000}],"obsTime":1774380300},"SBVT":{"icaoId":"SBVT","flightCategory":"VFR","rawOb":"METAR SBVT 242000Z 03014KT 9999 SCT020 27/23 Q1012","temp":27,"dewp":23,"wdir":30,"wspd":14,"visib":"6+","altim":1012,"clouds":[{"cover":"SCT","base":2000}],"obsTime":1774382400},"SBTE":{"icaoId":"SBTE","flightCategory":"MVFR","rawOb":"METAR SBTE 242000Z 34005KT 9999 BKN025 32/23 Q1008","temp":32,"dewp":23,"wdir":340,"wspd":5,"visib":"6+","altim":1008,"clouds":[{"cover":"BKN","base":2500}],"obsTime":1774382400},"SBGL":{"icaoId":"SBGL","flightCategory":"VFR","rawOb":"METAR SBGL 242000Z 13007KT CAVOK 30/21 Q1008","temp":30,"dewp":21,"wdir":130,"wspd":7,"visib":"6+","altim":1008,"clouds":[],"obsTime":1774382400},"SBCT":{"icaoId":"SBCT","flightCategory":"VFR","rawOb":"METAR SBCT 242000Z 11008KT 080V140 9999 VCSH SCT030 FEW035TCU 25/21 Q1014","temp":25,"dewp":21,"wdir":110,"wspd":8,"visib":"6+","altim":1014,"clouds":[{"cover":"SCT","base":3000},{"cover":"FEW","base":3500}],"obsTime":1774382400},"SBEG":{"icaoId":"SBEG","flightCategory":"VFR","rawOb":"METAR SBEG 242000Z 14006KT 9999 VCSH SCT025 FEW030TCU 33/25 Q1005","temp":33,"dewp":25,"wdir":140,"wspd":6,"visib":"6+","altim":1005,"clouds":[{"cover":"SCT","base":2500},{"cover":"FEW","base":3000}],"obsTime":1774382400},"SBME":{"icaoId":"SBME","flightCategory":"VFR","rawOb":"METAR SBME 242000Z 09011KT 9999 FEW040 31/22 Q1010","temp":31,"dewp":22,"wdir":90,"wspd":11,"visib":"6+","altim":1010,"clouds":[{"cover":"FEW","base":4000}],"obsTime":1774382400},"SBMG":{"icaoId":"SBMG","flightCategory":"VFR","rawOb":"METAR SBMG 242000Z 18010KT 9999 -TSRA FEW004 SCT025 FEW030CB OVC090 23/22 Q1011","temp":23,"dewp":22,"wdir":180,"wspd":10,"visib":"6+","altim":1011,"clouds":[{"cover":"FEW","base":400},{"cover":"SCT","base":2500},{"cover":"FEW","base":3000},{"cover":"OVC","base":9000}],"obsTime":1774382400},"SBMK":{"icaoId":"SBMK","flightCategory":"VFR","rawOb":"METAR SBMK 242000Z 03006KT 9999 SCT045 26/21 Q1013","temp":26,"dewp":21,"wdir":30,"wspd":6,"visib":"6+","altim":1013,"clouds":[{"cover":"SCT","base":4500}],"obsTime":1774382400},"SBMO":{"icaoId":"SBMO","flightCategory":"VFR","rawOb":"METAR SBMO 242000Z 09012KT 9999 FEW030 29/23 Q1011","temp":29,"dewp":23,"wdir":90,"wspd":12,"visib":"6+","altim":1011,"clouds":[{"cover":"FEW","base":3000}],"obsTime":1774382400},"SBNT":{"icaoId":"SBNT","flightCategory":"VFR","rawOb":"METAR SBNT 242000Z 12012KT 090V150 9999 FEW030 29/23 Q1010","temp":29,"dewp":23,"wdir":120,"wspd":12,"visib":"6+","altim":1010,"clouds":[{"cover":"FEW","base":3000}],"obsTime":1774382400},"SBPV":{"icaoId":"SBPV","flightCategory":"VFR","rawOb":"METAR SBPV 242000Z 09004KT 9999 FEW030 FEW040TCU 32/23 Q1005","temp":32,"dewp":23,"wdir":90,"wspd":4,"visib":"6+","altim":1005,"clouds":[{"cover":"FEW","base":3000},{"cover":"FEW","base":4000}],"obsTime":1774382400},"SBSG":{"icaoId":"SBSG","flightCategory":"VFR","rawOb":"METAR SBSG 242000Z 11011KT 9999 SCT026 29/23 Q1010","temp":29,"dewp":23,"wdir":110,"wspd":11,"visib":"6+","altim":1010,"clouds":[{"cover":"SCT","base":2600}],"obsTime":1774382400},"SBAT":{"icaoId":"SBAT","flightCategory":"VFR","rawOb":"METAR SBAT 242000Z 04007KT 9999 FEW030 FEW035TCU 29/24 Q1008","temp":29,"dewp":24,"wdir":40,"wspd":7,"visib":"6+","altim":1008,"clouds":[{"cover":"FEW","base":3000},{"cover":"FEW","base":3500}],"obsTime":1774382400},"SBSP":{"icaoId":"SBSP","flightCategory":"VFR","rawOb":"METAR SBSP 242000Z 16013KT 140V200 CAVOK 24/19 Q1013","temp":24,"dewp":19,"wdir":160,"wspd":13,"visib":"6+","altim":1013,"clouds":[],"obsTime":1774382400},"SBSV":{"icaoId":"SBSV","flightCategory":"VFR","rawOb":"METAR SBSV 242000Z 03008KT 9999 VCSH SCT017 FEW025TCU BKN050 27/21 Q1011","temp":27,"dewp":21,"wdir":30,"wspd":8,"visib":"6+","altim":1011,"clouds":[{"cover":"SCT","base":1700},{"cover":"FEW","base":2500},{"cover":"BKN","base":5000}],"obsTime":1774382400},"SBUL":{"icaoId":"SBUL","flightCategory":"VFR","rawOb":"METAR SBUL 242000Z 05009KT 010V080 9999 VCTS FEW010 SCT030 FEW035CB 23/20 Q1013","temp":23,"dewp":20,"wdir":50,"wspd":9,"visib":"6+","altim":1013,"clouds":[{"cover":"FEW","base":1000},{"cover":"SCT","base":3000},{"cover":"FEW","base":3500}],"obsTime":1774382400},"SBUR":{"icaoId":"SBUR","flightCategory":"VFR","rawOb":"METAR SBUR 242000Z 36009KT 9999 -TSRA BKN035 FEW037CB 25/20 Q1011","temp":25,"dewp":20,"wdir":360,"wspd":9,"visib":"6+","altim":1011,"clouds":[{"cover":"BKN","base":3500},{"cover":"FEW","base":3700}],"obsTime":1774382400},"SBSN":{"icaoId":"SBSN","flightCategory":"VFR","rawOb":"METAR SBSN 242000Z 09012KT 9999 FEW020 31/24 Q1006","temp":31,"dewp":24,"wdir":90,"wspd":12,"visib":"6+","altim":1006,"clouds":[{"cover":"FEW","base":2000}],"obsTime":1774382400},"SBBV":{"icaoId":"SBBV","flightCategory":"VFR","rawOb":"METAR SBBV 242000Z 08008KT 9999 BKN040 FEW045TCU 37/19 Q1006","temp":37,"dewp":19,"wdir":80,"wspd":8,"visib":"6+","altim":1006,"clouds":[{"cover":"BKN","base":4000},{"cover":"FEW","base":4500}],"obsTime":1774382400},"SBCF":{"icaoId":"SBCF","flightCategory":"VFR","rawOb":"METAR SBCF 242000Z 33005KT 270V010 9999 FEW035 FEW040TCU SCT080 22/18 Q1015 RETS","temp":22,"dewp":18,"wdir":330,"wspd":5,"visib":"6+","altim":1015,"clouds":[{"cover":"FEW","base":3500},{"cover":"FEW","base":4000},{"cover":"SCT","base":8000}],"obsTime":1774382400},"SBCG":{"icaoId":"SBCG","flightCategory":"VFR","rawOb":"METAR SBCG 242000Z VRB02KT 9999 SCT040 FEW050TCU BKN100 29/22 Q1009","temp":29,"dewp":22,"wdir":"VRB","wspd":2,"visib":"6+","altim":1009,"clouds":[{"cover":"SCT","base":4000},{"cover":"FEW","base":5000},{"cover":"BKN","base":10000}],"obsTime":1774382400},"SBCZ":{"icaoId":"SBCZ","flightCategory":"MVFR","rawOb":"METAR SBCZ 242000Z 15003KT 9999 BKN030 32/25 Q1006","temp":32,"dewp":25,"wdir":150,"wspd":3,"visib":"6+","altim":1006,"clouds":[{"cover":"BKN","base":3000}],"obsTime":1774382400},"SBFZ":{"icaoId":"SBFZ","flightCategory":"VFR","rawOb":"METAR SBFZ 242000Z 09012KT 9999 FEW030 29/23 Q1009","temp":29,"dewp":23,"wdir":90,"wspd":12,"visib":"6+","altim":1009,"clouds":[{"cover":"FEW","base":3000}],"obsTime":1774382400},"SBGO":{"icaoId":"SBGO","flightCategory":"VFR","rawOb":"METAR SBGO 242000Z 23005KT 9999 FEW023 FEW053TCU BKN080 22/20 Q1013","temp":22,"dewp":20,"wdir":230,"wspd":5,"visib":"6+","altim":1013,"clouds":[{"cover":"FEW","base":2300},{"cover":"FEW","base":5300},{"cover":"BKN","base":8000}],"obsTime":1774382400},"SBHT":{"icaoId":"SBHT","flightCategory":"MVFR","rawOb":"METAR SBHT 242000Z 12004KT 9999 BKN025 BKN100 31/23 Q1007","temp":31,"dewp":23,"wdir":120,"wspd":4,"visib":"6+","altim":1007,"clouds":[{"cover":"BKN","base":2500},{"cover":"BKN","base":10000}],"obsTime":1774382400},"SBIL":{"icaoId":"SBIL","flightCategory":"VFR","rawOb":"METAR SBIL 242000Z 26003KT 9999 VCSH SCT018 FEW023TCU BKN070 25/24 Q1012","temp":25,"dewp":24,"wdir":260,"wspd":3,"visib":"6+","altim":1012,"clouds":[{"cover":"SCT","base":1800},{"cover":"FEW","base":2300},{"cover":"BKN","base":7000}],"obsTime":1774382400},"SBJU":{"icaoId":"SBJU","flightCategory":"VFR","rawOb":"METAR SBJU 242000Z 00000KT 9999 SCT022 FEW023TCU 28/23 Q1012","temp":28,"dewp":23,"wdir":0,"wspd":0,"visib":"6+","altim":1012,"clouds":[{"cover":"SCT","base":2200},{"cover":"FEW","base":2300}],"obsTime":1774382400},"SBPL":{"icaoId":"SBPL","flightCategory":"VFR","rawOb":"METAR SBPL 242000Z 12006KT 9999 FEW030 32/18 Q1010","temp":32,"dewp":18,"wdir":120,"wspd":6,"visib":"6+","altim":1010,"clouds":[{"cover":"FEW","base":3000}],"obsTime":1774382400},"SBAR":{"icaoId":"SBAR","flightCategory":"VFR","rawOb":"METAR SBAR 242000Z 09011KT 9999 FEW026 29/24 Q1010","temp":29,"dewp":24,"wdir":90,"wspd":11,"visib":"6+","altim":1010,"clouds":[{"cover":"FEW","base":2600}],"obsTime":1774382400},"SBPP":{"icaoId":"SBPP","flightCategory":"VFR","rawOb":"METAR SBPP 242000Z 18009KT 9999 TS SCT020 FEW030CB BKN070 22/22 Q1011","temp":22,"dewp":22,"wdir":180,"wspd":9,"visib":"6+","altim":1011,"clouds":[{"cover":"SCT","base":2000},{"cover":"FEW","base":3000},{"cover":"BKN","base":7000}],"obsTime":1774382400},"SBSJ":{"icaoId":"SBSJ","flightCategory":"VFR","rawOb":"METAR SBSJ 242000Z 01002KT CAVOK 30/// Q1011","temp":null,"dewp":null,"wdir":10,"wspd":2,"visib":"6+","altim":1011,"clouds":[],"obsTime":1774382400},"SBTF":{"icaoId":"SBTF","flightCategory":"MVFR","rawOb":"METAR SBTF 242000Z 26003KT 9999 TS BKN015 FEW030CB BKN100 28/26 Q1005","temp":28,"dewp":26,"wdir":260,"wspd":3,"visib":"6+","altim":1005,"clouds":[{"cover":"BKN","base":1500},{"cover":"FEW","base":3000},{"cover":"BKN","base":10000}],"obsTime":1774382400},"SBOI":{"icaoId":"SBOI","flightCategory":"VFR","rawOb":"SPECI SBOI 241909Z AUTO VRB01KT 9999 SCT004 24/23 Q1011","temp":24,"dewp":23,"wdir":"VRB","wspd":1,"visib":"6+","altim":1011,"clouds":[{"cover":"SCT","base":400}],"obsTime":1774379340},"SBCJ":{"icaoId":"SBCJ","flightCategory":"VFR","rawOb":"METAR SBCJ 242000Z 00000KT 9999 SCT017 27/21 Q1012","temp":27,"dewp":21,"wdir":0,"wspd":0,"visib":"6+","altim":1012,"clouds":[{"cover":"SCT","base":1700}],"obsTime":1774382400},"SBCO":{"icaoId":"SBCO","flightCategory":"MVFR","rawOb":"METAR SBCO 242000Z 14005KT 9999 FEW019 BKN024 23/19 Q1012","temp":23,"dewp":19,"wdir":140,"wspd":5,"visib":"6+","altim":1012,"clouds":[{"cover":"FEW","base":1900},{"cover":"BKN","base":2400}],"obsTime":1774382400},"SBDN":{"icaoId":"SBDN","flightCategory":"IFR","rawOb":"METAR SBDN 242000Z 04009KT 6000 -TSRA BKN009 BKN030 FEW050CB 24/20 Q1011","temp":24,"dewp":20,"wdir":40,"wspd":9,"visib":3.73,"altim":1011,"clouds":[{"cover":"BKN","base":900},{"cover":"BKN","base":3000},{"cover":"FEW","base":5000}],"obsTime":1774382400},"SBES":{"icaoId":"SBES","flightCategory":"VFR","rawOb":"METAR SBES 242000Z 07014KT 9999 FEW025 27/// Q1010","temp":null,"dewp":null,"wdir":70,"wspd":14,"visib":"6+","altim":1010,"clouds":[{"cover":"FEW","base":2500}],"obsTime":1774382400},"SBIP":{"icaoId":"SBIP","flightCategory":"VFR","rawOb":"METAR SBIP 242000Z AUTO 03004KT 360V080 CAVOK 28/20 Q1012","temp":28,"dewp":20,"wdir":30,"wspd":4,"visib":"6+","altim":1012,"clouds":[],"obsTime":1774382400},"SBKG":{"icaoId":"SBKG","flightCategory":"VFR","rawOb":"METAR SBKG 242000Z 08013KT 9999 SCT023 28/19 Q1012","temp":28,"dewp":19,"wdir":80,"wspd":13,"visib":"6+","altim":1012,"clouds":[{"cover":"SCT","base":2300}],"obsTime":1774382400},"SBPB":{"icaoId":"SBPB","flightCategory":"VFR","rawOb":"METAR SBPB 242000Z 05010KT 9999 SCT020 FEW025TCU BKN080 29/25 Q1009","temp":29,"dewp":25,"wdir":50,"wspd":10,"visib":"6+","altim":1009,"clouds":[{"cover":"SCT","base":2000},{"cover":"FEW","base":2500},{"cover":"BKN","base":8000}],"obsTime":1774382400},"SBPS":{"icaoId":"SBPS","flightCategory":"VFR","rawOb":"METAR SBPS 242000Z 08008KT 9999 SCT020 BKN100 26/23 Q1013","temp":26,"dewp":23,"wdir":80,"wspd":8,"visib":"6+","altim":1013,"clouds":[{"cover":"SCT","base":2000},{"cover":"BKN","base":10000}],"obsTime":1774382400},"SBSC":{"icaoId":"SBSC","flightCategory":"VFR","rawOb":"METAR SBSC 242000Z 36004KT CAVOK 32/20 Q1008","temp":32,"dewp":20,"wdir":360,"wspd":4,"visib":"6+","altim":1008,"clouds":[],"obsTime":1774382400},"SBSM":{"icaoId":"SBSM","flightCategory":"VFR","rawOb":"METAR SBSM 242000Z 12004KT 9999 BKN035 SCT100 25/16 Q1011","temp":25,"dewp":16,"wdir":120,"wspd":4,"visib":"6+","altim":1011,"clouds":[{"cover":"BKN","base":3500},{"cover":"SCT","base":10000}],"obsTime":1774382400},"SBSR":{"icaoId":"SBSR","flightCategory":"VFR","rawOb":"METAR SBSR 242000Z 30004KT 9999 SCT030 FEW035TCU BKN070 30/21 Q1009","temp":30,"dewp":21,"wdir":300,"wspd":4,"visib":"6+","altim":1009,"clouds":[{"cover":"SCT","base":3000},{"cover":"FEW","base":3500},{"cover":"BKN","base":7000}],"obsTime":1774382400},"SBTT":{"icaoId":"SBTT","flightCategory":"VFR","rawOb":"METAR SBTT 242000Z 27005KT 9999 FEW022 BKN090 33/22 Q1006","temp":33,"dewp":22,"wdir":270,"wspd":5,"visib":"6+","altim":1006,"clouds":[{"cover":"FEW","base":2200},{"cover":"BKN","base":9000}],"obsTime":1774382400},"SBUY":{"icaoId":"SBUY","flightCategory":"VFR","rawOb":"METAR SBUY 242000Z 36003KT 9999 VCSH SCT030 FEW035TCU 34/23 Q1003","temp":34,"dewp":23,"wdir":360,"wspd":3,"visib":"6+","altim":1003,"clouds":[{"cover":"SCT","base":3000},{"cover":"FEW","base":3500}],"obsTime":1774382400},"SBVH":{"icaoId":"SBVH","flightCategory":"VFR","rawOb":"METAR SBVH 242000Z 21002KT 9999 SCT030 29/20 Q1009","temp":29,"dewp":20,"wdir":210,"wspd":2,"visib":"6+","altim":1009,"clouds":[{"cover":"SCT","base":3000}],"obsTime":1774382400},"SBAX":{"icaoId":"SBAX","flightCategory":"VFR","rawOb":"METAR SBAX 242000Z COR 11008KT 9999 SCT020 SCT040 21/20 Q1014","temp":21,"dewp":20,"wdir":110,"wspd":8,"visib":"6+","altim":1014,"clouds":[{"cover":"SCT","base":2000},{"cover":"SCT","base":4000}],"obsTime":1774382400},"SBBH":{"icaoId":"SBBH","flightCategory":"VFR","rawOb":"METAR SBBH 242000Z 02004KT 9999 TS SCT040 FEW045CB 24/19 Q1015","temp":24,"dewp":19,"wdir":20,"wspd":4,"visib":"6+","altim":1015,"clouds":[{"cover":"SCT","base":4000},{"cover":"FEW","base":4500}],"obsTime":1774382400},"SBBU":{"icaoId":"SBBU","flightCategory":"VFR","rawOb":"METAR SBBU 242000Z 18004KT 9999 FEW035 32/21 Q1009","temp":32,"dewp":21,"wdir":180,"wspd":4,"visib":"6+","altim":1009,"clouds":[{"cover":"FEW","base":3500}],"obsTime":1774382400},"SBCA":{"icaoId":"SBCA","flightCategory":"VFR","rawOb":"METAR SBCA 242000Z VRB02KT 9999 FEW040TCU SCT040 BKN070 27/20 Q1013","temp":27,"dewp":20,"wdir":"VRB","wspd":2,"visib":"6+","altim":1013,"clouds":[{"cover":"FEW","base":4000},{"cover":"SCT","base":4000},{"cover":"BKN","base":7000}],"obsTime":1774382400},"SBCC":{"icaoId":"SBCC","flightCategory":"IFR","rawOb":"METAR SBCC 242000Z 02010KT 8000 -TSRA BKN009 BKN023 FEW025CB BKN100 21/20 Q1011 RERA","temp":21,"dewp":20,"wdir":20,"wspd":10,"visib":4.97,"altim":1011,"clouds":[{"cover":"BKN","base":900},{"cover":"BKN","base":2300},{"cover":"FEW","base":2500},{"cover":"BKN","base":10000}],"obsTime":1774382400},"SBJP":{"icaoId":"SBJP","flightCategory":"VFR","rawOb":"METAR SBJP 242000Z 09010KT CAVOK 29/21 Q1011","temp":29,"dewp":21,"wdir":90,"wspd":10,"visib":"6+","altim":1011,"clouds":[],"obsTime":1774382400},"SBLE":{"icaoId":"SBLE","flightCategory":"VFR","rawOb":"METAR SBLE 242000Z AUTO 18003KT 140V220 CAVOK 27/20 Q1013","temp":27,"dewp":20,"wdir":180,"wspd":3,"visib":"6+","altim":1013,"clouds":[],"obsTime":1774382400},"SBIH":{"icaoId":"SBIH","flightCategory":"VFR","rawOb":"METAR SBIH 242000Z 08006KT 9999 FEW020 32/25 Q1006","temp":32,"dewp":25,"wdir":80,"wspd":6,"visib":"6+","altim":1006,"clouds":[{"cover":"FEW","base":2000}],"obsTime":1774382400},"SBAF":{"icaoId":"SBAF","flightCategory":"VFR","rawOb":"METAR SBAF 242000Z 16006KT CAVOK 31/20 Q1008","temp":31,"dewp":20,"wdir":160,"wspd":6,"visib":"6+","altim":1008,"clouds":[],"obsTime":1774382400},"SBGW":{"icaoId":"SBGW","flightCategory":"VFR","rawOb":"METAR SBGW 242000Z 03005KT 350V060 9999 FEW035 29/17 Q1011","temp":29,"dewp":17,"wdir":30,"wspd":5,"visib":"6+","altim":1011,"clouds":[{"cover":"FEW","base":3500}],"obsTime":1774382400},"SBJR":{"icaoId":"SBJR","flightCategory":"VFR","rawOb":"METAR SBJR 242000Z 28005KT CAVOK 29/21 Q1008","temp":29,"dewp":21,"wdir":280,"wspd":5,"visib":"6+","altim":1008,"clouds":[],"obsTime":1774382400},"SBLS":{"icaoId":"SBLS","flightCategory":"VFR","rawOb":"METAR SBLS 242000Z VRB02KT 9999 VCSH SCT045 FEW049TCU BKN100 22/17 Q1015","temp":22,"dewp":17,"wdir":"VRB","wspd":2,"visib":"6+","altim":1015,"clouds":[{"cover":"SCT","base":4500},{"cover":"FEW","base":4900},{"cover":"BKN","base":10000}],"obsTime":1774382400},"SBAN":{"icaoId":"SBAN","flightCategory":"VFR","rawOb":"METAR SBAN 242000Z 26004KT 9999 FEW010 FEW035TCU 22/19 Q1015","temp":22,"dewp":19,"wdir":260,"wspd":4,"visib":"6+","altim":1015,"clouds":[{"cover":"FEW","base":1000},{"cover":"FEW","base":3500}],"obsTime":1774382400},"SBST":{"icaoId":"SBST","flightCategory":"VFR","rawOb":"METAR SBST 242000Z 20004KT CAVOK 27/21 Q1009","temp":27,"dewp":21,"wdir":200,"wspd":4,"visib":"6+","altim":1009,"clouds":[],"obsTime":1774382400},"SBTA":{"icaoId":"SBTA","flightCategory":"VFR","rawOb":"METAR SBTA 242000Z 09004KT 060V130 9999 FEW040 28/21 Q1010","temp":28,"dewp":21,"wdir":90,"wspd":4,"visib":"6+","altim":1010,"clouds":[{"cover":"FEW","base":4000}],"obsTime":1774382400},"SBJV":{"icaoId":"SBJV","flightCategory":"MVFR","rawOb":"METAR SBJV 242000Z 04005KT 9999 BKN030 29/24 Q1009","temp":29,"dewp":24,"wdir":40,"wspd":5,"visib":"6+","altim":1009,"clouds":[{"cover":"BKN","base":3000}],"obsTime":1774382400},"SBPF":{"icaoId":"SBPF","flightCategory":"VFR","rawOb":"METAR SBPF 242000Z 00000KT 9999 FEW013 SCT040 24/20 Q1013","temp":24,"dewp":20,"wdir":0,"wspd":0,"visib":"6+","altim":1013,"clouds":[{"cover":"FEW","base":1300},{"cover":"SCT","base":4000}],"obsTime":1774382400},"SBMT":{"icaoId":"SBMT","flightCategory":"VFR","rawOb":"METAR SBMT 242000Z 16009KT CAVOK 26/19 Q1012","temp":26,"dewp":19,"wdir":160,"wspd":9,"visib":"6+","altim":1012,"clouds":[],"obsTime":1774382400}}}