{"updated":1777639712,"count":85,"data":{"SBCT":{"icaoId":"SBCT","flightCategory":"LIFR","rawOb":"METAR SBCT 011100Z 00000KT 0200 R15/0250 R33/0250 FG VV001 12/12 Q1023","temp":12,"dewp":12,"wdir":0,"wspd":0,"visib":0.12,"altim":1023,"clouds":[{"cover":"OVX","base":100}],"obsTime":1777633200},"SBEG":{"icaoId":"SBEG","flightCategory":"LIFR","rawOb":"METAR SBEG 011100Z VRB02KT 4000 BR BKN003 FEW025TCU BKN100 24/24 Q1011","temp":24,"dewp":24,"wdir":"VRB","wspd":2,"visib":2.49,"altim":1011,"clouds":[{"cover":"BKN","base":300},{"cover":"FEW","base":2500},{"cover":"BKN","base":10000}],"obsTime":1777633200},"SBBR":{"icaoId":"SBBR","flightCategory":"VFR","rawOb":"METAR SBBR 011100Z 10013KT CAVOK 20/15 Q1021","temp":20,"dewp":15,"wdir":100,"wspd":13,"visib":"6+","altim":1021,"clouds":[],"obsTime":1777633200},"SBBV":{"icaoId":"SBBV","flightCategory":"VFR","rawOb":"METAR SBBV 011100Z 11003KT 9999 FEW025 BKN100 24/23 Q1012","temp":24,"dewp":23,"wdir":110,"wspd":3,"visib":"6+","altim":1012,"clouds":[{"cover":"FEW","base":2500},{"cover":"BKN","base":10000}],"obsTime":1777633200},"SBCZ":{"icaoId":"SBCZ","flightCategory":"LIFR","rawOb":"METAR SBCZ 011200Z COR 27002KT 9000 BKN004 OVC100 24/24 Q1012","temp":24,"dewp":24,"wdir":270,"wspd":2,"visib":5.59,"altim":1012,"clouds":[{"cover":"BKN","base":400},{"cover":"OVC","base":10000}],"obsTime":1777636800},"SBAT":{"icaoId":"SBAT","flightCategory":"VFR","rawOb":"METAR SBAT 011100Z 14003KT CAVOK 26/25 Q1012","temp":26,"dewp":25,"wdir":140,"wspd":3,"visib":"6+","altim":1012,"clouds":[],"obsTime":1777633200},"SBBE":{"icaoId":"SBBE","flightCategory":"VFR","rawOb":"METAR SBBE 011100Z 10004KT CAVOK 25/24 Q1011","temp":25,"dewp":24,"wdir":100,"wspd":4,"visib":"6+","altim":1011,"clouds":[],"obsTime":1777633200},"SBCB":{"icaoId":"SBCB","flightCategory":"VFR","rawOb":"METAR SBCB 011100Z 08002KT 9999 SCT015 25/23 Q1019","temp":25,"dewp":23,"wdir":80,"wspd":2,"visib":"6+","altim":1019,"clouds":[{"cover":"SCT","base":1500}],"obsTime":1777633200},"SBCF":{"icaoId":"SBCF","flightCategory":"VFR","rawOb":"METAR SBCF 011100Z 19002KT CAVOK 19/16 Q1022","temp":19,"dewp":16,"wdir":190,"wspd":2,"visib":"6+","altim":1022,"clouds":[],"obsTime":1777633200},"SBCG":{"icaoId":"SBCG","flightCategory":"VFR","rawOb":"METAR SBCG 011100Z 06012KT CAVOK 24/20 Q1016","temp":24,"dewp":20,"wdir":60,"wspd":12,"visib":"6+","altim":1016,"clouds":[],"obsTime":1777633200},"SBCP":{"icaoId":"SBCP","flightCategory":"VFR","rawOb":"METAR SBCP 011100Z 25002KT 9999 FEW020 25/23 Q1019","temp":25,"dewp":23,"wdir":250,"wspd":2,"visib":"6+","altim":1019,"clouds":[{"cover":"FEW","base":2000}],"obsTime":1777633200},"SBCR":{"icaoId":"SBCR","flightCategory":"VFR","rawOb":"METAR SBCR 011100Z 10008KT 9999 FEW030 27/24 Q1012","temp":27,"dewp":24,"wdir":100,"wspd":8,"visib":"6+","altim":1012,"clouds":[{"cover":"FEW","base":3000}],"obsTime":1777633200},"SBFI":{"icaoId":"SBFI","flightCategory":"VFR","rawOb":"METAR SBFI 011100Z 08009KT CAVOK 21/20 Q1015","temp":21,"dewp":20,"wdir":80,"wspd":9,"visib":"6+","altim":1015,"clouds":[],"obsTime":1777633200},"SBFL":{"icaoId":"SBFL","flightCategory":"VFR","rawOb":"METAR SBFL 011100Z 31004KT 280V350 CAVOK 21/19 Q1019","temp":21,"dewp":19,"wdir":310,"wspd":4,"visib":"6+","altim":1019,"clouds":[],"obsTime":1777633200},"SBFZ":{"icaoId":"SBFZ","flightCategory":"IFR","rawOb":"METAR SBFZ 011100Z 15009KT 9999 BKN008 BKN100 25/24 Q1012","temp":25,"dewp":24,"wdir":150,"wspd":9,"visib":"6+","altim":1012,"clouds":[{"cover":"BKN","base":800},{"cover":"BKN","base":10000}],"obsTime":1777633200},"SBGL":{"icaoId":"SBGL","flightCategory":"IFR","rawOb":"METAR SBGL 011100Z 33002KT 9000 FEW004 BKN007 BKN040 24/23 Q1019","temp":24,"dewp":23,"wdir":330,"wspd":2,"visib":5.59,"altim":1019,"clouds":[{"cover":"FEW","base":400},{"cover":"BKN","base":700},{"cover":"BKN","base":4000}],"obsTime":1777633200},"SBGO":{"icaoId":"SBGO","flightCategory":"VFR","rawOb":"METAR SBGO 011100Z 28002KT CAVOK 20/17 Q1020","temp":20,"dewp":17,"wdir":280,"wspd":2,"visib":"6+","altim":1020,"clouds":[],"obsTime":1777633200},"SBGR":{"icaoId":"SBGR","flightCategory":"MVFR","rawOb":"METAR SBGR 011100Z 11003KT 9999 OVC013 20/18 Q1023","temp":20,"dewp":18,"wdir":110,"wspd":3,"visib":"6+","altim":1023,"clouds":[{"cover":"OVC","base":1300}],"obsTime":1777633200},"SBHT":{"icaoId":"SBHT","flightCategory":"IFR","rawOb":"METAR SBHT 011100Z 00000KT 3000 BR BKN010 BKN080 25/24 Q1012","temp":25,"dewp":24,"wdir":0,"wspd":0,"visib":1.86,"altim":1012,"clouds":[{"cover":"BKN","base":1000},{"cover":"BKN","base":8000}],"obsTime":1777633200},"SBIL":{"icaoId":"SBIL","flightCategory":"MVFR","rawOb":"METAR SBIL 011100Z 31003KT 8000 VCSH SCT020 FEW023TCU BKN070 25/24 Q1017","temp":25,"dewp":24,"wdir":310,"wspd":3,"visib":4.97,"altim":1017,"clouds":[{"cover":"SCT","base":2000},{"cover":"FEW","base":2300},{"cover":"BKN","base":7000}],"obsTime":1777633200},"SBJU":{"icaoId":"SBJU","flightCategory":"VFR","rawOb":"METAR SBJU 011100Z 00000KT 9999 SCT020 26/22 Q1015","temp":26,"dewp":22,"wdir":0,"wspd":0,"visib":"6+","altim":1015,"clouds":[{"cover":"SCT","base":2000}],"obsTime":1777633200},"SBKP":{"icaoId":"SBKP","flightCategory":"VFR","rawOb":"METAR SBKP 011100Z 12008KT 9999 FEW020 SCT050 20/18 Q1021","temp":20,"dewp":18,"wdir":120,"wspd":8,"visib":"6+","altim":1021,"clouds":[{"cover":"FEW","base":2000},{"cover":"SCT","base":5000}],"obsTime":1777633200},"SBLO":{"icaoId":"SBLO","flightCategory":"VFR","rawOb":"METAR SBLO 011100Z 12004KT 9999 SCT011 19/17 Q1020","temp":19,"dewp":17,"wdir":120,"wspd":4,"visib":"6+","altim":1020,"clouds":[{"cover":"SCT","base":1100}],"obsTime":1777633200},"SBMA":{"icaoId":"SBMA","flightCategory":"VFR","rawOb":"METAR SBMA 011100Z 33003KT 9999 FEW010 27/24 Q1012","temp":27,"dewp":24,"wdir":330,"wspd":3,"visib":"6+","altim":1012,"clouds":[{"cover":"FEW","base":1000}],"obsTime":1777633200},"SBME":{"icaoId":"SBME","flightCategory":"VFR","rawOb":"METAR SBME 011100Z 31002KT 9999 FEW030 27/23 Q1017","temp":27,"dewp":23,"wdir":310,"wspd":2,"visib":"6+","altim":1017,"clouds":[{"cover":"FEW","base":3000}],"obsTime":1777633200},"SBMG":{"icaoId":"SBMG","flightCategory":"VFR","rawOb":"METAR SBMG 011100Z 12006KT 9999 BCFG NSC 21/18 Q1018","temp":21,"dewp":18,"wdir":120,"wspd":6,"visib":"6+","altim":1018,"clouds":[],"obsTime":1777633200},"SBMK":{"icaoId":"SBMK","flightCategory":"VFR","rawOb":"METAR SBMK 011100Z 26003KT 9999 SCT015 22/17 Q1020","temp":22,"dewp":17,"wdir":260,"wspd":3,"visib":"6+","altim":1020,"clouds":[{"cover":"SCT","base":1500}],"obsTime":1777633200},"SBMO":{"icaoId":"SBMO","flightCategory":"VFR","rawOb":"METAR SBMO 011100Z 14009KT 9999 SCT021 BKN100 28/24 Q1014","temp":28,"dewp":24,"wdir":140,"wspd":9,"visib":"6+","altim":1014,"clouds":[{"cover":"SCT","base":2100},{"cover":"BKN","base":10000}],"obsTime":1777633200},"SBMQ":{"icaoId":"SBMQ","flightCategory":"VFR","rawOb":"METAR SBMQ 011100Z 34004KT 9999 FEW004 26/25 Q1011","temp":26,"dewp":25,"wdir":340,"wspd":4,"visib":"6+","altim":1011,"clouds":[{"cover":"FEW","base":400}],"obsTime":1777633200},"SBNT":{"icaoId":"SBNT","flightCategory":"MVFR","rawOb":"METAR SBNT 011100Z 24005KT 8000 -RA SCT007 BKN015 FEW025TCU BKN040 26/25 Q1012","temp":26,"dewp":25,"wdir":240,"wspd":5,"visib":4.97,"altim":1012,"clouds":[{"cover":"SCT","base":700},{"cover":"BKN","base":1500},{"cover":"FEW","base":2500},{"cover":"BKN","base":4000}],"obsTime":1777633200},"SBPA":{"icaoId":"SBPA","flightCategory":"VFR","rawOb":"METAR SBPA 011100Z 07004KT CAVOK 15/14 Q1016","temp":15,"dewp":14,"wdir":70,"wspd":4,"visib":"6+","altim":1016,"clouds":[],"obsTime":1777633200},"SBPJ":{"icaoId":"SBPJ","flightCategory":"VFR","rawOb":"METAR SBPJ 011100Z 13003KT 090V160 CAVOK 26/21 Q1014","temp":26,"dewp":21,"wdir":130,"wspd":3,"visib":"6+","altim":1014,"clouds":[],"obsTime":1777633200},"SBPV":{"icaoId":"SBPV","flightCategory":"VFR","rawOb":"METAR SBPV 011100Z 16001KT CAVOK 25/23 Q1011","temp":25,"dewp":23,"wdir":160,"wspd":1,"visib":"6+","altim":1011,"clouds":[],"obsTime":1777633200},"SBRB":{"icaoId":"SBRB","flightCategory":"VFR","rawOb":"METAR SBRB 011100Z 00000KT 9999 FEW025 24/23 Q1012","temp":24,"dewp":23,"wdir":0,"wspd":0,"visib":"6+","altim":1012,"clouds":[{"cover":"FEW","base":2500}],"obsTime":1777633200},"SBRF":{"icaoId":"SBRF","flightCategory":"LIFR","rawOb":"METAR SBRF 011100Z VRB03KT 1500 R36/1100 R18/1600 +RA BR BKN004 BKN007 FEW020TCU OVC060 24/24 Q1013","temp":24,"dewp":24,"wdir":"VRB","wspd":3,"visib":0.93,"altim":1013,"clouds":[{"cover":"BKN","base":400},{"cover":"BKN","base":700},{"cover":"FEW","base":2000},{"cover":"OVC","base":6000}],"obsTime":1777633200},"SBSG":{"icaoId":"SBSG","flightCategory":"MVFR","rawOb":"METAR SBSG 011100Z 22003KT 190V250 9999 VCSH SCT005 BKN017 FEW023TCU 25/24 Q1013","temp":25,"dewp":24,"wdir":220,"wspd":3,"visib":"6+","altim":1013,"clouds":[{"cover":"SCT","base":500},{"cover":"BKN","base":1700},{"cover":"FEW","base":2300}],"obsTime":1777633200},"SBSL":{"icaoId":"SBSL","flightCategory":"VFR","rawOb":"METAR SBSL 011100Z 08006KT CAVOK 27/25 Q1011","temp":27,"dewp":25,"wdir":80,"wspd":6,"visib":"6+","altim":1011,"clouds":[],"obsTime":1777633200},"SBSN":{"icaoId":"SBSN","flightCategory":"VFR","rawOb":"METAR SBSN 011100Z 08009KT 9999 SCT015 SCT100 26/24 Q1011","temp":26,"dewp":24,"wdir":80,"wspd":9,"visib":"6+","altim":1011,"clouds":[{"cover":"SCT","base":1500},{"cover":"SCT","base":10000}],"obsTime":1777633200},"SBSP":{"icaoId":"SBSP","flightCategory":"MVFR","rawOb":"METAR SBSP 011100Z 13004KT 100V170 9999 OVC011 19/17 Q1023","temp":19,"dewp":17,"wdir":130,"wspd":4,"visib":"6+","altim":1023,"clouds":[{"cover":"OVC","base":1100}],"obsTime":1777633200},"SBSV":{"icaoId":"SBSV","flightCategory":"MVFR","rawOb":"METAR SBSV 011100Z 10009KT 9000 VCSH BKN024 FEW025TCU BKN070 29/25 Q1015","temp":29,"dewp":25,"wdir":100,"wspd":9,"visib":5.59,"altim":1015,"clouds":[{"cover":"BKN","base":2400},{"cover":"FEW","base":2500},{"cover":"BKN","base":7000}],"obsTime":1777633200},"SBTE":{"icaoId":"SBTE","flightCategory":"VFR","rawOb":"METAR SBTE 011100Z 13003KT CAVOK 29/23 Q1012","temp":29,"dewp":23,"wdir":130,"wspd":3,"visib":"6+","altim":1012,"clouds":[],"obsTime":1777633200},"SBUL":{"icaoId":"SBUL","flightCategory":"VFR","rawOb":"METAR SBUL 011100Z 10008KT 060V120 CAVOK 20/14 Q1021","temp":20,"dewp":14,"wdir":100,"wspd":8,"visib":"6+","altim":1021,"clouds":[],"obsTime":1777633200},"SBUR":{"icaoId":"SBUR","flightCategory":"VFR","rawOb":"METAR SBUR 011100Z 05006KT CAVOK 22/15 Q1020","temp":22,"dewp":15,"wdir":50,"wspd":6,"visib":"6+","altim":1020,"clouds":[],"obsTime":1777633200},"SBVT":{"icaoId":"SBVT","flightCategory":"VFR","rawOb":"METAR SBVT 011100Z 30004KT 9999 FEW048 24/22 Q1019","temp":24,"dewp":22,"wdir":300,"wspd":4,"visib":"6+","altim":1019,"clouds":[{"cover":"FEW","base":4800}],"obsTime":1777633200},"SBPL":{"icaoId":"SBPL","flightCategory":"VFR","rawOb":"METAR SBPL 011100Z 11010KT 9999 SCT020 25/22 Q1016","temp":25,"dewp":22,"wdir":110,"wspd":10,"visib":"6+","altim":1016,"clouds":[{"cover":"SCT","base":2000}],"obsTime":1777633200},"SBAR":{"icaoId":"SBAR","flightCategory":"VFR","rawOb":"METAR SBAR 011100Z 12012KT 9999 SCT020 29/24 Q1014","temp":29,"dewp":24,"wdir":120,"wspd":12,"visib":"6+","altim":1014,"clouds":[{"cover":"SCT","base":2000}],"obsTime":1777633200},"SBVH":{"icaoId":"SBVH","flightCategory":"VFR","rawOb":"METAR SBVH 011100Z 09005KT CAVOK 23/22 Q1015","temp":23,"dewp":22,"wdir":90,"wspd":5,"visib":"6+","altim":1015,"clouds":[],"obsTime":1777633200},"SBAX":{"icaoId":"SBAX","flightCategory":"VFR","rawOb":"METAR SBAX 011100Z AUTO 09007KT CAVOK 20/15 Q1022","temp":20,"dewp":15,"wdir":90,"wspd":7,"visib":"6+","altim":1022,"clouds":[],"obsTime":1777633200},"SBUY":{"icaoId":"SBUY","flightCategory":"LIFR","rawOb":"METAR SBUY 011100Z 32002KT 1300 BR FEW002 FEW025TCU BKN080 24/24 Q1010 RETSRA","temp":24,"dewp":24,"wdir":320,"wspd":2,"visib":0.81,"altim":1010,"clouds":[{"cover":"FEW","base":200},{"cover":"FEW","base":2500},{"cover":"BKN","base":8000}],"obsTime":1777633200},"SBBH":{"icaoId":"SBBH","flightCategory":"VFR","rawOb":"METAR SBBH 011100Z 10004KT 9999 SCT030 SCT080 21/16 Q1022","temp":21,"dewp":16,"wdir":100,"wspd":4,"visib":"6+","altim":1022,"clouds":[{"cover":"SCT","base":3000},{"cover":"SCT","base":8000}],"obsTime":1777633200},"SBBQ":{"icaoId":"SBBQ","flightCategory":"MVFR","rawOb":"METAR SBBQ 011200Z 08006KT 030V110 9999 SCT009 BKN030 20/17 Q1026","temp":20,"dewp":17,"wdir":80,"wspd":6,"visib":"6+","altim":1026,"clouds":[{"cover":"SCT","base":900},{"cover":"BKN","base":3000}],"obsTime":1777636800},"SBTT":{"icaoId":"SBTT","flightCategory":"VFR","rawOb":"METAR SBTT 011100Z 19001KT 9999 FEW005 BKN090 23/22 Q1011","temp":23,"dewp":22,"wdir":190,"wspd":1,"visib":"6+","altim":1011,"clouds":[{"cover":"FEW","base":500},{"cover":"BKN","base":9000}],"obsTime":1777633200},"SBBU":{"icaoId":"SBBU","flightCategory":"VFR","rawOb":"METAR SBBU 011100Z 10009KT CAVOK 21/19 Q1020","temp":21,"dewp":19,"wdir":100,"wspd":9,"visib":"6+","altim":1020,"clouds":[],"obsTime":1777633200},"SBTF":{"icaoId":"SBTF","flightCategory":"VFR","rawOb":"SPECI SBTF 011115Z 02006KT 9999 FEW007 SCT090 26/26 Q1010","temp":26,"dewp":26,"wdir":20,"wspd":6,"visib":"6+","altim":1010,"clouds":[{"cover":"FEW","base":700},{"cover":"SCT","base":9000}],"obsTime":1777634100},"SBCA":{"icaoId":"SBCA","flightCategory":"VFR","rawOb":"METAR SBCA 011100Z 06012KT CAVOK 20/16 Q1019","temp":20,"dewp":16,"wdir":60,"wspd":12,"visib":"6+","altim":1019,"clouds":[],"obsTime":1777633200},"SBSR":{"icaoId":"SBSR","flightCategory":"VFR","rawOb":"METAR SBSR 011100Z 15005KT CAVOK 22/18 Q1019","temp":22,"dewp":18,"wdir":150,"wspd":5,"visib":"6+","altim":1019,"clouds":[],"obsTime":1777633200},"SBCC":{"icaoId":"SBCC","flightCategory":"VFR","rawOb":"METAR SBCC 011100Z 07006KT 9999 FEW040 SCT100 24/21 Q1013","temp":24,"dewp":21,"wdir":70,"wspd":6,"visib":"6+","altim":1013,"clouds":[{"cover":"FEW","base":4000},{"cover":"SCT","base":10000}],"obsTime":1777633200},"SBSM":{"icaoId":"SBSM","flightCategory":"VFR","rawOb":"METAR SBSM 011100Z 11004KT 9999 FEW023 BKN080 14/13 Q1014","temp":14,"dewp":13,"wdir":110,"wspd":4,"visib":"6+","altim":1014,"clouds":[{"cover":"FEW","base":2300},{"cover":"BKN","base":8000}],"obsTime":1777633200},"SBCJ":{"icaoId":"SBCJ","flightCategory":"VFR","rawOb":"METAR SBCJ 011100Z 00000KT 9999 SCT004 24/22 Q1016","temp":24,"dewp":22,"wdir":0,"wspd":0,"visib":"6+","altim":1016,"clouds":[{"cover":"SCT","base":400}],"obsTime":1777633200},"SBSJ":{"icaoId":"SBSJ","flightCategory":"MVFR","rawOb":"METAR SBSJ 011100Z VRB01KT 9999 OVC017 20/18 Q1022","temp":20,"dewp":18,"wdir":"VRB","wspd":1,"visib":"6+","altim":1022,"clouds":[{"cover":"OVC","base":1700}],"obsTime":1777633200},"SBCO":{"icaoId":"SBCO","flightCategory":"VFR","rawOb":"METAR SBCO 011100Z 10004KT CAVOK 14/13 Q1016","temp":14,"dewp":13,"wdir":100,"wspd":4,"visib":"6+","altim":1016,"clouds":[],"obsTime":1777633200},"SBSC":{"icaoId":"SBSC","flightCategory":"MVFR","rawOb":"METAR SBSC 011100Z 00000KT 8000 SCT003 BKN010 BKN050 23/23 Q1019 RERA","temp":23,"dewp":23,"wdir":0,"wspd":0,"visib":4.97,"altim":1019,"clouds":[{"cover":"SCT","base":300},{"cover":"BKN","base":1000},{"cover":"BKN","base":5000}],"obsTime":1777633200},"SBDN":{"icaoId":"SBDN","flightCategory":"VFR","rawOb":"METAR SBDN 011100Z 10012KT 9999 FEW007 21/18 Q1018","temp":21,"dewp":18,"wdir":100,"wspd":12,"visib":"6+","altim":1018,"clouds":[{"cover":"FEW","base":700}],"obsTime":1777633200},"SBPS":{"icaoId":"SBPS","flightCategory":"MVFR","rawOb":"METAR SBPS 011100Z 25005KT 9999 VCSH SCT020 FEW025TCU BKN030 BKN070 24/23 Q1017","temp":24,"dewp":23,"wdir":250,"wspd":5,"visib":"6+","altim":1017,"clouds":[{"cover":"SCT","base":2000},{"cover":"FEW","base":2500},{"cover":"BKN","base":3000},{"cover":"BKN","base":7000}],"obsTime":1777633200},"SBES":{"icaoId":"SBES","flightCategory":"VFR","rawOb":"METAR SBES 011100Z VRB02KT 9999 FEW010 SCT030 23/// Q1019","temp":null,"dewp":null,"wdir":"VRB","wspd":2,"visib":"6+","altim":1019,"clouds":[{"cover":"FEW","base":1000},{"cover":"SCT","base":3000}],"obsTime":1777633200},"SBGM":{"icaoId":"SBGM","flightCategory":"VFR","rawOb":"METAR SBGM 011200Z 15002KT 9999 SCT040 26/24 Q1012","temp":26,"dewp":24,"wdir":150,"wspd":2,"visib":"6+","altim":1012,"clouds":[{"cover":"SCT","base":4000}],"obsTime":1777636800},"SBIP":{"icaoId":"SBIP","flightCategory":"VFR","rawOb":"METAR SBIP 011100Z AUTO VRB01KT CAVOK 24/20 Q1020","temp":24,"dewp":20,"wdir":"VRB","wspd":1,"visib":"6+","altim":1020,"clouds":[],"obsTime":1777633200},"SBPP":{"icaoId":"SBPP","flightCategory":"LIFR","rawOb":"SPECI SBPP 011115Z 08008KT 0800 FG VV000 21/20 Q1017","temp":21,"dewp":20,"wdir":80,"wspd":8,"visib":0.5,"altim":1017,"clouds":[{"cover":"OVX","base":0}],"obsTime":1777634100},"SBOI":{"icaoId":"SBOI","flightCategory":"IFR","rawOb":"METAR SBOI 011100Z AUTO 16006KT 130V190 9999 BKN008 BKN014 BKN035 25/24 Q1012","temp":25,"dewp":24,"wdir":160,"wspd":6,"visib":"6+","altim":1012,"clouds":[{"cover":"BKN","base":800},{"cover":"BKN","base":1400},{"cover":"BKN","base":3500}],"obsTime":1777633200},"SBPB":{"icaoId":"SBPB","flightCategory":"VFR","rawOb":"METAR SBPB 011100Z 09007KT 9999 FEW016 SCT090 27/24 Q1011","temp":27,"dewp":24,"wdir":90,"wspd":7,"visib":"6+","altim":1011,"clouds":[{"cover":"FEW","base":1600},{"cover":"SCT","base":9000}],"obsTime":1777633200},"SBKG":{"icaoId":"SBKG","flightCategory":"IFR","rawOb":"METAR SBKG 011100Z COR 03003KT 2000 RA BR FEW005 BKN006 OVC070 22/21 Q1017","temp":22,"dewp":21,"wdir":30,"wspd":3,"visib":1.24,"altim":1017,"clouds":[{"cover":"FEW","base":500},{"cover":"BKN","base":600},{"cover":"OVC","base":7000}],"obsTime":1777633200},"SBJP":{"icaoId":"SBJP","flightCategory":"IFR","rawOb":"METAR SBJP 011100Z 25007KT 4000 -RA BKN006 OVC070 24/23 Q1014 RERA","temp":24,"dewp":23,"wdir":250,"wspd":7,"visib":2.49,"altim":1014,"clouds":[{"cover":"BKN","base":600},{"cover":"OVC","base":7000}],"obsTime":1777633200},"SBST":{"icaoId":"SBST","flightCategory":"VFR","rawOb":"METAR SBST 011100Z /////KT 9000 FEW020 SCT035 ///// Q1019","temp":null,"dewp":null,"wdir":null,"wspd":null,"visib":5.59,"altim":1019,"clouds":[{"cover":"FEW","base":2000},{"cover":"SCT","base":3500}],"obsTime":1777633200},"SBJR":{"icaoId":"SBJR","flightCategory":"IFR","rawOb":"METAR SBJR 011100Z 30001KT 4000 -RA BR BKN010 OVC050 24/24 Q1019","temp":24,"dewp":24,"wdir":300,"wspd":1,"visib":2.49,"altim":1019,"clouds":[{"cover":"BKN","base":1000},{"cover":"OVC","base":5000}],"obsTime":1777633200},"SBLS":{"icaoId":"SBLS","flightCategory":"VFR","rawOb":"METAR SBLS 011100Z 14006KT 9999 SCT049 21/16 Q1022","temp":21,"dewp":16,"wdir":140,"wspd":6,"visib":"6+","altim":1022,"clouds":[{"cover":"SCT","base":4900}],"obsTime":1777633200},"SBAN":{"icaoId":"SBAN","flightCategory":"VFR","rawOb":"METAR SBAN 011100Z 13005KT CAVOK 19/15 Q1021","temp":19,"dewp":15,"wdir":130,"wspd":5,"visib":"6+","altim":1021,"clouds":[],"obsTime":1777633200},"SBIH":{"icaoId":"SBIH","flightCategory":"MVFR","rawOb":"METAR SBIH 011100Z 02003KT 8000 SCT015 25/25 Q1011","temp":25,"dewp":25,"wdir":20,"wspd":3,"visib":4.97,"altim":1011,"clouds":[{"cover":"SCT","base":1500}],"obsTime":1777633200},"SBLE":{"icaoId":"SBLE","flightCategory":"VFR","rawOb":"METAR SBLE 011100Z AUTO 14004KT 100V180 9999 FEW012 BKN031 22/22 Q1019","temp":22,"dewp":22,"wdir":140,"wspd":4,"visib":"6+","altim":1019,"clouds":[{"cover":"FEW","base":1200},{"cover":"BKN","base":3100}],"obsTime":1777633200},"SBAF":{"icaoId":"SBAF","flightCategory":"MVFR","rawOb":"METAR SBAF 011100Z 25001KT 5000 BR FEW005 BKN010 OVC040 24/24 Q1019","temp":24,"dewp":24,"wdir":250,"wspd":1,"visib":3.11,"altim":1019,"clouds":[{"cover":"FEW","base":500},{"cover":"BKN","base":1000},{"cover":"OVC","base":4000}],"obsTime":1777633200},"SBGW":{"icaoId":"SBGW","flightCategory":"MVFR","rawOb":"METAR SBGW 011100Z 05004KT 010V080 6000 SCT010 BKN030 23/17 Q1021","temp":23,"dewp":17,"wdir":50,"wspd":4,"visib":3.73,"altim":1021,"clouds":[{"cover":"SCT","base":1000},{"cover":"BKN","base":3000}],"obsTime":1777633200},"SBMT":{"icaoId":"SBMT","flightCategory":"MVFR","rawOb":"METAR SBMT 011100Z 11004KT 050V130 9999 OVC011 19/17 Q1022","temp":19,"dewp":17,"wdir":110,"wspd":4,"visib":"6+","altim":1022,"clouds":[{"cover":"OVC","base":1100}],"obsTime":1777633200},"SBTA":{"icaoId":"SBTA","flightCategory":"MVFR","rawOb":"METAR SBTA 011100Z 00000KT 9999 BKN030 BKN080 21/21 Q1021","temp":21,"dewp":21,"wdir":0,"wspd":0,"visib":"6+","altim":1021,"clouds":[{"cover":"BKN","base":3000},{"cover":"BKN","base":8000}],"obsTime":1777633200},"SBJV":{"icaoId":"SBJV","flightCategory":"MVFR","rawOb":"METAR SBJV 011100Z 30003KT 9999 FEW005 BKN025 BKN040 20/20 Q1020","temp":20,"dewp":20,"wdir":300,"wspd":3,"visib":"6+","altim":1020,"clouds":[{"cover":"FEW","base":500},{"cover":"BKN","base":2500},{"cover":"BKN","base":4000}],"obsTime":1777633200},"SBNM":{"icaoId":"SBNM","flightCategory":"VFR","rawOb":"METAR SBNM 011100Z 08003KT 9999 SCT040 18/15 Q1015","temp":18,"dewp":15,"wdir":80,"wspd":3,"visib":"6+","altim":1015,"clouds":[{"cover":"SCT","base":4000}],"obsTime":1777633200},"SBPF":{"icaoId":"SBPF","flightCategory":"VFR","rawOb":"METAR SBPF 011100Z 06016KT CAVOK 15/12 Q1019","temp":15,"dewp":12,"wdir":60,"wspd":16,"visib":"6+","altim":1019,"clouds":[],"obsTime":1777633200}}}