{"updated":1775042876,"count":82,"data":{"SBAT":{"icaoId":"SBAT","flightCategory":"VFR","rawOb":"METAR SBAT 011100Z 22002KT 9999 FEW010 23/23 Q1011","temp":23,"dewp":23,"wdir":220,"wspd":2,"visib":"6+","altim":1011,"clouds":[{"cover":"FEW","base":1000}],"obsTime":1775041200},"SBBE":{"icaoId":"SBBE","flightCategory":"VFR","rawOb":"METAR SBBE 011000Z 04004KT 9999 FEW018 BKN080 25/25 Q1009","temp":25,"dewp":25,"wdir":40,"wspd":4,"visib":"6+","altim":1009,"clouds":[{"cover":"FEW","base":1800},{"cover":"BKN","base":8000}],"obsTime":1775037600},"SBBR":{"icaoId":"SBBR","flightCategory":"VFR","rawOb":"METAR SBBR 011000Z VRB02KT 9999 FEW010 BKN080 19/18 Q1017","temp":19,"dewp":18,"wdir":"VRB","wspd":2,"visib":"6+","altim":1017,"clouds":[{"cover":"FEW","base":1000},{"cover":"BKN","base":8000}],"obsTime":1775037600},"SBBV":{"icaoId":"SBBV","flightCategory":"VFR","rawOb":"METAR SBBV 011000Z 09004KT 9999 FEW004 SCT020 FEW030TCU BKN070 23/23 Q1010","temp":23,"dewp":23,"wdir":90,"wspd":4,"visib":"6+","altim":1010,"clouds":[{"cover":"FEW","base":400},{"cover":"SCT","base":2000},{"cover":"FEW","base":3000},{"cover":"BKN","base":7000}],"obsTime":1775037600},"SBCB":{"icaoId":"SBCB","flightCategory":"VFR","rawOb":"METAR SBCB 011000Z 05011KT 9999 SCT020 25/23 Q1012","temp":25,"dewp":23,"wdir":50,"wspd":11,"visib":"6+","altim":1012,"clouds":[{"cover":"SCT","base":2000}],"obsTime":1775037600},"SBCF":{"icaoId":"SBCF","flightCategory":"VFR","rawOb":"METAR SBCF 011000Z 17002KT 9999 SCT040 BKN090 19/18 Q1018","temp":19,"dewp":18,"wdir":170,"wspd":2,"visib":"6+","altim":1018,"clouds":[{"cover":"SCT","base":4000},{"cover":"BKN","base":9000}],"obsTime":1775037600},"SBCG":{"icaoId":"SBCG","flightCategory":"VFR","rawOb":"METAR SBCG 011000Z 04004KT CAVOK 22/17 Q1012","temp":22,"dewp":17,"wdir":40,"wspd":4,"visib":"6+","altim":1012,"clouds":[],"obsTime":1775037600},"SBCP":{"icaoId":"SBCP","flightCategory":"VFR","rawOb":"METAR SBCP 011000Z 05005KT 9999 FEW030 24/22 Q1013","temp":24,"dewp":22,"wdir":50,"wspd":5,"visib":"6+","altim":1013,"clouds":[{"cover":"FEW","base":3000}],"obsTime":1775037600},"SBCR":{"icaoId":"SBCR","flightCategory":"VFR","rawOb":"METAR SBCR 011100Z 16003KT 150V210 CAVOK 26/22 Q1009","temp":26,"dewp":22,"wdir":160,"wspd":3,"visib":"6+","altim":1009,"clouds":[],"obsTime":1775041200},"SBCT":{"icaoId":"SBCT","flightCategory":"LIFR","rawOb":"SPECI SBCT 010928Z 03004KT 5000 BR MIFG BKN003 15/15 Q1015","temp":15,"dewp":15,"wdir":30,"wspd":4,"visib":3.11,"altim":1015,"clouds":[{"cover":"BKN","base":300}],"obsTime":1775035680},"SBEG":{"icaoId":"SBEG","flightCategory":"MVFR","rawOb":"METAR SBEG 011000Z VRB01KT 9999 -RA SCT005 BKN012 BKN070 24/23 Q1010","temp":24,"dewp":23,"wdir":"VRB","wspd":1,"visib":"6+","altim":1010,"clouds":[{"cover":"SCT","base":500},{"cover":"BKN","base":1200},{"cover":"BKN","base":7000}],"obsTime":1775037600},"SBFI":{"icaoId":"SBFI","flightCategory":"VFR","rawOb":"METAR SBFI 011000Z 12005KT CAVOK 20/20 Q1010","temp":20,"dewp":20,"wdir":120,"wspd":5,"visib":"6+","altim":1010,"clouds":[],"obsTime":1775037600},"SBFL":{"icaoId":"SBFL","flightCategory":"VFR","rawOb":"METAR SBFL 011000Z VRB01KT CAVOK 21/19 Q1012","temp":21,"dewp":19,"wdir":"VRB","wspd":1,"visib":"6+","altim":1012,"clouds":[],"obsTime":1775037600},"SBFZ":{"icaoId":"SBFZ","flightCategory":"VFR","rawOb":"METAR SBFZ 011000Z 00000KT 9999 FEW020 BKN060 26/24 Q1010","temp":26,"dewp":24,"wdir":0,"wspd":0,"visib":"6+","altim":1010,"clouds":[{"cover":"FEW","base":2000},{"cover":"BKN","base":6000}],"obsTime":1775037600},"SBGL":{"icaoId":"SBGL","flightCategory":"MVFR","rawOb":"METAR SBGL 011000Z 27004KT 8000 FEW005 SCT010 BKN100 23/22 Q1012","temp":23,"dewp":22,"wdir":270,"wspd":4,"visib":4.97,"altim":1012,"clouds":[{"cover":"FEW","base":500},{"cover":"SCT","base":1000},{"cover":"BKN","base":10000}],"obsTime":1775037600},"SBGO":{"icaoId":"SBGO","flightCategory":"VFR","rawOb":"METAR SBGO 011000Z 34003KT 300V010 9999 FEW040 FEW045TCU 20/19 Q1016","temp":20,"dewp":19,"wdir":340,"wspd":3,"visib":"6+","altim":1016,"clouds":[{"cover":"FEW","base":4000},{"cover":"FEW","base":4500}],"obsTime":1775037600},"SBGR":{"icaoId":"SBGR","flightCategory":"IFR","rawOb":"METAR SBGR 011000Z 10003KT 9000 OVC005 18/17 Q1016","temp":18,"dewp":17,"wdir":100,"wspd":3,"visib":5.59,"altim":1016,"clouds":[{"cover":"OVC","base":500}],"obsTime":1775037600},"SBHT":{"icaoId":"SBHT","flightCategory":"LIFR","rawOb":"METAR SBHT 011000Z 00000KT 0500 FG SCT010 BKN080 24/23 Q1009","temp":24,"dewp":23,"wdir":0,"wspd":0,"visib":0.31,"altim":1009,"clouds":[{"cover":"SCT","base":1000},{"cover":"BKN","base":8000}],"obsTime":1775037600},"SBIL":{"icaoId":"SBIL","flightCategory":"VFR","rawOb":"METAR SBIL 011000Z 24004KT 180V280 9999 VCSH FEW018 SCT023 BKN070 25/24 Q1013","temp":25,"dewp":24,"wdir":240,"wspd":4,"visib":"6+","altim":1013,"clouds":[{"cover":"FEW","base":1800},{"cover":"SCT","base":2300},{"cover":"BKN","base":7000}],"obsTime":1775037600},"SBJU":{"icaoId":"SBJU","flightCategory":"MVFR","rawOb":"METAR SBJU 011000Z 00000KT 9999 BKN020 23/22 Q1013","temp":23,"dewp":22,"wdir":0,"wspd":0,"visib":"6+","altim":1013,"clouds":[{"cover":"BKN","base":2000}],"obsTime":1775037600},"SBKP":{"icaoId":"SBKP","flightCategory":"MVFR","rawOb":"METAR SBKP 011000Z 11005KT 7000 NSC 18/17 Q1015","temp":18,"dewp":17,"wdir":110,"wspd":5,"visib":4.35,"altim":1015,"clouds":[],"obsTime":1775037600},"SBLO":{"icaoId":"SBLO","flightCategory":"VFR","rawOb":"METAR SBLO 011000Z 15002KT 9999 FEW025 19/18 Q1013","temp":19,"dewp":18,"wdir":150,"wspd":2,"visib":"6+","altim":1013,"clouds":[{"cover":"FEW","base":2500}],"obsTime":1775037600},"SBMA":{"icaoId":"SBMA","flightCategory":"VFR","rawOb":"METAR SBMA 011000Z 09002KT 9999 FEW012 BKN080 25/24 Q1009","temp":25,"dewp":24,"wdir":90,"wspd":2,"visib":"6+","altim":1009,"clouds":[{"cover":"FEW","base":1200},{"cover":"BKN","base":8000}],"obsTime":1775037600},"SBME":{"icaoId":"SBME","flightCategory":"VFR","rawOb":"METAR SBME 011000Z 03006KT 9999 FEW006 25/23 Q1012","temp":25,"dewp":23,"wdir":30,"wspd":6,"visib":"6+","altim":1012,"clouds":[{"cover":"FEW","base":600}],"obsTime":1775037600},"SBMG":{"icaoId":"SBMG","flightCategory":"VFR","rawOb":"METAR SBMG 011000Z 16005KT 130V230 9999 4500SW BCFG NSC 18/18 Q1012","temp":18,"dewp":18,"wdir":160,"wspd":5,"visib":"6+","altim":1012,"clouds":[],"obsTime":1775037600},"SBMK":{"icaoId":"SBMK","flightCategory":"VFR","rawOb":"METAR SBMK 011000Z 08002KT 9999 SCT035 SCT080 22/19 Q1016","temp":22,"dewp":19,"wdir":80,"wspd":2,"visib":"6+","altim":1016,"clouds":[{"cover":"SCT","base":3500},{"cover":"SCT","base":8000}],"obsTime":1775037600},"SBMO":{"icaoId":"SBMO","flightCategory":"IFR","rawOb":"METAR SBMO 011000Z 25001KT 4500 -RA BR SCT007 BKN015 OVC050 24/24 Q1012","temp":24,"dewp":24,"wdir":250,"wspd":1,"visib":2.8,"altim":1012,"clouds":[{"cover":"SCT","base":700},{"cover":"BKN","base":1500},{"cover":"OVC","base":5000}],"obsTime":1775037600},"SBMQ":{"icaoId":"SBMQ","flightCategory":"IFR","rawOb":"METAR SBMQ 011000Z 18004KT 2000 RA BKN007 OVC015 23/23 Q1010","temp":23,"dewp":23,"wdir":180,"wspd":4,"visib":1.24,"altim":1010,"clouds":[{"cover":"BKN","base":700},{"cover":"OVC","base":1500}],"obsTime":1775037600},"SBNT":{"icaoId":"SBNT","flightCategory":"IFR","rawOb":"METAR SBNT 011000Z 17006KT 3000 RA BKN015 FEW025TCU OVC070 24/24 Q1011 RERA","temp":24,"dewp":24,"wdir":170,"wspd":6,"visib":1.86,"altim":1011,"clouds":[{"cover":"BKN","base":1500},{"cover":"FEW","base":2500},{"cover":"OVC","base":7000}],"obsTime":1775037600},"SBPA":{"icaoId":"SBPA","flightCategory":"VFR","rawOb":"METAR SBPA 011000Z 06003KT 010V100 CAVOK 20/18 Q1010","temp":20,"dewp":18,"wdir":60,"wspd":3,"visib":"6+","altim":1010,"clouds":[],"obsTime":1775037600},"SBPJ":{"icaoId":"SBPJ","flightCategory":"VFR","rawOb":"METAR SBPJ 011000Z 19005KT 9999 FEW030 SCT100 24/21 Q1011","temp":24,"dewp":21,"wdir":190,"wspd":5,"visib":"6+","altim":1011,"clouds":[{"cover":"FEW","base":3000},{"cover":"SCT","base":10000}],"obsTime":1775037600},"SBPV":{"icaoId":"SBPV","flightCategory":"VFR","rawOb":"METAR SBPV 011000Z 00000KT 9999 FEW007 SCT040 24/22 Q1009","temp":24,"dewp":22,"wdir":0,"wspd":0,"visib":"6+","altim":1009,"clouds":[{"cover":"FEW","base":700},{"cover":"SCT","base":4000}],"obsTime":1775037600},"SBRB":{"icaoId":"SBRB","flightCategory":"IFR","rawOb":"METAR SBRB 011000Z 17002KT 4000 -RA BR VCTS SCT006 FEW030CB SCT100 22/22 Q1010","temp":22,"dewp":22,"wdir":170,"wspd":2,"visib":2.49,"altim":1010,"clouds":[{"cover":"SCT","base":600},{"cover":"FEW","base":3000},{"cover":"SCT","base":10000}],"obsTime":1775037600},"SBRF":{"icaoId":"SBRF","flightCategory":"IFR","rawOb":"SPECI SBRF 010945Z 12009KT 4500 -RA BR BKN012 BKN016 FEW025TCU OVC055 25/24 Q1011 RETS","temp":25,"dewp":24,"wdir":120,"wspd":9,"visib":2.8,"altim":1011,"clouds":[{"cover":"BKN","base":1200},{"cover":"BKN","base":1600},{"cover":"FEW","base":2500},{"cover":"OVC","base":5500}],"obsTime":1775036700},"SBSG":{"icaoId":"SBSG","flightCategory":"MVFR","rawOb":"METAR SBSG 011000Z 15003KT 110V200 5000 -RA BR SCT011 BKN020 FEW023TCU 25/25 Q1011","temp":25,"dewp":25,"wdir":150,"wspd":3,"visib":3.11,"altim":1011,"clouds":[{"cover":"SCT","base":1100},{"cover":"BKN","base":2000},{"cover":"FEW","base":2300}],"obsTime":1775037600},"SBSL":{"icaoId":"SBSL","flightCategory":"VFR","rawOb":"METAR SBSL 011000Z 13004KT 9999 FEW017 FEW020TCU 26/25 Q1010","temp":26,"dewp":25,"wdir":130,"wspd":4,"visib":"6+","altim":1010,"clouds":[{"cover":"FEW","base":1700},{"cover":"FEW","base":2000}],"obsTime":1775037600},"SBSN":{"icaoId":"SBSN","flightCategory":"VFR","rawOb":"METAR SBSN 011000Z 06007KT 9999 SCT010 BKN080 26/24 Q1009","temp":26,"dewp":24,"wdir":60,"wspd":7,"visib":"6+","altim":1009,"clouds":[{"cover":"SCT","base":1000},{"cover":"BKN","base":8000}],"obsTime":1775037600},"SBSP":{"icaoId":"SBSP","flightCategory":"MVFR","rawOb":"METAR SBSP 011000Z 12004KT 090V150 9999 FEW009 SCT011 BKN014 19/17 Q1016","temp":19,"dewp":17,"wdir":120,"wspd":4,"visib":"6+","altim":1016,"clouds":[{"cover":"FEW","base":900},{"cover":"SCT","base":1100},{"cover":"BKN","base":1400}],"obsTime":1775037600},"SBSV":{"icaoId":"SBSV","flightCategory":"VFR","rawOb":"METAR SBSV 011000Z 08007KT 9999 FEW022 FEW024TCU BKN071 25/23 Q1012","temp":25,"dewp":23,"wdir":80,"wspd":7,"visib":"6+","altim":1012,"clouds":[{"cover":"FEW","base":2200},{"cover":"FEW","base":2400},{"cover":"BKN","base":7100}],"obsTime":1775037600},"SBTE":{"icaoId":"SBTE","flightCategory":"MVFR","rawOb":"METAR SBTE 011000Z 31002KT 9999 BKN015 BKN090 26/24 Q1011","temp":26,"dewp":24,"wdir":310,"wspd":2,"visib":"6+","altim":1011,"clouds":[{"cover":"BKN","base":1500},{"cover":"BKN","base":9000}],"obsTime":1775037600},"SBUL":{"icaoId":"SBUL","flightCategory":"VFR","rawOb":"METAR SBUL 011000Z 08010KT 040V100 9999 FEW008 19/17 Q1016","temp":19,"dewp":17,"wdir":80,"wspd":10,"visib":"6+","altim":1016,"clouds":[{"cover":"FEW","base":800}],"obsTime":1775037600},"SBUR":{"icaoId":"SBUR","flightCategory":"VFR","rawOb":"METAR SBUR 011000Z 03008KT CAVOK 20/16 Q1015","temp":20,"dewp":16,"wdir":30,"wspd":8,"visib":"6+","altim":1015,"clouds":[],"obsTime":1775037600},"SBVT":{"icaoId":"SBVT","flightCategory":"VFR","rawOb":"METAR SBVT 011000Z 01001KT 9999 FEW025 25/24 Q1014","temp":25,"dewp":24,"wdir":10,"wspd":1,"visib":"6+","altim":1014,"clouds":[{"cover":"FEW","base":2500}],"obsTime":1775037600},"SBPP":{"icaoId":"SBPP","flightCategory":"VFR","rawOb":"SPECI SBPP 011115Z 34001KT CAVOK 24/20 Q1013","temp":24,"dewp":20,"wdir":340,"wspd":1,"visib":"6+","altim":1013,"clouds":[],"obsTime":1775042100},"SBTF":{"icaoId":"SBTF","flightCategory":"MVFR","rawOb":"SPECI SBTF 011115Z 18002KT 9999 BKN030 24/24 Q1010","temp":24,"dewp":24,"wdir":180,"wspd":2,"visib":"6+","altim":1010,"clouds":[{"cover":"BKN","base":3000}],"obsTime":1775042100},"SBAX":{"icaoId":"SBAX","flightCategory":"VFR","rawOb":"METAR SBAX 011000Z 10006KT 9999 SCT030 SCT100 18/17 Q1017","temp":18,"dewp":17,"wdir":100,"wspd":6,"visib":"6+","altim":1017,"clouds":[{"cover":"SCT","base":3000},{"cover":"SCT","base":10000}],"obsTime":1775037600},"SBBH":{"icaoId":"SBBH","flightCategory":"VFR","rawOb":"METAR SBBH 011000Z 10003KT 9999 SCT046 SCT100 20/18 Q1017","temp":20,"dewp":18,"wdir":100,"wspd":3,"visib":"6+","altim":1017,"clouds":[{"cover":"SCT","base":4600},{"cover":"SCT","base":10000}],"obsTime":1775037600},"SBVH":{"icaoId":"SBVH","flightCategory":"MVFR","rawOb":"METAR SBVH 011100Z 10006KT 9999 SCT020 BKN030 21/21 Q1013","temp":21,"dewp":21,"wdir":100,"wspd":6,"visib":"6+","altim":1013,"clouds":[{"cover":"SCT","base":2000},{"cover":"BKN","base":3000}],"obsTime":1775041200},"SBAR":{"icaoId":"SBAR","flightCategory":"VFR","rawOb":"METAR SBAR 011000Z 12009KT 9999 SCT022 SCT070 29/23 Q1012","temp":29,"dewp":23,"wdir":120,"wspd":9,"visib":"6+","altim":1012,"clouds":[{"cover":"SCT","base":2200},{"cover":"SCT","base":7000}],"obsTime":1775037600},"SBBU":{"icaoId":"SBBU","flightCategory":"MVFR","rawOb":"METAR SBBU 011000Z 10007KT 5000 BR BKN010 SCT020 20/20 Q1014","temp":20,"dewp":20,"wdir":100,"wspd":7,"visib":3.11,"altim":1014,"clouds":[{"cover":"BKN","base":1000},{"cover":"SCT","base":2000}],"obsTime":1775037600},"SBCA":{"icaoId":"SBCA","flightCategory":"VFR","rawOb":"METAR SBCA 011000Z 04012KT 9999 FEW040 SCT083 19/17 Q1013","temp":19,"dewp":17,"wdir":40,"wspd":12,"visib":"6+","altim":1013,"clouds":[{"cover":"FEW","base":4000},{"cover":"SCT","base":8300}],"obsTime":1775037600},"SBCC":{"icaoId":"SBCC","flightCategory":"VFR","rawOb":"METAR SBCC 011100Z 34003KT 9999 FEW025 SCT100 23/22 Q1012","temp":23,"dewp":22,"wdir":340,"wspd":3,"visib":"6+","altim":1012,"clouds":[{"cover":"FEW","base":2500},{"cover":"SCT","base":10000}],"obsTime":1775041200},"SBCJ":{"icaoId":"SBCJ","flightCategory":"VFR","rawOb":"SPECI SBCJ 011015Z 00000KT 9999 FEW018 23/21 Q1014","temp":23,"dewp":21,"wdir":0,"wspd":0,"visib":"6+","altim":1014,"clouds":[{"cover":"FEW","base":1800}],"obsTime":1775038500},"SBCO":{"icaoId":"SBCO","flightCategory":"VFR","rawOb":"METAR SBCO 011000Z 10003KT CAVOK 18/18 Q1011","temp":18,"dewp":18,"wdir":100,"wspd":3,"visib":"6+","altim":1011,"clouds":[],"obsTime":1775037600},"SBDN":{"icaoId":"SBDN","flightCategory":"VFR","rawOb":"METAR SBDN 011000Z 10005KT CAVOK 21/19 Q1012","temp":21,"dewp":19,"wdir":100,"wspd":5,"visib":"6+","altim":1012,"clouds":[],"obsTime":1775037600},"SBES":{"icaoId":"SBES","flightCategory":"VFR","rawOb":"METAR SBES 011000Z VRB06KT 9999 SCT007 23/// Q1012","temp":null,"dewp":null,"wdir":"VRB","wspd":6,"visib":"6+","altim":1012,"clouds":[{"cover":"SCT","base":700}],"obsTime":1775037600},"SBIP":{"icaoId":"SBIP","flightCategory":"VFR","rawOb":"METAR SBIP 011000Z AUTO 35002KT 9999 FEW024 23/22 Q1015","temp":23,"dewp":22,"wdir":350,"wspd":2,"visib":"6+","altim":1015,"clouds":[{"cover":"FEW","base":2400}],"obsTime":1775037600},"SBKG":{"icaoId":"SBKG","flightCategory":"IFR","rawOb":"METAR SBKG 011000Z 18004KT 9999 BKN005 BKN070 23/22 Q1014","temp":23,"dewp":22,"wdir":180,"wspd":4,"visib":"6+","altim":1014,"clouds":[{"cover":"BKN","base":500},{"cover":"BKN","base":7000}],"obsTime":1775037600},"SBOI":{"icaoId":"SBOI","flightCategory":"LIFR","rawOb":"METAR SBOI 011000Z AUTO 15003KT 9999 // SCT001/// BKN004/// OVC019/// 23/23 Q1010","temp":23,"dewp":23,"wdir":150,"wspd":3,"visib":"6+","altim":1010,"clouds":[{"cover":"SCT","base":100},{"cover":"BKN","base":400},{"cover":"OVC","base":1900}],"obsTime":1775037600},"SBPB":{"icaoId":"SBPB","flightCategory":"VFR","rawOb":"SPECI SBPB 011015Z 11003KT 9999 FEW016 SCT090 25/24 Q1010","temp":25,"dewp":24,"wdir":110,"wspd":3,"visib":"6+","altim":1010,"clouds":[{"cover":"FEW","base":1600},{"cover":"SCT","base":9000}],"obsTime":1775038500},"SBPL":{"icaoId":"SBPL","flightCategory":"VFR","rawOb":"METAR SBPL 011000Z 09006KT 9999 FEW025 SCT080 25/22 Q1013","temp":25,"dewp":22,"wdir":90,"wspd":6,"visib":"6+","altim":1013,"clouds":[{"cover":"FEW","base":2500},{"cover":"SCT","base":8000}],"obsTime":1775037600},"SBPS":{"icaoId":"SBPS","flightCategory":"VFR","rawOb":"METAR SBPS 011000Z 25003KT 9999 FEW020 24/23 Q1014","temp":24,"dewp":23,"wdir":250,"wspd":3,"visib":"6+","altim":1014,"clouds":[{"cover":"FEW","base":2000}],"obsTime":1775037600},"SBSC":{"icaoId":"SBSC","flightCategory":"VFR","rawOb":"METAR SBSC 011000Z 03005KT 9999 FEW025 24/21 Q1012","temp":24,"dewp":21,"wdir":30,"wspd":5,"visib":"6+","altim":1012,"clouds":[{"cover":"FEW","base":2500}],"obsTime":1775037600},"SBSJ":{"icaoId":"SBSJ","flightCategory":"IFR","rawOb":"METAR SBSJ 011000Z 22002KT 4000 BR BKN006 BKN014 18/18 Q1015","temp":18,"dewp":18,"wdir":220,"wspd":2,"visib":2.49,"altim":1015,"clouds":[{"cover":"BKN","base":600},{"cover":"BKN","base":1400}],"obsTime":1775037600},"SBSM":{"icaoId":"SBSM","flightCategory":"MVFR","rawOb":"METAR SBSM 011000Z 10002KT 8000 SCT006 SCT010 20/19 Q1010","temp":20,"dewp":19,"wdir":100,"wspd":2,"visib":4.97,"altim":1010,"clouds":[{"cover":"SCT","base":600},{"cover":"SCT","base":1000}],"obsTime":1775037600},"SBSR":{"icaoId":"SBSR","flightCategory":"VFR","rawOb":"METAR SBSR 011000Z 10004KT CAVOK 21/18 Q1013","temp":21,"dewp":18,"wdir":100,"wspd":4,"visib":"6+","altim":1013,"clouds":[],"obsTime":1775037600},"SBTD":{"icaoId":"SBTD","flightCategory":"VFR","rawOb":"METAR SBTD 011100Z /////KT 9999 FEW030 FEW035TCU SCT080 20/18 Q1013","temp":20,"dewp":18,"wdir":null,"wspd":null,"visib":"6+","altim":1013,"clouds":[{"cover":"FEW","base":3000},{"cover":"FEW","base":3500},{"cover":"SCT","base":8000}],"obsTime":1775041200},"SBTT":{"icaoId":"SBTT","flightCategory":"MVFR","rawOb":"METAR SBTT 011100Z 15002KT 8000 FEW005 BKN100 23/22 Q1010","temp":23,"dewp":22,"wdir":150,"wspd":2,"visib":4.97,"altim":1010,"clouds":[{"cover":"FEW","base":500},{"cover":"BKN","base":10000}],"obsTime":1775041200},"SBUY":{"icaoId":"SBUY","flightCategory":"LIFR","rawOb":"METAR SBUY 011100Z 00000KT 9999 BKN004 OVC090 22/22 Q1009","temp":22,"dewp":22,"wdir":0,"wspd":0,"visib":"6+","altim":1009,"clouds":[{"cover":"BKN","base":400},{"cover":"OVC","base":9000}],"obsTime":1775041200},"SBJR":{"icaoId":"SBJR","flightCategory":"VFR","rawOb":"METAR SBJR 011000Z 03002KT 9999 FEW020 BKN100 23/23 Q1012","temp":23,"dewp":23,"wdir":30,"wspd":2,"visib":"6+","altim":1012,"clouds":[{"cover":"FEW","base":2000},{"cover":"BKN","base":10000}],"obsTime":1775037600},"SBPF":{"icaoId":"SBPF","flightCategory":"VFR","rawOb":"METAR SBPF 011000Z 05011KT CAVOK 17/15 Q1013","temp":17,"dewp":15,"wdir":50,"wspd":11,"visib":"6+","altim":1013,"clouds":[],"obsTime":1775037600},"SBLS":{"icaoId":"SBLS","flightCategory":"VFR","rawOb":"METAR SBLS 011000Z 17004KT 9999 FEW015 BKN100 19/18 Q1017","temp":19,"dewp":18,"wdir":170,"wspd":4,"visib":"6+","altim":1017,"clouds":[{"cover":"FEW","base":1500},{"cover":"BKN","base":10000}],"obsTime":1775037600},"SBJV":{"icaoId":"SBJV","flightCategory":"VFR","rawOb":"METAR SBJV 011000Z 01001KT 9999 FEW003 20/20 Q1012","temp":20,"dewp":20,"wdir":10,"wspd":1,"visib":"6+","altim":1012,"clouds":[{"cover":"FEW","base":300}],"obsTime":1775037600},"SBMT":{"icaoId":"SBMT","flightCategory":"MVFR","rawOb":"METAR SBMT 011000Z 09004KT 6000 SCT011 BKN013 19/18 Q1016","temp":19,"dewp":18,"wdir":90,"wspd":4,"visib":3.73,"altim":1016,"clouds":[{"cover":"SCT","base":1100},{"cover":"BKN","base":1300}],"obsTime":1775037600},"SBAN":{"icaoId":"SBAN","flightCategory":"VFR","rawOb":"METAR SBAN 011000Z 24003KT 9999 FEW040 SCT100 18/17 Q1018","temp":18,"dewp":17,"wdir":240,"wspd":3,"visib":"6+","altim":1018,"clouds":[{"cover":"FEW","base":4000},{"cover":"SCT","base":10000}],"obsTime":1775037600},"SBST":{"icaoId":"SBST","flightCategory":"MVFR","rawOb":"METAR SBST 011000Z 05003KT 8000 SCT040 20/20 Q1012","temp":20,"dewp":20,"wdir":50,"wspd":3,"visib":4.97,"altim":1012,"clouds":[{"cover":"SCT","base":4000}],"obsTime":1775037600},"SBLE":{"icaoId":"SBLE","flightCategory":"MVFR","rawOb":"METAR SBLE 011000Z AUTO 04003KT 9999 FEW023 OVC028 ///// Q////","temp":null,"dewp":null,"wdir":40,"wspd":3,"visib":"6+","altim":null,"clouds":[{"cover":"FEW","base":2300},{"cover":"OVC","base":2800}],"obsTime":1775037600},"SBTA":{"icaoId":"SBTA","flightCategory":"IFR","rawOb":"METAR SBTA 011000Z 00000KT 3000 BR SCT004 BKN014 BKN100 19/19 Q1014","temp":19,"dewp":19,"wdir":0,"wspd":0,"visib":1.86,"altim":1014,"clouds":[{"cover":"SCT","base":400},{"cover":"BKN","base":1400},{"cover":"BKN","base":10000}],"obsTime":1775037600},"SBIH":{"icaoId":"SBIH","flightCategory":"IFR","rawOb":"METAR SBIH 011100Z 34003KT 2000 BR BKN010 OVC080 24/24 Q1011","temp":24,"dewp":24,"wdir":340,"wspd":3,"visib":1.24,"altim":1011,"clouds":[{"cover":"BKN","base":1000},{"cover":"OVC","base":8000}],"obsTime":1775041200},"SBAF":{"icaoId":"SBAF","flightCategory":"VFR","rawOb":"METAR SBAF 011000Z VRB01KT 9999 4000E NSC 22/22 Q1013","temp":22,"dewp":22,"wdir":"VRB","wspd":1,"visib":"6+","altim":1013,"clouds":[],"obsTime":1775037600},"SBJP":{"icaoId":"SBJP","flightCategory":"IFR","rawOb":"METAR SBJP 011000Z COR VRB05KT 3000 -RA BKN005 BKN009 25/24 Q1012","temp":25,"dewp":24,"wdir":"VRB","wspd":5,"visib":1.86,"altim":1012,"clouds":[{"cover":"BKN","base":500},{"cover":"BKN","base":900}],"obsTime":1775037600},"SBGW":{"icaoId":"SBGW","flightCategory":"IFR","rawOb":"METAR SBGW 011000Z 01002KT 3500 BR BKN013 BKN030 20/17 Q1015","temp":20,"dewp":17,"wdir":10,"wspd":2,"visib":2.17,"altim":1015,"clouds":[{"cover":"BKN","base":1300},{"cover":"BKN","base":3000}],"obsTime":1775037600}}}