{"updated":1779012121,"count":65,"data":{"SBBE":{"icaoId":"SBBE","flightCategory":"VFR","rawOb":"METAR SBBE 170900Z 16005KT 9999 FEW005 BKN072 25/24 Q1012","temp":25,"dewp":24,"wdir":160,"wspd":5,"visib":"6+","altim":1012,"clouds":[{"cover":"FEW","base":500},{"cover":"BKN","base":7200}],"obsTime":1779008400},"SBBR":{"icaoId":"SBBR","flightCategory":"VFR","rawOb":"METAR SBBR 170900Z 31002KT CAVOK 16/16 Q1019","temp":16,"dewp":16,"wdir":310,"wspd":2,"visib":"6+","altim":1019,"clouds":[],"obsTime":1779008400},"SBBV":{"icaoId":"SBBV","flightCategory":"VFR","rawOb":"METAR SBBV 170900Z 07007KT 9999 SCT035 FEW040TCU BKN100 25/23 Q1011","temp":25,"dewp":23,"wdir":70,"wspd":7,"visib":"6+","altim":1011,"clouds":[{"cover":"SCT","base":3500},{"cover":"FEW","base":4000},{"cover":"BKN","base":10000}],"obsTime":1779008400},"SBCB":{"icaoId":"SBCB","flightCategory":"VFR","rawOb":"METAR SBCB 170900Z 08004KT 9999 SCT020 BKN080 21/19 Q1015","temp":21,"dewp":19,"wdir":80,"wspd":4,"visib":"6+","altim":1015,"clouds":[{"cover":"SCT","base":2000},{"cover":"BKN","base":8000}],"obsTime":1779008400},"SBCF":{"icaoId":"SBCF","flightCategory":"VFR","rawOb":"METAR SBCF 170900Z 16003KT CAVOK 18/18 Q1019","temp":18,"dewp":18,"wdir":160,"wspd":3,"visib":"6+","altim":1019,"clouds":[],"obsTime":1779008400},"SBCG":{"icaoId":"SBCG","flightCategory":"VFR","rawOb":"METAR SBCG 170900Z 35005KT 9999 FEW045 BKN100 23/20 Q1013","temp":23,"dewp":20,"wdir":350,"wspd":5,"visib":"6+","altim":1013,"clouds":[{"cover":"FEW","base":4500},{"cover":"BKN","base":10000}],"obsTime":1779008400},"SBCT":{"icaoId":"SBCT","flightCategory":"MVFR","rawOb":"METAR SBCT 170900Z 10002KT 5000 BR FEW003 BKN080 16/16 Q1016","temp":16,"dewp":16,"wdir":100,"wspd":2,"visib":3.11,"altim":1016,"clouds":[{"cover":"FEW","base":300},{"cover":"BKN","base":8000}],"obsTime":1779008400},"SBEG":{"icaoId":"SBEG","flightCategory":"VFR","rawOb":"METAR SBEG 170900Z 00000KT CAVOK 24/23 Q1011","temp":24,"dewp":23,"wdir":0,"wspd":0,"visib":"6+","altim":1011,"clouds":[],"obsTime":1779008400},"SBFI":{"icaoId":"SBFI","flightCategory":"LIFR","rawOb":"SPECI SBFI 170819Z 19004KT 0800 R15/P2000 R33/P2000 -RA BKN005 BKN070 18/18 Q1013","temp":18,"dewp":18,"wdir":190,"wspd":4,"visib":0.5,"altim":1013,"clouds":[{"cover":"BKN","base":500},{"cover":"BKN","base":7000}],"obsTime":1779005940},"SBFL":{"icaoId":"SBFL","flightCategory":"VFR","rawOb":"METAR SBFL 170900Z VRB01KT 9999 FEW012 BKN100 16/16 Q1013","temp":16,"dewp":16,"wdir":"VRB","wspd":1,"visib":"6+","altim":1013,"clouds":[{"cover":"FEW","base":1200},{"cover":"BKN","base":10000}],"obsTime":1779008400},"SBFZ":{"icaoId":"SBFZ","flightCategory":"VFR","rawOb":"METAR SBFZ 170900Z VRB02KT 9999 SCT017 BKN070 24/23 Q1012","temp":24,"dewp":23,"wdir":"VRB","wspd":2,"visib":"6+","altim":1012,"clouds":[{"cover":"SCT","base":1700},{"cover":"BKN","base":7000}],"obsTime":1779008400},"SBGL":{"icaoId":"SBGL","flightCategory":"MVFR","rawOb":"METAR SBGL 170900Z 18002KT 7000 SCT019 21/19 Q1014","temp":21,"dewp":19,"wdir":180,"wspd":2,"visib":4.35,"altim":1014,"clouds":[{"cover":"SCT","base":1900}],"obsTime":1779008400},"SBGO":{"icaoId":"SBGO","flightCategory":"VFR","rawOb":"METAR SBGO 170900Z VRB01KT CAVOK 20/18 Q1017","temp":20,"dewp":18,"wdir":"VRB","wspd":1,"visib":"6+","altim":1017,"clouds":[],"obsTime":1779008400},"SBGR":{"icaoId":"SBGR","flightCategory":"MVFR","rawOb":"METAR SBGR 170900Z 32002KT 7000 -RA BKN040 OVC080 19/19 Q1019","temp":19,"dewp":19,"wdir":320,"wspd":2,"visib":4.35,"altim":1019,"clouds":[{"cover":"BKN","base":4000},{"cover":"OVC","base":8000}],"obsTime":1779008400},"SBKP":{"icaoId":"SBKP","flightCategory":"MVFR","rawOb":"METAR SBKP 170900Z 17007KT 7000 -RA FEW040 OVC100 19/18 Q1018","temp":19,"dewp":18,"wdir":170,"wspd":7,"visib":4.35,"altim":1018,"clouds":[{"cover":"FEW","base":4000},{"cover":"OVC","base":10000}],"obsTime":1779008400},"SBLO":{"icaoId":"SBLO","flightCategory":"LIFR","rawOb":"METAR SBLO 170900Z 35004KT 5000 -TSRA BKN003 FEW040CB BKN060 OVC100 17/17 Q1015","temp":17,"dewp":17,"wdir":350,"wspd":4,"visib":3.11,"altim":1015,"clouds":[{"cover":"BKN","base":300},{"cover":"FEW","base":4000},{"cover":"BKN","base":6000},{"cover":"OVC","base":10000}],"obsTime":1779008400},"SBMA":{"icaoId":"SBMA","flightCategory":"VFR","rawOb":"METAR SBMA 170900Z 20002KT CAVOK 25/24 Q1012","temp":25,"dewp":24,"wdir":200,"wspd":2,"visib":"6+","altim":1012,"clouds":[],"obsTime":1779008400},"SBMO":{"icaoId":"SBMO","flightCategory":"VFR","rawOb":"METAR SBMO 170900Z 28003KT CAVOK 22/22 Q1014","temp":22,"dewp":22,"wdir":280,"wspd":3,"visib":"6+","altim":1014,"clouds":[],"obsTime":1779008400},"SBMQ":{"icaoId":"SBMQ","flightCategory":"IFR","rawOb":"METAR SBMQ 170900Z 35002KT 9999 BKN009 25/25 Q1012","temp":25,"dewp":25,"wdir":350,"wspd":2,"visib":"6+","altim":1012,"clouds":[{"cover":"BKN","base":900}],"obsTime":1779008400},"SBPA":{"icaoId":"SBPA","flightCategory":"IFR","rawOb":"METAR SBPA 170900Z 15004KT 4000 BR OVC006 17/17 Q1014","temp":17,"dewp":17,"wdir":150,"wspd":4,"visib":2.49,"altim":1014,"clouds":[{"cover":"OVC","base":600}],"obsTime":1779008400},"SBPJ":{"icaoId":"SBPJ","flightCategory":"VFR","rawOb":"METAR SBPJ 170900Z 09003KT CAVOK 24/21 Q1013","temp":24,"dewp":21,"wdir":90,"wspd":3,"visib":"6+","altim":1013,"clouds":[],"obsTime":1779008400},"SBPV":{"icaoId":"SBPV","flightCategory":"VFR","rawOb":"METAR SBPV 170900Z 19001KT CAVOK 25/23 Q1011","temp":25,"dewp":23,"wdir":190,"wspd":1,"visib":"6+","altim":1011,"clouds":[],"obsTime":1779008400},"SBRB":{"icaoId":"SBRB","flightCategory":"VFR","rawOb":"METAR SBRB 170900Z 28002KT CAVOK 23/23 Q1012","temp":23,"dewp":23,"wdir":280,"wspd":2,"visib":"6+","altim":1012,"clouds":[],"obsTime":1779008400},"SBRF":{"icaoId":"SBRF","flightCategory":"MVFR","rawOb":"METAR SBRF 170900Z 22006KT 6000 -RA BKN018 BKN040 24/23 Q1013","temp":24,"dewp":23,"wdir":220,"wspd":6,"visib":3.73,"altim":1013,"clouds":[{"cover":"BKN","base":1800},{"cover":"BKN","base":4000}],"obsTime":1779008400},"SBSG":{"icaoId":"SBSG","flightCategory":"LIFR","rawOb":"METAR SBSG 170900Z 14003KT 110V170 2000 -RA BR BKN002 SCT020 BKN060 23/23 Q1013","temp":23,"dewp":23,"wdir":140,"wspd":3,"visib":1.24,"altim":1013,"clouds":[{"cover":"BKN","base":200},{"cover":"SCT","base":2000},{"cover":"BKN","base":6000}],"obsTime":1779008400},"SBSL":{"icaoId":"SBSL","flightCategory":"VFR","rawOb":"METAR SBSL 170900Z 17002KT 9999 FEW018 SCT070 25/24 Q1012","temp":25,"dewp":24,"wdir":170,"wspd":2,"visib":"6+","altim":1012,"clouds":[{"cover":"FEW","base":1800},{"cover":"SCT","base":7000}],"obsTime":1779008400},"SBSN":{"icaoId":"SBSN","flightCategory":"VFR","rawOb":"METAR SBSN 170900Z 10008KT 9999 FEW010 26/24 Q1011","temp":26,"dewp":24,"wdir":100,"wspd":8,"visib":"6+","altim":1011,"clouds":[{"cover":"FEW","base":1000}],"obsTime":1779008400},"SBSP":{"icaoId":"SBSP","flightCategory":"IFR","rawOb":"METAR SBSP 170900Z 30008KT 260V340 4000 RA BKN006 OVC036 18/18 Q1020","temp":18,"dewp":18,"wdir":300,"wspd":8,"visib":2.49,"altim":1020,"clouds":[{"cover":"BKN","base":600},{"cover":"OVC","base":3600}],"obsTime":1779008400},"SBSV":{"icaoId":"SBSV","flightCategory":"VFR","rawOb":"METAR SBSV 170900Z 28001KT 9999 FEW025 22/21 Q1014","temp":22,"dewp":21,"wdir":280,"wspd":1,"visib":"6+","altim":1014,"clouds":[{"cover":"FEW","base":2500}],"obsTime":1779008400},"SBTE":{"icaoId":"SBTE","flightCategory":"MVFR","rawOb":"METAR SBTE 170900Z 03004KT 9999 BKN012 25/23 Q1012","temp":25,"dewp":23,"wdir":30,"wspd":4,"visib":"6+","altim":1012,"clouds":[{"cover":"BKN","base":1200}],"obsTime":1779008400},"SBVT":{"icaoId":"SBVT","flightCategory":"IFR","rawOb":"METAR SBVT 170900Z 34003KT 3000 BR MIFG FEW001 20/20 Q1015","temp":20,"dewp":20,"wdir":340,"wspd":3,"visib":1.86,"altim":1015,"clouds":[{"cover":"FEW","base":100}],"obsTime":1779008400},"SBUR":{"icaoId":"SBUR","flightCategory":"VFR","rawOb":"METAR SBUR 170900Z 03006KT CAVOK 21/16 Q1017","temp":21,"dewp":16,"wdir":30,"wspd":6,"visib":"6+","altim":1017,"clouds":[],"obsTime":1779008400},"SBME":{"icaoId":"SBME","flightCategory":"VFR","rawOb":"METAR SBME 170900Z 04008KT CAVOK 22/20 Q1014","temp":22,"dewp":20,"wdir":40,"wspd":8,"visib":"6+","altim":1014,"clouds":[],"obsTime":1779008400},"SBMG":{"icaoId":"SBMG","flightCategory":"VFR","rawOb":"METAR SBMG 170900Z AUTO 06005KT 9999 -TSRA //////CB 19/19 Q1014","temp":19,"dewp":19,"wdir":60,"wspd":5,"visib":"6+","altim":1014,"clouds":[],"obsTime":1779008400},"SBMK":{"icaoId":"SBMK","flightCategory":"VFR","rawOb":"METAR SBMK 170900Z 00000KT CAVOK 18/16 Q1018","temp":18,"dewp":16,"wdir":0,"wspd":0,"visib":"6+","altim":1018,"clouds":[],"obsTime":1779008400},"SBNT":{"icaoId":"SBNT","flightCategory":"MVFR","rawOb":"METAR SBNT 170900Z 15005KT 5000 -RA BR FEW008 OVC023 24/23 Q1013","temp":24,"dewp":23,"wdir":150,"wspd":5,"visib":3.11,"altim":1013,"clouds":[{"cover":"FEW","base":800},{"cover":"OVC","base":2300}],"obsTime":1779008400},"SBUL":{"icaoId":"SBUL","flightCategory":"VFR","rawOb":"METAR SBUL 170900Z 13005KT CAVOK 19/16 Q1018","temp":19,"dewp":16,"wdir":130,"wspd":5,"visib":"6+","altim":1018,"clouds":[],"obsTime":1779008400},"SBJU":{"icaoId":"SBJU","flightCategory":"VFR","rawOb":"METAR SBJU 170900Z 00000KT 9999 FEW020 20/18 Q1015","temp":20,"dewp":18,"wdir":0,"wspd":0,"visib":"6+","altim":1015,"clouds":[{"cover":"FEW","base":2000}],"obsTime":1779008400},"SBPS":{"icaoId":"SBPS","flightCategory":"VFR","rawOb":"METAR SBPS 170900Z 26007KT 9999 FEW020 20/20 Q1015","temp":20,"dewp":20,"wdir":260,"wspd":7,"visib":"6+","altim":1015,"clouds":[{"cover":"FEW","base":2000}],"obsTime":1779008400},"SBPL":{"icaoId":"SBPL","flightCategory":"VFR","rawOb":"METAR SBPL 170900Z 11003KT 9999 FEW020 22/20 Q1015","temp":22,"dewp":20,"wdir":110,"wspd":3,"visib":"6+","altim":1015,"clouds":[{"cover":"FEW","base":2000}],"obsTime":1779008400},"SBOI":{"icaoId":"SBOI","flightCategory":"VFR","rawOb":"METAR SBOI 170900Z AUTO 33002KT 9999 // FEW077/// 24/24 Q1012","temp":24,"dewp":24,"wdir":330,"wspd":2,"visib":"6+","altim":1012,"clouds":[{"cover":"FEW","base":7700}],"obsTime":1779008400},"SBSJ":{"icaoId":"SBSJ","flightCategory":"MVFR","rawOb":"SPECI SBSJ 170830Z 00000KT 5000 BR NSC 18/18 Q1017","temp":18,"dewp":18,"wdir":0,"wspd":0,"visib":3.11,"altim":1017,"clouds":[],"obsTime":1779006600},"SBTU":{"icaoId":"SBTU","flightCategory":"LIFR","rawOb":"METAR SBTU 170805Z AUTO 20004KT 7000 // FEW001/// OVC004/// ///// Q1014","temp":null,"dewp":null,"wdir":200,"wspd":4,"visib":4.35,"altim":1014,"clouds":[{"cover":"FEW","base":100},{"cover":"OVC","base":400}],"obsTime":1779005100},"SBES":{"icaoId":"SBES","flightCategory":"MVFR","rawOb":"METAR SBES 170900Z 00000KT 6000 FEW020 SCT100 18/// Q1015","temp":null,"dewp":null,"wdir":0,"wspd":0,"visib":3.73,"altim":1015,"clouds":[{"cover":"FEW","base":2000},{"cover":"SCT","base":10000}],"obsTime":1779008400},"SBIP":{"icaoId":"SBIP","flightCategory":"LIFR","rawOb":"METAR SBIP 170900Z AUTO 02003KT 0450 FG VV002 20/20 Q1017","temp":20,"dewp":20,"wdir":20,"wspd":3,"visib":0.28,"altim":1017,"clouds":[{"cover":"OVX","base":200}],"obsTime":1779008400},"SBKG":{"icaoId":"SBKG","flightCategory":"VFR","rawOb":"METAR SBKG 170900Z 16003KT CAVOK 21/20 Q1016","temp":21,"dewp":20,"wdir":160,"wspd":3,"visib":"6+","altim":1016,"clouds":[],"obsTime":1779008400},"SBAR":{"icaoId":"SBAR","flightCategory":"VFR","rawOb":"METAR SBAR 170900Z 32003KT 9999 SCT021 22/22 Q1014","temp":22,"dewp":22,"wdir":320,"wspd":3,"visib":"6+","altim":1014,"clouds":[{"cover":"SCT","base":2100}],"obsTime":1779008400},"SBSC":{"icaoId":"SBSC","flightCategory":"MVFR","rawOb":"METAR SBSC 170900Z 00000KT 5000 BR SCT015 19/18 Q1015","temp":19,"dewp":18,"wdir":0,"wspd":0,"visib":3.11,"altim":1015,"clouds":[{"cover":"SCT","base":1500}],"obsTime":1779008400},"SBSM":{"icaoId":"SBSM","flightCategory":"IFR","rawOb":"METAR SBSM 170900Z 12003KT 080V160 7000 BKN006 OVC008 14/14 Q1015","temp":14,"dewp":14,"wdir":120,"wspd":3,"visib":4.35,"altim":1015,"clouds":[{"cover":"BKN","base":600},{"cover":"OVC","base":800}],"obsTime":1779008400},"SBSR":{"icaoId":"SBSR","flightCategory":"VFR","rawOb":"METAR SBSR 170900Z 00000KT CAVOK 20/17 Q1015","temp":20,"dewp":17,"wdir":0,"wspd":0,"visib":"6+","altim":1015,"clouds":[],"obsTime":1779008400},"SBAX":{"icaoId":"SBAX","flightCategory":"VFR","rawOb":"METAR SBAX 170900Z AUTO 11004KT CAVOK 18/18 Q1019","temp":18,"dewp":18,"wdir":110,"wspd":4,"visib":"6+","altim":1019,"clouds":[],"obsTime":1779008400},"SBBH":{"icaoId":"SBBH","flightCategory":"VFR","rawOb":"METAR SBBH 170900Z 10003KT CAVOK 18/18 Q1019","temp":18,"dewp":18,"wdir":100,"wspd":3,"visib":"6+","altim":1019,"clouds":[],"obsTime":1779008400},"SBBU":{"icaoId":"SBBU","flightCategory":"VFR","rawOb":"METAR SBBU 170900Z 13006KT 9999 SCT040 SCT100 20/20 Q1016","temp":20,"dewp":20,"wdir":130,"wspd":6,"visib":"6+","altim":1016,"clouds":[{"cover":"SCT","base":4000},{"cover":"SCT","base":10000}],"obsTime":1779008400},"SBCO":{"icaoId":"SBCO","flightCategory":"LIFR","rawOb":"METAR SBCO 170900Z 12004KT 080V180 8000 -TSRA BKN004 FEW020CB 17/17 Q1014","temp":17,"dewp":17,"wdir":120,"wspd":4,"visib":4.97,"altim":1014,"clouds":[{"cover":"BKN","base":400},{"cover":"FEW","base":2000}],"obsTime":1779008400},"SBDN":{"icaoId":"SBDN","flightCategory":"VFR","rawOb":"METAR SBDN 170900Z 09008KT 9999 TS FEW004 SCT039 FEW045CB BKN082 19/18 Q1013 RERA","temp":19,"dewp":18,"wdir":90,"wspd":8,"visib":"6+","altim":1013,"clouds":[{"cover":"FEW","base":400},{"cover":"SCT","base":3900},{"cover":"FEW","base":4500},{"cover":"BKN","base":8200}],"obsTime":1779008400},"SBJP":{"icaoId":"SBJP","flightCategory":"IFR","rawOb":"METAR SBJP 170900Z 12003KT 3000 RA BR BKN012 OVC100 24/24 Q1014","temp":24,"dewp":24,"wdir":120,"wspd":3,"visib":1.86,"altim":1014,"clouds":[{"cover":"BKN","base":1200},{"cover":"OVC","base":10000}],"obsTime":1779008400},"SBLE":{"icaoId":"SBLE","flightCategory":"VFR","rawOb":"METAR SBLE 170900Z AUTO 32001KT CAVOK ///// Q////","temp":null,"dewp":null,"wdir":320,"wspd":1,"visib":"6+","altim":null,"clouds":[],"obsTime":1779008400},"SBAN":{"icaoId":"SBAN","flightCategory":"VFR","rawOb":"METAR SBAN 170900Z 20009KT CAVOK 19/16 Q1019","temp":19,"dewp":16,"wdir":200,"wspd":9,"visib":"6+","altim":1019,"clouds":[],"obsTime":1779008400},"SBNM":{"icaoId":"SBNM","flightCategory":"MVFR","rawOb":"METAR SBNM 170900Z AUTO 09008KT 7000 NSC 13/13 Q1014","temp":13,"dewp":13,"wdir":90,"wspd":8,"visib":4.35,"altim":1014,"clouds":[],"obsTime":1779008400},"SBPF":{"icaoId":"SBPF","flightCategory":"IFR","rawOb":"METAR SBPF 170900Z 15010KT 3000 BR BKN030 12/11 Q1015","temp":12,"dewp":11,"wdir":150,"wspd":10,"visib":1.86,"altim":1015,"clouds":[{"cover":"BKN","base":3000}],"obsTime":1779008400},"SBGW":{"icaoId":"SBGW","flightCategory":"IFR","rawOb":"METAR SBGW 170900Z 00000KT 2000 BR OVC006 19/15 Q1017","temp":19,"dewp":15,"wdir":0,"wspd":0,"visib":1.24,"altim":1017,"clouds":[{"cover":"OVC","base":600}],"obsTime":1779008400},"SBLS":{"icaoId":"SBLS","flightCategory":"VFR","rawOb":"METAR SBLS 170900Z 17006KT CAVOK 19/18 Q1019","temp":19,"dewp":18,"wdir":170,"wspd":6,"visib":"6+","altim":1019,"clouds":[],"obsTime":1779008400},"SBMT":{"icaoId":"SBMT","flightCategory":"IFR","rawOb":"METAR SBMT 170900Z 28006KT 3000 -RA SCT007 OVC010 18/18 Q1019","temp":18,"dewp":18,"wdir":280,"wspd":6,"visib":1.86,"altim":1019,"clouds":[{"cover":"SCT","base":700},{"cover":"OVC","base":1000}],"obsTime":1779008400},"SBJV":{"icaoId":"SBJV","flightCategory":"LIFR","rawOb":"METAR SBJV 170900Z 29001KT 1600 R33/P2000 -DZ BR OVC003 19/19 Q1013","temp":19,"dewp":19,"wdir":290,"wspd":1,"visib":0.99,"altim":1013,"clouds":[{"cover":"OVC","base":300}],"obsTime":1779008400},"SBTA":{"icaoId":"SBTA","flightCategory":"MVFR","rawOb":"METAR SBTA 170900Z 17001KT 8000 FEW010 BKN100 18/18 Q1016","temp":18,"dewp":18,"wdir":170,"wspd":1,"visib":4.97,"altim":1016,"clouds":[{"cover":"FEW","base":1000},{"cover":"BKN","base":10000}],"obsTime":1779008400}}}