{"updated":1774117142,"count":84,"data":{"SBFI":{"icaoId":"SBFI","flightCategory":"VFR","rawOb":"METAR SBFI 211700Z 36011G24KT 9999 -TSRA SCT035 FEW040CB BKN080 32/24 Q1009","temp":32,"dewp":24,"wdir":360,"wspd":11,"visib":"6+","altim":1009,"clouds":[{"cover":"SCT","base":3500},{"cover":"FEW","base":4000},{"cover":"BKN","base":8000}],"obsTime":1774112400},"SBLO":{"icaoId":"SBLO","flightCategory":"VFR","rawOb":"METAR SBLO 211700Z 09004KT 9999 SCT030 31/20 Q1012","temp":31,"dewp":20,"wdir":90,"wspd":4,"visib":"6+","altim":1012,"clouds":[{"cover":"SCT","base":3000}],"obsTime":1774112400},"SBEG":{"icaoId":"SBEG","flightCategory":"VFR","rawOb":"METAR SBEG 211700Z 05006KT 9999 SCT020 33/24 Q1009","temp":33,"dewp":24,"wdir":50,"wspd":6,"visib":"6+","altim":1009,"clouds":[{"cover":"SCT","base":2000}],"obsTime":1774112400},"SBMA":{"icaoId":"SBMA","flightCategory":"VFR","rawOb":"METAR SBMA 211700Z 13004KT 9999 SCT020 BKN100 30/22 Q1011","temp":30,"dewp":22,"wdir":130,"wspd":4,"visib":"6+","altim":1011,"clouds":[{"cover":"SCT","base":2000},{"cover":"BKN","base":10000}],"obsTime":1774112400},"SBME":{"icaoId":"SBME","flightCategory":"VFR","rawOb":"METAR SBME 211700Z 18008KT 9999 FEW025 SCT100 31/23 Q1011","temp":31,"dewp":23,"wdir":180,"wspd":8,"visib":"6+","altim":1011,"clouds":[{"cover":"FEW","base":2500},{"cover":"SCT","base":10000}],"obsTime":1774112400},"SBBE":{"icaoId":"SBBE","flightCategory":"VFR","rawOb":"METAR SBBE 211700Z 11004KT 9999 FEW049 31/23 Q1010","temp":31,"dewp":23,"wdir":110,"wspd":4,"visib":"6+","altim":1010,"clouds":[{"cover":"FEW","base":4900}],"obsTime":1774112400},"SBMG":{"icaoId":"SBMG","flightCategory":"VFR","rawOb":"METAR SBMG 211700Z 36010KT 9999 BKN045 FEW050TCU SCT090 33/21 Q1011","temp":33,"dewp":21,"wdir":360,"wspd":10,"visib":"6+","altim":1011,"clouds":[{"cover":"BKN","base":4500},{"cover":"FEW","base":5000},{"cover":"SCT","base":9000}],"obsTime":1774112400},"SBMK":{"icaoId":"SBMK","flightCategory":"VFR","rawOb":"METAR SBMK 211700Z 25006KT 9999 SCT040 BKN100 27/20 Q1014","temp":27,"dewp":20,"wdir":250,"wspd":6,"visib":"6+","altim":1014,"clouds":[{"cover":"SCT","base":4000},{"cover":"BKN","base":10000}],"obsTime":1774112400},"SBFL":{"icaoId":"SBFL","flightCategory":"VFR","rawOb":"METAR SBFL 211700Z 36011G22KT 9999 FEW026 31/24 Q1008","temp":31,"dewp":24,"wdir":360,"wspd":11,"visib":"6+","altim":1008,"clouds":[{"cover":"FEW","base":2600}],"obsTime":1774112400},"SBMO":{"icaoId":"SBMO","flightCategory":"VFR","rawOb":"METAR SBMO 211700Z 10012KT 9999 FEW030 32/21 Q1010","temp":32,"dewp":21,"wdir":100,"wspd":12,"visib":"6+","altim":1010,"clouds":[{"cover":"FEW","base":3000}],"obsTime":1774112400},"SBMQ":{"icaoId":"SBMQ","flightCategory":"MVFR","rawOb":"METAR SBMQ 211700Z 07006KT 9999 BKN021 30/25 Q1010","temp":30,"dewp":25,"wdir":70,"wspd":6,"visib":"6+","altim":1010,"clouds":[{"cover":"BKN","base":2100}],"obsTime":1774112400},"SBCG":{"icaoId":"SBCG","flightCategory":"VFR","rawOb":"METAR SBCG 211700Z 33011KT 300V010 9999 BKN035 BKN080 30/21 Q1012","temp":30,"dewp":21,"wdir":330,"wspd":11,"visib":"6+","altim":1012,"clouds":[{"cover":"BKN","base":3500},{"cover":"BKN","base":8000}],"obsTime":1774112400},"SBNT":{"icaoId":"SBNT","flightCategory":"VFR","rawOb":"METAR SBNT 211700Z 11014KT 9999 SCT030 31/24 Q1009","temp":31,"dewp":24,"wdir":110,"wspd":14,"visib":"6+","altim":1009,"clouds":[{"cover":"SCT","base":3000}],"obsTime":1774112400},"SBBV":{"icaoId":"SBBV","flightCategory":"VFR","rawOb":"METAR SBBV 211700Z 07009KT 9999 SCT035 SCT070 35/19 Q1009","temp":35,"dewp":19,"wdir":70,"wspd":9,"visib":"6+","altim":1009,"clouds":[{"cover":"SCT","base":3500},{"cover":"SCT","base":7000}],"obsTime":1774112400},"SBPA":{"icaoId":"SBPA","flightCategory":"VFR","rawOb":"METAR SBPA 211700Z VRB04KT 9999 FEW040 34/21 Q1006","temp":34,"dewp":21,"wdir":"VRB","wspd":4,"visib":"6+","altim":1006,"clouds":[{"cover":"FEW","base":4000}],"obsTime":1774112400},"SBFZ":{"icaoId":"SBFZ","flightCategory":"VFR","rawOb":"METAR SBFZ 211700Z 09009KT 9999 VCSH FEW020TCU SCT030 BKN100 31/24 Q1009","temp":31,"dewp":24,"wdir":90,"wspd":9,"visib":"6+","altim":1009,"clouds":[{"cover":"FEW","base":2000},{"cover":"SCT","base":3000},{"cover":"BKN","base":10000}],"obsTime":1774112400},"SBCP":{"icaoId":"SBCP","flightCategory":"VFR","rawOb":"METAR SBCP 211700Z 22010KT 9999 SCT020 28/24 Q1010","temp":28,"dewp":24,"wdir":220,"wspd":10,"visib":"6+","altim":1010,"clouds":[{"cover":"SCT","base":2000}],"obsTime":1774112400},"SBPJ":{"icaoId":"SBPJ","flightCategory":"VFR","rawOb":"METAR SBPJ 211700Z 27005KT 9999 SCT025 BKN100 30/24 Q1012","temp":30,"dewp":24,"wdir":270,"wspd":5,"visib":"6+","altim":1012,"clouds":[{"cover":"SCT","base":2500},{"cover":"BKN","base":10000}],"obsTime":1774112400},"SBGL":{"icaoId":"SBGL","flightCategory":"VFR","rawOb":"METAR SBGL 211700Z 13012KT 9999 FEW030 29/21 Q1011","temp":29,"dewp":21,"wdir":130,"wspd":12,"visib":"6+","altim":1011,"clouds":[{"cover":"FEW","base":3000}],"obsTime":1774112400},"SBPV":{"icaoId":"SBPV","flightCategory":"VFR","rawOb":"METAR SBPV 211700Z 07004KT 9999 FEW030 33/23 Q1008","temp":33,"dewp":23,"wdir":70,"wspd":4,"visib":"6+","altim":1008,"clouds":[{"cover":"FEW","base":3000}],"obsTime":1774112400},"SBRB":{"icaoId":"SBRB","flightCategory":"MVFR","rawOb":"METAR SBRB 211700Z 02007KT 9999 BKN030 31/24 Q1008","temp":31,"dewp":24,"wdir":20,"wspd":7,"visib":"6+","altim":1008,"clouds":[{"cover":"BKN","base":3000}],"obsTime":1774112400},"SBAT":{"icaoId":"SBAT","flightCategory":"VFR","rawOb":"METAR SBAT 211700Z 04005KT 9999 SCT025 31/24 Q1011","temp":31,"dewp":24,"wdir":40,"wspd":5,"visib":"6+","altim":1011,"clouds":[{"cover":"SCT","base":2500}],"obsTime":1774112400},"SBGO":{"icaoId":"SBGO","flightCategory":"VFR","rawOb":"METAR SBGO 211700Z 29009KT 260V330 9999 FEW035 SCT100 30/20 Q1015","temp":30,"dewp":20,"wdir":290,"wspd":9,"visib":"6+","altim":1015,"clouds":[{"cover":"FEW","base":3500},{"cover":"SCT","base":10000}],"obsTime":1774112400},"SBRF":{"icaoId":"SBRF","flightCategory":"VFR","rawOb":"METAR SBRF 211700Z 11010KT 080V140 9999 FEW025 31/24 Q1010","temp":31,"dewp":24,"wdir":110,"wspd":10,"visib":"6+","altim":1010,"clouds":[{"cover":"FEW","base":2500}],"obsTime":1774112400},"SBCR":{"icaoId":"SBCR","flightCategory":"VFR","rawOb":"METAR SBCR 211700Z 04006KT 010V080 9999 SCT040 FEW045TCU BKN100 32/24 Q1008","temp":32,"dewp":24,"wdir":40,"wspd":6,"visib":"6+","altim":1008,"clouds":[{"cover":"SCT","base":4000},{"cover":"FEW","base":4500},{"cover":"BKN","base":10000}],"obsTime":1774112400},"SBSG":{"icaoId":"SBSG","flightCategory":"VFR","rawOb":"METAR SBSG 211700Z 10013KT 080V140 9999 SCT030 31/24 Q1010","temp":31,"dewp":24,"wdir":100,"wspd":13,"visib":"6+","altim":1010,"clouds":[{"cover":"SCT","base":3000}],"obsTime":1774112400},"SBSL":{"icaoId":"SBSL","flightCategory":"VFR","rawOb":"METAR SBSL 211700Z 23002KT 9999 FEW010 SCT090 28/22 Q1010","temp":28,"dewp":22,"wdir":230,"wspd":2,"visib":"6+","altim":1010,"clouds":[{"cover":"FEW","base":1000},{"cover":"SCT","base":9000}],"obsTime":1774112400},"SBGR":{"icaoId":"SBGR","flightCategory":"VFR","rawOb":"METAR SBGR 211700Z 17004KT 9999 SCT049 29/17 Q1014","temp":29,"dewp":17,"wdir":170,"wspd":4,"visib":"6+","altim":1014,"clouds":[{"cover":"SCT","base":4900}],"obsTime":1774112400},"SBHT":{"icaoId":"SBHT","flightCategory":"MVFR","rawOb":"METAR SBHT 211700Z 20003KT 9999 BKN023 BKN100 31/22 Q1011","temp":31,"dewp":22,"wdir":200,"wspd":3,"visib":"6+","altim":1011,"clouds":[{"cover":"BKN","base":2300},{"cover":"BKN","base":10000}],"obsTime":1774112400},"SBSN":{"icaoId":"SBSN","flightCategory":"VFR","rawOb":"METAR SBSN 211700Z 08010KT 9999 SCT026 29/24 Q1010","temp":29,"dewp":24,"wdir":80,"wspd":10,"visib":"6+","altim":1010,"clouds":[{"cover":"SCT","base":2600}],"obsTime":1774112400},"SBSP":{"icaoId":"SBSP","flightCategory":"VFR","rawOb":"METAR SBSP 211700Z VRB05KT CAVOK 29/16 Q1015","temp":29,"dewp":16,"wdir":"VRB","wspd":5,"visib":"6+","altim":1015,"clouds":[],"obsTime":1774112400},"SBCT":{"icaoId":"SBCT","flightCategory":"VFR","rawOb":"METAR SBCT 211700Z 23006KT 180V270 9999 SCT045 29/18 Q1015","temp":29,"dewp":18,"wdir":230,"wspd":6,"visib":"6+","altim":1015,"clouds":[{"cover":"SCT","base":4500}],"obsTime":1774112400},"SBIL":{"icaoId":"SBIL","flightCategory":"VFR","rawOb":"METAR SBIL 211700Z 06009KT 9999 FEW023 32/26 Q1010","temp":32,"dewp":26,"wdir":60,"wspd":9,"visib":"6+","altim":1010,"clouds":[{"cover":"FEW","base":2300}],"obsTime":1774112400},"SBSV":{"icaoId":"SBSV","flightCategory":"VFR","rawOb":"METAR SBSV 211700Z 10010KT 060V120 9999 SCT026 31/24 Q1010","temp":31,"dewp":24,"wdir":100,"wspd":10,"visib":"6+","altim":1010,"clouds":[{"cover":"SCT","base":2600}],"obsTime":1774112400},"SBCB":{"icaoId":"SBCB","flightCategory":"VFR","rawOb":"METAR SBCB 211700Z 23009KT 9999 FEW020 28/23 Q1012","temp":28,"dewp":23,"wdir":230,"wspd":9,"visib":"6+","altim":1012,"clouds":[{"cover":"FEW","base":2000}],"obsTime":1774112400},"SBTE":{"icaoId":"SBTE","flightCategory":"MVFR","rawOb":"METAR SBTE 211700Z 31009KT 9999 BKN025 BKN090 30/24 Q1010","temp":30,"dewp":24,"wdir":310,"wspd":9,"visib":"6+","altim":1010,"clouds":[{"cover":"BKN","base":2500},{"cover":"BKN","base":9000}],"obsTime":1774112400},"SBUL":{"icaoId":"SBUL","flightCategory":"VFR","rawOb":"METAR SBUL 211700Z 05005KT 360V080 9999 SCT036 FEW040TCU 27/21 Q1016","temp":27,"dewp":21,"wdir":50,"wspd":5,"visib":"6+","altim":1016,"clouds":[{"cover":"SCT","base":3600},{"cover":"FEW","base":4000}],"obsTime":1774112400},"SBBR":{"icaoId":"SBBR","flightCategory":"VFR","rawOb":"METAR SBBR 211700Z 05006KT 010V080 9999 TS VCSH BKN040 FEW045CB BKN070 24/20 Q1016 RETS","temp":24,"dewp":20,"wdir":50,"wspd":6,"visib":"6+","altim":1016,"clouds":[{"cover":"BKN","base":4000},{"cover":"FEW","base":4500},{"cover":"BKN","base":7000}],"obsTime":1774112400},"SBJU":{"icaoId":"SBJU","flightCategory":"VFR","rawOb":"METAR SBJU 211700Z 00000KT 9999 SCT022 31/21 Q1012","temp":31,"dewp":21,"wdir":0,"wspd":0,"visib":"6+","altim":1012,"clouds":[{"cover":"SCT","base":2200}],"obsTime":1774112400},"SBUR":{"icaoId":"SBUR","flightCategory":"VFR","rawOb":"METAR SBUR 211700Z 28004KT 9999 BKN040 30/19 Q1014","temp":30,"dewp":19,"wdir":280,"wspd":4,"visib":"6+","altim":1014,"clouds":[{"cover":"BKN","base":4000}],"obsTime":1774112400},"SBKP":{"icaoId":"SBKP","flightCategory":"VFR","rawOb":"METAR SBKP 211700Z 27003KT 9999 SCT040 30/19 Q1013","temp":30,"dewp":19,"wdir":270,"wspd":3,"visib":"6+","altim":1013,"clouds":[{"cover":"SCT","base":4000}],"obsTime":1774112400},"SBVT":{"icaoId":"SBVT","flightCategory":"VFR","rawOb":"METAR SBVT 211700Z 15008KT 9999 VCSH BKN040 BKN052 25/23 Q1010","temp":25,"dewp":23,"wdir":150,"wspd":8,"visib":"6+","altim":1010,"clouds":[{"cover":"BKN","base":4000},{"cover":"BKN","base":5200}],"obsTime":1774112400},"SBCF":{"icaoId":"SBCF","flightCategory":"MVFR","rawOb":"METAR SBCF 211700Z 35011KT 9999 BKN030 FEW035TCU 27/21 Q1014","temp":27,"dewp":21,"wdir":350,"wspd":11,"visib":"6+","altim":1014,"clouds":[{"cover":"BKN","base":3000},{"cover":"FEW","base":3500}],"obsTime":1774112400},"SBCZ":{"icaoId":"SBCZ","flightCategory":"MVFR","rawOb":"METAR SBCZ 211700Z 24002KT 8000 FEW006 BKN100 22/22 Q1009 RETS","temp":22,"dewp":22,"wdir":240,"wspd":2,"visib":4.97,"altim":1009,"clouds":[{"cover":"FEW","base":600},{"cover":"BKN","base":10000}],"obsTime":1774112400},"SBBQ":{"icaoId":"SBBQ","flightCategory":"VFR","rawOb":"METAR SBBQ 211700Z 22004KT 170V310 9999 BKN040 28/16 Q1017","temp":28,"dewp":16,"wdir":220,"wspd":4,"visib":"6+","altim":1017,"clouds":[{"cover":"BKN","base":4000}],"obsTime":1774112400},"SBCJ":{"icaoId":"SBCJ","flightCategory":"VFR","rawOb":"SPECI SBCJ 211625Z 00000KT 9999 SCT013 SCT100 26/22 Q1016","temp":26,"dewp":22,"wdir":0,"wspd":0,"visib":"6+","altim":1016,"clouds":[{"cover":"SCT","base":1300},{"cover":"SCT","base":10000}],"obsTime":1774110300},"SBKG":{"icaoId":"SBKG","flightCategory":"MVFR","rawOb":"METAR SBKG 211700Z 10009KT 9999 BKN025 32/20 Q1011","temp":32,"dewp":20,"wdir":100,"wspd":9,"visib":"6+","altim":1011,"clouds":[{"cover":"BKN","base":2500}],"obsTime":1774112400},"SBOI":{"icaoId":"SBOI","flightCategory":"MVFR","rawOb":"METAR SBOI 211700Z AUTO 06007KT 030V100 9999 -RA SCT017 BKN024 26/24 Q1011","temp":26,"dewp":24,"wdir":60,"wspd":7,"visib":"6+","altim":1011,"clouds":[{"cover":"SCT","base":1700},{"cover":"BKN","base":2400}],"obsTime":1774112400},"SBPB":{"icaoId":"SBPB","flightCategory":"MVFR","rawOb":"METAR SBPB 211700Z 28010KT 9999 SCT015 BKN020 BKN080 27/24 Q1010","temp":27,"dewp":24,"wdir":280,"wspd":10,"visib":"6+","altim":1010,"clouds":[{"cover":"SCT","base":1500},{"cover":"BKN","base":2000},{"cover":"BKN","base":8000}],"obsTime":1774112400},"SBCO":{"icaoId":"SBCO","flightCategory":"VFR","rawOb":"METAR SBCO 211700Z VRB03KT CAVOK 35/22 Q1006","temp":35,"dewp":22,"wdir":"VRB","wspd":3,"visib":"6+","altim":1006,"clouds":[],"obsTime":1774112400},"SBPL":{"icaoId":"SBPL","flightCategory":"VFR","rawOb":"METAR SBPL 211700Z 05002KT 9999 SCT035 34/20 Q1011","temp":34,"dewp":20,"wdir":50,"wspd":2,"visib":"6+","altim":1011,"clouds":[{"cover":"SCT","base":3500}],"obsTime":1774112400},"SBAR":{"icaoId":"SBAR","flightCategory":"VFR","rawOb":"METAR SBAR 211700Z 11012KT 9999 FEW026 31/23 Q1010","temp":31,"dewp":23,"wdir":110,"wspd":12,"visib":"6+","altim":1010,"clouds":[{"cover":"FEW","base":2600}],"obsTime":1774112400},"SBPP":{"icaoId":"SBPP","flightCategory":"MVFR","rawOb":"METAR SBPP 211700Z 32013KT 9999 BKN025 30/21 Q1012","temp":30,"dewp":21,"wdir":320,"wspd":13,"visib":"6+","altim":1012,"clouds":[{"cover":"BKN","base":2500}],"obsTime":1774112400},"SBDN":{"icaoId":"SBDN","flightCategory":"VFR","rawOb":"METAR SBDN 211700Z 36004KT 270V070 9999 BKN040 32/21 Q1012","temp":32,"dewp":21,"wdir":360,"wspd":4,"visib":"6+","altim":1012,"clouds":[{"cover":"BKN","base":4000}],"obsTime":1774112400},"SBPS":{"icaoId":"SBPS","flightCategory":"VFR","rawOb":"METAR SBPS 211700Z 05015KT 9999 SCT020 BKN100 31/23 Q1009","temp":31,"dewp":23,"wdir":50,"wspd":15,"visib":"6+","altim":1009,"clouds":[{"cover":"SCT","base":2000},{"cover":"BKN","base":10000}],"obsTime":1774112400},"SBBU":{"icaoId":"SBBU","flightCategory":"VFR","rawOb":"METAR SBBU 211700Z 04002KT 9999 FEW040 32/19 Q1013","temp":32,"dewp":19,"wdir":40,"wspd":2,"visib":"6+","altim":1013,"clouds":[{"cover":"FEW","base":4000}],"obsTime":1774112400},"SBSC":{"icaoId":"SBSC","flightCategory":"VFR","rawOb":"METAR SBSC 211700Z 17011KT 9999 FEW040 29/23 Q1011","temp":29,"dewp":23,"wdir":170,"wspd":11,"visib":"6+","altim":1011,"clouds":[{"cover":"FEW","base":4000}],"obsTime":1774112400},"SBBH":{"icaoId":"SBBH","flightCategory":"VFR","rawOb":"METAR SBBH 211700Z 28008KT 9999 BKN035 29/21 Q1014","temp":29,"dewp":21,"wdir":280,"wspd":8,"visib":"6+","altim":1014,"clouds":[{"cover":"BKN","base":3500}],"obsTime":1774112400},"SBSJ":{"icaoId":"SBSJ","flightCategory":"VFR","rawOb":"METAR SBSJ 211700Z 21006KT 9999 FEW033 29/// Q1013","temp":null,"dewp":null,"wdir":210,"wspd":6,"visib":"6+","altim":1013,"clouds":[{"cover":"FEW","base":3300}],"obsTime":1774112400},"SBSM":{"icaoId":"SBSM","flightCategory":"VFR","rawOb":"METAR SBSM 211700Z 10004KT 050V150 9999 VCSH SCT040 FEW045TCU BKN060 31/24 Q1004","temp":31,"dewp":24,"wdir":100,"wspd":4,"visib":"6+","altim":1004,"clouds":[{"cover":"SCT","base":4000},{"cover":"FEW","base":4500},{"cover":"BKN","base":6000}],"obsTime":1774112400},"SBES":{"icaoId":"SBES","flightCategory":"VFR","rawOb":"METAR SBES 211700Z 20008KT 150V240 9999 FEW023 28/// Q1011","temp":null,"dewp":null,"wdir":200,"wspd":8,"visib":"6+","altim":1011,"clouds":[{"cover":"FEW","base":2300}],"obsTime":1774112400},"SBGM":{"icaoId":"SBGM","flightCategory":"VFR","rawOb":"METAR SBGM 211700Z 35009KT 9999 SCT020 30/24 Q1009","temp":30,"dewp":24,"wdir":350,"wspd":9,"visib":"6+","altim":1009,"clouds":[{"cover":"SCT","base":2000}],"obsTime":1774112400},"SBSR":{"icaoId":"SBSR","flightCategory":"MVFR","rawOb":"METAR SBSR 211700Z VRB05KT 9999 BKN030 30/21 Q1013","temp":30,"dewp":21,"wdir":"VRB","wspd":5,"visib":"6+","altim":1013,"clouds":[{"cover":"BKN","base":3000}],"obsTime":1774112400},"SBCC":{"icaoId":"SBCC","flightCategory":"MVFR","rawOb":"METAR SBCC 211700Z 02007KT 320V070 9999 VCSH FEW015 BKN020 FEW025TCU BKN100 29/21 Q1011","temp":29,"dewp":21,"wdir":20,"wspd":7,"visib":"6+","altim":1011,"clouds":[{"cover":"FEW","base":1500},{"cover":"BKN","base":2000},{"cover":"FEW","base":2500},{"cover":"BKN","base":10000}],"obsTime":1774112400},"SBTF":{"icaoId":"SBTF","flightCategory":"VFR","rawOb":"METAR SBTF 211700Z 08006KT 9999 FEW019 34/24 Q1008","temp":34,"dewp":24,"wdir":80,"wspd":6,"visib":"6+","altim":1008,"clouds":[{"cover":"FEW","base":1900}],"obsTime":1774112400},"SBAX":{"icaoId":"SBAX","flightCategory":"VFR","rawOb":"METAR SBAX 211700Z AUTO 33005KT 300V030 9999 FEW043 28/17 Q1015","temp":28,"dewp":17,"wdir":330,"wspd":5,"visib":"6+","altim":1015,"clouds":[{"cover":"FEW","base":4300}],"obsTime":1774112400},"SBTT":{"icaoId":"SBTT","flightCategory":"VFR","rawOb":"METAR SBTT 211700Z 11007KT 9999 SCT020 32/23 Q1008","temp":32,"dewp":23,"wdir":110,"wspd":7,"visib":"6+","altim":1008,"clouds":[{"cover":"SCT","base":2000}],"obsTime":1774112400},"SBIP":{"icaoId":"SBIP","flightCategory":"VFR","rawOb":"METAR SBIP 211700Z AUTO 16008KT 130V210 9999 FEW028 30/22 Q1010","temp":30,"dewp":22,"wdir":160,"wspd":8,"visib":"6+","altim":1010,"clouds":[{"cover":"FEW","base":2800}],"obsTime":1774112400},"SBUY":{"icaoId":"SBUY","flightCategory":"VFR","rawOb":"METAR SBUY 211700Z 13007KT 9999 SCT025 33/22 Q1007","temp":33,"dewp":22,"wdir":130,"wspd":7,"visib":"6+","altim":1007,"clouds":[{"cover":"SCT","base":2500}],"obsTime":1774112400},"SBVH":{"icaoId":"SBVH","flightCategory":"MVFR","rawOb":"METAR SBVH 211700Z 36010KT 9999 VCSH BKN026 FEW035TCU 28/22 Q1012","temp":28,"dewp":22,"wdir":360,"wspd":10,"visib":"6+","altim":1012,"clouds":[{"cover":"BKN","base":2600},{"cover":"FEW","base":3500}],"obsTime":1774112400},"SBTC":{"icaoId":"SBTC","flightCategory":"VFR","rawOb":"METAR SBTC 211700Z 04010KT 9999 FEW025 31/25 Q1010","temp":31,"dewp":25,"wdir":40,"wspd":10,"visib":"6+","altim":1010,"clouds":[{"cover":"FEW","base":2500}],"obsTime":1774112400},"SBAF":{"icaoId":"SBAF","flightCategory":"VFR","rawOb":"METAR SBAF 211700Z 21012KT 9999 SCT030 29/22 Q1011","temp":29,"dewp":22,"wdir":210,"wspd":12,"visib":"6+","altim":1011,"clouds":[{"cover":"SCT","base":3000}],"obsTime":1774112400},"SBAN":{"icaoId":"SBAN","flightCategory":"VFR","rawOb":"METAR SBAN 211700Z 33004KT 9999 SCT030 FEW035TCU 26/18 Q1017","temp":26,"dewp":18,"wdir":330,"wspd":4,"visib":"6+","altim":1017,"clouds":[{"cover":"SCT","base":3000},{"cover":"FEW","base":3500}],"obsTime":1774112400},"SBGW":{"icaoId":"SBGW","flightCategory":"VFR","rawOb":"METAR SBGW 211700Z 27006KT 210V330 9999 SCT024 30/17 Q1012","temp":30,"dewp":17,"wdir":270,"wspd":6,"visib":"6+","altim":1012,"clouds":[{"cover":"SCT","base":2400}],"obsTime":1774112400},"SBIH":{"icaoId":"SBIH","flightCategory":"VFR","rawOb":"METAR SBIH 211700Z 07006KT 9999 SCT020 30/23 Q1010","temp":30,"dewp":23,"wdir":70,"wspd":6,"visib":"6+","altim":1010,"clouds":[{"cover":"SCT","base":2000}],"obsTime":1774112400},"SBJP":{"icaoId":"SBJP","flightCategory":"VFR","rawOb":"METAR SBJP 211700Z 07010KT 030V120 9999 SCT030 32/24 Q1010","temp":32,"dewp":24,"wdir":70,"wspd":10,"visib":"6+","altim":1010,"clouds":[{"cover":"SCT","base":3000}],"obsTime":1774112400},"SBJR":{"icaoId":"SBJR","flightCategory":"VFR","rawOb":"METAR SBJR 211700Z 17009KT 9999 FEW025 30/22 Q1011","temp":30,"dewp":22,"wdir":170,"wspd":9,"visib":"6+","altim":1011,"clouds":[{"cover":"FEW","base":2500}],"obsTime":1774112400},"SBJV":{"icaoId":"SBJV","flightCategory":"VFR","rawOb":"METAR SBJV 211700Z 12009KT 9999 FEW025 31/25 Q1010","temp":31,"dewp":25,"wdir":120,"wspd":9,"visib":"6+","altim":1010,"clouds":[{"cover":"FEW","base":2500}],"obsTime":1774112400},"SBLE":{"icaoId":"SBLE","flightCategory":"VFR","rawOb":"METAR SBLE 211700Z AUTO VRB04KT CAVOK 30/20 Q1013","temp":30,"dewp":20,"wdir":"VRB","wspd":4,"visib":"6+","altim":1013,"clouds":[],"obsTime":1774112400},"SBLS":{"icaoId":"SBLS","flightCategory":"MVFR","rawOb":"METAR SBLS 211700Z VRB07KT 9999 BKN026 27/21 Q1014","temp":27,"dewp":21,"wdir":"VRB","wspd":7,"visib":"6+","altim":1014,"clouds":[{"cover":"BKN","base":2600}],"obsTime":1774112400},"SBMT":{"icaoId":"SBMT","flightCategory":"VFR","rawOb":"METAR SBMT 211700Z 00000KT 9999 SCT030 29/16 Q1013","temp":29,"dewp":16,"wdir":0,"wspd":0,"visib":"6+","altim":1013,"clouds":[{"cover":"SCT","base":3000}],"obsTime":1774112400},"SBPF":{"icaoId":"SBPF","flightCategory":"VFR","rawOb":"METAR SBPF 211700Z 36008KT 9999 SCT040 30/21 Q1011","temp":30,"dewp":21,"wdir":360,"wspd":8,"visib":"6+","altim":1011,"clouds":[{"cover":"SCT","base":4000}],"obsTime":1774112400},"SBST":{"icaoId":"SBST","flightCategory":"VFR","rawOb":"METAR SBST 211700Z 15007KT 9999 SCT023 BKN034 27/22 Q1011","temp":27,"dewp":22,"wdir":150,"wspd":7,"visib":"6+","altim":1011,"clouds":[{"cover":"SCT","base":2300},{"cover":"BKN","base":3400}],"obsTime":1774112400},"SBTA":{"icaoId":"SBTA","flightCategory":"VFR","rawOb":"METAR SBTA 211700Z 27006KT 200V300 9999 FEW035 29/18 Q1012","temp":29,"dewp":18,"wdir":270,"wspd":6,"visib":"6+","altim":1012,"clouds":[{"cover":"FEW","base":3500}],"obsTime":1774112400}}}