{"updated":1775122301,"count":62,"data":{"SBFZ":{"icaoId":"SBFZ","flightCategory":"VFR","rawOb":"METAR SBFZ 020800Z 20006KT 160V230 9999 SCT020 25/24 Q1009","temp":25,"dewp":24,"wdir":200,"wspd":6,"visib":"6+","altim":1009,"clouds":[{"cover":"SCT","base":2000}],"obsTime":1775116800},"SBLO":{"icaoId":"SBLO","flightCategory":"LIFR","rawOb":"METAR SBLO 020800Z 11004KT 0150 R13/0650 FG OVC002 19/19 Q1013","temp":19,"dewp":19,"wdir":110,"wspd":4,"visib":0.09,"altim":1013,"clouds":[{"cover":"OVC","base":200}],"obsTime":1775116800},"SBBR":{"icaoId":"SBBR","flightCategory":"LIFR","rawOb":"METAR SBBR 020800Z 20003KT 1000 R29L///// R11R/0600N R11L/P2000 R29R/P2000 BCFG OVC005 18/18 Q1017","temp":18,"dewp":18,"wdir":200,"wspd":3,"visib":0.62,"altim":1017,"clouds":[{"cover":"OVC","base":500}],"obsTime":1775116800},"SBBV":{"icaoId":"SBBV","flightCategory":"VFR","rawOb":"METAR SBBV 020800Z 09008KT 9999 BKN040 FEW045TCU BKN100 25/22 Q1010","temp":25,"dewp":22,"wdir":90,"wspd":8,"visib":"6+","altim":1010,"clouds":[{"cover":"BKN","base":4000},{"cover":"FEW","base":4500},{"cover":"BKN","base":10000}],"obsTime":1775116800},"SBCB":{"icaoId":"SBCB","flightCategory":"VFR","rawOb":"METAR SBCB 020900Z 06013KT 9999 FEW010 SCT030 25/23 Q1013","temp":25,"dewp":23,"wdir":60,"wspd":13,"visib":"6+","altim":1013,"clouds":[{"cover":"FEW","base":1000},{"cover":"SCT","base":3000}],"obsTime":1775120400},"SBFL":{"icaoId":"SBFL","flightCategory":"VFR","rawOb":"METAR SBFL 020800Z VRB05KT 9999 FEW035 24/22 Q1010","temp":24,"dewp":22,"wdir":"VRB","wspd":5,"visib":"6+","altim":1010,"clouds":[{"cover":"FEW","base":3500}],"obsTime":1775116800},"SBBE":{"icaoId":"SBBE","flightCategory":"MVFR","rawOb":"METAR SBBE 020800Z 34006KT 9999 FEW008 BKN023 26/24 Q1010","temp":26,"dewp":24,"wdir":340,"wspd":6,"visib":"6+","altim":1010,"clouds":[{"cover":"FEW","base":800},{"cover":"BKN","base":2300}],"obsTime":1775116800},"SBCF":{"icaoId":"SBCF","flightCategory":"VFR","rawOb":"METAR SBCF 020800Z 15002KT 9999 FEW006 19/18 Q1018","temp":19,"dewp":18,"wdir":150,"wspd":2,"visib":"6+","altim":1018,"clouds":[{"cover":"FEW","base":600}],"obsTime":1775116800},"SBCG":{"icaoId":"SBCG","flightCategory":"VFR","rawOb":"METAR SBCG 020800Z 06011KT CAVOK 22/17 Q1013","temp":22,"dewp":17,"wdir":60,"wspd":11,"visib":"6+","altim":1013,"clouds":[],"obsTime":1775116800},"SBCT":{"icaoId":"SBCT","flightCategory":"MVFR","rawOb":"METAR SBCT 020800Z 29004KT 9999 BKN013 18/17 Q1016","temp":18,"dewp":17,"wdir":290,"wspd":4,"visib":"6+","altim":1016,"clouds":[{"cover":"BKN","base":1300}],"obsTime":1775116800},"SBEG":{"icaoId":"SBEG","flightCategory":"VFR","rawOb":"METAR SBEG 020800Z 15003KT CAVOK 24/24 Q1009","temp":24,"dewp":24,"wdir":150,"wspd":3,"visib":"6+","altim":1009,"clouds":[],"obsTime":1775116800},"SBFI":{"icaoId":"SBFI","flightCategory":"VFR","rawOb":"METAR SBFI 020800Z 07003KT 9999 FEW030 SCT100 22/21 Q1010","temp":22,"dewp":21,"wdir":70,"wspd":3,"visib":"6+","altim":1010,"clouds":[{"cover":"FEW","base":3000},{"cover":"SCT","base":10000}],"obsTime":1775116800},"SBGL":{"icaoId":"SBGL","flightCategory":"MVFR","rawOb":"METAR SBGL 020800Z 04002KT 6000 NSC 23/21 Q1012","temp":23,"dewp":21,"wdir":40,"wspd":2,"visib":3.73,"altim":1012,"clouds":[],"obsTime":1775116800},"SBGO":{"icaoId":"SBGO","flightCategory":"VFR","rawOb":"METAR SBGO 020800Z 00000KT 9999 FEW040 FEW050TCU BKN100 21/20 Q1015","temp":21,"dewp":20,"wdir":0,"wspd":0,"visib":"6+","altim":1015,"clouds":[{"cover":"FEW","base":4000},{"cover":"FEW","base":5000},{"cover":"BKN","base":10000}],"obsTime":1775116800},"SBGR":{"icaoId":"SBGR","flightCategory":"VFR","rawOb":"METAR SBGR 020800Z 07005KT CAVOK 20/19 Q1016","temp":20,"dewp":19,"wdir":70,"wspd":5,"visib":"6+","altim":1016,"clouds":[],"obsTime":1775116800},"SBJU":{"icaoId":"SBJU","flightCategory":"MVFR","rawOb":"METAR SBJU 020800Z 00000KT 9999 BKN020 22/22 Q1012","temp":22,"dewp":22,"wdir":0,"wspd":0,"visib":"6+","altim":1012,"clouds":[{"cover":"BKN","base":2000}],"obsTime":1775116800},"SBKP":{"icaoId":"SBKP","flightCategory":"VFR","rawOb":"METAR SBKP 020800Z 00000KT CAVOK 20/19 Q1015","temp":20,"dewp":19,"wdir":0,"wspd":0,"visib":"6+","altim":1015,"clouds":[],"obsTime":1775116800},"SBMA":{"icaoId":"SBMA","flightCategory":"VFR","rawOb":"METAR SBMA 020800Z 02003KT 9999 SCT012 FEW025TCU SCT100 25/24 Q1010","temp":25,"dewp":24,"wdir":20,"wspd":3,"visib":"6+","altim":1010,"clouds":[{"cover":"SCT","base":1200},{"cover":"FEW","base":2500},{"cover":"SCT","base":10000}],"obsTime":1775116800},"SBME":{"icaoId":"SBME","flightCategory":"VFR","rawOb":"METAR SBME 020800Z 06005KT 9999 FEW014 25/23 Q1013","temp":25,"dewp":23,"wdir":60,"wspd":5,"visib":"6+","altim":1013,"clouds":[{"cover":"FEW","base":1400}],"obsTime":1775116800},"SBMG":{"icaoId":"SBMG","flightCategory":"VFR","rawOb":"METAR SBMG 020800Z AUTO 02005KT CAVOK 20/19 Q1012","temp":20,"dewp":19,"wdir":20,"wspd":5,"visib":"6+","altim":1012,"clouds":[],"obsTime":1775116800},"SBMK":{"icaoId":"SBMK","flightCategory":"VFR","rawOb":"METAR SBMK 020800Z 00000KT 9999 FEW040 SCT100 21/19 Q1015","temp":21,"dewp":19,"wdir":0,"wspd":0,"visib":"6+","altim":1015,"clouds":[{"cover":"FEW","base":4000},{"cover":"SCT","base":10000}],"obsTime":1775116800},"SBMO":{"icaoId":"SBMO","flightCategory":"MVFR","rawOb":"METAR SBMO 020800Z COR 25002KT 5000 -RA BR FEW009 BKN014 BKN040 23/23 Q1011","temp":23,"dewp":23,"wdir":250,"wspd":2,"visib":3.11,"altim":1011,"clouds":[{"cover":"FEW","base":900},{"cover":"BKN","base":1400},{"cover":"BKN","base":4000}],"obsTime":1775116800},"SBMQ":{"icaoId":"SBMQ","flightCategory":"MVFR","rawOb":"METAR SBMQ 020800Z 24004KT 9999 -RA OVC015 24/24 Q1010","temp":24,"dewp":24,"wdir":240,"wspd":4,"visib":"6+","altim":1010,"clouds":[{"cover":"OVC","base":1500}],"obsTime":1775116800},"SBNT":{"icaoId":"SBNT","flightCategory":"VFR","rawOb":"METAR SBNT 020800Z 22004KT 9999 FEW020 BKN090 24/23 Q1010","temp":24,"dewp":23,"wdir":220,"wspd":4,"visib":"6+","altim":1010,"clouds":[{"cover":"FEW","base":2000},{"cover":"BKN","base":9000}],"obsTime":1775116800},"SBPA":{"icaoId":"SBPA","flightCategory":"VFR","rawOb":"METAR SBPA 020800Z VRB01KT CAVOK 22/20 Q1009","temp":22,"dewp":20,"wdir":"VRB","wspd":1,"visib":"6+","altim":1009,"clouds":[],"obsTime":1775116800},"SBPJ":{"icaoId":"SBPJ","flightCategory":"VFR","rawOb":"METAR SBPJ 020800Z 19002KT 9999 VCTS FEW008 SCT030 FEW033CB OVC070 22/21 Q1012 RETS","temp":22,"dewp":21,"wdir":190,"wspd":2,"visib":"6+","altim":1012,"clouds":[{"cover":"FEW","base":800},{"cover":"SCT","base":3000},{"cover":"FEW","base":3300},{"cover":"OVC","base":7000}],"obsTime":1775116800},"SBPV":{"icaoId":"SBPV","flightCategory":"VFR","rawOb":"METAR SBPV 020800Z 15005KT CAVOK 24/23 Q1010","temp":24,"dewp":23,"wdir":150,"wspd":5,"visib":"6+","altim":1010,"clouds":[],"obsTime":1775116800},"SBRB":{"icaoId":"SBRB","flightCategory":"MVFR","rawOb":"METAR SBRB 020800Z 05002KT 7000 FEW001 SCT100 23/22 Q1009","temp":23,"dewp":22,"wdir":50,"wspd":2,"visib":4.35,"altim":1009,"clouds":[{"cover":"FEW","base":100},{"cover":"SCT","base":10000}],"obsTime":1775116800},"SBRF":{"icaoId":"SBRF","flightCategory":"VFR","rawOb":"METAR SBRF 020800Z 33002KT 9999 SCT017 SCT060 24/23 Q1010","temp":24,"dewp":23,"wdir":330,"wspd":2,"visib":"6+","altim":1010,"clouds":[{"cover":"SCT","base":1700},{"cover":"SCT","base":6000}],"obsTime":1775116800},"SBSG":{"icaoId":"SBSG","flightCategory":"MVFR","rawOb":"METAR SBSG 020800Z 23003KT 200V260 7000 -RA BKN015 BKN090 23/23 Q1010","temp":23,"dewp":23,"wdir":230,"wspd":3,"visib":4.35,"altim":1010,"clouds":[{"cover":"BKN","base":1500},{"cover":"BKN","base":9000}],"obsTime":1775116800},"SBSL":{"icaoId":"SBSL","flightCategory":"MVFR","rawOb":"METAR SBSL 020800Z VRB03KT 5000 -TSRA SCT015 BKN017 FEW025CB 22/21 Q1010","temp":22,"dewp":21,"wdir":"VRB","wspd":3,"visib":3.11,"altim":1010,"clouds":[{"cover":"SCT","base":1500},{"cover":"BKN","base":1700},{"cover":"FEW","base":2500}],"obsTime":1775116800},"SBSN":{"icaoId":"SBSN","flightCategory":"VFR","rawOb":"METAR SBSN 020800Z VRB02KT CAVOK 23/22 Q1010","temp":23,"dewp":22,"wdir":"VRB","wspd":2,"visib":"6+","altim":1010,"clouds":[],"obsTime":1775116800},"SBSP":{"icaoId":"SBSP","flightCategory":"VFR","rawOb":"METAR SBSP 020900Z 34002KT CAVOK 20/19 Q1017","temp":20,"dewp":19,"wdir":340,"wspd":2,"visib":"6+","altim":1017,"clouds":[],"obsTime":1775120400},"SBSV":{"icaoId":"SBSV","flightCategory":"VFR","rawOb":"METAR SBSV 020800Z 12009KT 9999 FEW021 SCT050 26/21 Q1011","temp":26,"dewp":21,"wdir":120,"wspd":9,"visib":"6+","altim":1011,"clouds":[{"cover":"FEW","base":2100},{"cover":"SCT","base":5000}],"obsTime":1775116800},"SBTE":{"icaoId":"SBTE","flightCategory":"MVFR","rawOb":"METAR SBTE 020800Z 04004KT 5000 RA BKN012 OVC070 24/24 Q1009","temp":24,"dewp":24,"wdir":40,"wspd":4,"visib":3.11,"altim":1009,"clouds":[{"cover":"BKN","base":1200},{"cover":"OVC","base":7000}],"obsTime":1775116800},"SBUL":{"icaoId":"SBUL","flightCategory":"VFR","rawOb":"METAR SBUL 020800Z 09008KT 9999 FEW007 20/19 Q1017","temp":20,"dewp":19,"wdir":90,"wspd":8,"visib":"6+","altim":1017,"clouds":[{"cover":"FEW","base":700}],"obsTime":1775116800},"SBUR":{"icaoId":"SBUR","flightCategory":"VFR","rawOb":"METAR SBUR 020800Z 04003KT CAVOK 20/18 Q1016","temp":20,"dewp":18,"wdir":40,"wspd":3,"visib":"6+","altim":1016,"clouds":[],"obsTime":1775116800},"SBVT":{"icaoId":"SBVT","flightCategory":"VFR","rawOb":"METAR SBVT 020800Z 36002KT 9999 FEW020 22/22 Q1014","temp":22,"dewp":22,"wdir":360,"wspd":2,"visib":"6+","altim":1014,"clouds":[{"cover":"FEW","base":2000}],"obsTime":1775116800},"SBPL":{"icaoId":"SBPL","flightCategory":"VFR","rawOb":"METAR SBPL 020800Z 10006KT CAVOK 24/22 Q1012","temp":24,"dewp":22,"wdir":100,"wspd":6,"visib":"6+","altim":1012,"clouds":[],"obsTime":1775116800},"SBPS":{"icaoId":"SBPS","flightCategory":"VFR","rawOb":"METAR SBPS 020800Z 25004KT 9999 FEW015 24/23 Q1013","temp":24,"dewp":23,"wdir":250,"wspd":4,"visib":"6+","altim":1013,"clouds":[{"cover":"FEW","base":1500}],"obsTime":1775116800},"SBAR":{"icaoId":"SBAR","flightCategory":"VFR","rawOb":"METAR SBAR 020800Z 14006KT 9999 SCT030 OVC045 26/24 Q1011","temp":26,"dewp":24,"wdir":140,"wspd":6,"visib":"6+","altim":1011,"clouds":[{"cover":"SCT","base":3000},{"cover":"OVC","base":4500}],"obsTime":1775116800},"SBSC":{"icaoId":"SBSC","flightCategory":"VFR","rawOb":"METAR SBSC 020800Z COR 05004KT 9999 SCT040 22/20 Q1012","temp":22,"dewp":20,"wdir":50,"wspd":4,"visib":"6+","altim":1012,"clouds":[{"cover":"SCT","base":4000}],"obsTime":1775116800},"SBCO":{"icaoId":"SBCO","flightCategory":"VFR","rawOb":"METAR SBCO 020900Z 00000KT CAVOK 20/19 Q1010","temp":20,"dewp":19,"wdir":0,"wspd":0,"visib":"6+","altim":1010,"clouds":[],"obsTime":1775120400},"SBSJ":{"icaoId":"SBSJ","flightCategory":"MVFR","rawOb":"SPECI SBSJ 020830Z 06004KT 6000 FEW030 OVC100 20/19 Q1016","temp":20,"dewp":19,"wdir":60,"wspd":4,"visib":3.73,"altim":1016,"clouds":[{"cover":"FEW","base":3000},{"cover":"OVC","base":10000}],"obsTime":1775118600},"SBSM":{"icaoId":"SBSM","flightCategory":"MVFR","rawOb":"METAR SBSM 020900Z 09004KT 7000 3000E BCFG FEW001 19/19 Q1010","temp":19,"dewp":19,"wdir":90,"wspd":4,"visib":4.35,"altim":1010,"clouds":[{"cover":"FEW","base":100}],"obsTime":1775120400},"SBDN":{"icaoId":"SBDN","flightCategory":"VFR","rawOb":"METAR SBDN 020800Z 06009KT CAVOK 21/18 Q1012","temp":21,"dewp":18,"wdir":60,"wspd":9,"visib":"6+","altim":1012,"clouds":[],"obsTime":1775116800},"SBSR":{"icaoId":"SBSR","flightCategory":"VFR","rawOb":"METAR SBSR 020800Z 00000KT 9999 FEW035 SCT080 21/20 Q1015","temp":21,"dewp":20,"wdir":0,"wspd":0,"visib":"6+","altim":1015,"clouds":[{"cover":"FEW","base":3500},{"cover":"SCT","base":8000}],"obsTime":1775116800},"SBES":{"icaoId":"SBES","flightCategory":"VFR","rawOb":"METAR SBES 020900Z 06011KT 020V080 9999 FEW009 23/// Q1013","temp":null,"dewp":null,"wdir":60,"wspd":11,"visib":"6+","altim":1013,"clouds":[{"cover":"FEW","base":900}],"obsTime":1775120400},"SBAX":{"icaoId":"SBAX","flightCategory":"VFR","rawOb":"METAR SBAX 020800Z AUTO 10003KT CAVOK ///// Q1017","temp":null,"dewp":null,"wdir":100,"wspd":3,"visib":"6+","altim":1017,"clouds":[],"obsTime":1775116800},"SBIP":{"icaoId":"SBIP","flightCategory":"VFR","rawOb":"METAR SBIP 020800Z AUTO 01002KT CAVOK 23/22 Q1015","temp":23,"dewp":22,"wdir":10,"wspd":2,"visib":"6+","altim":1015,"clouds":[],"obsTime":1775116800},"SBBH":{"icaoId":"SBBH","flightCategory":"VFR","rawOb":"METAR SBBH 020900Z 00000KT 9999 FEW016 19/18 Q1018","temp":19,"dewp":18,"wdir":0,"wspd":0,"visib":"6+","altim":1018,"clouds":[{"cover":"FEW","base":1600}],"obsTime":1775120400},"SBKG":{"icaoId":"SBKG","flightCategory":"VFR","rawOb":"METAR SBKG 020800Z 08003KT CAVOK 21/21 Q1013","temp":21,"dewp":21,"wdir":80,"wspd":3,"visib":"6+","altim":1013,"clouds":[],"obsTime":1775116800},"SBBU":{"icaoId":"SBBU","flightCategory":"VFR","rawOb":"METAR SBBU 020900Z 01003KT CAVOK 20/19 Q1015","temp":20,"dewp":19,"wdir":10,"wspd":3,"visib":"6+","altim":1015,"clouds":[],"obsTime":1775120400},"SBTA":{"icaoId":"SBTA","flightCategory":"IFR","rawOb":"METAR SBTA 020900Z 09004KT 060V120 4000 -RA BR VCTS SCT010 FEW030CB BKN080 21/19 Q1015","temp":21,"dewp":19,"wdir":90,"wspd":4,"visib":2.49,"altim":1015,"clouds":[{"cover":"SCT","base":1000},{"cover":"FEW","base":3000},{"cover":"BKN","base":8000}],"obsTime":1775120400},"SBGW":{"icaoId":"SBGW","flightCategory":"VFR","rawOb":"METAR SBGW 020900Z 25003KT 9999 FEW015 BKN100 20/17 Q1016","temp":20,"dewp":17,"wdir":250,"wspd":3,"visib":"6+","altim":1016,"clouds":[{"cover":"FEW","base":1500},{"cover":"BKN","base":10000}],"obsTime":1775120400},"SBLS":{"icaoId":"SBLS","flightCategory":"VFR","rawOb":"METAR SBLS 020900Z 14007KT 9999 FEW010 19/18 Q1018","temp":19,"dewp":18,"wdir":140,"wspd":7,"visib":"6+","altim":1018,"clouds":[{"cover":"FEW","base":1000}],"obsTime":1775120400},"SBMT":{"icaoId":"SBMT","flightCategory":"VFR","rawOb":"METAR SBMT 020900Z 00000KT CAVOK 19/18 Q1016","temp":19,"dewp":18,"wdir":0,"wspd":0,"visib":"6+","altim":1016,"clouds":[],"obsTime":1775120400},"SBJP":{"icaoId":"SBJP","flightCategory":"VFR","rawOb":"METAR SBJP 020800Z 25003KT 9999 SCT020 BKN070 24/24 Q1010","temp":24,"dewp":24,"wdir":250,"wspd":3,"visib":"6+","altim":1010,"clouds":[{"cover":"SCT","base":2000},{"cover":"BKN","base":7000}],"obsTime":1775116800},"SBAN":{"icaoId":"SBAN","flightCategory":"VFR","rawOb":"METAR SBAN 020800Z 10005KT 9999 FEW010 18/17 Q1017","temp":18,"dewp":17,"wdir":100,"wspd":5,"visib":"6+","altim":1017,"clouds":[{"cover":"FEW","base":1000}],"obsTime":1775116800},"SBJV":{"icaoId":"SBJV","flightCategory":"VFR","rawOb":"METAR SBJV 020900Z 00000KT CAVOK 21/21 Q1012","temp":21,"dewp":21,"wdir":0,"wspd":0,"visib":"6+","altim":1012,"clouds":[],"obsTime":1775120400},"SBPF":{"icaoId":"SBPF","flightCategory":"VFR","rawOb":"METAR SBPF 020900Z 04012KT 9999 SCT040 18/16 Q1014","temp":18,"dewp":16,"wdir":40,"wspd":12,"visib":"6+","altim":1014,"clouds":[{"cover":"SCT","base":4000}],"obsTime":1775120400},"SBLE":{"icaoId":"SBLE","flightCategory":"MVFR","rawOb":"METAR SBLE 020800Z AUTO 03002KT 9999 FEW006 OVC026 ///// Q////","temp":null,"dewp":null,"wdir":30,"wspd":2,"visib":"6+","altim":null,"clouds":[{"cover":"FEW","base":600},{"cover":"OVC","base":2600}],"obsTime":1775116800}}}