{"updated":1778809835,"count":68,"data":{"SBRB":{"icaoId":"SBRB","flightCategory":"VFR","rawOb":"METAR SBRB 150000Z 27002KT CAVOK 23/23 Q1014","temp":23,"dewp":23,"wdir":270,"wspd":2,"visib":"6+","altim":1014,"clouds":[],"obsTime":1778803200},"SBBR":{"icaoId":"SBBR","flightCategory":"VFR","rawOb":"METAR SBBR 150000Z VRB02KT CAVOK 22/15 Q1021","temp":22,"dewp":15,"wdir":"VRB","wspd":2,"visib":"6+","altim":1021,"clouds":[],"obsTime":1778803200},"SBBV":{"icaoId":"SBBV","flightCategory":"VFR","rawOb":"METAR SBBV 150000Z 10003KT 9999 FEW025 FEW035TCU BKN100 29/23 Q1013","temp":29,"dewp":23,"wdir":100,"wspd":3,"visib":"6+","altim":1013,"clouds":[{"cover":"FEW","base":2500},{"cover":"FEW","base":3500},{"cover":"BKN","base":10000}],"obsTime":1778803200},"SBCF":{"icaoId":"SBCF","flightCategory":"VFR","rawOb":"METAR SBCF 150000Z 17002KT CAVOK 20/18 Q1022","temp":20,"dewp":18,"wdir":170,"wspd":2,"visib":"6+","altim":1022,"clouds":[],"obsTime":1778803200},"SBCG":{"icaoId":"SBCG","flightCategory":"VFR","rawOb":"METAR SBCG 150000Z VRB04KT 9000 TS VCSH SCT040 FEW045CB BKN060 21/19 Q1019 RERA","temp":21,"dewp":19,"wdir":"VRB","wspd":4,"visib":5.59,"altim":1019,"clouds":[{"cover":"SCT","base":4000},{"cover":"FEW","base":4500},{"cover":"BKN","base":6000}],"obsTime":1778803200},"SBCT":{"icaoId":"SBCT","flightCategory":"VFR","rawOb":"METAR SBCT 150000Z 08003KT CAVOK 14/12 Q1020","temp":14,"dewp":12,"wdir":80,"wspd":3,"visib":"6+","altim":1020,"clouds":[],"obsTime":1778803200},"SBCZ":{"icaoId":"SBCZ","flightCategory":"VFR","rawOb":"METAR SBCZ 150000Z 00000KT CAVOK 24/23 Q1013","temp":24,"dewp":23,"wdir":0,"wspd":0,"visib":"6+","altim":1013,"clouds":[],"obsTime":1778803200},"SBEG":{"icaoId":"SBEG","flightCategory":"VFR","rawOb":"METAR SBEG 150000Z VRB02KT 9999 VCTS FEW025 FEW030CB 27/25 Q1013","temp":27,"dewp":25,"wdir":"VRB","wspd":2,"visib":"6+","altim":1013,"clouds":[{"cover":"FEW","base":2500},{"cover":"FEW","base":3000}],"obsTime":1778803200},"SBFI":{"icaoId":"SBFI","flightCategory":"VFR","rawOb":"METAR SBFI 150000Z 15005KT 9999 FEW030 BKN070 18/17 Q1016","temp":18,"dewp":17,"wdir":150,"wspd":5,"visib":"6+","altim":1016,"clouds":[{"cover":"FEW","base":3000},{"cover":"BKN","base":7000}],"obsTime":1778803200},"SBFL":{"icaoId":"SBFL","flightCategory":"VFR","rawOb":"METAR SBFL 150000Z 20001KT 9999 FEW035 19/17 Q1018","temp":19,"dewp":17,"wdir":200,"wspd":1,"visib":"6+","altim":1018,"clouds":[{"cover":"FEW","base":3500}],"obsTime":1778803200},"SBFZ":{"icaoId":"SBFZ","flightCategory":"VFR","rawOb":"METAR SBFZ 150000Z 15004KT CAVOK 27/23 Q1014","temp":27,"dewp":23,"wdir":150,"wspd":4,"visib":"6+","altim":1014,"clouds":[],"obsTime":1778803200},"SBGL":{"icaoId":"SBGL","flightCategory":"VFR","rawOb":"METAR SBGL 150000Z 26007KT 240V320 9999 SCT021 BKN036 23/20 Q1017","temp":23,"dewp":20,"wdir":260,"wspd":7,"visib":"6+","altim":1017,"clouds":[{"cover":"SCT","base":2100},{"cover":"BKN","base":3600}],"obsTime":1778803200},"SBGO":{"icaoId":"SBGO","flightCategory":"VFR","rawOb":"METAR SBGO 150000Z 11006KT CAVOK 24/17 Q1019","temp":24,"dewp":17,"wdir":110,"wspd":6,"visib":"6+","altim":1019,"clouds":[],"obsTime":1778803200},"SBGR":{"icaoId":"SBGR","flightCategory":"MVFR","rawOb":"METAR SBGR 150000Z 14002KT 5000 BR NSC 17/15 Q1021","temp":17,"dewp":15,"wdir":140,"wspd":2,"visib":3.11,"altim":1021,"clouds":[],"obsTime":1778803200},"SBHT":{"icaoId":"SBHT","flightCategory":"VFR","rawOb":"METAR SBHT 150000Z 00000KT 9999 SCT015 SCT030 27/26 Q1014","temp":27,"dewp":26,"wdir":0,"wspd":0,"visib":"6+","altim":1014,"clouds":[{"cover":"SCT","base":1500},{"cover":"SCT","base":3000}],"obsTime":1778803200},"SBIL":{"icaoId":"SBIL","flightCategory":"VFR","rawOb":"METAR SBIL 150000Z 31004KT 9999 SCT020 25/24 Q1018","temp":25,"dewp":24,"wdir":310,"wspd":4,"visib":"6+","altim":1018,"clouds":[{"cover":"SCT","base":2000}],"obsTime":1778803200},"SBJU":{"icaoId":"SBJU","flightCategory":"VFR","rawOb":"METAR SBJU 150000Z 00000KT CAVOK 26/20 Q1017","temp":26,"dewp":20,"wdir":0,"wspd":0,"visib":"6+","altim":1017,"clouds":[],"obsTime":1778803200},"SBKP":{"icaoId":"SBKP","flightCategory":"VFR","rawOb":"METAR SBKP 150000Z 12004KT CAVOK 20/13 Q1020","temp":20,"dewp":13,"wdir":120,"wspd":4,"visib":"6+","altim":1020,"clouds":[],"obsTime":1778803200},"SBLO":{"icaoId":"SBLO","flightCategory":"VFR","rawOb":"METAR SBLO 150000Z 02002KT 9999 SCT030 BKN090 19/16 Q1019","temp":19,"dewp":16,"wdir":20,"wspd":2,"visib":"6+","altim":1019,"clouds":[{"cover":"SCT","base":3000},{"cover":"BKN","base":9000}],"obsTime":1778803200},"SBMA":{"icaoId":"SBMA","flightCategory":"VFR","rawOb":"METAR SBMA 150000Z 00000KT 9999 FEW020 27/25 Q1014","temp":27,"dewp":25,"wdir":0,"wspd":0,"visib":"6+","altim":1014,"clouds":[{"cover":"FEW","base":2000}],"obsTime":1778803200},"SBME":{"icaoId":"SBME","flightCategory":"MVFR","rawOb":"METAR SBME 150000Z 00000KT 5000 BR NSC 22/21 Q1017","temp":22,"dewp":21,"wdir":0,"wspd":0,"visib":3.11,"altim":1017,"clouds":[],"obsTime":1778803200},"SBMG":{"icaoId":"SBMG","flightCategory":"VFR","rawOb":"METAR SBMG 150000Z 11004KT CAVOK 21/14 Q1018","temp":21,"dewp":14,"wdir":110,"wspd":4,"visib":"6+","altim":1018,"clouds":[],"obsTime":1778803200},"SBMK":{"icaoId":"SBMK","flightCategory":"VFR","rawOb":"METAR SBMK 150000Z 00000KT CAVOK 22/17 Q1020","temp":22,"dewp":17,"wdir":0,"wspd":0,"visib":"6+","altim":1020,"clouds":[],"obsTime":1778803200},"SBMO":{"icaoId":"SBMO","flightCategory":"VFR","rawOb":"METAR SBMO 150000Z VRB02KT 9999 FEW025 SCT070 25/22 Q1016","temp":25,"dewp":22,"wdir":"VRB","wspd":2,"visib":"6+","altim":1016,"clouds":[{"cover":"FEW","base":2500},{"cover":"SCT","base":7000}],"obsTime":1778803200},"SBMQ":{"icaoId":"SBMQ","flightCategory":"VFR","rawOb":"METAR SBMQ 150000Z 00000KT CAVOK 27/25 Q1014","temp":27,"dewp":25,"wdir":0,"wspd":0,"visib":"6+","altim":1014,"clouds":[],"obsTime":1778803200},"SBNT":{"icaoId":"SBNT","flightCategory":"VFR","rawOb":"METAR SBNT 150000Z 19004KT 9999 FEW020 24/23 Q1015","temp":24,"dewp":23,"wdir":190,"wspd":4,"visib":"6+","altim":1015,"clouds":[{"cover":"FEW","base":2000}],"obsTime":1778803200},"SBPA":{"icaoId":"SBPA","flightCategory":"VFR","rawOb":"METAR SBPA 150000Z 15006KT CAVOK 14/12 Q1020","temp":14,"dewp":12,"wdir":150,"wspd":6,"visib":"6+","altim":1020,"clouds":[],"obsTime":1778803200},"SBPJ":{"icaoId":"SBPJ","flightCategory":"VFR","rawOb":"METAR SBPJ 150000Z 13004KT 9999 FEW033 26/23 Q1014","temp":26,"dewp":23,"wdir":130,"wspd":4,"visib":"6+","altim":1014,"clouds":[{"cover":"FEW","base":3300}],"obsTime":1778803200},"SBPV":{"icaoId":"SBPV","flightCategory":"VFR","rawOb":"METAR SBPV 150000Z 20001KT 9999 FEW035 SCT070 26/22 Q1013","temp":26,"dewp":22,"wdir":200,"wspd":1,"visib":"6+","altim":1013,"clouds":[{"cover":"FEW","base":3500},{"cover":"SCT","base":7000}],"obsTime":1778803200},"SBBE":{"icaoId":"SBBE","flightCategory":"VFR","rawOb":"METAR SBBE 150000Z 10004KT 9999 FEW023 27/26 Q1014","temp":27,"dewp":26,"wdir":100,"wspd":4,"visib":"6+","altim":1014,"clouds":[{"cover":"FEW","base":2300}],"obsTime":1778803200},"SBRF":{"icaoId":"SBRF","flightCategory":"VFR","rawOb":"METAR SBRF 150000Z 22005KT 9999 SCT020 26/24 Q1015","temp":26,"dewp":24,"wdir":220,"wspd":5,"visib":"6+","altim":1015,"clouds":[{"cover":"SCT","base":2000}],"obsTime":1778803200},"SBSG":{"icaoId":"SBSG","flightCategory":"VFR","rawOb":"METAR SBSG 150000Z 20003KT 190V330 9999 SCT020 23/23 Q1015","temp":23,"dewp":23,"wdir":200,"wspd":3,"visib":"6+","altim":1015,"clouds":[{"cover":"SCT","base":2000}],"obsTime":1778803200},"SBSL":{"icaoId":"SBSL","flightCategory":"VFR","rawOb":"METAR SBSL 150000Z 01005KT 9999 SCT017 BKN100 26/25 Q1014","temp":26,"dewp":25,"wdir":10,"wspd":5,"visib":"6+","altim":1014,"clouds":[{"cover":"SCT","base":1700},{"cover":"BKN","base":10000}],"obsTime":1778803200},"SBSN":{"icaoId":"SBSN","flightCategory":"VFR","rawOb":"METAR SBSN 150000Z 12004KT CAVOK 26/25 Q1013","temp":26,"dewp":25,"wdir":120,"wspd":4,"visib":"6+","altim":1013,"clouds":[],"obsTime":1778803200},"SBSP":{"icaoId":"SBSP","flightCategory":"VFR","rawOb":"METAR SBSP 150000Z 15003KT CAVOK 17/15 Q1021","temp":17,"dewp":15,"wdir":150,"wspd":3,"visib":"6+","altim":1021,"clouds":[],"obsTime":1778803200},"SBSV":{"icaoId":"SBSV","flightCategory":"VFR","rawOb":"METAR SBSV 150000Z 14006KT 9999 FEW028 27/21 Q1017","temp":27,"dewp":21,"wdir":140,"wspd":6,"visib":"6+","altim":1017,"clouds":[{"cover":"FEW","base":2800}],"obsTime":1778803200},"SBTE":{"icaoId":"SBTE","flightCategory":"VFR","rawOb":"METAR SBTE 150000Z 34004KT 9999 SCT020 28/25 Q1013","temp":28,"dewp":25,"wdir":340,"wspd":4,"visib":"6+","altim":1013,"clouds":[{"cover":"SCT","base":2000}],"obsTime":1778803200},"SBUL":{"icaoId":"SBUL","flightCategory":"VFR","rawOb":"METAR SBUL 150000Z 19007KT CAVOK 23/15 Q1022","temp":23,"dewp":15,"wdir":190,"wspd":7,"visib":"6+","altim":1022,"clouds":[],"obsTime":1778803200},"SBUR":{"icaoId":"SBUR","flightCategory":"VFR","rawOb":"METAR SBUR 150000Z 15002KT CAVOK 23/14 Q1020","temp":23,"dewp":14,"wdir":150,"wspd":2,"visib":"6+","altim":1020,"clouds":[],"obsTime":1778803200},"SBVT":{"icaoId":"SBVT","flightCategory":"VFR","rawOb":"METAR SBVT 150000Z 02008KT 350V050 CAVOK 24/21 Q1017","temp":24,"dewp":21,"wdir":20,"wspd":8,"visib":"6+","altim":1017,"clouds":[],"obsTime":1778803200},"SBTU":{"icaoId":"SBTU","flightCategory":"MVFR","rawOb":"METAR SBTU 150000Z AUTO 25008KT 210V290 6000 // ///////// ///// Q1017","temp":null,"dewp":null,"wdir":250,"wspd":8,"visib":3.73,"altim":1017,"clouds":[],"obsTime":1778803200},"SBPL":{"icaoId":"SBPL","flightCategory":"VFR","rawOb":"METAR SBPL 150000Z 10004KT CAVOK 27/16 Q1017","temp":27,"dewp":16,"wdir":100,"wspd":4,"visib":"6+","altim":1017,"clouds":[],"obsTime":1778803200},"SBBH":{"icaoId":"SBBH","flightCategory":"VFR","rawOb":"METAR SBBH 150000Z 10004KT CAVOK 21/19 Q1021","temp":21,"dewp":19,"wdir":100,"wspd":4,"visib":"6+","altim":1021,"clouds":[],"obsTime":1778803200},"SBPS":{"icaoId":"SBPS","flightCategory":"VFR","rawOb":"METAR SBPS 150000Z 20001KT 9999 FEW020 24/23 Q1018","temp":24,"dewp":23,"wdir":200,"wspd":1,"visib":"6+","altim":1018,"clouds":[{"cover":"FEW","base":2000}],"obsTime":1778803200},"SBDN":{"icaoId":"SBDN","flightCategory":"VFR","rawOb":"METAR SBDN 150000Z 14004KT CAVOK 21/16 Q1018","temp":21,"dewp":16,"wdir":140,"wspd":4,"visib":"6+","altim":1018,"clouds":[],"obsTime":1778803200},"SBSC":{"icaoId":"SBSC","flightCategory":"MVFR","rawOb":"METAR SBSC 150000Z 22003KT 8000 SCT012 BKN025 OVC050 23/20 Q1018","temp":23,"dewp":20,"wdir":220,"wspd":3,"visib":4.97,"altim":1018,"clouds":[{"cover":"SCT","base":1200},{"cover":"BKN","base":2500},{"cover":"OVC","base":5000}],"obsTime":1778803200},"SBBU":{"icaoId":"SBBU","flightCategory":"VFR","rawOb":"METAR SBBU 150000Z 26003KT CAVOK 24/14 Q1019","temp":24,"dewp":14,"wdir":260,"wspd":3,"visib":"6+","altim":1019,"clouds":[],"obsTime":1778803200},"SBSJ":{"icaoId":"SBSJ","flightCategory":"VFR","rawOb":"METAR SBSJ 150000Z 16004KT CAVOK 18/16 Q1020","temp":18,"dewp":16,"wdir":160,"wspd":4,"visib":"6+","altim":1020,"clouds":[],"obsTime":1778803200},"SBAX":{"icaoId":"SBAX","flightCategory":"VFR","rawOb":"METAR SBAX 150000Z 18002KT 9999 SCT040 22/13 Q1021","temp":22,"dewp":13,"wdir":180,"wspd":2,"visib":"6+","altim":1021,"clouds":[{"cover":"SCT","base":4000}],"obsTime":1778803200},"SBSM":{"icaoId":"SBSM","flightCategory":"VFR","rawOb":"METAR SBSM 150000Z VRB01KT 9999 FEW035 11/11 Q1019","temp":11,"dewp":11,"wdir":"VRB","wspd":1,"visib":"6+","altim":1019,"clouds":[{"cover":"FEW","base":3500}],"obsTime":1778803200},"SBAR":{"icaoId":"SBAR","flightCategory":"VFR","rawOb":"METAR SBAR 150000Z 16006KT 9999 SCT026 27/21 Q1016","temp":27,"dewp":21,"wdir":160,"wspd":6,"visib":"6+","altim":1016,"clouds":[{"cover":"SCT","base":2600}],"obsTime":1778803200},"SBSR":{"icaoId":"SBSR","flightCategory":"VFR","rawOb":"METAR SBSR 150000Z VRB01KT CAVOK 24/13 Q1019","temp":24,"dewp":13,"wdir":"VRB","wspd":1,"visib":"6+","altim":1019,"clouds":[],"obsTime":1778803200},"SBIP":{"icaoId":"SBIP","flightCategory":"VFR","rawOb":"METAR SBIP 150000Z AUTO 21001KT 9000 NCD 21/21 Q1018","temp":21,"dewp":21,"wdir":210,"wspd":1,"visib":5.59,"altim":1018,"clouds":[],"obsTime":1778803200},"SBKG":{"icaoId":"SBKG","flightCategory":"MVFR","rawOb":"METAR SBKG 150000Z 10006KT 9999 BKN015 23/22 Q1018","temp":23,"dewp":22,"wdir":100,"wspd":6,"visib":"6+","altim":1018,"clouds":[{"cover":"BKN","base":1500}],"obsTime":1778803200},"SBCO":{"icaoId":"SBCO","flightCategory":"VFR","rawOb":"METAR SBCO 150000Z 10004KT CAVOK 12/11 Q1020","temp":12,"dewp":11,"wdir":100,"wspd":4,"visib":"6+","altim":1020,"clouds":[],"obsTime":1778803200},"SBCJ":{"icaoId":"SBCJ","flightCategory":"VFR","rawOb":"METAR SBCJ 0000Z 00000KT 9999 FEW020 23/21 Q1018","temp":23,"dewp":21,"wdir":0,"wspd":0,"visib":"6+","altim":1018,"clouds":[{"cover":"FEW","base":2000}],"obsTime":1778803200},"SBES":{"icaoId":"SBES","flightCategory":"IFR","rawOb":"METAR SBES 150000Z 00000KT 4000 BR SCT010 BKN040 21/// Q1017","temp":null,"dewp":null,"wdir":0,"wspd":0,"visib":2.49,"altim":1017,"clouds":[{"cover":"SCT","base":1000},{"cover":"BKN","base":4000}],"obsTime":1778803200},"SBJP":{"icaoId":"SBJP","flightCategory":"VFR","rawOb":"METAR SBJP 150000Z 19004KT 9999 FEW020 25/24 Q1015","temp":25,"dewp":24,"wdir":190,"wspd":4,"visib":"6+","altim":1015,"clouds":[{"cover":"FEW","base":2000}],"obsTime":1778803200},"SBNM":{"icaoId":"SBNM","flightCategory":"VFR","rawOb":"METAR SBNM 150000Z AUTO 12007KT CAVOK 14/11 Q1018","temp":14,"dewp":11,"wdir":120,"wspd":7,"visib":"6+","altim":1018,"clouds":[],"obsTime":1778803200},"SBLE":{"icaoId":"SBLE","flightCategory":"VFR","rawOb":"METAR SBLE 150000Z AUTO 04005KT CAVOK 22/22 Q1019","temp":22,"dewp":22,"wdir":40,"wspd":5,"visib":"6+","altim":1019,"clouds":[],"obsTime":1778803200},"SBAN":{"icaoId":"SBAN","flightCategory":"VFR","rawOb":"METAR SBAN 150000Z 23005KT 9999 SCT045 21/13 Q1022","temp":21,"dewp":13,"wdir":230,"wspd":5,"visib":"6+","altim":1022,"clouds":[{"cover":"SCT","base":4500}],"obsTime":1778803200},"SBAF":{"icaoId":"SBAF","flightCategory":"MVFR","rawOb":"METAR SBAF 150000Z 21003KT 8000 SCT012 BKN040 23/23 Q1018","temp":23,"dewp":23,"wdir":210,"wspd":3,"visib":4.97,"altim":1018,"clouds":[{"cover":"SCT","base":1200},{"cover":"BKN","base":4000}],"obsTime":1778803200},"SBLS":{"icaoId":"SBLS","flightCategory":"VFR","rawOb":"METAR SBLS 150000Z 14005KT 9999 FEW025 20/18 Q1021","temp":20,"dewp":18,"wdir":140,"wspd":5,"visib":"6+","altim":1021,"clouds":[{"cover":"FEW","base":2500}],"obsTime":1778803200},"SBMT":{"icaoId":"SBMT","flightCategory":"VFR","rawOb":"METAR SBMT 150000Z 11003KT CAVOK 18/15 Q1021","temp":18,"dewp":15,"wdir":110,"wspd":3,"visib":"6+","altim":1021,"clouds":[],"obsTime":1778803200},"SBTA":{"icaoId":"SBTA","flightCategory":"VFR","rawOb":"METAR SBTA 150000Z VRB01KT 9999 SCT045 20/20 Q1019","temp":20,"dewp":20,"wdir":"VRB","wspd":1,"visib":"6+","altim":1019,"clouds":[{"cover":"SCT","base":4500}],"obsTime":1778803200},"SBJV":{"icaoId":"SBJV","flightCategory":"VFR","rawOb":"METAR SBJV 150000Z 25001KT CAVOK 16/15 Q1018","temp":16,"dewp":15,"wdir":250,"wspd":1,"visib":"6+","altim":1018,"clouds":[],"obsTime":1778803200},"SBJR":{"icaoId":"SBJR","flightCategory":"MVFR","rawOb":"METAR SBJR 150000Z 27003KT 6000 FEW012 BKN020 BKN080 23/21 Q1017","temp":23,"dewp":21,"wdir":270,"wspd":3,"visib":3.73,"altim":1017,"clouds":[{"cover":"FEW","base":1200},{"cover":"BKN","base":2000},{"cover":"BKN","base":8000}],"obsTime":1778803200},"SBPF":{"icaoId":"SBPF","flightCategory":"VFR","rawOb":"METAR SBPF 150000Z 17008KT CAVOK 15/08 Q1019","temp":15,"dewp":8,"wdir":170,"wspd":8,"visib":"6+","altim":1019,"clouds":[],"obsTime":1778803200}}}