{"updated":1775519711,"count":71,"data":{"SBRF":{"icaoId":"SBRF","flightCategory":"MVFR","rawOb":"METAR SBRF 062200Z 19004KT 9999 BKN010 SCT017 BKN040 26/25 Q1014","temp":26,"dewp":25,"wdir":190,"wspd":4,"visib":"6+","altim":1014,"clouds":[{"cover":"BKN","base":1000},{"cover":"SCT","base":1700},{"cover":"BKN","base":4000}],"obsTime":1775512800},"SBBE":{"icaoId":"SBBE","flightCategory":"VFR","rawOb":"METAR SBBE 062200Z COR 05003KT 9999 SCT040 BKN096 25/25 Q1012","temp":25,"dewp":25,"wdir":50,"wspd":3,"visib":"6+","altim":1012,"clouds":[{"cover":"SCT","base":4000},{"cover":"BKN","base":9600}],"obsTime":1775512800},"SBBR":{"icaoId":"SBBR","flightCategory":"VFR","rawOb":"METAR SBBR 062200Z 11006KT 9999 SCT040 FEW045TCU SCT100 25/19 Q1018","temp":25,"dewp":19,"wdir":110,"wspd":6,"visib":"6+","altim":1018,"clouds":[{"cover":"SCT","base":4000},{"cover":"FEW","base":4500},{"cover":"SCT","base":10000}],"obsTime":1775512800},"SBBV":{"icaoId":"SBBV","flightCategory":"VFR","rawOb":"METAR SBBV 062200Z 15004KT 9999 SCT040 FEW045TCU 32/22 Q1007","temp":32,"dewp":22,"wdir":150,"wspd":4,"visib":"6+","altim":1007,"clouds":[{"cover":"SCT","base":4000},{"cover":"FEW","base":4500}],"obsTime":1775512800},"SBCF":{"icaoId":"SBCF","flightCategory":"VFR","rawOb":"METAR SBCF 062200Z 10006KT 9999 VCTS SCT040 FEW045CB 25/19 Q1019","temp":25,"dewp":19,"wdir":100,"wspd":6,"visib":"6+","altim":1019,"clouds":[{"cover":"SCT","base":4000},{"cover":"FEW","base":4500}],"obsTime":1775512800},"SBCG":{"icaoId":"SBCG","flightCategory":"VFR","rawOb":"METAR SBCG 062200Z 18003KT 9999 FEW045 FEW050TCU 26/21 Q1013","temp":26,"dewp":21,"wdir":180,"wspd":3,"visib":"6+","altim":1013,"clouds":[{"cover":"FEW","base":4500},{"cover":"FEW","base":5000}],"obsTime":1775512800},"SBCT":{"icaoId":"SBCT","flightCategory":"IFR","rawOb":"METAR SBCT 062200Z 10007KT 9999 BKN009 20/18 Q1020","temp":20,"dewp":18,"wdir":100,"wspd":7,"visib":"6+","altim":1020,"clouds":[{"cover":"BKN","base":900}],"obsTime":1775512800},"SBCZ":{"icaoId":"SBCZ","flightCategory":"MVFR","rawOb":"METAR SBCZ 062200Z 29006KT 240V330 9999 TS VCSH BKN015 BKN030 FEW035CB 27/24 Q1009","temp":27,"dewp":24,"wdir":290,"wspd":6,"visib":"6+","altim":1009,"clouds":[{"cover":"BKN","base":1500},{"cover":"BKN","base":3000},{"cover":"FEW","base":3500}],"obsTime":1775512800},"SBEG":{"icaoId":"SBEG","flightCategory":"VFR","rawOb":"METAR SBEG 062200Z 06004KT 9999 VCSH FEW025 FEW030TCU SCT090 27/24 Q1008","temp":27,"dewp":24,"wdir":60,"wspd":4,"visib":"6+","altim":1008,"clouds":[{"cover":"FEW","base":2500},{"cover":"FEW","base":3000},{"cover":"SCT","base":9000}],"obsTime":1775512800},"SBFI":{"icaoId":"SBFI","flightCategory":"VFR","rawOb":"METAR SBFI 062200Z 04005KT 9999 FEW030TCU 29/24 Q1010","temp":29,"dewp":24,"wdir":40,"wspd":5,"visib":"6+","altim":1010,"clouds":[{"cover":"FEW","base":3000}],"obsTime":1775512800},"SBFL":{"icaoId":"SBFL","flightCategory":"IFR","rawOb":"METAR SBFL 062200Z 07004KT 040V110 4500 -DZ BKN013 OVC021 24/23 Q1016","temp":24,"dewp":23,"wdir":70,"wspd":4,"visib":2.8,"altim":1016,"clouds":[{"cover":"BKN","base":1300},{"cover":"OVC","base":2100}],"obsTime":1775512800},"SBFZ":{"icaoId":"SBFZ","flightCategory":"VFR","rawOb":"METAR SBFZ 062200Z 10003KT 9999 FEW030 27/23 Q1011","temp":27,"dewp":23,"wdir":100,"wspd":3,"visib":"6+","altim":1011,"clouds":[{"cover":"FEW","base":3000}],"obsTime":1775512800},"SBGL":{"icaoId":"SBGL","flightCategory":"VFR","rawOb":"METAR SBGL 062200Z 14008KT 9999 SCT030 26/22 Q1016","temp":26,"dewp":22,"wdir":140,"wspd":8,"visib":"6+","altim":1016,"clouds":[{"cover":"SCT","base":3000}],"obsTime":1775512800},"SBGO":{"icaoId":"SBGO","flightCategory":"VFR","rawOb":"METAR SBGO 062200Z 08002KT 9999 FEW040 FEW045TCU BKN100 25/18 Q1016","temp":25,"dewp":18,"wdir":80,"wspd":2,"visib":"6+","altim":1016,"clouds":[{"cover":"FEW","base":4000},{"cover":"FEW","base":4500},{"cover":"BKN","base":10000}],"obsTime":1775512800},"SBGR":{"icaoId":"SBGR","flightCategory":"MVFR","rawOb":"METAR SBGR 062200Z 10007KT 9999 BKN013 23/20 Q1018","temp":23,"dewp":20,"wdir":100,"wspd":7,"visib":"6+","altim":1018,"clouds":[{"cover":"BKN","base":1300}],"obsTime":1775512800},"SBIL":{"icaoId":"SBIL","flightCategory":"VFR","rawOb":"METAR SBIL 062200Z 15007KT 9999 SCT023 28/25 Q1015","temp":28,"dewp":25,"wdir":150,"wspd":7,"visib":"6+","altim":1015,"clouds":[{"cover":"SCT","base":2300}],"obsTime":1775512800},"SBJU":{"icaoId":"SBJU","flightCategory":"VFR","rawOb":"METAR SBJU 062200Z 09004KT 9999 SCT020 26/23 Q1014","temp":26,"dewp":23,"wdir":90,"wspd":4,"visib":"6+","altim":1014,"clouds":[{"cover":"SCT","base":2000}],"obsTime":1775512800},"SBKP":{"icaoId":"SBKP","flightCategory":"VFR","rawOb":"METAR SBKP 062200Z 12005KT 9999 VCTS FEW030CB 24/21 Q1017","temp":24,"dewp":21,"wdir":120,"wspd":5,"visib":"6+","altim":1017,"clouds":[{"cover":"FEW","base":3000}],"obsTime":1775512800},"SBLO":{"icaoId":"SBLO","flightCategory":"VFR","rawOb":"METAR SBLO 062200Z 20008KT 9999 FEW030 25/19 Q1015","temp":25,"dewp":19,"wdir":200,"wspd":8,"visib":"6+","altim":1015,"clouds":[{"cover":"FEW","base":3000}],"obsTime":1775512800},"SBMA":{"icaoId":"SBMA","flightCategory":"VFR","rawOb":"METAR SBMA 062200Z 25003KT 9999 FEW020 BKN100 29/25 Q1010","temp":29,"dewp":25,"wdir":250,"wspd":3,"visib":"6+","altim":1010,"clouds":[{"cover":"FEW","base":2000},{"cover":"BKN","base":10000}],"obsTime":1775512800},"SBME":{"icaoId":"SBME","flightCategory":"VFR","rawOb":"METAR SBME 062200Z 08004KT 9999 SCT040 27/23 Q1016","temp":27,"dewp":23,"wdir":80,"wspd":4,"visib":"6+","altim":1016,"clouds":[{"cover":"SCT","base":4000}],"obsTime":1775512800},"SBMG":{"icaoId":"SBMG","flightCategory":"VFR","rawOb":"METAR SBMG 062200Z 15006KT 9999 VCTS FEW048 FEW050CB 26/21 Q1013","temp":26,"dewp":21,"wdir":150,"wspd":6,"visib":"6+","altim":1013,"clouds":[{"cover":"FEW","base":4800},{"cover":"FEW","base":5000}],"obsTime":1775512800},"SBMK":{"icaoId":"SBMK","flightCategory":"VFR","rawOb":"METAR SBMK 062200Z 09005KT CAVOK 27/19 Q1016","temp":27,"dewp":19,"wdir":90,"wspd":5,"visib":"6+","altim":1016,"clouds":[],"obsTime":1775512800},"SBMO":{"icaoId":"SBMO","flightCategory":"VFR","rawOb":"METAR SBMO 062200Z 13005KT 9999 FEW026 27/25 Q1014","temp":27,"dewp":25,"wdir":130,"wspd":5,"visib":"6+","altim":1014,"clouds":[{"cover":"FEW","base":2600}],"obsTime":1775512800},"SBMQ":{"icaoId":"SBMQ","flightCategory":"VFR","rawOb":"METAR SBMQ 062200Z 07007KT 9999 SCT017 FEW040TCU 28/25 Q1011","temp":28,"dewp":25,"wdir":70,"wspd":7,"visib":"6+","altim":1011,"clouds":[{"cover":"SCT","base":1700},{"cover":"FEW","base":4000}],"obsTime":1775512800},"SBNT":{"icaoId":"SBNT","flightCategory":"VFR","rawOb":"METAR SBNT 062200Z 16009KT 9999 FEW025 SCT080 25/23 Q1013","temp":25,"dewp":23,"wdir":160,"wspd":9,"visib":"6+","altim":1013,"clouds":[{"cover":"FEW","base":2500},{"cover":"SCT","base":8000}],"obsTime":1775512800},"SBPA":{"icaoId":"SBPA","flightCategory":"VFR","rawOb":"METAR SBPA 062200Z 10017KT 9999 FEW040 24/20 Q1013","temp":24,"dewp":20,"wdir":100,"wspd":17,"visib":"6+","altim":1013,"clouds":[{"cover":"FEW","base":4000}],"obsTime":1775512800},"SBPJ":{"icaoId":"SBPJ","flightCategory":"VFR","rawOb":"METAR SBPJ 062200Z 01003KT 9999 FEW017 27/25 Q1012","temp":27,"dewp":25,"wdir":10,"wspd":3,"visib":"6+","altim":1012,"clouds":[{"cover":"FEW","base":1700}],"obsTime":1775512800},"SBPV":{"icaoId":"SBPV","flightCategory":"VFR","rawOb":"METAR SBPV 062200Z 07003KT 9999 VCSH SCT035 FEW040TCU 28/24 Q1007","temp":28,"dewp":24,"wdir":70,"wspd":3,"visib":"6+","altim":1007,"clouds":[{"cover":"SCT","base":3500},{"cover":"FEW","base":4000}],"obsTime":1775512800},"SBRB":{"icaoId":"SBRB","flightCategory":"MVFR","rawOb":"METAR SBRB 062200Z 21002KT 8000 VCTS FEW033 FEW035CB SCT100 28/25 Q1008","temp":28,"dewp":25,"wdir":210,"wspd":2,"visib":4.97,"altim":1008,"clouds":[{"cover":"FEW","base":3300},{"cover":"FEW","base":3500},{"cover":"SCT","base":10000}],"obsTime":1775512800},"SBSG":{"icaoId":"SBSG","flightCategory":"VFR","rawOb":"METAR SBSG 062200Z 15007KT 110V190 9999 SCT030 SCT070 26/24 Q1013","temp":26,"dewp":24,"wdir":150,"wspd":7,"visib":"6+","altim":1013,"clouds":[{"cover":"SCT","base":3000},{"cover":"SCT","base":7000}],"obsTime":1775512800},"SBSL":{"icaoId":"SBSL","flightCategory":"VFR","rawOb":"METAR SBSL 062200Z 11003KT 9999 SCT020 FEW025TCU BKN080 27/25 Q1012","temp":27,"dewp":25,"wdir":110,"wspd":3,"visib":"6+","altim":1012,"clouds":[{"cover":"SCT","base":2000},{"cover":"FEW","base":2500},{"cover":"BKN","base":8000}],"obsTime":1775512800},"SBSN":{"icaoId":"SBSN","flightCategory":"VFR","rawOb":"METAR SBSN 062200Z 06004KT 9999 FEW025TCU 29/25 Q1008","temp":29,"dewp":25,"wdir":60,"wspd":4,"visib":"6+","altim":1008,"clouds":[{"cover":"FEW","base":2500}],"obsTime":1775512800},"SBSP":{"icaoId":"SBSP","flightCategory":"MVFR","rawOb":"METAR SBSP 062200Z 16009KT 9999 BKN015 22/20 Q1020","temp":22,"dewp":20,"wdir":160,"wspd":9,"visib":"6+","altim":1020,"clouds":[{"cover":"BKN","base":1500}],"obsTime":1775512800},"SBSV":{"icaoId":"SBSV","flightCategory":"VFR","rawOb":"METAR SBSV 062200Z 14004KT 110V180 9999 FEW019 27/23 Q1014","temp":27,"dewp":23,"wdir":140,"wspd":4,"visib":"6+","altim":1014,"clouds":[{"cover":"FEW","base":1900}],"obsTime":1775512800},"SBTE":{"icaoId":"SBTE","flightCategory":"VFR","rawOb":"METAR SBTE 062200Z 00000KT 9999 FEW020 27/25 Q1011","temp":27,"dewp":25,"wdir":0,"wspd":0,"visib":"6+","altim":1011,"clouds":[{"cover":"FEW","base":2000}],"obsTime":1775512800},"SBUL":{"icaoId":"SBUL","flightCategory":"VFR","rawOb":"METAR SBUL 062200Z 10004KT 9999 SCT035 FEW040TCU SCT100 25/18 Q1019","temp":25,"dewp":18,"wdir":100,"wspd":4,"visib":"6+","altim":1019,"clouds":[{"cover":"SCT","base":3500},{"cover":"FEW","base":4000},{"cover":"SCT","base":10000}],"obsTime":1775512800},"SBUR":{"icaoId":"SBUR","flightCategory":"IFR","rawOb":"METAR SBUR 062200Z 01003KT 4000 TSRA BKN050 SCT053 FEW053CB 21/19 Q1018","temp":21,"dewp":19,"wdir":10,"wspd":3,"visib":2.49,"altim":1018,"clouds":[{"cover":"BKN","base":5000},{"cover":"SCT","base":5300},{"cover":"FEW","base":5300}],"obsTime":1775512800},"SBVT":{"icaoId":"SBVT","flightCategory":"VFR","rawOb":"METAR SBVT 062200Z 12005KT 9999 SCT025 26/23 Q1016","temp":26,"dewp":23,"wdir":120,"wspd":5,"visib":"6+","altim":1016,"clouds":[{"cover":"SCT","base":2500}],"obsTime":1775512800},"SBCP":{"icaoId":"SBCP","flightCategory":"VFR","rawOb":"METAR SBCP 062200Z 08006KT 9999 FEW020 24/23 Q1016","temp":24,"dewp":23,"wdir":80,"wspd":6,"visib":"6+","altim":1016,"clouds":[{"cover":"FEW","base":2000}],"obsTime":1775512800},"SBOI":{"icaoId":"SBOI","flightCategory":"VFR","rawOb":"METAR SBOI 062200Z AUTO VRB01KT 9999 FEW005 SCT010 BKN038 25/24 Q1011 REDZ","temp":25,"dewp":24,"wdir":"VRB","wspd":1,"visib":"6+","altim":1011,"clouds":[{"cover":"FEW","base":500},{"cover":"SCT","base":1000},{"cover":"BKN","base":3800}],"obsTime":1775512800},"SBCO":{"icaoId":"SBCO","flightCategory":"VFR","rawOb":"METAR SBCO 062200Z 10012KT 9999 FEW040 SCT100 24/20 Q1014","temp":24,"dewp":20,"wdir":100,"wspd":12,"visib":"6+","altim":1014,"clouds":[{"cover":"FEW","base":4000},{"cover":"SCT","base":10000}],"obsTime":1775512800},"SBSC":{"icaoId":"SBSC","flightCategory":"MVFR","rawOb":"METAR SBSC 062200Z 16007KT 9999 FEW010 BKN030 26/22 Q1016","temp":26,"dewp":22,"wdir":160,"wspd":7,"visib":"6+","altim":1016,"clouds":[{"cover":"FEW","base":1000},{"cover":"BKN","base":3000}],"obsTime":1775512800},"SBAX":{"icaoId":"SBAX","flightCategory":"VFR","rawOb":"METAR SBAX 062200Z 14001KT 9999 SCT045 20/20 Q1019","temp":20,"dewp":20,"wdir":140,"wspd":1,"visib":"6+","altim":1019,"clouds":[{"cover":"SCT","base":4500}],"obsTime":1775512800},"SBAR":{"icaoId":"SBAR","flightCategory":"VFR","rawOb":"METAR SBAR 062200Z 13008KT 9999 SCT023 29/24 Q1014","temp":29,"dewp":24,"wdir":130,"wspd":8,"visib":"6+","altim":1014,"clouds":[{"cover":"SCT","base":2300}],"obsTime":1775512800},"SBSJ":{"icaoId":"SBSJ","flightCategory":"VFR","rawOb":"METAR SBSJ 062200Z 11011KT 9999 FEW040 SCT060 23/19 Q1018","temp":23,"dewp":19,"wdir":110,"wspd":11,"visib":"6+","altim":1018,"clouds":[{"cover":"FEW","base":4000},{"cover":"SCT","base":6000}],"obsTime":1775512800},"SBSM":{"icaoId":"SBSM","flightCategory":"VFR","rawOb":"METAR SBSM 062200Z 06008KT 9999 VCTS SCT030 FEW040CB SCT070 21/21 Q1012 RETSRA","temp":21,"dewp":21,"wdir":60,"wspd":8,"visib":"6+","altim":1012,"clouds":[{"cover":"SCT","base":3000},{"cover":"FEW","base":4000},{"cover":"SCT","base":7000}],"obsTime":1775512800},"SBDN":{"icaoId":"SBDN","flightCategory":"VFR","rawOb":"METAR SBDN 062200Z 07004KT 9999 FEW040 25/20 Q1014","temp":25,"dewp":20,"wdir":70,"wspd":4,"visib":"6+","altim":1014,"clouds":[{"cover":"FEW","base":4000}],"obsTime":1775512800},"SBSR":{"icaoId":"SBSR","flightCategory":"VFR","rawOb":"METAR SBSR 062200Z 05003KT 360V080 9999 FEW030 FEW030TCU 29/19 Q1015","temp":29,"dewp":19,"wdir":50,"wspd":3,"visib":"6+","altim":1015,"clouds":[{"cover":"FEW","base":3000},{"cover":"FEW","base":3000}],"obsTime":1775512800},"SBKG":{"icaoId":"SBKG","flightCategory":"VFR","rawOb":"METAR SBKG 062200Z 08007KT CAVOK 24/22 Q1015","temp":24,"dewp":22,"wdir":80,"wspd":7,"visib":"6+","altim":1015,"clouds":[],"obsTime":1775512800},"SBBU":{"icaoId":"SBBU","flightCategory":"VFR","rawOb":"METAR SBBU 062200Z 21004KT 9999 FEW045 SCT100 24/22 Q1016","temp":24,"dewp":22,"wdir":210,"wspd":4,"visib":"6+","altim":1016,"clouds":[{"cover":"FEW","base":4500},{"cover":"SCT","base":10000}],"obsTime":1775512800},"SBTT":{"icaoId":"SBTT","flightCategory":"VFR","rawOb":"METAR SBTT 062200Z VRB01KT 9999 FEW020 28/23 Q1008","temp":28,"dewp":23,"wdir":"VRB","wspd":1,"visib":"6+","altim":1008,"clouds":[{"cover":"FEW","base":2000}],"obsTime":1775512800},"SBBH":{"icaoId":"SBBH","flightCategory":"VFR","rawOb":"METAR SBBH 062200Z 11006KT CAVOK 25/19 Q1018","temp":25,"dewp":19,"wdir":110,"wspd":6,"visib":"6+","altim":1018,"clouds":[],"obsTime":1775512800},"SBPS":{"icaoId":"SBPS","flightCategory":"MVFR","rawOb":"METAR SBPS 062200Z 12007KT 9999 SCT015 BKN017 27/24 Q1015","temp":27,"dewp":24,"wdir":120,"wspd":7,"visib":"6+","altim":1015,"clouds":[{"cover":"SCT","base":1500},{"cover":"BKN","base":1700}],"obsTime":1775512800},"SBPL":{"icaoId":"SBPL","flightCategory":"VFR","rawOb":"METAR SBPL 062200Z 07004KT CAVOK 27/23 Q1013","temp":27,"dewp":23,"wdir":70,"wspd":4,"visib":"6+","altim":1013,"clouds":[],"obsTime":1775512800},"SBUY":{"icaoId":"SBUY","flightCategory":"VFR","rawOb":"METAR SBUY 062200Z 00000KT 9999 VCSH FEW030 FEW035TCU SCT100 29/26 Q1005","temp":29,"dewp":26,"wdir":0,"wspd":0,"visib":"6+","altim":1005,"clouds":[{"cover":"FEW","base":3000},{"cover":"FEW","base":3500},{"cover":"SCT","base":10000}],"obsTime":1775512800},"SBVH":{"icaoId":"SBVH","flightCategory":"VFR","rawOb":"METAR SBVH 062200Z 09005KT 9999 SCT040 26/23 Q1012","temp":26,"dewp":23,"wdir":90,"wspd":5,"visib":"6+","altim":1012,"clouds":[{"cover":"SCT","base":4000}],"obsTime":1775512800},"SBCA":{"icaoId":"SBCA","flightCategory":"VFR","rawOb":"METAR SBCA 062200Z 04010KT 9999 SCT035 SCT080 26/19 Q1015","temp":26,"dewp":19,"wdir":40,"wspd":10,"visib":"6+","altim":1015,"clouds":[{"cover":"SCT","base":3500},{"cover":"SCT","base":8000}],"obsTime":1775512800},"SBTF":{"icaoId":"SBTF","flightCategory":"VFR","rawOb":"METAR SBTF 062200Z 13002KT 9999 FEW020 32/26 Q1006","temp":32,"dewp":26,"wdir":130,"wspd":2,"visib":"6+","altim":1006,"clouds":[{"cover":"FEW","base":2000}],"obsTime":1775512800},"SBJP":{"icaoId":"SBJP","flightCategory":"IFR","rawOb":"METAR SBJP 062200Z 02007KT 4000 -RA SCT020 BKN070 25/24 Q1014","temp":25,"dewp":24,"wdir":20,"wspd":7,"visib":2.49,"altim":1014,"clouds":[{"cover":"SCT","base":2000},{"cover":"BKN","base":7000}],"obsTime":1775512800},"SBLS":{"icaoId":"SBLS","flightCategory":"VFR","rawOb":"METAR SBLS 062200Z 14007KT CAVOK 24/19 Q1019","temp":24,"dewp":19,"wdir":140,"wspd":7,"visib":"6+","altim":1019,"clouds":[],"obsTime":1775512800},"SBMT":{"icaoId":"SBMT","flightCategory":"MVFR","rawOb":"METAR SBMT 062200Z 14007KT 100V170 9999 BKN019 23/20 Q1018","temp":23,"dewp":20,"wdir":140,"wspd":7,"visib":"6+","altim":1018,"clouds":[{"cover":"BKN","base":1900}],"obsTime":1775512800},"SBST":{"icaoId":"SBST","flightCategory":"MVFR","rawOb":"METAR SBST 062200Z 16005KT 8000 SCT015 BKN034 25/23 Q1015","temp":25,"dewp":23,"wdir":160,"wspd":5,"visib":4.97,"altim":1015,"clouds":[{"cover":"SCT","base":1500},{"cover":"BKN","base":3400}],"obsTime":1775512800},"SBTA":{"icaoId":"SBTA","flightCategory":"VFR","rawOb":"METAR SBTA 062200Z 14006KT 070V170 9999 BKN040 23/19 Q1017","temp":23,"dewp":19,"wdir":140,"wspd":6,"visib":"6+","altim":1017,"clouds":[{"cover":"BKN","base":4000}],"obsTime":1775512800},"SBAN":{"icaoId":"SBAN","flightCategory":"VFR","rawOb":"METAR SBAN 062200Z 01002KT 9999 VCTS FEW035 FEW040CB BKN100 22/18 Q1019","temp":22,"dewp":18,"wdir":10,"wspd":2,"visib":"6+","altim":1019,"clouds":[{"cover":"FEW","base":3500},{"cover":"FEW","base":4000},{"cover":"BKN","base":10000}],"obsTime":1775512800},"SBNM":{"icaoId":"SBNM","flightCategory":"VFR","rawOb":"METAR SBNM 062200Z 06002KT 9999 SCT025 FEW030TCU SCT100 28/18 Q1010","temp":28,"dewp":18,"wdir":60,"wspd":2,"visib":"6+","altim":1010,"clouds":[{"cover":"SCT","base":2500},{"cover":"FEW","base":3000},{"cover":"SCT","base":10000}],"obsTime":1775512800},"SBPF":{"icaoId":"SBPF","flightCategory":"VFR","rawOb":"METAR SBPF 062200Z 02007KT 9999 VCTS FEW040 FEW050CB 25/18 Q1017","temp":25,"dewp":18,"wdir":20,"wspd":7,"visib":"6+","altim":1017,"clouds":[{"cover":"FEW","base":4000},{"cover":"FEW","base":5000}],"obsTime":1775512800},"SBAF":{"icaoId":"SBAF","flightCategory":"VFR","rawOb":"METAR SBAF 062200Z 16002KT CAVOK 25/24 Q1016","temp":25,"dewp":24,"wdir":160,"wspd":2,"visib":"6+","altim":1016,"clouds":[],"obsTime":1775512800},"SBJV":{"icaoId":"SBJV","flightCategory":"MVFR","rawOb":"METAR SBJV 062200Z 15003KT 7000 BKN014 BKN040 23/23 Q1016 RERA","temp":23,"dewp":23,"wdir":150,"wspd":3,"visib":4.35,"altim":1016,"clouds":[{"cover":"BKN","base":1400},{"cover":"BKN","base":4000}],"obsTime":1775512800},"SBJR":{"icaoId":"SBJR","flightCategory":"VFR","rawOb":"METAR SBJR 062200Z 23003KT 9999 FEW008 25/23 Q1016","temp":25,"dewp":23,"wdir":230,"wspd":3,"visib":"6+","altim":1016,"clouds":[{"cover":"FEW","base":800}],"obsTime":1775512800},"SBGW":{"icaoId":"SBGW","flightCategory":"VFR","rawOb":"METAR SBGW 062200Z 02003KT 9999 SCT042 FEW045TCU BKN100 24/18 Q1017","temp":24,"dewp":18,"wdir":20,"wspd":3,"visib":"6+","altim":1017,"clouds":[{"cover":"SCT","base":4200},{"cover":"FEW","base":4500},{"cover":"BKN","base":10000}],"obsTime":1775512800}}}