{"updated":1776530034,"count":86,"data":{"SBLO":{"icaoId":"SBLO","flightCategory":"MVFR","rawOb":"METAR SBLO 181500Z 28007KT 210V310 9999 BKN030 29/20 Q1012","temp":29,"dewp":20,"wdir":280,"wspd":7,"visib":"6+","altim":1012,"clouds":[{"cover":"BKN","base":3000}],"obsTime":1776524400},"SBMA":{"icaoId":"SBMA","flightCategory":"VFR","rawOb":"METAR SBMA 181500Z 25005KT 9999 SCT012 SCT080 26/24 Q1010","temp":26,"dewp":24,"wdir":250,"wspd":5,"visib":"6+","altim":1010,"clouds":[{"cover":"SCT","base":1200},{"cover":"SCT","base":8000}],"obsTime":1776524400},"SBEG":{"icaoId":"SBEG","flightCategory":"VFR","rawOb":"METAR SBEG 181500Z 27005KT 220V320 9999 SCT015 FEW025TCU 29/25 Q1011","temp":29,"dewp":25,"wdir":270,"wspd":5,"visib":"6+","altim":1011,"clouds":[{"cover":"SCT","base":1500},{"cover":"FEW","base":2500}],"obsTime":1776524400},"SBCG":{"icaoId":"SBCG","flightCategory":"MVFR","rawOb":"METAR SBCG 181500Z 25004KT 210V280 9999 BKN023 29/22 Q1012","temp":29,"dewp":22,"wdir":250,"wspd":4,"visib":"6+","altim":1012,"clouds":[{"cover":"BKN","base":2300}],"obsTime":1776524400},"SBME":{"icaoId":"SBME","flightCategory":"VFR","rawOb":"METAR SBME 181500Z 15006KT CAVOK 31/23 Q1007","temp":31,"dewp":23,"wdir":150,"wspd":6,"visib":"6+","altim":1007,"clouds":[],"obsTime":1776524400},"SBFI":{"icaoId":"SBFI","flightCategory":"VFR","rawOb":"METAR SBFI 181500Z 14005KT 9999 FEW030 27/20 Q1011","temp":27,"dewp":20,"wdir":140,"wspd":5,"visib":"6+","altim":1011,"clouds":[{"cover":"FEW","base":3000}],"obsTime":1776524400},"SBMG":{"icaoId":"SBMG","flightCategory":"MVFR","rawOb":"METAR SBMG 181500Z 22007KT 180V260 9999 BKN020 27/21 Q1011","temp":27,"dewp":21,"wdir":220,"wspd":7,"visib":"6+","altim":1011,"clouds":[{"cover":"BKN","base":2000}],"obsTime":1776524400},"SBBE":{"icaoId":"SBBE","flightCategory":"MVFR","rawOb":"METAR SBBE 181500Z 33004KT 9999 BKN030 BKN037 29/25 Q1008","temp":29,"dewp":25,"wdir":330,"wspd":4,"visib":"6+","altim":1008,"clouds":[{"cover":"BKN","base":3000},{"cover":"BKN","base":3700}],"obsTime":1776524400},"SBMK":{"icaoId":"SBMK","flightCategory":"VFR","rawOb":"METAR SBMK 181500Z 11003KT 9999 SCT040 28/18 Q1013","temp":28,"dewp":18,"wdir":110,"wspd":3,"visib":"6+","altim":1013,"clouds":[{"cover":"SCT","base":4000}],"obsTime":1776524400},"SBMO":{"icaoId":"SBMO","flightCategory":"MVFR","rawOb":"METAR SBMO 181500Z 13007KT 9999 VCSH BKN023 30/24 Q1009","temp":30,"dewp":24,"wdir":130,"wspd":7,"visib":"6+","altim":1009,"clouds":[{"cover":"BKN","base":2300}],"obsTime":1776524400},"SBFL":{"icaoId":"SBFL","flightCategory":"VFR","rawOb":"METAR SBFL 181500Z 22004KT 9999 FEW030 28/20 Q1007","temp":28,"dewp":20,"wdir":220,"wspd":4,"visib":"6+","altim":1007,"clouds":[{"cover":"FEW","base":3000}],"obsTime":1776524400},"SBMQ":{"icaoId":"SBMQ","flightCategory":"MVFR","rawOb":"METAR SBMQ 181500Z 36011KT 320V040 9999 BKN017 SCT030 BKN100 30/25 Q1009","temp":30,"dewp":25,"wdir":360,"wspd":11,"visib":"6+","altim":1009,"clouds":[{"cover":"BKN","base":1700},{"cover":"SCT","base":3000},{"cover":"BKN","base":10000}],"obsTime":1776524400},"SBBV":{"icaoId":"SBBV","flightCategory":"VFR","rawOb":"METAR SBBV 181500Z 09013KT 9999 FEW025 FEW040TCU BKN070 30/21 Q1011","temp":30,"dewp":21,"wdir":90,"wspd":13,"visib":"6+","altim":1011,"clouds":[{"cover":"FEW","base":2500},{"cover":"FEW","base":4000},{"cover":"BKN","base":7000}],"obsTime":1776524400},"SBFZ":{"icaoId":"SBFZ","flightCategory":"VFR","rawOb":"METAR SBFZ 181500Z 11015KT 080V140 9999 SCT025 31/24 Q1007","temp":31,"dewp":24,"wdir":110,"wspd":15,"visib":"6+","altim":1007,"clouds":[{"cover":"SCT","base":2500}],"obsTime":1776524400},"SBNT":{"icaoId":"SBNT","flightCategory":"MVFR","rawOb":"METAR SBNT 181500Z 12014KT 9999 SCT023 BKN027 FEW030TCU BKN050 30/25 Q1008","temp":30,"dewp":25,"wdir":120,"wspd":14,"visib":"6+","altim":1008,"clouds":[{"cover":"SCT","base":2300},{"cover":"BKN","base":2700},{"cover":"FEW","base":3000},{"cover":"BKN","base":5000}],"obsTime":1776524400},"SBGL":{"icaoId":"SBGL","flightCategory":"VFR","rawOb":"METAR SBGL 181500Z 03006KT 9999 FEW030 29/20 Q1007","temp":29,"dewp":20,"wdir":30,"wspd":6,"visib":"6+","altim":1007,"clouds":[{"cover":"FEW","base":3000}],"obsTime":1776524400},"SBPA":{"icaoId":"SBPA","flightCategory":"VFR","rawOb":"METAR SBPA 181500Z 29014KT 240V330 9999 SCT025 25/18 Q1009","temp":25,"dewp":18,"wdir":290,"wspd":14,"visib":"6+","altim":1009,"clouds":[{"cover":"SCT","base":2500}],"obsTime":1776524400},"SBCP":{"icaoId":"SBCP","flightCategory":"VFR","rawOb":"METAR SBCP 181500Z 36006KT CAVOK 32/21 Q1007","temp":32,"dewp":21,"wdir":360,"wspd":6,"visib":"6+","altim":1007,"clouds":[],"obsTime":1776524400},"SBPJ":{"icaoId":"SBPJ","flightCategory":"VFR","rawOb":"METAR SBPJ 181500Z 35008KT 9999 FEW028TCU SCT033 28/23 Q1011","temp":28,"dewp":23,"wdir":350,"wspd":8,"visib":"6+","altim":1011,"clouds":[{"cover":"FEW","base":2800},{"cover":"SCT","base":3300}],"obsTime":1776524400},"SBPV":{"icaoId":"SBPV","flightCategory":"MVFR","rawOb":"METAR SBPV 181500Z 03003KT 9999 BKN012 26/24 Q1011","temp":26,"dewp":24,"wdir":30,"wspd":3,"visib":"6+","altim":1011,"clouds":[{"cover":"BKN","base":1200}],"obsTime":1776524400},"SBGO":{"icaoId":"SBGO","flightCategory":"VFR","rawOb":"METAR SBGO 181500Z 21002KT 9999 SCT043 30/19 Q1014","temp":30,"dewp":19,"wdir":210,"wspd":2,"visib":"6+","altim":1014,"clouds":[{"cover":"SCT","base":4300}],"obsTime":1776524400},"SBRB":{"icaoId":"SBRB","flightCategory":"VFR","rawOb":"METAR SBRB 181500Z 32005KT 9999 SCT015 SCT100 29/24 Q1012","temp":29,"dewp":24,"wdir":320,"wspd":5,"visib":"6+","altim":1012,"clouds":[{"cover":"SCT","base":1500},{"cover":"SCT","base":10000}],"obsTime":1776524400},"SBCR":{"icaoId":"SBCR","flightCategory":"VFR","rawOb":"METAR SBCR 181500Z 33005KT 280V010 9999 FEW040 31/22 Q1010","temp":31,"dewp":22,"wdir":330,"wspd":5,"visib":"6+","altim":1010,"clouds":[{"cover":"FEW","base":4000}],"obsTime":1776524400},"SBGR":{"icaoId":"SBGR","flightCategory":"VFR","rawOb":"METAR SBGR 181500Z 29013KT CAVOK 28/17 Q1012","temp":28,"dewp":17,"wdir":290,"wspd":13,"visib":"6+","altim":1012,"clouds":[],"obsTime":1776524400},"SBRF":{"icaoId":"SBRF","flightCategory":"VFR","rawOb":"METAR SBRF 181500Z 12010KT 9999 SCT023 30/25 Q1008","temp":30,"dewp":25,"wdir":120,"wspd":10,"visib":"6+","altim":1008,"clouds":[{"cover":"SCT","base":2300}],"obsTime":1776524400},"SBCB":{"icaoId":"SBCB","flightCategory":"VFR","rawOb":"METAR SBCB 181500Z 19006KT 9999 FEW025 SCT100 27/23 Q1008","temp":27,"dewp":23,"wdir":190,"wspd":6,"visib":"6+","altim":1008,"clouds":[{"cover":"FEW","base":2500},{"cover":"SCT","base":10000}],"obsTime":1776524400},"SBSG":{"icaoId":"SBSG","flightCategory":"MVFR","rawOb":"METAR SBSG 181500Z 12009KT 090V160 9999 BKN023 SCT035 29/25 Q1008","temp":29,"dewp":25,"wdir":120,"wspd":9,"visib":"6+","altim":1008,"clouds":[{"cover":"BKN","base":2300},{"cover":"SCT","base":3500}],"obsTime":1776524400},"SBCF":{"icaoId":"SBCF","flightCategory":"VFR","rawOb":"METAR SBCF 181500Z VRB03KT 9999 FEW025 27/15 Q1014","temp":27,"dewp":15,"wdir":"VRB","wspd":3,"visib":"6+","altim":1014,"clouds":[{"cover":"FEW","base":2500}],"obsTime":1776524400},"SBSL":{"icaoId":"SBSL","flightCategory":"MVFR","rawOb":"METAR SBSL 181500Z 13014KT 9999 BKN023 30/24 Q1008","temp":30,"dewp":24,"wdir":130,"wspd":14,"visib":"6+","altim":1008,"clouds":[{"cover":"BKN","base":2300}],"obsTime":1776524400},"SBCT":{"icaoId":"SBCT","flightCategory":"VFR","rawOb":"METAR SBCT 181500Z 28013KT 240V300 9999 SCT035 26/14 Q1013","temp":26,"dewp":14,"wdir":280,"wspd":13,"visib":"6+","altim":1013,"clouds":[{"cover":"SCT","base":3500}],"obsTime":1776524400},"SBHT":{"icaoId":"SBHT","flightCategory":"MVFR","rawOb":"METAR SBHT 181500Z 36004KT 9999 BKN020 BKN100 29/25 Q1010","temp":29,"dewp":25,"wdir":360,"wspd":4,"visib":"6+","altim":1010,"clouds":[{"cover":"BKN","base":2000},{"cover":"BKN","base":10000}],"obsTime":1776524400},"SBSN":{"icaoId":"SBSN","flightCategory":"MVFR","rawOb":"METAR SBSN 181500Z 14004KT 5000 -TSRA BKN020 FEW040CB OVC070 26/25 Q1010","temp":26,"dewp":25,"wdir":140,"wspd":4,"visib":3.11,"altim":1010,"clouds":[{"cover":"BKN","base":2000},{"cover":"FEW","base":4000},{"cover":"OVC","base":7000}],"obsTime":1776524400},"SBSP":{"icaoId":"SBSP","flightCategory":"VFR","rawOb":"METAR SBSP 181500Z 33013KT 9999 FEW036 26/17 Q1013","temp":26,"dewp":17,"wdir":330,"wspd":13,"visib":"6+","altim":1013,"clouds":[{"cover":"FEW","base":3600}],"obsTime":1776524400},"SBAT":{"icaoId":"SBAT","flightCategory":"VFR","rawOb":"METAR SBAT 181500Z 03001KT 9999 SCT025 31/25 Q1012","temp":31,"dewp":25,"wdir":30,"wspd":1,"visib":"6+","altim":1012,"clouds":[{"cover":"SCT","base":2500}],"obsTime":1776524400},"SBIL":{"icaoId":"SBIL","flightCategory":"VFR","rawOb":"METAR SBIL 181500Z 11005KT 080V150 9999 SCT020 29/24 Q1010","temp":29,"dewp":24,"wdir":110,"wspd":5,"visib":"6+","altim":1010,"clouds":[{"cover":"SCT","base":2000}],"obsTime":1776524400},"SBSV":{"icaoId":"SBSV","flightCategory":"VFR","rawOb":"METAR SBSV 181500Z 11007KT 060V190 9999 SCT023 30/24 Q1009","temp":30,"dewp":24,"wdir":110,"wspd":7,"visib":"6+","altim":1009,"clouds":[{"cover":"SCT","base":2300}],"obsTime":1776524400},"SBTE":{"icaoId":"SBTE","flightCategory":"MVFR","rawOb":"METAR SBTE 181500Z 00000KT 9999 BKN020 31/24 Q1007","temp":31,"dewp":24,"wdir":0,"wspd":0,"visib":"6+","altim":1007,"clouds":[{"cover":"BKN","base":2000}],"obsTime":1776524400},"SBBR":{"icaoId":"SBBR","flightCategory":"VFR","rawOb":"METAR SBBR 181500Z 08005KT 030V150 9999 BKN040 27/17 Q1016","temp":27,"dewp":17,"wdir":80,"wspd":5,"visib":"6+","altim":1016,"clouds":[{"cover":"BKN","base":4000}],"obsTime":1776524400},"SBJU":{"icaoId":"SBJU","flightCategory":"MVFR","rawOb":"METAR SBJU 181500Z 15010KT 9999 BKN022 30/23 Q1010","temp":30,"dewp":23,"wdir":150,"wspd":10,"visib":"6+","altim":1010,"clouds":[{"cover":"BKN","base":2200}],"obsTime":1776524400},"SBUL":{"icaoId":"SBUL","flightCategory":"VFR","rawOb":"METAR SBUL 181500Z 16004KT 9999 FEW030 27/16 Q1015","temp":27,"dewp":16,"wdir":160,"wspd":4,"visib":"6+","altim":1015,"clouds":[{"cover":"FEW","base":3000}],"obsTime":1776524400},"SBKP":{"icaoId":"SBKP","flightCategory":"VFR","rawOb":"METAR SBKP 181500Z 32006KT 270V030 CAVOK 29/18 Q1012","temp":29,"dewp":18,"wdir":320,"wspd":6,"visib":"6+","altim":1012,"clouds":[],"obsTime":1776524400},"SBUR":{"icaoId":"SBUR","flightCategory":"VFR","rawOb":"METAR SBUR 181500Z 11003KT 9999 FEW035 29/16 Q1014","temp":29,"dewp":16,"wdir":110,"wspd":3,"visib":"6+","altim":1014,"clouds":[{"cover":"FEW","base":3500}],"obsTime":1776524400},"SBCZ":{"icaoId":"SBCZ","flightCategory":"VFR","rawOb":"METAR SBCZ 181500Z 01004KT 350V050 9999 -RA SCT010 SCT025 BKN090 26/24 Q1012","temp":26,"dewp":24,"wdir":10,"wspd":4,"visib":"6+","altim":1012,"clouds":[{"cover":"SCT","base":1000},{"cover":"SCT","base":2500},{"cover":"BKN","base":9000}],"obsTime":1776524400},"SBVT":{"icaoId":"SBVT","flightCategory":"VFR","rawOb":"METAR SBVT 181500Z 01005KT 9999 FEW040 32/20 Q1008","temp":32,"dewp":20,"wdir":10,"wspd":5,"visib":"6+","altim":1008,"clouds":[{"cover":"FEW","base":4000}],"obsTime":1776524400},"SBVH":{"icaoId":"SBVH","flightCategory":"VFR","rawOb":"METAR SBVH 181500Z 27002KT 9999 SCT013 BKN100 26/22 Q1014","temp":26,"dewp":22,"wdir":270,"wspd":2,"visib":"6+","altim":1014,"clouds":[{"cover":"SCT","base":1300},{"cover":"BKN","base":10000}],"obsTime":1776524400},"SBAR":{"icaoId":"SBAR","flightCategory":"VFR","rawOb":"METAR SBAR 181500Z 12008KT 090V160 9999 SCT025 30/23 Q1009","temp":30,"dewp":23,"wdir":120,"wspd":8,"visib":"6+","altim":1009,"clouds":[{"cover":"SCT","base":2500}],"obsTime":1776524400},"SBSJ":{"icaoId":"SBSJ","flightCategory":"VFR","rawOb":"METAR SBSJ 181500Z VRB05KT CAVOK 27/17 Q1012","temp":27,"dewp":17,"wdir":"VRB","wspd":5,"visib":"6+","altim":1012,"clouds":[],"obsTime":1776524400},"SBAX":{"icaoId":"SBAX","flightCategory":"VFR","rawOb":"METAR SBAX 181500Z AUTO 32005KT 260V360 CAVOK 27/14 Q1015","temp":27,"dewp":14,"wdir":320,"wspd":5,"visib":"6+","altim":1015,"clouds":[],"obsTime":1776524400},"SBBH":{"icaoId":"SBBH","flightCategory":"VFR","rawOb":"METAR SBBH 181500Z 11002KT 9999 FEW040 28/15 Q1013","temp":28,"dewp":15,"wdir":110,"wspd":2,"visib":"6+","altim":1013,"clouds":[{"cover":"FEW","base":4000}],"obsTime":1776524400},"SBBQ":{"icaoId":"SBBQ","flightCategory":"VFR","rawOb":"METAR SBBQ 181500Z VRB06KT 9999 FEW020 26/16 Q1016","temp":26,"dewp":16,"wdir":"VRB","wspd":6,"visib":"6+","altim":1016,"clouds":[{"cover":"FEW","base":2000}],"obsTime":1776524400},"SBBU":{"icaoId":"SBBU","flightCategory":"MVFR","rawOb":"METAR SBBU 181500Z 26010KT 6000 -RA BKN035 FEW040TCU 28/22 Q1011","temp":28,"dewp":22,"wdir":260,"wspd":10,"visib":3.73,"altim":1011,"clouds":[{"cover":"BKN","base":3500},{"cover":"FEW","base":4000}],"obsTime":1776524400},"SBCA":{"icaoId":"SBCA","flightCategory":"VFR","rawOb":"METAR SBCA 181500Z 21007KT 180V260 9999 FEW025 24/17 Q1014","temp":24,"dewp":17,"wdir":210,"wspd":7,"visib":"6+","altim":1014,"clouds":[{"cover":"FEW","base":2500}],"obsTime":1776524400},"SBCC":{"icaoId":"SBCC","flightCategory":"MVFR","rawOb":"METAR SBCC 181500Z 34002KT 9999 BKN025 29/22 Q1012","temp":29,"dewp":22,"wdir":340,"wspd":2,"visib":"6+","altim":1012,"clouds":[{"cover":"BKN","base":2500}],"obsTime":1776524400},"SBCJ":{"icaoId":"SBCJ","flightCategory":"MVFR","rawOb":"METAR SBCJ 181500Z 25005KT 5000 BR SCT002 BKN080 22/21 Q1014","temp":22,"dewp":21,"wdir":250,"wspd":5,"visib":3.11,"altim":1014,"clouds":[{"cover":"SCT","base":200},{"cover":"BKN","base":8000}],"obsTime":1776524400},"SBCO":{"icaoId":"SBCO","flightCategory":"MVFR","rawOb":"METAR SBCO 181500Z 29012KT 9999 BKN027 25/17 Q1010","temp":25,"dewp":17,"wdir":290,"wspd":12,"visib":"6+","altim":1010,"clouds":[{"cover":"BKN","base":2700}],"obsTime":1776524400},"SBDN":{"icaoId":"SBDN","flightCategory":"MVFR","rawOb":"METAR SBDN 181500Z 23008KT 9999 BKN030 31/21 Q1011","temp":31,"dewp":21,"wdir":230,"wspd":8,"visib":"6+","altim":1011,"clouds":[{"cover":"BKN","base":3000}],"obsTime":1776524400},"SBES":{"icaoId":"SBES","flightCategory":"VFR","rawOb":"METAR SBES 181500Z VRB07KT 9999 FEW020 SCT100 29/// Q1008","temp":null,"dewp":null,"wdir":"VRB","wspd":7,"visib":"6+","altim":1008,"clouds":[{"cover":"FEW","base":2000},{"cover":"SCT","base":10000}],"obsTime":1776524400},"SBGM":{"icaoId":"SBGM","flightCategory":"MVFR","rawOb":"METAR SBGM 181500Z 29003KT 200V340 9999 OVC010 27/22 Q1011","temp":27,"dewp":22,"wdir":290,"wspd":3,"visib":"6+","altim":1011,"clouds":[{"cover":"OVC","base":1000}],"obsTime":1776524400},"SBIP":{"icaoId":"SBIP","flightCategory":"VFR","rawOb":"METAR SBIP 181500Z AUTO 04005KT 290V100 CAVOK 30/20 Q1010","temp":30,"dewp":20,"wdir":40,"wspd":5,"visib":"6+","altim":1010,"clouds":[],"obsTime":1776524400},"SBKG":{"icaoId":"SBKG","flightCategory":"MVFR","rawOb":"METAR SBKG 181500Z 13005KT 9999 BKN015 28/22 Q1010","temp":28,"dewp":22,"wdir":130,"wspd":5,"visib":"6+","altim":1010,"clouds":[{"cover":"BKN","base":1500}],"obsTime":1776524400},"SBOI":{"icaoId":"SBOI","flightCategory":"VFR","rawOb":"METAR SBOI 181500Z AUTO 03003KT 340V060 9999 SCT042 26/24 Q1011","temp":26,"dewp":24,"wdir":30,"wspd":3,"visib":"6+","altim":1011,"clouds":[{"cover":"SCT","base":4200}],"obsTime":1776524400},"SBPB":{"icaoId":"SBPB","flightCategory":"VFR","rawOb":"METAR SBPB 181500Z 06010KT 9999 SCT020 BKN100 31/26 Q1007","temp":31,"dewp":26,"wdir":60,"wspd":10,"visib":"6+","altim":1007,"clouds":[{"cover":"SCT","base":2000},{"cover":"BKN","base":10000}],"obsTime":1776524400},"SBPL":{"icaoId":"SBPL","flightCategory":"VFR","rawOb":"METAR SBPL 181500Z 10007KT 9999 FEW035 32/19 Q1010","temp":32,"dewp":19,"wdir":100,"wspd":7,"visib":"6+","altim":1010,"clouds":[{"cover":"FEW","base":3500}],"obsTime":1776524400},"SBPP":{"icaoId":"SBPP","flightCategory":"VFR","rawOb":"METAR SBPP 181500Z 00000KT 9999 SCT015 26/22 Q1013","temp":26,"dewp":22,"wdir":0,"wspd":0,"visib":"6+","altim":1013,"clouds":[{"cover":"SCT","base":1500}],"obsTime":1776524400},"SBPS":{"icaoId":"SBPS","flightCategory":"VFR","rawOb":"METAR SBPS 181500Z 09010KT 9999 SCT020 29/24 Q1010","temp":29,"dewp":24,"wdir":90,"wspd":10,"visib":"6+","altim":1010,"clouds":[{"cover":"SCT","base":2000}],"obsTime":1776524400},"SBSC":{"icaoId":"SBSC","flightCategory":"VFR","rawOb":"METAR SBSC 181500Z 02007KT CAVOK 32/20 Q1007","temp":32,"dewp":20,"wdir":20,"wspd":7,"visib":"6+","altim":1007,"clouds":[],"obsTime":1776524400},"SBSM":{"icaoId":"SBSM","flightCategory":"VFR","rawOb":"METAR SBSM 181500Z 22003KT CAVOK 24/16 Q1012","temp":24,"dewp":16,"wdir":220,"wspd":3,"visib":"6+","altim":1012,"clouds":[],"obsTime":1776524400},"SBSR":{"icaoId":"SBSR","flightCategory":"VFR","rawOb":"METAR SBSR 181500Z 21002KT 9999 SCT030 30/16 Q1012","temp":30,"dewp":16,"wdir":210,"wspd":2,"visib":"6+","altim":1012,"clouds":[{"cover":"SCT","base":3000}],"obsTime":1776524400},"SBTF":{"icaoId":"SBTF","flightCategory":"VFR","rawOb":"METAR SBTF 181500Z 35002KT 9999 SCT015 SCT100 29/25 Q1011","temp":29,"dewp":25,"wdir":350,"wspd":2,"visib":"6+","altim":1011,"clouds":[{"cover":"SCT","base":1500},{"cover":"SCT","base":10000}],"obsTime":1776524400},"SBTT":{"icaoId":"SBTT","flightCategory":"IFR","rawOb":"METAR SBTT 181500Z 07004KT 030V110 9999 BKN009 BKN017 BKN100 26/23 Q1012","temp":26,"dewp":23,"wdir":70,"wspd":4,"visib":"6+","altim":1012,"clouds":[{"cover":"BKN","base":900},{"cover":"BKN","base":1700},{"cover":"BKN","base":10000}],"obsTime":1776524400},"SBUY":{"icaoId":"SBUY","flightCategory":"MVFR","rawOb":"METAR SBUY 181500Z 35003KT 8000 BKN010 BKN090 26/25 Q1011","temp":26,"dewp":25,"wdir":350,"wspd":3,"visib":4.97,"altim":1011,"clouds":[{"cover":"BKN","base":1000},{"cover":"BKN","base":9000}],"obsTime":1776524400},"SBAU":{"icaoId":"SBAU","flightCategory":"VFR","rawOb":"METAR SBAU 181500Z 21005KT CAVOK 32/18 Q1011","temp":32,"dewp":18,"wdir":210,"wspd":5,"visib":"6+","altim":1011,"clouds":[],"obsTime":1776524400},"SBJP":{"icaoId":"SBJP","flightCategory":"MVFR","rawOb":"METAR SBJP 181500Z 12014KT 9999 BKN030 31/23 Q1008","temp":31,"dewp":23,"wdir":120,"wspd":14,"visib":"6+","altim":1008,"clouds":[{"cover":"BKN","base":3000}],"obsTime":1776524400},"SBLE":{"icaoId":"SBLE","flightCategory":"VFR","rawOb":"METAR SBLE 181500Z AUTO VRB03KT 9999 FEW021 BKN038 27/20 Q1013","temp":27,"dewp":20,"wdir":"VRB","wspd":3,"visib":"6+","altim":1013,"clouds":[{"cover":"FEW","base":2100},{"cover":"BKN","base":3800}],"obsTime":1776524400},"SBTC":{"icaoId":"SBTC","flightCategory":"VFR","rawOb":"METAR SBTC 181500Z 10002KT 9999 FEW020 30/24 Q1010","temp":30,"dewp":24,"wdir":100,"wspd":2,"visib":"6+","altim":1010,"clouds":[{"cover":"FEW","base":2000}],"obsTime":1776524400},"SBJV":{"icaoId":"SBJV","flightCategory":"VFR","rawOb":"METAR SBJV 181500Z 21004KT 9999 SCT030 30/21 Q1008","temp":30,"dewp":21,"wdir":210,"wspd":4,"visib":"6+","altim":1008,"clouds":[{"cover":"SCT","base":3000}],"obsTime":1776524400},"SBIH":{"icaoId":"SBIH","flightCategory":"VFR","rawOb":"METAR SBIH 181500Z 23009KT 9999 VCSH SCT016 FEW023TCU 31/25 Q1009","temp":31,"dewp":25,"wdir":230,"wspd":9,"visib":"6+","altim":1009,"clouds":[{"cover":"SCT","base":1600},{"cover":"FEW","base":2300}],"obsTime":1776524400},"SBAF":{"icaoId":"SBAF","flightCategory":"VFR","rawOb":"METAR SBAF 181500Z 33003KT 290V010 9999 FEW025 30/20 Q1007","temp":30,"dewp":20,"wdir":330,"wspd":3,"visib":"6+","altim":1007,"clouds":[{"cover":"FEW","base":2500}],"obsTime":1776524400},"SBGW":{"icaoId":"SBGW","flightCategory":"VFR","rawOb":"METAR SBGW 181500Z VRB02KT 9999 FEW025 SCT100 28/16 Q1011","temp":28,"dewp":16,"wdir":"VRB","wspd":2,"visib":"6+","altim":1011,"clouds":[{"cover":"FEW","base":2500},{"cover":"SCT","base":10000}],"obsTime":1776524400},"SBJR":{"icaoId":"SBJR","flightCategory":"VFR","rawOb":"METAR SBJR 181500Z 24002KT CAVOK 33/21 Q1007","temp":33,"dewp":21,"wdir":240,"wspd":2,"visib":"6+","altim":1007,"clouds":[],"obsTime":1776524400},"SBLS":{"icaoId":"SBLS","flightCategory":"VFR","rawOb":"METAR SBLS 181500Z 20002KT 9999 FEW040 27/15 Q1014","temp":27,"dewp":15,"wdir":200,"wspd":2,"visib":"6+","altim":1014,"clouds":[{"cover":"FEW","base":4000}],"obsTime":1776524400},"SBMT":{"icaoId":"SBMT","flightCategory":"MVFR","rawOb":"METAR SBMT 181500Z 30011KT 260V350 8000 VCSH SCT030 FEW040TCU BKN070 27/17 Q1012","temp":27,"dewp":17,"wdir":300,"wspd":11,"visib":4.97,"altim":1012,"clouds":[{"cover":"SCT","base":3000},{"cover":"FEW","base":4000},{"cover":"BKN","base":7000}],"obsTime":1776524400},"SBST":{"icaoId":"SBST","flightCategory":"VFR","rawOb":"METAR SBST 181500Z 30002KT CAVOK 29/23 Q1007","temp":29,"dewp":23,"wdir":300,"wspd":2,"visib":"6+","altim":1007,"clouds":[],"obsTime":1776524400},"SBTA":{"icaoId":"SBTA","flightCategory":"VFR","rawOb":"METAR SBTA 181500Z VRB03KT CAVOK 26/18 Q1011","temp":26,"dewp":18,"wdir":"VRB","wspd":3,"visib":"6+","altim":1011,"clouds":[],"obsTime":1776524400},"SBAN":{"icaoId":"SBAN","flightCategory":"VFR","rawOb":"METAR SBAN 181500Z 17006KT 120V200 9999 BKN035 26/17 Q1017","temp":26,"dewp":17,"wdir":170,"wspd":6,"visib":"6+","altim":1017,"clouds":[{"cover":"BKN","base":3500}],"obsTime":1776524400},"SBPF":{"icaoId":"SBPF","flightCategory":"VFR","rawOb":"METAR SBPF 181500Z 26008KT 9999 FEW030 21/13 Q1014","temp":21,"dewp":13,"wdir":260,"wspd":8,"visib":"6+","altim":1014,"clouds":[{"cover":"FEW","base":3000}],"obsTime":1776524400}}}