{"updated":1778365804,"count":81,"data":{"SBCG":{"icaoId":"SBCG","flightCategory":"IFR","rawOb":"METAR SBCG 092100Z 16015KT 6000 -TSRA BKN005 BKN009 BKN015 FEW040CB 12/11 Q1019","temp":12,"dewp":11,"wdir":160,"wspd":15,"visib":3.73,"altim":1019,"clouds":[{"cover":"BKN","base":500},{"cover":"BKN","base":900},{"cover":"BKN","base":1500},{"cover":"FEW","base":4000}],"obsTime":1778360400},"SBMA":{"icaoId":"SBMA","flightCategory":"VFR","rawOb":"METAR SBMA 092100Z 00000KT 9999 SCT025 SCT027TCU BKN100 28/24 Q1010","temp":28,"dewp":24,"wdir":0,"wspd":0,"visib":"6+","altim":1010,"clouds":[{"cover":"SCT","base":2500},{"cover":"SCT","base":2700},{"cover":"BKN","base":10000}],"obsTime":1778360400},"SBFI":{"icaoId":"SBFI","flightCategory":"VFR","rawOb":"METAR SBFI 092100Z 20004KT 9999 FEW030 BKN080 12/10 Q1020","temp":12,"dewp":10,"wdir":200,"wspd":4,"visib":"6+","altim":1020,"clouds":[{"cover":"FEW","base":3000},{"cover":"BKN","base":8000}],"obsTime":1778360400},"SBME":{"icaoId":"SBME","flightCategory":"VFR","rawOb":"METAR SBME 092100Z 05010KT CAVOK 28/22 Q1014","temp":28,"dewp":22,"wdir":50,"wspd":10,"visib":"6+","altim":1014,"clouds":[],"obsTime":1778360400},"SBMG":{"icaoId":"SBMG","flightCategory":"LIFR","rawOb":"METAR SBMG 092100Z 20018KT 2000 RA BR BKN003 OVC010 11/11 Q1017","temp":11,"dewp":11,"wdir":200,"wspd":18,"visib":1.24,"altim":1017,"clouds":[{"cover":"BKN","base":300},{"cover":"OVC","base":1000}],"obsTime":1778360400},"SBMK":{"icaoId":"SBMK","flightCategory":"VFR","rawOb":"METAR SBMK 092100Z 08006KT CAVOK 27/16 Q1017","temp":27,"dewp":16,"wdir":80,"wspd":6,"visib":"6+","altim":1017,"clouds":[],"obsTime":1778360400},"SBFL":{"icaoId":"SBFL","flightCategory":"VFR","rawOb":"METAR SBFL 092100Z 10003KT 9999 -RA FEW014 SCT030 BKN080 14/13 Q1017","temp":14,"dewp":13,"wdir":100,"wspd":3,"visib":"6+","altim":1017,"clouds":[{"cover":"FEW","base":1400},{"cover":"SCT","base":3000},{"cover":"BKN","base":8000}],"obsTime":1778360400},"SBCP":{"icaoId":"SBCP","flightCategory":"VFR","rawOb":"METAR SBCP 092100Z 07010KT 9999 FEW020 26/22 Q1015","temp":26,"dewp":22,"wdir":70,"wspd":10,"visib":"6+","altim":1015,"clouds":[{"cover":"FEW","base":2000}],"obsTime":1778360400},"SBMO":{"icaoId":"SBMO","flightCategory":"IFR","rawOb":"METAR SBMO 092100Z 11008KT 2000 RA BR BKN005 OVC010 24/24 Q1013","temp":24,"dewp":24,"wdir":110,"wspd":8,"visib":1.24,"altim":1013,"clouds":[{"cover":"BKN","base":500},{"cover":"OVC","base":1000}],"obsTime":1778360400},"SBFZ":{"icaoId":"SBFZ","flightCategory":"VFR","rawOb":"METAR SBFZ 092100Z 09005KT 050V120 9999 SCT015 BKN070 27/25 Q1011","temp":27,"dewp":25,"wdir":90,"wspd":5,"visib":"6+","altim":1011,"clouds":[{"cover":"SCT","base":1500},{"cover":"BKN","base":7000}],"obsTime":1778360400},"SBMQ":{"icaoId":"SBMQ","flightCategory":"VFR","rawOb":"METAR SBMQ 092100Z 07007KT 9999 VCTS SCT030 FEW050CB SCT100 30/25 Q1009","temp":30,"dewp":25,"wdir":70,"wspd":7,"visib":"6+","altim":1009,"clouds":[{"cover":"SCT","base":3000},{"cover":"FEW","base":5000},{"cover":"SCT","base":10000}],"obsTime":1778360400},"SBBR":{"icaoId":"SBBR","flightCategory":"VFR","rawOb":"METAR SBBR 092100Z 11008KT 9999 FEW045 26/14 Q1019","temp":26,"dewp":14,"wdir":110,"wspd":8,"visib":"6+","altim":1019,"clouds":[{"cover":"FEW","base":4500}],"obsTime":1778360400},"SBNT":{"icaoId":"SBNT","flightCategory":"VFR","rawOb":"METAR SBNT 092100Z 13007KT 9999 FEW025 27/24 Q1011","temp":27,"dewp":24,"wdir":130,"wspd":7,"visib":"6+","altim":1011,"clouds":[{"cover":"FEW","base":2500}],"obsTime":1778360400},"SBPA":{"icaoId":"SBPA","flightCategory":"VFR","rawOb":"METAR SBPA 092100Z 29008KT CAVOK 15/05 Q1016","temp":15,"dewp":5,"wdir":290,"wspd":8,"visib":"6+","altim":1016,"clouds":[],"obsTime":1778360400},"SBGL":{"icaoId":"SBGL","flightCategory":"VFR","rawOb":"METAR SBGL 092100Z 12002KT CAVOK 28/20 Q1012","temp":28,"dewp":20,"wdir":120,"wspd":2,"visib":"6+","altim":1012,"clouds":[],"obsTime":1778360400},"SBBE":{"icaoId":"SBBE","flightCategory":"MVFR","rawOb":"METAR SBBE 092100Z 13007KT 8000 -RA SCT049 OVC093 24/24 Q1010","temp":24,"dewp":24,"wdir":130,"wspd":7,"visib":4.97,"altim":1010,"clouds":[{"cover":"SCT","base":4900},{"cover":"OVC","base":9300}],"obsTime":1778360400},"SBPJ":{"icaoId":"SBPJ","flightCategory":"VFR","rawOb":"METAR SBPJ 092100Z 30003KT 9999 FEW025 30/23 Q1011","temp":30,"dewp":23,"wdir":300,"wspd":3,"visib":"6+","altim":1011,"clouds":[{"cover":"FEW","base":2500}],"obsTime":1778360400},"SBGO":{"icaoId":"SBGO","flightCategory":"VFR","rawOb":"METAR SBGO 092100Z 32006KT 9999 FEW049 29/17 Q1016","temp":29,"dewp":17,"wdir":320,"wspd":6,"visib":"6+","altim":1016,"clouds":[{"cover":"FEW","base":4900}],"obsTime":1778360400},"SBPV":{"icaoId":"SBPV","flightCategory":"VFR","rawOb":"METAR SBPV 092100Z 36008KT 9999 VCSH SCT030 FEW035TCU 29/23 Q1008","temp":29,"dewp":23,"wdir":360,"wspd":8,"visib":"6+","altim":1008,"clouds":[{"cover":"SCT","base":3000},{"cover":"FEW","base":3500}],"obsTime":1778360400},"SBGR":{"icaoId":"SBGR","flightCategory":"VFR","rawOb":"METAR SBGR 092100Z 36004KT CAVOK 26/17 Q1017","temp":26,"dewp":17,"wdir":360,"wspd":4,"visib":"6+","altim":1017,"clouds":[],"obsTime":1778360400},"SBRB":{"icaoId":"SBRB","flightCategory":"VFR","rawOb":"METAR SBRB 092100Z 35003KT 9999 SCT030 BKN100 31/24 Q1008","temp":31,"dewp":24,"wdir":350,"wspd":3,"visib":"6+","altim":1008,"clouds":[{"cover":"SCT","base":3000},{"cover":"BKN","base":10000}],"obsTime":1778360400},"SBCF":{"icaoId":"SBCF","flightCategory":"VFR","rawOb":"METAR SBCF 092100Z 08004KT 9999 FEW048 25/15 Q1019","temp":25,"dewp":15,"wdir":80,"wspd":4,"visib":"6+","altim":1019,"clouds":[{"cover":"FEW","base":4800}],"obsTime":1778360400},"SBRF":{"icaoId":"SBRF","flightCategory":"VFR","rawOb":"METAR SBRF 092100Z 13007KT 9999 SCT020 FEW025TCU 27/25 Q1012","temp":27,"dewp":25,"wdir":130,"wspd":7,"visib":"6+","altim":1012,"clouds":[{"cover":"SCT","base":2000},{"cover":"FEW","base":2500}],"obsTime":1778360400},"SBCT":{"icaoId":"SBCT","flightCategory":"LIFR","rawOb":"METAR SBCT 092100Z 23007KT 4000 -RA BR BKN004 OVC009 10/10 Q1019","temp":10,"dewp":10,"wdir":230,"wspd":7,"visib":2.49,"altim":1019,"clouds":[{"cover":"BKN","base":400},{"cover":"OVC","base":900}],"obsTime":1778360400},"SBSG":{"icaoId":"SBSG","flightCategory":"VFR","rawOb":"METAR SBSG 092100Z 13004KT 9999 SCT026 FEW030TCU 27/24 Q1011","temp":27,"dewp":24,"wdir":130,"wspd":4,"visib":"6+","altim":1011,"clouds":[{"cover":"SCT","base":2600},{"cover":"FEW","base":3000}],"obsTime":1778360400},"SBHT":{"icaoId":"SBHT","flightCategory":"VFR","rawOb":"METAR SBHT 092100Z 13002KT 9999 FEW025 30/21 Q1009","temp":30,"dewp":21,"wdir":130,"wspd":2,"visib":"6+","altim":1009,"clouds":[{"cover":"FEW","base":2500}],"obsTime":1778360400},"SBSL":{"icaoId":"SBSL","flightCategory":"MVFR","rawOb":"METAR SBSL 092100Z 06005KT 9999 -RA BKN017 FEW020TCU 24/23 Q1011 RETS","temp":24,"dewp":23,"wdir":60,"wspd":5,"visib":"6+","altim":1011,"clouds":[{"cover":"BKN","base":1700},{"cover":"FEW","base":2000}],"obsTime":1778360400},"SBBV":{"icaoId":"SBBV","flightCategory":"VFR","rawOb":"METAR SBBV 092100Z 10008KT 9999 SCT040 FEW045TCU SCT080 32/22 Q1008","temp":32,"dewp":22,"wdir":100,"wspd":8,"visib":"6+","altim":1008,"clouds":[{"cover":"SCT","base":4000},{"cover":"FEW","base":4500},{"cover":"SCT","base":8000}],"obsTime":1778360400},"SBSN":{"icaoId":"SBSN","flightCategory":"VFR","rawOb":"METAR SBSN 092100Z 08009KT 9999 FEW023 30/25 Q1009","temp":30,"dewp":25,"wdir":80,"wspd":9,"visib":"6+","altim":1009,"clouds":[{"cover":"FEW","base":2300}],"obsTime":1778360400},"SBSP":{"icaoId":"SBSP","flightCategory":"VFR","rawOb":"METAR SBSP 092100Z VRB05KT CAVOK 26/18 Q1018","temp":26,"dewp":18,"wdir":"VRB","wspd":5,"visib":"6+","altim":1018,"clouds":[],"obsTime":1778360400},"SBIL":{"icaoId":"SBIL","flightCategory":"VFR","rawOb":"METAR SBIL 092100Z 14006KT 110V190 CAVOK 28/22 Q1016","temp":28,"dewp":22,"wdir":140,"wspd":6,"visib":"6+","altim":1016,"clouds":[],"obsTime":1778360400},"SBCZ":{"icaoId":"SBCZ","flightCategory":"VFR","rawOb":"METAR SBCZ 092100Z 36004KT 9999 FEW030 SCT100 30/24 Q1008","temp":30,"dewp":24,"wdir":360,"wspd":4,"visib":"6+","altim":1008,"clouds":[{"cover":"FEW","base":3000},{"cover":"SCT","base":10000}],"obsTime":1778360400},"SBSV":{"icaoId":"SBSV","flightCategory":"VFR","rawOb":"METAR SBSV 092100Z 13010KT 100V160 9999 FEW025 28/21 Q1015","temp":28,"dewp":21,"wdir":130,"wspd":10,"visib":"6+","altim":1015,"clouds":[{"cover":"FEW","base":2500}],"obsTime":1778360400},"SBTE":{"icaoId":"SBTE","flightCategory":"VFR","rawOb":"METAR SBTE 092100Z 15007KT 9999 FEW020 FEW025TCU SCT090 31/22 Q1010","temp":31,"dewp":22,"wdir":150,"wspd":7,"visib":"6+","altim":1010,"clouds":[{"cover":"FEW","base":2000},{"cover":"FEW","base":2500},{"cover":"SCT","base":9000}],"obsTime":1778360400},"SBJU":{"icaoId":"SBJU","flightCategory":"VFR","rawOb":"METAR SBJU 092100Z 30002KT 9999 FEW022 27/22 Q1013","temp":27,"dewp":22,"wdir":300,"wspd":2,"visib":"6+","altim":1013,"clouds":[{"cover":"FEW","base":2200}],"obsTime":1778360400},"SBUL":{"icaoId":"SBUL","flightCategory":"VFR","rawOb":"METAR SBUL 092100Z 07006KT CAVOK 25/16 Q1018","temp":25,"dewp":16,"wdir":70,"wspd":6,"visib":"6+","altim":1018,"clouds":[],"obsTime":1778360400},"SBEG":{"icaoId":"SBEG","flightCategory":"VFR","rawOb":"METAR SBEG 092100Z 09005KT 9999 VCSH FEW030 FEW035TCU 31/25 Q1008","temp":31,"dewp":25,"wdir":90,"wspd":5,"visib":"6+","altim":1008,"clouds":[{"cover":"FEW","base":3000},{"cover":"FEW","base":3500}],"obsTime":1778360400},"SBLO":{"icaoId":"SBLO","flightCategory":"IFR","rawOb":"METAR SBLO 092100Z 25006KT 170V300 5000 -RA BKN005 OVC013 16/16 Q1015 RERA","temp":16,"dewp":16,"wdir":250,"wspd":6,"visib":3.11,"altim":1015,"clouds":[{"cover":"BKN","base":500},{"cover":"OVC","base":1300}],"obsTime":1778360400},"SBUR":{"icaoId":"SBUR","flightCategory":"VFR","rawOb":"METAR SBUR 092100Z 33006KT CAVOK 27/15 Q1017","temp":27,"dewp":15,"wdir":330,"wspd":6,"visib":"6+","altim":1017,"clouds":[],"obsTime":1778360400},"SBKP":{"icaoId":"SBKP","flightCategory":"VFR","rawOb":"METAR SBKP 092100Z 30003KT 9999 FEW048 27/17 Q1015","temp":27,"dewp":17,"wdir":300,"wspd":3,"visib":"6+","altim":1015,"clouds":[{"cover":"FEW","base":4800}],"obsTime":1778360400},"SBVT":{"icaoId":"SBVT","flightCategory":"VFR","rawOb":"METAR SBVT 092100Z 04010KT 9999 FEW030 26/22 Q1016","temp":26,"dewp":22,"wdir":40,"wspd":10,"visib":"6+","altim":1016,"clouds":[{"cover":"FEW","base":3000}],"obsTime":1778360400},"SBAT":{"icaoId":"SBAT","flightCategory":"VFR","rawOb":"METAR SBAT 092100Z 00000KT 9999 VCSH FEW030 FEW038TCU 33/23 Q1010","temp":33,"dewp":23,"wdir":0,"wspd":0,"visib":"6+","altim":1010,"clouds":[{"cover":"FEW","base":3000},{"cover":"FEW","base":3800}],"obsTime":1778360400},"SBCB":{"icaoId":"SBCB","flightCategory":"VFR","rawOb":"METAR SBCB 092100Z 06013KT CAVOK 26/22 Q1013","temp":26,"dewp":22,"wdir":60,"wspd":13,"visib":"6+","altim":1013,"clouds":[],"obsTime":1778360400},"SBCR":{"icaoId":"SBCR","flightCategory":"IFR","rawOb":"METAR SBCR 092100Z 21015KT 170V250 8000 -RA FEW006 BKN007 FEW025TCU OVC070 14/12 Q1018","temp":14,"dewp":12,"wdir":210,"wspd":15,"visib":4.97,"altim":1018,"clouds":[{"cover":"FEW","base":600},{"cover":"BKN","base":700},{"cover":"FEW","base":2500},{"cover":"OVC","base":7000}],"obsTime":1778360400},"SBVH":{"icaoId":"SBVH","flightCategory":"VFR","rawOb":"METAR SBVH 092100Z 34005KT 9999 FEW035 BKN088 27/23 Q1012","temp":27,"dewp":23,"wdir":340,"wspd":5,"visib":"6+","altim":1012,"clouds":[{"cover":"FEW","base":3500},{"cover":"BKN","base":8800}],"obsTime":1778360400},"SBCA":{"icaoId":"SBCA","flightCategory":"VFR","rawOb":"METAR SBCA 092100Z 17010KT 9999 FEW040 OVC070 07/06 Q1020","temp":7,"dewp":6,"wdir":170,"wspd":10,"visib":"6+","altim":1020,"clouds":[{"cover":"FEW","base":4000},{"cover":"OVC","base":7000}],"obsTime":1778360400},"SBAR":{"icaoId":"SBAR","flightCategory":"VFR","rawOb":"METAR SBAR 092100Z 14011KT 9999 FEW030 BKN055 28/22 Q1014","temp":28,"dewp":22,"wdir":140,"wspd":11,"visib":"6+","altim":1014,"clouds":[{"cover":"FEW","base":3000},{"cover":"BKN","base":5500}],"obsTime":1778360400},"SBPS":{"icaoId":"SBPS","flightCategory":"VFR","rawOb":"METAR SBPS 092100Z 08007KT 9999 FEW025 26/21 Q1017","temp":26,"dewp":21,"wdir":80,"wspd":7,"visib":"6+","altim":1017,"clouds":[{"cover":"FEW","base":2500}],"obsTime":1778360400},"SBBH":{"icaoId":"SBBH","flightCategory":"VFR","rawOb":"METAR SBBH 092100Z 07004KT CAVOK 25/16 Q1019","temp":25,"dewp":16,"wdir":70,"wspd":4,"visib":"6+","altim":1019,"clouds":[],"obsTime":1778360400},"SBSC":{"icaoId":"SBSC","flightCategory":"VFR","rawOb":"METAR SBSC 092100Z 24007KT 9999 FEW040 26/22 Q1013","temp":26,"dewp":22,"wdir":240,"wspd":7,"visib":"6+","altim":1013,"clouds":[{"cover":"FEW","base":4000}],"obsTime":1778360400},"SBIP":{"icaoId":"SBIP","flightCategory":"VFR","rawOb":"METAR SBIP 092100Z AUTO 00000KT CAVOK 23/21 Q1016","temp":23,"dewp":21,"wdir":0,"wspd":0,"visib":"6+","altim":1016,"clouds":[],"obsTime":1778360400},"SBSJ":{"icaoId":"SBSJ","flightCategory":"VFR","rawOb":"METAR SBSJ 092100Z 02002KT 9999 FEW045 SCT060 26/16 Q1016","temp":26,"dewp":16,"wdir":20,"wspd":2,"visib":"6+","altim":1016,"clouds":[{"cover":"FEW","base":4500},{"cover":"SCT","base":6000}],"obsTime":1778360400},"SBSM":{"icaoId":"SBSM","flightCategory":"VFR","rawOb":"METAR SBSM 092100Z 25006KT 180V310 9999 BKN040 12/06 Q1019","temp":12,"dewp":6,"wdir":250,"wspd":6,"visib":"6+","altim":1019,"clouds":[{"cover":"BKN","base":4000}],"obsTime":1778360400},"SBDN":{"icaoId":"SBDN","flightCategory":"IFR","rawOb":"METAR SBDN 092100Z 22014KT 2500 -RA BKN006 BKN010 15/14 Q1015","temp":15,"dewp":14,"wdir":220,"wspd":14,"visib":1.55,"altim":1015,"clouds":[{"cover":"BKN","base":600},{"cover":"BKN","base":1000}],"obsTime":1778360400},"SBPL":{"icaoId":"SBPL","flightCategory":"VFR","rawOb":"METAR SBPL 092100Z 11017KT 9999 SCT025 BKN070 27/22 Q1014","temp":27,"dewp":22,"wdir":110,"wspd":17,"visib":"6+","altim":1014,"clouds":[{"cover":"SCT","base":2500},{"cover":"BKN","base":7000}],"obsTime":1778360400},"SBSR":{"icaoId":"SBSR","flightCategory":"VFR","rawOb":"METAR SBSR 092100Z 36003KT 9999 FEW035 SCT100 30/14 Q1014","temp":30,"dewp":14,"wdir":360,"wspd":3,"visib":"6+","altim":1014,"clouds":[{"cover":"FEW","base":3500},{"cover":"SCT","base":10000}],"obsTime":1778360400},"SBKG":{"icaoId":"SBKG","flightCategory":"VFR","rawOb":"METAR SBKG 092100Z 10009KT 9999 SCT020 24/22 Q1015","temp":24,"dewp":22,"wdir":100,"wspd":9,"visib":"6+","altim":1015,"clouds":[{"cover":"SCT","base":2000}],"obsTime":1778360400},"SBBU":{"icaoId":"SBBU","flightCategory":"VFR","rawOb":"METAR SBBU 092100Z 22008KT 9999 SCT040 BKN100 24/20 Q1014","temp":24,"dewp":20,"wdir":220,"wspd":8,"visib":"6+","altim":1014,"clouds":[{"cover":"SCT","base":4000},{"cover":"BKN","base":10000}],"obsTime":1778360400},"SBTF":{"icaoId":"SBTF","flightCategory":"VFR","rawOb":"METAR SBTF 092100Z 14006KT 9999 FEW020 30/25 Q1007","temp":30,"dewp":25,"wdir":140,"wspd":6,"visib":"6+","altim":1007,"clouds":[{"cover":"FEW","base":2000}],"obsTime":1778360400},"SBOI":{"icaoId":"SBOI","flightCategory":"VFR","rawOb":"METAR SBOI 092100Z AUTO 01004KT 340V050 CAVOK 27/25 Q1010","temp":27,"dewp":25,"wdir":10,"wspd":4,"visib":"6+","altim":1010,"clouds":[],"obsTime":1778360400},"SBTT":{"icaoId":"SBTT","flightCategory":"VFR","rawOb":"METAR SBTT 092100Z 10007KT 060V130 9999 FEW026 30/23 Q1007","temp":30,"dewp":23,"wdir":100,"wspd":7,"visib":"6+","altim":1007,"clouds":[{"cover":"FEW","base":2600}],"obsTime":1778360400},"SBTU":{"icaoId":"SBTU","flightCategory":"VFR","rawOb":"METAR SBTU 092100Z AUTO 19004KT 160V220 9999 // ///////// ///// Q1012","temp":null,"dewp":null,"wdir":190,"wspd":4,"visib":"6+","altim":1012,"clouds":[],"obsTime":1778360400},"SBCO":{"icaoId":"SBCO","flightCategory":"VFR","rawOb":"METAR SBCO 092100Z 30005KT CAVOK 14/07 Q1016","temp":14,"dewp":7,"wdir":300,"wspd":5,"visib":"6+","altim":1016,"clouds":[],"obsTime":1778360400},"SBUY":{"icaoId":"SBUY","flightCategory":"VFR","rawOb":"METAR SBUY 092100Z 14006KT 9999 FEW040 31/24 Q1006","temp":31,"dewp":24,"wdir":140,"wspd":6,"visib":"6+","altim":1006,"clouds":[{"cover":"FEW","base":4000}],"obsTime":1778360400},"SBPB":{"icaoId":"SBPB","flightCategory":"VFR","rawOb":"METAR SBPB 092100Z 07006KT 9999 SCT020 BKN100 28/24 Q1010","temp":28,"dewp":24,"wdir":70,"wspd":6,"visib":"6+","altim":1010,"clouds":[{"cover":"SCT","base":2000},{"cover":"BKN","base":10000}],"obsTime":1778360400},"SBCJ":{"icaoId":"SBCJ","flightCategory":"VFR","rawOb":"METAR SBCJ 092100Z 00000KT 9999 FEW030 FEW030TCU 28/21 Q1014","temp":28,"dewp":21,"wdir":0,"wspd":0,"visib":"6+","altim":1014,"clouds":[{"cover":"FEW","base":3000},{"cover":"FEW","base":3000}],"obsTime":1778360400},"SBES":{"icaoId":"SBES","flightCategory":"VFR","rawOb":"METAR SBES 092100Z 05012KT 010V080 CAVOK 26/// Q1013","temp":null,"dewp":null,"wdir":50,"wspd":12,"visib":"6+","altim":1013,"clouds":[],"obsTime":1778360400},"SBPP":{"icaoId":"SBPP","flightCategory":"IFR","rawOb":"METAR SBPP 092100Z 15009KT 3000 -RA BR BKN010 OVC070 08/06 Q1021","temp":8,"dewp":6,"wdir":150,"wspd":9,"visib":1.86,"altim":1021,"clouds":[{"cover":"BKN","base":1000},{"cover":"OVC","base":7000}],"obsTime":1778360400},"SBJP":{"icaoId":"SBJP","flightCategory":"VFR","rawOb":"METAR SBJP 092100Z 11005KT 9999 FEW020 27/24 Q1012","temp":27,"dewp":24,"wdir":110,"wspd":5,"visib":"6+","altim":1012,"clouds":[{"cover":"FEW","base":2000}],"obsTime":1778360400},"SBAN":{"icaoId":"SBAN","flightCategory":"VFR","rawOb":"METAR SBAN 092100Z 00000KT 9999 FEW045 23/16 Q1019","temp":23,"dewp":16,"wdir":0,"wspd":0,"visib":"6+","altim":1019,"clouds":[{"cover":"FEW","base":4500}],"obsTime":1778360400},"SBLE":{"icaoId":"SBLE","flightCategory":"VFR","rawOb":"METAR SBLE 092100Z AUTO 15003KT 9999 BKN048 25/21 Q1017","temp":25,"dewp":21,"wdir":150,"wspd":3,"visib":"6+","altim":1017,"clouds":[{"cover":"BKN","base":4800}],"obsTime":1778360400},"SBJV":{"icaoId":"SBJV","flightCategory":"IFR","rawOb":"METAR SBJV 092100Z 17004KT 120V220 3000 RA BR SCT007 BKN012 13/13 Q1018","temp":13,"dewp":13,"wdir":170,"wspd":4,"visib":1.86,"altim":1018,"clouds":[{"cover":"SCT","base":700},{"cover":"BKN","base":1200}],"obsTime":1778360400},"SBNM":{"icaoId":"SBNM","flightCategory":"VFR","rawOb":"METAR SBNM 092100Z 28007KT 9999 FEW030 14/05 Q1019","temp":14,"dewp":5,"wdir":280,"wspd":7,"visib":"6+","altim":1019,"clouds":[{"cover":"FEW","base":3000}],"obsTime":1778360400},"SBAF":{"icaoId":"SBAF","flightCategory":"VFR","rawOb":"METAR SBAF 092100Z 25003KT 9999 FEW035 28/21 Q1013","temp":28,"dewp":21,"wdir":250,"wspd":3,"visib":"6+","altim":1013,"clouds":[{"cover":"FEW","base":3500}],"obsTime":1778360400},"SBGW":{"icaoId":"SBGW","flightCategory":"VFR","rawOb":"METAR SBGW 092100Z 07004KT 050V110 9999 FEW040 26/15 Q1015","temp":26,"dewp":15,"wdir":70,"wspd":4,"visib":"6+","altim":1015,"clouds":[{"cover":"FEW","base":4000}],"obsTime":1778360400},"SBJR":{"icaoId":"SBJR","flightCategory":"VFR","rawOb":"METAR SBJR 092100Z 34001KT 9999 FEW030 25/22 Q1012","temp":25,"dewp":22,"wdir":340,"wspd":1,"visib":"6+","altim":1012,"clouds":[{"cover":"FEW","base":3000}],"obsTime":1778360400},"SBLS":{"icaoId":"SBLS","flightCategory":"VFR","rawOb":"METAR SBLS 092100Z 13007KT 9999 SCT048 25/17 Q1019","temp":25,"dewp":17,"wdir":130,"wspd":7,"visib":"6+","altim":1019,"clouds":[{"cover":"SCT","base":4800}],"obsTime":1778360400},"SBMT":{"icaoId":"SBMT","flightCategory":"VFR","rawOb":"METAR SBMT 092100Z 01002KT 9999 FEW023 26/16 Q1016","temp":26,"dewp":16,"wdir":10,"wspd":2,"visib":"6+","altim":1016,"clouds":[{"cover":"FEW","base":2300}],"obsTime":1778360400},"SBIH":{"icaoId":"SBIH","flightCategory":"VFR","rawOb":"METAR SBIH 092100Z 07003KT 9999 SCT020 32/25 Q1008","temp":32,"dewp":25,"wdir":70,"wspd":3,"visib":"6+","altim":1008,"clouds":[{"cover":"SCT","base":2000}],"obsTime":1778360400},"SBST":{"icaoId":"SBST","flightCategory":"MVFR","rawOb":"METAR SBST 092100Z 00000KT 8000 OVC014 24/22 Q1014","temp":24,"dewp":22,"wdir":0,"wspd":0,"visib":4.97,"altim":1014,"clouds":[{"cover":"OVC","base":1400}],"obsTime":1778360400},"SBTA":{"icaoId":"SBTA","flightCategory":"VFR","rawOb":"METAR SBTA 092100Z 00000KT 9999 FEW045 24/16 Q1015","temp":24,"dewp":16,"wdir":0,"wspd":0,"visib":"6+","altim":1015,"clouds":[{"cover":"FEW","base":4500}],"obsTime":1778360400}}}