{"updated":1774123946,"count":85,"data":{"SBRB":{"icaoId":"SBRB","flightCategory":"VFR","rawOb":"METAR SBRB 211900Z 02006KT 9999 SCT035 33/25 Q1006","temp":33,"dewp":25,"wdir":20,"wspd":6,"visib":"6+","altim":1006,"clouds":[{"cover":"SCT","base":3500}],"obsTime":1774119600},"SBBE":{"icaoId":"SBBE","flightCategory":"VFR","rawOb":"METAR SBBE 211900Z 26003KT 9999 FEW040 31/23 Q1008","temp":31,"dewp":23,"wdir":260,"wspd":3,"visib":"6+","altim":1008,"clouds":[{"cover":"FEW","base":4000}],"obsTime":1774119600},"SBBR":{"icaoId":"SBBR","flightCategory":"VFR","rawOb":"METAR SBBR 211900Z VRB03KT 9999 SCT040 FEW045TCU SCT100 27/20 Q1015","temp":27,"dewp":20,"wdir":"VRB","wspd":3,"visib":"6+","altim":1015,"clouds":[{"cover":"SCT","base":4000},{"cover":"FEW","base":4500},{"cover":"SCT","base":10000}],"obsTime":1774119600},"SBBV":{"icaoId":"SBBV","flightCategory":"VFR","rawOb":"METAR SBBV 211900Z 03006KT 9999 BKN040 FEW045TCU SCT070 35/18 Q1007","temp":35,"dewp":18,"wdir":30,"wspd":6,"visib":"6+","altim":1007,"clouds":[{"cover":"BKN","base":4000},{"cover":"FEW","base":4500},{"cover":"SCT","base":7000}],"obsTime":1774119600},"SBCB":{"icaoId":"SBCB","flightCategory":"VFR","rawOb":"METAR SBCB 211900Z 16007KT 9999 FEW025 28/22 Q1011","temp":28,"dewp":22,"wdir":160,"wspd":7,"visib":"6+","altim":1011,"clouds":[{"cover":"FEW","base":2500}],"obsTime":1774119600},"SBCF":{"icaoId":"SBCF","flightCategory":"VFR","rawOb":"METAR SBCF 211900Z 34009KT 290V360 9999 SCT030 FEW035TCU 27/21 Q1013","temp":27,"dewp":21,"wdir":340,"wspd":9,"visib":"6+","altim":1013,"clouds":[{"cover":"SCT","base":3000},{"cover":"FEW","base":3500}],"obsTime":1774119600},"SBCG":{"icaoId":"SBCG","flightCategory":"VFR","rawOb":"METAR SBCG 211900Z 31009KT 270V330 9999 VCSH SCT030 FEW035TCU BKN080 31/23 Q1011","temp":31,"dewp":23,"wdir":310,"wspd":9,"visib":"6+","altim":1011,"clouds":[{"cover":"SCT","base":3000},{"cover":"FEW","base":3500},{"cover":"BKN","base":8000}],"obsTime":1774119600},"SBEG":{"icaoId":"SBEG","flightCategory":"VFR","rawOb":"METAR SBEG 211900Z 09007KT 050V120 9999 SCT030 33/24 Q1007","temp":33,"dewp":24,"wdir":90,"wspd":7,"visib":"6+","altim":1007,"clouds":[{"cover":"SCT","base":3000}],"obsTime":1774119600},"SBFI":{"icaoId":"SBFI","flightCategory":"VFR","rawOb":"SPECI SBFI 211814Z 29008G18KT 9999 3000NW TSRA SCT035 FEW040CB BKN080 29/27 Q1008","temp":29,"dewp":27,"wdir":290,"wspd":8,"visib":"6+","altim":1008,"clouds":[{"cover":"SCT","base":3500},{"cover":"FEW","base":4000},{"cover":"BKN","base":8000}],"obsTime":1774116840},"SBFL":{"icaoId":"SBFL","flightCategory":"VFR","rawOb":"METAR SBFL 211900Z 35010KT 9999 FEW026 30/23 Q1009","temp":30,"dewp":23,"wdir":350,"wspd":10,"visib":"6+","altim":1009,"clouds":[{"cover":"FEW","base":2600}],"obsTime":1774119600},"SBFZ":{"icaoId":"SBFZ","flightCategory":"VFR","rawOb":"METAR SBFZ 211900Z 07006KT 9999 SCT030 BKN090 29/24 Q1009","temp":29,"dewp":24,"wdir":70,"wspd":6,"visib":"6+","altim":1009,"clouds":[{"cover":"SCT","base":3000},{"cover":"BKN","base":9000}],"obsTime":1774119600},"SBGL":{"icaoId":"SBGL","flightCategory":"VFR","rawOb":"METAR SBGL 211900Z 14014KT 9999 FEW030 28/21 Q1011","temp":28,"dewp":21,"wdir":140,"wspd":14,"visib":"6+","altim":1011,"clouds":[{"cover":"FEW","base":3000}],"obsTime":1774119600},"SBGO":{"icaoId":"SBGO","flightCategory":"VFR","rawOb":"METAR SBGO 211900Z 31004KT 270V350 9999 SCT048 30/20 Q1013","temp":30,"dewp":20,"wdir":310,"wspd":4,"visib":"6+","altim":1013,"clouds":[{"cover":"SCT","base":4800}],"obsTime":1774119600},"SBGR":{"icaoId":"SBGR","flightCategory":"VFR","rawOb":"METAR SBGR 211900Z 14005KT 060V180 9999 FEW048 SCT055 28/19 Q1013","temp":28,"dewp":19,"wdir":140,"wspd":5,"visib":"6+","altim":1013,"clouds":[{"cover":"FEW","base":4800},{"cover":"SCT","base":5500}],"obsTime":1774119600},"SBKP":{"icaoId":"SBKP","flightCategory":"VFR","rawOb":"METAR SBKP 211900Z 31005KT 260V350 9999 FEW045 31/17 Q1013","temp":31,"dewp":17,"wdir":310,"wspd":5,"visib":"6+","altim":1013,"clouds":[{"cover":"FEW","base":4500}],"obsTime":1774119600},"SBLO":{"icaoId":"SBLO","flightCategory":"VFR","rawOb":"METAR SBLO 211900Z 03006KT 9999 SCT030 32/19 Q1011","temp":32,"dewp":19,"wdir":30,"wspd":6,"visib":"6+","altim":1011,"clouds":[{"cover":"SCT","base":3000}],"obsTime":1774119600},"SBMA":{"icaoId":"SBMA","flightCategory":"VFR","rawOb":"METAR SBMA 211900Z 18003KT 9999 FEW022 FEW025TCU BKN100 30/22 Q1009","temp":30,"dewp":22,"wdir":180,"wspd":3,"visib":"6+","altim":1009,"clouds":[{"cover":"FEW","base":2200},{"cover":"FEW","base":2500},{"cover":"BKN","base":10000}],"obsTime":1774119600},"SBMO":{"icaoId":"SBMO","flightCategory":"VFR","rawOb":"METAR SBMO 211900Z 10014KT 9999 FEW035 31/22 Q1010","temp":31,"dewp":22,"wdir":100,"wspd":14,"visib":"6+","altim":1010,"clouds":[{"cover":"FEW","base":3500}],"obsTime":1774119600},"SBMQ":{"icaoId":"SBMQ","flightCategory":"VFR","rawOb":"METAR SBMQ 211900Z 09004KT 9999 SCT046 30/24 Q1009","temp":30,"dewp":24,"wdir":90,"wspd":4,"visib":"6+","altim":1009,"clouds":[{"cover":"SCT","base":4600}],"obsTime":1774119600},"SBPA":{"icaoId":"SBPA","flightCategory":"VFR","rawOb":"METAR SBPA 211900Z 07010KT 9999 FEW045 34/22 Q1004","temp":34,"dewp":22,"wdir":70,"wspd":10,"visib":"6+","altim":1004,"clouds":[{"cover":"FEW","base":4500}],"obsTime":1774119600},"SBPV":{"icaoId":"SBPV","flightCategory":"VFR","rawOb":"METAR SBPV 211900Z 07006KT 040V110 9999 BKN035 33/22 Q1006","temp":33,"dewp":22,"wdir":70,"wspd":6,"visib":"6+","altim":1006,"clouds":[{"cover":"BKN","base":3500}],"obsTime":1774119600},"SBRF":{"icaoId":"SBRF","flightCategory":"VFR","rawOb":"METAR SBRF 211900Z 08009KT 9999 FEW025 30/23 Q1009","temp":30,"dewp":23,"wdir":80,"wspd":9,"visib":"6+","altim":1009,"clouds":[{"cover":"FEW","base":2500}],"obsTime":1774119600},"SBSG":{"icaoId":"SBSG","flightCategory":"VFR","rawOb":"METAR SBSG 211900Z 11011KT 090V160 9999 SCT030 30/24 Q1009","temp":30,"dewp":24,"wdir":110,"wspd":11,"visib":"6+","altim":1009,"clouds":[{"cover":"SCT","base":3000}],"obsTime":1774119600},"SBSL":{"icaoId":"SBSL","flightCategory":"VFR","rawOb":"METAR SBSL 211900Z 10004KT 9999 FEW010 SCT090 29/23 Q1009","temp":29,"dewp":23,"wdir":100,"wspd":4,"visib":"6+","altim":1009,"clouds":[{"cover":"FEW","base":1000},{"cover":"SCT","base":9000}],"obsTime":1774119600},"SBSN":{"icaoId":"SBSN","flightCategory":"VFR","rawOb":"METAR SBSN 211900Z 10009KT 9999 FEW021 30/22 Q1009","temp":30,"dewp":22,"wdir":100,"wspd":9,"visib":"6+","altim":1009,"clouds":[{"cover":"FEW","base":2100}],"obsTime":1774119600},"SBSV":{"icaoId":"SBSV","flightCategory":"VFR","rawOb":"METAR SBSV 211900Z 09011KT 9999 FEW025 30/22 Q1009","temp":30,"dewp":22,"wdir":90,"wspd":11,"visib":"6+","altim":1009,"clouds":[{"cover":"FEW","base":2500}],"obsTime":1774119600},"SBTE":{"icaoId":"SBTE","flightCategory":"VFR","rawOb":"METAR SBTE 211900Z 32008KT 9999 SCT025 29/23 Q1009","temp":29,"dewp":23,"wdir":320,"wspd":8,"visib":"6+","altim":1009,"clouds":[{"cover":"SCT","base":2500}],"obsTime":1774119600},"SBVT":{"icaoId":"SBVT","flightCategory":"VFR","rawOb":"METAR SBVT 211900Z 15008KT 9999 BKN048 25/23 Q1010","temp":25,"dewp":23,"wdir":150,"wspd":8,"visib":"6+","altim":1010,"clouds":[{"cover":"BKN","base":4800}],"obsTime":1774119600},"SBUR":{"icaoId":"SBUR","flightCategory":"VFR","rawOb":"METAR SBUR 211900Z 17010KT 9999 BKN040 30/22 Q1013","temp":30,"dewp":22,"wdir":170,"wspd":10,"visib":"6+","altim":1013,"clouds":[{"cover":"BKN","base":4000}],"obsTime":1774119600},"SBHT":{"icaoId":"SBHT","flightCategory":"VFR","rawOb":"METAR SBHT 211900Z 12002KT 9999 SCT030 31/23 Q1009","temp":31,"dewp":23,"wdir":120,"wspd":2,"visib":"6+","altim":1009,"clouds":[{"cover":"SCT","base":3000}],"obsTime":1774119600},"SBIL":{"icaoId":"SBIL","flightCategory":"VFR","rawOb":"METAR SBIL 211900Z 07009KT CAVOK 31/25 Q1009","temp":31,"dewp":25,"wdir":70,"wspd":9,"visib":"6+","altim":1009,"clouds":[],"obsTime":1774119600},"SBJU":{"icaoId":"SBJU","flightCategory":"VFR","rawOb":"METAR SBJU 211900Z 06003KT 9999 SCT022 31/23 Q1011","temp":31,"dewp":23,"wdir":60,"wspd":3,"visib":"6+","altim":1011,"clouds":[{"cover":"SCT","base":2200}],"obsTime":1774119600},"SBME":{"icaoId":"SBME","flightCategory":"VFR","rawOb":"METAR SBME 211900Z 18011KT 9999 FEW030 29/23 Q1011","temp":29,"dewp":23,"wdir":180,"wspd":11,"visib":"6+","altim":1011,"clouds":[{"cover":"FEW","base":3000}],"obsTime":1774119600},"SBMG":{"icaoId":"SBMG","flightCategory":"VFR","rawOb":"METAR SBMG 211900Z 01011KT 9999 SCT045 FEW050TCU 32/21 Q1010","temp":32,"dewp":21,"wdir":10,"wspd":11,"visib":"6+","altim":1010,"clouds":[{"cover":"SCT","base":4500},{"cover":"FEW","base":5000}],"obsTime":1774119600},"SBMK":{"icaoId":"SBMK","flightCategory":"VFR","rawOb":"METAR SBMK 211900Z 02004KT 9999 SCT040 SCT070 28/21 Q1012","temp":28,"dewp":21,"wdir":20,"wspd":4,"visib":"6+","altim":1012,"clouds":[{"cover":"SCT","base":4000},{"cover":"SCT","base":7000}],"obsTime":1774119600},"SBUL":{"icaoId":"SBUL","flightCategory":"VFR","rawOb":"METAR SBUL 211900Z 03009KT 320V050 9999 VCSH BKN033 FEW040TCU 27/20 Q1014","temp":27,"dewp":20,"wdir":30,"wspd":9,"visib":"6+","altim":1014,"clouds":[{"cover":"BKN","base":3300},{"cover":"FEW","base":4000}],"obsTime":1774119600},"SBNT":{"icaoId":"SBNT","flightCategory":"VFR","rawOb":"METAR SBNT 211900Z 10011KT 9999 SCT025 30/24 Q1009","temp":30,"dewp":24,"wdir":100,"wspd":11,"visib":"6+","altim":1009,"clouds":[{"cover":"SCT","base":2500}],"obsTime":1774119600},"SBSP":{"icaoId":"SBSP","flightCategory":"VFR","rawOb":"METAR SBSP 211900Z 17011KT 9999 FEW026 26/20 Q1015","temp":26,"dewp":20,"wdir":170,"wspd":11,"visib":"6+","altim":1015,"clouds":[{"cover":"FEW","base":2600}],"obsTime":1774119600},"SBPJ":{"icaoId":"SBPJ","flightCategory":"VFR","rawOb":"METAR SBPJ 211900Z 21001KT 9999 FEW027 BKN100 31/23 Q1010","temp":31,"dewp":23,"wdir":210,"wspd":1,"visib":"6+","altim":1010,"clouds":[{"cover":"FEW","base":2700},{"cover":"BKN","base":10000}],"obsTime":1774119600},"SBCP":{"icaoId":"SBCP","flightCategory":"MVFR","rawOb":"METAR SBCP 211900Z 18012KT 9999 BKN020 27/23 Q1011","temp":27,"dewp":23,"wdir":180,"wspd":12,"visib":"6+","altim":1011,"clouds":[{"cover":"BKN","base":2000}],"obsTime":1774119600},"SBCR":{"icaoId":"SBCR","flightCategory":"VFR","rawOb":"METAR SBCR 211900Z 36007KT 330V040 9999 SCT035 BKN100 33/24 Q1007","temp":33,"dewp":24,"wdir":360,"wspd":7,"visib":"6+","altim":1007,"clouds":[{"cover":"SCT","base":3500},{"cover":"BKN","base":10000}],"obsTime":1774119600},"SBCT":{"icaoId":"SBCT","flightCategory":"VFR","rawOb":"METAR SBCT 211900Z 24003KT 9999 BKN045 29/17 Q1014","temp":29,"dewp":17,"wdir":240,"wspd":3,"visib":"6+","altim":1014,"clouds":[{"cover":"BKN","base":4500}],"obsTime":1774119600},"SBCZ":{"icaoId":"SBCZ","flightCategory":"VFR","rawOb":"METAR SBCZ 211900Z 24003KT 9999 SCT010 OVC100 24/24 Q1007","temp":24,"dewp":24,"wdir":240,"wspd":3,"visib":"6+","altim":1007,"clouds":[{"cover":"SCT","base":1000},{"cover":"OVC","base":10000}],"obsTime":1774119600},"SBAT":{"icaoId":"SBAT","flightCategory":"VFR","rawOb":"METAR SBAT 211900Z 04003KT 9999 SCT025 FEW030TCU 33/23 Q1008","temp":33,"dewp":23,"wdir":40,"wspd":3,"visib":"6+","altim":1008,"clouds":[{"cover":"SCT","base":2500},{"cover":"FEW","base":3000}],"obsTime":1774119600},"SBCJ":{"icaoId":"SBCJ","flightCategory":"VFR","rawOb":"METAR SBCJ 211900Z 16004KT 9999 SCT021 26/22 Q1013","temp":26,"dewp":22,"wdir":160,"wspd":4,"visib":"6+","altim":1013,"clouds":[{"cover":"SCT","base":2100}],"obsTime":1774119600},"SBSJ":{"icaoId":"SBSJ","flightCategory":"VFR","rawOb":"METAR SBSJ 211900Z 12002KT 9999 FEW033 30/// Q1013","temp":null,"dewp":null,"wdir":120,"wspd":2,"visib":"6+","altim":1013,"clouds":[{"cover":"FEW","base":3300}],"obsTime":1774119600},"SBOI":{"icaoId":"SBOI","flightCategory":"VFR","rawOb":"METAR SBOI 211900Z AUTO VRB02KT 9999 -RA SCT030 BKN047 28/25 Q1009 RERA","temp":28,"dewp":25,"wdir":"VRB","wspd":2,"visib":"6+","altim":1009,"clouds":[{"cover":"SCT","base":3000},{"cover":"BKN","base":4700}],"obsTime":1774119600},"SBPP":{"icaoId":"SBPP","flightCategory":"MVFR","rawOb":"METAR SBPP 211900Z 34010KT 9999 BKN025 31/22 Q1011","temp":31,"dewp":22,"wdir":340,"wspd":10,"visib":"6+","altim":1011,"clouds":[{"cover":"BKN","base":2500}],"obsTime":1774119600},"SBPB":{"icaoId":"SBPB","flightCategory":"VFR","rawOb":"METAR SBPB 211900Z 27004KT 9999 SCT015 OVC080 24/23 Q1010 RETS","temp":24,"dewp":23,"wdir":270,"wspd":4,"visib":"6+","altim":1010,"clouds":[{"cover":"SCT","base":1500},{"cover":"OVC","base":8000}],"obsTime":1774119600},"SBTF":{"icaoId":"SBTF","flightCategory":"VFR","rawOb":"METAR SBTF 211900Z 08007KT 9999 FEW017 35/25 Q1006","temp":35,"dewp":25,"wdir":80,"wspd":7,"visib":"6+","altim":1006,"clouds":[{"cover":"FEW","base":1700}],"obsTime":1774119600},"SBPS":{"icaoId":"SBPS","flightCategory":"VFR","rawOb":"METAR SBPS 211900Z 04013KT 9999 SCT020 BKN100 28/24 Q1009","temp":28,"dewp":24,"wdir":40,"wspd":13,"visib":"6+","altim":1009,"clouds":[{"cover":"SCT","base":2000},{"cover":"BKN","base":10000}],"obsTime":1774119600},"SBPL":{"icaoId":"SBPL","flightCategory":"VFR","rawOb":"METAR SBPL 211900Z 17003KT 9999 SCT035 34/19 Q1009","temp":34,"dewp":19,"wdir":170,"wspd":3,"visib":"6+","altim":1009,"clouds":[{"cover":"SCT","base":3500}],"obsTime":1774119600},"SBUY":{"icaoId":"SBUY","flightCategory":"VFR","rawOb":"METAR SBUY 211900Z 10004KT 9999 SCT030 34/21 Q1005","temp":34,"dewp":21,"wdir":100,"wspd":4,"visib":"6+","altim":1005,"clouds":[{"cover":"SCT","base":3000}],"obsTime":1774119600},"SBAR":{"icaoId":"SBAR","flightCategory":"VFR","rawOb":"METAR SBAR 211900Z 10011KT 9999 FEW023 31/23 Q1009","temp":31,"dewp":23,"wdir":100,"wspd":11,"visib":"6+","altim":1009,"clouds":[{"cover":"FEW","base":2300}],"obsTime":1774119600},"SBDN":{"icaoId":"SBDN","flightCategory":"VFR","rawOb":"METAR SBDN 211900Z 31006KT 9999 SCT042 SCT082 34/22 Q1010","temp":34,"dewp":22,"wdir":310,"wspd":6,"visib":"6+","altim":1010,"clouds":[{"cover":"SCT","base":4200},{"cover":"SCT","base":8200}],"obsTime":1774119600},"SBES":{"icaoId":"SBES","flightCategory":"VFR","rawOb":"METAR SBES 211900Z VRB10KT 9999 SCT020 27/// Q1011","temp":null,"dewp":null,"wdir":"VRB","wspd":10,"visib":"6+","altim":1011,"clouds":[{"cover":"SCT","base":2000}],"obsTime":1774119600},"SBGM":{"icaoId":"SBGM","flightCategory":"MVFR","rawOb":"METAR SBGM 211900Z 32006KT 9999 BKN026 BKN040 31/24 Q1006","temp":31,"dewp":24,"wdir":320,"wspd":6,"visib":"6+","altim":1006,"clouds":[{"cover":"BKN","base":2600},{"cover":"BKN","base":4000}],"obsTime":1774119600},"SBIP":{"icaoId":"SBIP","flightCategory":"VFR","rawOb":"METAR SBIP 211900Z AUTO 17006KT 140V200 CAVOK 31/22 Q1010","temp":31,"dewp":22,"wdir":170,"wspd":6,"visib":"6+","altim":1010,"clouds":[],"obsTime":1774119600},"SBKG":{"icaoId":"SBKG","flightCategory":"VFR","rawOb":"METAR SBKG 211900Z 09014KT 9999 SCT025 30/21 Q1011","temp":30,"dewp":21,"wdir":90,"wspd":14,"visib":"6+","altim":1011,"clouds":[{"cover":"SCT","base":2500}],"obsTime":1774119600},"SBSC":{"icaoId":"SBSC","flightCategory":"VFR","rawOb":"METAR SBSC 211900Z 12010KT 9999 BKN040 28/22 Q1011","temp":28,"dewp":22,"wdir":120,"wspd":10,"visib":"6+","altim":1011,"clouds":[{"cover":"BKN","base":4000}],"obsTime":1774119600},"SBSM":{"icaoId":"SBSM","flightCategory":"VFR","rawOb":"METAR SBSM 211900Z 01006KT 300V070 9999 TS VCSH SCT040 FEW045CB BKN090 26/23 Q1004","temp":26,"dewp":23,"wdir":10,"wspd":6,"visib":"6+","altim":1004,"clouds":[{"cover":"SCT","base":4000},{"cover":"FEW","base":4500},{"cover":"BKN","base":9000}],"obsTime":1774119600},"SBSR":{"icaoId":"SBSR","flightCategory":"VFR","rawOb":"METAR SBSR 211900Z 33004KT 9999 BKN035 32/18 Q1012","temp":32,"dewp":18,"wdir":330,"wspd":4,"visib":"6+","altim":1012,"clouds":[{"cover":"BKN","base":3500}],"obsTime":1774119600},"SBTT":{"icaoId":"SBTT","flightCategory":"MVFR","rawOb":"METAR SBTT 211900Z 10006KT 040V140 9999 BKN022 FEW022TCU 32/22 Q1006","temp":32,"dewp":22,"wdir":100,"wspd":6,"visib":"6+","altim":1006,"clouds":[{"cover":"BKN","base":2200},{"cover":"FEW","base":2200}],"obsTime":1774119600},"SBVH":{"icaoId":"SBVH","flightCategory":"VFR","rawOb":"METAR SBVH 211900Z 04009KT 9999 SCT030 FEW035TCU SCT100 25/22 Q1010","temp":25,"dewp":22,"wdir":40,"wspd":9,"visib":"6+","altim":1010,"clouds":[{"cover":"SCT","base":3000},{"cover":"FEW","base":3500},{"cover":"SCT","base":10000}],"obsTime":1774119600},"SBAX":{"icaoId":"SBAX","flightCategory":"VFR","rawOb":"METAR SBAX 211900Z AUTO 32006KT 280V360 9999 FEW046 28/19 Q1014","temp":28,"dewp":19,"wdir":320,"wspd":6,"visib":"6+","altim":1014,"clouds":[{"cover":"FEW","base":4600}],"obsTime":1774119600},"SBBH":{"icaoId":"SBBH","flightCategory":"VFR","rawOb":"METAR SBBH 211900Z 31008KT 9999 SCT030 FEW045TCU 28/21 Q1013","temp":28,"dewp":21,"wdir":310,"wspd":8,"visib":"6+","altim":1013,"clouds":[{"cover":"SCT","base":3000},{"cover":"FEW","base":4500}],"obsTime":1774119600},"SBBQ":{"icaoId":"SBBQ","flightCategory":"VFR","rawOb":"METAR SBBQ 211900Z 09007KT 9999 SCT040 24/19 Q1017","temp":24,"dewp":19,"wdir":90,"wspd":7,"visib":"6+","altim":1017,"clouds":[{"cover":"SCT","base":4000}],"obsTime":1774119600},"SBBU":{"icaoId":"SBBU","flightCategory":"VFR","rawOb":"METAR SBBU 211900Z 08002KT 9999 SCT045 32/19 Q1012","temp":32,"dewp":19,"wdir":80,"wspd":2,"visib":"6+","altim":1012,"clouds":[{"cover":"SCT","base":4500}],"obsTime":1774119600},"SBCA":{"icaoId":"SBCA","flightCategory":"VFR","rawOb":"METAR SBCA 211900Z 01011KT 340V040 9999 SCT025 FEW040TCU BKN070 28/22 Q1012","temp":28,"dewp":22,"wdir":10,"wspd":11,"visib":"6+","altim":1012,"clouds":[{"cover":"SCT","base":2500},{"cover":"FEW","base":4000},{"cover":"BKN","base":7000}],"obsTime":1774119600},"SBCC":{"icaoId":"SBCC","flightCategory":"MVFR","rawOb":"METAR SBCC 211900Z 02007KT 350V050 9999 VCSH FEW015 BKN020 FEW025TCU BKN100 29/21 Q1010","temp":29,"dewp":21,"wdir":20,"wspd":7,"visib":"6+","altim":1010,"clouds":[{"cover":"FEW","base":1500},{"cover":"BKN","base":2000},{"cover":"FEW","base":2500},{"cover":"BKN","base":10000}],"obsTime":1774119600},"SBCO":{"icaoId":"SBCO","flightCategory":"VFR","rawOb":"METAR SBCO 211900Z 10011KT CAVOK 33/23 Q1005","temp":33,"dewp":23,"wdir":100,"wspd":11,"visib":"6+","altim":1005,"clouds":[],"obsTime":1774119600},"SBJP":{"icaoId":"SBJP","flightCategory":"VFR","rawOb":"METAR SBJP 211900Z 10011KT 9999 FEW025 30/23 Q1010","temp":30,"dewp":23,"wdir":100,"wspd":11,"visib":"6+","altim":1010,"clouds":[{"cover":"FEW","base":2500}],"obsTime":1774119600},"SBAN":{"icaoId":"SBAN","flightCategory":"MVFR","rawOb":"METAR SBAN 211900Z 32004KT 9999 BKN030 FEW035TCU 27/19 Q1016","temp":27,"dewp":19,"wdir":320,"wspd":4,"visib":"6+","altim":1016,"clouds":[{"cover":"BKN","base":3000},{"cover":"FEW","base":3500}],"obsTime":1774119600},"SBGW":{"icaoId":"SBGW","flightCategory":"VFR","rawOb":"METAR SBGW 211900Z 23005KT 9999 FEW030 31/17 Q1011","temp":31,"dewp":17,"wdir":230,"wspd":5,"visib":"6+","altim":1011,"clouds":[{"cover":"FEW","base":3000}],"obsTime":1774119600},"SBIH":{"icaoId":"SBIH","flightCategory":"VFR","rawOb":"METAR SBIH 211900Z 06006KT 9999 SCT020 31/24 Q1008","temp":31,"dewp":24,"wdir":60,"wspd":6,"visib":"6+","altim":1008,"clouds":[{"cover":"SCT","base":2000}],"obsTime":1774119600},"SBJR":{"icaoId":"SBJR","flightCategory":"VFR","rawOb":"METAR SBJR 211900Z 16009KT 9999 FEW025 29/23 Q1011","temp":29,"dewp":23,"wdir":160,"wspd":9,"visib":"6+","altim":1011,"clouds":[{"cover":"FEW","base":2500}],"obsTime":1774119600},"SBJV":{"icaoId":"SBJV","flightCategory":"VFR","rawOb":"METAR SBJV 211900Z 05008KT 9999 FEW025 31/23 Q1009","temp":31,"dewp":23,"wdir":50,"wspd":8,"visib":"6+","altim":1009,"clouds":[{"cover":"FEW","base":2500}],"obsTime":1774119600},"SBLE":{"icaoId":"SBLE","flightCategory":"VFR","rawOb":"METAR SBLE 211900Z AUTO VRB05KT CAVOK 31/20 Q1011","temp":31,"dewp":20,"wdir":"VRB","wspd":5,"visib":"6+","altim":1011,"clouds":[],"obsTime":1774119600},"SBLS":{"icaoId":"SBLS","flightCategory":"MVFR","rawOb":"METAR SBLS 211900Z VRB06KT 9999 TS VCSH BKN026 FEW035CB 27/21 Q1013","temp":27,"dewp":21,"wdir":"VRB","wspd":6,"visib":"6+","altim":1013,"clouds":[{"cover":"BKN","base":2600},{"cover":"FEW","base":3500}],"obsTime":1774119600},"SBMT":{"icaoId":"SBMT","flightCategory":"VFR","rawOb":"METAR SBMT 211900Z 16010KT 9999 SCT030 FEW030TCU 27/20 Q1013","temp":27,"dewp":20,"wdir":160,"wspd":10,"visib":"6+","altim":1013,"clouds":[{"cover":"SCT","base":3000},{"cover":"FEW","base":3000}],"obsTime":1774119600},"SBPF":{"icaoId":"SBPF","flightCategory":"VFR","rawOb":"METAR SBPF 211900Z 35011KT 310V020 9999 FEW040 30/20 Q1010","temp":30,"dewp":20,"wdir":350,"wspd":11,"visib":"6+","altim":1010,"clouds":[{"cover":"FEW","base":4000}],"obsTime":1774119600},"SBST":{"icaoId":"SBST","flightCategory":"MVFR","rawOb":"METAR SBST 211900Z 16007KT 9999 BKN027 27/21 Q1010","temp":27,"dewp":21,"wdir":160,"wspd":7,"visib":"6+","altim":1010,"clouds":[{"cover":"BKN","base":2700}],"obsTime":1774119600},"SBTA":{"icaoId":"SBTA","flightCategory":"VFR","rawOb":"METAR SBTA 211900Z 30004KT 240V350 9999 FEW045 27/21 Q1011","temp":27,"dewp":21,"wdir":300,"wspd":4,"visib":"6+","altim":1011,"clouds":[{"cover":"FEW","base":4500}],"obsTime":1774119600},"SBAF":{"icaoId":"SBAF","flightCategory":"VFR","rawOb":"METAR SBAF 211900Z 20013KT 9999 SCT030 27/24 Q1011","temp":27,"dewp":24,"wdir":200,"wspd":13,"visib":"6+","altim":1011,"clouds":[{"cover":"SCT","base":3000}],"obsTime":1774119600},"SBTC":{"icaoId":"SBTC","flightCategory":"VFR","rawOb":"METAR SBTC 211900Z 04007KT 9999 FEW020 SCT100 29/25 Q1010","temp":29,"dewp":25,"wdir":40,"wspd":7,"visib":"6+","altim":1010,"clouds":[{"cover":"FEW","base":2000},{"cover":"SCT","base":10000}],"obsTime":1774119600}}}