{"updated":1782178005,"count":66,"data":{"SBRF":{"icaoId":"SBRF","flightCategory":"MVFR","rawOb":"METAR SBRF 230000Z 09005KT 050V130 7000 SCT010 BKN022 OVC040 24/23 Q1016","temp":24,"dewp":23,"wdir":90,"wspd":5,"visib":4.35,"altim":1016,"clouds":[{"cover":"SCT","base":1000},{"cover":"BKN","base":2200},{"cover":"OVC","base":4000}],"obsTime":1782172800},"SBMK":{"icaoId":"SBMK","flightCategory":"VFR","rawOb":"METAR SBMK 230000Z 00000KT CAVOK 20/13 Q1019","temp":20,"dewp":13,"wdir":0,"wspd":0,"visib":"6+","altim":1019,"clouds":[],"obsTime":1782172800},"SBMO":{"icaoId":"SBMO","flightCategory":"IFR","rawOb":"METAR SBMO 230000Z 10006KT 4000 RA FEW006 BKN013 23/23 Q1017","temp":23,"dewp":23,"wdir":100,"wspd":6,"visib":2.49,"altim":1017,"clouds":[{"cover":"FEW","base":600},{"cover":"BKN","base":1300}],"obsTime":1782172800},"SBCT":{"icaoId":"SBCT","flightCategory":"MVFR","rawOb":"METAR SBCT 230000Z 33016KT 6000 -RA SCT014 BKN030 BKN070 18/17 Q1015","temp":18,"dewp":17,"wdir":330,"wspd":16,"visib":3.73,"altim":1015,"clouds":[{"cover":"SCT","base":1400},{"cover":"BKN","base":3000},{"cover":"BKN","base":7000}],"obsTime":1782172800},"SBMQ":{"icaoId":"SBMQ","flightCategory":"VFR","rawOb":"METAR SBMQ 230000Z 04008KT 9999 SCT045 SCT100 28/26 Q1013","temp":28,"dewp":26,"wdir":40,"wspd":8,"visib":"6+","altim":1013,"clouds":[{"cover":"SCT","base":4500},{"cover":"SCT","base":10000}],"obsTime":1782172800},"SBGL":{"icaoId":"SBGL","flightCategory":"VFR","rawOb":"METAR SBGL 230000Z 02003KT CAVOK 20/18 Q1014","temp":20,"dewp":18,"wdir":20,"wspd":3,"visib":"6+","altim":1014,"clouds":[],"obsTime":1782172800},"SBNT":{"icaoId":"SBNT","flightCategory":"VFR","rawOb":"METAR SBNT 230000Z 15004KT 9999 FEW023 SCT064 25/22 Q1015","temp":25,"dewp":22,"wdir":150,"wspd":4,"visib":"6+","altim":1015,"clouds":[{"cover":"FEW","base":2300},{"cover":"SCT","base":6400}],"obsTime":1782172800},"SBGO":{"icaoId":"SBGO","flightCategory":"VFR","rawOb":"METAR SBGO 230000Z VRB03KT CAVOK 21/19 Q1018","temp":21,"dewp":19,"wdir":"VRB","wspd":3,"visib":"6+","altim":1018,"clouds":[],"obsTime":1782172800},"SBCZ":{"icaoId":"SBCZ","flightCategory":"VFR","rawOb":"METAR SBCZ 230000Z 00000KT CAVOK 25/25 Q1012","temp":25,"dewp":25,"wdir":0,"wspd":0,"visib":"6+","altim":1012,"clouds":[],"obsTime":1782172800},"SBPA":{"icaoId":"SBPA","flightCategory":"MVFR","rawOb":"METAR SBPA 230000Z 28011KT 9999 BKN010 BKN045 11/09 Q1015","temp":11,"dewp":9,"wdir":280,"wspd":11,"visib":"6+","altim":1015,"clouds":[{"cover":"BKN","base":1000},{"cover":"BKN","base":4500}],"obsTime":1782172800},"SBGR":{"icaoId":"SBGR","flightCategory":"VFR","rawOb":"METAR SBGR 230000Z 02007KT CAVOK 20/12 Q1016","temp":20,"dewp":12,"wdir":20,"wspd":7,"visib":"6+","altim":1016,"clouds":[],"obsTime":1782172800},"SBPJ":{"icaoId":"SBPJ","flightCategory":"VFR","rawOb":"METAR SBPJ 230000Z 14005KT CAVOK 25/17 Q1014","temp":25,"dewp":17,"wdir":140,"wspd":5,"visib":"6+","altim":1014,"clouds":[],"obsTime":1782172800},"SBCF":{"icaoId":"SBCF","flightCategory":"VFR","rawOb":"METAR SBCF 230000Z VRB02KT CAVOK 17/14 Q1021","temp":17,"dewp":14,"wdir":"VRB","wspd":2,"visib":"6+","altim":1021,"clouds":[],"obsTime":1782172800},"SBPV":{"icaoId":"SBPV","flightCategory":"VFR","rawOb":"METAR SBPV 230000Z 07001KT 9999 FEW035 26/23 Q1012","temp":26,"dewp":23,"wdir":70,"wspd":1,"visib":"6+","altim":1012,"clouds":[{"cover":"FEW","base":3500}],"obsTime":1782172800},"SBBR":{"icaoId":"SBBR","flightCategory":"VFR","rawOb":"METAR SBBR 230000Z 00000KT CAVOK 20/14 Q1021","temp":20,"dewp":14,"wdir":0,"wspd":0,"visib":"6+","altim":1021,"clouds":[],"obsTime":1782172800},"SBRB":{"icaoId":"SBRB","flightCategory":"VFR","rawOb":"METAR SBRB 230000Z 04002KT 9999 FEW040 26/23 Q1012","temp":26,"dewp":23,"wdir":40,"wspd":2,"visib":"6+","altim":1012,"clouds":[{"cover":"FEW","base":4000}],"obsTime":1782172800},"SBMG":{"icaoId":"SBMG","flightCategory":"IFR","rawOb":"METAR SBMG 230000Z 25009KT 9999 SCT001 SCT005 BKN009 16/16 Q1015","temp":16,"dewp":16,"wdir":250,"wspd":9,"visib":"6+","altim":1015,"clouds":[{"cover":"SCT","base":100},{"cover":"SCT","base":500},{"cover":"BKN","base":900}],"obsTime":1782172800},"SBFZ":{"icaoId":"SBFZ","flightCategory":"MVFR","rawOb":"METAR SBFZ 230000Z 11005KT 9999 BKN018 27/24 Q1014","temp":27,"dewp":24,"wdir":110,"wspd":5,"visib":"6+","altim":1014,"clouds":[{"cover":"BKN","base":1800}],"obsTime":1782172800},"SBBE":{"icaoId":"SBBE","flightCategory":"VFR","rawOb":"METAR SBBE 230000Z 04005KT 9999 SCT040 28/24 Q1013","temp":28,"dewp":24,"wdir":40,"wspd":5,"visib":"6+","altim":1013,"clouds":[{"cover":"SCT","base":4000}],"obsTime":1782172800},"SBIL":{"icaoId":"SBIL","flightCategory":"VFR","rawOb":"METAR SBIL 230000Z 30007KT CAVOK 22/21 Q1018","temp":22,"dewp":21,"wdir":300,"wspd":7,"visib":"6+","altim":1018,"clouds":[],"obsTime":1782172800},"SBEG":{"icaoId":"SBEG","flightCategory":"VFR","rawOb":"METAR SBEG 230000Z 05005KT 9999 FEW025 SCT090 26/24 Q1013","temp":26,"dewp":24,"wdir":50,"wspd":5,"visib":"6+","altim":1013,"clouds":[{"cover":"FEW","base":2500},{"cover":"SCT","base":9000}],"obsTime":1782172800},"SBSG":{"icaoId":"SBSG","flightCategory":"VFR","rawOb":"METAR SBSG 230000Z 14003KT 100V180 9999 FEW020 SCT050 24/23 Q1016","temp":24,"dewp":23,"wdir":140,"wspd":3,"visib":"6+","altim":1016,"clouds":[{"cover":"FEW","base":2000},{"cover":"SCT","base":5000}],"obsTime":1782172800},"SBSL":{"icaoId":"SBSL","flightCategory":"VFR","rawOb":"METAR SBSL 230000Z 10007KT 9999 FEW017 BKN080 27/25 Q1013","temp":27,"dewp":25,"wdir":100,"wspd":7,"visib":"6+","altim":1013,"clouds":[{"cover":"FEW","base":1700},{"cover":"BKN","base":8000}],"obsTime":1782172800},"SBJU":{"icaoId":"SBJU","flightCategory":"VFR","rawOb":"METAR SBJU 230000Z 00000KT 9999 SCT020 27/15 Q1017","temp":27,"dewp":15,"wdir":0,"wspd":0,"visib":"6+","altim":1017,"clouds":[{"cover":"SCT","base":2000}],"obsTime":1782172800},"SBSN":{"icaoId":"SBSN","flightCategory":"VFR","rawOb":"METAR SBSN 230000Z 15004KT CAVOK 27/25 Q1012","temp":27,"dewp":25,"wdir":150,"wspd":4,"visib":"6+","altim":1012,"clouds":[],"obsTime":1782172800},"SBFI":{"icaoId":"SBFI","flightCategory":"VFR","rawOb":"METAR SBFI 230000Z 21006KT CAVOK 11/09 Q1018","temp":11,"dewp":9,"wdir":210,"wspd":6,"visib":"6+","altim":1018,"clouds":[],"obsTime":1782172800},"SBSP":{"icaoId":"SBSP","flightCategory":"VFR","rawOb":"METAR SBSP 230000Z VRB02KT CAVOK 19/12 Q1017","temp":19,"dewp":12,"wdir":"VRB","wspd":2,"visib":"6+","altim":1017,"clouds":[],"obsTime":1782172800},"SBKP":{"icaoId":"SBKP","flightCategory":"VFR","rawOb":"METAR SBKP 230000Z 03004KT CAVOK 22/13 Q1016","temp":22,"dewp":13,"wdir":30,"wspd":4,"visib":"6+","altim":1016,"clouds":[],"obsTime":1782172800},"SBSV":{"icaoId":"SBSV","flightCategory":"VFR","rawOb":"METAR SBSV 230000Z 15003KT 120V180 9999 FEW026 25/20 Q1017","temp":25,"dewp":20,"wdir":150,"wspd":3,"visib":"6+","altim":1017,"clouds":[{"cover":"FEW","base":2600}],"obsTime":1782172800},"SBBV":{"icaoId":"SBBV","flightCategory":"VFR","rawOb":"METAR SBBV 230000Z 09007KT 9999 SCT035 FEW040TCU SCT090 30/22 Q1012","temp":30,"dewp":22,"wdir":90,"wspd":7,"visib":"6+","altim":1012,"clouds":[{"cover":"SCT","base":3500},{"cover":"FEW","base":4000},{"cover":"SCT","base":9000}],"obsTime":1782172800},"SBLO":{"icaoId":"SBLO","flightCategory":"VFR","rawOb":"METAR SBLO 230000Z 33002KT 9999 BKN040 19/18 Q1015 RETSRA","temp":19,"dewp":18,"wdir":330,"wspd":2,"visib":"6+","altim":1015,"clouds":[{"cover":"BKN","base":4000}],"obsTime":1782172800},"SBTE":{"icaoId":"SBTE","flightCategory":"VFR","rawOb":"METAR SBTE 230000Z 33003KT CAVOK 27/23 Q1012","temp":27,"dewp":23,"wdir":330,"wspd":3,"visib":"6+","altim":1012,"clouds":[],"obsTime":1782172800},"SBFL":{"icaoId":"SBFL","flightCategory":"VFR","rawOb":"METAR SBFL 230000Z 34012KT 9999 FEW010 BKN080 18/17 Q1010","temp":18,"dewp":17,"wdir":340,"wspd":12,"visib":"6+","altim":1010,"clouds":[{"cover":"FEW","base":1000},{"cover":"BKN","base":8000}],"obsTime":1782172800},"SBUL":{"icaoId":"SBUL","flightCategory":"VFR","rawOb":"METAR SBUL 230000Z 10005KT CAVOK 21/13 Q1020","temp":21,"dewp":13,"wdir":100,"wspd":5,"visib":"6+","altim":1020,"clouds":[],"obsTime":1782172800},"SBMA":{"icaoId":"SBMA","flightCategory":"VFR","rawOb":"METAR SBMA 230000Z 00000KT CAVOK 28/24 Q1012","temp":28,"dewp":24,"wdir":0,"wspd":0,"visib":"6+","altim":1012,"clouds":[],"obsTime":1782172800},"SBUR":{"icaoId":"SBUR","flightCategory":"VFR","rawOb":"METAR SBUR 230000Z 02006KT CAVOK 21/13 Q1018","temp":21,"dewp":13,"wdir":20,"wspd":6,"visib":"6+","altim":1018,"clouds":[],"obsTime":1782172800},"SBCG":{"icaoId":"SBCG","flightCategory":"LIFR","rawOb":"METAR SBCG 230000Z 19011KT 9999 OVC004 19/18 Q1017","temp":19,"dewp":18,"wdir":190,"wspd":11,"visib":"6+","altim":1017,"clouds":[{"cover":"OVC","base":400}],"obsTime":1782172800},"SBVT":{"icaoId":"SBVT","flightCategory":"VFR","rawOb":"METAR SBVT 230000Z 01005KT 9999 FEW030 21/18 Q1018","temp":21,"dewp":18,"wdir":10,"wspd":5,"visib":"6+","altim":1018,"clouds":[{"cover":"FEW","base":3000}],"obsTime":1782172800},"SBME":{"icaoId":"SBME","flightCategory":"VFR","rawOb":"METAR SBME 230000Z 01010KT CAVOK 21/19 Q1016","temp":21,"dewp":19,"wdir":10,"wspd":10,"visib":"6+","altim":1016,"clouds":[],"obsTime":1782172800},"SBTU":{"icaoId":"SBTU","flightCategory":"VFR","rawOb":"METAR SBTU 230000Z AUTO 01002KT 9999 // NCD ///// Q1015","temp":null,"dewp":null,"wdir":10,"wspd":2,"visib":"6+","altim":1015,"clouds":[],"obsTime":1782172800},"SBAR":{"icaoId":"SBAR","flightCategory":"VFR","rawOb":"METAR SBAR 230000Z 18004KT CAVOK 25/21 Q1017","temp":25,"dewp":21,"wdir":180,"wspd":4,"visib":"6+","altim":1017,"clouds":[],"obsTime":1782172800},"SBAX":{"icaoId":"SBAX","flightCategory":"VFR","rawOb":"METAR SBAX 230000Z 08002KT CAVOK 19/13 Q1020","temp":19,"dewp":13,"wdir":80,"wspd":2,"visib":"6+","altim":1020,"clouds":[],"obsTime":1782172800},"SBBH":{"icaoId":"SBBH","flightCategory":"VFR","rawOb":"METAR SBBH 230000Z 00000KT CAVOK 16/14 Q1021","temp":16,"dewp":14,"wdir":0,"wspd":0,"visib":"6+","altim":1021,"clouds":[],"obsTime":1782172800},"SBBU":{"icaoId":"SBBU","flightCategory":"VFR","rawOb":"METAR SBBU 230000Z 01004KT 9999 SCT030 24/19 Q1016","temp":24,"dewp":19,"wdir":10,"wspd":4,"visib":"6+","altim":1016,"clouds":[{"cover":"SCT","base":3000}],"obsTime":1782172800},"SBCO":{"icaoId":"SBCO","flightCategory":"VFR","rawOb":"METAR SBCO 230000Z 27011KT 9999 BKN045 11/09 Q1016","temp":11,"dewp":9,"wdir":270,"wspd":11,"visib":"6+","altim":1016,"clouds":[{"cover":"BKN","base":4500}],"obsTime":1782172800},"SBDN":{"icaoId":"SBDN","flightCategory":"MVFR","rawOb":"METAR SBDN 230000Z 20004KT 9999 -RA SCT012 OVC030 20/18 Q1015","temp":20,"dewp":18,"wdir":200,"wspd":4,"visib":"6+","altim":1015,"clouds":[{"cover":"SCT","base":1200},{"cover":"OVC","base":3000}],"obsTime":1782172800},"SBES":{"icaoId":"SBES","flightCategory":"VFR","rawOb":"METAR SBES 230000Z 05007KT 9000 NSC 20/// Q1016","temp":null,"dewp":null,"wdir":50,"wspd":7,"visib":5.59,"altim":1016,"clouds":[],"obsTime":1782172800},"SBIP":{"icaoId":"SBIP","flightCategory":"VFR","rawOb":"METAR SBIP 230000Z AUTO VRB01KT CAVOK 17/17 Q1018","temp":17,"dewp":17,"wdir":"VRB","wspd":1,"visib":"6+","altim":1018,"clouds":[],"obsTime":1782172800},"SBKG":{"icaoId":"SBKG","flightCategory":"IFR","rawOb":"METAR SBKG 230000Z 11007KT 6000 -DZ SCT004 BKN006 22/21 Q1019","temp":22,"dewp":21,"wdir":110,"wspd":7,"visib":3.73,"altim":1019,"clouds":[{"cover":"SCT","base":400},{"cover":"BKN","base":600}],"obsTime":1782172800},"SBOI":{"icaoId":"SBOI","flightCategory":"VFR","rawOb":"METAR SBOI 230000Z AUTO 17003KT 130V220 9999 -RA SCT020 25/24 Q1015","temp":25,"dewp":24,"wdir":170,"wspd":3,"visib":"6+","altim":1015,"clouds":[{"cover":"SCT","base":2000}],"obsTime":1782172800},"SBPL":{"icaoId":"SBPL","flightCategory":"VFR","rawOb":"METAR SBPL 230000Z 12006KT CAVOK 27/12 Q1017","temp":27,"dewp":12,"wdir":120,"wspd":6,"visib":"6+","altim":1017,"clouds":[],"obsTime":1782172800},"SBPS":{"icaoId":"SBPS","flightCategory":"VFR","rawOb":"METAR SBPS 230000Z 10004KT 9999 SCT025 22/19 Q1018","temp":22,"dewp":19,"wdir":100,"wspd":4,"visib":"6+","altim":1018,"clouds":[{"cover":"SCT","base":2500}],"obsTime":1782172800},"SBSC":{"icaoId":"SBSC","flightCategory":"VFR","rawOb":"METAR SBSC 230000Z 02007KT CAVOK 21/18 Q1014","temp":21,"dewp":18,"wdir":20,"wspd":7,"visib":"6+","altim":1014,"clouds":[],"obsTime":1782172800},"SBSJ":{"icaoId":"SBSJ","flightCategory":"VFR","rawOb":"METAR SBSJ 230000Z 10004KT CAVOK 20/12 Q1016","temp":20,"dewp":12,"wdir":100,"wspd":4,"visib":"6+","altim":1016,"clouds":[],"obsTime":1782172800},"SBSM":{"icaoId":"SBSM","flightCategory":"VFR","rawOb":"METAR SBSM 230000Z 29004KT CAVOK 08/07 Q1018","temp":8,"dewp":7,"wdir":290,"wspd":4,"visib":"6+","altim":1018,"clouds":[],"obsTime":1782172800},"SBSR":{"icaoId":"SBSR","flightCategory":"VFR","rawOb":"METAR SBSR 230000Z 27003KT 9999 FEW035 SCT070 25/15 Q1016","temp":25,"dewp":15,"wdir":270,"wspd":3,"visib":"6+","altim":1016,"clouds":[{"cover":"FEW","base":3500},{"cover":"SCT","base":7000}],"obsTime":1782172800},"SBCA":{"icaoId":"SBCA","flightCategory":"VFR","rawOb":"METAR SBCA 230000Z 22007KT 9999 SCT009 09/09 Q1018","temp":9,"dewp":9,"wdir":220,"wspd":7,"visib":"6+","altim":1018,"clouds":[{"cover":"SCT","base":900}],"obsTime":1782172800},"SBTA":{"icaoId":"SBTA","flightCategory":"VFR","rawOb":"METAR SBTA 230000Z 23002KT CAVOK 16/14 Q1016","temp":16,"dewp":14,"wdir":230,"wspd":2,"visib":"6+","altim":1016,"clouds":[],"obsTime":1782172800},"SBJV":{"icaoId":"SBJV","flightCategory":"VFR","rawOb":"METAR SBJV 230000Z 00000KT 9999 FEW030 BKN050 18/17 Q1011","temp":18,"dewp":17,"wdir":0,"wspd":0,"visib":"6+","altim":1011,"clouds":[{"cover":"FEW","base":3000},{"cover":"BKN","base":5000}],"obsTime":1782172800},"SBNM":{"icaoId":"SBNM","flightCategory":"VFR","rawOb":"METAR SBNM 230000Z AUTO VRB02KT 9999 SCT028 08/08 Q1018","temp":8,"dewp":8,"wdir":"VRB","wspd":2,"visib":"6+","altim":1018,"clouds":[{"cover":"SCT","base":2800}],"obsTime":1782172800},"SBAN":{"icaoId":"SBAN","flightCategory":"VFR","rawOb":"METAR SBAN 230000Z 05003KT CAVOK 18/14 Q1021","temp":18,"dewp":14,"wdir":50,"wspd":3,"visib":"6+","altim":1021,"clouds":[],"obsTime":1782172800},"SBLE":{"icaoId":"SBLE","flightCategory":"VFR","rawOb":"METAR SBLE 230000Z AUTO 36003KT 310V020 CAVOK 17/16 Q1019","temp":17,"dewp":16,"wdir":360,"wspd":3,"visib":"6+","altim":1019,"clouds":[],"obsTime":1782172800},"SBLS":{"icaoId":"SBLS","flightCategory":"VFR","rawOb":"METAR SBLS 230000Z 10003KT CAVOK 18/13 Q1020","temp":18,"dewp":13,"wdir":100,"wspd":3,"visib":"6+","altim":1020,"clouds":[],"obsTime":1782172800},"SBMT":{"icaoId":"SBMT","flightCategory":"VFR","rawOb":"METAR SBMT 230000Z 04003KT CAVOK 15/12 Q1016","temp":15,"dewp":12,"wdir":40,"wspd":3,"visib":"6+","altim":1016,"clouds":[],"obsTime":1782172800},"SBJP":{"icaoId":"SBJP","flightCategory":"MVFR","rawOb":"METAR SBJP 230000Z 16004KT 9999 -RA BKN020 OVC070 24/24 Q1016","temp":24,"dewp":24,"wdir":160,"wspd":4,"visib":"6+","altim":1016,"clouds":[{"cover":"BKN","base":2000},{"cover":"OVC","base":7000}],"obsTime":1782172800},"SBJR":{"icaoId":"SBJR","flightCategory":"VFR","rawOb":"METAR SBJR 230000Z 02001KT CAVOK 20/18 Q1014","temp":20,"dewp":18,"wdir":20,"wspd":1,"visib":"6+","altim":1014,"clouds":[],"obsTime":1782172800}}}