{"updated":1784395596,"count":86,"data":{"SBSP":{"icaoId":"SBSP","flightCategory":"VFR","rawOb":"METAR SBSP 181600Z 36014KT 330V030 CAVOK 23/07 Q1021","temp":23,"dewp":7,"wdir":360,"wspd":14,"visib":"6+","altim":1021,"clouds":[],"obsTime":1784390400},"SBCZ":{"icaoId":"SBCZ","flightCategory":"MVFR","rawOb":"METAR SBCZ 181600Z 30005KT 9999 BKN025 30/24 Q1014","temp":30,"dewp":24,"wdir":300,"wspd":5,"visib":"6+","altim":1014,"clouds":[{"cover":"BKN","base":2500}],"obsTime":1784390400},"SBNT":{"icaoId":"SBNT","flightCategory":"IFR","rawOb":"METAR SBNT 181600Z 15011KT 3000 -RA BR BKN009 BKN020 FEW025TCU OVC050 24/23 Q1014","temp":24,"dewp":23,"wdir":150,"wspd":11,"visib":1.86,"altim":1014,"clouds":[{"cover":"BKN","base":900},{"cover":"BKN","base":2000},{"cover":"FEW","base":2500},{"cover":"OVC","base":5000}],"obsTime":1784390400},"SBGL":{"icaoId":"SBGL","flightCategory":"VFR","rawOb":"METAR SBGL 181600Z 05006KT CAVOK 28/11 Q1017","temp":28,"dewp":11,"wdir":50,"wspd":6,"visib":"6+","altim":1017,"clouds":[],"obsTime":1784390400},"SBSV":{"icaoId":"SBSV","flightCategory":"VFR","rawOb":"METAR SBSV 181600Z 11012KT 9999 VCSH SCT023 FEW025TCU 27/19 Q1019","temp":27,"dewp":19,"wdir":110,"wspd":12,"visib":"6+","altim":1019,"clouds":[{"cover":"SCT","base":2300},{"cover":"FEW","base":2500}],"obsTime":1784390400},"SBVT":{"icaoId":"SBVT","flightCategory":"MVFR","rawOb":"METAR SBVT 181600Z 05009KT 9999 VCSH SCT020 BKN030 OVC040 24/19 Q1021","temp":24,"dewp":19,"wdir":50,"wspd":9,"visib":"6+","altim":1021,"clouds":[{"cover":"SCT","base":2000},{"cover":"BKN","base":3000},{"cover":"OVC","base":4000}],"obsTime":1784390400},"SBTE":{"icaoId":"SBTE","flightCategory":"VFR","rawOb":"METAR SBTE 181600Z 12010KT 9999 BKN040 31/18 Q1012","temp":31,"dewp":18,"wdir":120,"wspd":10,"visib":"6+","altim":1012,"clouds":[{"cover":"BKN","base":4000}],"obsTime":1784390400},"SBMO":{"icaoId":"SBMO","flightCategory":"MVFR","rawOb":"METAR SBMO 181600Z 13017KT 9999 VCSH BKN030 BKN070 26/19 Q1017","temp":26,"dewp":19,"wdir":130,"wspd":17,"visib":"6+","altim":1017,"clouds":[{"cover":"BKN","base":3000},{"cover":"BKN","base":7000}],"obsTime":1784390400},"SBBE":{"icaoId":"SBBE","flightCategory":"VFR","rawOb":"METAR SBBE 181600Z 14006KT 9999 SCT030 BKN080 31/23 Q1012","temp":31,"dewp":23,"wdir":140,"wspd":6,"visib":"6+","altim":1012,"clouds":[{"cover":"SCT","base":3000},{"cover":"BKN","base":8000}],"obsTime":1784390400},"SBBR":{"icaoId":"SBBR","flightCategory":"VFR","rawOb":"METAR SBBR 181600Z 08007KT 050V130 CAVOK 23/10 Q1022","temp":23,"dewp":10,"wdir":80,"wspd":7,"visib":"6+","altim":1022,"clouds":[],"obsTime":1784390400},"SBBV":{"icaoId":"SBBV","flightCategory":"MVFR","rawOb":"METAR SBBV 181600Z 12007KT 9999 BKN030 FEW035TCU 32/22 Q1012","temp":32,"dewp":22,"wdir":120,"wspd":7,"visib":"6+","altim":1012,"clouds":[{"cover":"BKN","base":3000},{"cover":"FEW","base":3500}],"obsTime":1784390400},"SBFZ":{"icaoId":"SBFZ","flightCategory":"VFR","rawOb":"METAR SBFZ 181600Z 15015KT 9999 SCT030 BKN060 30/22 Q1012","temp":30,"dewp":22,"wdir":150,"wspd":15,"visib":"6+","altim":1012,"clouds":[{"cover":"SCT","base":3000},{"cover":"BKN","base":6000}],"obsTime":1784390400},"SBEG":{"icaoId":"SBEG","flightCategory":"VFR","rawOb":"METAR SBEG 181600Z 09011KT 9999 SCT025 32/22 Q1012","temp":32,"dewp":22,"wdir":90,"wspd":11,"visib":"6+","altim":1012,"clouds":[{"cover":"SCT","base":2500}],"obsTime":1784390400},"SBFL":{"icaoId":"SBFL","flightCategory":"VFR","rawOb":"METAR SBFL 181600Z 35013KT CAVOK 28/15 Q1010","temp":28,"dewp":15,"wdir":350,"wspd":13,"visib":"6+","altim":1010,"clouds":[],"obsTime":1784390400},"SBCF":{"icaoId":"SBCF","flightCategory":"VFR","rawOb":"METAR SBCF 181600Z 05011KT 9999 FEW040 23/11 Q1024","temp":23,"dewp":11,"wdir":50,"wspd":11,"visib":"6+","altim":1024,"clouds":[{"cover":"FEW","base":4000}],"obsTime":1784390400},"SBRF":{"icaoId":"SBRF","flightCategory":"MVFR","rawOb":"METAR SBRF 181600Z 15017KT 8000 VCSH FEW014 BKN025 BKN050 27/23 Q1015","temp":27,"dewp":23,"wdir":150,"wspd":17,"visib":4.97,"altim":1015,"clouds":[{"cover":"FEW","base":1400},{"cover":"BKN","base":2500},{"cover":"BKN","base":5000}],"obsTime":1784390400},"SBPV":{"icaoId":"SBPV","flightCategory":"VFR","rawOb":"METAR SBPV 181600Z 36006KT 9999 SCT030 32/23 Q1012","temp":32,"dewp":23,"wdir":360,"wspd":6,"visib":"6+","altim":1012,"clouds":[{"cover":"SCT","base":3000}],"obsTime":1784390400},"SBSL":{"icaoId":"SBSL","flightCategory":"VFR","rawOb":"METAR SBSL 181600Z 17008KT 9999 FEW030 BKN100 31/23 Q1011","temp":31,"dewp":23,"wdir":170,"wspd":8,"visib":"6+","altim":1011,"clouds":[{"cover":"FEW","base":3000},{"cover":"BKN","base":10000}],"obsTime":1784390400},"SBMQ":{"icaoId":"SBMQ","flightCategory":"MVFR","rawOb":"SPECI SBMQ 181540Z 06014KT 020V100 9999 TS BKN018 FEW025CB SCT070 30/24 Q1012","temp":30,"dewp":24,"wdir":60,"wspd":14,"visib":"6+","altim":1012,"clouds":[{"cover":"BKN","base":1800},{"cover":"FEW","base":2500},{"cover":"SCT","base":7000}],"obsTime":1784389200},"SBSG":{"icaoId":"SBSG","flightCategory":"IFR","rawOb":"METAR SBSG 181600Z 14005KT 100V180 3000 -RA BR BKN009 BKN030 24/23 Q1014 RERA","temp":24,"dewp":23,"wdir":140,"wspd":5,"visib":1.86,"altim":1014,"clouds":[{"cover":"BKN","base":900},{"cover":"BKN","base":3000}],"obsTime":1784390400},"SBRB":{"icaoId":"SBRB","flightCategory":"VFR","rawOb":"METAR SBRB 181600Z 33004KT 260V360 9999 SCT023 30/21 Q1014","temp":30,"dewp":21,"wdir":330,"wspd":4,"visib":"6+","altim":1014,"clouds":[{"cover":"SCT","base":2300}],"obsTime":1784390400},"SBPA":{"icaoId":"SBPA","flightCategory":"VFR","rawOb":"METAR SBPA 181600Z 34016KT CAVOK 31/16 Q1004","temp":31,"dewp":16,"wdir":340,"wspd":16,"visib":"6+","altim":1004,"clouds":[],"obsTime":1784390400},"SBCB":{"icaoId":"SBCB","flightCategory":"VFR","rawOb":"METAR SBCB 181600Z 07017KT CAVOK 27/16 Q1018","temp":27,"dewp":16,"wdir":70,"wspd":17,"visib":"6+","altim":1018,"clouds":[],"obsTime":1784390400},"SBSN":{"icaoId":"SBSN","flightCategory":"MVFR","rawOb":"METAR SBSN 181600Z 08011KT 9999 BKN017 BKN100 30/25 Q1012","temp":30,"dewp":25,"wdir":80,"wspd":11,"visib":"6+","altim":1012,"clouds":[{"cover":"BKN","base":1700},{"cover":"BKN","base":10000}],"obsTime":1784390400},"SBCT":{"icaoId":"SBCT","flightCategory":"VFR","rawOb":"METAR SBCT 181600Z 33012KT CAVOK 23/11 Q1018","temp":23,"dewp":11,"wdir":330,"wspd":12,"visib":"6+","altim":1018,"clouds":[],"obsTime":1784390400},"SBGR":{"icaoId":"SBGR","flightCategory":"VFR","rawOb":"METAR SBGR 181600Z 34010KT CAVOK 24/09 Q1020","temp":24,"dewp":9,"wdir":340,"wspd":10,"visib":"6+","altim":1020,"clouds":[],"obsTime":1784390400},"SBME":{"icaoId":"SBME","flightCategory":"VFR","rawOb":"METAR SBME 181600Z 02017KT CAVOK 29/15 Q1018","temp":29,"dewp":15,"wdir":20,"wspd":17,"visib":"6+","altim":1018,"clouds":[],"obsTime":1784390400},"SBMK":{"icaoId":"SBMK","flightCategory":"VFR","rawOb":"METAR SBMK 181600Z 06008KT CAVOK 24/11 Q1022","temp":24,"dewp":11,"wdir":60,"wspd":8,"visib":"6+","altim":1022,"clouds":[],"obsTime":1784390400},"SBUL":{"icaoId":"SBUL","flightCategory":"VFR","rawOb":"METAR SBUL 181600Z 07012KT CAVOK 22/10 Q1022","temp":22,"dewp":10,"wdir":70,"wspd":12,"visib":"6+","altim":1022,"clouds":[],"obsTime":1784390400},"SBUR":{"icaoId":"SBUR","flightCategory":"VFR","rawOb":"METAR SBUR 181600Z 36013KT CAVOK 24/10 Q1021","temp":24,"dewp":10,"wdir":360,"wspd":13,"visib":"6+","altim":1021,"clouds":[],"obsTime":1784390400},"SBMG":{"icaoId":"SBMG","flightCategory":"VFR","rawOb":"METAR SBMG 181600Z 03016KT CAVOK 25/12 Q1016","temp":25,"dewp":12,"wdir":30,"wspd":16,"visib":"6+","altim":1016,"clouds":[],"obsTime":1784390400},"SBIL":{"icaoId":"SBIL","flightCategory":"VFR","rawOb":"METAR SBIL 181600Z 19008KT 140V230 9999 FEW020 SCT070 26/20 Q1020","temp":26,"dewp":20,"wdir":190,"wspd":8,"visib":"6+","altim":1020,"clouds":[{"cover":"FEW","base":2000},{"cover":"SCT","base":7000}],"obsTime":1784390400},"SBJU":{"icaoId":"SBJU","flightCategory":"MVFR","rawOb":"METAR SBJU 181600Z 18010KT 9999 BKN020 28/18 Q1016","temp":28,"dewp":18,"wdir":180,"wspd":10,"visib":"6+","altim":1016,"clouds":[{"cover":"BKN","base":2000}],"obsTime":1784390400},"SBAT":{"icaoId":"SBAT","flightCategory":"VFR","rawOb":"METAR SBAT 181600Z 08009KT 9999 FEW030 34/17 Q1014","temp":34,"dewp":17,"wdir":80,"wspd":9,"visib":"6+","altim":1014,"clouds":[{"cover":"FEW","base":3000}],"obsTime":1784390400},"SBHT":{"icaoId":"SBHT","flightCategory":"MVFR","rawOb":"METAR SBHT 181600Z 10005KT 9999 BKN030 32/21 Q1012","temp":32,"dewp":21,"wdir":100,"wspd":5,"visib":"6+","altim":1012,"clouds":[{"cover":"BKN","base":3000}],"obsTime":1784390400},"SBPJ":{"icaoId":"SBPJ","flightCategory":"VFR","rawOb":"METAR SBPJ 181600Z 11008KT 050V150 CAVOK 32/15 Q1015","temp":32,"dewp":15,"wdir":110,"wspd":8,"visib":"6+","altim":1015,"clouds":[],"obsTime":1784390400},"SBLO":{"icaoId":"SBLO","flightCategory":"VFR","rawOb":"METAR SBLO 181600Z 03009KT 010V080 CAVOK 23/12 Q1018","temp":23,"dewp":12,"wdir":30,"wspd":9,"visib":"6+","altim":1018,"clouds":[],"obsTime":1784390400},"SBCR":{"icaoId":"SBCR","flightCategory":"VFR","rawOb":"METAR SBCR 181600Z 36015KT CAVOK 33/21 Q1010","temp":33,"dewp":21,"wdir":360,"wspd":15,"visib":"6+","altim":1010,"clouds":[],"obsTime":1784390400},"SBKP":{"icaoId":"SBKP","flightCategory":"VFR","rawOb":"METAR SBKP 181600Z 02012KT CAVOK 24/10 Q1021","temp":24,"dewp":10,"wdir":20,"wspd":12,"visib":"6+","altim":1021,"clouds":[],"obsTime":1784390400},"SBFI":{"icaoId":"SBFI","flightCategory":"VFR","rawOb":"METAR SBFI 181600Z 01022G39KT CAVOK 29/16 Q1007","temp":29,"dewp":16,"wdir":10,"wspd":22,"visib":"6+","altim":1007,"clouds":[],"obsTime":1784390400},"SBCG":{"icaoId":"SBCG","flightCategory":"VFR","rawOb":"METAR SBCG 181600Z 34015KT 310V010 9999 FEW045 SCT100 30/14 Q1015","temp":30,"dewp":14,"wdir":340,"wspd":15,"visib":"6+","altim":1015,"clouds":[{"cover":"FEW","base":4500},{"cover":"SCT","base":10000}],"obsTime":1784390400},"SBCP":{"icaoId":"SBCP","flightCategory":"VFR","rawOb":"METAR SBCP 181600Z 05012KT 9999 FEW020 29/15 Q1020","temp":29,"dewp":15,"wdir":50,"wspd":12,"visib":"6+","altim":1020,"clouds":[{"cover":"FEW","base":2000}],"obsTime":1784390400},"SBGO":{"icaoId":"SBGO","flightCategory":"VFR","rawOb":"METAR SBGO 181600Z 36006KT 310V050 CAVOK 27/09 Q1020","temp":27,"dewp":9,"wdir":360,"wspd":6,"visib":"6+","altim":1020,"clouds":[],"obsTime":1784390400},"SBMA":{"icaoId":"SBMA","flightCategory":"VFR","rawOb":"METAR SBMA 181600Z 08007KT 9999 FEW020 33/18 Q1012","temp":33,"dewp":18,"wdir":80,"wspd":7,"visib":"6+","altim":1012,"clouds":[{"cover":"FEW","base":2000}],"obsTime":1784390400},"SBKG":{"icaoId":"SBKG","flightCategory":"VFR","rawOb":"METAR SBKG 181600Z 13012KT 9999 SCT017 24/21 Q1016","temp":24,"dewp":21,"wdir":130,"wspd":12,"visib":"6+","altim":1016,"clouds":[{"cover":"SCT","base":1700}],"obsTime":1784390400},"SBAR":{"icaoId":"SBAR","flightCategory":"VFR","rawOb":"METAR SBAR 181600Z 15013KT 9999 FEW026 BKN050 27/20 Q1017","temp":27,"dewp":20,"wdir":150,"wspd":13,"visib":"6+","altim":1017,"clouds":[{"cover":"FEW","base":2600},{"cover":"BKN","base":5000}],"obsTime":1784390400},"SBSJ":{"icaoId":"SBSJ","flightCategory":"VFR","rawOb":"METAR SBSJ 181600Z VRB04KT CAVOK 23/11 Q1020","temp":23,"dewp":11,"wdir":"VRB","wspd":4,"visib":"6+","altim":1020,"clouds":[],"obsTime":1784390400},"SBPS":{"icaoId":"SBPS","flightCategory":"VFR","rawOb":"METAR SBPS 181600Z 16004KT 090V200 9999 SCT020 SCT080 24/21 Q1021","temp":24,"dewp":21,"wdir":160,"wspd":4,"visib":"6+","altim":1021,"clouds":[{"cover":"SCT","base":2000},{"cover":"SCT","base":8000}],"obsTime":1784390400},"SBOI":{"icaoId":"SBOI","flightCategory":"VFR","rawOb":"METAR SBOI 181600Z AUTO 09008KT 040V160 CAVOK 32/22 Q1012","temp":32,"dewp":22,"wdir":90,"wspd":8,"visib":"6+","altim":1012,"clouds":[],"obsTime":1784390400},"SBPL":{"icaoId":"SBPL","flightCategory":"MVFR","rawOb":"METAR SBPL 181600Z 12012KT 9999 BKN030 29/14 Q1017","temp":29,"dewp":14,"wdir":120,"wspd":12,"visib":"6+","altim":1017,"clouds":[{"cover":"BKN","base":3000}],"obsTime":1784390400},"SBPP":{"icaoId":"SBPP","flightCategory":"VFR","rawOb":"METAR SBPP 181600Z 01014KT CAVOK 28/16 Q1013","temp":28,"dewp":16,"wdir":10,"wspd":14,"visib":"6+","altim":1013,"clouds":[],"obsTime":1784390400},"SBTT":{"icaoId":"SBTT","flightCategory":"MVFR","rawOb":"METAR SBTT 181600Z 23004KT 190V260 9999 BKN025 30/26 Q1013","temp":30,"dewp":26,"wdir":230,"wspd":4,"visib":"6+","altim":1013,"clouds":[{"cover":"BKN","base":2500}],"obsTime":1784390400},"SBCJ":{"icaoId":"SBCJ","flightCategory":"VFR","rawOb":"METAR SBCJ 181600Z 14008KT 070V170 9999 FEW040 27/17 Q1016","temp":27,"dewp":17,"wdir":140,"wspd":8,"visib":"6+","altim":1016,"clouds":[{"cover":"FEW","base":4000}],"obsTime":1784390400},"SBPB":{"icaoId":"SBPB","flightCategory":"VFR","rawOb":"METAR SBPB 181600Z 15007KT 9999 SCT020 31/22 Q1011","temp":31,"dewp":22,"wdir":150,"wspd":7,"visib":"6+","altim":1011,"clouds":[{"cover":"SCT","base":2000}],"obsTime":1784390400},"SBAX":{"icaoId":"SBAX","flightCategory":"VFR","rawOb":"METAR SBAX 181600Z AUTO 07006KT 010V120 CAVOK 22/08 Q1023","temp":22,"dewp":8,"wdir":70,"wspd":6,"visib":"6+","altim":1023,"clouds":[],"obsTime":1784390400},"SBBH":{"icaoId":"SBBH","flightCategory":"VFR","rawOb":"METAR SBBH 181600Z 09008KT 9999 FEW030 23/11 Q1023","temp":23,"dewp":11,"wdir":90,"wspd":8,"visib":"6+","altim":1023,"clouds":[{"cover":"FEW","base":3000}],"obsTime":1784390400},"SBBQ":{"icaoId":"SBBQ","flightCategory":"VFR","rawOb":"METAR SBBQ 181600Z 35008KT CAVOK 21/10 Q1026","temp":21,"dewp":10,"wdir":350,"wspd":8,"visib":"6+","altim":1026,"clouds":[],"obsTime":1784390400},"SBBU":{"icaoId":"SBBU","flightCategory":"VFR","rawOb":"METAR SBBU 181600Z 04007KT CAVOK 25/11 Q1020","temp":25,"dewp":11,"wdir":40,"wspd":7,"visib":"6+","altim":1020,"clouds":[],"obsTime":1784390400},"SBDN":{"icaoId":"SBDN","flightCategory":"VFR","rawOb":"METAR SBDN 181600Z 04013KT CAVOK 26/11 Q1017","temp":26,"dewp":11,"wdir":40,"wspd":13,"visib":"6+","altim":1017,"clouds":[],"obsTime":1784390400},"SBIP":{"icaoId":"SBIP","flightCategory":"VFR","rawOb":"METAR SBIP 181600Z AUTO 35009KT 310V020 9999 SCT036 26/15 Q1022","temp":26,"dewp":15,"wdir":350,"wspd":9,"visib":"6+","altim":1022,"clouds":[{"cover":"SCT","base":3600}],"obsTime":1784390400},"SBSC":{"icaoId":"SBSC","flightCategory":"VFR","rawOb":"METAR SBSC 181600Z 02013KT CAVOK 29/12 Q1017","temp":29,"dewp":12,"wdir":20,"wspd":13,"visib":"6+","altim":1017,"clouds":[],"obsTime":1784390400},"SBSR":{"icaoId":"SBSR","flightCategory":"VFR","rawOb":"METAR SBSR 181600Z COR 04008KT CAVOK 25/09 Q1019","temp":25,"dewp":9,"wdir":40,"wspd":8,"visib":"6+","altim":1019,"clouds":[],"obsTime":1784390400},"SBCA":{"icaoId":"SBCA","flightCategory":"VFR","rawOb":"METAR SBCA 181600Z 03022G32KT 9999 FEW045 24/12 Q1014","temp":24,"dewp":12,"wdir":30,"wspd":22,"visib":"6+","altim":1014,"clouds":[{"cover":"FEW","base":4500}],"obsTime":1784390400},"SBCO":{"icaoId":"SBCO","flightCategory":"VFR","rawOb":"METAR SBCO 181600Z 33014G25KT 300V010 CAVOK 31/17 Q1005","temp":31,"dewp":17,"wdir":330,"wspd":14,"visib":"6+","altim":1005,"clouds":[],"obsTime":1784390400},"SBCC":{"icaoId":"SBCC","flightCategory":"VFR","rawOb":"METAR SBCC 181600Z 04010KT CAVOK 30/16 Q1015","temp":30,"dewp":16,"wdir":40,"wspd":10,"visib":"6+","altim":1015,"clouds":[],"obsTime":1784390400},"SBGM":{"icaoId":"SBGM","flightCategory":"VFR","rawOb":"METAR SBGM 181600Z 29005KT 9999 BKN033 31/22 Q1013","temp":31,"dewp":22,"wdir":290,"wspd":5,"visib":"6+","altim":1013,"clouds":[{"cover":"BKN","base":3300}],"obsTime":1784390400},"SBVH":{"icaoId":"SBVH","flightCategory":"MVFR","rawOb":"METAR SBVH 181600Z 02012KT 9999 BKN030 28/20 Q1016","temp":28,"dewp":20,"wdir":20,"wspd":12,"visib":"6+","altim":1016,"clouds":[{"cover":"BKN","base":3000}],"obsTime":1784390400},"SBES":{"icaoId":"SBES","flightCategory":"VFR","rawOb":"METAR SBES 181600Z 06014G24KT 030V090 CAVOK 27/// Q1018","temp":null,"dewp":null,"wdir":60,"wspd":14,"visib":"6+","altim":1018,"clouds":[],"obsTime":1784390400},"SBSM":{"icaoId":"SBSM","flightCategory":"VFR","rawOb":"METAR SBSM 181600Z 36019G30KT 9999 FEW040 SCT100 29/18 Q1002 WS ALL RWY","temp":29,"dewp":18,"wdir":360,"wspd":19,"visib":"6+","altim":1002,"clouds":[{"cover":"FEW","base":4000},{"cover":"SCT","base":10000}],"obsTime":1784390400},"SBTU":{"icaoId":"SBTU","flightCategory":"VFR","rawOb":"METAR SBTU 181600Z AUTO 27010KT 230V320 9999 // FEW048/// 32/19 Q1014","temp":32,"dewp":19,"wdir":270,"wspd":10,"visib":"6+","altim":1014,"clouds":[{"cover":"FEW","base":4800}],"obsTime":1784390400},"SBTF":{"icaoId":"SBTF","flightCategory":"VFR","rawOb":"METAR SBTF 181600Z 06005KT 9999 FEW018 33/26 Q1012","temp":33,"dewp":26,"wdir":60,"wspd":5,"visib":"6+","altim":1012,"clouds":[{"cover":"FEW","base":1800}],"obsTime":1784390400},"SBUY":{"icaoId":"SBUY","flightCategory":"VFR","rawOb":"METAR SBUY 181600Z 16004KT 9999 FEW020 32/23 Q1011","temp":32,"dewp":23,"wdir":160,"wspd":4,"visib":"6+","altim":1011,"clouds":[{"cover":"FEW","base":2000}],"obsTime":1784390400},"SBJP":{"icaoId":"SBJP","flightCategory":"MVFR","rawOb":"METAR SBJP 181600Z 12020KT 9999 BKN025 27/22 Q1014","temp":27,"dewp":22,"wdir":120,"wspd":20,"visib":"6+","altim":1014,"clouds":[{"cover":"BKN","base":2500}],"obsTime":1784390400},"SBAN":{"icaoId":"SBAN","flightCategory":"VFR","rawOb":"METAR SBAN 181600Z VRB03KT CAVOK 24/07 Q1022","temp":24,"dewp":7,"wdir":"VRB","wspd":3,"visib":"6+","altim":1022,"clouds":[],"obsTime":1784390400},"SBAF":{"icaoId":"SBAF","flightCategory":"VFR","rawOb":"METAR SBAF 181600Z 35010G20KT 310V040 CAVOK 28/12 Q1017","temp":28,"dewp":12,"wdir":350,"wspd":10,"visib":"6+","altim":1017,"clouds":[],"obsTime":1784390400},"SBGW":{"icaoId":"SBGW","flightCategory":"VFR","rawOb":"METAR SBGW 181600Z 07007KT CAVOK 25/09 Q1020","temp":25,"dewp":9,"wdir":70,"wspd":7,"visib":"6+","altim":1020,"clouds":[],"obsTime":1784390400},"SBJR":{"icaoId":"SBJR","flightCategory":"VFR","rawOb":"METAR SBJR 181600Z 35010KT CAVOK 30/12 Q1017","temp":30,"dewp":12,"wdir":350,"wspd":10,"visib":"6+","altim":1017,"clouds":[],"obsTime":1784390400},"SBLS":{"icaoId":"SBLS","flightCategory":"VFR","rawOb":"METAR SBLS 181600Z 05008KT 9999 FEW045 23/11 Q1023","temp":23,"dewp":11,"wdir":50,"wspd":8,"visib":"6+","altim":1023,"clouds":[{"cover":"FEW","base":4500}],"obsTime":1784390400},"SBMT":{"icaoId":"SBMT","flightCategory":"VFR","rawOb":"METAR SBMT 181600Z 31011KT 280V340 CAVOK 23/08 Q1020","temp":23,"dewp":8,"wdir":310,"wspd":11,"visib":"6+","altim":1020,"clouds":[],"obsTime":1784390400},"SBST":{"icaoId":"SBST","flightCategory":"VFR","rawOb":"METAR SBST 181600Z COR 09005KT CAVOK 29/10 Q1015","temp":29,"dewp":10,"wdir":90,"wspd":5,"visib":"6+","altim":1015,"clouds":[],"obsTime":1784390400},"SBTA":{"icaoId":"SBTA","flightCategory":"VFR","rawOb":"METAR SBTA 181600Z VRB05KT CAVOK 25/11 Q1019","temp":25,"dewp":11,"wdir":"VRB","wspd":5,"visib":"6+","altim":1019,"clouds":[],"obsTime":1784390400},"SBJV":{"icaoId":"SBJV","flightCategory":"VFR","rawOb":"METAR SBJV 181600Z 12003KT CAVOK 25/17 Q1012","temp":25,"dewp":17,"wdir":120,"wspd":3,"visib":"6+","altim":1012,"clouds":[],"obsTime":1784390400},"SBNM":{"icaoId":"SBNM","flightCategory":"VFR","rawOb":"METAR SBNM 181600Z 01018KT 9999 FEW035 BKN080 31/19 Q1005","temp":31,"dewp":19,"wdir":10,"wspd":18,"visib":"6+","altim":1005,"clouds":[{"cover":"FEW","base":3500},{"cover":"BKN","base":8000}],"obsTime":1784390400},"SBLE":{"icaoId":"SBLE","flightCategory":"VFR","rawOb":"METAR SBLE 181600Z AUTO 18008KT 130V220 9999 BKN033 OVC047 21/18 Q1021","temp":21,"dewp":18,"wdir":180,"wspd":8,"visib":"6+","altim":1021,"clouds":[{"cover":"BKN","base":3300},{"cover":"OVC","base":4700}],"obsTime":1784390400},"SBTC":{"icaoId":"SBTC","flightCategory":"VFR","rawOb":"METAR SBTC 181600Z 15008KT 9999 VCSH SCT020 FEW025TCU BKN060 25/20 Q1020","temp":25,"dewp":20,"wdir":150,"wspd":8,"visib":"6+","altim":1020,"clouds":[{"cover":"SCT","base":2000},{"cover":"FEW","base":2500},{"cover":"BKN","base":6000}],"obsTime":1784390400},"SBIH":{"icaoId":"SBIH","flightCategory":"VFR","rawOb":"METAR SBIH 181600Z 02003KT 9999 FEW016 32/23 Q1012","temp":32,"dewp":23,"wdir":20,"wspd":3,"visib":"6+","altim":1012,"clouds":[{"cover":"FEW","base":1600}],"obsTime":1784390400}}}