{"updated":1779637173,"count":87,"data":{"SBFL":{"icaoId":"SBFL","flightCategory":"VFR","rawOb":"METAR SBFL 241400Z 20008G18KT 170V240 9999 SCT040 BKN080 21/16 Q1020","temp":21,"dewp":16,"wdir":200,"wspd":8,"visib":"6+","altim":1020,"clouds":[{"cover":"SCT","base":4000},{"cover":"BKN","base":8000}],"obsTime":1779631200},"SBMA":{"icaoId":"SBMA","flightCategory":"VFR","rawOb":"METAR SBMA 241400Z 09003KT 9999 FEW020 31/22 Q1014","temp":31,"dewp":22,"wdir":90,"wspd":3,"visib":"6+","altim":1014,"clouds":[{"cover":"FEW","base":2000}],"obsTime":1779631200},"SBEG":{"icaoId":"SBEG","flightCategory":"MVFR","rawOb":"METAR SBEG 241400Z 20005KT 9999 BKN010 SCT015 BKN090 25/23 Q1015","temp":25,"dewp":23,"wdir":200,"wspd":5,"visib":"6+","altim":1015,"clouds":[{"cover":"BKN","base":1000},{"cover":"SCT","base":1500},{"cover":"BKN","base":9000}],"obsTime":1779631200},"SBME":{"icaoId":"SBME","flightCategory":"VFR","rawOb":"METAR SBME 241400Z 12004KT CAVOK 29/19 Q1019","temp":29,"dewp":19,"wdir":120,"wspd":4,"visib":"6+","altim":1019,"clouds":[],"obsTime":1779631200},"SBBE":{"icaoId":"SBBE","flightCategory":"VFR","rawOb":"METAR SBBE 241400Z 05005KT 9999 SCT025 BKN100 28/24 Q1014","temp":28,"dewp":24,"wdir":50,"wspd":5,"visib":"6+","altim":1014,"clouds":[{"cover":"SCT","base":2500},{"cover":"BKN","base":10000}],"obsTime":1779631200},"SBMG":{"icaoId":"SBMG","flightCategory":"VFR","rawOb":"METAR SBMG 241400Z 36004KT 300V080 9999 FEW020 22/17 Q1020","temp":22,"dewp":17,"wdir":360,"wspd":4,"visib":"6+","altim":1020,"clouds":[{"cover":"FEW","base":2000}],"obsTime":1779631200},"SBFI":{"icaoId":"SBFI","flightCategory":"VFR","rawOb":"METAR SBFI 241400Z 08004KT 9999 FEW007 BKN060 19/18 Q1019","temp":19,"dewp":18,"wdir":80,"wspd":4,"visib":"6+","altim":1019,"clouds":[{"cover":"FEW","base":700},{"cover":"BKN","base":6000}],"obsTime":1779631200},"SBMK":{"icaoId":"SBMK","flightCategory":"VFR","rawOb":"METAR SBMK 241400Z 15005KT 9999 BKN035 24/16 Q1022","temp":24,"dewp":16,"wdir":150,"wspd":5,"visib":"6+","altim":1022,"clouds":[{"cover":"BKN","base":3500}],"obsTime":1779631200},"SBMO":{"icaoId":"SBMO","flightCategory":"VFR","rawOb":"METAR SBMO 241400Z 11008KT 9999 FEW030 29/19 Q1015","temp":29,"dewp":19,"wdir":110,"wspd":8,"visib":"6+","altim":1015,"clouds":[{"cover":"FEW","base":3000}],"obsTime":1779631200},"SBMQ":{"icaoId":"SBMQ","flightCategory":"VFR","rawOb":"METAR SBMQ 241400Z 01006KT 9999 FEW009 SCT063 27/25 Q1014","temp":27,"dewp":25,"wdir":10,"wspd":6,"visib":"6+","altim":1014,"clouds":[{"cover":"FEW","base":900},{"cover":"SCT","base":6300}],"obsTime":1779631200},"SBCZ":{"icaoId":"SBCZ","flightCategory":"VFR","rawOb":"METAR SBCZ 241400Z 10006KT 9999 FEW010 23/19 Q1018","temp":23,"dewp":19,"wdir":100,"wspd":6,"visib":"6+","altim":1018,"clouds":[{"cover":"FEW","base":1000}],"obsTime":1779631200},"SBCF":{"icaoId":"SBCF","flightCategory":"VFR","rawOb":"METAR SBCF 241400Z 10003KT 9999 SCT025 23/15 Q1024","temp":23,"dewp":15,"wdir":100,"wspd":3,"visib":"6+","altim":1024,"clouds":[{"cover":"SCT","base":2500}],"obsTime":1779631200},"SBBR":{"icaoId":"SBBR","flightCategory":"IFR","rawOb":"METAR SBBR 241400Z 12011KT 5000 -DZ OVC008 19/17 Q1024","temp":19,"dewp":17,"wdir":120,"wspd":11,"visib":3.11,"altim":1024,"clouds":[{"cover":"OVC","base":800}],"obsTime":1779631200},"SBLO":{"icaoId":"SBLO","flightCategory":"LIFR","rawOb":"METAR SBLO 241400Z 11003KT 3000 BR OVC004 18/17 Q1021","temp":18,"dewp":17,"wdir":110,"wspd":3,"visib":1.86,"altim":1021,"clouds":[{"cover":"OVC","base":400}],"obsTime":1779631200},"SBNT":{"icaoId":"SBNT","flightCategory":"MVFR","rawOb":"METAR SBNT 241400Z 17014KT 6000 SHRA BKN017 BKN031 FEW034TCU BKN050 27/23 Q1013","temp":27,"dewp":23,"wdir":170,"wspd":14,"visib":3.73,"altim":1013,"clouds":[{"cover":"BKN","base":1700},{"cover":"BKN","base":3100},{"cover":"FEW","base":3400},{"cover":"BKN","base":5000}],"obsTime":1779631200},"SBPA":{"icaoId":"SBPA","flightCategory":"MVFR","rawOb":"METAR SBPA 241400Z 12007KT 090V150 9999 FEW013 BKN016 BKN040 18/14 Q1023","temp":18,"dewp":14,"wdir":120,"wspd":7,"visib":"6+","altim":1023,"clouds":[{"cover":"FEW","base":1300},{"cover":"BKN","base":1600},{"cover":"BKN","base":4000}],"obsTime":1779631200},"SBPJ":{"icaoId":"SBPJ","flightCategory":"VFR","rawOb":"METAR SBPJ 241400Z 09005KT 9999 FEW030 32/20 Q1016","temp":32,"dewp":20,"wdir":90,"wspd":5,"visib":"6+","altim":1016,"clouds":[{"cover":"FEW","base":3000}],"obsTime":1779631200},"SBCG":{"icaoId":"SBCG","flightCategory":"MVFR","rawOb":"METAR SBCG 241400Z 08009KT 9000 BKN010 22/19 Q1020","temp":22,"dewp":19,"wdir":80,"wspd":9,"visib":5.59,"altim":1020,"clouds":[{"cover":"BKN","base":1000}],"obsTime":1779631200},"SBFZ":{"icaoId":"SBFZ","flightCategory":"VFR","rawOb":"METAR SBFZ 241400Z 15013KT 9999 SCT030 30/21 Q1013","temp":30,"dewp":21,"wdir":150,"wspd":13,"visib":"6+","altim":1013,"clouds":[{"cover":"SCT","base":3000}],"obsTime":1779631200},"SBPV":{"icaoId":"SBPV","flightCategory":"VFR","rawOb":"METAR SBPV 241400Z 17008KT 9999 FEW010 24/21 Q1016","temp":24,"dewp":21,"wdir":170,"wspd":8,"visib":"6+","altim":1016,"clouds":[{"cover":"FEW","base":1000}],"obsTime":1779631200},"SBBV":{"icaoId":"SBBV","flightCategory":"MVFR","rawOb":"METAR SBBV 241400Z 36003KT 9999 VCSH BKN010 BKN020 FEW030TCU OVC080 26/25 Q1015","temp":26,"dewp":25,"wdir":360,"wspd":3,"visib":"6+","altim":1015,"clouds":[{"cover":"BKN","base":1000},{"cover":"BKN","base":2000},{"cover":"FEW","base":3000},{"cover":"OVC","base":8000}],"obsTime":1779631200},"SBRB":{"icaoId":"SBRB","flightCategory":"VFR","rawOb":"METAR SBRB 241400Z 16006KT CAVOK 23/17 Q1018","temp":23,"dewp":17,"wdir":160,"wspd":6,"visib":"6+","altim":1018,"clouds":[],"obsTime":1779631200},"SBGL":{"icaoId":"SBGL","flightCategory":"MVFR","rawOb":"METAR SBGL 241400Z 01005KT 340V070 5000 HZ FEW018 25/19 Q1019","temp":25,"dewp":19,"wdir":10,"wspd":5,"visib":3.11,"altim":1019,"clouds":[{"cover":"FEW","base":1800}],"obsTime":1779631200},"SBRF":{"icaoId":"SBRF","flightCategory":"VFR","rawOb":"METAR SBRF 241400Z 15013KT 9999 FEW025 29/22 Q1014","temp":29,"dewp":22,"wdir":150,"wspd":13,"visib":"6+","altim":1014,"clouds":[{"cover":"FEW","base":2500}],"obsTime":1779631200},"SBCP":{"icaoId":"SBCP","flightCategory":"VFR","rawOb":"METAR SBCP 241400Z 02009KT 9999 SCT020 27/19 Q1019","temp":27,"dewp":19,"wdir":20,"wspd":9,"visib":"6+","altim":1019,"clouds":[{"cover":"SCT","base":2000}],"obsTime":1779631200},"SBSG":{"icaoId":"SBSG","flightCategory":"MVFR","rawOb":"METAR SBSG 241400Z 12009KT 090V160 9999 VCSH BKN020 29/22 Q1013","temp":29,"dewp":22,"wdir":120,"wspd":9,"visib":"6+","altim":1013,"clouds":[{"cover":"BKN","base":2000}],"obsTime":1779631200},"SBGO":{"icaoId":"SBGO","flightCategory":"VFR","rawOb":"METAR SBGO 241400Z 05010KT 020V080 9999 FEW035 26/15 Q1021","temp":26,"dewp":15,"wdir":50,"wspd":10,"visib":"6+","altim":1021,"clouds":[{"cover":"FEW","base":3500}],"obsTime":1779631200},"SBSL":{"icaoId":"SBSL","flightCategory":"VFR","rawOb":"METAR SBSL 241400Z 01005KT 9999 SCT022 FEW024TCU SCT100 28/25 Q1013","temp":28,"dewp":25,"wdir":10,"wspd":5,"visib":"6+","altim":1013,"clouds":[{"cover":"SCT","base":2200},{"cover":"FEW","base":2400},{"cover":"SCT","base":10000}],"obsTime":1779631200},"SBCB":{"icaoId":"SBCB","flightCategory":"VFR","rawOb":"METAR SBCB 241400Z 30005KT CAVOK 25/19 Q1020","temp":25,"dewp":19,"wdir":300,"wspd":5,"visib":"6+","altim":1020,"clouds":[],"obsTime":1779631200},"SBSN":{"icaoId":"SBSN","flightCategory":"MVFR","rawOb":"METAR SBSN 241400Z 29006KT 9999 VCSH SCT004 BKN020 FEW025TCU BKN070 25/25 Q1014 RERA","temp":25,"dewp":25,"wdir":290,"wspd":6,"visib":"6+","altim":1014,"clouds":[{"cover":"SCT","base":400},{"cover":"BKN","base":2000},{"cover":"FEW","base":2500},{"cover":"BKN","base":7000}],"obsTime":1779631200},"SBGR":{"icaoId":"SBGR","flightCategory":"VFR","rawOb":"METAR SBGR 241400Z 16002KT 9999 FEW025 21/18 Q1022","temp":21,"dewp":18,"wdir":160,"wspd":2,"visib":"6+","altim":1022,"clouds":[{"cover":"FEW","base":2500}],"obsTime":1779631200},"SBSP":{"icaoId":"SBSP","flightCategory":"VFR","rawOb":"METAR SBSP 241400Z 34005KT 300V020 9999 SCT015 22/18 Q1023","temp":22,"dewp":18,"wdir":340,"wspd":5,"visib":"6+","altim":1023,"clouds":[{"cover":"SCT","base":1500}],"obsTime":1779631200},"SBCR":{"icaoId":"SBCR","flightCategory":"VFR","rawOb":"METAR SBCR 241400Z 30004KT 230V350 CAVOK 21/16 Q1018","temp":21,"dewp":16,"wdir":300,"wspd":4,"visib":"6+","altim":1018,"clouds":[],"obsTime":1779631200},"SBSV":{"icaoId":"SBSV","flightCategory":"MVFR","rawOb":"METAR SBSV 241400Z 12010KT 080V160 9999 VCSH BKN019 FEW023TCU 29/23 Q1016","temp":29,"dewp":23,"wdir":120,"wspd":10,"visib":"6+","altim":1016,"clouds":[{"cover":"BKN","base":1900},{"cover":"FEW","base":2300}],"obsTime":1779631200},"SBHT":{"icaoId":"SBHT","flightCategory":"MVFR","rawOb":"METAR SBHT 241400Z 07003KT 9999 BKN015 BKN080 29/26 Q1014","temp":29,"dewp":26,"wdir":70,"wspd":3,"visib":"6+","altim":1014,"clouds":[{"cover":"BKN","base":1500},{"cover":"BKN","base":8000}],"obsTime":1779631200},"SBTE":{"icaoId":"SBTE","flightCategory":"MVFR","rawOb":"METAR SBTE 241400Z 10006KT 9999 BKN020 30/22 Q1013","temp":30,"dewp":22,"wdir":100,"wspd":6,"visib":"6+","altim":1013,"clouds":[{"cover":"BKN","base":2000}],"obsTime":1779631200},"SBAT":{"icaoId":"SBAT","flightCategory":"VFR","rawOb":"METAR SBAT 241400Z 14006KT CAVOK 30/22 Q1016","temp":30,"dewp":22,"wdir":140,"wspd":6,"visib":"6+","altim":1016,"clouds":[],"obsTime":1779631200},"SBUL":{"icaoId":"SBUL","flightCategory":"VFR","rawOb":"METAR SBUL 241400Z 08011KT 9999 FEW015 22/16 Q1023","temp":22,"dewp":16,"wdir":80,"wspd":11,"visib":"6+","altim":1023,"clouds":[{"cover":"FEW","base":1500}],"obsTime":1779631200},"SBIL":{"icaoId":"SBIL","flightCategory":"VFR","rawOb":"METAR SBIL 241400Z 20012KT 170V240 9999 SCT025 28/22 Q1018","temp":28,"dewp":22,"wdir":200,"wspd":12,"visib":"6+","altim":1018,"clouds":[{"cover":"SCT","base":2500}],"obsTime":1779631200},"SBUR":{"icaoId":"SBUR","flightCategory":"VFR","rawOb":"METAR SBUR 241400Z 02010KT CAVOK 24/17 Q1022","temp":24,"dewp":17,"wdir":20,"wspd":10,"visib":"6+","altim":1022,"clouds":[],"obsTime":1779631200},"SBCT":{"icaoId":"SBCT","flightCategory":"IFR","rawOb":"METAR SBCT 241400Z VRB02KT 5000 BR OVC006 17/17 Q1023","temp":17,"dewp":17,"wdir":"VRB","wspd":2,"visib":3.11,"altim":1023,"clouds":[{"cover":"OVC","base":600}],"obsTime":1779631200},"SBVT":{"icaoId":"SBVT","flightCategory":"VFR","rawOb":"METAR SBVT 241400Z 02004KT 9999 SCT035 27/20 Q1020","temp":27,"dewp":20,"wdir":20,"wspd":4,"visib":"6+","altim":1020,"clouds":[{"cover":"SCT","base":3500}],"obsTime":1779631200},"SBJU":{"icaoId":"SBJU","flightCategory":"VFR","rawOb":"METAR SBJU 241400Z 18014KT 9999 SCT022 29/18 Q1016","temp":29,"dewp":18,"wdir":180,"wspd":14,"visib":"6+","altim":1016,"clouds":[{"cover":"SCT","base":2200}],"obsTime":1779631200},"SBKP":{"icaoId":"SBKP","flightCategory":"VFR","rawOb":"METAR SBKP 241400Z 34005KT 9999 SCT040 23/18 Q1022","temp":23,"dewp":18,"wdir":340,"wspd":5,"visib":"6+","altim":1022,"clouds":[{"cover":"SCT","base":4000}],"obsTime":1779631200},"SBOI":{"icaoId":"SBOI","flightCategory":"IFR","rawOb":"METAR SBOI 241400Z AUTO 35005KT 320V040 9999 -RA BKN007 OVC025 26/25 Q1015","temp":26,"dewp":25,"wdir":350,"wspd":5,"visib":"6+","altim":1015,"clouds":[{"cover":"BKN","base":700},{"cover":"OVC","base":2500}],"obsTime":1779631200},"SBCJ":{"icaoId":"SBCJ","flightCategory":"VFR","rawOb":"METAR SBCJ 241400Z 15007KT CAVOK 27/17 Q1018","temp":27,"dewp":17,"wdir":150,"wspd":7,"visib":"6+","altim":1018,"clouds":[],"obsTime":1779631200},"SBAX":{"icaoId":"SBAX","flightCategory":"VFR","rawOb":"METAR SBAX 241400Z AUTO 04006KT 340V090 CAVOK 24/16 Q1024","temp":24,"dewp":16,"wdir":40,"wspd":6,"visib":"6+","altim":1024,"clouds":[],"obsTime":1779631200},"SBBH":{"icaoId":"SBBH","flightCategory":"VFR","rawOb":"METAR SBBH 241400Z 07003KT 9999 FEW035 24/16 Q1023","temp":24,"dewp":16,"wdir":70,"wspd":3,"visib":"6+","altim":1023,"clouds":[{"cover":"FEW","base":3500}],"obsTime":1779631200},"SBBQ":{"icaoId":"SBBQ","flightCategory":"VFR","rawOb":"METAR SBBQ 241400Z 31004KT 250V010 9999 FEW025 21/15 Q1026","temp":21,"dewp":15,"wdir":310,"wspd":4,"visib":"6+","altim":1026,"clouds":[{"cover":"FEW","base":2500}],"obsTime":1779631200},"SBBU":{"icaoId":"SBBU","flightCategory":"VFR","rawOb":"METAR SBBU 241400Z 02004KT CAVOK 23/20 Q1021","temp":23,"dewp":20,"wdir":20,"wspd":4,"visib":"6+","altim":1021,"clouds":[],"obsTime":1779631200},"SBCC":{"icaoId":"SBCC","flightCategory":"VFR","rawOb":"METAR SBCC 241400Z 08013KT CAVOK 29/19 Q1017","temp":29,"dewp":19,"wdir":80,"wspd":13,"visib":"6+","altim":1017,"clouds":[],"obsTime":1779631200},"SBAR":{"icaoId":"SBAR","flightCategory":"VFR","rawOb":"METAR SBAR 241400Z 11013KT 9999 SCT025 29/22 Q1015","temp":29,"dewp":22,"wdir":110,"wspd":13,"visib":"6+","altim":1015,"clouds":[{"cover":"SCT","base":2500}],"obsTime":1779631200},"SBCO":{"icaoId":"SBCO","flightCategory":"MVFR","rawOb":"METAR SBCO 241400Z 10009KT 9999 FEW009 BKN015 BKN043 18/14 Q1023","temp":18,"dewp":14,"wdir":100,"wspd":9,"visib":"6+","altim":1023,"clouds":[{"cover":"FEW","base":900},{"cover":"BKN","base":1500},{"cover":"BKN","base":4300}],"obsTime":1779631200},"SBDN":{"icaoId":"SBDN","flightCategory":"VFR","rawOb":"METAR SBDN 241400Z 06004KT 9999 FEW049 24/19 Q1020","temp":24,"dewp":19,"wdir":60,"wspd":4,"visib":"6+","altim":1020,"clouds":[{"cover":"FEW","base":4900}],"obsTime":1779631200},"SBES":{"icaoId":"SBES","flightCategory":"VFR","rawOb":"METAR SBES 241400Z VRB05KT 9999 FEW020 23/// Q1019","temp":null,"dewp":null,"wdir":"VRB","wspd":5,"visib":"6+","altim":1019,"clouds":[{"cover":"FEW","base":2000}],"obsTime":1779631200},"SBGM":{"icaoId":"SBGM","flightCategory":"VFR","rawOb":"METAR SBGM 241400Z 09007KT 9999 SCT040 24/17 Q1017","temp":24,"dewp":17,"wdir":90,"wspd":7,"visib":"6+","altim":1017,"clouds":[{"cover":"SCT","base":4000}],"obsTime":1779631200},"SBIP":{"icaoId":"SBIP","flightCategory":"VFR","rawOb":"METAR SBIP 241400Z AUTO 04004KT 330V100 9999 FEW022 OVC037 24/18 Q1021","temp":24,"dewp":18,"wdir":40,"wspd":4,"visib":"6+","altim":1021,"clouds":[{"cover":"FEW","base":2200},{"cover":"OVC","base":3700}],"obsTime":1779631200},"SBKG":{"icaoId":"SBKG","flightCategory":"MVFR","rawOb":"METAR SBKG 241400Z 12010KT 9999 BKN020 26/19 Q1016","temp":26,"dewp":19,"wdir":120,"wspd":10,"visib":"6+","altim":1016,"clouds":[{"cover":"BKN","base":2000}],"obsTime":1779631200},"SBPB":{"icaoId":"SBPB","flightCategory":"VFR","rawOb":"METAR SBPB 241400Z 08005KT 9999 FEW020 32/24 Q1013","temp":32,"dewp":24,"wdir":80,"wspd":5,"visib":"6+","altim":1013,"clouds":[{"cover":"FEW","base":2000}],"obsTime":1779631200},"SBPL":{"icaoId":"SBPL","flightCategory":"MVFR","rawOb":"METAR SBPL 241400Z 11009KT 9999 BKN030 29/19 Q1017","temp":29,"dewp":19,"wdir":110,"wspd":9,"visib":"6+","altim":1017,"clouds":[{"cover":"BKN","base":3000}],"obsTime":1779631200},"SBPP":{"icaoId":"SBPP","flightCategory":"VFR","rawOb":"METAR SBPP 241400Z 08007KT 9999 -RA FEW002 SCT020 OVC100 16/15 Q1021","temp":16,"dewp":15,"wdir":80,"wspd":7,"visib":"6+","altim":1021,"clouds":[{"cover":"FEW","base":200},{"cover":"SCT","base":2000},{"cover":"OVC","base":10000}],"obsTime":1779631200},"SBPS":{"icaoId":"SBPS","flightCategory":"VFR","rawOb":"METAR SBPS 241400Z 16007KT 9999 SCT030 27/20 Q1019","temp":27,"dewp":20,"wdir":160,"wspd":7,"visib":"6+","altim":1019,"clouds":[{"cover":"SCT","base":3000}],"obsTime":1779631200},"SBSC":{"icaoId":"SBSC","flightCategory":"VFR","rawOb":"METAR SBSC 241400Z 22003KT 9999 FEW016 25/20 Q1019","temp":25,"dewp":20,"wdir":220,"wspd":3,"visib":"6+","altim":1019,"clouds":[{"cover":"FEW","base":1600}],"obsTime":1779631200},"SBSJ":{"icaoId":"SBSJ","flightCategory":"IFR","rawOb":"METAR SBSJ 241400Z 01003KT 4000 BR BKN011 21/18 Q1022","temp":21,"dewp":18,"wdir":10,"wspd":3,"visib":2.49,"altim":1022,"clouds":[{"cover":"BKN","base":1100}],"obsTime":1779631200},"SBSM":{"icaoId":"SBSM","flightCategory":"VFR","rawOb":"METAR SBSM 241400Z 12008KT 9999 FEW012 SCT023 16/13 Q1022","temp":16,"dewp":13,"wdir":120,"wspd":8,"visib":"6+","altim":1022,"clouds":[{"cover":"FEW","base":1200},{"cover":"SCT","base":2300}],"obsTime":1779631200},"SBSR":{"icaoId":"SBSR","flightCategory":"VFR","rawOb":"METAR SBSR 241400Z 04006KT CAVOK 26/18 Q1021","temp":26,"dewp":18,"wdir":40,"wspd":6,"visib":"6+","altim":1021,"clouds":[],"obsTime":1779631200},"SBTF":{"icaoId":"SBTF","flightCategory":"VFR","rawOb":"METAR SBTF 241400Z 20006KT 9999 SCT008 SCT090 25/22 Q1016","temp":25,"dewp":22,"wdir":200,"wspd":6,"visib":"6+","altim":1016,"clouds":[{"cover":"SCT","base":800},{"cover":"SCT","base":9000}],"obsTime":1779631200},"SBTT":{"icaoId":"SBTT","flightCategory":"MVFR","rawOb":"METAR SBTT 241400Z 20006KT 9999 BKN012 OVC016 23/20 Q1017","temp":23,"dewp":20,"wdir":200,"wspd":6,"visib":"6+","altim":1017,"clouds":[{"cover":"BKN","base":1200},{"cover":"OVC","base":1600}],"obsTime":1779631200},"SBTU":{"icaoId":"SBTU","flightCategory":"VFR","rawOb":"METAR SBTU 241400Z AUTO 24005KT 180V280 9999 // FEW016/// 29/24 Q1015","temp":29,"dewp":24,"wdir":240,"wspd":5,"visib":"6+","altim":1015,"clouds":[{"cover":"FEW","base":1600}],"obsTime":1779631200},"SBUY":{"icaoId":"SBUY","flightCategory":"MVFR","rawOb":"METAR SBUY 241400Z 19003KT 9999 BKN013 BKN070 23/21 Q1015","temp":23,"dewp":21,"wdir":190,"wspd":3,"visib":"6+","altim":1015,"clouds":[{"cover":"BKN","base":1300},{"cover":"BKN","base":7000}],"obsTime":1779631200},"SBVH":{"icaoId":"SBVH","flightCategory":"VFR","rawOb":"METAR SBVH 241400Z 09006KT CAVOK 23/19 Q1019","temp":23,"dewp":19,"wdir":90,"wspd":6,"visib":"6+","altim":1019,"clouds":[],"obsTime":1779631200},"SBCA":{"icaoId":"SBCA","flightCategory":"VFR","rawOb":"METAR SBCA 241400Z 02006KT 320V060 9999 SCT030 SCT070 19/16 Q1022","temp":19,"dewp":16,"wdir":20,"wspd":6,"visib":"6+","altim":1022,"clouds":[{"cover":"SCT","base":3000},{"cover":"SCT","base":7000}],"obsTime":1779631200},"SBLE":{"icaoId":"SBLE","flightCategory":"IFR","rawOb":"METAR SBLE 241400Z AUTO 17006KT 130V210 9999 -RA SCT004 OVC007 ///// Q////","temp":null,"dewp":null,"wdir":170,"wspd":6,"visib":"6+","altim":null,"clouds":[{"cover":"SCT","base":400},{"cover":"OVC","base":700}],"obsTime":1779631200},"SBPF":{"icaoId":"SBPF","flightCategory":"MVFR","rawOb":"METAR SBPF 241400Z 11007KT 9999 BKN010 14/11 Q1023","temp":14,"dewp":11,"wdir":110,"wspd":7,"visib":"6+","altim":1023,"clouds":[{"cover":"BKN","base":1000}],"obsTime":1779631200},"SBAF":{"icaoId":"SBAF","flightCategory":"VFR","rawOb":"METAR SBAF 241400Z VRB02KT 9999 FEW010 SCT025 26/21 Q1020","temp":26,"dewp":21,"wdir":"VRB","wspd":2,"visib":"6+","altim":1020,"clouds":[{"cover":"FEW","base":1000},{"cover":"SCT","base":2500}],"obsTime":1779631200},"SBGW":{"icaoId":"SBGW","flightCategory":"VFR","rawOb":"METAR SBGW 241400Z 35002KT 9999 SCT008 20/15 Q1022","temp":20,"dewp":15,"wdir":350,"wspd":2,"visib":"6+","altim":1022,"clouds":[{"cover":"SCT","base":800}],"obsTime":1779631200},"SBJR":{"icaoId":"SBJR","flightCategory":"VFR","rawOb":"METAR SBJR 241400Z 19002KT 9999 FEW020 29/20 Q1019","temp":29,"dewp":20,"wdir":190,"wspd":2,"visib":"6+","altim":1019,"clouds":[{"cover":"FEW","base":2000}],"obsTime":1779631200},"SBLS":{"icaoId":"SBLS","flightCategory":"VFR","rawOb":"METAR SBLS 241400Z VRB03KT 9999 SCT023 23/16 Q1023","temp":23,"dewp":16,"wdir":"VRB","wspd":3,"visib":"6+","altim":1023,"clouds":[{"cover":"SCT","base":2300}],"obsTime":1779631200},"SBAN":{"icaoId":"SBAN","flightCategory":"MVFR","rawOb":"METAR SBAN 241400Z 18012KT 9999 VCSH BKN010 BKN015 21/16 Q1024","temp":21,"dewp":16,"wdir":180,"wspd":12,"visib":"6+","altim":1024,"clouds":[{"cover":"BKN","base":1000},{"cover":"BKN","base":1500}],"obsTime":1779631200},"SBMT":{"icaoId":"SBMT","flightCategory":"VFR","rawOb":"METAR SBMT 241400Z 00000KT CAVOK 22/18 Q1022","temp":22,"dewp":18,"wdir":0,"wspd":0,"visib":"6+","altim":1022,"clouds":[],"obsTime":1779631200},"SBST":{"icaoId":"SBST","flightCategory":"MVFR","rawOb":"METAR SBST 241400Z 02001KT 6000 SCT009 OVC014 20/18 Q1020","temp":20,"dewp":18,"wdir":20,"wspd":1,"visib":3.73,"altim":1020,"clouds":[{"cover":"SCT","base":900},{"cover":"OVC","base":1400}],"obsTime":1779631200},"SBIH":{"icaoId":"SBIH","flightCategory":"MVFR","rawOb":"METAR SBIH 241400Z 00000KT 5000 -RA BKN016 BKN080 26/25 Q1014","temp":26,"dewp":25,"wdir":0,"wspd":0,"visib":3.11,"altim":1014,"clouds":[{"cover":"BKN","base":1600},{"cover":"BKN","base":8000}],"obsTime":1779631200},"SBTA":{"icaoId":"SBTA","flightCategory":"VFR","rawOb":"METAR SBTA 241400Z VRB02KT 9000 FEW012 23/18 Q1021","temp":23,"dewp":18,"wdir":"VRB","wspd":2,"visib":5.59,"altim":1021,"clouds":[{"cover":"FEW","base":1200}],"obsTime":1779631200},"SBJP":{"icaoId":"SBJP","flightCategory":"VFR","rawOb":"METAR SBJP 241400Z 12012KT 9999 SCT030 29/22 Q1014","temp":29,"dewp":22,"wdir":120,"wspd":12,"visib":"6+","altim":1014,"clouds":[{"cover":"SCT","base":3000}],"obsTime":1779631200},"SBJV":{"icaoId":"SBJV","flightCategory":"VFR","rawOb":"METAR SBJV 241400Z 34002KT 9999 FEW015 BKN040 BKN060 18/16 Q1021","temp":18,"dewp":16,"wdir":340,"wspd":2,"visib":"6+","altim":1021,"clouds":[{"cover":"FEW","base":1500},{"cover":"BKN","base":4000},{"cover":"BKN","base":6000}],"obsTime":1779631200},"SBNM":{"icaoId":"SBNM","flightCategory":"VFR","rawOb":"METAR SBNM 241400Z 12006KT 9999 SCT008 17/13 Q1021","temp":17,"dewp":13,"wdir":120,"wspd":6,"visib":"6+","altim":1021,"clouds":[{"cover":"SCT","base":800}],"obsTime":1779631200},"SBTC":{"icaoId":"SBTC","flightCategory":"VFR","rawOb":"METAR SBTC 241500Z 17008KT 9999 SCT025 28/22 Q1018","temp":28,"dewp":22,"wdir":170,"wspd":8,"visib":"6+","altim":1018,"clouds":[{"cover":"SCT","base":2500}],"obsTime":1779634800}}}