{"updated":1776063955,"count":50,"data":{"SBFL":{"icaoId":"SBFL","flightCategory":"VFR","rawOb":"METAR SBFL 130600Z VRB02KT 9999 FEW014 SCT060 OVC090 21/21 Q1016","temp":21,"dewp":21,"wdir":"VRB","wspd":2,"visib":"6+","altim":1016,"clouds":[{"cover":"FEW","base":1400},{"cover":"SCT","base":6000},{"cover":"OVC","base":9000}],"obsTime":1776060000},"SBCG":{"icaoId":"SBCG","flightCategory":"VFR","rawOb":"METAR SBCG 130600Z 10010KT 9999 VCTS FEW045 FEW050CB 21/19 Q1015","temp":21,"dewp":19,"wdir":100,"wspd":10,"visib":"6+","altim":1015,"clouds":[{"cover":"FEW","base":4500},{"cover":"FEW","base":5000}],"obsTime":1776060000},"SBMO":{"icaoId":"SBMO","flightCategory":"MVFR","rawOb":"METAR SBMO 130600Z 23005KT 5000 BR SCT002 SCT020 24/24 Q1011","temp":24,"dewp":24,"wdir":230,"wspd":5,"visib":3.11,"altim":1011,"clouds":[{"cover":"SCT","base":200},{"cover":"SCT","base":2000}],"obsTime":1776060000},"SBFZ":{"icaoId":"SBFZ","flightCategory":"IFR","rawOb":"METAR SBFZ 130600Z 17003KT 110V210 3000 RA BR FEW004 BKN008 OVC015 25/24 Q1010","temp":25,"dewp":24,"wdir":170,"wspd":3,"visib":1.86,"altim":1010,"clouds":[{"cover":"FEW","base":400},{"cover":"BKN","base":800},{"cover":"OVC","base":1500}],"obsTime":1776060000},"SBMQ":{"icaoId":"SBMQ","flightCategory":"VFR","rawOb":"METAR SBMQ 130600Z 35002KT 9999 OVC040 25/24 Q1010","temp":25,"dewp":24,"wdir":350,"wspd":2,"visib":"6+","altim":1010,"clouds":[{"cover":"OVC","base":4000}],"obsTime":1776060000},"SBNT":{"icaoId":"SBNT","flightCategory":"VFR","rawOb":"METAR SBNT 130600Z 19002KT 9000 FEW020 BKN040 BKN070 24/23 Q1010","temp":24,"dewp":23,"wdir":190,"wspd":2,"visib":5.59,"altim":1010,"clouds":[{"cover":"FEW","base":2000},{"cover":"BKN","base":4000},{"cover":"BKN","base":7000}],"obsTime":1776060000},"SBGL":{"icaoId":"SBGL","flightCategory":"VFR","rawOb":"METAR SBGL 130600Z 15008KT 9999 FEW046 22/20 Q1017","temp":22,"dewp":20,"wdir":150,"wspd":8,"visib":"6+","altim":1017,"clouds":[{"cover":"FEW","base":4600}],"obsTime":1776060000},"SBBV":{"icaoId":"SBBV","flightCategory":"VFR","rawOb":"METAR SBBV 130600Z 14005KT 9999 FEW040 SCT100 27/23 Q1010","temp":27,"dewp":23,"wdir":140,"wspd":5,"visib":"6+","altim":1010,"clouds":[{"cover":"FEW","base":4000},{"cover":"SCT","base":10000}],"obsTime":1776060000},"SBPA":{"icaoId":"SBPA","flightCategory":"VFR","rawOb":"METAR SBPA 130600Z 28002KT 9999 FEW040 19/18 Q1016","temp":19,"dewp":18,"wdir":280,"wspd":2,"visib":"6+","altim":1016,"clouds":[{"cover":"FEW","base":4000}],"obsTime":1776060000},"SBCT":{"icaoId":"SBCT","flightCategory":"LIFR","rawOb":"METAR SBCT 130600Z 08003KT 9999 OVC004 16/16 Q1020","temp":16,"dewp":16,"wdir":80,"wspd":3,"visib":"6+","altim":1020,"clouds":[{"cover":"OVC","base":400}],"obsTime":1776060000},"SBPJ":{"icaoId":"SBPJ","flightCategory":"VFR","rawOb":"METAR SBPJ 130600Z 14003KT 9999 FEW010 25/24 Q1011","temp":25,"dewp":24,"wdir":140,"wspd":3,"visib":"6+","altim":1011,"clouds":[{"cover":"FEW","base":1000}],"obsTime":1776060000},"SBGO":{"icaoId":"SBGO","flightCategory":"VFR","rawOb":"METAR SBGO 130600Z 12003KT 080V140 CAVOK 21/18 Q1017","temp":21,"dewp":18,"wdir":120,"wspd":3,"visib":"6+","altim":1017,"clouds":[],"obsTime":1776060000},"SBPV":{"icaoId":"SBPV","flightCategory":"VFR","rawOb":"METAR SBPV 130600Z 16003KT 9999 -RA VCTS FEW025 BKN045 FEW050CB 25/24 Q1010","temp":25,"dewp":24,"wdir":160,"wspd":3,"visib":"6+","altim":1010,"clouds":[{"cover":"FEW","base":2500},{"cover":"BKN","base":4500},{"cover":"FEW","base":5000}],"obsTime":1776060000},"SBVT":{"icaoId":"SBVT","flightCategory":"MVFR","rawOb":"METAR SBVT 130600Z 28004KT 6000 -RA SCT015 BKN017 BKN080 21/21 Q1016","temp":21,"dewp":21,"wdir":280,"wspd":4,"visib":3.73,"altim":1016,"clouds":[{"cover":"SCT","base":1500},{"cover":"BKN","base":1700},{"cover":"BKN","base":8000}],"obsTime":1776060000},"SBRB":{"icaoId":"SBRB","flightCategory":"MVFR","rawOb":"METAR SBRB 130600Z 32002KT 8000 FEW002 BKN100 24/23 Q1011","temp":24,"dewp":23,"wdir":320,"wspd":2,"visib":4.97,"altim":1011,"clouds":[{"cover":"FEW","base":200},{"cover":"BKN","base":10000}],"obsTime":1776060000},"SBBR":{"icaoId":"SBBR","flightCategory":"VFR","rawOb":"METAR SBBR 130600Z 14004KT 110V170 CAVOK 19/17 Q1019","temp":19,"dewp":17,"wdir":140,"wspd":4,"visib":"6+","altim":1019,"clouds":[],"obsTime":1776060000},"SBRF":{"icaoId":"SBRF","flightCategory":"VFR","rawOb":"METAR SBRF 130600Z 30002KT 9999 FEW024 24/23 Q1010","temp":24,"dewp":23,"wdir":300,"wspd":2,"visib":"6+","altim":1010,"clouds":[{"cover":"FEW","base":2400}],"obsTime":1776060000},"SBGR":{"icaoId":"SBGR","flightCategory":"IFR","rawOb":"SPECI SBGR 130520Z 06005KT 9999 BKN008 17/17 Q1019","temp":17,"dewp":17,"wdir":60,"wspd":5,"visib":"6+","altim":1019,"clouds":[{"cover":"BKN","base":800}],"obsTime":1776057600},"SBSG":{"icaoId":"SBSG","flightCategory":"MVFR","rawOb":"METAR SBSG 130600Z 17003KT 8000 SCT015 BKN030 FEW033TCU 23/23 Q1011","temp":23,"dewp":23,"wdir":170,"wspd":3,"visib":4.97,"altim":1011,"clouds":[{"cover":"SCT","base":1500},{"cover":"BKN","base":3000},{"cover":"FEW","base":3300}],"obsTime":1776060000},"SBSL":{"icaoId":"SBSL","flightCategory":"VFR","rawOb":"METAR SBSL 130600Z 13007KT 9999 FEW014 FEW025TCU BKN080 26/24 Q1010","temp":26,"dewp":24,"wdir":130,"wspd":7,"visib":"6+","altim":1010,"clouds":[{"cover":"FEW","base":1400},{"cover":"FEW","base":2500},{"cover":"BKN","base":8000}],"obsTime":1776060000},"SBEG":{"icaoId":"SBEG","flightCategory":"VFR","rawOb":"METAR SBEG 130600Z 00000KT 9999 FEW008 24/24 Q1010","temp":24,"dewp":24,"wdir":0,"wspd":0,"visib":"6+","altim":1010,"clouds":[{"cover":"FEW","base":800}],"obsTime":1776060000},"SBKP":{"icaoId":"SBKP","flightCategory":"VFR","rawOb":"METAR SBKP 130600Z 11005KT CAVOK 18/17 Q1018","temp":18,"dewp":17,"wdir":110,"wspd":5,"visib":"6+","altim":1018,"clouds":[],"obsTime":1776060000},"SBSN":{"icaoId":"SBSN","flightCategory":"VFR","rawOb":"METAR SBSN 130600Z 15003KT 9999 SCT003 BKN070 26/25 Q1009","temp":26,"dewp":25,"wdir":150,"wspd":3,"visib":"6+","altim":1009,"clouds":[{"cover":"SCT","base":300},{"cover":"BKN","base":7000}],"obsTime":1776060000},"SBFI":{"icaoId":"SBFI","flightCategory":"VFR","rawOb":"METAR SBFI 130600Z 18003KT 9999 2000SW BCFG NSC 18/18 Q1014","temp":18,"dewp":18,"wdir":180,"wspd":3,"visib":"6+","altim":1014,"clouds":[],"obsTime":1776060000},"SBSP":{"icaoId":"SBSP","flightCategory":"VFR","rawOb":"METAR SBSP 130600Z AUTO 07005KT 020V140 9999 FEW011 18/17 Q1019","temp":18,"dewp":17,"wdir":70,"wspd":5,"visib":"6+","altim":1019,"clouds":[{"cover":"FEW","base":1100}],"obsTime":1776060000},"SBBE":{"icaoId":"SBBE","flightCategory":"VFR","rawOb":"METAR SBBE 130600Z 10002KT CAVOK 25/25 Q1011","temp":25,"dewp":25,"wdir":100,"wspd":2,"visib":"6+","altim":1011,"clouds":[],"obsTime":1776060000},"SBMA":{"icaoId":"SBMA","flightCategory":"VFR","rawOb":"METAR SBMA 130600Z 00000KT 9999 FEW015 SCT080 25/25 Q1010","temp":25,"dewp":25,"wdir":0,"wspd":0,"visib":"6+","altim":1010,"clouds":[{"cover":"FEW","base":1500},{"cover":"SCT","base":8000}],"obsTime":1776060000},"SBCF":{"icaoId":"SBCF","flightCategory":"VFR","rawOb":"METAR SBCF 130600Z 17005KT CAVOK 17/16 Q1019","temp":17,"dewp":16,"wdir":170,"wspd":5,"visib":"6+","altim":1019,"clouds":[],"obsTime":1776060000},"SBSV":{"icaoId":"SBSV","flightCategory":"MVFR","rawOb":"METAR SBSV 130600Z 26004KT 200V290 9999 BKN017 25/24 Q1012","temp":25,"dewp":24,"wdir":260,"wspd":4,"visib":"6+","altim":1012,"clouds":[{"cover":"BKN","base":1700}],"obsTime":1776060000},"SBLO":{"icaoId":"SBLO","flightCategory":"VFR","rawOb":"METAR SBLO 130600Z VRB02KT CAVOK 22/18 Q1017","temp":22,"dewp":18,"wdir":"VRB","wspd":2,"visib":"6+","altim":1017,"clouds":[],"obsTime":1776060000},"SBTE":{"icaoId":"SBTE","flightCategory":"VFR","rawOb":"METAR SBTE 130600Z 32004KT 9999 FEW013 BKN080 25/24 Q1010","temp":25,"dewp":24,"wdir":320,"wspd":4,"visib":"6+","altim":1010,"clouds":[{"cover":"FEW","base":1300},{"cover":"BKN","base":8000}],"obsTime":1776060000},"SBUL":{"icaoId":"SBUL","flightCategory":"VFR","rawOb":"METAR SBUL 130600Z 12006KT CAVOK 19/16 Q1019","temp":19,"dewp":16,"wdir":120,"wspd":6,"visib":"6+","altim":1019,"clouds":[],"obsTime":1776060000},"SBUR":{"icaoId":"SBUR","flightCategory":"VFR","rawOb":"METAR SBUR 130600Z 06007KT CAVOK 21/16 Q1018","temp":21,"dewp":16,"wdir":60,"wspd":7,"visib":"6+","altim":1018,"clouds":[],"obsTime":1776060000},"SBJU":{"icaoId":"SBJU","flightCategory":"MVFR","rawOb":"METAR SBJU 130600Z 00000KT 9999 SCT011 BKN020 FEW020TCU 22/22 Q1013","temp":22,"dewp":22,"wdir":0,"wspd":0,"visib":"6+","altim":1013,"clouds":[{"cover":"SCT","base":1100},{"cover":"BKN","base":2000},{"cover":"FEW","base":2000}],"obsTime":1776060000},"SBME":{"icaoId":"SBME","flightCategory":"VFR","rawOb":"METAR SBME 130600Z 32005KT 9999 SCT030 BKN080 21/20 Q1017","temp":21,"dewp":20,"wdir":320,"wspd":5,"visib":"6+","altim":1017,"clouds":[{"cover":"SCT","base":3000},{"cover":"BKN","base":8000}],"obsTime":1776060000},"SBMG":{"icaoId":"SBMG","flightCategory":"VFR","rawOb":"METAR SBMG 130600Z AUTO 03010KT 9999 -RA NSC 19/18 Q1016","temp":19,"dewp":18,"wdir":30,"wspd":10,"visib":"6+","altim":1016,"clouds":[],"obsTime":1776060000},"SBAR":{"icaoId":"SBAR","flightCategory":"VFR","rawOb":"METAR SBAR 130600Z 13005KT 9999 SCT020 27/24 Q1011","temp":27,"dewp":24,"wdir":130,"wspd":5,"visib":"6+","altim":1011,"clouds":[{"cover":"SCT","base":2000}],"obsTime":1776060000},"SBPS":{"icaoId":"SBPS","flightCategory":"MVFR","rawOb":"METAR SBPS 130600Z 26004KT 9999 SCT020 OVC025 23/22 Q1014","temp":23,"dewp":22,"wdir":260,"wspd":4,"visib":"6+","altim":1014,"clouds":[{"cover":"SCT","base":2000},{"cover":"OVC","base":2500}],"obsTime":1776060000},"SBOI":{"icaoId":"SBOI","flightCategory":"VFR","rawOb":"METAR SBOI 130600Z AUTO 04007KT 9999 // FEW019/// BKN050/// 25/24 Q1010","temp":25,"dewp":24,"wdir":40,"wspd":7,"visib":"6+","altim":1010,"clouds":[{"cover":"FEW","base":1900},{"cover":"BKN","base":5000}],"obsTime":1776060000},"SBPL":{"icaoId":"SBPL","flightCategory":"VFR","rawOb":"METAR SBPL 130600Z 10005KT CAVOK 25/21 Q1013","temp":25,"dewp":21,"wdir":100,"wspd":5,"visib":"6+","altim":1013,"clouds":[],"obsTime":1776060000},"SBKG":{"icaoId":"SBKG","flightCategory":"VFR","rawOb":"METAR SBKG 130600Z 00000KT CAVOK 22/21 Q1013","temp":22,"dewp":21,"wdir":0,"wspd":0,"visib":"6+","altim":1013,"clouds":[],"obsTime":1776060000},"SBSC":{"icaoId":"SBSC","flightCategory":"MVFR","rawOb":"METAR SBSC 130600Z 04005KT 8000 FEW020 SCT030 21/20 Q1017","temp":21,"dewp":20,"wdir":40,"wspd":5,"visib":4.97,"altim":1017,"clouds":[{"cover":"FEW","base":2000},{"cover":"SCT","base":3000}],"obsTime":1776060000},"SBSR":{"icaoId":"SBSR","flightCategory":"VFR","rawOb":"METAR SBSR 130600Z 10003KT CAVOK 23/18 Q1016","temp":23,"dewp":18,"wdir":100,"wspd":3,"visib":"6+","altim":1016,"clouds":[],"obsTime":1776060000},"SBAX":{"icaoId":"SBAX","flightCategory":"VFR","rawOb":"METAR SBAX 130600Z AUTO 14005KT CAVOK 18/18 Q1020","temp":18,"dewp":18,"wdir":140,"wspd":5,"visib":"6+","altim":1020,"clouds":[],"obsTime":1776060000},"SBDN":{"icaoId":"SBDN","flightCategory":"VFR","rawOb":"METAR SBDN 130600Z 21010KT 9999 -RA VCTS FEW006 BKN035 FEW040CB 20/18 Q1017","temp":20,"dewp":18,"wdir":210,"wspd":10,"visib":"6+","altim":1017,"clouds":[{"cover":"FEW","base":600},{"cover":"BKN","base":3500},{"cover":"FEW","base":4000}],"obsTime":1776060000},"SBIP":{"icaoId":"SBIP","flightCategory":"VFR","rawOb":"METAR SBIP 130600Z AUTO VRB01KT CAVOK 22/20 Q1017","temp":22,"dewp":20,"wdir":"VRB","wspd":1,"visib":"6+","altim":1017,"clouds":[],"obsTime":1776060000},"SBJP":{"icaoId":"SBJP","flightCategory":"VFR","rawOb":"METAR SBJP 130600Z 28005KT 9999 BKN040 24/23 Q1011","temp":24,"dewp":23,"wdir":280,"wspd":5,"visib":"6+","altim":1011,"clouds":[{"cover":"BKN","base":4000}],"obsTime":1776060000},"SBAN":{"icaoId":"SBAN","flightCategory":"VFR","rawOb":"METAR SBAN 130600Z 14009KT CAVOK 18/17 Q1019","temp":18,"dewp":17,"wdir":140,"wspd":9,"visib":"6+","altim":1019,"clouds":[],"obsTime":1776060000},"SBNM":{"icaoId":"SBNM","flightCategory":"MVFR","rawOb":"METAR SBNM 130600Z 00000KT 9999 BKN020 OVC100 17/17 Q1016","temp":17,"dewp":17,"wdir":0,"wspd":0,"visib":"6+","altim":1016,"clouds":[{"cover":"BKN","base":2000},{"cover":"OVC","base":10000}],"obsTime":1776060000},"SBLE":{"icaoId":"SBLE","flightCategory":"LIFR","rawOb":"SPECI SBLE 130507Z AUTO 16004KT 120V180 4700 BKN001 OVC038 ///// Q////","temp":null,"dewp":null,"wdir":160,"wspd":4,"visib":2.92,"altim":null,"clouds":[{"cover":"BKN","base":100},{"cover":"OVC","base":3800}],"obsTime":1776056820}}}