{"updated":1774201609,"count":87,"data":{"SBCF":{"icaoId":"SBCF","flightCategory":"VFR","rawOb":"METAR SBCF 221600Z 07003KT 030V110 9999 SCT040 27/18 Q1015","temp":27,"dewp":18,"wdir":70,"wspd":3,"visib":"6+","altim":1015,"clouds":[{"cover":"SCT","base":4000}],"obsTime":1774195200},"SBLO":{"icaoId":"SBLO","flightCategory":"VFR","rawOb":"METAR SBLO 221600Z 01008KT 9999 SCT040 32/22 Q1013","temp":32,"dewp":22,"wdir":10,"wspd":8,"visib":"6+","altim":1013,"clouds":[{"cover":"SCT","base":4000}],"obsTime":1774195200},"SBEG":{"icaoId":"SBEG","flightCategory":"VFR","rawOb":"METAR SBEG 221600Z 03006KT 9999 SCT030 33/23 Q1010","temp":33,"dewp":23,"wdir":30,"wspd":6,"visib":"6+","altim":1010,"clouds":[{"cover":"SCT","base":3000}],"obsTime":1774195200},"SBMA":{"icaoId":"SBMA","flightCategory":"VFR","rawOb":"METAR SBMA 221600Z 13004KT 9999 SCT020 33/25 Q1011","temp":33,"dewp":25,"wdir":130,"wspd":4,"visib":"6+","altim":1011,"clouds":[{"cover":"SCT","base":2000}],"obsTime":1774195200},"SBCG":{"icaoId":"SBCG","flightCategory":"VFR","rawOb":"METAR SBCG 221600Z 34008KT 300V030 9999 BKN035 31/23 Q1014","temp":31,"dewp":23,"wdir":340,"wspd":8,"visib":"6+","altim":1014,"clouds":[{"cover":"BKN","base":3500}],"obsTime":1774195200},"SBME":{"icaoId":"SBME","flightCategory":"VFR","rawOb":"METAR SBME 221600Z 13009KT 9999 SCT025 30/22 Q1011","temp":30,"dewp":22,"wdir":130,"wspd":9,"visib":"6+","altim":1011,"clouds":[{"cover":"SCT","base":2500}],"obsTime":1774195200},"SBFI":{"icaoId":"SBFI","flightCategory":"MVFR","rawOb":"METAR SBFI 221600Z 35006KT 9999 BKN030 33/25 Q1010","temp":33,"dewp":25,"wdir":350,"wspd":6,"visib":"6+","altim":1010,"clouds":[{"cover":"BKN","base":3000}],"obsTime":1774195200},"SBMG":{"icaoId":"SBMG","flightCategory":"VFR","rawOb":"METAR SBMG 221600Z 35012KT 320V030 9999 VCSH SCT043 FEW050TCU 33/22 Q1012","temp":33,"dewp":22,"wdir":350,"wspd":12,"visib":"6+","altim":1012,"clouds":[{"cover":"SCT","base":4300},{"cover":"FEW","base":5000}],"obsTime":1774195200},"SBBV":{"icaoId":"SBBV","flightCategory":"VFR","rawOb":"METAR SBBV 221600Z 08005KT 9999 SCT040 34/20 Q1010","temp":34,"dewp":20,"wdir":80,"wspd":5,"visib":"6+","altim":1010,"clouds":[{"cover":"SCT","base":4000}],"obsTime":1774195200},"SBMK":{"icaoId":"SBMK","flightCategory":"VFR","rawOb":"METAR SBMK 221600Z 13007KT 9999 SCT030 FEW035TCU 30/21 Q1014","temp":30,"dewp":21,"wdir":130,"wspd":7,"visib":"6+","altim":1014,"clouds":[{"cover":"SCT","base":3000},{"cover":"FEW","base":3500}],"obsTime":1774195200},"SBMO":{"icaoId":"SBMO","flightCategory":"VFR","rawOb":"METAR SBMO 221600Z 10011KT 060V140 9999 SCT040 32/22 Q1010","temp":32,"dewp":22,"wdir":100,"wspd":11,"visib":"6+","altim":1010,"clouds":[{"cover":"SCT","base":4000}],"obsTime":1774195200},"SBFL":{"icaoId":"SBFL","flightCategory":"VFR","rawOb":"METAR SBFL 221600Z 13017KT 9999 FEW033 29/23 Q1011","temp":29,"dewp":23,"wdir":130,"wspd":17,"visib":"6+","altim":1011,"clouds":[{"cover":"FEW","base":3300}],"obsTime":1774195200},"SBBE":{"icaoId":"SBBE","flightCategory":"VFR","rawOb":"METAR SBBE 221600Z 08006KT 9999 SCT030 32/23 Q1010","temp":32,"dewp":23,"wdir":80,"wspd":6,"visib":"6+","altim":1010,"clouds":[{"cover":"SCT","base":3000}],"obsTime":1774195200},"SBMQ":{"icaoId":"SBMQ","flightCategory":"VFR","rawOb":"METAR SBMQ 221600Z 06009KT 9999 SCT045 32/23 Q1011","temp":32,"dewp":23,"wdir":60,"wspd":9,"visib":"6+","altim":1011,"clouds":[{"cover":"SCT","base":4500}],"obsTime":1774195200},"SBNT":{"icaoId":"SBNT","flightCategory":"MVFR","rawOb":"METAR SBNT 221600Z 10011KT 9999 BKN030 32/23 Q1010","temp":32,"dewp":23,"wdir":100,"wspd":11,"visib":"6+","altim":1010,"clouds":[{"cover":"BKN","base":3000}],"obsTime":1774195200},"SBFZ":{"icaoId":"SBFZ","flightCategory":"VFR","rawOb":"METAR SBFZ 221600Z 09010KT 9999 SCT025 BKN100 31/24 Q1010","temp":31,"dewp":24,"wdir":90,"wspd":10,"visib":"6+","altim":1010,"clouds":[{"cover":"SCT","base":2500},{"cover":"BKN","base":10000}],"obsTime":1774195200},"SBPA":{"icaoId":"SBPA","flightCategory":"VFR","rawOb":"METAR SBPA 221600Z 14007KT 110V180 9999 SCT015 BKN035 25/21 Q1012","temp":25,"dewp":21,"wdir":140,"wspd":7,"visib":"6+","altim":1012,"clouds":[{"cover":"SCT","base":1500},{"cover":"BKN","base":3500}],"obsTime":1774195200},"SBCP":{"icaoId":"SBCP","flightCategory":"MVFR","rawOb":"METAR SBCP 221600Z 11010KT 9999 BKN025 29/23 Q1011","temp":29,"dewp":23,"wdir":110,"wspd":10,"visib":"6+","altim":1011,"clouds":[{"cover":"BKN","base":2500}],"obsTime":1774195200},"SBGL":{"icaoId":"SBGL","flightCategory":"VFR","rawOb":"METAR SBGL 221600Z 13011KT 9999 FEW033 30/22 Q1011","temp":30,"dewp":22,"wdir":130,"wspd":11,"visib":"6+","altim":1011,"clouds":[{"cover":"FEW","base":3300}],"obsTime":1774195200},"SBPJ":{"icaoId":"SBPJ","flightCategory":"VFR","rawOb":"METAR SBPJ 221600Z 24008KT 9999 SCT035 31/25 Q1012","temp":31,"dewp":25,"wdir":240,"wspd":8,"visib":"6+","altim":1012,"clouds":[{"cover":"SCT","base":3500}],"obsTime":1774195200},"SBPV":{"icaoId":"SBPV","flightCategory":"VFR","rawOb":"METAR SBPV 221600Z 02006KT 9999 SCT035 33/23 Q1009","temp":33,"dewp":23,"wdir":20,"wspd":6,"visib":"6+","altim":1009,"clouds":[{"cover":"SCT","base":3500}],"obsTime":1774195200},"SBAT":{"icaoId":"SBAT","flightCategory":"VFR","rawOb":"METAR SBAT 221600Z 06006KT 9999 FEW025 SCT030 31/22 Q1012","temp":31,"dewp":22,"wdir":60,"wspd":6,"visib":"6+","altim":1012,"clouds":[{"cover":"FEW","base":2500},{"cover":"SCT","base":3000}],"obsTime":1774195200},"SBGO":{"icaoId":"SBGO","flightCategory":"VFR","rawOb":"METAR SBGO 221600Z VRB02KT 9999 SCT045 30/19 Q1016","temp":30,"dewp":19,"wdir":"VRB","wspd":2,"visib":"6+","altim":1016,"clouds":[{"cover":"SCT","base":4500}],"obsTime":1774195200},"SBRB":{"icaoId":"SBRB","flightCategory":"IFR","rawOb":"METAR SBRB 221600Z 34003KT 4000 -RA SCT010 BKN020 BKN070 23/22 Q1013 RETS","temp":23,"dewp":22,"wdir":340,"wspd":3,"visib":2.49,"altim":1013,"clouds":[{"cover":"SCT","base":1000},{"cover":"BKN","base":2000},{"cover":"BKN","base":7000}],"obsTime":1774195200},"SBCR":{"icaoId":"SBCR","flightCategory":"VFR","rawOb":"METAR SBCR 221600Z 03005KT 300V100 9999 SCT016 34/24 Q1010","temp":34,"dewp":24,"wdir":30,"wspd":5,"visib":"6+","altim":1010,"clouds":[{"cover":"SCT","base":1600}],"obsTime":1774195200},"SBRF":{"icaoId":"SBRF","flightCategory":"VFR","rawOb":"METAR SBRF 221600Z 08010KT 9999 SCT020 32/25 Q1010","temp":32,"dewp":25,"wdir":80,"wspd":10,"visib":"6+","altim":1010,"clouds":[{"cover":"SCT","base":2000}],"obsTime":1774195200},"SBGR":{"icaoId":"SBGR","flightCategory":"VFR","rawOb":"METAR SBGR 221600Z 17002KT CAVOK 27/12 Q1016","temp":27,"dewp":12,"wdir":170,"wspd":2,"visib":"6+","altim":1016,"clouds":[],"obsTime":1774195200},"SBSG":{"icaoId":"SBSG","flightCategory":"VFR","rawOb":"METAR SBSG 221600Z 11011KT 080V150 9999 SCT030 FEW035TCU 32/23 Q1011","temp":32,"dewp":23,"wdir":110,"wspd":11,"visib":"6+","altim":1011,"clouds":[{"cover":"SCT","base":3000},{"cover":"FEW","base":3500}],"obsTime":1774195200},"SBCB":{"icaoId":"SBCB","flightCategory":"VFR","rawOb":"METAR SBCB 221600Z 08011KT 9999 FEW020 SCT070 28/22 Q1012","temp":28,"dewp":22,"wdir":80,"wspd":11,"visib":"6+","altim":1012,"clouds":[{"cover":"FEW","base":2000},{"cover":"SCT","base":7000}],"obsTime":1774195200},"SBSL":{"icaoId":"SBSL","flightCategory":"VFR","rawOb":"METAR SBSL 221600Z 05006KT 9999 SCT025 SCT100 30/25 Q1010","temp":30,"dewp":25,"wdir":50,"wspd":6,"visib":"6+","altim":1010,"clouds":[{"cover":"SCT","base":2500},{"cover":"SCT","base":10000}],"obsTime":1774195200},"SBHT":{"icaoId":"SBHT","flightCategory":"MVFR","rawOb":"METAR SBHT 221600Z 10007KT 9999 BKN025 FEW030TCU 32/23 Q1011","temp":32,"dewp":23,"wdir":100,"wspd":7,"visib":"6+","altim":1011,"clouds":[{"cover":"BKN","base":2500},{"cover":"FEW","base":3000}],"obsTime":1774195200},"SBSN":{"icaoId":"SBSN","flightCategory":"VFR","rawOb":"METAR SBSN 221600Z 09011KT 9999 FEW025 31/24 Q1010","temp":31,"dewp":24,"wdir":90,"wspd":11,"visib":"6+","altim":1010,"clouds":[{"cover":"FEW","base":2500}],"obsTime":1774195200},"SBCT":{"icaoId":"SBCT","flightCategory":"VFR","rawOb":"METAR SBCT 221600Z 32005KT 9999 FEW030 BKN100 26/20 Q1017","temp":26,"dewp":20,"wdir":320,"wspd":5,"visib":"6+","altim":1017,"clouds":[{"cover":"FEW","base":3000},{"cover":"BKN","base":10000}],"obsTime":1774195200},"SBSP":{"icaoId":"SBSP","flightCategory":"VFR","rawOb":"METAR SBSP 221600Z VRB03KT CAVOK 28/13 Q1017","temp":28,"dewp":13,"wdir":"VRB","wspd":3,"visib":"6+","altim":1017,"clouds":[],"obsTime":1774195200},"SBIL":{"icaoId":"SBIL","flightCategory":"VFR","rawOb":"METAR SBIL 221600Z 08010KT 9999 FEW023 FEW025TCU 31/26 Q1011","temp":31,"dewp":26,"wdir":80,"wspd":10,"visib":"6+","altim":1011,"clouds":[{"cover":"FEW","base":2300},{"cover":"FEW","base":2500}],"obsTime":1774195200},"SBSV":{"icaoId":"SBSV","flightCategory":"VFR","rawOb":"METAR SBSV 221600Z 10010KT 9999 SCT023 31/24 Q1011","temp":31,"dewp":24,"wdir":100,"wspd":10,"visib":"6+","altim":1011,"clouds":[{"cover":"SCT","base":2300}],"obsTime":1774195200},"SBBR":{"icaoId":"SBBR","flightCategory":"VFR","rawOb":"METAR SBBR 221600Z 04006KT 350V070 9999 -TSRA FEW030 FEW040CB SCT070 26/21 Q1018 RETS","temp":26,"dewp":21,"wdir":40,"wspd":6,"visib":"6+","altim":1018,"clouds":[{"cover":"FEW","base":3000},{"cover":"FEW","base":4000},{"cover":"SCT","base":7000}],"obsTime":1774195200},"SBTE":{"icaoId":"SBTE","flightCategory":"VFR","rawOb":"METAR SBTE 221600Z 13004KT 9999 SCT025 32/24 Q1009","temp":32,"dewp":24,"wdir":130,"wspd":4,"visib":"6+","altim":1009,"clouds":[{"cover":"SCT","base":2500}],"obsTime":1774195200},"SBJU":{"icaoId":"SBJU","flightCategory":"MVFR","rawOb":"METAR SBJU 221600Z 18006KT 9999 BKN022 31/22 Q1013","temp":31,"dewp":22,"wdir":180,"wspd":6,"visib":"6+","altim":1013,"clouds":[{"cover":"BKN","base":2200}],"obsTime":1774195200},"SBUL":{"icaoId":"SBUL","flightCategory":"VFR","rawOb":"METAR SBUL 221600Z 11002KT 9999 SCT033 29/19 Q1017","temp":29,"dewp":19,"wdir":110,"wspd":2,"visib":"6+","altim":1017,"clouds":[{"cover":"SCT","base":3300}],"obsTime":1774195200},"SBCZ":{"icaoId":"SBCZ","flightCategory":"IFR","rawOb":"METAR SBCZ 221600Z 25007KT 5000 -TSRA BKN006 FEW030CB OVC100 22/22 Q1011","temp":22,"dewp":22,"wdir":250,"wspd":7,"visib":3.11,"altim":1011,"clouds":[{"cover":"BKN","base":600},{"cover":"FEW","base":3000},{"cover":"OVC","base":10000}],"obsTime":1774195200},"SBUR":{"icaoId":"SBUR","flightCategory":"VFR","rawOb":"METAR SBUR 221600Z 18008KT CAVOK 31/15 Q1016","temp":31,"dewp":15,"wdir":180,"wspd":8,"visib":"6+","altim":1016,"clouds":[],"obsTime":1774195200},"SBKP":{"icaoId":"SBKP","flightCategory":"VFR","rawOb":"METAR SBKP 221600Z 30005KT 120V230 CAVOK 30/15 Q1015","temp":30,"dewp":15,"wdir":300,"wspd":5,"visib":"6+","altim":1015,"clouds":[],"obsTime":1774195200},"SBVT":{"icaoId":"SBVT","flightCategory":"VFR","rawOb":"METAR SBVT 221600Z 15013KT 9999 FEW040 28/22 Q1011","temp":28,"dewp":22,"wdir":150,"wspd":13,"visib":"6+","altim":1011,"clouds":[{"cover":"FEW","base":4000}],"obsTime":1774195200},"SBCJ":{"icaoId":"SBCJ","flightCategory":"MVFR","rawOb":"METAR SBCJ 221600Z 15006KT 9999 BKN021 27/22 Q1015","temp":27,"dewp":22,"wdir":150,"wspd":6,"visib":"6+","altim":1015,"clouds":[{"cover":"BKN","base":2100}],"obsTime":1774195200},"SBOI":{"icaoId":"SBOI","flightCategory":"VFR","rawOb":"METAR SBOI 221600Z AUTO 13005KT 080V160 9999 FEW028 31/24 Q1011","temp":31,"dewp":24,"wdir":130,"wspd":5,"visib":"6+","altim":1011,"clouds":[{"cover":"FEW","base":2800}],"obsTime":1774195200},"SBPB":{"icaoId":"SBPB","flightCategory":"VFR","rawOb":"METAR SBPB 221600Z 08013KT 9999 SCT020 SCT100 31/24 Q1010","temp":31,"dewp":24,"wdir":80,"wspd":13,"visib":"6+","altim":1010,"clouds":[{"cover":"SCT","base":2000},{"cover":"SCT","base":10000}],"obsTime":1774195200},"SBAR":{"icaoId":"SBAR","flightCategory":"VFR","rawOb":"METAR SBAR 221600Z 10011KT 9999 FEW024 31/24 Q1011","temp":31,"dewp":24,"wdir":100,"wspd":11,"visib":"6+","altim":1011,"clouds":[{"cover":"FEW","base":2400}],"obsTime":1774195200},"SBPL":{"icaoId":"SBPL","flightCategory":"MVFR","rawOb":"METAR SBPL 221600Z 06006KT 9999 BKN030 34/22 Q1012","temp":34,"dewp":22,"wdir":60,"wspd":6,"visib":"6+","altim":1012,"clouds":[{"cover":"BKN","base":3000}],"obsTime":1774195200},"SBPP":{"icaoId":"SBPP","flightCategory":"MVFR","rawOb":"METAR SBPP 221600Z 33008KT 9999 BKN020 30/20 Q1014","temp":30,"dewp":20,"wdir":330,"wspd":8,"visib":"6+","altim":1014,"clouds":[{"cover":"BKN","base":2000}],"obsTime":1774195200},"SBBH":{"icaoId":"SBBH","flightCategory":"VFR","rawOb":"METAR SBBH 221600Z 29003KT 9999 BKN040 29/18 Q1015","temp":29,"dewp":18,"wdir":290,"wspd":3,"visib":"6+","altim":1015,"clouds":[{"cover":"BKN","base":4000}],"obsTime":1774195200},"SBCC":{"icaoId":"SBCC","flightCategory":"MVFR","rawOb":"METAR SBCC 221600Z 07010KT 9999 BKN020 FEW025TCU 30/21 Q1013","temp":30,"dewp":21,"wdir":70,"wspd":10,"visib":"6+","altim":1013,"clouds":[{"cover":"BKN","base":2000},{"cover":"FEW","base":2500}],"obsTime":1774195200},"SBKG":{"icaoId":"SBKG","flightCategory":"VFR","rawOb":"METAR SBKG 221600Z 12007KT 9999 SCT025 31/20 Q1013","temp":31,"dewp":20,"wdir":120,"wspd":7,"visib":"6+","altim":1013,"clouds":[{"cover":"SCT","base":2500}],"obsTime":1774195200},"SBPS":{"icaoId":"SBPS","flightCategory":"MVFR","rawOb":"METAR SBPS 221600Z 06008KT 8000 VCSH SCT017 FEW024TCU BKN060 28/24 Q1011","temp":28,"dewp":24,"wdir":60,"wspd":8,"visib":4.97,"altim":1011,"clouds":[{"cover":"SCT","base":1700},{"cover":"FEW","base":2400},{"cover":"BKN","base":6000}],"obsTime":1774195200},"SBBQ":{"icaoId":"SBBQ","flightCategory":"VFR","rawOb":"METAR SBBQ 221600Z 30008KT 9999 SCT040 27/15 Q1018","temp":27,"dewp":15,"wdir":300,"wspd":8,"visib":"6+","altim":1018,"clouds":[{"cover":"SCT","base":4000}],"obsTime":1774195200},"SBSC":{"icaoId":"SBSC","flightCategory":"VFR","rawOb":"METAR SBSC 221600Z 16007KT 9999 FEW030 31/23 Q1012","temp":31,"dewp":23,"wdir":160,"wspd":7,"visib":"6+","altim":1012,"clouds":[{"cover":"FEW","base":3000}],"obsTime":1774195200},"SBSJ":{"icaoId":"SBSJ","flightCategory":"VFR","rawOb":"METAR SBSJ 221600Z 27003KT 9999 FEW033 29/// Q1014","temp":null,"dewp":null,"wdir":270,"wspd":3,"visib":"6+","altim":1014,"clouds":[{"cover":"FEW","base":3300}],"obsTime":1774195200},"SBCO":{"icaoId":"SBCO","flightCategory":"MVFR","rawOb":"METAR SBCO 221600Z 13006KT 090V170 9999 SCT009 BKN027 25/22 Q1013","temp":25,"dewp":22,"wdir":130,"wspd":6,"visib":"6+","altim":1013,"clouds":[{"cover":"SCT","base":900},{"cover":"BKN","base":2700}],"obsTime":1774195200},"SBAX":{"icaoId":"SBAX","flightCategory":"VFR","rawOb":"METAR SBAX 221600Z AUTO 22006KT 180V260 CAVOK 30/11 Q1017","temp":30,"dewp":11,"wdir":220,"wspd":6,"visib":"6+","altim":1017,"clouds":[],"obsTime":1774195200},"SBSM":{"icaoId":"SBSM","flightCategory":"MVFR","rawOb":"METAR SBSM 221600Z 10005KT 9999 BKN013 OVC017 24/21 Q1012","temp":24,"dewp":21,"wdir":100,"wspd":5,"visib":"6+","altim":1012,"clouds":[{"cover":"BKN","base":1300},{"cover":"OVC","base":1700}],"obsTime":1774195200},"SBDN":{"icaoId":"SBDN","flightCategory":"VFR","rawOb":"METAR SBDN 221600Z 01005KT CAVOK 35/21 Q1013","temp":35,"dewp":21,"wdir":10,"wspd":5,"visib":"6+","altim":1013,"clouds":[],"obsTime":1774195200},"SBSR":{"icaoId":"SBSR","flightCategory":"VFR","rawOb":"METAR SBSR 221600Z VRB04KT CAVOK 32/15 Q1014","temp":32,"dewp":15,"wdir":"VRB","wspd":4,"visib":"6+","altim":1014,"clouds":[],"obsTime":1774195200},"SBBU":{"icaoId":"SBBU","flightCategory":"VFR","rawOb":"METAR SBBU 221600Z 02007KT CAVOK 32/19 Q1015","temp":32,"dewp":19,"wdir":20,"wspd":7,"visib":"6+","altim":1015,"clouds":[],"obsTime":1774195200},"SBTF":{"icaoId":"SBTF","flightCategory":"VFR","rawOb":"METAR SBTF 221600Z 13008KT 9999 FEW020 34/26 Q1009","temp":34,"dewp":26,"wdir":130,"wspd":8,"visib":"6+","altim":1009,"clouds":[{"cover":"FEW","base":2000}],"obsTime":1774195200},"SBES":{"icaoId":"SBES","flightCategory":"VFR","rawOb":"METAR SBES 221600Z 08009KT 040V110 9999 SCT025 29/// Q1012","temp":null,"dewp":null,"wdir":80,"wspd":9,"visib":"6+","altim":1012,"clouds":[{"cover":"SCT","base":2500}],"obsTime":1774195200},"SBTT":{"icaoId":"SBTT","flightCategory":"VFR","rawOb":"METAR SBTT 221600Z 12009KT 9999 FEW015 33/21 Q1009","temp":33,"dewp":21,"wdir":120,"wspd":9,"visib":"6+","altim":1009,"clouds":[{"cover":"FEW","base":1500}],"obsTime":1774195200},"SBAU":{"icaoId":"SBAU","flightCategory":"VFR","rawOb":"METAR SBAU 221600Z 03006KT 9999 SCT040 35/23 Q1013","temp":35,"dewp":23,"wdir":30,"wspd":6,"visib":"6+","altim":1013,"clouds":[{"cover":"SCT","base":4000}],"obsTime":1774195200},"SBUY":{"icaoId":"SBUY","flightCategory":"VFR","rawOb":"METAR SBUY 221600Z 13006KT 9999 SCT025 33/22 Q1008","temp":33,"dewp":22,"wdir":130,"wspd":6,"visib":"6+","altim":1008,"clouds":[{"cover":"SCT","base":2500}],"obsTime":1774195200},"SBGM":{"icaoId":"SBGM","flightCategory":"VFR","rawOb":"METAR SBGM 221600Z 04002KT 9999 FEW030 30/23 Q1011","temp":30,"dewp":23,"wdir":40,"wspd":2,"visib":"6+","altim":1011,"clouds":[{"cover":"FEW","base":3000}],"obsTime":1774195200},"SBVH":{"icaoId":"SBVH","flightCategory":"MVFR","rawOb":"METAR SBVH 221600Z 36005KT 9999 BKN030 FEW035TCU 29/23 Q1014","temp":29,"dewp":23,"wdir":360,"wspd":5,"visib":"6+","altim":1014,"clouds":[{"cover":"BKN","base":3000},{"cover":"FEW","base":3500}],"obsTime":1774195200},"SBCA":{"icaoId":"SBCA","flightCategory":"MVFR","rawOb":"METAR SBCA 221600Z 31011KT 300V360 9999 BKN020 FEW025TCU 29/22 Q1015","temp":29,"dewp":22,"wdir":310,"wspd":11,"visib":"6+","altim":1015,"clouds":[{"cover":"BKN","base":2000},{"cover":"FEW","base":2500}],"obsTime":1774195200},"SBIP":{"icaoId":"SBIP","flightCategory":"VFR","rawOb":"METAR SBIP 221600Z AUTO 34005KT 270V040 9999 SCT037 31/21 Q1012","temp":31,"dewp":21,"wdir":340,"wspd":5,"visib":"6+","altim":1012,"clouds":[{"cover":"SCT","base":3700}],"obsTime":1774195200},"SBTC":{"icaoId":"SBTC","flightCategory":"VFR","rawOb":"METAR SBTC 221600Z 06009KT 9999 FEW020 BKN100 30/25 Q1011","temp":30,"dewp":25,"wdir":60,"wspd":9,"visib":"6+","altim":1011,"clouds":[{"cover":"FEW","base":2000},{"cover":"BKN","base":10000}],"obsTime":1774195200},"SBAF":{"icaoId":"SBAF","flightCategory":"VFR","rawOb":"METAR SBAF 221600Z 17006KT 9999 SCT046 31/24 Q1011","temp":31,"dewp":24,"wdir":170,"wspd":6,"visib":"6+","altim":1011,"clouds":[{"cover":"SCT","base":4600}],"obsTime":1774195200},"SBAN":{"icaoId":"SBAN","flightCategory":"VFR","rawOb":"METAR SBAN 221600Z 26006KT 9999 SCT030 FEW035TCU BKN100 27/19 Q1019","temp":27,"dewp":19,"wdir":260,"wspd":6,"visib":"6+","altim":1019,"clouds":[{"cover":"SCT","base":3000},{"cover":"FEW","base":3500},{"cover":"BKN","base":10000}],"obsTime":1774195200},"SBGW":{"icaoId":"SBGW","flightCategory":"VFR","rawOb":"METAR SBGW 221600Z VRB05KT 9999 FEW025 29/15 Q1014","temp":29,"dewp":15,"wdir":"VRB","wspd":5,"visib":"6+","altim":1014,"clouds":[{"cover":"FEW","base":2500}],"obsTime":1774195200},"SBIH":{"icaoId":"SBIH","flightCategory":"VFR","rawOb":"METAR SBIH 221600Z 05010KT 9999 SCT020 32/25 Q1009","temp":32,"dewp":25,"wdir":50,"wspd":10,"visib":"6+","altim":1009,"clouds":[{"cover":"SCT","base":2000}],"obsTime":1774195200},"SBJP":{"icaoId":"SBJP","flightCategory":"VFR","rawOb":"METAR SBJP 221600Z 07010KT 9999 SCT030 32/24 Q1011","temp":32,"dewp":24,"wdir":70,"wspd":10,"visib":"6+","altim":1011,"clouds":[{"cover":"SCT","base":3000}],"obsTime":1774195200},"SBJR":{"icaoId":"SBJR","flightCategory":"VFR","rawOb":"METAR SBJR 221600Z 17006KT 9999 FEW025 32/22 Q1011","temp":32,"dewp":22,"wdir":170,"wspd":6,"visib":"6+","altim":1011,"clouds":[{"cover":"FEW","base":2500}],"obsTime":1774195200},"SBJV":{"icaoId":"SBJV","flightCategory":"VFR","rawOb":"METAR SBJV 221600Z 09006KT 9999 FEW025 31/25 Q1010","temp":31,"dewp":25,"wdir":90,"wspd":6,"visib":"6+","altim":1010,"clouds":[{"cover":"FEW","base":2500}],"obsTime":1774195200},"SBLE":{"icaoId":"SBLE","flightCategory":"VFR","rawOb":"METAR SBLE 221600Z AUTO VRB04KT 9999 FEW039 30/20 Q1014","temp":30,"dewp":20,"wdir":"VRB","wspd":4,"visib":"6+","altim":1014,"clouds":[{"cover":"FEW","base":3900}],"obsTime":1774195200},"SBLS":{"icaoId":"SBLS","flightCategory":"VFR","rawOb":"METAR SBLS 221600Z 29004KT 9999 SCT030 29/18 Q1015","temp":29,"dewp":18,"wdir":290,"wspd":4,"visib":"6+","altim":1015,"clouds":[{"cover":"SCT","base":3000}],"obsTime":1774195200},"SBMT":{"icaoId":"SBMT","flightCategory":"VFR","rawOb":"METAR SBMT 221600Z VRB02KT CAVOK 27/13 Q1015","temp":27,"dewp":13,"wdir":"VRB","wspd":2,"visib":"6+","altim":1015,"clouds":[],"obsTime":1774195200},"SBPF":{"icaoId":"SBPF","flightCategory":"MVFR","rawOb":"METAR SBPF 221600Z AUTO 25005KT 220V300 9999 BKN027 28/22 Q1015","temp":28,"dewp":22,"wdir":250,"wspd":5,"visib":"6+","altim":1015,"clouds":[{"cover":"BKN","base":2700}],"obsTime":1774195200},"SBST":{"icaoId":"SBST","flightCategory":"VFR","rawOb":"METAR SBST 221600Z 17005KT CAVOK 28/21 Q1011","temp":28,"dewp":21,"wdir":170,"wspd":5,"visib":"6+","altim":1011,"clouds":[],"obsTime":1774195200},"SBTA":{"icaoId":"SBTA","flightCategory":"VFR","rawOb":"METAR SBTA 221600Z 25004KT 180V290 9999 FEW030 29/18 Q1013","temp":29,"dewp":18,"wdir":250,"wspd":4,"visib":"6+","altim":1013,"clouds":[{"cover":"FEW","base":3000}],"obsTime":1774195200},"SBNM":{"icaoId":"SBNM","flightCategory":"MVFR","rawOb":"METAR SBNM 221600Z 24004KT 9999 -RA BKN010 BKN015 FEW040TCU 27/25 Q1012","temp":27,"dewp":25,"wdir":240,"wspd":4,"visib":"6+","altim":1012,"clouds":[{"cover":"BKN","base":1000},{"cover":"BKN","base":1500},{"cover":"FEW","base":4000}],"obsTime":1774195200}}}