{"updated":1777192839,"count":51,"data":{"SBMQ":{"icaoId":"SBMQ","flightCategory":"MVFR","rawOb":"METAR SBMQ 260700Z 28003KT 9999 SCT004 BKN017 25/25 Q1010","temp":25,"dewp":25,"wdir":280,"wspd":3,"visib":"6+","altim":1010,"clouds":[{"cover":"SCT","base":400},{"cover":"BKN","base":1700}],"obsTime":1777186800},"SBFZ":{"icaoId":"SBFZ","flightCategory":"VFR","rawOb":"METAR SBFZ 260700Z 25002KT CAVOK 24/23 Q1010","temp":24,"dewp":23,"wdir":250,"wspd":2,"visib":"6+","altim":1010,"clouds":[],"obsTime":1777186800},"SBBR":{"icaoId":"SBBR","flightCategory":"VFR","rawOb":"METAR SBBR 260700Z VRB02KT 9999 FEW040 18/15 Q1018","temp":18,"dewp":15,"wdir":"VRB","wspd":2,"visib":"6+","altim":1018,"clouds":[{"cover":"FEW","base":4000}],"obsTime":1777186800},"SBMK":{"icaoId":"SBMK","flightCategory":"VFR","rawOb":"METAR SBMK 260800Z 00000KT CAVOK 19/17 Q1016","temp":19,"dewp":17,"wdir":0,"wspd":0,"visib":"6+","altim":1016,"clouds":[],"obsTime":1777190400},"SBMO":{"icaoId":"SBMO","flightCategory":"IFR","rawOb":"METAR SBMO 260700Z 20006KT 4000 -RA BR BKN020 SCT050 23/23 Q1012","temp":23,"dewp":23,"wdir":200,"wspd":6,"visib":2.49,"altim":1012,"clouds":[{"cover":"BKN","base":2000},{"cover":"SCT","base":5000}],"obsTime":1777186800},"SBCT":{"icaoId":"SBCT","flightCategory":"LIFR","rawOb":"METAR SBCT 260700Z 04004KT 0800 R15/2000 R33/2000 FG VV001 17/17 Q1014","temp":17,"dewp":17,"wdir":40,"wspd":4,"visib":0.5,"altim":1014,"clouds":[{"cover":"OVX","base":100}],"obsTime":1777186800},"SBGL":{"icaoId":"SBGL","flightCategory":"VFR","rawOb":"METAR SBGL 260700Z 08003KT CAVOK 22/20 Q1010","temp":22,"dewp":20,"wdir":80,"wspd":3,"visib":"6+","altim":1010,"clouds":[],"obsTime":1777186800},"SBNT":{"icaoId":"SBNT","flightCategory":"MVFR","rawOb":"METAR SBNT 260700Z 14004KT 9999 -RA BKN020 FEW027TCU BKN100 24/24 Q1011","temp":24,"dewp":24,"wdir":140,"wspd":4,"visib":"6+","altim":1011,"clouds":[{"cover":"BKN","base":2000},{"cover":"FEW","base":2700},{"cover":"BKN","base":10000}],"obsTime":1777186800},"SBPA":{"icaoId":"SBPA","flightCategory":"VFR","rawOb":"METAR SBPA 260700Z 17001KT 9000 NSC 19/18 Q1009","temp":19,"dewp":18,"wdir":170,"wspd":1,"visib":5.59,"altim":1009,"clouds":[],"obsTime":1777186800},"SBBV":{"icaoId":"SBBV","flightCategory":"IFR","rawOb":"METAR SBBV 260700Z 00000KT 9999 BKN006 SCT040 FEW045TCU BKN100 24/24 Q1010","temp":24,"dewp":24,"wdir":0,"wspd":0,"visib":"6+","altim":1010,"clouds":[{"cover":"BKN","base":600},{"cover":"SCT","base":4000},{"cover":"FEW","base":4500},{"cover":"BKN","base":10000}],"obsTime":1777186800},"SBGO":{"icaoId":"SBGO","flightCategory":"VFR","rawOb":"METAR SBGO 260700Z 32002KT CAVOK 18/17 Q1016","temp":18,"dewp":17,"wdir":320,"wspd":2,"visib":"6+","altim":1016,"clouds":[],"obsTime":1777186800},"SBPJ":{"icaoId":"SBPJ","flightCategory":"VFR","rawOb":"METAR SBPJ 260700Z 16004KT 9999 SCT016 SCT030 BKN080 25/24 Q1012","temp":25,"dewp":24,"wdir":160,"wspd":4,"visib":"6+","altim":1012,"clouds":[{"cover":"SCT","base":1600},{"cover":"SCT","base":3000},{"cover":"BKN","base":8000}],"obsTime":1777186800},"SBGR":{"icaoId":"SBGR","flightCategory":"VFR","rawOb":"METAR SBGR 260700Z 00000KT CAVOK 17/16 Q1015","temp":17,"dewp":16,"wdir":0,"wspd":0,"visib":"6+","altim":1015,"clouds":[],"obsTime":1777186800},"SBPV":{"icaoId":"SBPV","flightCategory":"LIFR","rawOb":"METAR SBPV 260700Z COR 33002KT 9999 BKN003 25/23 Q1009","temp":25,"dewp":23,"wdir":330,"wspd":2,"visib":"6+","altim":1009,"clouds":[{"cover":"BKN","base":300}],"obsTime":1777186800},"SBRB":{"icaoId":"SBRB","flightCategory":"MVFR","rawOb":"METAR SBRB 260700Z 03001KT 8000 NSC 22/22 Q1011","temp":22,"dewp":22,"wdir":30,"wspd":1,"visib":4.97,"altim":1011,"clouds":[],"obsTime":1777186800},"SBEG":{"icaoId":"SBEG","flightCategory":"VFR","rawOb":"METAR SBEG 260700Z 02002KT 9999 FEW012 SCT100 24/23 Q1011","temp":24,"dewp":23,"wdir":20,"wspd":2,"visib":"6+","altim":1011,"clouds":[{"cover":"FEW","base":1200},{"cover":"SCT","base":10000}],"obsTime":1777186800},"SBRF":{"icaoId":"SBRF","flightCategory":"MVFR","rawOb":"METAR SBRF 260700Z 22007KT 5000 -RA BKN023 24/23 Q1011","temp":24,"dewp":23,"wdir":220,"wspd":7,"visib":3.11,"altim":1011,"clouds":[{"cover":"BKN","base":2300}],"obsTime":1777186800},"SBJU":{"icaoId":"SBJU","flightCategory":"MVFR","rawOb":"METAR SBJU 260700Z 00000KT 9999 BKN020 23/21 Q1013","temp":23,"dewp":21,"wdir":0,"wspd":0,"visib":"6+","altim":1013,"clouds":[{"cover":"BKN","base":2000}],"obsTime":1777186800},"SBBE":{"icaoId":"SBBE","flightCategory":"VFR","rawOb":"METAR SBBE 260700Z 07002KT 9999 FEW017 SCT100 24/24 Q1010","temp":24,"dewp":24,"wdir":70,"wspd":2,"visib":"6+","altim":1010,"clouds":[{"cover":"FEW","base":1700},{"cover":"SCT","base":10000}],"obsTime":1777186800},"SBSG":{"icaoId":"SBSG","flightCategory":"VFR","rawOb":"METAR SBSG 260700Z 17005KT 130V200 9999 SCT021 FEW025TCU BKN060 24/24 Q1011","temp":24,"dewp":24,"wdir":170,"wspd":5,"visib":"6+","altim":1011,"clouds":[{"cover":"SCT","base":2100},{"cover":"FEW","base":2500},{"cover":"BKN","base":6000}],"obsTime":1777186800},"SBFI":{"icaoId":"SBFI","flightCategory":"MVFR","rawOb":"METAR SBFI 260700Z 07001KT 8000 SCT011 BKN030 BKN070 22/22 Q1010","temp":22,"dewp":22,"wdir":70,"wspd":1,"visib":4.97,"altim":1010,"clouds":[{"cover":"SCT","base":1100},{"cover":"BKN","base":3000},{"cover":"BKN","base":7000}],"obsTime":1777186800},"SBSL":{"icaoId":"SBSL","flightCategory":"VFR","rawOb":"METAR SBSL 260700Z 15005KT CAVOK 23/23 Q1009","temp":23,"dewp":23,"wdir":150,"wspd":5,"visib":"6+","altim":1009,"clouds":[],"obsTime":1777186800},"SBKP":{"icaoId":"SBKP","flightCategory":"VFR","rawOb":"METAR SBKP 260700Z 11005KT CAVOK 19/17 Q1014","temp":19,"dewp":17,"wdir":110,"wspd":5,"visib":"6+","altim":1014,"clouds":[],"obsTime":1777186800},"SBSN":{"icaoId":"SBSN","flightCategory":"VFR","rawOb":"METAR SBSN 260700Z 09002KT CAVOK 25/24 Q1009","temp":25,"dewp":24,"wdir":90,"wspd":2,"visib":"6+","altim":1009,"clouds":[],"obsTime":1777186800},"SBCF":{"icaoId":"SBCF","flightCategory":"VFR","rawOb":"METAR SBCF 260700Z 00000KT CAVOK 16/16 Q1017","temp":16,"dewp":16,"wdir":0,"wspd":0,"visib":"6+","altim":1017,"clouds":[],"obsTime":1777186800},"SBSP":{"icaoId":"SBSP","flightCategory":"VFR","rawOb":"METAR SBSP 260700Z AUTO 00000KT CAVOK 20/17 Q1015","temp":20,"dewp":17,"wdir":0,"wspd":0,"visib":"6+","altim":1015,"clouds":[],"obsTime":1777186800},"SBLO":{"icaoId":"SBLO","flightCategory":"VFR","rawOb":"METAR SBLO 260700Z 24002KT CAVOK 21/18 Q1013","temp":21,"dewp":18,"wdir":240,"wspd":2,"visib":"6+","altim":1013,"clouds":[],"obsTime":1777186800},"SBSV":{"icaoId":"SBSV","flightCategory":"VFR","rawOb":"METAR SBSV 260700Z 29001KT 9999 SCT023 24/23 Q1013","temp":24,"dewp":23,"wdir":290,"wspd":1,"visib":"6+","altim":1013,"clouds":[{"cover":"SCT","base":2300}],"obsTime":1777186800},"SBFL":{"icaoId":"SBFL","flightCategory":"VFR","rawOb":"METAR SBFL 260700Z 22002KT 9999 SCT025 22/20 Q1010","temp":22,"dewp":20,"wdir":220,"wspd":2,"visib":"6+","altim":1010,"clouds":[{"cover":"SCT","base":2500}],"obsTime":1777186800},"SBTE":{"icaoId":"SBTE","flightCategory":"MVFR","rawOb":"METAR SBTE 260700Z 23002KT 9999 SCT006 BKN012 OVC090 24/23 Q1010","temp":24,"dewp":23,"wdir":230,"wspd":2,"visib":"6+","altim":1010,"clouds":[{"cover":"SCT","base":600},{"cover":"BKN","base":1200},{"cover":"OVC","base":9000}],"obsTime":1777186800},"SBUL":{"icaoId":"SBUL","flightCategory":"VFR","rawOb":"METAR SBUL 260700Z 10003KT CAVOK 22/15 Q1017","temp":22,"dewp":15,"wdir":100,"wspd":3,"visib":"6+","altim":1017,"clouds":[],"obsTime":1777186800},"SBMA":{"icaoId":"SBMA","flightCategory":"VFR","rawOb":"METAR SBMA 260700Z 00000KT CAVOK 25/24 Q1010","temp":25,"dewp":24,"wdir":0,"wspd":0,"visib":"6+","altim":1010,"clouds":[],"obsTime":1777186800},"SBME":{"icaoId":"SBME","flightCategory":"VFR","rawOb":"METAR SBME 260700Z 03003KT CAVOK 21/19 Q1010","temp":21,"dewp":19,"wdir":30,"wspd":3,"visib":"6+","altim":1010,"clouds":[],"obsTime":1777186800},"SBUR":{"icaoId":"SBUR","flightCategory":"VFR","rawOb":"METAR SBUR 260700Z 03005KT CAVOK 21/14 Q1016","temp":21,"dewp":14,"wdir":30,"wspd":5,"visib":"6+","altim":1016,"clouds":[],"obsTime":1777186800},"SBVT":{"icaoId":"SBVT","flightCategory":"VFR","rawOb":"METAR SBVT 260700Z 30003KT CAVOK 21/21 Q1012","temp":21,"dewp":21,"wdir":300,"wspd":3,"visib":"6+","altim":1012,"clouds":[],"obsTime":1777186800},"SBCG":{"icaoId":"SBCG","flightCategory":"VFR","rawOb":"METAR SBCG 260700Z 02003KT CAVOK 21/18 Q1013","temp":21,"dewp":18,"wdir":20,"wspd":3,"visib":"6+","altim":1013,"clouds":[],"obsTime":1777186800},"SBMG":{"icaoId":"SBMG","flightCategory":"VFR","rawOb":"METAR SBMG 260700Z AUTO 03007KT CAVOK 22/17 Q1012","temp":22,"dewp":17,"wdir":30,"wspd":7,"visib":"6+","altim":1012,"clouds":[],"obsTime":1777186800},"SBSJ":{"icaoId":"SBSJ","flightCategory":"VFR","rawOb":"SPECI SBSJ 260830Z 00000KT CAVOK 17/16 Q1015","temp":17,"dewp":16,"wdir":0,"wspd":0,"visib":"6+","altim":1015,"clouds":[],"obsTime":1777192200},"SBOI":{"icaoId":"SBOI","flightCategory":"LIFR","rawOb":"METAR SBOI 260700Z AUTO 01002KT 0900 // VV003 23/23 Q1011","temp":23,"dewp":23,"wdir":10,"wspd":2,"visib":0.56,"altim":1011,"clouds":[{"cover":"OVX","base":300}],"obsTime":1777186800},"SBPL":{"icaoId":"SBPL","flightCategory":"VFR","rawOb":"METAR SBPL 260700Z 15003KT 9999 SCT020 23/22 Q1014","temp":23,"dewp":22,"wdir":150,"wspd":3,"visib":"6+","altim":1014,"clouds":[{"cover":"SCT","base":2000}],"obsTime":1777186800},"SBPS":{"icaoId":"SBPS","flightCategory":"VFR","rawOb":"METAR SBPS 260700Z 28003KT 9999 SCT020 23/22 Q1013","temp":23,"dewp":22,"wdir":280,"wspd":3,"visib":"6+","altim":1013,"clouds":[{"cover":"SCT","base":2000}],"obsTime":1777186800},"SBSC":{"icaoId":"SBSC","flightCategory":"VFR","rawOb":"METAR SBSC 260700Z 03005KT CAVOK 22/20 Q1010","temp":22,"dewp":20,"wdir":30,"wspd":5,"visib":"6+","altim":1010,"clouds":[],"obsTime":1777186800},"SBSR":{"icaoId":"SBSR","flightCategory":"VFR","rawOb":"METAR SBSR 260700Z 03002KT CAVOK 22/17 Q1014","temp":22,"dewp":17,"wdir":30,"wspd":2,"visib":"6+","altim":1014,"clouds":[],"obsTime":1777186800},"SBAR":{"icaoId":"SBAR","flightCategory":"VFR","rawOb":"METAR SBAR 260700Z 14006KT 9999 FEW025 27/22 Q1012","temp":27,"dewp":22,"wdir":140,"wspd":6,"visib":"6+","altim":1012,"clouds":[{"cover":"FEW","base":2500}],"obsTime":1777186800},"SBKG":{"icaoId":"SBKG","flightCategory":"MVFR","rawOb":"METAR SBKG 260700Z 12003KT 9999 SCT006 BKN010 22/21 Q1014","temp":22,"dewp":21,"wdir":120,"wspd":3,"visib":"6+","altim":1014,"clouds":[{"cover":"SCT","base":600},{"cover":"BKN","base":1000}],"obsTime":1777186800},"SBIP":{"icaoId":"SBIP","flightCategory":"LIFR","rawOb":"METAR SBIP 260700Z AUTO 00000KT 1000 BR BKN001 OVC004 18/18 Q1014","temp":18,"dewp":18,"wdir":0,"wspd":0,"visib":0.62,"altim":1014,"clouds":[{"cover":"BKN","base":100},{"cover":"OVC","base":400}],"obsTime":1777186800},"SBAX":{"icaoId":"SBAX","flightCategory":"VFR","rawOb":"METAR SBAX 260700Z AUTO 20004KT CAVOK 17/14 Q1018","temp":17,"dewp":14,"wdir":200,"wspd":4,"visib":"6+","altim":1018,"clouds":[],"obsTime":1777186800},"SBDN":{"icaoId":"SBDN","flightCategory":"VFR","rawOb":"METAR SBDN 260700Z 03003KT CAVOK 20/17 Q1012","temp":20,"dewp":17,"wdir":30,"wspd":3,"visib":"6+","altim":1012,"clouds":[],"obsTime":1777186800},"SBAN":{"icaoId":"SBAN","flightCategory":"VFR","rawOb":"METAR SBAN 260700Z 16006KT CAVOK 19/14 Q1019","temp":19,"dewp":14,"wdir":160,"wspd":6,"visib":"6+","altim":1019,"clouds":[],"obsTime":1777186800},"SBJP":{"icaoId":"SBJP","flightCategory":"VFR","rawOb":"METAR SBJP 260700Z 17007KT 9999 FEW020 SCT070 24/23 Q1012","temp":24,"dewp":23,"wdir":170,"wspd":7,"visib":"6+","altim":1012,"clouds":[{"cover":"FEW","base":2000},{"cover":"SCT","base":7000}],"obsTime":1777186800},"SBLE":{"icaoId":"SBLE","flightCategory":"VFR","rawOb":"METAR SBLE 260700Z AUTO 36003KT CAVOK ///// Q////","temp":null,"dewp":null,"wdir":360,"wspd":3,"visib":"6+","altim":null,"clouds":[],"obsTime":1777186800}}}