{"updated":1774071226,"count":52,"data":{"SBFL":{"icaoId":"SBFL","flightCategory":"VFR","rawOb":"METAR SBFL 210400Z 22003KT 9999 SCT025 BKN040 24/23 Q1011","temp":24,"dewp":23,"wdir":220,"wspd":3,"visib":"6+","altim":1011,"clouds":[{"cover":"SCT","base":2500},{"cover":"BKN","base":4000}],"obsTime":1774065600},"SBBR":{"icaoId":"SBBR","flightCategory":"VFR","rawOb":"METAR SBBR 210400Z 21003KT 9999 FEW004 BKN090 19/19 Q1016","temp":19,"dewp":19,"wdir":210,"wspd":3,"visib":"6+","altim":1016,"clouds":[{"cover":"FEW","base":400},{"cover":"BKN","base":9000}],"obsTime":1774065600},"SBCG":{"icaoId":"SBCG","flightCategory":"VFR","rawOb":"METAR SBCG 210400Z 01008KT CAVOK 24/22 Q1010","temp":24,"dewp":22,"wdir":10,"wspd":8,"visib":"6+","altim":1010,"clouds":[],"obsTime":1774065600},"SBBV":{"icaoId":"SBBV","flightCategory":"VFR","rawOb":"METAR SBBV 210400Z 11009KT CAVOK 27/22 Q1010","temp":27,"dewp":22,"wdir":110,"wspd":9,"visib":"6+","altim":1010,"clouds":[],"obsTime":1774065600},"SBCF":{"icaoId":"SBCF","flightCategory":"MVFR","rawOb":"METAR SBCF 210400Z 35004KT 9999 SCT018 BKN030 BKN100 21/20 Q1015","temp":21,"dewp":20,"wdir":350,"wspd":4,"visib":"6+","altim":1015,"clouds":[{"cover":"SCT","base":1800},{"cover":"BKN","base":3000},{"cover":"BKN","base":10000}],"obsTime":1774065600},"SBBE":{"icaoId":"SBBE","flightCategory":"VFR","rawOb":"METAR SBBE 210400Z 08007KT 9999 FEW009 SCT013 BKN090 23/23 Q1012","temp":23,"dewp":23,"wdir":80,"wspd":7,"visib":"6+","altim":1012,"clouds":[{"cover":"FEW","base":900},{"cover":"SCT","base":1300},{"cover":"BKN","base":9000}],"obsTime":1774065600},"SBCT":{"icaoId":"SBCT","flightCategory":"IFR","rawOb":"METAR SBCT 210400Z 06006KT 9999 BKN009 19/19 Q1016","temp":19,"dewp":19,"wdir":60,"wspd":6,"visib":"6+","altim":1016,"clouds":[{"cover":"BKN","base":900}],"obsTime":1774065600},"SBEG":{"icaoId":"SBEG","flightCategory":"VFR","rawOb":"METAR SBEG 210400Z 09003KT CAVOK 26/24 Q1009","temp":26,"dewp":24,"wdir":90,"wspd":3,"visib":"6+","altim":1009,"clouds":[],"obsTime":1774065600},"SBFI":{"icaoId":"SBFI","flightCategory":"VFR","rawOb":"METAR SBFI 210400Z 12003KT CAVOK 25/24 Q1007","temp":25,"dewp":24,"wdir":120,"wspd":3,"visib":"6+","altim":1007,"clouds":[],"obsTime":1774065600},"SBGL":{"icaoId":"SBGL","flightCategory":"MVFR","rawOb":"METAR SBGL 210400Z 27001KT 9999 SCT010 BKN025 24/23 Q1011","temp":24,"dewp":23,"wdir":270,"wspd":1,"visib":"6+","altim":1011,"clouds":[{"cover":"SCT","base":1000},{"cover":"BKN","base":2500}],"obsTime":1774065600},"SBGO":{"icaoId":"SBGO","flightCategory":"VFR","rawOb":"METAR SBGO 210400Z 00000KT 9999 FEW020 BKN100 21/20 Q1015","temp":21,"dewp":20,"wdir":0,"wspd":0,"visib":"6+","altim":1015,"clouds":[{"cover":"FEW","base":2000},{"cover":"BKN","base":10000}],"obsTime":1774065600},"SBGR":{"icaoId":"SBGR","flightCategory":"VFR","rawOb":"METAR SBGR 210400Z 13003KT 9999 SCT013 18/18 Q1015","temp":18,"dewp":18,"wdir":130,"wspd":3,"visib":"6+","altim":1015,"clouds":[{"cover":"SCT","base":1300}],"obsTime":1774065600},"SBJU":{"icaoId":"SBJU","flightCategory":"VFR","rawOb":"METAR SBJU 210400Z 00000KT 9999 SCT020 24/23 Q1012","temp":24,"dewp":23,"wdir":0,"wspd":0,"visib":"6+","altim":1012,"clouds":[{"cover":"SCT","base":2000}],"obsTime":1774065600},"SBKP":{"icaoId":"SBKP","flightCategory":"VFR","rawOb":"METAR SBKP 210400Z 12008KT CAVOK 20/18 Q1013","temp":20,"dewp":18,"wdir":120,"wspd":8,"visib":"6+","altim":1013,"clouds":[],"obsTime":1774065600},"SBLO":{"icaoId":"SBLO","flightCategory":"VFR","rawOb":"METAR SBLO 210400Z 10005KT 9999 SCT040 SCT090 24/21 Q1012","temp":24,"dewp":21,"wdir":100,"wspd":5,"visib":"6+","altim":1012,"clouds":[{"cover":"SCT","base":4000},{"cover":"SCT","base":9000}],"obsTime":1774065600},"SBMA":{"icaoId":"SBMA","flightCategory":"VFR","rawOb":"METAR SBMA 210400Z 21007KT 9999 FEW010 FEW020TCU BKN100 25/23 Q1011","temp":25,"dewp":23,"wdir":210,"wspd":7,"visib":"6+","altim":1011,"clouds":[{"cover":"FEW","base":1000},{"cover":"FEW","base":2000},{"cover":"BKN","base":10000}],"obsTime":1774065600},"SBME":{"icaoId":"SBME","flightCategory":"MVFR","rawOb":"METAR SBME 210400Z 23002KT 9999 BKN020 OVC070 23/22 Q1010 RERA","temp":23,"dewp":22,"wdir":230,"wspd":2,"visib":"6+","altim":1010,"clouds":[{"cover":"BKN","base":2000},{"cover":"OVC","base":7000}],"obsTime":1774065600},"SBMG":{"icaoId":"SBMG","flightCategory":"VFR","rawOb":"METAR SBMG 210400Z AUTO 02009KT CAVOK 25/22 Q1010","temp":25,"dewp":22,"wdir":20,"wspd":9,"visib":"6+","altim":1010,"clouds":[],"obsTime":1774065600},"SBMO":{"icaoId":"SBMO","flightCategory":"VFR","rawOb":"METAR SBMO 210400Z 01002KT 9999 FEW020 24/23 Q1011","temp":24,"dewp":23,"wdir":10,"wspd":2,"visib":"6+","altim":1011,"clouds":[{"cover":"FEW","base":2000}],"obsTime":1774065600},"SBMQ":{"icaoId":"SBMQ","flightCategory":"VFR","rawOb":"METAR SBMQ 210400Z 36004KT 9999 SCT005 24/23 Q1011","temp":24,"dewp":23,"wdir":360,"wspd":4,"visib":"6+","altim":1011,"clouds":[{"cover":"SCT","base":500}],"obsTime":1774065600},"SBNT":{"icaoId":"SBNT","flightCategory":"VFR","rawOb":"METAR SBNT 210400Z 14005KT 9999 SCT020 27/24 Q1009","temp":27,"dewp":24,"wdir":140,"wspd":5,"visib":"6+","altim":1009,"clouds":[{"cover":"SCT","base":2000}],"obsTime":1774065600},"SBPA":{"icaoId":"SBPA","flightCategory":"VFR","rawOb":"METAR SBPA 210400Z 11010KT CAVOK 23/21 Q1008","temp":23,"dewp":21,"wdir":110,"wspd":10,"visib":"6+","altim":1008,"clouds":[],"obsTime":1774065600},"SBPJ":{"icaoId":"SBPJ","flightCategory":"MVFR","rawOb":"METAR SBPJ 210400Z 05004KT 7000 -TSRA FEW012 SCT027 FEW030CB OVC090 23/22 Q1012","temp":23,"dewp":22,"wdir":50,"wspd":4,"visib":4.35,"altim":1012,"clouds":[{"cover":"FEW","base":1200},{"cover":"SCT","base":2700},{"cover":"FEW","base":3000},{"cover":"OVC","base":9000}],"obsTime":1774065600},"SBPV":{"icaoId":"SBPV","flightCategory":"VFR","rawOb":"METAR SBPV 210400Z 02003KT CAVOK 26/23 Q1007","temp":26,"dewp":23,"wdir":20,"wspd":3,"visib":"6+","altim":1007,"clouds":[],"obsTime":1774065600},"SBRB":{"icaoId":"SBRB","flightCategory":"VFR","rawOb":"METAR SBRB 210400Z 36004KT 9999 VCTS FEW020 FEW035CB BKN100 25/24 Q1008","temp":25,"dewp":24,"wdir":360,"wspd":4,"visib":"6+","altim":1008,"clouds":[{"cover":"FEW","base":2000},{"cover":"FEW","base":3500},{"cover":"BKN","base":10000}],"obsTime":1774065600},"SBRF":{"icaoId":"SBRF","flightCategory":"VFR","rawOb":"METAR SBRF 210400Z 09006KT 060V120 9999 SCT022 28/23 Q1010","temp":28,"dewp":23,"wdir":90,"wspd":6,"visib":"6+","altim":1010,"clouds":[{"cover":"SCT","base":2200}],"obsTime":1774065600},"SBSG":{"icaoId":"SBSG","flightCategory":"VFR","rawOb":"METAR SBSG 210400Z 17003KT 9999 SCT025 25/24 Q1010","temp":25,"dewp":24,"wdir":170,"wspd":3,"visib":"6+","altim":1010,"clouds":[{"cover":"SCT","base":2500}],"obsTime":1774065600},"SBSL":{"icaoId":"SBSL","flightCategory":"VFR","rawOb":"METAR SBSL 210400Z 31004KT 9999 FEW020 BKN080 27/26 Q1010","temp":27,"dewp":26,"wdir":310,"wspd":4,"visib":"6+","altim":1010,"clouds":[{"cover":"FEW","base":2000},{"cover":"BKN","base":8000}],"obsTime":1774065600},"SBSN":{"icaoId":"SBSN","flightCategory":"MVFR","rawOb":"METAR SBSN 210400Z 07006KT 9999 FEW013 BKN025 BKN100 26/24 Q1010","temp":26,"dewp":24,"wdir":70,"wspd":6,"visib":"6+","altim":1010,"clouds":[{"cover":"FEW","base":1300},{"cover":"BKN","base":2500},{"cover":"BKN","base":10000}],"obsTime":1774065600},"SBSP":{"icaoId":"SBSP","flightCategory":"MVFR","rawOb":"SPECI SBSP 210336Z AUTO 12003KT 090V150 9999 BKN011 20/18 Q1016","temp":20,"dewp":18,"wdir":120,"wspd":3,"visib":"6+","altim":1016,"clouds":[{"cover":"BKN","base":1100}],"obsTime":1774064160},"SBSV":{"icaoId":"SBSV","flightCategory":"VFR","rawOb":"METAR SBSV 210400Z 06008KT 9999 FEW018 27/23 Q1010","temp":27,"dewp":23,"wdir":60,"wspd":8,"visib":"6+","altim":1010,"clouds":[{"cover":"FEW","base":1800}],"obsTime":1774065600},"SBTE":{"icaoId":"SBTE","flightCategory":"VFR","rawOb":"METAR SBTE 210400Z 33003KT 9999 FEW020 27/24 Q1009","temp":27,"dewp":24,"wdir":330,"wspd":3,"visib":"6+","altim":1009,"clouds":[{"cover":"FEW","base":2000}],"obsTime":1774065600},"SBUL":{"icaoId":"SBUL","flightCategory":"VFR","rawOb":"METAR SBUL 210400Z 01003KT 9999 SCT002 SCT021 BKN100 21/20 Q1015","temp":21,"dewp":20,"wdir":10,"wspd":3,"visib":"6+","altim":1015,"clouds":[{"cover":"SCT","base":200},{"cover":"SCT","base":2100},{"cover":"BKN","base":10000}],"obsTime":1774065600},"SBUR":{"icaoId":"SBUR","flightCategory":"VFR","rawOb":"METAR SBUR 210400Z 32007KT 9999 FEW035 22/21 Q1014","temp":22,"dewp":21,"wdir":320,"wspd":7,"visib":"6+","altim":1014,"clouds":[{"cover":"FEW","base":3500}],"obsTime":1774065600},"SBVT":{"icaoId":"SBVT","flightCategory":"VFR","rawOb":"METAR SBVT 210400Z 29004KT 9999 SCT030 BKN100 23/23 Q1009","temp":23,"dewp":23,"wdir":290,"wspd":4,"visib":"6+","altim":1009,"clouds":[{"cover":"SCT","base":3000},{"cover":"BKN","base":10000}],"obsTime":1774065600},"SBMK":{"icaoId":"SBMK","flightCategory":"VFR","rawOb":"METAR SBMK 210400Z 16003KT 9999 VCTS BKN035 FEW040CB SCT080 23/19 Q1014","temp":23,"dewp":19,"wdir":160,"wspd":3,"visib":"6+","altim":1014,"clouds":[{"cover":"BKN","base":3500},{"cover":"FEW","base":4000},{"cover":"SCT","base":8000}],"obsTime":1774065600},"SBFZ":{"icaoId":"SBFZ","flightCategory":"VFR","rawOb":"METAR SBFZ 210400Z 08004KT 050V110 9999 SCT020 BKN100 28/24 Q1009","temp":28,"dewp":24,"wdir":80,"wspd":4,"visib":"6+","altim":1009,"clouds":[{"cover":"SCT","base":2000},{"cover":"BKN","base":10000}],"obsTime":1774065600},"SBOI":{"icaoId":"SBOI","flightCategory":"LIFR","rawOb":"METAR SBOI 210400Z AUTO VRB01KT 3900 // OVC004/// 24/23 Q1011","temp":24,"dewp":23,"wdir":"VRB","wspd":1,"visib":2.42,"altim":1011,"clouds":[{"cover":"OVC","base":400}],"obsTime":1774065600},"SBAX":{"icaoId":"SBAX","flightCategory":"LIFR","rawOb":"METAR SBAX 210400Z AUTO 29003KT 260V330 9999 BKN002 OVC006 ///// Q1016","temp":null,"dewp":null,"wdir":290,"wspd":3,"visib":"6+","altim":1016,"clouds":[{"cover":"BKN","base":200},{"cover":"OVC","base":600}],"obsTime":1774065600},"SBDN":{"icaoId":"SBDN","flightCategory":"VFR","rawOb":"METAR SBDN 210400Z 04004KT CAVOK 26/22 Q1011","temp":26,"dewp":22,"wdir":40,"wspd":4,"visib":"6+","altim":1011,"clouds":[],"obsTime":1774065600},"SBIP":{"icaoId":"SBIP","flightCategory":"MVFR","rawOb":"METAR SBIP 210400Z AUTO VRB01KT 9999 -RA OVC018 23/23 Q1011","temp":23,"dewp":23,"wdir":"VRB","wspd":1,"visib":"6+","altim":1011,"clouds":[{"cover":"OVC","base":1800}],"obsTime":1774065600},"SBSR":{"icaoId":"SBSR","flightCategory":"VFR","rawOb":"METAR SBSR 210400Z 36002KT CAVOK 23/21 Q1012","temp":23,"dewp":21,"wdir":360,"wspd":2,"visib":"6+","altim":1012,"clouds":[],"obsTime":1774065600},"SBAR":{"icaoId":"SBAR","flightCategory":"VFR","rawOb":"METAR SBAR 210400Z 06007KT 030V090 9999 FEW020 28/23 Q1010","temp":28,"dewp":23,"wdir":60,"wspd":7,"visib":"6+","altim":1010,"clouds":[{"cover":"FEW","base":2000}],"obsTime":1774065600},"SBKG":{"icaoId":"SBKG","flightCategory":"IFR","rawOb":"METAR SBKG 210400Z 09006KT 9999 SCT006 BKN009 23/22 Q1013","temp":23,"dewp":22,"wdir":90,"wspd":6,"visib":"6+","altim":1013,"clouds":[{"cover":"SCT","base":600},{"cover":"BKN","base":900}],"obsTime":1774065600},"SBPL":{"icaoId":"SBPL","flightCategory":"VFR","rawOb":"METAR SBPL 210400Z 07001KT 9999 FEW020 24/22 Q1011","temp":24,"dewp":22,"wdir":70,"wspd":1,"visib":"6+","altim":1011,"clouds":[{"cover":"FEW","base":2000}],"obsTime":1774065600},"SBPS":{"icaoId":"SBPS","flightCategory":"VFR","rawOb":"METAR SBPS 210400Z 01005KT 9999 FEW021 25/24 Q1010","temp":25,"dewp":24,"wdir":10,"wspd":5,"visib":"6+","altim":1010,"clouds":[{"cover":"FEW","base":2100}],"obsTime":1774065600},"SBSC":{"icaoId":"SBSC","flightCategory":"MVFR","rawOb":"METAR SBSC 210400Z 32001KT 5000 BR SCT015 SCT050 22/22 Q1011","temp":22,"dewp":22,"wdir":320,"wspd":1,"visib":3.11,"altim":1011,"clouds":[{"cover":"SCT","base":1500},{"cover":"SCT","base":5000}],"obsTime":1774065600},"SBSJ":{"icaoId":"SBSJ","flightCategory":"VFR","rawOb":"METAR SBSJ 210400Z 15002KT CAVOK 20/// Q1014","temp":null,"dewp":null,"wdir":150,"wspd":2,"visib":"6+","altim":1014,"clouds":[],"obsTime":1774065600},"SBJP":{"icaoId":"SBJP","flightCategory":"VFR","rawOb":"METAR SBJP 210400Z 08004KT 9999 FEW020 27/24 Q1010","temp":27,"dewp":24,"wdir":80,"wspd":4,"visib":"6+","altim":1010,"clouds":[{"cover":"FEW","base":2000}],"obsTime":1774065600},"SBAN":{"icaoId":"SBAN","flightCategory":"LIFR","rawOb":"METAR SBAN 210400Z 10002KT 9999 BKN002 19/18 Q1018","temp":19,"dewp":18,"wdir":100,"wspd":2,"visib":"6+","altim":1018,"clouds":[{"cover":"BKN","base":200}],"obsTime":1774065600},"SBLE":{"icaoId":"SBLE","flightCategory":"VFR","rawOb":"METAR SBLE 210400Z AUTO 02005KT CAVOK ///// Q////","temp":null,"dewp":null,"wdir":20,"wspd":5,"visib":"6+","altim":null,"clouds":[],"obsTime":1774065600},"SBPF":{"icaoId":"SBPF","flightCategory":"VFR","rawOb":"METAR SBPF 210400Z AUTO 06005KT 9999 NSC 21/18 Q1012","temp":21,"dewp":18,"wdir":60,"wspd":5,"visib":"6+","altim":1012,"clouds":[],"obsTime":1774065600}}}