{"updated":1774374299,"count":86,"data":{"SBBR":{"icaoId":"SBBR","flightCategory":"VFR","rawOb":"METAR SBBR 241600Z 35005KT 300V080 9999 FEW040 SCT100 27/17 Q1017","temp":27,"dewp":17,"wdir":350,"wspd":5,"visib":"6+","altim":1017,"clouds":[{"cover":"FEW","base":4000},{"cover":"SCT","base":10000}],"obsTime":1774368000},"SBBE":{"icaoId":"SBBE","flightCategory":"MVFR","rawOb":"METAR SBBE 241600Z 02008KT 9999 BKN025 FEW030TCU BKN100 31/23 Q1011","temp":31,"dewp":23,"wdir":20,"wspd":8,"visib":"6+","altim":1011,"clouds":[{"cover":"BKN","base":2500},{"cover":"FEW","base":3000},{"cover":"BKN","base":10000}],"obsTime":1774368000},"SBVT":{"icaoId":"SBVT","flightCategory":"VFR","rawOb":"METAR SBVT 241600Z 07010KT 030V100 9999 SCT025 29/24 Q1013","temp":29,"dewp":24,"wdir":70,"wspd":10,"visib":"6+","altim":1013,"clouds":[{"cover":"SCT","base":2500}],"obsTime":1774368000},"SBAT":{"icaoId":"SBAT","flightCategory":"MVFR","rawOb":"METAR SBAT 241600Z 04012KT 9999 VCSH BKN023 FEW035TCU SCT100 29/23 Q1012","temp":29,"dewp":23,"wdir":40,"wspd":12,"visib":"6+","altim":1012,"clouds":[{"cover":"BKN","base":2300},{"cover":"FEW","base":3500},{"cover":"SCT","base":10000}],"obsTime":1774368000},"SBBV":{"icaoId":"SBBV","flightCategory":"VFR","rawOb":"METAR SBBV 241600Z 10010KT 9999 SCT035 SCT070 34/21 Q1010","temp":34,"dewp":21,"wdir":100,"wspd":10,"visib":"6+","altim":1010,"clouds":[{"cover":"SCT","base":3500},{"cover":"SCT","base":7000}],"obsTime":1774368000},"SBCB":{"icaoId":"SBCB","flightCategory":"VFR","rawOb":"METAR SBCB 241600Z 06018KT CAVOK 30/22 Q1011","temp":30,"dewp":22,"wdir":60,"wspd":18,"visib":"6+","altim":1011,"clouds":[],"obsTime":1774368000},"SBCF":{"icaoId":"SBCF","flightCategory":"VFR","rawOb":"METAR SBCF 241600Z 02003KT 9999 SCT037 FEW040TCU 26/17 Q1016","temp":26,"dewp":17,"wdir":20,"wspd":3,"visib":"6+","altim":1016,"clouds":[{"cover":"SCT","base":3700},{"cover":"FEW","base":4000}],"obsTime":1774368000},"SBCG":{"icaoId":"SBCG","flightCategory":"VFR","rawOb":"METAR SBCG 241600Z 02006KT 9999 VCSH BKN035 FEW040TCU BKN070 29/22 Q1012","temp":29,"dewp":22,"wdir":20,"wspd":6,"visib":"6+","altim":1012,"clouds":[{"cover":"BKN","base":3500},{"cover":"FEW","base":4000},{"cover":"BKN","base":7000}],"obsTime":1774368000},"SBCP":{"icaoId":"SBCP","flightCategory":"MVFR","rawOb":"METAR SBCP 241600Z 08011KT 9999 BKN015 31/25 Q1012","temp":31,"dewp":25,"wdir":80,"wspd":11,"visib":"6+","altim":1012,"clouds":[{"cover":"BKN","base":1500}],"obsTime":1774368000},"SBCR":{"icaoId":"SBCR","flightCategory":"VFR","rawOb":"METAR SBCR 241600Z 21007KT 140V250 9999 SCT023 FEW026TCU 30/25 Q1010","temp":30,"dewp":25,"wdir":210,"wspd":7,"visib":"6+","altim":1010,"clouds":[{"cover":"SCT","base":2300},{"cover":"FEW","base":2600}],"obsTime":1774368000},"SBCT":{"icaoId":"SBCT","flightCategory":"MVFR","rawOb":"METAR SBCT 241600Z 11004KT 060V160 9999 BKN022 BKN100 26/22 Q1016","temp":26,"dewp":22,"wdir":110,"wspd":4,"visib":"6+","altim":1016,"clouds":[{"cover":"BKN","base":2200},{"cover":"BKN","base":10000}],"obsTime":1774368000},"SBCZ":{"icaoId":"SBCZ","flightCategory":"VFR","rawOb":"METAR SBCZ 241600Z 03004KT 9999 FEW020 SCT100 30/24 Q1011","temp":30,"dewp":24,"wdir":30,"wspd":4,"visib":"6+","altim":1011,"clouds":[{"cover":"FEW","base":2000},{"cover":"SCT","base":10000}],"obsTime":1774368000},"SBEG":{"icaoId":"SBEG","flightCategory":"VFR","rawOb":"METAR SBEG 241600Z 04007KT 010V080 9999 SCT030 33/25 Q1010","temp":33,"dewp":25,"wdir":40,"wspd":7,"visib":"6+","altim":1010,"clouds":[{"cover":"SCT","base":3000}],"obsTime":1774368000},"SBFI":{"icaoId":"SBFI","flightCategory":"MVFR","rawOb":"METAR SBFI 241600Z 19005KT 9999 BKN020 29/24 Q1011","temp":29,"dewp":24,"wdir":190,"wspd":5,"visib":"6+","altim":1011,"clouds":[{"cover":"BKN","base":2000}],"obsTime":1774368000},"SBFL":{"icaoId":"SBFL","flightCategory":"VFR","rawOb":"METAR SBFL 241600Z 36012KT 9999 FEW033 31/22 Q1010","temp":31,"dewp":22,"wdir":360,"wspd":12,"visib":"6+","altim":1010,"clouds":[{"cover":"FEW","base":3300}],"obsTime":1774368000},"SBFZ":{"icaoId":"SBFZ","flightCategory":"MVFR","rawOb":"METAR SBFZ 241600Z 11015KT 9999 BKN025 30/24 Q1010","temp":30,"dewp":24,"wdir":110,"wspd":15,"visib":"6+","altim":1010,"clouds":[{"cover":"BKN","base":2500}],"obsTime":1774368000},"SBGL":{"icaoId":"SBGL","flightCategory":"VFR","rawOb":"METAR SBGL 241600Z 05005KT 010V080 9999 FEW020 31/21 Q1010","temp":31,"dewp":21,"wdir":50,"wspd":5,"visib":"6+","altim":1010,"clouds":[{"cover":"FEW","base":2000}],"obsTime":1774368000},"SBGO":{"icaoId":"SBGO","flightCategory":"VFR","rawOb":"METAR SBGO 241600Z 31011KT 9999 SCT035 FEW053TCU BKN100 27/21 Q1015","temp":27,"dewp":21,"wdir":310,"wspd":11,"visib":"6+","altim":1015,"clouds":[{"cover":"SCT","base":3500},{"cover":"FEW","base":5300},{"cover":"BKN","base":10000}],"obsTime":1774368000},"SBGR":{"icaoId":"SBGR","flightCategory":"VFR","rawOb":"METAR SBGR 241600Z 08007KT 9999 SCT040 28/18 Q1014","temp":28,"dewp":18,"wdir":80,"wspd":7,"visib":"6+","altim":1014,"clouds":[{"cover":"SCT","base":4000}],"obsTime":1774368000},"SBHT":{"icaoId":"SBHT","flightCategory":"MVFR","rawOb":"METAR SBHT 241600Z 13004KT 9999 BKN025 SCT090 30/24 Q1012","temp":30,"dewp":24,"wdir":130,"wspd":4,"visib":"6+","altim":1012,"clouds":[{"cover":"BKN","base":2500},{"cover":"SCT","base":9000}],"obsTime":1774368000},"SBIL":{"icaoId":"SBIL","flightCategory":"VFR","rawOb":"METAR SBIL 241600Z 10005KT 9999 VCSH SCT018 FEW023TCU BKN070 29/24 Q1013","temp":29,"dewp":24,"wdir":100,"wspd":5,"visib":"6+","altim":1013,"clouds":[{"cover":"SCT","base":1800},{"cover":"FEW","base":2300},{"cover":"BKN","base":7000}],"obsTime":1774368000},"SBJU":{"icaoId":"SBJU","flightCategory":"MVFR","rawOb":"METAR SBJU 241600Z 15005KT 9999 BKN020 28/23 Q1013","temp":28,"dewp":23,"wdir":150,"wspd":5,"visib":"6+","altim":1013,"clouds":[{"cover":"BKN","base":2000}],"obsTime":1774368000},"SBKP":{"icaoId":"SBKP","flightCategory":"VFR","rawOb":"METAR SBKP 241600Z VRB05KT 9999 FEW045 29/15 Q1013","temp":29,"dewp":15,"wdir":"VRB","wspd":5,"visib":"6+","altim":1013,"clouds":[{"cover":"FEW","base":4500}],"obsTime":1774368000},"SBLO":{"icaoId":"SBLO","flightCategory":"VFR","rawOb":"METAR SBLO 241600Z 09004KT 9999 VCTS SCT020 FEW030CB 30/22 Q1012","temp":30,"dewp":22,"wdir":90,"wspd":4,"visib":"6+","altim":1012,"clouds":[{"cover":"SCT","base":2000},{"cover":"FEW","base":3000}],"obsTime":1774368000},"SBMA":{"icaoId":"SBMA","flightCategory":"MVFR","rawOb":"METAR SBMA 241600Z 21004KT 9999 SCT015 BKN020 BKN100 30/25 Q1011","temp":30,"dewp":25,"wdir":210,"wspd":4,"visib":"6+","altim":1011,"clouds":[{"cover":"SCT","base":1500},{"cover":"BKN","base":2000},{"cover":"BKN","base":10000}],"obsTime":1774368000},"SBME":{"icaoId":"SBME","flightCategory":"VFR","rawOb":"METAR SBME 241600Z 06013KT 9999 FEW030 33/22 Q1011","temp":33,"dewp":22,"wdir":60,"wspd":13,"visib":"6+","altim":1011,"clouds":[{"cover":"FEW","base":3000}],"obsTime":1774368000},"SBMG":{"icaoId":"SBMG","flightCategory":"VFR","rawOb":"METAR SBMG 241600Z 34009KT 9999 3500N -TSRA BKN035 FEW040CB 25/23 Q1011","temp":25,"dewp":23,"wdir":340,"wspd":9,"visib":"6+","altim":1011,"clouds":[{"cover":"BKN","base":3500},{"cover":"FEW","base":4000}],"obsTime":1774368000},"SBMK":{"icaoId":"SBMK","flightCategory":"VFR","rawOb":"METAR SBMK 241600Z 36006KT 9999 SCT025 SCT090 26/19 Q1016","temp":26,"dewp":19,"wdir":360,"wspd":6,"visib":"6+","altim":1016,"clouds":[{"cover":"SCT","base":2500},{"cover":"SCT","base":9000}],"obsTime":1774368000},"SBMO":{"icaoId":"SBMO","flightCategory":"VFR","rawOb":"METAR SBMO 241600Z 10014KT 9999 SCT030 32/21 Q1011","temp":32,"dewp":21,"wdir":100,"wspd":14,"visib":"6+","altim":1011,"clouds":[{"cover":"SCT","base":3000}],"obsTime":1774368000},"SBMQ":{"icaoId":"SBMQ","flightCategory":"VFR","rawOb":"METAR SBMQ 241600Z 06016KT 9999 SCT012 SCT020 29/25 Q1012","temp":29,"dewp":25,"wdir":60,"wspd":16,"visib":"6+","altim":1012,"clouds":[{"cover":"SCT","base":1200},{"cover":"SCT","base":2000}],"obsTime":1774368000},"SBNT":{"icaoId":"SBNT","flightCategory":"VFR","rawOb":"METAR SBNT 241600Z 11014KT 9999 SCT028 31/22 Q1011","temp":31,"dewp":22,"wdir":110,"wspd":14,"visib":"6+","altim":1011,"clouds":[{"cover":"SCT","base":2800}],"obsTime":1774368000},"SBPA":{"icaoId":"SBPA","flightCategory":"MVFR","rawOb":"METAR SBPA 241600Z 17006KT 140V210 9000 BKN014 23/19 Q1013","temp":23,"dewp":19,"wdir":170,"wspd":6,"visib":5.59,"altim":1013,"clouds":[{"cover":"BKN","base":1400}],"obsTime":1774368000},"SBPJ":{"icaoId":"SBPJ","flightCategory":"VFR","rawOb":"METAR SBPJ 241600Z 30003KT 250V350 9999 TS VCSH SCT025 FEW030CB 30/24 Q1012","temp":30,"dewp":24,"wdir":300,"wspd":3,"visib":"6+","altim":1012,"clouds":[{"cover":"SCT","base":2500},{"cover":"FEW","base":3000}],"obsTime":1774368000},"SBPV":{"icaoId":"SBPV","flightCategory":"VFR","rawOb":"METAR SBPV 241600Z 08004KT CAVOK 30/23 Q1010","temp":30,"dewp":23,"wdir":80,"wspd":4,"visib":"6+","altim":1010,"clouds":[],"obsTime":1774368000},"SBRB":{"icaoId":"SBRB","flightCategory":"MVFR","rawOb":"METAR SBRB 241600Z 35004KT 9999 BKN030 32/25 Q1011","temp":32,"dewp":25,"wdir":350,"wspd":4,"visib":"6+","altim":1011,"clouds":[{"cover":"BKN","base":3000}],"obsTime":1774368000},"SBRF":{"icaoId":"SBRF","flightCategory":"VFR","rawOb":"METAR SBRF 241600Z 11010KT 9999 SCT025 31/24 Q1011","temp":31,"dewp":24,"wdir":110,"wspd":10,"visib":"6+","altim":1011,"clouds":[{"cover":"SCT","base":2500}],"obsTime":1774368000},"SBSG":{"icaoId":"SBSG","flightCategory":"MVFR","rawOb":"METAR SBSG 241600Z 09012KT 060V130 9999 BKN030 31/23 Q1011","temp":31,"dewp":23,"wdir":90,"wspd":12,"visib":"6+","altim":1011,"clouds":[{"cover":"BKN","base":3000}],"obsTime":1774368000},"SBSL":{"icaoId":"SBSL","flightCategory":"MVFR","rawOb":"METAR SBSL 241600Z 02013KT 9999 SCT023 BKN030 31/25 Q1010","temp":31,"dewp":25,"wdir":20,"wspd":13,"visib":"6+","altim":1010,"clouds":[{"cover":"SCT","base":2300},{"cover":"BKN","base":3000}],"obsTime":1774368000},"SBSN":{"icaoId":"SBSN","flightCategory":"VFR","rawOb":"METAR SBSN 241600Z 09015KT 9999 SCT017 SCT100 31/25 Q1011","temp":31,"dewp":25,"wdir":90,"wspd":15,"visib":"6+","altim":1011,"clouds":[{"cover":"SCT","base":1700},{"cover":"SCT","base":10000}],"obsTime":1774368000},"SBSP":{"icaoId":"SBSP","flightCategory":"VFR","rawOb":"METAR SBSP 241600Z VRB03KT 9999 FEW046 28/16 Q1014","temp":28,"dewp":16,"wdir":"VRB","wspd":3,"visib":"6+","altim":1014,"clouds":[{"cover":"FEW","base":4600}],"obsTime":1774368000},"SBSV":{"icaoId":"SBSV","flightCategory":"VFR","rawOb":"METAR SBSV 241600Z 09009KT 9999 FEW026 BKN050 BKN090 29/22 Q1012","temp":29,"dewp":22,"wdir":90,"wspd":9,"visib":"6+","altim":1012,"clouds":[{"cover":"FEW","base":2600},{"cover":"BKN","base":5000},{"cover":"BKN","base":9000}],"obsTime":1774368000},"SBTE":{"icaoId":"SBTE","flightCategory":"MVFR","rawOb":"METAR SBTE 241600Z 04005KT 9999 BKN025 33/22 Q1009","temp":33,"dewp":22,"wdir":40,"wspd":5,"visib":"6+","altim":1009,"clouds":[{"cover":"BKN","base":2500}],"obsTime":1774368000},"SBUL":{"icaoId":"SBUL","flightCategory":"VFR","rawOb":"METAR SBUL 241600Z 03007KT 9999 VCSH SCT030 FEW040TCU SCT100 27/20 Q1015","temp":27,"dewp":20,"wdir":30,"wspd":7,"visib":"6+","altim":1015,"clouds":[{"cover":"SCT","base":3000},{"cover":"FEW","base":4000},{"cover":"SCT","base":10000}],"obsTime":1774368000},"SBUR":{"icaoId":"SBUR","flightCategory":"VFR","rawOb":"METAR SBUR 241600Z 34006KT 9999 SCT040 30/18 Q1014","temp":30,"dewp":18,"wdir":340,"wspd":6,"visib":"6+","altim":1014,"clouds":[{"cover":"SCT","base":4000}],"obsTime":1774368000},"SBCC":{"icaoId":"SBCC","flightCategory":"MVFR","rawOb":"METAR SBCC 241600Z 31007KT 9999 VCSH BKN023 FEW025TCU BKN100 29/21 Q1013","temp":29,"dewp":21,"wdir":310,"wspd":7,"visib":"6+","altim":1013,"clouds":[{"cover":"BKN","base":2300},{"cover":"FEW","base":2500},{"cover":"BKN","base":10000}],"obsTime":1774368000},"SBAU":{"icaoId":"SBAU","flightCategory":"VFR","rawOb":"METAR SBAU 241600Z 36006KT CAVOK 31/22 Q1012","temp":31,"dewp":22,"wdir":360,"wspd":6,"visib":"6+","altim":1012,"clouds":[],"obsTime":1774368000},"SBAX":{"icaoId":"SBAX","flightCategory":"VFR","rawOb":"METAR SBAX 241600Z 34010KT 9999 SCT025 BKN035 26/19 Q1016","temp":26,"dewp":19,"wdir":340,"wspd":10,"visib":"6+","altim":1016,"clouds":[{"cover":"SCT","base":2500},{"cover":"BKN","base":3500}],"obsTime":1774368000},"SBBH":{"icaoId":"SBBH","flightCategory":"VFR","rawOb":"METAR SBBH 241600Z 07004KT 9999 BKN040 27/18 Q1016","temp":27,"dewp":18,"wdir":70,"wspd":4,"visib":"6+","altim":1016,"clouds":[{"cover":"BKN","base":4000}],"obsTime":1774368000},"SBBQ":{"icaoId":"SBBQ","flightCategory":"VFR","rawOb":"METAR SBBQ 241600Z 01006KT 320V060 9999 SCT040 23/16 Q1019","temp":23,"dewp":16,"wdir":10,"wspd":6,"visib":"6+","altim":1019,"clouds":[{"cover":"SCT","base":4000}],"obsTime":1774368000},"SBBU":{"icaoId":"SBBU","flightCategory":"VFR","rawOb":"METAR SBBU 241600Z 25002KT 9999 FEW045 33/22 Q1012","temp":33,"dewp":22,"wdir":250,"wspd":2,"visib":"6+","altim":1012,"clouds":[{"cover":"FEW","base":4500}],"obsTime":1774368000},"SBCA":{"icaoId":"SBCA","flightCategory":"VFR","rawOb":"METAR SBCA 241700Z 33008KT 9999 FEW040TCU SCT050 26/21 Q1014","temp":26,"dewp":21,"wdir":330,"wspd":8,"visib":"6+","altim":1014,"clouds":[{"cover":"FEW","base":4000},{"cover":"SCT","base":5000}],"obsTime":1774371600},"SBAR":{"icaoId":"SBAR","flightCategory":"VFR","rawOb":"METAR SBAR 241600Z 10012KT 9999 SCT023 31/24 Q1011","temp":31,"dewp":24,"wdir":100,"wspd":12,"visib":"6+","altim":1011,"clouds":[{"cover":"SCT","base":2300}],"obsTime":1774368000},"SBCJ":{"icaoId":"SBCJ","flightCategory":"MVFR","rawOb":"METAR SBCJ 241600Z 04003KT 9999 BKN015 25/21 Q1016","temp":25,"dewp":21,"wdir":40,"wspd":3,"visib":"6+","altim":1016,"clouds":[{"cover":"BKN","base":1500}],"obsTime":1774368000},"SBCO":{"icaoId":"SBCO","flightCategory":"MVFR","rawOb":"METAR SBCO 241600Z 15003KT 110V210 9000 FEW008 BKN012 22/20 Q1013","temp":22,"dewp":20,"wdir":150,"wspd":3,"visib":5.59,"altim":1013,"clouds":[{"cover":"FEW","base":800},{"cover":"BKN","base":1200}],"obsTime":1774368000},"SBDN":{"icaoId":"SBDN","flightCategory":"VFR","rawOb":"METAR SBDN 241600Z 25007G18KT 9999 VCSH SCT033 SCT050TCU 30/22 Q1011","temp":30,"dewp":22,"wdir":250,"wspd":7,"visib":"6+","altim":1011,"clouds":[{"cover":"SCT","base":3300},{"cover":"SCT","base":5000}],"obsTime":1774368000},"SBES":{"icaoId":"SBES","flightCategory":"VFR","rawOb":"METAR SBES 241600Z 05015G25KT 020V080 9999 FEW015 29/// Q1011","temp":null,"dewp":null,"wdir":50,"wspd":15,"visib":"6+","altim":1011,"clouds":[{"cover":"FEW","base":1500}],"obsTime":1774368000},"SBGM":{"icaoId":"SBGM","flightCategory":"VFR","rawOb":"METAR SBGM 241600Z 26004KT 210V310 CAVOK 31/22 Q1010","temp":31,"dewp":22,"wdir":260,"wspd":4,"visib":"6+","altim":1010,"clouds":[],"obsTime":1774368000},"SBIP":{"icaoId":"SBIP","flightCategory":"VFR","rawOb":"METAR SBIP 241600Z AUTO 35004KT 270V060 9999 FEW018 SCT041 26/20 Q1015","temp":26,"dewp":20,"wdir":350,"wspd":4,"visib":"6+","altim":1015,"clouds":[{"cover":"FEW","base":1800},{"cover":"SCT","base":4100}],"obsTime":1774368000},"SBKG":{"icaoId":"SBKG","flightCategory":"MVFR","rawOb":"METAR SBKG 241600Z 10013KT 9999 BKN025 31/18 Q1013","temp":31,"dewp":18,"wdir":100,"wspd":13,"visib":"6+","altim":1013,"clouds":[{"cover":"BKN","base":2500}],"obsTime":1774368000},"SBOI":{"icaoId":"SBOI","flightCategory":"VFR","rawOb":"METAR SBOI 241600Z AUTO 13004KT 090V170 9000 // SCT006/// BKN056/// 24/23 Q1013","temp":24,"dewp":23,"wdir":130,"wspd":4,"visib":5.59,"altim":1013,"clouds":[{"cover":"SCT","base":600},{"cover":"BKN","base":5600}],"obsTime":1774368000},"SBPB":{"icaoId":"SBPB","flightCategory":"VFR","rawOb":"METAR SBPB 241600Z 02011KT 9999 SCT016 FEW025TCU 31/25 Q1010","temp":31,"dewp":25,"wdir":20,"wspd":11,"visib":"6+","altim":1010,"clouds":[{"cover":"SCT","base":1600},{"cover":"FEW","base":2500}],"obsTime":1774368000},"SBPL":{"icaoId":"SBPL","flightCategory":"MVFR","rawOb":"METAR SBPL 241600Z 07008KT 9999 BKN030 SCT070 33/20 Q1012","temp":33,"dewp":20,"wdir":70,"wspd":8,"visib":"6+","altim":1012,"clouds":[{"cover":"BKN","base":3000},{"cover":"SCT","base":7000}],"obsTime":1774368000},"SBPP":{"icaoId":"SBPP","flightCategory":"VFR","rawOb":"METAR SBPP 241600Z 01005KT 9999 SCT020 30/22 Q1013","temp":30,"dewp":22,"wdir":10,"wspd":5,"visib":"6+","altim":1013,"clouds":[{"cover":"SCT","base":2000}],"obsTime":1774368000},"SBPS":{"icaoId":"SBPS","flightCategory":"VFR","rawOb":"METAR SBPS 241600Z 09007KT 9999 SCT020 29/25 Q1013","temp":29,"dewp":25,"wdir":90,"wspd":7,"visib":"6+","altim":1013,"clouds":[{"cover":"SCT","base":2000}],"obsTime":1774368000},"SBSC":{"icaoId":"SBSC","flightCategory":"VFR","rawOb":"METAR SBSC 241600Z 02011G21KT CAVOK 32/20 Q1010","temp":32,"dewp":20,"wdir":20,"wspd":11,"visib":"6+","altim":1010,"clouds":[],"obsTime":1774368000},"SBSJ":{"icaoId":"SBSJ","flightCategory":"VFR","rawOb":"METAR SBSJ 241600Z 13004KT 9999 FEW025 29/// Q1013","temp":null,"dewp":null,"wdir":130,"wspd":4,"visib":"6+","altim":1013,"clouds":[{"cover":"FEW","base":2500}],"obsTime":1774368000},"SBSM":{"icaoId":"SBSM","flightCategory":"VFR","rawOb":"METAR SBSM 241600Z 13005KT 9999 SCT030 24/17 Q1013","temp":24,"dewp":17,"wdir":130,"wspd":5,"visib":"6+","altim":1013,"clouds":[{"cover":"SCT","base":3000}],"obsTime":1774368000},"SBSR":{"icaoId":"SBSR","flightCategory":"VFR","rawOb":"METAR SBSR 241600Z VRB03KT 9999 SCT030 BKN070 30/21 Q1010","temp":30,"dewp":21,"wdir":"VRB","wspd":3,"visib":"6+","altim":1010,"clouds":[{"cover":"SCT","base":3000},{"cover":"BKN","base":7000}],"obsTime":1774368000},"SBTF":{"icaoId":"SBTF","flightCategory":"VFR","rawOb":"METAR SBTF 241600Z 05004KT 9999 FEW015 SCT100 33/27 Q1009","temp":33,"dewp":27,"wdir":50,"wspd":4,"visib":"6+","altim":1009,"clouds":[{"cover":"FEW","base":1500},{"cover":"SCT","base":10000}],"obsTime":1774368000},"SBTT":{"icaoId":"SBTT","flightCategory":"MVFR","rawOb":"METAR SBTT 241600Z 30004KT 9999 BKN020 29/24 Q1011","temp":29,"dewp":24,"wdir":300,"wspd":4,"visib":"6+","altim":1011,"clouds":[{"cover":"BKN","base":2000}],"obsTime":1774368000},"SBUY":{"icaoId":"SBUY","flightCategory":"VFR","rawOb":"METAR SBUY 241600Z 18004KT 9999 FEW040 BKN100 30/24 Q1009","temp":30,"dewp":24,"wdir":180,"wspd":4,"visib":"6+","altim":1009,"clouds":[{"cover":"FEW","base":4000},{"cover":"BKN","base":10000}],"obsTime":1774368000},"SBVH":{"icaoId":"SBVH","flightCategory":"MVFR","rawOb":"METAR SBVH 241600Z 06004KT 9999 SCT011 BKN018 BKN100 25/22 Q1014","temp":25,"dewp":22,"wdir":60,"wspd":4,"visib":"6+","altim":1014,"clouds":[{"cover":"SCT","base":1100},{"cover":"BKN","base":1800},{"cover":"BKN","base":10000}],"obsTime":1774368000},"SBTD":{"icaoId":"SBTD","flightCategory":"VFR","rawOb":"METAR SBTD 241600Z /////KT 9999 FEW025 SCT040 30/22 Q1013","temp":30,"dewp":22,"wdir":null,"wspd":null,"visib":"6+","altim":1013,"clouds":[{"cover":"FEW","base":2500},{"cover":"SCT","base":4000}],"obsTime":1774368000},"SBPF":{"icaoId":"SBPF","flightCategory":"VFR","rawOb":"SPECI SBPF 241701Z AUTO VRB02KT 9999 FEW033 BKN044 25/20 Q1014","temp":25,"dewp":20,"wdir":"VRB","wspd":2,"visib":"6+","altim":1014,"clouds":[{"cover":"FEW","base":3300},{"cover":"BKN","base":4400}],"obsTime":1774371660},"SBJP":{"icaoId":"SBJP","flightCategory":"VFR","rawOb":"METAR SBJP 241600Z 10011KT 060V130 9999 BKN040 32/22 Q1011","temp":32,"dewp":22,"wdir":100,"wspd":11,"visib":"6+","altim":1011,"clouds":[{"cover":"BKN","base":4000}],"obsTime":1774368000},"SBJV":{"icaoId":"SBJV","flightCategory":"VFR","rawOb":"METAR SBJV 241600Z 13009KT 9999 SCT030 31/23 Q1010","temp":31,"dewp":23,"wdir":130,"wspd":9,"visib":"6+","altim":1010,"clouds":[{"cover":"SCT","base":3000}],"obsTime":1774368000},"SBLE":{"icaoId":"SBLE","flightCategory":"VFR","rawOb":"METAR SBLE 241600Z AUTO 15006KT 110V210 CAVOK 28/21 Q1015","temp":28,"dewp":21,"wdir":150,"wspd":6,"visib":"6+","altim":1015,"clouds":[],"obsTime":1774368000},"SBAN":{"icaoId":"SBAN","flightCategory":"MVFR","rawOb":"METAR SBAN 241600Z 35004KT 9999 BKN025 FEW030TCU 25/18 Q1018","temp":25,"dewp":18,"wdir":350,"wspd":4,"visib":"6+","altim":1018,"clouds":[{"cover":"BKN","base":2500},{"cover":"FEW","base":3000}],"obsTime":1774368000},"SBIH":{"icaoId":"SBIH","flightCategory":"VFR","rawOb":"METAR SBIH 241600Z 04005KT 9999 SCT016 30/25 Q1011","temp":30,"dewp":25,"wdir":40,"wspd":5,"visib":"6+","altim":1011,"clouds":[{"cover":"SCT","base":1600}],"obsTime":1774368000},"SBAF":{"icaoId":"SBAF","flightCategory":"VFR","rawOb":"METAR SBAF 241600Z 02006KT CAVOK 32/21 Q1010","temp":32,"dewp":21,"wdir":20,"wspd":6,"visib":"6+","altim":1010,"clouds":[],"obsTime":1774368000},"SBGW":{"icaoId":"SBGW","flightCategory":"VFR","rawOb":"METAR SBGW 241600Z 04005KT 9999 FEW025 29/17 Q1012","temp":29,"dewp":17,"wdir":40,"wspd":5,"visib":"6+","altim":1012,"clouds":[{"cover":"FEW","base":2500}],"obsTime":1774368000},"SBJR":{"icaoId":"SBJR","flightCategory":"VFR","rawOb":"METAR SBJR 241600Z 17009KT 9999 FEW025 31/21 Q1010","temp":31,"dewp":21,"wdir":170,"wspd":9,"visib":"6+","altim":1010,"clouds":[{"cover":"FEW","base":2500}],"obsTime":1774368000},"SBLS":{"icaoId":"SBLS","flightCategory":"VFR","rawOb":"METAR SBLS 241600Z VRB03KT 9999 VCSH SCT033 SCT100 27/19 Q1016","temp":27,"dewp":19,"wdir":"VRB","wspd":3,"visib":"6+","altim":1016,"clouds":[{"cover":"SCT","base":3300},{"cover":"SCT","base":10000}],"obsTime":1774368000},"SBMT":{"icaoId":"SBMT","flightCategory":"VFR","rawOb":"METAR SBMT 241600Z 33003KT 9999 FEW025 27/16 Q1013","temp":27,"dewp":16,"wdir":330,"wspd":3,"visib":"6+","altim":1013,"clouds":[{"cover":"FEW","base":2500}],"obsTime":1774368000},"SBST":{"icaoId":"SBST","flightCategory":"VFR","rawOb":"METAR SBST 241600Z 17005KT 9999 FEW027 28/22 Q1009","temp":28,"dewp":22,"wdir":170,"wspd":5,"visib":"6+","altim":1009,"clouds":[{"cover":"FEW","base":2700}],"obsTime":1774368000},"SBTA":{"icaoId":"SBTA","flightCategory":"VFR","rawOb":"METAR SBTA 241600Z 05006KT 340V120 9999 FEW030 27/21 Q1012","temp":27,"dewp":21,"wdir":50,"wspd":6,"visib":"6+","altim":1012,"clouds":[{"cover":"FEW","base":3000}],"obsTime":1774368000}}}