{"updated":1777439736,"count":51,"data":{"SBSG":{"icaoId":"SBSG","flightCategory":"VFR","rawOb":"METAR SBSG 290400Z 20003KT 9999 SCT020 FEW025TCU SCT090 24/24 Q1011","temp":24,"dewp":24,"wdir":200,"wspd":3,"visib":"6+","altim":1011,"clouds":[{"cover":"SCT","base":2000},{"cover":"FEW","base":2500},{"cover":"SCT","base":9000}],"obsTime":1777435200},"SBBR":{"icaoId":"SBBR","flightCategory":"VFR","rawOb":"METAR SBBR 290400Z 00000KT CAVOK 19/15 Q1019","temp":19,"dewp":15,"wdir":0,"wspd":0,"visib":"6+","altim":1019,"clouds":[],"obsTime":1777435200},"SBBV":{"icaoId":"SBBV","flightCategory":"VFR","rawOb":"METAR SBBV 290400Z 17004KT CAVOK 28/22 Q1011","temp":28,"dewp":22,"wdir":170,"wspd":4,"visib":"6+","altim":1011,"clouds":[],"obsTime":1777435200},"SBCF":{"icaoId":"SBCF","flightCategory":"VFR","rawOb":"METAR SBCF 290400Z VRB01KT CAVOK 19/17 Q1019","temp":19,"dewp":17,"wdir":"VRB","wspd":1,"visib":"6+","altim":1019,"clouds":[],"obsTime":1777435200},"SBCG":{"icaoId":"SBCG","flightCategory":"VFR","rawOb":"METAR SBCG 290400Z 09004KT 9999 FEW030 22/20 Q1015","temp":22,"dewp":20,"wdir":90,"wspd":4,"visib":"6+","altim":1015,"clouds":[{"cover":"FEW","base":3000}],"obsTime":1777435200},"SBCT":{"icaoId":"SBCT","flightCategory":"LIFR","rawOb":"METAR SBCT 290400Z COR 11001KT 7000 BKN004 OVC009 15/15 Q1018","temp":15,"dewp":15,"wdir":110,"wspd":1,"visib":4.35,"altim":1018,"clouds":[{"cover":"BKN","base":400},{"cover":"OVC","base":900}],"obsTime":1777435200},"SBEG":{"icaoId":"SBEG","flightCategory":"VFR","rawOb":"METAR SBEG 290400Z 09003KT 9999 FEW010 SCT100 26/25 Q1011","temp":26,"dewp":25,"wdir":90,"wspd":3,"visib":"6+","altim":1011,"clouds":[{"cover":"FEW","base":1000},{"cover":"SCT","base":10000}],"obsTime":1777435200},"SBFI":{"icaoId":"SBFI","flightCategory":"MVFR","rawOb":"METAR SBFI 290400Z 08006KT 9999 BKN020 OVC070 16/16 Q1015","temp":16,"dewp":16,"wdir":80,"wspd":6,"visib":"6+","altim":1015,"clouds":[{"cover":"BKN","base":2000},{"cover":"OVC","base":7000}],"obsTime":1777435200},"SBFL":{"icaoId":"SBFL","flightCategory":"VFR","rawOb":"METAR SBFL 290400Z 34010KT 9999 -SHRA FEW011 SCT018 BKN100 18/17 Q1016","temp":18,"dewp":17,"wdir":340,"wspd":10,"visib":"6+","altim":1016,"clouds":[{"cover":"FEW","base":1100},{"cover":"SCT","base":1800},{"cover":"BKN","base":10000}],"obsTime":1777435200},"SBFZ":{"icaoId":"SBFZ","flightCategory":"VFR","rawOb":"METAR SBFZ 290400Z 19003KT 160V220 CAVOK 26/24 Q1011","temp":26,"dewp":24,"wdir":190,"wspd":3,"visib":"6+","altim":1011,"clouds":[],"obsTime":1777435200},"SBGL":{"icaoId":"SBGL","flightCategory":"VFR","rawOb":"METAR SBGL 290400Z 15003KT 9000 FEW015 24/23 Q1013","temp":24,"dewp":23,"wdir":150,"wspd":3,"visib":5.59,"altim":1013,"clouds":[{"cover":"FEW","base":1500}],"obsTime":1777435200},"SBGO":{"icaoId":"SBGO","flightCategory":"VFR","rawOb":"METAR SBGO 290400Z 31002KT CAVOK 21/19 Q1017","temp":21,"dewp":19,"wdir":310,"wspd":2,"visib":"6+","altim":1017,"clouds":[],"obsTime":1777435200},"SBGR":{"icaoId":"SBGR","flightCategory":"IFR","rawOb":"METAR SBGR 290400Z 11002KT 9999 OVC009 21/20 Q1018","temp":21,"dewp":20,"wdir":110,"wspd":2,"visib":"6+","altim":1018,"clouds":[{"cover":"OVC","base":900}],"obsTime":1777435200},"SBJU":{"icaoId":"SBJU","flightCategory":"MVFR","rawOb":"METAR SBJU 290400Z 00000KT 9999 BKN018 22/22 Q1015","temp":22,"dewp":22,"wdir":0,"wspd":0,"visib":"6+","altim":1015,"clouds":[{"cover":"BKN","base":1800}],"obsTime":1777435200},"SBKP":{"icaoId":"SBKP","flightCategory":"MVFR","rawOb":"METAR SBKP 290400Z 14006KT 6000 NSC 21/20 Q1017","temp":21,"dewp":20,"wdir":140,"wspd":6,"visib":3.73,"altim":1017,"clouds":[],"obsTime":1777435200},"SBLO":{"icaoId":"SBLO","flightCategory":"LIFR","rawOb":"METAR SBLO 290400Z VRB01KT 1200 R13/1500U BCFG SCT023 21/21 Q1016","temp":21,"dewp":21,"wdir":"VRB","wspd":1,"visib":0.75,"altim":1016,"clouds":[{"cover":"SCT","base":2300}],"obsTime":1777435200},"SBMA":{"icaoId":"SBMA","flightCategory":"VFR","rawOb":"METAR SBMA 290400Z 35002KT CAVOK 25/24 Q1011","temp":25,"dewp":24,"wdir":350,"wspd":2,"visib":"6+","altim":1011,"clouds":[],"obsTime":1777435200},"SBME":{"icaoId":"SBME","flightCategory":"VFR","rawOb":"METAR SBME 290400Z 05004KT CAVOK 24/22 Q1014","temp":24,"dewp":22,"wdir":50,"wspd":4,"visib":"6+","altim":1014,"clouds":[],"obsTime":1777435200},"SBMG":{"icaoId":"SBMG","flightCategory":"LIFR","rawOb":"METAR SBMG 290400Z AUTO 07003KT 0600 R10/0900U FG VV001 19/19 Q1015","temp":19,"dewp":19,"wdir":70,"wspd":3,"visib":0.37,"altim":1015,"clouds":[{"cover":"OVX","base":100}],"obsTime":1777435200},"SBMO":{"icaoId":"SBMO","flightCategory":"VFR","rawOb":"METAR SBMO 290400Z 03002KT 9999 FEW024 BKN070 24/24 Q1013","temp":24,"dewp":24,"wdir":30,"wspd":2,"visib":"6+","altim":1013,"clouds":[{"cover":"FEW","base":2400},{"cover":"BKN","base":7000}],"obsTime":1777435200},"SBMQ":{"icaoId":"SBMQ","flightCategory":"IFR","rawOb":"METAR SBMQ 290400Z 03005KT 4000 +RA BR BKN013 BKN036 OVC067 26/25 Q1011","temp":26,"dewp":25,"wdir":30,"wspd":5,"visib":2.49,"altim":1011,"clouds":[{"cover":"BKN","base":1300},{"cover":"BKN","base":3600},{"cover":"OVC","base":6700}],"obsTime":1777435200},"SBNT":{"icaoId":"SBNT","flightCategory":"VFR","rawOb":"METAR SBNT 290400Z 20002KT 9999 SCT020 SCT100 25/24 Q1011","temp":25,"dewp":24,"wdir":200,"wspd":2,"visib":"6+","altim":1011,"clouds":[{"cover":"SCT","base":2000},{"cover":"SCT","base":10000}],"obsTime":1777435200},"SBPA":{"icaoId":"SBPA","flightCategory":"VFR","rawOb":"METAR SBPA 290400Z VRB02KT CAVOK 11/09 Q1016","temp":11,"dewp":9,"wdir":"VRB","wspd":2,"visib":"6+","altim":1016,"clouds":[],"obsTime":1777435200},"SBPJ":{"icaoId":"SBPJ","flightCategory":"VFR","rawOb":"METAR SBPJ 290400Z 13003KT 9999 FEW018 BKN050 25/24 Q1013","temp":25,"dewp":24,"wdir":130,"wspd":3,"visib":"6+","altim":1013,"clouds":[{"cover":"FEW","base":1800},{"cover":"BKN","base":5000}],"obsTime":1777435200},"SBPV":{"icaoId":"SBPV","flightCategory":"VFR","rawOb":"METAR SBPV 290400Z 00000KT 9999 FEW040 FEW045TCU 26/22 Q1011","temp":26,"dewp":22,"wdir":0,"wspd":0,"visib":"6+","altim":1011,"clouds":[{"cover":"FEW","base":4000},{"cover":"FEW","base":4500}],"obsTime":1777435200},"SBRB":{"icaoId":"SBRB","flightCategory":"MVFR","rawOb":"METAR SBRB 290400Z 22002KT 8000 FEW004 BKN021 BKN100 23/23 Q1012","temp":23,"dewp":23,"wdir":220,"wspd":2,"visib":4.97,"altim":1012,"clouds":[{"cover":"FEW","base":400},{"cover":"BKN","base":2100},{"cover":"BKN","base":10000}],"obsTime":1777435200},"SBRF":{"icaoId":"SBRF","flightCategory":"VFR","rawOb":"METAR SBRF 290400Z 12007KT 9999 FEW025 27/23 Q1012","temp":27,"dewp":23,"wdir":120,"wspd":7,"visib":"6+","altim":1012,"clouds":[{"cover":"FEW","base":2500}],"obsTime":1777435200},"SBBE":{"icaoId":"SBBE","flightCategory":"VFR","rawOb":"METAR SBBE 290400Z 15003KT CAVOK 25/24 Q1011","temp":25,"dewp":24,"wdir":150,"wspd":3,"visib":"6+","altim":1011,"clouds":[],"obsTime":1777435200},"SBSL":{"icaoId":"SBSL","flightCategory":"VFR","rawOb":"METAR SBSL 290400Z 08002KT 9999 FEW025 BKN080 25/24 Q1011","temp":25,"dewp":24,"wdir":80,"wspd":2,"visib":"6+","altim":1011,"clouds":[{"cover":"FEW","base":2500},{"cover":"BKN","base":8000}],"obsTime":1777435200},"SBSN":{"icaoId":"SBSN","flightCategory":"VFR","rawOb":"METAR SBSN 290400Z 12004KT 9999 FEW020 BKN100 26/25 Q1011","temp":26,"dewp":25,"wdir":120,"wspd":4,"visib":"6+","altim":1011,"clouds":[{"cover":"FEW","base":2000},{"cover":"BKN","base":10000}],"obsTime":1777435200},"SBSP":{"icaoId":"SBSP","flightCategory":"IFR","rawOb":"METAR SBSP 290400Z AUTO 23004KT 9999 OVC008 20/19 Q1019","temp":20,"dewp":19,"wdir":230,"wspd":4,"visib":"6+","altim":1019,"clouds":[{"cover":"OVC","base":800}],"obsTime":1777435200},"SBSV":{"icaoId":"SBSV","flightCategory":"VFR","rawOb":"METAR SBSV 290400Z 10004KT 9999 SCT021 FEW025TCU BKN060 26/22 Q1014","temp":26,"dewp":22,"wdir":100,"wspd":4,"visib":"6+","altim":1014,"clouds":[{"cover":"SCT","base":2100},{"cover":"FEW","base":2500},{"cover":"BKN","base":6000}],"obsTime":1777435200},"SBTE":{"icaoId":"SBTE","flightCategory":"MVFR","rawOb":"METAR SBTE 290400Z 36007KT 9999 FEW007 BKN016 FEW025TCU BKN090 26/23 Q1011","temp":26,"dewp":23,"wdir":360,"wspd":7,"visib":"6+","altim":1011,"clouds":[{"cover":"FEW","base":700},{"cover":"BKN","base":1600},{"cover":"FEW","base":2500},{"cover":"BKN","base":9000}],"obsTime":1777435200},"SBUL":{"icaoId":"SBUL","flightCategory":"VFR","rawOb":"METAR SBUL 290400Z 10004KT CAVOK 23/16 Q1019","temp":23,"dewp":16,"wdir":100,"wspd":4,"visib":"6+","altim":1019,"clouds":[],"obsTime":1777435200},"SBUR":{"icaoId":"SBUR","flightCategory":"VFR","rawOb":"METAR SBUR 290400Z 04004KT CAVOK 24/16 Q1018","temp":24,"dewp":16,"wdir":40,"wspd":4,"visib":"6+","altim":1018,"clouds":[],"obsTime":1777435200},"SBVT":{"icaoId":"SBVT","flightCategory":"VFR","rawOb":"METAR SBVT 290400Z 35004KT CAVOK 24/22 Q1015","temp":24,"dewp":22,"wdir":350,"wspd":4,"visib":"6+","altim":1015,"clouds":[],"obsTime":1777435200},"SBMK":{"icaoId":"SBMK","flightCategory":"VFR","rawOb":"METAR SBMK 290400Z 32002KT CAVOK 18/16 Q1018","temp":18,"dewp":16,"wdir":320,"wspd":2,"visib":"6+","altim":1018,"clouds":[],"obsTime":1777435200},"SBSR":{"icaoId":"SBSR","flightCategory":"VFR","rawOb":"METAR SBSR 290400Z 21004KT CAVOK 25/20 Q1016","temp":25,"dewp":20,"wdir":210,"wspd":4,"visib":"6+","altim":1016,"clouds":[],"obsTime":1777435200},"SBAR":{"icaoId":"SBAR","flightCategory":"VFR","rawOb":"METAR SBAR 290400Z 09008KT 9999 FEW027 27/23 Q1013","temp":27,"dewp":23,"wdir":90,"wspd":8,"visib":"6+","altim":1013,"clouds":[{"cover":"FEW","base":2700}],"obsTime":1777435200},"SBAX":{"icaoId":"SBAX","flightCategory":"VFR","rawOb":"METAR SBAX 290400Z AUTO 12004KT CAVOK 21/16 Q1019","temp":21,"dewp":16,"wdir":120,"wspd":4,"visib":"6+","altim":1019,"clouds":[],"obsTime":1777435200},"SBCA":{"icaoId":"SBCA","flightCategory":"MVFR","rawOb":"METAR SBCA 290400Z 17006KT 8000 -RA FEW003 SCT010 FEW040TCU BKN070 14/13 Q1017","temp":14,"dewp":13,"wdir":170,"wspd":6,"visib":4.97,"altim":1017,"clouds":[{"cover":"FEW","base":300},{"cover":"SCT","base":1000},{"cover":"FEW","base":4000},{"cover":"BKN","base":7000}],"obsTime":1777435200},"SBDN":{"icaoId":"SBDN","flightCategory":"VFR","rawOb":"METAR SBDN 290400Z 12005KT CAVOK 23/20 Q1014","temp":23,"dewp":20,"wdir":120,"wspd":5,"visib":"6+","altim":1014,"clouds":[],"obsTime":1777435200},"SBIP":{"icaoId":"SBIP","flightCategory":"LIFR","rawOb":"METAR SBIP 290400Z AUTO 00000KT 0500 FG VV002 19/19 Q1016","temp":19,"dewp":19,"wdir":0,"wspd":0,"visib":0.31,"altim":1016,"clouds":[{"cover":"OVX","base":200}],"obsTime":1777435200},"SBKG":{"icaoId":"SBKG","flightCategory":"IFR","rawOb":"METAR SBKG 290400Z 10007KT 9999 SCT004 BKN006 22/22 Q1015","temp":22,"dewp":22,"wdir":100,"wspd":7,"visib":"6+","altim":1015,"clouds":[{"cover":"SCT","base":400},{"cover":"BKN","base":600}],"obsTime":1777435200},"SBOI":{"icaoId":"SBOI","flightCategory":"VFR","rawOb":"METAR SBOI 290400Z AUTO 00000KT 9999 // FEW018/// SCT038/// BKN065/// 25/24 Q1012","temp":25,"dewp":24,"wdir":0,"wspd":0,"visib":"6+","altim":1012,"clouds":[{"cover":"FEW","base":1800},{"cover":"SCT","base":3800},{"cover":"BKN","base":6500}],"obsTime":1777435200},"SBPL":{"icaoId":"SBPL","flightCategory":"VFR","rawOb":"METAR SBPL 290400Z 13003KT CAVOK 25/19 Q1014","temp":25,"dewp":19,"wdir":130,"wspd":3,"visib":"6+","altim":1014,"clouds":[],"obsTime":1777435200},"SBPS":{"icaoId":"SBPS","flightCategory":"VFR","rawOb":"METAR SBPS 290400Z 25004KT 9999 SCT020 BKN070 23/23 Q1015","temp":23,"dewp":23,"wdir":250,"wspd":4,"visib":"6+","altim":1015,"clouds":[{"cover":"SCT","base":2000},{"cover":"BKN","base":7000}],"obsTime":1777435200},"SBSC":{"icaoId":"SBSC","flightCategory":"MVFR","rawOb":"METAR SBSC 290400Z 30005KT 5000 BR SCT010 BKN015 OVC050 24/23 Q1014","temp":24,"dewp":23,"wdir":300,"wspd":5,"visib":3.11,"altim":1014,"clouds":[{"cover":"SCT","base":1000},{"cover":"BKN","base":1500},{"cover":"OVC","base":5000}],"obsTime":1777435200},"SBJP":{"icaoId":"SBJP","flightCategory":"MVFR","rawOb":"METAR SBJP 290400Z 18005KT 8000 -RA BKN010 BKN070 25/24 Q1012","temp":25,"dewp":24,"wdir":180,"wspd":5,"visib":4.97,"altim":1012,"clouds":[{"cover":"BKN","base":1000},{"cover":"BKN","base":7000}],"obsTime":1777435200},"SBLE":{"icaoId":"SBLE","flightCategory":"VFR","rawOb":"METAR SBLE 290400Z AUTO 00000KT 9999 FEW032 ///// Q////","temp":null,"dewp":null,"wdir":0,"wspd":0,"visib":"6+","altim":null,"clouds":[{"cover":"FEW","base":3200}],"obsTime":1777435200},"SBAN":{"icaoId":"SBAN","flightCategory":"VFR","rawOb":"METAR SBAN 290400Z 17006KT CAVOK 20/15 Q1020","temp":20,"dewp":15,"wdir":170,"wspd":6,"visib":"6+","altim":1020,"clouds":[],"obsTime":1777435200}}}