{"updated":1778445271,"count":86,"data":{"SBRB":{"icaoId":"SBRB","flightCategory":"LIFR","rawOb":"METAR SBRB 101900Z 17010G20KT 1500 -RA BR BKN007 BKN013 FEW030TCU 16/16 Q1018","temp":16,"dewp":16,"wdir":170,"wspd":10,"visib":0.93,"altim":1018,"clouds":[{"cover":"BKN","base":700},{"cover":"BKN","base":1300},{"cover":"FEW","base":3000}],"obsTime":1778439600},"SBCZ":{"icaoId":"SBCZ","flightCategory":"VFR","rawOb":"METAR SBCZ 101900Z 06004KT 9000 -TSRA SCT030 FEW030CB BKN090 25/24 Q1011","temp":25,"dewp":24,"wdir":60,"wspd":4,"visib":5.59,"altim":1011,"clouds":[{"cover":"SCT","base":3000},{"cover":"FEW","base":3000},{"cover":"BKN","base":9000}],"obsTime":1778439600},"SBBE":{"icaoId":"SBBE","flightCategory":"LIFR","rawOb":"METAR SBBE 101900Z 12011KT 0600 TSRA FEW005 BKN014 BKN020 FEW030CB 23/23 Q1011 RERA","temp":23,"dewp":23,"wdir":120,"wspd":11,"visib":0.37,"altim":1011,"clouds":[{"cover":"FEW","base":500},{"cover":"BKN","base":1400},{"cover":"BKN","base":2000},{"cover":"FEW","base":3000}],"obsTime":1778439600},"SBAT":{"icaoId":"SBAT","flightCategory":"VFR","rawOb":"METAR SBAT 101900Z 20006KT 9999 SCT035 FEW040TCU 31/25 Q1012","temp":31,"dewp":25,"wdir":200,"wspd":6,"visib":"6+","altim":1012,"clouds":[{"cover":"SCT","base":3500},{"cover":"FEW","base":4000}],"obsTime":1778439600},"SBBR":{"icaoId":"SBBR","flightCategory":"VFR","rawOb":"METAR SBBR 101900Z 18008KT 150V210 9999 SCT045 29/11 Q1018","temp":29,"dewp":11,"wdir":180,"wspd":8,"visib":"6+","altim":1018,"clouds":[{"cover":"SCT","base":4500}],"obsTime":1778439600},"SBBV":{"icaoId":"SBBV","flightCategory":"VFR","rawOb":"METAR SBBV 101900Z 14008KT 9999 BKN040 FEW045TCU 33/23 Q1009","temp":33,"dewp":23,"wdir":140,"wspd":8,"visib":"6+","altim":1009,"clouds":[{"cover":"BKN","base":4000},{"cover":"FEW","base":4500}],"obsTime":1778439600},"SBCB":{"icaoId":"SBCB","flightCategory":"MVFR","rawOb":"METAR SBCB 101900Z 23008KT 9999 SCT010 BKN025 23/21 Q1015","temp":23,"dewp":21,"wdir":230,"wspd":8,"visib":"6+","altim":1015,"clouds":[{"cover":"SCT","base":1000},{"cover":"BKN","base":2500}],"obsTime":1778439600},"SBCF":{"icaoId":"SBCF","flightCategory":"VFR","rawOb":"METAR SBCF 101900Z 31003KT 9999 FEW040 29/15 Q1018","temp":29,"dewp":15,"wdir":310,"wspd":3,"visib":"6+","altim":1018,"clouds":[{"cover":"FEW","base":4000}],"obsTime":1778439600},"SBCG":{"icaoId":"SBCG","flightCategory":"VFR","rawOb":"METAR SBCG 101900Z 16006KT 120V200 CAVOK 17/07 Q1022","temp":17,"dewp":7,"wdir":160,"wspd":6,"visib":"6+","altim":1022,"clouds":[],"obsTime":1778439600},"SBCP":{"icaoId":"SBCP","flightCategory":"VFR","rawOb":"METAR SBCP 101900Z 19009KT 9999 FEW020 30/22 Q1013","temp":30,"dewp":22,"wdir":190,"wspd":9,"visib":"6+","altim":1013,"clouds":[{"cover":"FEW","base":2000}],"obsTime":1778439600},"SBCR":{"icaoId":"SBCR","flightCategory":"VFR","rawOb":"METAR SBCR 101900Z 22006KT 180V350 CAVOK 20/09 Q1021","temp":20,"dewp":9,"wdir":220,"wspd":6,"visib":"6+","altim":1021,"clouds":[],"obsTime":1778439600},"SBCT":{"icaoId":"SBCT","flightCategory":"VFR","rawOb":"METAR SBCT 101900Z 25011KT 9999 SCT030 13/06 Q1020","temp":13,"dewp":6,"wdir":250,"wspd":11,"visib":"6+","altim":1020,"clouds":[{"cover":"SCT","base":3000}],"obsTime":1778439600},"SBEG":{"icaoId":"SBEG","flightCategory":"VFR","rawOb":"METAR SBEG 101900Z 11009KT 9999 SCT030 33/23 Q1009","temp":33,"dewp":23,"wdir":110,"wspd":9,"visib":"6+","altim":1009,"clouds":[{"cover":"SCT","base":3000}],"obsTime":1778439600},"SBFI":{"icaoId":"SBFI","flightCategory":"VFR","rawOb":"METAR SBFI 101900Z 24009KT 9999 BKN040 14/06 Q1024","temp":14,"dewp":6,"wdir":240,"wspd":9,"visib":"6+","altim":1024,"clouds":[{"cover":"BKN","base":4000}],"obsTime":1778439600},"SBFL":{"icaoId":"SBFL","flightCategory":"VFR","rawOb":"METAR SBFL 101900Z 11008KT 9999 FEW040 18/10 Q1017","temp":18,"dewp":10,"wdir":110,"wspd":8,"visib":"6+","altim":1017,"clouds":[{"cover":"FEW","base":4000}],"obsTime":1778439600},"SBFZ":{"icaoId":"SBFZ","flightCategory":"VFR","rawOb":"METAR SBFZ 101900Z 09006KT 9999 SCT016 27/24 Q1011","temp":27,"dewp":24,"wdir":90,"wspd":6,"visib":"6+","altim":1011,"clouds":[{"cover":"SCT","base":1600}],"obsTime":1778439600},"SBGL":{"icaoId":"SBGL","flightCategory":"MVFR","rawOb":"METAR SBGL 101900Z 22015KT 9999 OVC027 23/19 Q1015","temp":23,"dewp":19,"wdir":220,"wspd":15,"visib":"6+","altim":1015,"clouds":[{"cover":"OVC","base":2700}],"obsTime":1778439600},"SBGO":{"icaoId":"SBGO","flightCategory":"VFR","rawOb":"METAR SBGO 101900Z 27008KT 230V300 9999 FEW048 29/19 Q1017","temp":29,"dewp":19,"wdir":270,"wspd":8,"visib":"6+","altim":1017,"clouds":[{"cover":"FEW","base":4800}],"obsTime":1778439600},"SBGR":{"icaoId":"SBGR","flightCategory":"IFR","rawOb":"METAR SBGR 101900Z 17008KT 3500 +RA BKN006 OVC070 14/13 Q1019","temp":14,"dewp":13,"wdir":170,"wspd":8,"visib":2.17,"altim":1019,"clouds":[{"cover":"BKN","base":600},{"cover":"OVC","base":7000}],"obsTime":1778439600},"SBHT":{"icaoId":"SBHT","flightCategory":"VFR","rawOb":"METAR SBHT 101900Z 15003KT 9999 SCT030 32/24 Q1009","temp":32,"dewp":24,"wdir":150,"wspd":3,"visib":"6+","altim":1009,"clouds":[{"cover":"SCT","base":3000}],"obsTime":1778439600},"SBIL":{"icaoId":"SBIL","flightCategory":"VFR","rawOb":"METAR SBIL 101900Z 15005KT 120V180 9999 FEW023 29/22 Q1015","temp":29,"dewp":22,"wdir":150,"wspd":5,"visib":"6+","altim":1015,"clouds":[{"cover":"FEW","base":2300}],"obsTime":1778439600},"SBJU":{"icaoId":"SBJU","flightCategory":"MVFR","rawOb":"METAR SBJU 101900Z 06007KT 9999 BKN022 26/24 Q1013","temp":26,"dewp":24,"wdir":60,"wspd":7,"visib":"6+","altim":1013,"clouds":[{"cover":"BKN","base":2200}],"obsTime":1778439600},"SBKP":{"icaoId":"SBKP","flightCategory":"IFR","rawOb":"METAR SBKP 101900Z 25015KT 3000 -RA BR BKN005 BKN015 OVC100 15/14 Q1019","temp":15,"dewp":14,"wdir":250,"wspd":15,"visib":1.86,"altim":1019,"clouds":[{"cover":"BKN","base":500},{"cover":"BKN","base":1500},{"cover":"OVC","base":10000}],"obsTime":1778439600},"SBLO":{"icaoId":"SBLO","flightCategory":"VFR","rawOb":"METAR SBLO 101900Z 27003KT 9999 FEW016 BKN100 16/09 Q1020","temp":16,"dewp":9,"wdir":270,"wspd":3,"visib":"6+","altim":1020,"clouds":[{"cover":"FEW","base":1600},{"cover":"BKN","base":10000}],"obsTime":1778439600},"SBMA":{"icaoId":"SBMA","flightCategory":"VFR","rawOb":"METAR SBMA 101900Z 08003KT 9999 SCT020 FEW023TCU BKN100 30/24 Q1010","temp":30,"dewp":24,"wdir":80,"wspd":3,"visib":"6+","altim":1010,"clouds":[{"cover":"SCT","base":2000},{"cover":"FEW","base":2300},{"cover":"BKN","base":10000}],"obsTime":1778439600},"SBME":{"icaoId":"SBME","flightCategory":"MVFR","rawOb":"METAR SBME 101900Z 20007KT 8000 SCT035 26/21 Q1014","temp":26,"dewp":21,"wdir":200,"wspd":7,"visib":4.97,"altim":1014,"clouds":[{"cover":"SCT","base":3500}],"obsTime":1778439600},"SBMG":{"icaoId":"SBMG","flightCategory":"VFR","rawOb":"METAR SBMG 101900Z 25006KT 220V300 CAVOK 16/08 Q1020","temp":16,"dewp":8,"wdir":250,"wspd":6,"visib":"6+","altim":1020,"clouds":[],"obsTime":1778439600},"SBMK":{"icaoId":"SBMK","flightCategory":"VFR","rawOb":"METAR SBMK 101900Z 03003KT 9999 FEW045 30/13 Q1016","temp":30,"dewp":13,"wdir":30,"wspd":3,"visib":"6+","altim":1016,"clouds":[{"cover":"FEW","base":4500}],"obsTime":1778439600},"SBMO":{"icaoId":"SBMO","flightCategory":"VFR","rawOb":"METAR SBMO 101900Z 11008KT 9999 FEW030 BKN070 28/23 Q1013","temp":28,"dewp":23,"wdir":110,"wspd":8,"visib":"6+","altim":1013,"clouds":[{"cover":"FEW","base":3000},{"cover":"BKN","base":7000}],"obsTime":1778439600},"SBMQ":{"icaoId":"SBMQ","flightCategory":"VFR","rawOb":"METAR SBMQ 101900Z 06010KT 9999 VCSH SCT016 FEW030TCU 29/25 Q1010","temp":29,"dewp":25,"wdir":60,"wspd":10,"visib":"6+","altim":1010,"clouds":[{"cover":"SCT","base":1600},{"cover":"FEW","base":3000}],"obsTime":1778439600},"SBNT":{"icaoId":"SBNT","flightCategory":"VFR","rawOb":"METAR SBNT 101900Z 16007KT 9999 VCSH FEW006 SCT013 FEW025TCU BKN066 25/24 Q1012 RERA","temp":25,"dewp":24,"wdir":160,"wspd":7,"visib":"6+","altim":1012,"clouds":[{"cover":"FEW","base":600},{"cover":"SCT","base":1300},{"cover":"FEW","base":2500},{"cover":"BKN","base":6600}],"obsTime":1778439600},"SBPA":{"icaoId":"SBPA","flightCategory":"VFR","rawOb":"METAR SBPA 101900Z 29019KT 9999 BKN040 15/05 Q1020","temp":15,"dewp":5,"wdir":290,"wspd":19,"visib":"6+","altim":1020,"clouds":[{"cover":"BKN","base":4000}],"obsTime":1778439600},"SBPJ":{"icaoId":"SBPJ","flightCategory":"VFR","rawOb":"METAR SBPJ 101900Z 12005KT 080V160 9999 SCT045 35/22 Q1011","temp":35,"dewp":22,"wdir":120,"wspd":5,"visib":"6+","altim":1011,"clouds":[{"cover":"SCT","base":4500}],"obsTime":1778439600},"SBPV":{"icaoId":"SBPV","flightCategory":"VFR","rawOb":"METAR SBPV 101900Z 16011KT 9999 SCT009 BKN100 24/21 Q1012","temp":24,"dewp":21,"wdir":160,"wspd":11,"visib":"6+","altim":1012,"clouds":[{"cover":"SCT","base":900},{"cover":"BKN","base":10000}],"obsTime":1778439600},"SBRF":{"icaoId":"SBRF","flightCategory":"VFR","rawOb":"METAR SBRF 101900Z 16007KT 9999 FEW019 BKN090 28/24 Q1012","temp":28,"dewp":24,"wdir":160,"wspd":7,"visib":"6+","altim":1012,"clouds":[{"cover":"FEW","base":1900},{"cover":"BKN","base":9000}],"obsTime":1778439600},"SBSG":{"icaoId":"SBSG","flightCategory":"IFR","rawOb":"METAR SBSG 101900Z 15006KT 8000 -RA BKN009 BKN020 FEW025TCU 25/25 Q1013 RERA","temp":25,"dewp":25,"wdir":150,"wspd":6,"visib":4.97,"altim":1013,"clouds":[{"cover":"BKN","base":900},{"cover":"BKN","base":2000},{"cover":"FEW","base":2500}],"obsTime":1778439600},"SBSL":{"icaoId":"SBSL","flightCategory":"VFR","rawOb":"METAR SBSL 101900Z 06007KT 9999 SCT020 FEW025TCU BKN100 28/25 Q1010","temp":28,"dewp":25,"wdir":60,"wspd":7,"visib":"6+","altim":1010,"clouds":[{"cover":"SCT","base":2000},{"cover":"FEW","base":2500},{"cover":"BKN","base":10000}],"obsTime":1778439600},"SBSN":{"icaoId":"SBSN","flightCategory":"VFR","rawOb":"METAR SBSN 101900Z 07008KT 9999 FEW030 30/25 Q1008","temp":30,"dewp":25,"wdir":70,"wspd":8,"visib":"6+","altim":1008,"clouds":[{"cover":"FEW","base":3000}],"obsTime":1778439600},"SBSP":{"icaoId":"SBSP","flightCategory":"IFR","rawOb":"METAR SBSP 101900Z 18009KT 7000 3400SW -DZ BKN005 OVC008 13/12 Q1020","temp":13,"dewp":12,"wdir":180,"wspd":9,"visib":4.35,"altim":1020,"clouds":[{"cover":"BKN","base":500},{"cover":"OVC","base":800}],"obsTime":1778439600},"SBSV":{"icaoId":"SBSV","flightCategory":"VFR","rawOb":"METAR SBSV 101900Z 10009KT 080V140 9999 VCSH SCT025 FEW030TCU BKN060 28/23 Q1014","temp":28,"dewp":23,"wdir":100,"wspd":9,"visib":"6+","altim":1014,"clouds":[{"cover":"SCT","base":2500},{"cover":"FEW","base":3000},{"cover":"BKN","base":6000}],"obsTime":1778439600},"SBTE":{"icaoId":"SBTE","flightCategory":"VFR","rawOb":"METAR SBTE 101900Z 00000KT 9999 SCT015 FEW020TCU BKN100 28/25 Q1009","temp":28,"dewp":25,"wdir":0,"wspd":0,"visib":"6+","altim":1009,"clouds":[{"cover":"SCT","base":1500},{"cover":"FEW","base":2000},{"cover":"BKN","base":10000}],"obsTime":1778439600},"SBUL":{"icaoId":"SBUL","flightCategory":"VFR","rawOb":"METAR SBUL 101900Z 35007KT 280V040 9999 SCT040 FEW045TCU 27/16 Q1019","temp":27,"dewp":16,"wdir":350,"wspd":7,"visib":"6+","altim":1019,"clouds":[{"cover":"SCT","base":4000},{"cover":"FEW","base":4500}],"obsTime":1778439600},"SBUR":{"icaoId":"SBUR","flightCategory":"VFR","rawOb":"METAR SBUR 101900Z 22013KT 9999 BKN040 22/17 Q1019","temp":22,"dewp":17,"wdir":220,"wspd":13,"visib":"6+","altim":1019,"clouds":[{"cover":"BKN","base":4000}],"obsTime":1778439600},"SBVT":{"icaoId":"SBVT","flightCategory":"VFR","rawOb":"METAR SBVT 101900Z 05014KT CAVOK 28/23 Q1013","temp":28,"dewp":23,"wdir":50,"wspd":14,"visib":"6+","altim":1013,"clouds":[],"obsTime":1778439600},"SBCJ":{"icaoId":"SBCJ","flightCategory":"VFR","rawOb":"METAR SBCJ 101900Z 15006KT 9999 FEW023 FEW030TCU 28/22 Q1014","temp":28,"dewp":22,"wdir":150,"wspd":6,"visib":"6+","altim":1014,"clouds":[{"cover":"FEW","base":2300},{"cover":"FEW","base":3000}],"obsTime":1778439600},"SBAR":{"icaoId":"SBAR","flightCategory":"MVFR","rawOb":"METAR SBAR 101900Z 15007KT 9999 BKN023 29/22 Q1013","temp":29,"dewp":22,"wdir":150,"wspd":7,"visib":"6+","altim":1013,"clouds":[{"cover":"BKN","base":2300}],"obsTime":1778439600},"SBBH":{"icaoId":"SBBH","flightCategory":"VFR","rawOb":"METAR SBBH 101900Z 27006KT 9999 SCT045 29/15 Q1017","temp":29,"dewp":15,"wdir":270,"wspd":6,"visib":"6+","altim":1017,"clouds":[{"cover":"SCT","base":4500}],"obsTime":1778439600},"SBBU":{"icaoId":"SBBU","flightCategory":"IFR","rawOb":"METAR SBBU 101900Z 18005KT 8000 BKN005 BKN025 14/13 Q1020","temp":14,"dewp":13,"wdir":180,"wspd":5,"visib":4.97,"altim":1020,"clouds":[{"cover":"BKN","base":500},{"cover":"BKN","base":2500}],"obsTime":1778439600},"SBCA":{"icaoId":"SBCA","flightCategory":"VFR","rawOb":"METAR SBCA 101900Z 20008KT 9999 SCT035 11/04 Q1023","temp":11,"dewp":4,"wdir":200,"wspd":8,"visib":"6+","altim":1023,"clouds":[{"cover":"SCT","base":3500}],"obsTime":1778439600},"SBCC":{"icaoId":"SBCC","flightCategory":"VFR","rawOb":"METAR SBCC 101900Z 10008KT 9999 SCT025 32/18 Q1013","temp":32,"dewp":18,"wdir":100,"wspd":8,"visib":"6+","altim":1013,"clouds":[{"cover":"SCT","base":2500}],"obsTime":1778439600},"SBCO":{"icaoId":"SBCO","flightCategory":"VFR","rawOb":"METAR SBCO 101900Z 28017KT 9999 SCT045 15/04 Q1020","temp":15,"dewp":4,"wdir":280,"wspd":17,"visib":"6+","altim":1020,"clouds":[{"cover":"SCT","base":4500}],"obsTime":1778439600},"SBDN":{"icaoId":"SBDN","flightCategory":"VFR","rawOb":"METAR SBDN 101900Z 26004KT 9999 FEW015 BKN070 14/09 Q1021","temp":14,"dewp":9,"wdir":260,"wspd":4,"visib":"6+","altim":1021,"clouds":[{"cover":"FEW","base":1500},{"cover":"BKN","base":7000}],"obsTime":1778439600},"SBES":{"icaoId":"SBES","flightCategory":"MVFR","rawOb":"METAR SBES 101900Z 23011KT 120V270 9999 FEW011 BKN020 23/// Q1014","temp":null,"dewp":null,"wdir":230,"wspd":11,"visib":"6+","altim":1014,"clouds":[{"cover":"FEW","base":1100},{"cover":"BKN","base":2000}],"obsTime":1778439600},"SBIP":{"icaoId":"SBIP","flightCategory":"VFR","rawOb":"METAR SBIP 101900Z AUTO 01007KT CAVOK 30/18 Q1015","temp":30,"dewp":18,"wdir":10,"wspd":7,"visib":"6+","altim":1015,"clouds":[],"obsTime":1778439600},"SBKG":{"icaoId":"SBKG","flightCategory":"MVFR","rawOb":"METAR SBKG 101900Z 09008KT 9999 BKN025 FEW030TCU 25/23 Q1014","temp":25,"dewp":23,"wdir":90,"wspd":8,"visib":"6+","altim":1014,"clouds":[{"cover":"BKN","base":2500},{"cover":"FEW","base":3000}],"obsTime":1778439600},"SBOI":{"icaoId":"SBOI","flightCategory":"VFR","rawOb":"METAR SBOI 101900Z AUTO 06006KT 020V120 9999 FEW036 30/24 Q1010","temp":30,"dewp":24,"wdir":60,"wspd":6,"visib":"6+","altim":1010,"clouds":[{"cover":"FEW","base":3600}],"obsTime":1778439600},"SBPB":{"icaoId":"SBPB","flightCategory":"MVFR","rawOb":"METAR SBPB 101900Z 05011KT 9999 BKN016 FEW025TCU BKN100 28/25 Q1010","temp":28,"dewp":25,"wdir":50,"wspd":11,"visib":"6+","altim":1010,"clouds":[{"cover":"BKN","base":1600},{"cover":"FEW","base":2500},{"cover":"BKN","base":10000}],"obsTime":1778439600},"SBPL":{"icaoId":"SBPL","flightCategory":"VFR","rawOb":"METAR SBPL 101900Z 12008KT 9999 FEW030 SCT070 31/17 Q1013","temp":31,"dewp":17,"wdir":120,"wspd":8,"visib":"6+","altim":1013,"clouds":[{"cover":"FEW","base":3000},{"cover":"SCT","base":7000}],"obsTime":1778439600},"SBPP":{"icaoId":"SBPP","flightCategory":"VFR","rawOb":"METAR SBPP 101900Z 22011KT CAVOK 14/04 Q1023","temp":14,"dewp":4,"wdir":220,"wspd":11,"visib":"6+","altim":1023,"clouds":[],"obsTime":1778439600},"SBPS":{"icaoId":"SBPS","flightCategory":"VFR","rawOb":"METAR SBPS 101900Z 10006KT 9999 FEW020 27/22 Q1015","temp":27,"dewp":22,"wdir":100,"wspd":6,"visib":"6+","altim":1015,"clouds":[{"cover":"FEW","base":2000}],"obsTime":1778439600},"SBSC":{"icaoId":"SBSC","flightCategory":"MVFR","rawOb":"METAR SBSC 101900Z 18010KT 9999 SCT015 OVC020 22/19 Q1016","temp":22,"dewp":19,"wdir":180,"wspd":10,"visib":"6+","altim":1016,"clouds":[{"cover":"SCT","base":1500},{"cover":"OVC","base":2000}],"obsTime":1778439600},"SBSJ":{"icaoId":"SBSJ","flightCategory":"IFR","rawOb":"METAR SBSJ 101900Z 20004KT 160V240 4000 BR BKN011 OVC018 18/15 Q1017","temp":18,"dewp":15,"wdir":200,"wspd":4,"visib":2.49,"altim":1017,"clouds":[{"cover":"BKN","base":1100},{"cover":"OVC","base":1800}],"obsTime":1778439600},"SBSM":{"icaoId":"SBSM","flightCategory":"VFR","rawOb":"METAR SBSM 101900Z 28011KT 9999 SCT040 14/04 Q1022","temp":14,"dewp":4,"wdir":280,"wspd":11,"visib":"6+","altim":1022,"clouds":[{"cover":"SCT","base":4000}],"obsTime":1778439600},"SBSR":{"icaoId":"SBSR","flightCategory":"IFR","rawOb":"METAR SBSR 101900Z 24008KT 9999 BKN008 15/14 Q1021","temp":15,"dewp":14,"wdir":240,"wspd":8,"visib":"6+","altim":1021,"clouds":[{"cover":"BKN","base":800}],"obsTime":1778439600},"SBTF":{"icaoId":"SBTF","flightCategory":"VFR","rawOb":"METAR SBTF 101900Z 17007KT 9999 SCT020 32/25 Q1008","temp":32,"dewp":25,"wdir":170,"wspd":7,"visib":"6+","altim":1008,"clouds":[{"cover":"SCT","base":2000}],"obsTime":1778439600},"SBTT":{"icaoId":"SBTT","flightCategory":"VFR","rawOb":"METAR SBTT 101900Z 14008KT 9999 FEW008 SCT030 31/22 Q1008","temp":31,"dewp":22,"wdir":140,"wspd":8,"visib":"6+","altim":1008,"clouds":[{"cover":"FEW","base":800},{"cover":"SCT","base":3000}],"obsTime":1778439600},"SBTU":{"icaoId":"SBTU","flightCategory":"VFR","rawOb":"METAR SBTU 101900Z AUTO 19003KT 150V220 9999 // ///////// ///// Q1011","temp":null,"dewp":null,"wdir":190,"wspd":3,"visib":"6+","altim":1011,"clouds":[],"obsTime":1778439600},"SBUY":{"icaoId":"SBUY","flightCategory":"VFR","rawOb":"METAR SBUY 101900Z 10008KT 9999 FEW025 FEW035TCU 32/23 Q1007","temp":32,"dewp":23,"wdir":100,"wspd":8,"visib":"6+","altim":1007,"clouds":[{"cover":"FEW","base":2500},{"cover":"FEW","base":3500}],"obsTime":1778439600},"SBVH":{"icaoId":"SBVH","flightCategory":"VFR","rawOb":"METAR SBVH 101900Z 11009KT CAVOK 21/16 Q1017","temp":21,"dewp":16,"wdir":110,"wspd":9,"visib":"6+","altim":1017,"clouds":[],"obsTime":1778439600},"SBBQ":{"icaoId":"SBBQ","flightCategory":"VFR","rawOb":"METAR SBBQ 101900Z 30008KT 260V330 9999 FEW040 27/11 Q1020","temp":27,"dewp":11,"wdir":300,"wspd":8,"visib":"6+","altim":1020,"clouds":[{"cover":"FEW","base":4000}],"obsTime":1778439600},"SBGM":{"icaoId":"SBGM","flightCategory":"MVFR","rawOb":"METAR SBGM 101900Z 13009KT 9999 BKN010 18/15 Q1016","temp":18,"dewp":15,"wdir":130,"wspd":9,"visib":"6+","altim":1016,"clouds":[{"cover":"BKN","base":1000}],"obsTime":1778439600},"SBPF":{"icaoId":"SBPF","flightCategory":"MVFR","rawOb":"METAR SBPF 101900Z 27009KT 9999 BKN020 08/03 Q1022","temp":8,"dewp":3,"wdir":270,"wspd":9,"visib":"6+","altim":1022,"clouds":[{"cover":"BKN","base":2000}],"obsTime":1778439600},"SBJP":{"icaoId":"SBJP","flightCategory":"MVFR","rawOb":"METAR SBJP 101900Z 12010KT 5000 -RA BKN012 OVC070 25/24 Q1012","temp":25,"dewp":24,"wdir":120,"wspd":10,"visib":3.11,"altim":1012,"clouds":[{"cover":"BKN","base":1200},{"cover":"OVC","base":7000}],"obsTime":1778439600},"SBAN":{"icaoId":"SBAN","flightCategory":"VFR","rawOb":"METAR SBAN 101900Z VRB04KT 9999 SCT040 FEW045TCU SCT080 26/15 Q1020","temp":26,"dewp":15,"wdir":"VRB","wspd":4,"visib":"6+","altim":1020,"clouds":[{"cover":"SCT","base":4000},{"cover":"FEW","base":4500},{"cover":"SCT","base":8000}],"obsTime":1778439600},"SBJV":{"icaoId":"SBJV","flightCategory":"VFR","rawOb":"METAR SBJV 101900Z 09006KT 9999 FEW045 SCT100 18/09 Q1018","temp":18,"dewp":9,"wdir":90,"wspd":6,"visib":"6+","altim":1018,"clouds":[{"cover":"FEW","base":4500},{"cover":"SCT","base":10000}],"obsTime":1778439600},"SBNM":{"icaoId":"SBNM","flightCategory":"VFR","rawOb":"METAR SBNM 101900Z AUTO 28008KT 9999 SCT030 OVC037 11/05 Q1023","temp":11,"dewp":5,"wdir":280,"wspd":8,"visib":"6+","altim":1023,"clouds":[{"cover":"SCT","base":3000},{"cover":"OVC","base":3700}],"obsTime":1778439600},"SBIH":{"icaoId":"SBIH","flightCategory":"VFR","rawOb":"METAR SBIH 101900Z 04006KT 9999 -RA SCT020 FEW023TCU 26/23 Q1009","temp":26,"dewp":23,"wdir":40,"wspd":6,"visib":"6+","altim":1009,"clouds":[{"cover":"SCT","base":2000},{"cover":"FEW","base":2300}],"obsTime":1778439600},"SBLE":{"icaoId":"SBLE","flightCategory":"VFR","rawOb":"METAR SBLE 101900Z AUTO 17004KT 130V210 CAVOK 28/18 Q1016","temp":28,"dewp":18,"wdir":170,"wspd":4,"visib":"6+","altim":1016,"clouds":[],"obsTime":1778439600},"SBTC":{"icaoId":"SBTC","flightCategory":"VFR","rawOb":"METAR SBTC 101900Z 14005KT 9999 FEW025 28/22 Q1015","temp":28,"dewp":22,"wdir":140,"wspd":5,"visib":"6+","altim":1015,"clouds":[{"cover":"FEW","base":2500}],"obsTime":1778439600},"SBAF":{"icaoId":"SBAF","flightCategory":"MVFR","rawOb":" SBAF 101900Z 20010KT 9999 SCT018 OVC027 22/22 Q1015","temp":22,"dewp":22,"wdir":200,"wspd":10,"visib":"6+","altim":1015,"clouds":[{"cover":"SCT","base":1800},{"cover":"OVC","base":2700}],"obsTime":1778439600},"SBGW":{"icaoId":"SBGW","flightCategory":"VFR","rawOb":"METAR SBGW 101900Z 24011KT 210V270 9999 SCT020 BKN085 22/14 Q1016","temp":22,"dewp":14,"wdir":240,"wspd":11,"visib":"6+","altim":1016,"clouds":[{"cover":"SCT","base":2000},{"cover":"BKN","base":8500}],"obsTime":1778439600},"SBJR":{"icaoId":"SBJR","flightCategory":"IFR","rawOb":"METAR SBJR 101900Z 24005KT 4000 -RA BR BKN008 OVC020 22/20 Q1015","temp":22,"dewp":20,"wdir":240,"wspd":5,"visib":2.49,"altim":1015,"clouds":[{"cover":"BKN","base":800},{"cover":"OVC","base":2000}],"obsTime":1778439600},"SBLS":{"icaoId":"SBLS","flightCategory":"VFR","rawOb":"METAR SBLS 101900Z VRB02KT 9999 FEW035 27/15 Q1017","temp":27,"dewp":15,"wdir":"VRB","wspd":2,"visib":"6+","altim":1017,"clouds":[{"cover":"FEW","base":3500}],"obsTime":1778439600},"SBMT":{"icaoId":"SBMT","flightCategory":"IFR","rawOb":"METAR SBMT 101900Z 14006KT 4000 -RA BKN008 OVC013 14/13 Q1019","temp":14,"dewp":13,"wdir":140,"wspd":6,"visib":2.49,"altim":1019,"clouds":[{"cover":"BKN","base":800},{"cover":"OVC","base":1300}],"obsTime":1778439600},"SBTA":{"icaoId":"SBTA","flightCategory":"MVFR","rawOb":"METAR SBTA 101900Z 25007KT 6000 -RA SCT020 SCT060 BKN100 19/16 Q1016","temp":19,"dewp":16,"wdir":250,"wspd":7,"visib":3.73,"altim":1016,"clouds":[{"cover":"SCT","base":2000},{"cover":"SCT","base":6000},{"cover":"BKN","base":10000}],"obsTime":1778439600},"SBST":{"icaoId":"SBST","flightCategory":"LIFR","rawOb":" SBST 101900Z 32006KT 1500 DZ BR BKN007 OVC015 16/16 Q1019","temp":16,"dewp":16,"wdir":320,"wspd":6,"visib":0.93,"altim":1019,"clouds":[{"cover":"BKN","base":700},{"cover":"OVC","base":1500}],"obsTime":1778439600}}}