{"updated":1781217879,"count":83,"data":{"SBNT":{"icaoId":"SBNT","flightCategory":"MVFR","rawOb":"METAR SBNT 112100Z 16015KT 8000 -RA SCT026 BKN040 BKN080 24/22 Q1014","temp":24,"dewp":22,"wdir":160,"wspd":15,"visib":4.97,"altim":1014,"clouds":[{"cover":"SCT","base":2600},{"cover":"BKN","base":4000},{"cover":"BKN","base":8000}],"obsTime":1781211600},"SBAT":{"icaoId":"SBAT","flightCategory":"VFR","rawOb":"METAR SBAT 112100Z 00000KT 9999 FEW030 FEW035TCU 29/22 Q1012","temp":29,"dewp":22,"wdir":0,"wspd":0,"visib":"6+","altim":1012,"clouds":[{"cover":"FEW","base":3000},{"cover":"FEW","base":3500}],"obsTime":1781211600},"SBBE":{"icaoId":"SBBE","flightCategory":"MVFR","rawOb":"METAR SBBE 112100Z 33003KT 9999 BKN025 FEW030TCU 29/25 Q1011","temp":29,"dewp":25,"wdir":330,"wspd":3,"visib":"6+","altim":1011,"clouds":[{"cover":"BKN","base":2500},{"cover":"FEW","base":3000}],"obsTime":1781211600},"SBBR":{"icaoId":"SBBR","flightCategory":"VFR","rawOb":"METAR SBBR 112100Z 16005KT 9999 FEW045 BKN100 23/16 Q1020","temp":23,"dewp":16,"wdir":160,"wspd":5,"visib":"6+","altim":1020,"clouds":[{"cover":"FEW","base":4500},{"cover":"BKN","base":10000}],"obsTime":1781211600},"SBBV":{"icaoId":"SBBV","flightCategory":"VFR","rawOb":"METAR SBBV 112100Z 36002KT 9999 VCSH SCT020 FEW030TCU BKN070 26/25 Q1012","temp":26,"dewp":25,"wdir":360,"wspd":2,"visib":"6+","altim":1012,"clouds":[{"cover":"SCT","base":2000},{"cover":"FEW","base":3000},{"cover":"BKN","base":7000}],"obsTime":1781211600},"SBCF":{"icaoId":"SBCF","flightCategory":"MVFR","rawOb":"METAR SBCF 112100Z 19003KT 8000 FEW040 SCT100 18/16 Q1020","temp":18,"dewp":16,"wdir":190,"wspd":3,"visib":4.97,"altim":1020,"clouds":[{"cover":"FEW","base":4000},{"cover":"SCT","base":10000}],"obsTime":1781211600},"SBCG":{"icaoId":"SBCG","flightCategory":"VFR","rawOb":"METAR SBCG 112100Z 33007KT 9999 SCT040 25/18 Q1013","temp":25,"dewp":18,"wdir":330,"wspd":7,"visib":"6+","altim":1013,"clouds":[{"cover":"SCT","base":4000}],"obsTime":1781211600},"SBCP":{"icaoId":"SBCP","flightCategory":"VFR","rawOb":"METAR SBCP 112100Z 05005KT CAVOK 23/20 Q1016","temp":23,"dewp":20,"wdir":50,"wspd":5,"visib":"6+","altim":1016,"clouds":[],"obsTime":1781211600},"SBCT":{"icaoId":"SBCT","flightCategory":"VFR","rawOb":"METAR SBCT 112100Z 34006KT 320V020 9999 FEW015 SCT020 BKN100 17/15 Q1017","temp":17,"dewp":15,"wdir":340,"wspd":6,"visib":"6+","altim":1017,"clouds":[{"cover":"FEW","base":1500},{"cover":"SCT","base":2000},{"cover":"BKN","base":10000}],"obsTime":1781211600},"SBCZ":{"icaoId":"SBCZ","flightCategory":"VFR","rawOb":"METAR SBCZ 112100Z 33001KT 9999 FEW030 BKN100 28/25 Q1010","temp":28,"dewp":25,"wdir":330,"wspd":1,"visib":"6+","altim":1010,"clouds":[{"cover":"FEW","base":3000},{"cover":"BKN","base":10000}],"obsTime":1781211600},"SBEG":{"icaoId":"SBEG","flightCategory":"VFR","rawOb":"METAR SBEG 112100Z 01005KT 9999 SCT030 30/24 Q1010","temp":30,"dewp":24,"wdir":10,"wspd":5,"visib":"6+","altim":1010,"clouds":[{"cover":"SCT","base":3000}],"obsTime":1781211600},"SBFI":{"icaoId":"SBFI","flightCategory":"MVFR","rawOb":"METAR SBFI 112100Z 05004KT 9999 SCT010 BKN020 FEW030TCU 19/18 Q1011","temp":19,"dewp":18,"wdir":50,"wspd":4,"visib":"6+","altim":1011,"clouds":[{"cover":"SCT","base":1000},{"cover":"BKN","base":2000},{"cover":"FEW","base":3000}],"obsTime":1781211600},"SBFL":{"icaoId":"SBFL","flightCategory":"VFR","rawOb":"METAR SBFL 112100Z 35005KT 9999 FEW013 SCT020 20/18 Q1014","temp":20,"dewp":18,"wdir":350,"wspd":5,"visib":"6+","altim":1014,"clouds":[{"cover":"FEW","base":1300},{"cover":"SCT","base":2000}],"obsTime":1781211600},"SBFZ":{"icaoId":"SBFZ","flightCategory":"VFR","rawOb":"METAR SBFZ 112100Z 09008KT CAVOK 28/22 Q1011","temp":28,"dewp":22,"wdir":90,"wspd":8,"visib":"6+","altim":1011,"clouds":[],"obsTime":1781211600},"SBGL":{"icaoId":"SBGL","flightCategory":"IFR","rawOb":"METAR SBGL 112100Z 02005KT 4000 BR SCT020 BKN080 22/19 Q1016","temp":22,"dewp":19,"wdir":20,"wspd":5,"visib":2.49,"altim":1016,"clouds":[{"cover":"SCT","base":2000},{"cover":"BKN","base":8000}],"obsTime":1781211600},"SBGO":{"icaoId":"SBGO","flightCategory":"VFR","rawOb":"METAR SBGO 112100Z 17003KT 9999 VCSH FEW025 FEW053TCU BKN080 25/18 Q1018","temp":25,"dewp":18,"wdir":170,"wspd":3,"visib":"6+","altim":1018,"clouds":[{"cover":"FEW","base":2500},{"cover":"FEW","base":5300},{"cover":"BKN","base":8000}],"obsTime":1781211600},"SBGR":{"icaoId":"SBGR","flightCategory":"VFR","rawOb":"METAR SBGR 112100Z 29002KT 9999 FEW021 17/15 Q1018","temp":17,"dewp":15,"wdir":290,"wspd":2,"visib":"6+","altim":1018,"clouds":[{"cover":"FEW","base":2100}],"obsTime":1781211600},"SBIL":{"icaoId":"SBIL","flightCategory":"VFR","rawOb":"METAR SBIL 112100Z 13005KT CAVOK 26/21 Q1017","temp":26,"dewp":21,"wdir":130,"wspd":5,"visib":"6+","altim":1017,"clouds":[],"obsTime":1781211600},"SBJU":{"icaoId":"SBJU","flightCategory":"VFR","rawOb":"METAR SBJU 112100Z 19005KT 9999 FEW021 28/17 Q1014","temp":28,"dewp":17,"wdir":190,"wspd":5,"visib":"6+","altim":1014,"clouds":[{"cover":"FEW","base":2100}],"obsTime":1781211600},"SBKP":{"icaoId":"SBKP","flightCategory":"VFR","rawOb":"METAR SBKP 112100Z 03002KT 9999 FEW015 19/17 Q1018","temp":19,"dewp":17,"wdir":30,"wspd":2,"visib":"6+","altim":1018,"clouds":[{"cover":"FEW","base":1500}],"obsTime":1781211600},"SBLO":{"icaoId":"SBLO","flightCategory":"VFR","rawOb":"METAR SBLO 112100Z 05004KT CAVOK 20/18 Q1015","temp":20,"dewp":18,"wdir":50,"wspd":4,"visib":"6+","altim":1015,"clouds":[],"obsTime":1781211600},"SBMA":{"icaoId":"SBMA","flightCategory":"VFR","rawOb":"METAR SBMA 112100Z 05006KT 9999 FEW023 FEW024TCU 32/22 Q1011","temp":32,"dewp":22,"wdir":50,"wspd":6,"visib":"6+","altim":1011,"clouds":[{"cover":"FEW","base":2300},{"cover":"FEW","base":2400}],"obsTime":1781211600},"SBME":{"icaoId":"SBME","flightCategory":"VFR","rawOb":"METAR SBME 112100Z 04009KT 9999 SCT020 BKN080 23/21 Q1015","temp":23,"dewp":21,"wdir":40,"wspd":9,"visib":"6+","altim":1015,"clouds":[{"cover":"SCT","base":2000},{"cover":"BKN","base":8000}],"obsTime":1781211600},"SBMG":{"icaoId":"SBMG","flightCategory":"VFR","rawOb":"METAR SBMG 112100Z 04004KT 9999 FEW023 SCT100 21/18 Q1014","temp":21,"dewp":18,"wdir":40,"wspd":4,"visib":"6+","altim":1014,"clouds":[{"cover":"FEW","base":2300},{"cover":"SCT","base":10000}],"obsTime":1781211600},"SBMK":{"icaoId":"SBMK","flightCategory":"VFR","rawOb":"METAR SBMK 112100Z 31002KT CAVOK 26/16 Q1017","temp":26,"dewp":16,"wdir":310,"wspd":2,"visib":"6+","altim":1017,"clouds":[],"obsTime":1781211600},"SBMO":{"icaoId":"SBMO","flightCategory":"VFR","rawOb":"METAR SBMO 112100Z 18004KT 9999 FEW030 25/22 Q1016","temp":25,"dewp":22,"wdir":180,"wspd":4,"visib":"6+","altim":1016,"clouds":[{"cover":"FEW","base":3000}],"obsTime":1781211600},"SBMQ":{"icaoId":"SBMQ","flightCategory":"VFR","rawOb":"METAR SBMQ 112100Z 06008KT 9999 FEW030 30/25 Q1011","temp":30,"dewp":25,"wdir":60,"wspd":8,"visib":"6+","altim":1011,"clouds":[{"cover":"FEW","base":3000}],"obsTime":1781211600},"SBPA":{"icaoId":"SBPA","flightCategory":"MVFR","rawOb":"METAR SBPA 112100Z 12004KT 110V170 9999 OVC014 17/15 Q1014","temp":17,"dewp":15,"wdir":120,"wspd":4,"visib":"6+","altim":1014,"clouds":[{"cover":"OVC","base":1400}],"obsTime":1781211600},"SBPJ":{"icaoId":"SBPJ","flightCategory":"VFR","rawOb":"METAR SBPJ 112100Z 19004KT CAVOK 30/22 Q1012","temp":30,"dewp":22,"wdir":190,"wspd":4,"visib":"6+","altim":1012,"clouds":[],"obsTime":1781211600},"SBPV":{"icaoId":"SBPV","flightCategory":"VFR","rawOb":"METAR SBPV 112100Z 35003KT 9999 SCT030 30/24 Q1010","temp":30,"dewp":24,"wdir":350,"wspd":3,"visib":"6+","altim":1010,"clouds":[{"cover":"SCT","base":3000}],"obsTime":1781211600},"SBRB":{"icaoId":"SBRB","flightCategory":"VFR","rawOb":"METAR SBRB 112100Z 36009KT 9999 SCT030 30/22 Q1011","temp":30,"dewp":22,"wdir":360,"wspd":9,"visib":"6+","altim":1011,"clouds":[{"cover":"SCT","base":3000}],"obsTime":1781211600},"SBRF":{"icaoId":"SBRF","flightCategory":"VFR","rawOb":"METAR SBRF 112100Z 18007KT 9999 SCT025 26/22 Q1015","temp":26,"dewp":22,"wdir":180,"wspd":7,"visib":"6+","altim":1015,"clouds":[{"cover":"SCT","base":2500}],"obsTime":1781211600},"SBSG":{"icaoId":"SBSG","flightCategory":"VFR","rawOb":"METAR SBSG 112100Z 16009KT 110V200 9999 BKN045 26/21 Q1014","temp":26,"dewp":21,"wdir":160,"wspd":9,"visib":"6+","altim":1014,"clouds":[{"cover":"BKN","base":4500}],"obsTime":1781211600},"SBSL":{"icaoId":"SBSL","flightCategory":"VFR","rawOb":"METAR SBSL 112100Z 05011KT CAVOK 28/24 Q1011","temp":28,"dewp":24,"wdir":50,"wspd":11,"visib":"6+","altim":1011,"clouds":[],"obsTime":1781211600},"SBSN":{"icaoId":"SBSN","flightCategory":"VFR","rawOb":"METAR SBSN 112100Z 09010KT 9999 FEW017 30/25 Q1011","temp":30,"dewp":25,"wdir":90,"wspd":10,"visib":"6+","altim":1011,"clouds":[{"cover":"FEW","base":1700}],"obsTime":1781211600},"SBSP":{"icaoId":"SBSP","flightCategory":"VFR","rawOb":"METAR SBSP 112100Z 01006KT 9999 FEW019 18/15 Q1019","temp":18,"dewp":15,"wdir":10,"wspd":6,"visib":"6+","altim":1019,"clouds":[{"cover":"FEW","base":1900}],"obsTime":1781211600},"SBSV":{"icaoId":"SBSV","flightCategory":"VFR","rawOb":"METAR SBSV 112100Z 14004KT 9999 SCT026 26/20 Q1016","temp":26,"dewp":20,"wdir":140,"wspd":4,"visib":"6+","altim":1016,"clouds":[{"cover":"SCT","base":2600}],"obsTime":1781211600},"SBTE":{"icaoId":"SBTE","flightCategory":"VFR","rawOb":"METAR SBTE 112100Z 12003KT CAVOK 33/19 Q1010","temp":33,"dewp":19,"wdir":120,"wspd":3,"visib":"6+","altim":1010,"clouds":[],"obsTime":1781211600},"SBUL":{"icaoId":"SBUL","flightCategory":"VFR","rawOb":"METAR SBUL 112100Z 13004KT CAVOK 21/15 Q1019","temp":21,"dewp":15,"wdir":130,"wspd":4,"visib":"6+","altim":1019,"clouds":[],"obsTime":1781211600},"SBUR":{"icaoId":"SBUR","flightCategory":"VFR","rawOb":"METAR SBUR 112100Z 05004KT CAVOK 21/15 Q1018","temp":21,"dewp":15,"wdir":50,"wspd":4,"visib":"6+","altim":1018,"clouds":[],"obsTime":1781211600},"SBVT":{"icaoId":"SBVT","flightCategory":"VFR","rawOb":"METAR SBVT 112100Z 04008KT CAVOK 24/20 Q1016","temp":24,"dewp":20,"wdir":40,"wspd":8,"visib":"6+","altim":1016,"clouds":[],"obsTime":1781211600},"SBCB":{"icaoId":"SBCB","flightCategory":"VFR","rawOb":"METAR SBCB 112100Z 19003KT 9000 FEW015 SCT040 OVC070 22/20 Q1016","temp":22,"dewp":20,"wdir":190,"wspd":3,"visib":5.59,"altim":1016,"clouds":[{"cover":"FEW","base":1500},{"cover":"SCT","base":4000},{"cover":"OVC","base":7000}],"obsTime":1781211600},"SBCR":{"icaoId":"SBCR","flightCategory":"VFR","rawOb":"METAR SBCR 112100Z 34003KT 300V030 9999 SCT035 FEW035TCU 28/20 Q1010","temp":28,"dewp":20,"wdir":340,"wspd":3,"visib":"6+","altim":1010,"clouds":[{"cover":"SCT","base":3500},{"cover":"FEW","base":3500}],"obsTime":1781211600},"SBHT":{"icaoId":"SBHT","flightCategory":"VFR","rawOb":"METAR SBHT 112100Z 05002KT 9999 SCT025 SCT030TCU BKN100 27/25 Q1011","temp":27,"dewp":25,"wdir":50,"wspd":2,"visib":"6+","altim":1011,"clouds":[{"cover":"SCT","base":2500},{"cover":"SCT","base":3000},{"cover":"BKN","base":10000}],"obsTime":1781211600},"SBCJ":{"icaoId":"SBCJ","flightCategory":"VFR","rawOb":"METAR SBCJ 112100Z 07002KT 9999 FEW020 25/21 Q1016","temp":25,"dewp":21,"wdir":70,"wspd":2,"visib":"6+","altim":1016,"clouds":[{"cover":"FEW","base":2000}],"obsTime":1781211600},"SBVH":{"icaoId":"SBVH","flightCategory":"VFR","rawOb":"METAR SBVH 112100Z 36007KT 9999 FEW040 27/20 Q1015","temp":27,"dewp":20,"wdir":360,"wspd":7,"visib":"6+","altim":1015,"clouds":[{"cover":"FEW","base":4000}],"obsTime":1781211600},"SBCO":{"icaoId":"SBCO","flightCategory":"VFR","rawOb":"METAR SBCO 112100Z 08002KT 9000 SCT017 BKN036 16/15 Q1015","temp":16,"dewp":15,"wdir":80,"wspd":2,"visib":5.59,"altim":1015,"clouds":[{"cover":"SCT","base":1700},{"cover":"BKN","base":3600}],"obsTime":1781211600},"SBAR":{"icaoId":"SBAR","flightCategory":"VFR","rawOb":"METAR SBAR 112100Z 15005KT 9999 FEW030 26/21 Q1015","temp":26,"dewp":21,"wdir":150,"wspd":5,"visib":"6+","altim":1015,"clouds":[{"cover":"FEW","base":3000}],"obsTime":1781211600},"SBPL":{"icaoId":"SBPL","flightCategory":"VFR","rawOb":"METAR SBPL 112100Z 05002KT CAVOK 28/16 Q1014","temp":28,"dewp":16,"wdir":50,"wspd":2,"visib":"6+","altim":1014,"clouds":[],"obsTime":1781211600},"SBBH":{"icaoId":"SBBH","flightCategory":"VFR","rawOb":"METAR SBBH 112100Z 28002KT CAVOK 18/16 Q1020","temp":18,"dewp":16,"wdir":280,"wspd":2,"visib":"6+","altim":1020,"clouds":[],"obsTime":1781211600},"SBPS":{"icaoId":"SBPS","flightCategory":"VFR","rawOb":"METAR SBPS 112100Z 07008KT 9999 FEW020 24/19 Q1017","temp":24,"dewp":19,"wdir":70,"wspd":8,"visib":"6+","altim":1017,"clouds":[{"cover":"FEW","base":2000}],"obsTime":1781211600},"SBDN":{"icaoId":"SBDN","flightCategory":"VFR","rawOb":"METAR SBDN 112100Z 06003KT CAVOK 22/18 Q1015","temp":22,"dewp":18,"wdir":60,"wspd":3,"visib":"6+","altim":1015,"clouds":[],"obsTime":1781211600},"SBSC":{"icaoId":"SBSC","flightCategory":"MVFR","rawOb":"METAR SBSC 112100Z 04003KT 8000 SCT030 BKN050 20/19 Q1015","temp":20,"dewp":19,"wdir":40,"wspd":3,"visib":4.97,"altim":1015,"clouds":[{"cover":"SCT","base":3000},{"cover":"BKN","base":5000}],"obsTime":1781211600},"SBES":{"icaoId":"SBES","flightCategory":"MVFR","rawOb":"METAR SBES 112100Z VRB02KT 8000 FEW013 SCT040 BKN080 21/// Q1016","temp":null,"dewp":null,"wdir":"VRB","wspd":2,"visib":4.97,"altim":1016,"clouds":[{"cover":"FEW","base":1300},{"cover":"SCT","base":4000},{"cover":"BKN","base":8000}],"obsTime":1781211600},"SBAX":{"icaoId":"SBAX","flightCategory":"VFR","rawOb":"METAR SBAX 112100Z 17002KT CAVOK 19/15 Q1020","temp":19,"dewp":15,"wdir":170,"wspd":2,"visib":"6+","altim":1020,"clouds":[],"obsTime":1781211600},"SBSJ":{"icaoId":"SBSJ","flightCategory":"VFR","rawOb":"METAR SBSJ 112100Z 02001KT 9999 FEW033 18/16 Q1018","temp":18,"dewp":16,"wdir":20,"wspd":1,"visib":"6+","altim":1018,"clouds":[{"cover":"FEW","base":3300}],"obsTime":1781211600},"SBCC":{"icaoId":"SBCC","flightCategory":"VFR","rawOb":"METAR SBCC 112100Z 17004KT 9999 VCSH SCT020 FEW030TCU SCT100 25/22 Q1014","temp":25,"dewp":22,"wdir":170,"wspd":4,"visib":"6+","altim":1014,"clouds":[{"cover":"SCT","base":2000},{"cover":"FEW","base":3000},{"cover":"SCT","base":10000}],"obsTime":1781211600},"SBSM":{"icaoId":"SBSM","flightCategory":"IFR","rawOb":"METAR SBSM 112100Z 13002KT 4000 BR OVC007 14/14 Q1015","temp":14,"dewp":14,"wdir":130,"wspd":2,"visib":2.49,"altim":1015,"clouds":[{"cover":"OVC","base":700}],"obsTime":1781211600},"SBSR":{"icaoId":"SBSR","flightCategory":"VFR","rawOb":"METAR SBSR 112100Z 06005KT 9999 FEW030 BKN080 22/18 Q1016","temp":22,"dewp":18,"wdir":60,"wspd":5,"visib":"6+","altim":1016,"clouds":[{"cover":"FEW","base":3000},{"cover":"BKN","base":8000}],"obsTime":1781211600},"SBIP":{"icaoId":"SBIP","flightCategory":"VFR","rawOb":"METAR SBIP 112100Z AUTO 22002KT CAVOK 21/21 Q1017","temp":21,"dewp":21,"wdir":220,"wspd":2,"visib":"6+","altim":1017,"clouds":[],"obsTime":1781211600},"SBTF":{"icaoId":"SBTF","flightCategory":"VFR","rawOb":"METAR SBTF 112100Z 12003KT 9999 FEW012 30/26 Q1009","temp":30,"dewp":26,"wdir":120,"wspd":3,"visib":"6+","altim":1009,"clouds":[{"cover":"FEW","base":1200}],"obsTime":1781211600},"SBBU":{"icaoId":"SBBU","flightCategory":"VFR","rawOb":"METAR SBBU 112100Z 01004KT CAVOK 22/18 Q1017","temp":22,"dewp":18,"wdir":10,"wspd":4,"visib":"6+","altim":1017,"clouds":[],"obsTime":1781211600},"SBTT":{"icaoId":"SBTT","flightCategory":"VFR","rawOb":"METAR SBTT 112100Z 14005KT 9999 FEW025 BKN070 29/24 Q1011","temp":29,"dewp":24,"wdir":140,"wspd":5,"visib":"6+","altim":1011,"clouds":[{"cover":"FEW","base":2500},{"cover":"BKN","base":7000}],"obsTime":1781211600},"SBKG":{"icaoId":"SBKG","flightCategory":"VFR","rawOb":"METAR SBKG 112100Z 11010KT CAVOK 24/20 Q1017","temp":24,"dewp":20,"wdir":110,"wspd":10,"visib":"6+","altim":1017,"clouds":[],"obsTime":1781211600},"SBOI":{"icaoId":"SBOI","flightCategory":"MVFR","rawOb":"METAR SBOI 112100Z AUTO VRB03KT 9999 -RA OVC017 25/24 Q1012 RERA","temp":25,"dewp":24,"wdir":"VRB","wspd":3,"visib":"6+","altim":1012,"clouds":[{"cover":"OVC","base":1700}],"obsTime":1781211600},"SBUY":{"icaoId":"SBUY","flightCategory":"VFR","rawOb":"METAR SBUY 112100Z 00000KT 9999 FEW025 28/26 Q1009","temp":28,"dewp":26,"wdir":0,"wspd":0,"visib":"6+","altim":1009,"clouds":[{"cover":"FEW","base":2500}],"obsTime":1781211600},"SBPB":{"icaoId":"SBPB","flightCategory":"VFR","rawOb":"METAR SBPB 112100Z 02004KT 9999 FEW020 28/24 Q1011","temp":28,"dewp":24,"wdir":20,"wspd":4,"visib":"6+","altim":1011,"clouds":[{"cover":"FEW","base":2000}],"obsTime":1781211600},"SBCA":{"icaoId":"SBCA","flightCategory":"LIFR","rawOb":"METAR SBCA 112100Z 04010KT 0800 FG OVC001 16/16 Q1014","temp":16,"dewp":16,"wdir":40,"wspd":10,"visib":0.5,"altim":1014,"clouds":[{"cover":"OVC","base":100}],"obsTime":1781211600},"SBPP":{"icaoId":"SBPP","flightCategory":"VFR","rawOb":"METAR SBPP 112100Z 03008KT 9999 SCT025 BKN090 21/18 Q1012","temp":21,"dewp":18,"wdir":30,"wspd":8,"visib":"6+","altim":1012,"clouds":[{"cover":"SCT","base":2500},{"cover":"BKN","base":9000}],"obsTime":1781211600},"SBNM":{"icaoId":"SBNM","flightCategory":"VFR","rawOb":"METAR SBNM 112100Z AUTO 06006KT 9000 -RA NSC 16/16 Q1012","temp":16,"dewp":16,"wdir":60,"wspd":6,"visib":5.59,"altim":1012,"clouds":[],"obsTime":1781211600},"SBAF":{"icaoId":"SBAF","flightCategory":"MVFR","rawOb":"METAR SBAF 112100Z 01004KT 6000 BKN020 BKN050 21/21 Q1016","temp":21,"dewp":21,"wdir":10,"wspd":4,"visib":3.73,"altim":1016,"clouds":[{"cover":"BKN","base":2000},{"cover":"BKN","base":5000}],"obsTime":1781211600},"SBAN":{"icaoId":"SBAN","flightCategory":"VFR","rawOb":"METAR SBAN 112100Z 19006KT 9999 VCSH FEW030 BKN070 BKN100 23/15 Q1021","temp":23,"dewp":15,"wdir":190,"wspd":6,"visib":"6+","altim":1021,"clouds":[{"cover":"FEW","base":3000},{"cover":"BKN","base":7000},{"cover":"BKN","base":10000}],"obsTime":1781211600},"SBJV":{"icaoId":"SBJV","flightCategory":"MVFR","rawOb":"METAR SBJV 112100Z 23003KT 9999 SCT015 BKN025 19/18 Q1015","temp":19,"dewp":18,"wdir":230,"wspd":3,"visib":"6+","altim":1015,"clouds":[{"cover":"SCT","base":1500},{"cover":"BKN","base":2500}],"obsTime":1781211600},"SBLE":{"icaoId":"SBLE","flightCategory":"VFR","rawOb":"METAR SBLE 112100Z AUTO 03004KT CAVOK 23/18 Q1017","temp":23,"dewp":18,"wdir":30,"wspd":4,"visib":"6+","altim":1017,"clouds":[],"obsTime":1781211600},"SBMT":{"icaoId":"SBMT","flightCategory":"VFR","rawOb":"METAR SBMT 112100Z 00000KT 9999 FEW023 SCT083 15/14 Q1018","temp":15,"dewp":14,"wdir":0,"wspd":0,"visib":"6+","altim":1018,"clouds":[{"cover":"FEW","base":2300},{"cover":"SCT","base":8300}],"obsTime":1781211600},"SBJP":{"icaoId":"SBJP","flightCategory":"IFR","rawOb":"METAR SBJP 112100Z 07005KT 040V100 3000 RA BKN021 OVC070 24/24 Q1016","temp":24,"dewp":24,"wdir":70,"wspd":5,"visib":1.86,"altim":1016,"clouds":[{"cover":"BKN","base":2100},{"cover":"OVC","base":7000}],"obsTime":1781211600},"SBTA":{"icaoId":"SBTA","flightCategory":"VFR","rawOb":"METAR SBTA 112100Z VRB02KT 9999 FEW030 SCT100 18/17 Q1017","temp":18,"dewp":17,"wdir":"VRB","wspd":2,"visib":"6+","altim":1017,"clouds":[{"cover":"FEW","base":3000},{"cover":"SCT","base":10000}],"obsTime":1781211600},"SBGW":{"icaoId":"SBGW","flightCategory":"VFR","rawOb":"METAR SBGW 112100Z 05002KT 9999 SCT020 BKN100 18/17 Q1017","temp":18,"dewp":17,"wdir":50,"wspd":2,"visib":"6+","altim":1017,"clouds":[{"cover":"SCT","base":2000},{"cover":"BKN","base":10000}],"obsTime":1781211600},"SBJR":{"icaoId":"SBJR","flightCategory":"MVFR","rawOb":"METAR SBJR 112100Z 03003KT 6000 SCT020 BKN060 22/20 Q1015","temp":22,"dewp":20,"wdir":30,"wspd":3,"visib":3.73,"altim":1015,"clouds":[{"cover":"SCT","base":2000},{"cover":"BKN","base":6000}],"obsTime":1781211600},"SBLS":{"icaoId":"SBLS","flightCategory":"VFR","rawOb":"METAR SBLS 112100Z VRB01KT CAVOK 18/16 Q1020","temp":18,"dewp":16,"wdir":"VRB","wspd":1,"visib":"6+","altim":1020,"clouds":[],"obsTime":1781211600},"SBPF":{"icaoId":"SBPF","flightCategory":"MVFR","rawOb":"METAR SBPF 112100Z 18005KT 9999 -RA BKN015 BKN070 16/15 Q1015","temp":16,"dewp":15,"wdir":180,"wspd":5,"visib":"6+","altim":1015,"clouds":[{"cover":"BKN","base":1500},{"cover":"BKN","base":7000}],"obsTime":1781211600},"SBST":{"icaoId":"SBST","flightCategory":"VFR","rawOb":"METAR SBST 112100Z 18002KT CAVOK 19/19 Q1015","temp":19,"dewp":19,"wdir":180,"wspd":2,"visib":"6+","altim":1015,"clouds":[],"obsTime":1781211600},"SBIH":{"icaoId":"SBIH","flightCategory":"VFR","rawOb":"METAR SBIH 112100Z 05006KT 9999 FEW017 28/24 Q1010","temp":28,"dewp":24,"wdir":50,"wspd":6,"visib":"6+","altim":1010,"clouds":[{"cover":"FEW","base":1700}],"obsTime":1781211600}}}