{"updated":1775238996,"count":83,"data":{"SBLO":{"icaoId":"SBLO","flightCategory":"VFR","rawOb":"METAR SBLO 031600Z 34010KT 9999 VCSH BKN040 FEW050TCU 29/20 Q1016","temp":29,"dewp":20,"wdir":340,"wspd":10,"visib":"6+","altim":1016,"clouds":[{"cover":"BKN","base":4000},{"cover":"FEW","base":5000}],"obsTime":1775232000},"SBSL":{"icaoId":"SBSL","flightCategory":"MVFR","rawOb":"METAR SBSL 031600Z 36009KT 9999 BKN030 SCT100 29/25 Q1011","temp":29,"dewp":25,"wdir":360,"wspd":9,"visib":"6+","altim":1011,"clouds":[{"cover":"BKN","base":3000},{"cover":"SCT","base":10000}],"obsTime":1775232000},"SBME":{"icaoId":"SBME","flightCategory":"VFR","rawOb":"METAR SBME 031600Z 04010KT CAVOK 33/21 Q1014","temp":33,"dewp":21,"wdir":40,"wspd":10,"visib":"6+","altim":1014,"clouds":[],"obsTime":1775232000},"SBAT":{"icaoId":"SBAT","flightCategory":"MVFR","rawOb":"METAR SBAT 031600Z 08005KT 9999 BKN030 32/23 Q1013","temp":32,"dewp":23,"wdir":80,"wspd":5,"visib":"6+","altim":1013,"clouds":[{"cover":"BKN","base":3000}],"obsTime":1775232000},"SBMG":{"icaoId":"SBMG","flightCategory":"VFR","rawOb":"METAR SBMG 031600Z 32009KT 280V360 9999 BKN040 FEW040TCU 31/21 Q1015","temp":31,"dewp":21,"wdir":320,"wspd":9,"visib":"6+","altim":1015,"clouds":[{"cover":"BKN","base":4000},{"cover":"FEW","base":4000}],"obsTime":1775232000},"SBMK":{"icaoId":"SBMK","flightCategory":"VFR","rawOb":"METAR SBMK 031600Z 04006KT 9999 SCT010 28/19 Q1018","temp":28,"dewp":19,"wdir":40,"wspd":6,"visib":"6+","altim":1018,"clouds":[{"cover":"SCT","base":1000}],"obsTime":1775232000},"SBCG":{"icaoId":"SBCG","flightCategory":"VFR","rawOb":"METAR SBCG 031600Z 32005KT 270V360 9999 SCT045 31/19 Q1016","temp":31,"dewp":19,"wdir":320,"wspd":5,"visib":"6+","altim":1016,"clouds":[{"cover":"SCT","base":4500}],"obsTime":1775232000},"SBMO":{"icaoId":"SBMO","flightCategory":"MVFR","rawOb":"METAR SBMO 031600Z 11011KT 080V140 9999 BKN023 31/23 Q1013","temp":31,"dewp":23,"wdir":110,"wspd":11,"visib":"6+","altim":1013,"clouds":[{"cover":"BKN","base":2300}],"obsTime":1775232000},"SBFL":{"icaoId":"SBFL","flightCategory":"VFR","rawOb":"METAR SBFL 031600Z 11013KT 9999 FEW025 29/20 Q1013","temp":29,"dewp":20,"wdir":110,"wspd":13,"visib":"6+","altim":1013,"clouds":[{"cover":"FEW","base":2500}],"obsTime":1775232000},"SBFZ":{"icaoId":"SBFZ","flightCategory":"MVFR","rawOb":"METAR SBFZ 031600Z 10011KT 9999 VCSH BKN025 FEW030TCU 31/24 Q1011","temp":31,"dewp":24,"wdir":100,"wspd":11,"visib":"6+","altim":1011,"clouds":[{"cover":"BKN","base":2500},{"cover":"FEW","base":3000}],"obsTime":1775232000},"SBMQ":{"icaoId":"SBMQ","flightCategory":"VFR","rawOb":"METAR SBMQ 031600Z 07005KT 9999 SCT029 31/24 Q1011","temp":31,"dewp":24,"wdir":70,"wspd":5,"visib":"6+","altim":1011,"clouds":[{"cover":"SCT","base":2900}],"obsTime":1775232000},"SBCP":{"icaoId":"SBCP","flightCategory":"VFR","rawOb":"METAR SBCP 031600Z 01006KT 9999 FEW015 SCT100 33/22 Q1014","temp":33,"dewp":22,"wdir":10,"wspd":6,"visib":"6+","altim":1014,"clouds":[{"cover":"FEW","base":1500},{"cover":"SCT","base":10000}],"obsTime":1775232000},"SBNT":{"icaoId":"SBNT","flightCategory":"MVFR","rawOb":"METAR SBNT 031600Z 12013KT 9999 BKN029 FEW035TCU BKN040 BKN090 31/25 Q1012","temp":31,"dewp":25,"wdir":120,"wspd":13,"visib":"6+","altim":1012,"clouds":[{"cover":"BKN","base":2900},{"cover":"FEW","base":3500},{"cover":"BKN","base":4000},{"cover":"BKN","base":9000}],"obsTime":1775232000},"SBGL":{"icaoId":"SBGL","flightCategory":"VFR","rawOb":"METAR SBGL 031600Z 05005KT CAVOK 32/23 Q1013","temp":32,"dewp":23,"wdir":50,"wspd":5,"visib":"6+","altim":1013,"clouds":[],"obsTime":1775232000},"SBPA":{"icaoId":"SBPA","flightCategory":"VFR","rawOb":"METAR SBPA 031600Z 24004KT 9999 SCT030 29/22 Q1012","temp":29,"dewp":22,"wdir":240,"wspd":4,"visib":"6+","altim":1012,"clouds":[{"cover":"SCT","base":3000}],"obsTime":1775232000},"SBBV":{"icaoId":"SBBV","flightCategory":"MVFR","rawOb":"METAR SBBV 031600Z 11005KT 9999 BKN030 FEW035TCU SCT090 31/22 Q1012","temp":31,"dewp":22,"wdir":110,"wspd":5,"visib":"6+","altim":1012,"clouds":[{"cover":"BKN","base":3000},{"cover":"FEW","base":3500},{"cover":"SCT","base":9000}],"obsTime":1775232000},"SBPJ":{"icaoId":"SBPJ","flightCategory":"VFR","rawOb":"METAR SBPJ 031600Z 10008KT 9999 SCT030 32/23 Q1013","temp":32,"dewp":23,"wdir":100,"wspd":8,"visib":"6+","altim":1013,"clouds":[{"cover":"SCT","base":3000}],"obsTime":1775232000},"SBPV":{"icaoId":"SBPV","flightCategory":"VFR","rawOb":"METAR SBPV 031600Z 02004KT 9999 SCT030 31/23 Q1012","temp":31,"dewp":23,"wdir":20,"wspd":4,"visib":"6+","altim":1012,"clouds":[{"cover":"SCT","base":3000}],"obsTime":1775232000},"SBGO":{"icaoId":"SBGO","flightCategory":"VFR","rawOb":"METAR SBGO 031600Z 04008KT 340V110 9999 SCT040 30/21 Q1018","temp":30,"dewp":21,"wdir":40,"wspd":8,"visib":"6+","altim":1018,"clouds":[{"cover":"SCT","base":4000}],"obsTime":1775232000},"SBBR":{"icaoId":"SBBR","flightCategory":"MVFR","rawOb":"METAR SBBR 031600Z 07007KT 9999 BKN020 BKN100 24/19 Q1021","temp":24,"dewp":19,"wdir":70,"wspd":7,"visib":"6+","altim":1021,"clouds":[{"cover":"BKN","base":2000},{"cover":"BKN","base":10000}],"obsTime":1775232000},"SBRB":{"icaoId":"SBRB","flightCategory":"MVFR","rawOb":"METAR SBRB 031600Z 34005KT 310V060 9999 VCSH FEW006 BKN017 FEW036TCU BKN100 28/23 Q1014","temp":28,"dewp":23,"wdir":340,"wspd":5,"visib":"6+","altim":1014,"clouds":[{"cover":"FEW","base":600},{"cover":"BKN","base":1700},{"cover":"FEW","base":3600},{"cover":"BKN","base":10000}],"obsTime":1775232000},"SBRF":{"icaoId":"SBRF","flightCategory":"VFR","rawOb":"METAR SBRF 031600Z 10010KT 060V150 9999 SCT025 SCT070 31/24 Q1012","temp":31,"dewp":24,"wdir":100,"wspd":10,"visib":"6+","altim":1012,"clouds":[{"cover":"SCT","base":2500},{"cover":"SCT","base":7000}],"obsTime":1775232000},"SBGR":{"icaoId":"SBGR","flightCategory":"VFR","rawOb":"METAR SBGR 031600Z 29008KT 9999 BKN040 29/20 Q1018","temp":29,"dewp":20,"wdir":290,"wspd":8,"visib":"6+","altim":1018,"clouds":[{"cover":"BKN","base":4000}],"obsTime":1775232000},"SBCR":{"icaoId":"SBCR","flightCategory":"VFR","rawOb":"METAR SBCR 031600Z 34005KT 280V070 9999 FEW035 33/24 Q1013","temp":33,"dewp":24,"wdir":340,"wspd":5,"visib":"6+","altim":1013,"clouds":[{"cover":"FEW","base":3500}],"obsTime":1775232000},"SBSG":{"icaoId":"SBSG","flightCategory":"VFR","rawOb":"METAR SBSG 031600Z 11011KT 080V160 9999 SCT027 FEW030TCU 30/24 Q1012","temp":30,"dewp":24,"wdir":110,"wspd":11,"visib":"6+","altim":1012,"clouds":[{"cover":"SCT","base":2700},{"cover":"FEW","base":3000}],"obsTime":1775232000},"SBCT":{"icaoId":"SBCT","flightCategory":"VFR","rawOb":"METAR SBCT 031600Z 32010KT 250V350 9999 SCT035 28/17 Q1018","temp":28,"dewp":17,"wdir":320,"wspd":10,"visib":"6+","altim":1018,"clouds":[{"cover":"SCT","base":3500}],"obsTime":1775232000},"SBHT":{"icaoId":"SBHT","flightCategory":"MVFR","rawOb":"METAR SBHT 031600Z 10006KT 9999 BKN030 30/23 Q1012","temp":30,"dewp":23,"wdir":100,"wspd":6,"visib":"6+","altim":1012,"clouds":[{"cover":"BKN","base":3000}],"obsTime":1775232000},"SBSN":{"icaoId":"SBSN","flightCategory":"MVFR","rawOb":"METAR SBSN 031600Z 05008KT 9999 BKN020 FEW023TCU 30/25 Q1012","temp":30,"dewp":25,"wdir":50,"wspd":8,"visib":"6+","altim":1012,"clouds":[{"cover":"BKN","base":2000},{"cover":"FEW","base":2300}],"obsTime":1775232000},"SBIL":{"icaoId":"SBIL","flightCategory":"MVFR","rawOb":"METAR SBIL 031600Z 16007KT 120V200 8000 -RA BKN020 FEW025TCU 28/25 Q1015","temp":28,"dewp":25,"wdir":160,"wspd":7,"visib":4.97,"altim":1015,"clouds":[{"cover":"BKN","base":2000},{"cover":"FEW","base":2500}],"obsTime":1775232000},"SBSP":{"icaoId":"SBSP","flightCategory":"VFR","rawOb":"METAR SBSP 031600Z 31010KT 9999 SCT040 29/18 Q1019","temp":29,"dewp":18,"wdir":310,"wspd":10,"visib":"6+","altim":1019,"clouds":[{"cover":"SCT","base":4000}],"obsTime":1775232000},"SBSV":{"icaoId":"SBSV","flightCategory":"VFR","rawOb":"METAR SBSV 031600Z 12007KT 070V150 9999 VCSH SCT025 FEW026TCU BKN060 BKN100 29/23 Q1014","temp":29,"dewp":23,"wdir":120,"wspd":7,"visib":"6+","altim":1014,"clouds":[{"cover":"SCT","base":2500},{"cover":"FEW","base":2600},{"cover":"BKN","base":6000},{"cover":"BKN","base":10000}],"obsTime":1775232000},"SBCB":{"icaoId":"SBCB","flightCategory":"VFR","rawOb":"METAR SBCB 031600Z 09007KT 9999 SCT020 SCT060 31/24 Q1014","temp":31,"dewp":24,"wdir":90,"wspd":7,"visib":"6+","altim":1014,"clouds":[{"cover":"SCT","base":2000},{"cover":"SCT","base":6000}],"obsTime":1775232000},"SBTE":{"icaoId":"SBTE","flightCategory":"VFR","rawOb":"METAR SBTE 031600Z 19004KT 100V230 9999 SCT020 30/24 Q1012","temp":30,"dewp":24,"wdir":190,"wspd":4,"visib":"6+","altim":1012,"clouds":[{"cover":"SCT","base":2000}],"obsTime":1775232000},"SBJU":{"icaoId":"SBJU","flightCategory":"MVFR","rawOb":"METAR SBJU 031600Z 00000KT 9999 BKN022 30/23 Q1014","temp":30,"dewp":23,"wdir":0,"wspd":0,"visib":"6+","altim":1014,"clouds":[{"cover":"BKN","base":2200}],"obsTime":1775232000},"SBBE":{"icaoId":"SBBE","flightCategory":"VFR","rawOb":"METAR SBBE 031600Z 09008KT 9999 SCT041 32/22 Q1012","temp":32,"dewp":22,"wdir":90,"wspd":8,"visib":"6+","altim":1012,"clouds":[{"cover":"SCT","base":4100}],"obsTime":1775232000},"SBUL":{"icaoId":"SBUL","flightCategory":"VFR","rawOb":"METAR SBUL 031600Z 06008KT 010V100 9999 SCT030 BKN100 25/19 Q1020","temp":25,"dewp":19,"wdir":60,"wspd":8,"visib":"6+","altim":1020,"clouds":[{"cover":"SCT","base":3000},{"cover":"BKN","base":10000}],"obsTime":1775232000},"SBUR":{"icaoId":"SBUR","flightCategory":"VFR","rawOb":"METAR SBUR 031600Z 36004KT 9999 FEW020 28/20 Q1019","temp":28,"dewp":20,"wdir":360,"wspd":4,"visib":"6+","altim":1019,"clouds":[{"cover":"FEW","base":2000}],"obsTime":1775232000},"SBCZ":{"icaoId":"SBCZ","flightCategory":"MVFR","rawOb":"METAR SBCZ 031600Z 15010KT 9999 BKN020 28/24 Q1014","temp":28,"dewp":24,"wdir":150,"wspd":10,"visib":"6+","altim":1014,"clouds":[{"cover":"BKN","base":2000}],"obsTime":1775232000},"SBVT":{"icaoId":"SBVT","flightCategory":"VFR","rawOb":"METAR SBVT 031600Z 07013KT 9999 FEW045 30/24 Q1015","temp":30,"dewp":24,"wdir":70,"wspd":13,"visib":"6+","altim":1015,"clouds":[{"cover":"FEW","base":4500}],"obsTime":1775232000},"SBKP":{"icaoId":"SBKP","flightCategory":"VFR","rawOb":"METAR SBKP 031600Z 33006KT 270V010 9999 BKN035 29/20 Q1018","temp":29,"dewp":20,"wdir":330,"wspd":6,"visib":"6+","altim":1018,"clouds":[{"cover":"BKN","base":3500}],"obsTime":1775232000},"SBCF":{"icaoId":"SBCF","flightCategory":"VFR","rawOb":"METAR SBCF 031600Z 35004KT 310V120 9999 BKN040 SCT100 28/19 Q1020","temp":28,"dewp":19,"wdir":350,"wspd":4,"visib":"6+","altim":1020,"clouds":[{"cover":"BKN","base":4000},{"cover":"SCT","base":10000}],"obsTime":1775232000},"SBMA":{"icaoId":"SBMA","flightCategory":"MVFR","rawOb":"METAR SBMA 031600Z 30004KT 9999 BKN023 BKN100 30/23 Q1012","temp":30,"dewp":23,"wdir":300,"wspd":4,"visib":"6+","altim":1012,"clouds":[{"cover":"BKN","base":2300},{"cover":"BKN","base":10000}],"obsTime":1775232000},"SBFI":{"icaoId":"SBFI","flightCategory":"VFR","rawOb":"METAR SBFI 031600Z 32004KT 9999 SCT040 31/23 Q1014","temp":31,"dewp":23,"wdir":320,"wspd":4,"visib":"6+","altim":1014,"clouds":[{"cover":"SCT","base":4000}],"obsTime":1775232000},"SBEG":{"icaoId":"SBEG","flightCategory":"VFR","rawOb":"METAR SBEG 031600Z 12007KT 9999 SCT030 32/24 Q1011","temp":32,"dewp":24,"wdir":120,"wspd":7,"visib":"6+","altim":1011,"clouds":[{"cover":"SCT","base":3000}],"obsTime":1775232000},"SBOI":{"icaoId":"SBOI","flightCategory":"VFR","rawOb":"METAR SBOI 031600Z AUTO 15004KT 100V200 9999 FEW039 31/24 Q1011","temp":31,"dewp":24,"wdir":150,"wspd":4,"visib":"6+","altim":1011,"clouds":[{"cover":"FEW","base":3900}],"obsTime":1775232000},"SBCJ":{"icaoId":"SBCJ","flightCategory":"MVFR","rawOb":"METAR SBCJ 031600Z 12008KT 9999 BKN019 26/21 Q1017","temp":26,"dewp":21,"wdir":120,"wspd":8,"visib":"6+","altim":1017,"clouds":[{"cover":"BKN","base":1900}],"obsTime":1775232000},"SBAR":{"icaoId":"SBAR","flightCategory":"MVFR","rawOb":"METAR SBAR 031600Z 11006KT 080V160 9999 BKN023 30/24 Q1013","temp":30,"dewp":24,"wdir":110,"wspd":6,"visib":"6+","altim":1013,"clouds":[{"cover":"BKN","base":2300}],"obsTime":1775232000},"SBPB":{"icaoId":"SBPB","flightCategory":"VFR","rawOb":"METAR SBPB 031600Z 07006KT 9999 SCT020 30/26 Q1011","temp":30,"dewp":26,"wdir":70,"wspd":6,"visib":"6+","altim":1011,"clouds":[{"cover":"SCT","base":2000}],"obsTime":1775232000},"SBPL":{"icaoId":"SBPL","flightCategory":"MVFR","rawOb":"METAR SBPL 031600Z 10004KT 9999 BKN025 30/22 Q1015","temp":30,"dewp":22,"wdir":100,"wspd":4,"visib":"6+","altim":1015,"clouds":[{"cover":"BKN","base":2500}],"obsTime":1775232000},"SBBQ":{"icaoId":"SBBQ","flightCategory":"MVFR","rawOb":"METAR SBBQ 031600Z 23004KT 9999 BKN030 25/18 Q1023","temp":25,"dewp":18,"wdir":230,"wspd":4,"visib":"6+","altim":1023,"clouds":[{"cover":"BKN","base":3000}],"obsTime":1775232000},"SBCO":{"icaoId":"SBCO","flightCategory":"VFR","rawOb":"METAR SBCO 031600Z 13003KT 030V180 9999 SCT033 29/21 Q1013","temp":29,"dewp":21,"wdir":130,"wspd":3,"visib":"6+","altim":1013,"clouds":[{"cover":"SCT","base":3300}],"obsTime":1775232000},"SBPP":{"icaoId":"SBPP","flightCategory":"VFR","rawOb":"METAR SBPP 031600Z 31009KT 9999 SCT020 29/21 Q1017","temp":29,"dewp":21,"wdir":310,"wspd":9,"visib":"6+","altim":1017,"clouds":[{"cover":"SCT","base":2000}],"obsTime":1775232000},"SBDN":{"icaoId":"SBDN","flightCategory":"VFR","rawOb":"METAR SBDN 031600Z 02005KT 9999 SCT035 31/21 Q1016","temp":31,"dewp":21,"wdir":20,"wspd":5,"visib":"6+","altim":1016,"clouds":[{"cover":"SCT","base":3500}],"obsTime":1775232000},"SBPS":{"icaoId":"SBPS","flightCategory":"VFR","rawOb":"METAR SBPS 031600Z 16004KT 9999 FEW030 BKN100 27/24 Q1016","temp":27,"dewp":24,"wdir":160,"wspd":4,"visib":"6+","altim":1016,"clouds":[{"cover":"FEW","base":3000},{"cover":"BKN","base":10000}],"obsTime":1775232000},"SBBH":{"icaoId":"SBBH","flightCategory":"VFR","rawOb":"METAR SBBH 031600Z 08003KT 9999 BKN040 28/18 Q1019","temp":28,"dewp":18,"wdir":80,"wspd":3,"visib":"6+","altim":1019,"clouds":[{"cover":"BKN","base":4000}],"obsTime":1775232000},"SBSC":{"icaoId":"SBSC","flightCategory":"VFR","rawOb":"METAR SBSC 031600Z 01007KT CAVOK 34/24 Q1013","temp":34,"dewp":24,"wdir":10,"wspd":7,"visib":"6+","altim":1013,"clouds":[],"obsTime":1775232000},"SBSJ":{"icaoId":"SBSJ","flightCategory":"VFR","rawOb":"METAR SBSJ 031600Z VRB05KT 9999 SCT040 29/20 Q1017","temp":29,"dewp":20,"wdir":"VRB","wspd":5,"visib":"6+","altim":1017,"clouds":[{"cover":"SCT","base":4000}],"obsTime":1775232000},"SBES":{"icaoId":"SBES","flightCategory":"VFR","rawOb":"METAR SBES 031600Z 04006KT 350V080 CAVOK 30/// Q1014","temp":null,"dewp":null,"wdir":40,"wspd":6,"visib":"6+","altim":1014,"clouds":[],"obsTime":1775232000},"SBBU":{"icaoId":"SBBU","flightCategory":"VFR","rawOb":"METAR SBBU 031600Z 02007KT 9999 BKN040 31/22 Q1017","temp":31,"dewp":22,"wdir":20,"wspd":7,"visib":"6+","altim":1017,"clouds":[{"cover":"BKN","base":4000}],"obsTime":1775232000},"SBSM":{"icaoId":"SBSM","flightCategory":"VFR","rawOb":"METAR SBSM 031600Z VRB04KT 9999 SCT030 30/22 Q1013","temp":30,"dewp":22,"wdir":"VRB","wspd":4,"visib":"6+","altim":1013,"clouds":[{"cover":"SCT","base":3000}],"obsTime":1775232000},"SBGM":{"icaoId":"SBGM","flightCategory":"VFR","rawOb":"METAR SBGM 031600Z 33004KT 270V020 9999 BKN043 31/19 Q1012","temp":31,"dewp":19,"wdir":330,"wspd":4,"visib":"6+","altim":1012,"clouds":[{"cover":"BKN","base":4300}],"obsTime":1775232000},"SBSR":{"icaoId":"SBSR","flightCategory":"VFR","rawOb":"METAR SBSR 031600Z 32003KT 240V020 9999 FEW035 30/19 Q1017","temp":30,"dewp":19,"wdir":320,"wspd":3,"visib":"6+","altim":1017,"clouds":[{"cover":"FEW","base":3500}],"obsTime":1775232000},"SBCA":{"icaoId":"SBCA","flightCategory":"VFR","rawOb":"METAR SBCA 031700Z 32007KT 9999 BKN035 29/17 Q1018","temp":29,"dewp":17,"wdir":320,"wspd":7,"visib":"6+","altim":1018,"clouds":[{"cover":"BKN","base":3500}],"obsTime":1775235600},"SBTF":{"icaoId":"SBTF","flightCategory":"VFR","rawOb":"METAR SBTF 031600Z 02005KT 9999 SCT018 32/26 Q1011","temp":32,"dewp":26,"wdir":20,"wspd":5,"visib":"6+","altim":1011,"clouds":[{"cover":"SCT","base":1800}],"obsTime":1775232000},"SBCC":{"icaoId":"SBCC","flightCategory":"MVFR","rawOb":"METAR SBCC 031600Z 07009KT 9999 BKN020 FEW025TCU SCT100 29/20 Q1015","temp":29,"dewp":20,"wdir":70,"wspd":9,"visib":"6+","altim":1015,"clouds":[{"cover":"BKN","base":2000},{"cover":"FEW","base":2500},{"cover":"SCT","base":10000}],"obsTime":1775232000},"SBTT":{"icaoId":"SBTT","flightCategory":"MVFR","rawOb":"METAR SBTT 031600Z 00000KT 5000 -RA BKN014 BKN070 24/21 Q1014","temp":24,"dewp":21,"wdir":0,"wspd":0,"visib":3.11,"altim":1014,"clouds":[{"cover":"BKN","base":1400},{"cover":"BKN","base":7000}],"obsTime":1775232000},"SBIP":{"icaoId":"SBIP","flightCategory":"VFR","rawOb":"METAR SBIP 031600Z AUTO 03005KT 340V100 9999 FEW038 31/20 Q1017","temp":31,"dewp":20,"wdir":30,"wspd":5,"visib":"6+","altim":1017,"clouds":[{"cover":"FEW","base":3800}],"obsTime":1775232000},"SBUY":{"icaoId":"SBUY","flightCategory":"VFR","rawOb":"METAR SBUY 031600Z 21007KT 9999 SCT020 SCT090 31/26 Q1011","temp":31,"dewp":26,"wdir":210,"wspd":7,"visib":"6+","altim":1011,"clouds":[{"cover":"SCT","base":2000},{"cover":"SCT","base":9000}],"obsTime":1775232000},"SBKG":{"icaoId":"SBKG","flightCategory":"VFR","rawOb":"METAR SBKG 031600Z 15006KT 9999 SCT030 30/20 Q1014","temp":30,"dewp":20,"wdir":150,"wspd":6,"visib":"6+","altim":1014,"clouds":[{"cover":"SCT","base":3000}],"obsTime":1775232000},"SBVH":{"icaoId":"SBVH","flightCategory":"VFR","rawOb":"METAR SBVH 031600Z 06006KT 9999 FEW019 27/22 Q1016","temp":27,"dewp":22,"wdir":60,"wspd":6,"visib":"6+","altim":1016,"clouds":[{"cover":"FEW","base":1900}],"obsTime":1775232000},"SBAX":{"icaoId":"SBAX","flightCategory":"MVFR","rawOb":"METAR SBAX 031600Z AUTO 01003KT 300V110 9999 BKN026 26/19 Q1020","temp":26,"dewp":19,"wdir":10,"wspd":3,"visib":"6+","altim":1020,"clouds":[{"cover":"BKN","base":2600}],"obsTime":1775232000},"SBJR":{"icaoId":"SBJR","flightCategory":"VFR","rawOb":"METAR SBJR 031600Z 35004KT CAVOK 36/23 Q1012","temp":36,"dewp":23,"wdir":350,"wspd":4,"visib":"6+","altim":1012,"clouds":[],"obsTime":1775232000},"SBLE":{"icaoId":"SBLE","flightCategory":"VFR","rawOb":"METAR SBLE 031600Z AUTO 23004KT 170V280 9999 FEW026 27/23 Q1017","temp":27,"dewp":23,"wdir":230,"wspd":4,"visib":"6+","altim":1017,"clouds":[{"cover":"FEW","base":2600}],"obsTime":1775232000},"SBLS":{"icaoId":"SBLS","flightCategory":"VFR","rawOb":"METAR SBLS 031600Z VRB02KT 9999 BKN036 28/19 Q1019","temp":28,"dewp":19,"wdir":"VRB","wspd":2,"visib":"6+","altim":1019,"clouds":[{"cover":"BKN","base":3600}],"obsTime":1775232000},"SBJV":{"icaoId":"SBJV","flightCategory":"VFR","rawOb":"METAR SBJV 031600Z 13007KT 9999 FEW040 30/25 Q1012","temp":30,"dewp":25,"wdir":130,"wspd":7,"visib":"6+","altim":1012,"clouds":[{"cover":"FEW","base":4000}],"obsTime":1775232000},"SBMT":{"icaoId":"SBMT","flightCategory":"VFR","rawOb":"METAR SBMT 031600Z 30010KT 270V360 9999 SCT033 28/19 Q1018","temp":28,"dewp":19,"wdir":300,"wspd":10,"visib":"6+","altim":1018,"clouds":[{"cover":"SCT","base":3300}],"obsTime":1775232000},"SBAN":{"icaoId":"SBAN","flightCategory":"MVFR","rawOb":"METAR SBAN 031600Z 04006KT 9999 BKN018 SCT100 26/19 Q1021","temp":26,"dewp":19,"wdir":40,"wspd":6,"visib":"6+","altim":1021,"clouds":[{"cover":"BKN","base":1800},{"cover":"SCT","base":10000}],"obsTime":1775232000},"SBST":{"icaoId":"SBST","flightCategory":"VFR","rawOb":"METAR SBST 031600Z 17007KT CAVOK 30/25 Q1012","temp":30,"dewp":25,"wdir":170,"wspd":7,"visib":"6+","altim":1012,"clouds":[],"obsTime":1775232000},"SBAF":{"icaoId":"SBAF","flightCategory":"VFR","rawOb":"METAR SBAF 031600Z 34004KT 9999 FEW030 33/22 Q1013","temp":33,"dewp":22,"wdir":340,"wspd":4,"visib":"6+","altim":1013,"clouds":[{"cover":"FEW","base":3000}],"obsTime":1775232000},"SBTA":{"icaoId":"SBTA","flightCategory":"VFR","rawOb":"METAR SBTA 031600Z 05007KT 340V080 9999 FEW030 SCT100 30/19 Q1016","temp":30,"dewp":19,"wdir":50,"wspd":7,"visib":"6+","altim":1016,"clouds":[{"cover":"FEW","base":3000},{"cover":"SCT","base":10000}],"obsTime":1775232000},"SBJP":{"icaoId":"SBJP","flightCategory":"VFR","rawOb":"METAR SBJP 031600Z 09012KT 9999 SCT020 31/23 Q1012","temp":31,"dewp":23,"wdir":90,"wspd":12,"visib":"6+","altim":1012,"clouds":[{"cover":"SCT","base":2000}],"obsTime":1775232000},"SBGW":{"icaoId":"SBGW","flightCategory":"VFR","rawOb":"METAR SBGW 031600Z VRB02KT 9999 SCT030 BKN100 30/18 Q1016","temp":30,"dewp":18,"wdir":"VRB","wspd":2,"visib":"6+","altim":1016,"clouds":[{"cover":"SCT","base":3000},{"cover":"BKN","base":10000}],"obsTime":1775232000},"SBIH":{"icaoId":"SBIH","flightCategory":"VFR","rawOb":"METAR SBIH 031600Z 07004KT 9999 SCT020 FEW025TCU 31/24 Q1011","temp":31,"dewp":24,"wdir":70,"wspd":4,"visib":"6+","altim":1011,"clouds":[{"cover":"SCT","base":2000},{"cover":"FEW","base":2500}],"obsTime":1775232000}}}