{"updated":1778343159,"count":85,"data":{"SBCT":{"icaoId":"SBCT","flightCategory":"IFR","rawOb":"SPECI SBCT 091420Z 04011KT 8000 -DZ BKN007 OVC013 17/17 Q1016","temp":17,"dewp":17,"wdir":40,"wspd":11,"visib":4.97,"altim":1016,"clouds":[{"cover":"BKN","base":700},{"cover":"OVC","base":1300}],"obsTime":1778336400},"SBMO":{"icaoId":"SBMO","flightCategory":"MVFR","rawOb":"METAR SBMO 091500Z 11013KT 9000 VCSH FEW011 SCT014 BKN024 27/26 Q1013","temp":27,"dewp":26,"wdir":110,"wspd":13,"visib":5.59,"altim":1013,"clouds":[{"cover":"FEW","base":1100},{"cover":"SCT","base":1400},{"cover":"BKN","base":2400}],"obsTime":1778338800},"SBBE":{"icaoId":"SBBE","flightCategory":"VFR","rawOb":"METAR SBBE 091500Z 16006KT 9999 SCT030 BKN080 30/24 Q1012","temp":30,"dewp":24,"wdir":160,"wspd":6,"visib":"6+","altim":1012,"clouds":[{"cover":"SCT","base":3000},{"cover":"BKN","base":8000}],"obsTime":1778338800},"SBBR":{"icaoId":"SBBR","flightCategory":"VFR","rawOb":"METAR SBBR 091500Z 07005KT 010V120 CAVOK 27/14 Q1021","temp":27,"dewp":14,"wdir":70,"wspd":5,"visib":"6+","altim":1021,"clouds":[],"obsTime":1778338800},"SBVT":{"icaoId":"SBVT","flightCategory":"VFR","rawOb":"METAR SBVT 091500Z 03010KT 9999 SCT028 BKN045 28/23 Q1017","temp":28,"dewp":23,"wdir":30,"wspd":10,"visib":"6+","altim":1017,"clouds":[{"cover":"SCT","base":2800},{"cover":"BKN","base":4500}],"obsTime":1778338800},"SBAT":{"icaoId":"SBAT","flightCategory":"MVFR","rawOb":"METAR SBAT 091500Z 09008KT 9999 BKN030 31/23 Q1014","temp":31,"dewp":23,"wdir":90,"wspd":8,"visib":"6+","altim":1014,"clouds":[{"cover":"BKN","base":3000}],"obsTime":1778338800},"SBBV":{"icaoId":"SBBV","flightCategory":"VFR","rawOb":"METAR SBBV 091500Z 08015KT 9999 SCT035 30/21 Q1013","temp":30,"dewp":21,"wdir":80,"wspd":15,"visib":"6+","altim":1013,"clouds":[{"cover":"SCT","base":3500}],"obsTime":1778338800},"SBCB":{"icaoId":"SBCB","flightCategory":"VFR","rawOb":"METAR SBCB 091500Z 05018KT CAVOK 30/21 Q1014","temp":30,"dewp":21,"wdir":50,"wspd":18,"visib":"6+","altim":1014,"clouds":[],"obsTime":1778338800},"SBCF":{"icaoId":"SBCF","flightCategory":"VFR","rawOb":"METAR SBCF 091500Z 06009KT 9999 SCT040 27/16 Q1021","temp":27,"dewp":16,"wdir":60,"wspd":9,"visib":"6+","altim":1021,"clouds":[{"cover":"SCT","base":4000}],"obsTime":1778338800},"SBCG":{"icaoId":"SBCG","flightCategory":"IFR","rawOb":"SPECI SBCG 091430Z 16003KT 7000 BKN005 BKN030 FEW040TCU 18/16 Q1015","temp":18,"dewp":16,"wdir":160,"wspd":3,"visib":4.35,"altim":1015,"clouds":[{"cover":"BKN","base":500},{"cover":"BKN","base":3000},{"cover":"FEW","base":4000}],"obsTime":1778337000},"SBCP":{"icaoId":"SBCP","flightCategory":"MVFR","rawOb":"METAR SBCP 091500Z 06009KT 9999 BKN020 32/22 Q1015","temp":32,"dewp":22,"wdir":60,"wspd":9,"visib":"6+","altim":1015,"clouds":[{"cover":"BKN","base":2000}],"obsTime":1778338800},"SBCR":{"icaoId":"SBCR","flightCategory":"IFR","rawOb":"METAR SBCR 091500Z 22009KT 190V250 7000 -TSRA BKN005 FEW025CB 18/17 Q1015","temp":18,"dewp":17,"wdir":220,"wspd":9,"visib":4.35,"altim":1015,"clouds":[{"cover":"BKN","base":500},{"cover":"FEW","base":2500}],"obsTime":1778338800},"SBCZ":{"icaoId":"SBCZ","flightCategory":"VFR","rawOb":"METAR SBCZ 091500Z 30005KT 9999 SCT020 BKN100 28/24 Q1013","temp":28,"dewp":24,"wdir":300,"wspd":5,"visib":"6+","altim":1013,"clouds":[{"cover":"SCT","base":2000},{"cover":"BKN","base":10000}],"obsTime":1778338800},"SBEG":{"icaoId":"SBEG","flightCategory":"MVFR","rawOb":"METAR SBEG 091500Z 08006KT 9999 BKN025 30/24 Q1013","temp":30,"dewp":24,"wdir":80,"wspd":6,"visib":"6+","altim":1013,"clouds":[{"cover":"BKN","base":2500}],"obsTime":1778338800},"SBFI":{"icaoId":"SBFI","flightCategory":"VFR","rawOb":"METAR SBFI 091500Z 20006KT 9999 FEW030 BKN080 13/08 Q1021","temp":13,"dewp":8,"wdir":200,"wspd":6,"visib":"6+","altim":1021,"clouds":[{"cover":"FEW","base":3000},{"cover":"BKN","base":8000}],"obsTime":1778338800},"SBFL":{"icaoId":"SBFL","flightCategory":"IFR","rawOb":"SPECI SBFL 091434Z 19009KT 4000 SHRA BKN040 BKN080 17/14 Q1016","temp":17,"dewp":14,"wdir":190,"wspd":9,"visib":2.49,"altim":1016,"clouds":[{"cover":"BKN","base":4000},{"cover":"BKN","base":8000}],"obsTime":1778337240},"SBFZ":{"icaoId":"SBFZ","flightCategory":"MVFR","rawOb":"METAR SBFZ 091500Z 09010KT 9999 VCSH BKN023 FEW030TCU BKN080 28/25 Q1011","temp":28,"dewp":25,"wdir":90,"wspd":10,"visib":"6+","altim":1011,"clouds":[{"cover":"BKN","base":2300},{"cover":"FEW","base":3000},{"cover":"BKN","base":8000}],"obsTime":1778338800},"SBGL":{"icaoId":"SBGL","flightCategory":"VFR","rawOb":"METAR SBGL 091500Z 02010KT CAVOK 34/18 Q1013","temp":34,"dewp":18,"wdir":20,"wspd":10,"visib":"6+","altim":1013,"clouds":[],"obsTime":1778338800},"SBGO":{"icaoId":"SBGO","flightCategory":"VFR","rawOb":"METAR SBGO 091500Z 03008KT CAVOK 30/17 Q1019","temp":30,"dewp":17,"wdir":30,"wspd":8,"visib":"6+","altim":1019,"clouds":[],"obsTime":1778338800},"SBGR":{"icaoId":"SBGR","flightCategory":"VFR","rawOb":"METAR SBGR 091500Z 31005KT CAVOK 27/18 Q1018","temp":27,"dewp":18,"wdir":310,"wspd":5,"visib":"6+","altim":1018,"clouds":[],"obsTime":1778338800},"SBHT":{"icaoId":"SBHT","flightCategory":"MVFR","rawOb":"METAR SBHT 091500Z 15003KT 9999 BKN018 BKN080 29/23 Q1013","temp":29,"dewp":23,"wdir":150,"wspd":3,"visib":"6+","altim":1013,"clouds":[{"cover":"BKN","base":1800},{"cover":"BKN","base":8000}],"obsTime":1778338800},"SBIL":{"icaoId":"SBIL","flightCategory":"VFR","rawOb":"METAR SBIL 091500Z 15007KT 9999 SCT023 30/24 Q1017","temp":30,"dewp":24,"wdir":150,"wspd":7,"visib":"6+","altim":1017,"clouds":[{"cover":"SCT","base":2300}],"obsTime":1778338800},"SBJU":{"icaoId":"SBJU","flightCategory":"VFR","rawOb":"METAR SBJU 091500Z 18007KT 9999 SCT022 29/22 Q1015","temp":29,"dewp":22,"wdir":180,"wspd":7,"visib":"6+","altim":1015,"clouds":[{"cover":"SCT","base":2200}],"obsTime":1778338800},"SBKP":{"icaoId":"SBKP","flightCategory":"VFR","rawOb":"METAR SBKP 091500Z 36010KT 9999 SCT045 SCT080 27/17 Q1017","temp":27,"dewp":17,"wdir":360,"wspd":10,"visib":"6+","altim":1017,"clouds":[{"cover":"SCT","base":4500},{"cover":"SCT","base":8000}],"obsTime":1778338800},"SBLO":{"icaoId":"SBLO","flightCategory":"LIFR","rawOb":"METAR SBLO 091500Z 03005KT 3000 -RA BKN002 SCT040 OVC090 18/18 Q1017","temp":18,"dewp":18,"wdir":30,"wspd":5,"visib":1.86,"altim":1017,"clouds":[{"cover":"BKN","base":200},{"cover":"SCT","base":4000},{"cover":"OVC","base":9000}],"obsTime":1778338800},"SBMA":{"icaoId":"SBMA","flightCategory":"VFR","rawOb":"METAR SBMA 091500Z 35002KT 9999 FEW030 BKN100 31/24 Q1013","temp":31,"dewp":24,"wdir":350,"wspd":2,"visib":"6+","altim":1013,"clouds":[{"cover":"FEW","base":3000},{"cover":"BKN","base":10000}],"obsTime":1778338800},"SBME":{"icaoId":"SBME","flightCategory":"VFR","rawOb":"METAR SBME 091500Z 02010KT CAVOK 34/19 Q1014","temp":34,"dewp":19,"wdir":20,"wspd":10,"visib":"6+","altim":1014,"clouds":[],"obsTime":1778338800},"SBMG":{"icaoId":"SBMG","flightCategory":"LIFR","rawOb":"METAR SBMG 091500Z 01004KT 300V060 1200 -RA BR BKN002 OVC010 16/16 Q1014 RERA","temp":16,"dewp":16,"wdir":10,"wspd":4,"visib":0.75,"altim":1014,"clouds":[{"cover":"BKN","base":200},{"cover":"OVC","base":1000}],"obsTime":1778338800},"SBMK":{"icaoId":"SBMK","flightCategory":"VFR","rawOb":"METAR SBMK 091500Z 01011KT 9999 SCT045 29/16 Q1019","temp":29,"dewp":16,"wdir":10,"wspd":11,"visib":"6+","altim":1019,"clouds":[{"cover":"SCT","base":4500}],"obsTime":1778338800},"SBMQ":{"icaoId":"SBMQ","flightCategory":"MVFR","rawOb":"METAR SBMQ 091500Z 08005KT 9999 BKN023 30/25 Q1013","temp":30,"dewp":25,"wdir":80,"wspd":5,"visib":"6+","altim":1013,"clouds":[{"cover":"BKN","base":2300}],"obsTime":1778338800},"SBNT":{"icaoId":"SBNT","flightCategory":"VFR","rawOb":"METAR SBNT 091500Z 12011KT 080V150 9999 FEW031 30/23 Q1011","temp":30,"dewp":23,"wdir":120,"wspd":11,"visib":"6+","altim":1011,"clouds":[{"cover":"FEW","base":3100}],"obsTime":1778338800},"SBPA":{"icaoId":"SBPA","flightCategory":"VFR","rawOb":"METAR SBPA 091500Z 32012KT 280V350 CAVOK 16/03 Q1017","temp":16,"dewp":3,"wdir":320,"wspd":12,"visib":"6+","altim":1017,"clouds":[],"obsTime":1778338800},"SBPJ":{"icaoId":"SBPJ","flightCategory":"VFR","rawOb":"METAR SBPJ 091500Z 09007KT 9999 SCT025 33/20 Q1014","temp":33,"dewp":20,"wdir":90,"wspd":7,"visib":"6+","altim":1014,"clouds":[{"cover":"SCT","base":2500}],"obsTime":1778338800},"SBPV":{"icaoId":"SBPV","flightCategory":"VFR","rawOb":"METAR SBPV 091500Z 01003KT 9999 SCT025 29/27 Q1012","temp":29,"dewp":27,"wdir":10,"wspd":3,"visib":"6+","altim":1012,"clouds":[{"cover":"SCT","base":2500}],"obsTime":1778338800},"SBRB":{"icaoId":"SBRB","flightCategory":"VFR","rawOb":"METAR SBRB 091500Z 35009KT 9999 FEW008 BKN100 28/24 Q1013","temp":28,"dewp":24,"wdir":350,"wspd":9,"visib":"6+","altim":1013,"clouds":[{"cover":"FEW","base":800},{"cover":"BKN","base":10000}],"obsTime":1778338800},"SBRF":{"icaoId":"SBRF","flightCategory":"VFR","rawOb":"METAR SBRF 091500Z 14009KT 9999 SCT020 FEW025TCU 30/25 Q1012","temp":30,"dewp":25,"wdir":140,"wspd":9,"visib":"6+","altim":1012,"clouds":[{"cover":"SCT","base":2000},{"cover":"FEW","base":2500}],"obsTime":1778338800},"SBSG":{"icaoId":"SBSG","flightCategory":"VFR","rawOb":"METAR SBSG 091500Z 13010KT 9999 SCT030 30/23 Q1012","temp":30,"dewp":23,"wdir":130,"wspd":10,"visib":"6+","altim":1012,"clouds":[{"cover":"SCT","base":3000}],"obsTime":1778338800},"SBSL":{"icaoId":"SBSL","flightCategory":"VFR","rawOb":"METAR SBSL 091500Z 09008KT 060V130 9999 SCT020 SCT080 30/25 Q1011","temp":30,"dewp":25,"wdir":90,"wspd":8,"visib":"6+","altim":1011,"clouds":[{"cover":"SCT","base":2000},{"cover":"SCT","base":8000}],"obsTime":1778338800},"SBSN":{"icaoId":"SBSN","flightCategory":"VFR","rawOb":"METAR SBSN 091500Z 09012KT 9999 SCT020 30/25 Q1013","temp":30,"dewp":25,"wdir":90,"wspd":12,"visib":"6+","altim":1013,"clouds":[{"cover":"SCT","base":2000}],"obsTime":1778338800},"SBSP":{"icaoId":"SBSP","flightCategory":"VFR","rawOb":"METAR SBSP 091500Z 33013KT 300V360 9999 FEW025 BKN100 26/16 Q1018","temp":26,"dewp":16,"wdir":330,"wspd":13,"visib":"6+","altim":1018,"clouds":[{"cover":"FEW","base":2500},{"cover":"BKN","base":10000}],"obsTime":1778338800},"SBSV":{"icaoId":"SBSV","flightCategory":"VFR","rawOb":"METAR SBSV 091500Z 12014KT 9999 SCT025 30/23 Q1015","temp":30,"dewp":23,"wdir":120,"wspd":14,"visib":"6+","altim":1015,"clouds":[{"cover":"SCT","base":2500}],"obsTime":1778338800},"SBTE":{"icaoId":"SBTE","flightCategory":"MVFR","rawOb":"METAR SBTE 091500Z 12005KT 9999 BKN025 31/23 Q1012","temp":31,"dewp":23,"wdir":120,"wspd":5,"visib":"6+","altim":1012,"clouds":[{"cover":"BKN","base":2500}],"obsTime":1778338800},"SBUL":{"icaoId":"SBUL","flightCategory":"VFR","rawOb":"METAR SBUL 091500Z 04014KT CAVOK 25/16 Q1021","temp":25,"dewp":16,"wdir":40,"wspd":14,"visib":"6+","altim":1021,"clouds":[],"obsTime":1778338800},"SBUR":{"icaoId":"SBUR","flightCategory":"VFR","rawOb":"METAR SBUR 091500Z 01011KT CAVOK 28/16 Q1019","temp":28,"dewp":16,"wdir":10,"wspd":11,"visib":"6+","altim":1019,"clouds":[],"obsTime":1778338800},"SBVH":{"icaoId":"SBVH","flightCategory":"VFR","rawOb":"METAR SBVH 091500Z 36007KT 9999 FEW040 29/21 Q1016","temp":29,"dewp":21,"wdir":360,"wspd":7,"visib":"6+","altim":1016,"clouds":[{"cover":"FEW","base":4000}],"obsTime":1778338800},"SBAR":{"icaoId":"SBAR","flightCategory":"MVFR","rawOb":"METAR SBAR 091500Z 10015KT 9000 4000W -RA BKN016 SCT020 FEW024TCU BKN040 26/25 Q1014","temp":26,"dewp":25,"wdir":100,"wspd":15,"visib":5.59,"altim":1014,"clouds":[{"cover":"BKN","base":1600},{"cover":"SCT","base":2000},{"cover":"FEW","base":2400},{"cover":"BKN","base":4000}],"obsTime":1778338800},"SBBH":{"icaoId":"SBBH","flightCategory":"VFR","rawOb":"METAR SBBH 091500Z 06005KT 9999 SCT040 28/17 Q1021","temp":28,"dewp":17,"wdir":60,"wspd":5,"visib":"6+","altim":1021,"clouds":[{"cover":"SCT","base":4000}],"obsTime":1778338800},"SBBQ":{"icaoId":"SBBQ","flightCategory":"VFR","rawOb":"METAR SBBQ 091500Z 35005KT 9999 SCT036 25/15 Q1023","temp":25,"dewp":15,"wdir":350,"wspd":5,"visib":"6+","altim":1023,"clouds":[{"cover":"SCT","base":3600}],"obsTime":1778338800},"SBBU":{"icaoId":"SBBU","flightCategory":"VFR","rawOb":"METAR SBBU 091500Z 01009KT 9999 FEW030 30/20 Q1016","temp":30,"dewp":20,"wdir":10,"wspd":9,"visib":"6+","altim":1016,"clouds":[{"cover":"FEW","base":3000}],"obsTime":1778338800},"SBCA":{"icaoId":"SBCA","flightCategory":"LIFR","rawOb":"METAR SBCA 091500Z 18016KT 4000 -RA BR BKN003 BKN005 BKN080 10/10 Q1019","temp":10,"dewp":10,"wdir":180,"wspd":16,"visib":2.49,"altim":1019,"clouds":[{"cover":"BKN","base":300},{"cover":"BKN","base":500},{"cover":"BKN","base":8000}],"obsTime":1778338800},"SBCC":{"icaoId":"SBCC","flightCategory":"VFR","rawOb":"METAR SBCC 091500Z 03009KT 350V070 9999 SCT030 31/21 Q1015","temp":31,"dewp":21,"wdir":30,"wspd":9,"visib":"6+","altim":1015,"clouds":[{"cover":"SCT","base":3000}],"obsTime":1778338800},"SBCJ":{"icaoId":"SBCJ","flightCategory":"VFR","rawOb":"METAR SBCJ 091500Z 12006KT CAVOK 28/21 Q1017","temp":28,"dewp":21,"wdir":120,"wspd":6,"visib":"6+","altim":1017,"clouds":[],"obsTime":1778338800},"SBCO":{"icaoId":"SBCO","flightCategory":"VFR","rawOb":"METAR SBCO 091500Z 31011KT 280V360 CAVOK 16/02 Q1017","temp":16,"dewp":2,"wdir":310,"wspd":11,"visib":"6+","altim":1017,"clouds":[],"obsTime":1778338800},"SBDN":{"icaoId":"SBDN","flightCategory":"LIFR","rawOb":"METAR SBDN 091500Z 13004KT 7000 -TSRA BKN004 BKN012 FEW030CB BKN070 21/19 Q1015","temp":21,"dewp":19,"wdir":130,"wspd":4,"visib":4.35,"altim":1015,"clouds":[{"cover":"BKN","base":400},{"cover":"BKN","base":1200},{"cover":"FEW","base":3000},{"cover":"BKN","base":7000}],"obsTime":1778338800},"SBES":{"icaoId":"SBES","flightCategory":"VFR","rawOb":"METAR SBES 091500Z 05012KT 290V080 CAVOK 30/// Q1014","temp":null,"dewp":null,"wdir":50,"wspd":12,"visib":"6+","altim":1014,"clouds":[],"obsTime":1778338800},"SBGM":{"icaoId":"SBGM","flightCategory":"VFR","rawOb":"METAR SBGM 091500Z 31009KT 9999 SCT026 31/24 Q1013","temp":31,"dewp":24,"wdir":310,"wspd":9,"visib":"6+","altim":1013,"clouds":[{"cover":"SCT","base":2600}],"obsTime":1778338800},"SBIP":{"icaoId":"SBIP","flightCategory":"VFR","rawOb":"METAR SBIP 091500Z AUTO 04008KT 350V100 9999 SCT035 29/20 Q1018","temp":29,"dewp":20,"wdir":40,"wspd":8,"visib":"6+","altim":1018,"clouds":[{"cover":"SCT","base":3500}],"obsTime":1778338800},"SBKG":{"icaoId":"SBKG","flightCategory":"MVFR","rawOb":"METAR SBKG 091500Z 10008KT 6000 SHRA BKN025 FEW026TCU 26/23 Q1014","temp":26,"dewp":23,"wdir":100,"wspd":8,"visib":3.73,"altim":1014,"clouds":[{"cover":"BKN","base":2500},{"cover":"FEW","base":2600}],"obsTime":1778338800},"SBOI":{"icaoId":"SBOI","flightCategory":"MVFR","rawOb":"METAR SBOI 091500Z AUTO VRB03KT 9999 BKN017 29/25 Q1013","temp":29,"dewp":25,"wdir":"VRB","wspd":3,"visib":"6+","altim":1013,"clouds":[{"cover":"BKN","base":1700}],"obsTime":1778338800},"SBPB":{"icaoId":"SBPB","flightCategory":"VFR","rawOb":"METAR SBPB 091500Z 08011KT 9999 SCT020 30/25 Q1011","temp":30,"dewp":25,"wdir":80,"wspd":11,"visib":"6+","altim":1011,"clouds":[{"cover":"SCT","base":2000}],"obsTime":1778338800},"SBPL":{"icaoId":"SBPL","flightCategory":"MVFR","rawOb":"METAR SBPL 091500Z 14008KT 9999 BKN030 31/20 Q1015","temp":31,"dewp":20,"wdir":140,"wspd":8,"visib":"6+","altim":1015,"clouds":[{"cover":"BKN","base":3000}],"obsTime":1778338800},"SBPP":{"icaoId":"SBPP","flightCategory":"VFR","rawOb":"SPECI SBPP 091430Z 17008KT 9999 SCT010 OVC070 12/09 Q1018","temp":12,"dewp":9,"wdir":170,"wspd":8,"visib":"6+","altim":1018,"clouds":[{"cover":"SCT","base":1000},{"cover":"OVC","base":7000}],"obsTime":1778337000},"SBPS":{"icaoId":"SBPS","flightCategory":"VFR","rawOb":"METAR SBPS 091500Z 09009KT 060V120 9999 SCT025 29/23 Q1018","temp":29,"dewp":23,"wdir":90,"wspd":9,"visib":"6+","altim":1018,"clouds":[{"cover":"SCT","base":2500}],"obsTime":1778338800},"SBSC":{"icaoId":"SBSC","flightCategory":"VFR","rawOb":"METAR SBSC 091500Z 02010KT CAVOK 33/20 Q1013","temp":33,"dewp":20,"wdir":20,"wspd":10,"visib":"6+","altim":1013,"clouds":[],"obsTime":1778338800},"SBSJ":{"icaoId":"SBSJ","flightCategory":"VFR","rawOb":"METAR SBSJ 091500Z 33010KT 300V010 CAVOK 28/16 Q1017","temp":28,"dewp":16,"wdir":330,"wspd":10,"visib":"6+","altim":1017,"clouds":[],"obsTime":1778338800},"SBSM":{"icaoId":"SBSM","flightCategory":"VFR","rawOb":"METAR SBSM 091500Z 28010KT 240V310 CAVOK 16/02 Q1018","temp":16,"dewp":2,"wdir":280,"wspd":10,"visib":"6+","altim":1018,"clouds":[],"obsTime":1778338800},"SBSR":{"icaoId":"SBSR","flightCategory":"VFR","rawOb":"METAR SBSR 091500Z 36010KT 330V030 9999 FEW040 31/16 Q1016","temp":31,"dewp":16,"wdir":360,"wspd":10,"visib":"6+","altim":1016,"clouds":[{"cover":"FEW","base":4000}],"obsTime":1778338800},"SBTF":{"icaoId":"SBTF","flightCategory":"VFR","rawOb":"METAR SBTF 091500Z 10006KT 9999 FEW017 SCT090 31/25 Q1012","temp":31,"dewp":25,"wdir":100,"wspd":6,"visib":"6+","altim":1012,"clouds":[{"cover":"FEW","base":1700},{"cover":"SCT","base":9000}],"obsTime":1778338800},"SBTT":{"icaoId":"SBTT","flightCategory":"VFR","rawOb":"METAR SBTT 091500Z 13004KT 080V180 9999 SCT017 SCT090 28/23 Q1013","temp":28,"dewp":23,"wdir":130,"wspd":4,"visib":"6+","altim":1013,"clouds":[{"cover":"SCT","base":1700},{"cover":"SCT","base":9000}],"obsTime":1778338800},"SBTU":{"icaoId":"SBTU","flightCategory":"VFR","rawOb":"METAR SBTU 091500Z AUTO 20004KT 150V260 9999 // ///////// ///// Q1015","temp":null,"dewp":null,"wdir":200,"wspd":4,"visib":"6+","altim":1015,"clouds":[],"obsTime":1778338800},"SBUY":{"icaoId":"SBUY","flightCategory":"VFR","rawOb":"METAR SBUY 091500Z 14007KT 9999 FEW020 30/24 Q1011","temp":30,"dewp":24,"wdir":140,"wspd":7,"visib":"6+","altim":1011,"clouds":[{"cover":"FEW","base":2000}],"obsTime":1778338800},"SBAN":{"icaoId":"SBAN","flightCategory":"VFR","rawOb":"METAR SBAN 091500Z COR 12006KT 9999 SCT040 27/14 Q1022","temp":27,"dewp":14,"wdir":120,"wspd":6,"visib":"6+","altim":1022,"clouds":[{"cover":"SCT","base":4000}],"obsTime":1778338800},"SBLE":{"icaoId":"SBLE","flightCategory":"MVFR","rawOb":"METAR SBLE 091500Z AUTO 16004KT 120V200 9999 BKN029 26/19 Q1018","temp":26,"dewp":19,"wdir":160,"wspd":4,"visib":"6+","altim":1018,"clouds":[{"cover":"BKN","base":2900}],"obsTime":1778338800},"SBJV":{"icaoId":"SBJV","flightCategory":"IFR","rawOb":"METAR SBJV 091500Z 15002KT 4000 RA BKN020 BKN030 15/13 Q1016","temp":15,"dewp":13,"wdir":150,"wspd":2,"visib":2.49,"altim":1016,"clouds":[{"cover":"BKN","base":2000},{"cover":"BKN","base":3000}],"obsTime":1778338800},"SBTC":{"icaoId":"SBTC","flightCategory":"VFR","rawOb":"METAR SBTC 091500Z 14007KT 9999 SCT025 29/23 Q1018","temp":29,"dewp":23,"wdir":140,"wspd":7,"visib":"6+","altim":1018,"clouds":[{"cover":"SCT","base":2500}],"obsTime":1778338800},"SBAF":{"icaoId":"SBAF","flightCategory":"VFR","rawOb":"METAR SBAF 091500Z 01008KT CAVOK 34/17 Q1013","temp":34,"dewp":17,"wdir":10,"wspd":8,"visib":"6+","altim":1013,"clouds":[],"obsTime":1778338800},"SBNM":{"icaoId":"SBNM","flightCategory":"VFR","rawOb":"METAR SBNM 091500Z 32002KT 9999 BKN040 14/04 Q1020","temp":14,"dewp":4,"wdir":320,"wspd":2,"visib":"6+","altim":1020,"clouds":[{"cover":"BKN","base":4000}],"obsTime":1778338800},"SBGW":{"icaoId":"SBGW","flightCategory":"VFR","rawOb":"METAR SBGW 091500Z 31008KT 260V010 CAVOK 30/15 Q1017","temp":30,"dewp":15,"wdir":310,"wspd":8,"visib":"6+","altim":1017,"clouds":[],"obsTime":1778338800},"SBJP":{"icaoId":"SBJP","flightCategory":"MVFR","rawOb":"METAR SBJP 091500Z 12010KT 9999 BKN025 30/24 Q1012","temp":30,"dewp":24,"wdir":120,"wspd":10,"visib":"6+","altim":1012,"clouds":[{"cover":"BKN","base":2500}],"obsTime":1778338800},"SBJR":{"icaoId":"SBJR","flightCategory":"VFR","rawOb":"METAR SBJR 091500Z 36010KT CAVOK 35/18 Q1013","temp":35,"dewp":18,"wdir":360,"wspd":10,"visib":"6+","altim":1013,"clouds":[],"obsTime":1778338800},"SBIH":{"icaoId":"SBIH","flightCategory":"MVFR","rawOb":"METAR SBIH 091500Z 07005KT 9999 BKN019 31/25 Q1013","temp":31,"dewp":25,"wdir":70,"wspd":5,"visib":"6+","altim":1013,"clouds":[{"cover":"BKN","base":1900}],"obsTime":1778338800},"SBLS":{"icaoId":"SBLS","flightCategory":"VFR","rawOb":"METAR SBLS 091500Z VRB04KT 9999 SCT040 27/17 Q1021","temp":27,"dewp":17,"wdir":"VRB","wspd":4,"visib":"6+","altim":1021,"clouds":[{"cover":"SCT","base":4000}],"obsTime":1778338800},"SBMT":{"icaoId":"SBMT","flightCategory":"VFR","rawOb":"METAR SBMT 091500Z 32010KT 280V020 CAVOK 26/16 Q1017","temp":26,"dewp":16,"wdir":320,"wspd":10,"visib":"6+","altim":1017,"clouds":[],"obsTime":1778338800},"SBST":{"icaoId":"SBST","flightCategory":"VFR","rawOb":"METAR SBST 091500Z 00000KT 9000 FEW012 26/22 Q1014","temp":26,"dewp":22,"wdir":0,"wspd":0,"visib":5.59,"altim":1014,"clouds":[{"cover":"FEW","base":1200}],"obsTime":1778338800},"SBTA":{"icaoId":"SBTA","flightCategory":"VFR","rawOb":"METAR SBTA 091500Z 02005KT 320V080 9999 FEW040 28/16 Q1017","temp":28,"dewp":16,"wdir":20,"wspd":5,"visib":"6+","altim":1017,"clouds":[{"cover":"FEW","base":4000}],"obsTime":1778338800}}}