{"updated":1782921842,"count":85,"data":{"SBPJ":{"icaoId":"SBPJ","flightCategory":"VFR","rawOb":"METAR SBPJ 011500Z 10011KT CAVOK 33/16 Q1016","temp":33,"dewp":16,"wdir":100,"wspd":11,"visib":"6+","altim":1016,"clouds":[],"obsTime":1782918000},"SBCR":{"icaoId":"SBCR","flightCategory":"VFR","rawOb":"METAR SBCR 011500Z 03009KT 360V060 9999 FEW030 31/21 Q1014","temp":31,"dewp":21,"wdir":30,"wspd":9,"visib":"6+","altim":1014,"clouds":[{"cover":"FEW","base":3000}],"obsTime":1782918000},"SBTE":{"icaoId":"SBTE","flightCategory":"VFR","rawOb":"METAR SBTE 011500Z 12009KT 9999 SCT040 31/19 Q1013","temp":31,"dewp":19,"wdir":120,"wspd":9,"visib":"6+","altim":1013,"clouds":[{"cover":"SCT","base":4000}],"obsTime":1782918000},"SBGL":{"icaoId":"SBGL","flightCategory":"VFR","rawOb":"METAR SBGL 011500Z 04005KT CAVOK 30/20 Q1018","temp":30,"dewp":20,"wdir":40,"wspd":5,"visib":"6+","altim":1018,"clouds":[],"obsTime":1782918000},"SBLO":{"icaoId":"SBLO","flightCategory":"VFR","rawOb":"METAR SBLO 011500Z 02006KT CAVOK 24/15 Q1020","temp":24,"dewp":15,"wdir":20,"wspd":6,"visib":"6+","altim":1020,"clouds":[],"obsTime":1782918000},"SBBR":{"icaoId":"SBBR","flightCategory":"VFR","rawOb":"METAR SBBR 011500Z 11011KT 070V150 CAVOK 24/11 Q1024","temp":24,"dewp":11,"wdir":110,"wspd":11,"visib":"6+","altim":1024,"clouds":[],"obsTime":1782918000},"SBCB":{"icaoId":"SBCB","flightCategory":"VFR","rawOb":"METAR SBCB 011500Z 07013KT CAVOK 28/20 Q1019","temp":28,"dewp":20,"wdir":70,"wspd":13,"visib":"6+","altim":1019,"clouds":[],"obsTime":1782918000},"SBGO":{"icaoId":"SBGO","flightCategory":"VFR","rawOb":"METAR SBGO 011500Z 03009KT 360V060 CAVOK 28/10 Q1022","temp":28,"dewp":10,"wdir":30,"wspd":9,"visib":"6+","altim":1022,"clouds":[],"obsTime":1782918000},"SBSP":{"icaoId":"SBSP","flightCategory":"VFR","rawOb":"METAR SBSP 011500Z 34012KT 280V020 CAVOK 25/14 Q1024","temp":25,"dewp":14,"wdir":340,"wspd":12,"visib":"6+","altim":1024,"clouds":[],"obsTime":1782918000},"SBKP":{"icaoId":"SBKP","flightCategory":"VFR","rawOb":"METAR SBKP 011500Z 01006KT CAVOK 26/16 Q1023","temp":26,"dewp":16,"wdir":10,"wspd":6,"visib":"6+","altim":1023,"clouds":[],"obsTime":1782918000},"SBSG":{"icaoId":"SBSG","flightCategory":"VFR","rawOb":"METAR SBSG 011500Z 14012G24KT 100V190 9999 SCT030 SCT050 29/22 Q1015","temp":29,"dewp":22,"wdir":140,"wspd":12,"visib":"6+","altim":1015,"clouds":[{"cover":"SCT","base":3000},{"cover":"SCT","base":5000}],"obsTime":1782918000},"SBSL":{"icaoId":"SBSL","flightCategory":"MVFR","rawOb":"METAR SBSL 011500Z 10008KT 9999 BKN030 31/23 Q1012","temp":31,"dewp":23,"wdir":100,"wspd":8,"visib":"6+","altim":1012,"clouds":[{"cover":"BKN","base":3000}],"obsTime":1782918000},"SBEG":{"icaoId":"SBEG","flightCategory":"VFR","rawOb":"METAR SBEG 011500Z 07008KT 030V100 9999 FEW025 31/23 Q1013","temp":31,"dewp":23,"wdir":70,"wspd":8,"visib":"6+","altim":1013,"clouds":[{"cover":"FEW","base":2500}],"obsTime":1782918000},"SBBE":{"icaoId":"SBBE","flightCategory":"VFR","rawOb":"METAR SBBE 011500Z 10009KT 9999 SCT035 32/23 Q1012","temp":32,"dewp":23,"wdir":100,"wspd":9,"visib":"6+","altim":1012,"clouds":[{"cover":"SCT","base":3500}],"obsTime":1782918000},"SBRB":{"icaoId":"SBRB","flightCategory":"VFR","rawOb":"METAR SBRB 011500Z 09003KT 9999 SCT020 30/24 Q1015","temp":30,"dewp":24,"wdir":90,"wspd":3,"visib":"6+","altim":1015,"clouds":[{"cover":"SCT","base":2000}],"obsTime":1782918000},"SBCT":{"icaoId":"SBCT","flightCategory":"VFR","rawOb":"METAR SBCT 011500Z 34013KT CAVOK 24/13 Q1022","temp":24,"dewp":13,"wdir":340,"wspd":13,"visib":"6+","altim":1022,"clouds":[],"obsTime":1782918000},"SBVT":{"icaoId":"SBVT","flightCategory":"VFR","rawOb":"METAR SBVT 011500Z 02009KT 350V050 9999 FEW026 BKN050 26/20 Q1021","temp":26,"dewp":20,"wdir":20,"wspd":9,"visib":"6+","altim":1021,"clouds":[{"cover":"FEW","base":2600},{"cover":"BKN","base":5000}],"obsTime":1782918000},"SBFZ":{"icaoId":"SBFZ","flightCategory":"VFR","rawOb":"METAR SBFZ 011500Z 16013KT 9999 SCT030 30/21 Q1013","temp":30,"dewp":21,"wdir":160,"wspd":13,"visib":"6+","altim":1013,"clouds":[{"cover":"SCT","base":3000}],"obsTime":1782918000},"SBPV":{"icaoId":"SBPV","flightCategory":"VFR","rawOb":"METAR SBPV 011500Z 20003KT 310V060 9999 SCT025 30/23 Q1013","temp":30,"dewp":23,"wdir":200,"wspd":3,"visib":"6+","altim":1013,"clouds":[{"cover":"SCT","base":2500}],"obsTime":1782918000},"SBSV":{"icaoId":"SBSV","flightCategory":"MVFR","rawOb":"METAR SBSV 011500Z 10015KT 060V140 5000 -RA BR SCT011 BKN015 FEW025TCU OVC040 24/22 Q1018","temp":24,"dewp":22,"wdir":100,"wspd":15,"visib":3.11,"altim":1018,"clouds":[{"cover":"SCT","base":1100},{"cover":"BKN","base":1500},{"cover":"FEW","base":2500},{"cover":"OVC","base":4000}],"obsTime":1782918000},"SBFL":{"icaoId":"SBFL","flightCategory":"VFR","rawOb":"METAR SBFL 011500Z 35009KT 9999 FEW004 BKN060 OVC100 19/18 Q1018","temp":19,"dewp":18,"wdir":350,"wspd":9,"visib":"6+","altim":1018,"clouds":[{"cover":"FEW","base":400},{"cover":"BKN","base":6000},{"cover":"OVC","base":10000}],"obsTime":1782918000},"SBCG":{"icaoId":"SBCG","flightCategory":"VFR","rawOb":"METAR SBCG 011500Z 34011KT CAVOK 29/15 Q1018","temp":29,"dewp":15,"wdir":340,"wspd":11,"visib":"6+","altim":1018,"clouds":[],"obsTime":1782918000},"SBFI":{"icaoId":"SBFI","flightCategory":"VFR","rawOb":"METAR SBFI 011500Z 02012KT 9999 FEW020 SCT080 26/20 Q1014","temp":26,"dewp":20,"wdir":20,"wspd":12,"visib":"6+","altim":1014,"clouds":[{"cover":"FEW","base":2000},{"cover":"SCT","base":8000}],"obsTime":1782918000},"SBPA":{"icaoId":"SBPA","flightCategory":"IFR","rawOb":"METAR SBPA 011500Z 09005KT 9999 BKN009 OVC013 16/14 Q1018","temp":16,"dewp":14,"wdir":90,"wspd":5,"visib":"6+","altim":1018,"clouds":[{"cover":"BKN","base":900},{"cover":"OVC","base":1300}],"obsTime":1782918000},"SBSN":{"icaoId":"SBSN","flightCategory":"MVFR","rawOb":"METAR SBSN 011500Z 08009KT 9999 BKN025 FEW035TCU 30/25 Q1013","temp":30,"dewp":25,"wdir":80,"wspd":9,"visib":"6+","altim":1013,"clouds":[{"cover":"BKN","base":2500},{"cover":"FEW","base":3500}],"obsTime":1782918000},"SBMO":{"icaoId":"SBMO","flightCategory":"VFR","rawOb":"METAR SBMO 011500Z 10014KT 9999 FEW030 BKN070 27/21 Q1017","temp":27,"dewp":21,"wdir":100,"wspd":14,"visib":"6+","altim":1017,"clouds":[{"cover":"FEW","base":3000},{"cover":"BKN","base":7000}],"obsTime":1782918000},"SBGR":{"icaoId":"SBGR","flightCategory":"VFR","rawOb":"METAR SBGR 011500Z 33010KT CAVOK 26/15 Q1023","temp":26,"dewp":15,"wdir":330,"wspd":10,"visib":"6+","altim":1023,"clouds":[],"obsTime":1782918000},"SBBV":{"icaoId":"SBBV","flightCategory":"MVFR","rawOb":"METAR SBBV 011500Z 17003KT 9999 BKN025 FEW030TCU BKN080 29/23 Q1013","temp":29,"dewp":23,"wdir":170,"wspd":3,"visib":"6+","altim":1013,"clouds":[{"cover":"BKN","base":2500},{"cover":"FEW","base":3000},{"cover":"BKN","base":8000}],"obsTime":1782918000},"SBMQ":{"icaoId":"SBMQ","flightCategory":"VFR","rawOb":"METAR SBMQ 011500Z 06007KT 9999 SCT021 31/26 Q1012","temp":31,"dewp":26,"wdir":60,"wspd":7,"visib":"6+","altim":1012,"clouds":[{"cover":"SCT","base":2100}],"obsTime":1782918000},"SBMA":{"icaoId":"SBMA","flightCategory":"VFR","rawOb":"METAR SBMA 011500Z 09007KT 9999 FEW020 33/19 Q1013","temp":33,"dewp":19,"wdir":90,"wspd":7,"visib":"6+","altim":1013,"clouds":[{"cover":"FEW","base":2000}],"obsTime":1782918000},"SBCP":{"icaoId":"SBCP","flightCategory":"VFR","rawOb":"METAR SBCP 011500Z 04008KT 9999 FEW020 30/17 Q1020","temp":30,"dewp":17,"wdir":40,"wspd":8,"visib":"6+","altim":1020,"clouds":[{"cover":"FEW","base":2000}],"obsTime":1782918000},"SBRF":{"icaoId":"SBRF","flightCategory":"VFR","rawOb":"METAR SBRF 011500Z 14014KT 9999 SCT026 29/22 Q1016","temp":29,"dewp":22,"wdir":140,"wspd":14,"visib":"6+","altim":1016,"clouds":[{"cover":"SCT","base":2600}],"obsTime":1782918000},"SBCF":{"icaoId":"SBCF","flightCategory":"VFR","rawOb":"METAR SBCF 011500Z 07006KT 9999 FEW030 24/15 Q1025","temp":24,"dewp":15,"wdir":70,"wspd":6,"visib":"6+","altim":1025,"clouds":[{"cover":"FEW","base":3000}],"obsTime":1782918000},"SBAT":{"icaoId":"SBAT","flightCategory":"VFR","rawOb":"METAR SBAT 011500Z 12010KT 9999 FEW030 34/20 Q1015","temp":34,"dewp":20,"wdir":120,"wspd":10,"visib":"6+","altim":1015,"clouds":[{"cover":"FEW","base":3000}],"obsTime":1782918000},"SBCZ":{"icaoId":"SBCZ","flightCategory":"VFR","rawOb":"METAR SBCZ 011500Z 16002KT 9999 SCT006 BKN100 29/24 Q1015","temp":29,"dewp":24,"wdir":160,"wspd":2,"visib":"6+","altim":1015,"clouds":[{"cover":"SCT","base":600},{"cover":"BKN","base":10000}],"obsTime":1782918000},"SBHT":{"icaoId":"SBHT","flightCategory":"VFR","rawOb":"METAR SBHT 011500Z 10007KT 9999 SCT030 31/24 Q1013","temp":31,"dewp":24,"wdir":100,"wspd":7,"visib":"6+","altim":1013,"clouds":[{"cover":"SCT","base":3000}],"obsTime":1782918000},"SBMG":{"icaoId":"SBMG","flightCategory":"VFR","rawOb":"METAR SBMG 011500Z 02016KT CAVOK 26/16 Q1018","temp":26,"dewp":16,"wdir":20,"wspd":16,"visib":"6+","altim":1018,"clouds":[],"obsTime":1782918000},"SBIL":{"icaoId":"SBIL","flightCategory":"VFR","rawOb":"METAR SBIL 011500Z 11006KT 9999 VCSH FEW020 FEW023TCU BKN045 25/23 Q1020","temp":25,"dewp":23,"wdir":110,"wspd":6,"visib":"6+","altim":1020,"clouds":[{"cover":"FEW","base":2000},{"cover":"FEW","base":2300},{"cover":"BKN","base":4500}],"obsTime":1782918000},"SBJU":{"icaoId":"SBJU","flightCategory":"VFR","rawOb":"METAR SBJU 011500Z 15010KT CAVOK 30/15 Q1017","temp":30,"dewp":15,"wdir":150,"wspd":10,"visib":"6+","altim":1017,"clouds":[],"obsTime":1782918000},"SBME":{"icaoId":"SBME","flightCategory":"VFR","rawOb":"METAR SBME 011500Z 04012KT 9999 FEW030 30/21 Q1019","temp":30,"dewp":21,"wdir":40,"wspd":12,"visib":"6+","altim":1019,"clouds":[{"cover":"FEW","base":3000}],"obsTime":1782918000},"SBMK":{"icaoId":"SBMK","flightCategory":"VFR","rawOb":"METAR SBMK 011500Z 08008KT 9999 SCT035 25/14 Q1023","temp":25,"dewp":14,"wdir":80,"wspd":8,"visib":"6+","altim":1023,"clouds":[{"cover":"SCT","base":3500}],"obsTime":1782918000},"SBUL":{"icaoId":"SBUL","flightCategory":"VFR","rawOb":"METAR SBUL 011500Z 07014KT 030V090 9999 SCT030 23/14 Q1024","temp":23,"dewp":14,"wdir":70,"wspd":14,"visib":"6+","altim":1024,"clouds":[{"cover":"SCT","base":3000}],"obsTime":1782918000},"SBUR":{"icaoId":"SBUR","flightCategory":"VFR","rawOb":"METAR SBUR 011500Z 01009KT 9999 FEW027 25/14 Q1023","temp":25,"dewp":14,"wdir":10,"wspd":9,"visib":"6+","altim":1023,"clouds":[{"cover":"FEW","base":2700}],"obsTime":1782918000},"SBNT":{"icaoId":"SBNT","flightCategory":"MVFR","rawOb":"METAR SBNT 011500Z 16017KT 9999 BKN025 29/21 Q1014","temp":29,"dewp":21,"wdir":160,"wspd":17,"visib":"6+","altim":1014,"clouds":[{"cover":"BKN","base":2500}],"obsTime":1782918000},"SBCJ":{"icaoId":"SBCJ","flightCategory":"VFR","rawOb":"METAR SBCJ 011500Z 11008KT 9999 SCT020 29/19 Q1018","temp":29,"dewp":19,"wdir":110,"wspd":8,"visib":"6+","altim":1018,"clouds":[{"cover":"SCT","base":2000}],"obsTime":1782918000},"SBAR":{"icaoId":"SBAR","flightCategory":"VFR","rawOb":"METAR SBAR 011500Z 09011KT 9999 FEW026 28/21 Q1017","temp":28,"dewp":21,"wdir":90,"wspd":11,"visib":"6+","altim":1017,"clouds":[{"cover":"FEW","base":2600}],"obsTime":1782918000},"SBPP":{"icaoId":"SBPP","flightCategory":"VFR","rawOb":"METAR SBPP 011500Z 02018KT CAVOK 27/19 Q1017","temp":27,"dewp":19,"wdir":20,"wspd":18,"visib":"6+","altim":1017,"clouds":[],"obsTime":1782918000},"SBSJ":{"icaoId":"SBSJ","flightCategory":"VFR","rawOb":"METAR SBSJ 011500Z VRB03KT CAVOK 24/17 Q1023","temp":24,"dewp":17,"wdir":"VRB","wspd":3,"visib":"6+","altim":1023,"clouds":[],"obsTime":1782918000},"SBUY":{"icaoId":"SBUY","flightCategory":"VFR","rawOb":"METAR SBUY 011500Z 09005KT 9999 FEW020 SCT080 29/24 Q1012","temp":29,"dewp":24,"wdir":90,"wspd":5,"visib":"6+","altim":1012,"clouds":[{"cover":"FEW","base":2000},{"cover":"SCT","base":8000}],"obsTime":1782918000},"SBOI":{"icaoId":"SBOI","flightCategory":"VFR","rawOb":"METAR SBOI 011500Z AUTO VRB04KT 9999 -RA SCT036 30/24 Q1013","temp":30,"dewp":24,"wdir":"VRB","wspd":4,"visib":"6+","altim":1013,"clouds":[{"cover":"SCT","base":3600}],"obsTime":1782918000},"SBTF":{"icaoId":"SBTF","flightCategory":"VFR","rawOb":"METAR SBTF 011500Z 12007KT 9999 FEW010 SCT100 32/25 Q1013","temp":32,"dewp":25,"wdir":120,"wspd":7,"visib":"6+","altim":1013,"clouds":[{"cover":"FEW","base":1000},{"cover":"SCT","base":10000}],"obsTime":1782918000},"SBTT":{"icaoId":"SBTT","flightCategory":"VFR","rawOb":"METAR SBTT 011500Z 11004KT 9999 FEW020 SCT040 BKN100 25/23 Q1014","temp":25,"dewp":23,"wdir":110,"wspd":4,"visib":"6+","altim":1014,"clouds":[{"cover":"FEW","base":2000},{"cover":"SCT","base":4000},{"cover":"BKN","base":10000}],"obsTime":1782918000},"SBPL":{"icaoId":"SBPL","flightCategory":"VFR","rawOb":"METAR SBPL 011500Z 12012KT 9999 SCT030 29/16 Q1018","temp":29,"dewp":16,"wdir":120,"wspd":12,"visib":"6+","altim":1018,"clouds":[{"cover":"SCT","base":3000}],"obsTime":1782918000},"SBTD":{"icaoId":"SBTD","flightCategory":"VFR","rawOb":"METAR SBTD 011500Z /////KT CAVOK 27/18 Q1018","temp":27,"dewp":18,"wdir":null,"wspd":null,"visib":"6+","altim":1018,"clouds":[],"obsTime":1782918000},"SBPS":{"icaoId":"SBPS","flightCategory":"VFR","rawOb":"METAR SBPS 011500Z 09012KT 9999 SCT020 BKN060 26/22 Q1020","temp":26,"dewp":22,"wdir":90,"wspd":12,"visib":"6+","altim":1020,"clouds":[{"cover":"SCT","base":2000},{"cover":"BKN","base":6000}],"obsTime":1782918000},"SBPB":{"icaoId":"SBPB","flightCategory":"VFR","rawOb":"METAR SBPB 011500Z 12006KT 9999 SCT020 32/23 Q1012","temp":32,"dewp":23,"wdir":120,"wspd":6,"visib":"6+","altim":1012,"clouds":[{"cover":"SCT","base":2000}],"obsTime":1782918000},"SBTU":{"icaoId":"SBTU","flightCategory":"VFR","rawOb":"METAR SBTU 011500Z AUTO 28007KT 230V340 9999 // NCD 31/22 Q1015","temp":31,"dewp":22,"wdir":280,"wspd":7,"visib":"6+","altim":1015,"clouds":[],"obsTime":1782918000},"SBIP":{"icaoId":"SBIP","flightCategory":"VFR","rawOb":"METAR SBIP 011500Z AUTO 03005KT 350V060 9999 OVC037 26/18 Q1022","temp":26,"dewp":18,"wdir":30,"wspd":5,"visib":"6+","altim":1022,"clouds":[{"cover":"OVC","base":3700}],"obsTime":1782918000},"SBSC":{"icaoId":"SBSC","flightCategory":"VFR","rawOb":"METAR SBSC 011500Z 35008KT CAVOK 30/19 Q1018","temp":30,"dewp":19,"wdir":350,"wspd":8,"visib":"6+","altim":1018,"clouds":[],"obsTime":1782918000},"SBSR":{"icaoId":"SBSR","flightCategory":"VFR","rawOb":"METAR SBSR 011500Z 05011KT CAVOK 27/12 Q1021","temp":27,"dewp":12,"wdir":50,"wspd":11,"visib":"6+","altim":1021,"clouds":[],"obsTime":1782918000},"SBES":{"icaoId":"SBES","flightCategory":"VFR","rawOb":"METAR SBES 011500Z 06011KT CAVOK 27/// Q1018","temp":null,"dewp":null,"wdir":60,"wspd":11,"visib":"6+","altim":1018,"clouds":[],"obsTime":1782918000},"SBCC":{"icaoId":"SBCC","flightCategory":"VFR","rawOb":"METAR SBCC 011500Z 06014KT 9999 FEW020 31/17 Q1016","temp":31,"dewp":17,"wdir":60,"wspd":14,"visib":"6+","altim":1016,"clouds":[{"cover":"FEW","base":2000}],"obsTime":1782918000},"SBGM":{"icaoId":"SBGM","flightCategory":"VFR","rawOb":"METAR SBGM 011500Z 05005KT CAVOK 31/18 Q1014","temp":31,"dewp":18,"wdir":50,"wspd":5,"visib":"6+","altim":1014,"clouds":[],"obsTime":1782918000},"SBVH":{"icaoId":"SBVH","flightCategory":"VFR","rawOb":"METAR SBVH 011500Z 08008KT 9999 FEW045 29/17 Q1017","temp":29,"dewp":17,"wdir":80,"wspd":8,"visib":"6+","altim":1017,"clouds":[{"cover":"FEW","base":4500}],"obsTime":1782918000},"SBCO":{"icaoId":"SBCO","flightCategory":"IFR","rawOb":"METAR SBCO 011500Z 11005KT 060V130 4500 BR BKN007 OVC013 15/14 Q1019","temp":15,"dewp":14,"wdir":110,"wspd":5,"visib":2.8,"altim":1019,"clouds":[{"cover":"BKN","base":700},{"cover":"OVC","base":1300}],"obsTime":1782918000},"SBSM":{"icaoId":"SBSM","flightCategory":"LIFR","rawOb":"METAR SBSM 011500Z 10008KT 070V150 5000 BR OVC003 12/12 Q1017","temp":12,"dewp":12,"wdir":100,"wspd":8,"visib":3.11,"altim":1017,"clouds":[{"cover":"OVC","base":300}],"obsTime":1782918000},"SBKG":{"icaoId":"SBKG","flightCategory":"VFR","rawOb":"METAR SBKG 011500Z 14011KT 9999 SCT025 BKN090 26/20 Q1018","temp":26,"dewp":20,"wdir":140,"wspd":11,"visib":"6+","altim":1018,"clouds":[{"cover":"SCT","base":2500},{"cover":"BKN","base":9000}],"obsTime":1782918000},"SBAX":{"icaoId":"SBAX","flightCategory":"VFR","rawOb":"METAR SBAX 011500Z 06008KT 9999 SCT020 23/14 Q1024","temp":23,"dewp":14,"wdir":60,"wspd":8,"visib":"6+","altim":1024,"clouds":[{"cover":"SCT","base":2000}],"obsTime":1782918000},"SBBH":{"icaoId":"SBBH","flightCategory":"VFR","rawOb":"METAR SBBH 011500Z 10007KT 9999 SCT030 24/15 Q1025","temp":24,"dewp":15,"wdir":100,"wspd":7,"visib":"6+","altim":1025,"clouds":[{"cover":"SCT","base":3000}],"obsTime":1782918000},"SBBQ":{"icaoId":"SBBQ","flightCategory":"VFR","rawOb":"METAR SBBQ 011500Z 35009KT CAVOK 23/13 Q1027","temp":23,"dewp":13,"wdir":350,"wspd":9,"visib":"6+","altim":1027,"clouds":[],"obsTime":1782918000},"SBBU":{"icaoId":"SBBU","flightCategory":"VFR","rawOb":"METAR SBBU 011500Z 01007KT CAVOK 28/16 Q1022","temp":28,"dewp":16,"wdir":10,"wspd":7,"visib":"6+","altim":1022,"clouds":[],"obsTime":1782918000},"SBDN":{"icaoId":"SBDN","flightCategory":"VFR","rawOb":"METAR SBDN 011500Z 32004KT CAVOK 28/17 Q1019","temp":28,"dewp":17,"wdir":320,"wspd":4,"visib":"6+","altim":1019,"clouds":[],"obsTime":1782918000},"SBJP":{"icaoId":"SBJP","flightCategory":"VFR","rawOb":"METAR SBJP 011500Z 12017KT 9999 SCT020 29/21 Q1016","temp":29,"dewp":21,"wdir":120,"wspd":17,"visib":"6+","altim":1016,"clouds":[{"cover":"SCT","base":2000}],"obsTime":1782918000},"SBJV":{"icaoId":"SBJV","flightCategory":"VFR","rawOb":"METAR SBJV 011500Z 34004KT 9999 SCT015 22/18 Q1019","temp":22,"dewp":18,"wdir":340,"wspd":4,"visib":"6+","altim":1019,"clouds":[{"cover":"SCT","base":1500}],"obsTime":1782918000},"SBNM":{"icaoId":"SBNM","flightCategory":"IFR","rawOb":"METAR SBNM 011500Z 14002KT 3000 -DZ VCFG FEW004 BKN070 16/15 Q1016","temp":16,"dewp":15,"wdir":140,"wspd":2,"visib":1.86,"altim":1016,"clouds":[{"cover":"FEW","base":400},{"cover":"BKN","base":7000}],"obsTime":1782918000},"SBPF":{"icaoId":"SBPF","flightCategory":"LIFR","rawOb":"METAR SBPF 011500Z 06010KT 9999 -RA BKN004 BKN017 FEW029TCU 17/15 Q1018","temp":17,"dewp":15,"wdir":60,"wspd":10,"visib":"6+","altim":1018,"clouds":[{"cover":"BKN","base":400},{"cover":"BKN","base":1700},{"cover":"FEW","base":2900}],"obsTime":1782918000},"SBAN":{"icaoId":"SBAN","flightCategory":"VFR","rawOb":"METAR SBAN 011500Z 04007KT CAVOK 24/05 Q1024","temp":24,"dewp":5,"wdir":40,"wspd":7,"visib":"6+","altim":1024,"clouds":[],"obsTime":1782918000},"SBLE":{"icaoId":"SBLE","flightCategory":"IFR","rawOb":"METAR SBLE 011500Z AUTO 19004KT 130V260 7000 BKN008 OVC037 ///// Q////","temp":null,"dewp":null,"wdir":190,"wspd":4,"visib":4.35,"altim":null,"clouds":[{"cover":"BKN","base":800},{"cover":"OVC","base":3700}],"obsTime":1782918000},"SBGW":{"icaoId":"SBGW","flightCategory":"VFR","rawOb":"METAR SBGW 011500Z 23003KT CAVOK 25/14 Q1022","temp":25,"dewp":14,"wdir":230,"wspd":3,"visib":"6+","altim":1022,"clouds":[],"obsTime":1782918000},"SBIH":{"icaoId":"SBIH","flightCategory":"VFR","rawOb":"METAR SBIH 011500Z 03008KT 9999 SCT020 31/25 Q1012","temp":31,"dewp":25,"wdir":30,"wspd":8,"visib":"6+","altim":1012,"clouds":[{"cover":"SCT","base":2000}],"obsTime":1782918000},"SBLS":{"icaoId":"SBLS","flightCategory":"VFR","rawOb":"METAR SBLS 011500Z 05005KT 330V100 9999 SCT035 25/14 Q1025","temp":25,"dewp":14,"wdir":50,"wspd":5,"visib":"6+","altim":1025,"clouds":[{"cover":"SCT","base":3500}],"obsTime":1782918000},"SBMT":{"icaoId":"SBMT","flightCategory":"VFR","rawOb":"METAR SBMT 011500Z 33008KT 300V020 CAVOK 27/18 Q1023","temp":27,"dewp":18,"wdir":330,"wspd":8,"visib":"6+","altim":1023,"clouds":[],"obsTime":1782918000},"SBST":{"icaoId":"SBST","flightCategory":"VFR","rawOb":"METAR SBST 011500Z 18002KT CAVOK 28/20 Q1018","temp":28,"dewp":20,"wdir":180,"wspd":2,"visib":"6+","altim":1018,"clouds":[],"obsTime":1782918000},"SBTA":{"icaoId":"SBTA","flightCategory":"VFR","rawOb":"METAR SBTA 011500Z VRB02KT CAVOK 26/15 Q1022","temp":26,"dewp":15,"wdir":"VRB","wspd":2,"visib":"6+","altim":1022,"clouds":[],"obsTime":1782918000},"SBJR":{"icaoId":"SBJR","flightCategory":"VFR","rawOb":"METAR SBJR 011500Z 16006KT CAVOK 31/19 Q1018","temp":31,"dewp":19,"wdir":160,"wspd":6,"visib":"6+","altim":1018,"clouds":[],"obsTime":1782918000}}}