{"updated":1777059701,"count":84,"data":{"SBPV":{"icaoId":"SBPV","flightCategory":"MVFR","rawOb":"METAR SBPV 241800Z 36007KT 9999 VCSH BKN025 FEW030TCU 31/27 Q1010","temp":31,"dewp":27,"wdir":360,"wspd":7,"visib":"6+","altim":1010,"clouds":[{"cover":"BKN","base":2500},{"cover":"FEW","base":3000}],"obsTime":1777053600},"SBFI":{"icaoId":"SBFI","flightCategory":"VFR","rawOb":"METAR SBFI 241800Z 01008KT CAVOK 30/19 Q1013","temp":30,"dewp":19,"wdir":10,"wspd":8,"visib":"6+","altim":1013,"clouds":[],"obsTime":1777053600},"SBMG":{"icaoId":"SBMG","flightCategory":"VFR","rawOb":"METAR SBMG 241800Z 33006KT 290V010 9999 FEW045 29/16 Q1014","temp":29,"dewp":16,"wdir":330,"wspd":6,"visib":"6+","altim":1014,"clouds":[{"cover":"FEW","base":4500}],"obsTime":1777053600},"SBFL":{"icaoId":"SBFL","flightCategory":"VFR","rawOb":"METAR SBFL 241800Z 01012KT 9999 SCT040 28/20 Q1013","temp":28,"dewp":20,"wdir":10,"wspd":12,"visib":"6+","altim":1013,"clouds":[{"cover":"SCT","base":4000}],"obsTime":1777053600},"SBMK":{"icaoId":"SBMK","flightCategory":"VFR","rawOb":"METAR SBMK 241800Z 33004KT 9999 FEW040 30/17 Q1016","temp":30,"dewp":17,"wdir":330,"wspd":4,"visib":"6+","altim":1016,"clouds":[{"cover":"FEW","base":4000}],"obsTime":1777053600},"SBMO":{"icaoId":"SBMO","flightCategory":"MVFR","rawOb":"METAR SBMO 241800Z 11006KT 9999 BKN030 30/23 Q1011","temp":30,"dewp":23,"wdir":110,"wspd":6,"visib":"6+","altim":1011,"clouds":[{"cover":"BKN","base":3000}],"obsTime":1777053600},"SBBV":{"icaoId":"SBBV","flightCategory":"VFR","rawOb":"METAR SBBV 241800Z 15004KT 9999 SCT030 FEW040TCU 32/22 Q1010","temp":32,"dewp":22,"wdir":150,"wspd":4,"visib":"6+","altim":1010,"clouds":[{"cover":"SCT","base":3000},{"cover":"FEW","base":4000}],"obsTime":1777053600},"SBFZ":{"icaoId":"SBFZ","flightCategory":"VFR","rawOb":"METAR SBFZ 241800Z 09009KT 9999 SCT025 30/23 Q1009","temp":30,"dewp":23,"wdir":90,"wspd":9,"visib":"6+","altim":1009,"clouds":[{"cover":"SCT","base":2500}],"obsTime":1777053600},"SBMQ":{"icaoId":"SBMQ","flightCategory":"VFR","rawOb":"METAR SBMQ 241800Z 21006KT 190V250 9999 -RA SCT012 BKN100 27/24 Q1011","temp":27,"dewp":24,"wdir":210,"wspd":6,"visib":"6+","altim":1011,"clouds":[{"cover":"SCT","base":1200},{"cover":"BKN","base":10000}],"obsTime":1777053600},"SBNT":{"icaoId":"SBNT","flightCategory":"IFR","rawOb":"METAR SBNT 241800Z 22007KT 3500 RA BR BKN007 BKN020 OVC070 22/22 Q1011","temp":22,"dewp":22,"wdir":220,"wspd":7,"visib":2.17,"altim":1011,"clouds":[{"cover":"BKN","base":700},{"cover":"BKN","base":2000},{"cover":"OVC","base":7000}],"obsTime":1777053600},"SBBE":{"icaoId":"SBBE","flightCategory":"MVFR","rawOb":"METAR SBBE 241800Z 33005KT 9999 FEW009 BKN015 BKN020 FEW025TCU 26/26 Q1011","temp":26,"dewp":26,"wdir":330,"wspd":5,"visib":"6+","altim":1011,"clouds":[{"cover":"FEW","base":900},{"cover":"BKN","base":1500},{"cover":"BKN","base":2000},{"cover":"FEW","base":2500}],"obsTime":1777053600},"SBPA":{"icaoId":"SBPA","flightCategory":"IFR","rawOb":"METAR SBPA 241800Z 11009KT 5000 -RA BKN008 OVC050 20/19 Q1014 RERA","temp":20,"dewp":19,"wdir":110,"wspd":9,"visib":3.11,"altim":1014,"clouds":[{"cover":"BKN","base":800},{"cover":"OVC","base":5000}],"obsTime":1777053600},"SBGL":{"icaoId":"SBGL","flightCategory":"VFR","rawOb":"METAR SBGL 241800Z 13011KT 9999 FEW030 28/20 Q1014","temp":28,"dewp":20,"wdir":130,"wspd":11,"visib":"6+","altim":1014,"clouds":[{"cover":"FEW","base":3000}],"obsTime":1777053600},"SBCP":{"icaoId":"SBCP","flightCategory":"VFR","rawOb":"METAR SBCP 241800Z 10010KT 9999 FEW025 30/17 Q1015","temp":30,"dewp":17,"wdir":100,"wspd":10,"visib":"6+","altim":1015,"clouds":[{"cover":"FEW","base":2500}],"obsTime":1777053600},"SBPJ":{"icaoId":"SBPJ","flightCategory":"VFR","rawOb":"METAR SBPJ 241800Z 12005KT 9999 VCSH FEW020 FEW027TCU 30/23 Q1011","temp":30,"dewp":23,"wdir":120,"wspd":5,"visib":"6+","altim":1011,"clouds":[{"cover":"FEW","base":2000},{"cover":"FEW","base":2700}],"obsTime":1777053600},"SBMA":{"icaoId":"SBMA","flightCategory":"VFR","rawOb":"METAR SBMA 241800Z 30002KT 9999 SCT020 FEW023TCU BKN100 30/25 Q1010","temp":30,"dewp":25,"wdir":300,"wspd":2,"visib":"6+","altim":1010,"clouds":[{"cover":"SCT","base":2000},{"cover":"FEW","base":2300},{"cover":"BKN","base":10000}],"obsTime":1777053600},"SBME":{"icaoId":"SBME","flightCategory":"VFR","rawOb":"METAR SBME 241800Z 10010KT 9999 FEW040 29/21 Q1015","temp":29,"dewp":21,"wdir":100,"wspd":10,"visib":"6+","altim":1015,"clouds":[{"cover":"FEW","base":4000}],"obsTime":1777053600},"SBCF":{"icaoId":"SBCF","flightCategory":"VFR","rawOb":"METAR SBCF 241800Z VRB02KT 9999 BKN040 26/16 Q1019","temp":26,"dewp":16,"wdir":"VRB","wspd":2,"visib":"6+","altim":1019,"clouds":[{"cover":"BKN","base":4000}],"obsTime":1777053600},"SBEG":{"icaoId":"SBEG","flightCategory":"VFR","rawOb":"METAR SBEG 241800Z 00000KT 9999 FEW020 FEW025TCU SCT100 29/24 Q1010","temp":29,"dewp":24,"wdir":0,"wspd":0,"visib":"6+","altim":1010,"clouds":[{"cover":"FEW","base":2000},{"cover":"FEW","base":2500},{"cover":"SCT","base":10000}],"obsTime":1777053600},"SBCG":{"icaoId":"SBCG","flightCategory":"VFR","rawOb":"METAR SBCG 241800Z 29007KT 240V340 9999 SCT046 32/18 Q1014","temp":32,"dewp":18,"wdir":290,"wspd":7,"visib":"6+","altim":1014,"clouds":[{"cover":"SCT","base":4600}],"obsTime":1777053600},"SBAT":{"icaoId":"SBAT","flightCategory":"VFR","rawOb":"METAR SBAT 241800Z 16005KT 9999 SCT030 32/24 Q1011","temp":32,"dewp":24,"wdir":160,"wspd":5,"visib":"6+","altim":1011,"clouds":[{"cover":"SCT","base":3000}],"obsTime":1777053600},"SBGO":{"icaoId":"SBGO","flightCategory":"VFR","rawOb":"METAR SBGO 241800Z VRB05KT CAVOK 31/15 Q1016","temp":31,"dewp":15,"wdir":"VRB","wspd":5,"visib":"6+","altim":1016,"clouds":[],"obsTime":1777053600},"SBRB":{"icaoId":"SBRB","flightCategory":"MVFR","rawOb":"METAR SBRB 241800Z 08008KT 040V110 9999 FEW007 BKN025 BKN100 29/24 Q1011","temp":29,"dewp":24,"wdir":80,"wspd":8,"visib":"6+","altim":1011,"clouds":[{"cover":"FEW","base":700},{"cover":"BKN","base":2500},{"cover":"BKN","base":10000}],"obsTime":1777053600},"SBRF":{"icaoId":"SBRF","flightCategory":"VFR","rawOb":"METAR SBRF 241800Z 15011KT 9999 FEW025 29/23 Q1010","temp":29,"dewp":23,"wdir":150,"wspd":11,"visib":"6+","altim":1010,"clouds":[{"cover":"FEW","base":2500}],"obsTime":1777053600},"SBGR":{"icaoId":"SBGR","flightCategory":"VFR","rawOb":"METAR SBGR 241800Z 11003KT 9999 SCT049 SCT050 29/16 Q1017","temp":29,"dewp":16,"wdir":110,"wspd":3,"visib":"6+","altim":1017,"clouds":[{"cover":"SCT","base":4900},{"cover":"SCT","base":5000}],"obsTime":1777053600},"SBCR":{"icaoId":"SBCR","flightCategory":"VFR","rawOb":"METAR SBCR 241800Z 33004KT 260V030 CAVOK 33/20 Q1011","temp":33,"dewp":20,"wdir":330,"wspd":4,"visib":"6+","altim":1011,"clouds":[],"obsTime":1777053600},"SBSG":{"icaoId":"SBSG","flightCategory":"LIFR","rawOb":"METAR SBSG 241800Z 18007KT 130V210 2000 -RA BR BKN004 BKN007 22/22 Q1011","temp":22,"dewp":22,"wdir":180,"wspd":7,"visib":1.24,"altim":1011,"clouds":[{"cover":"BKN","base":400},{"cover":"BKN","base":700}],"obsTime":1777053600},"SBCT":{"icaoId":"SBCT","flightCategory":"VFR","rawOb":"METAR SBCT 241800Z 31007KT 9999 SCT045 26/14 Q1018","temp":26,"dewp":14,"wdir":310,"wspd":7,"visib":"6+","altim":1018,"clouds":[{"cover":"SCT","base":4500}],"obsTime":1777053600},"SBSL":{"icaoId":"SBSL","flightCategory":"MVFR","rawOb":"METAR SBSL 241800Z 36007KT 9999 FEW013 BKN020 FEW025TCU 28/25 Q1009","temp":28,"dewp":25,"wdir":360,"wspd":7,"visib":"6+","altim":1009,"clouds":[{"cover":"FEW","base":1300},{"cover":"BKN","base":2000},{"cover":"FEW","base":2500}],"obsTime":1777053600},"SBHT":{"icaoId":"SBHT","flightCategory":"MVFR","rawOb":"METAR SBHT 241800Z 05005KT 9999 BKN020 BKN100 28/24 Q1011","temp":28,"dewp":24,"wdir":50,"wspd":5,"visib":"6+","altim":1011,"clouds":[{"cover":"BKN","base":2000},{"cover":"BKN","base":10000}],"obsTime":1777053600},"SBSN":{"icaoId":"SBSN","flightCategory":"VFR","rawOb":"METAR SBSN 241800Z 09013KT 9999 SCT018 SCT100 29/24 Q1011","temp":29,"dewp":24,"wdir":90,"wspd":13,"visib":"6+","altim":1011,"clouds":[{"cover":"SCT","base":1800},{"cover":"SCT","base":10000}],"obsTime":1777053600},"SBCB":{"icaoId":"SBCB","flightCategory":"VFR","rawOb":"METAR SBCB 241800Z 10012KT CAVOK 27/20 Q1015","temp":27,"dewp":20,"wdir":100,"wspd":12,"visib":"6+","altim":1015,"clouds":[],"obsTime":1777053600},"SBSP":{"icaoId":"SBSP","flightCategory":"VFR","rawOb":"METAR SBSP 241800Z VRB04KT CAVOK 28/13 Q1018","temp":28,"dewp":13,"wdir":"VRB","wspd":4,"visib":"6+","altim":1018,"clouds":[],"obsTime":1777053600},"SBSV":{"icaoId":"SBSV","flightCategory":"VFR","rawOb":"METAR SBSV 241800Z 12009KT 9999 FEW023 SCT050 29/24 Q1012","temp":29,"dewp":24,"wdir":120,"wspd":9,"visib":"6+","altim":1012,"clouds":[{"cover":"FEW","base":2300},{"cover":"SCT","base":5000}],"obsTime":1777053600},"SBTE":{"icaoId":"SBTE","flightCategory":"MVFR","rawOb":"METAR SBTE 241800Z 12006KT 9999 BKN025 FEW030TCU 33/23 Q1008","temp":33,"dewp":23,"wdir":120,"wspd":6,"visib":"6+","altim":1008,"clouds":[{"cover":"BKN","base":2500},{"cover":"FEW","base":3000}],"obsTime":1777053600},"SBIL":{"icaoId":"SBIL","flightCategory":"MVFR","rawOb":"METAR SBIL 241800Z 18010KT 140V220 5000 2000E -RADZ SCT008 BKN016 BKN070 26/25 Q1015","temp":26,"dewp":25,"wdir":180,"wspd":10,"visib":3.11,"altim":1015,"clouds":[{"cover":"SCT","base":800},{"cover":"BKN","base":1600},{"cover":"BKN","base":7000}],"obsTime":1777053600},"SBBR":{"icaoId":"SBBR","flightCategory":"VFR","rawOb":"METAR SBBR 241800Z 06007KT 010V080 9999 SCT045 27/13 Q1018","temp":27,"dewp":13,"wdir":60,"wspd":7,"visib":"6+","altim":1018,"clouds":[{"cover":"SCT","base":4500}],"obsTime":1777053600},"SBUL":{"icaoId":"SBUL","flightCategory":"VFR","rawOb":"METAR SBUL 241800Z 07007KT 9999 FEW045 27/14 Q1019","temp":27,"dewp":14,"wdir":70,"wspd":7,"visib":"6+","altim":1019,"clouds":[{"cover":"FEW","base":4500}],"obsTime":1777053600},"SBJU":{"icaoId":"SBJU","flightCategory":"VFR","rawOb":"METAR SBJU 241800Z 13004KT 9999 SCT022 FEW024TCU 31/22 Q1011","temp":31,"dewp":22,"wdir":130,"wspd":4,"visib":"6+","altim":1011,"clouds":[{"cover":"SCT","base":2200},{"cover":"FEW","base":2400}],"obsTime":1777053600},"SBUR":{"icaoId":"SBUR","flightCategory":"VFR","rawOb":"METAR SBUR 241800Z 01006KT 9999 FEW045 BKN070 28/13 Q1018","temp":28,"dewp":13,"wdir":10,"wspd":6,"visib":"6+","altim":1018,"clouds":[{"cover":"FEW","base":4500},{"cover":"BKN","base":7000}],"obsTime":1777053600},"SBVT":{"icaoId":"SBVT","flightCategory":"VFR","rawOb":"METAR SBVT 241800Z 15011KT 9999 FEW035 27/21 Q1016","temp":27,"dewp":21,"wdir":150,"wspd":11,"visib":"6+","altim":1016,"clouds":[{"cover":"FEW","base":3500}],"obsTime":1777053600},"SBCZ":{"icaoId":"SBCZ","flightCategory":"MVFR","rawOb":"METAR SBCZ 241800Z 21003KT 9999 BKN015 OVC100 26/23 Q1012","temp":26,"dewp":23,"wdir":210,"wspd":3,"visib":"6+","altim":1012,"clouds":[{"cover":"BKN","base":1500},{"cover":"OVC","base":10000}],"obsTime":1777053600},"SBKP":{"icaoId":"SBKP","flightCategory":"VFR","rawOb":"METAR SBKP 241800Z 00000KT CAVOK 30/16 Q1017","temp":30,"dewp":16,"wdir":0,"wspd":0,"visib":"6+","altim":1017,"clouds":[],"obsTime":1777053600},"SBLO":{"icaoId":"SBLO","flightCategory":"VFR","rawOb":"METAR SBLO 241800Z VRB05KT CAVOK 29/17 Q1015","temp":29,"dewp":17,"wdir":"VRB","wspd":5,"visib":"6+","altim":1015,"clouds":[],"obsTime":1777053600},"SBOI":{"icaoId":"SBOI","flightCategory":"VFR","rawOb":"METAR SBOI 241800Z AUTO 13003KT 9999 -RA SCT048 25/23 Q1011","temp":25,"dewp":23,"wdir":130,"wspd":3,"visib":"6+","altim":1011,"clouds":[{"cover":"SCT","base":4800}],"obsTime":1777053600},"SBAR":{"icaoId":"SBAR","flightCategory":"VFR","rawOb":"METAR SBAR 241800Z 08007KT 9999 FEW027 29/24 Q1011","temp":29,"dewp":24,"wdir":80,"wspd":7,"visib":"6+","altim":1011,"clouds":[{"cover":"FEW","base":2700}],"obsTime":1777053600},"SBAX":{"icaoId":"SBAX","flightCategory":"VFR","rawOb":"METAR SBAX 241800Z 31003KT 9999 BKN042 26/13 Q1019","temp":26,"dewp":13,"wdir":310,"wspd":3,"visib":"6+","altim":1019,"clouds":[{"cover":"BKN","base":4200}],"obsTime":1777053600},"SBBH":{"icaoId":"SBBH","flightCategory":"VFR","rawOb":"METAR SBBH 241800Z 12006KT 9999 SCT045 SCT060 26/15 Q1018","temp":26,"dewp":15,"wdir":120,"wspd":6,"visib":"6+","altim":1018,"clouds":[{"cover":"SCT","base":4500},{"cover":"SCT","base":6000}],"obsTime":1777053600},"SBBQ":{"icaoId":"SBBQ","flightCategory":"VFR","rawOb":"METAR SBBQ 241800Z 05005KT 9999 BKN045 23/14 Q1022","temp":23,"dewp":14,"wdir":50,"wspd":5,"visib":"6+","altim":1022,"clouds":[{"cover":"BKN","base":4500}],"obsTime":1777053600},"SBBU":{"icaoId":"SBBU","flightCategory":"VFR","rawOb":"METAR SBBU 241800Z /////KT 9999 FEW040 31/19 Q1016","temp":31,"dewp":19,"wdir":null,"wspd":null,"visib":"6+","altim":1016,"clouds":[{"cover":"FEW","base":4000}],"obsTime":1777053600},"SBCA":{"icaoId":"SBCA","flightCategory":"VFR","rawOb":"METAR SBCA 241800Z 01009KT CAVOK 26/15 Q1017","temp":26,"dewp":15,"wdir":10,"wspd":9,"visib":"6+","altim":1017,"clouds":[],"obsTime":1777053600},"SBCC":{"icaoId":"SBCC","flightCategory":"MVFR","rawOb":"METAR SBCC 241800Z 06012KT 9999 BKN030 30/19 Q1012","temp":30,"dewp":19,"wdir":60,"wspd":12,"visib":"6+","altim":1012,"clouds":[{"cover":"BKN","base":3000}],"obsTime":1777053600},"SBCJ":{"icaoId":"SBCJ","flightCategory":"VFR","rawOb":"METAR SBCJ 241800Z 00000KT 9999 FEW015 SCT020 25/23 Q1015","temp":25,"dewp":23,"wdir":0,"wspd":0,"visib":"6+","altim":1015,"clouds":[{"cover":"FEW","base":1500},{"cover":"SCT","base":2000}],"obsTime":1777053600},"SBCO":{"icaoId":"SBCO","flightCategory":"IFR","rawOb":"METAR SBCO 241800Z 12013KT 4000 -RA BR BKN006 OVC060 20/20 Q1014 RERA","temp":20,"dewp":20,"wdir":120,"wspd":13,"visib":2.49,"altim":1014,"clouds":[{"cover":"BKN","base":600},{"cover":"OVC","base":6000}],"obsTime":1777053600},"SBDN":{"icaoId":"SBDN","flightCategory":"VFR","rawOb":"METAR SBDN 241800Z 32006KT 9999 SCT049 33/17 Q1014","temp":33,"dewp":17,"wdir":320,"wspd":6,"visib":"6+","altim":1014,"clouds":[{"cover":"SCT","base":4900}],"obsTime":1777053600},"SBES":{"icaoId":"SBES","flightCategory":"VFR","rawOb":"METAR SBES 241800Z 09010KT 350V130 9999 FEW020 28/// Q1015","temp":null,"dewp":null,"wdir":90,"wspd":10,"visib":"6+","altim":1015,"clouds":[{"cover":"FEW","base":2000}],"obsTime":1777053600},"SBGM":{"icaoId":"SBGM","flightCategory":"VFR","rawOb":"METAR SBGM 241800Z 01010KT 340V050 9999 SCT033 SCT036 32/15 Q1010","temp":32,"dewp":15,"wdir":10,"wspd":10,"visib":"6+","altim":1010,"clouds":[{"cover":"SCT","base":3300},{"cover":"SCT","base":3600}],"obsTime":1777053600},"SBIP":{"icaoId":"SBIP","flightCategory":"VFR","rawOb":"METAR SBIP 241800Z AUTO 01004KT 310V070 9999 FEW048 29/17 Q1016","temp":29,"dewp":17,"wdir":10,"wspd":4,"visib":"6+","altim":1016,"clouds":[{"cover":"FEW","base":4800}],"obsTime":1777053600},"SBKG":{"icaoId":"SBKG","flightCategory":"VFR","rawOb":"METAR SBKG 241800Z 07008KT 9999 FEW020 BKN100 25/21 Q1013","temp":25,"dewp":21,"wdir":70,"wspd":8,"visib":"6+","altim":1013,"clouds":[{"cover":"FEW","base":2000},{"cover":"BKN","base":10000}],"obsTime":1777053600},"SBPB":{"icaoId":"SBPB","flightCategory":"VFR","rawOb":"METAR SBPB 241800Z 06013KT 9999 FEW020 SCT100 30/25 Q1008","temp":30,"dewp":25,"wdir":60,"wspd":13,"visib":"6+","altim":1008,"clouds":[{"cover":"FEW","base":2000},{"cover":"SCT","base":10000}],"obsTime":1777053600},"SBPL":{"icaoId":"SBPL","flightCategory":"VFR","rawOb":"METAR SBPL 241800Z 16006KT 9999 SCT025 33/19 Q1011","temp":33,"dewp":19,"wdir":160,"wspd":6,"visib":"6+","altim":1011,"clouds":[{"cover":"SCT","base":2500}],"obsTime":1777053600},"SBPP":{"icaoId":"SBPP","flightCategory":"VFR","rawOb":"METAR SBPP 241800Z 04009KT CAVOK 29/16 Q1015","temp":29,"dewp":16,"wdir":40,"wspd":9,"visib":"6+","altim":1015,"clouds":[],"obsTime":1777053600},"SBPS":{"icaoId":"SBPS","flightCategory":"MVFR","rawOb":"METAR SBPS 241800Z 15005KT 8000 -RA SCT015 FEW025TCU OVC040 25/23 Q1015","temp":25,"dewp":23,"wdir":150,"wspd":5,"visib":4.97,"altim":1015,"clouds":[{"cover":"SCT","base":1500},{"cover":"FEW","base":2500},{"cover":"OVC","base":4000}],"obsTime":1777053600},"SBSC":{"icaoId":"SBSC","flightCategory":"VFR","rawOb":"METAR SBSC 241800Z 17009KT 9999 FEW030 29/21 Q1014","temp":29,"dewp":21,"wdir":170,"wspd":9,"visib":"6+","altim":1014,"clouds":[{"cover":"FEW","base":3000}],"obsTime":1777053600},"SBSJ":{"icaoId":"SBSJ","flightCategory":"VFR","rawOb":"METAR SBSJ 241800Z 24002KT CAVOK 29/15 Q1017","temp":29,"dewp":15,"wdir":240,"wspd":2,"visib":"6+","altim":1017,"clouds":[],"obsTime":1777053600},"SBSM":{"icaoId":"SBSM","flightCategory":"IFR","rawOb":"METAR SBSM 241800Z 12006KT 9999 BKN005 OVC012 20/19 Q1015 RERA","temp":20,"dewp":19,"wdir":120,"wspd":6,"visib":"6+","altim":1015,"clouds":[{"cover":"BKN","base":500},{"cover":"OVC","base":1200}],"obsTime":1777053600},"SBSR":{"icaoId":"SBSR","flightCategory":"VFR","rawOb":"METAR SBSR 241800Z 33004KT 9999 FEW030 SCT070 30/16 Q1015","temp":30,"dewp":16,"wdir":330,"wspd":4,"visib":"6+","altim":1015,"clouds":[{"cover":"FEW","base":3000},{"cover":"SCT","base":7000}],"obsTime":1777053600},"SBTF":{"icaoId":"SBTF","flightCategory":"VFR","rawOb":"METAR SBTF 241800Z 12006KT 9999 SCT020 33/24 Q1009","temp":33,"dewp":24,"wdir":120,"wspd":6,"visib":"6+","altim":1009,"clouds":[{"cover":"SCT","base":2000}],"obsTime":1777053600},"SBTT":{"icaoId":"SBTT","flightCategory":"MVFR","rawOb":"METAR SBTT 241800Z 18003KT 9999 BKN014 25/21 Q1012","temp":25,"dewp":21,"wdir":180,"wspd":3,"visib":"6+","altim":1012,"clouds":[{"cover":"BKN","base":1400}],"obsTime":1777053600},"SBUY":{"icaoId":"SBUY","flightCategory":"VFR","rawOb":"METAR SBUY 241800Z 33002KT 9999 FEW012 SCT020 OVC090 25/24 Q1010 RERA","temp":25,"dewp":24,"wdir":330,"wspd":2,"visib":"6+","altim":1010,"clouds":[{"cover":"FEW","base":1200},{"cover":"SCT","base":2000},{"cover":"OVC","base":9000}],"obsTime":1777053600},"SBVH":{"icaoId":"SBVH","flightCategory":"MVFR","rawOb":"METAR SBVH 241800Z 05007KT 9999 BKN030 29/22 Q1014","temp":29,"dewp":22,"wdir":50,"wspd":7,"visib":"6+","altim":1014,"clouds":[{"cover":"BKN","base":3000}],"obsTime":1777053600},"SBAU":{"icaoId":"SBAU","flightCategory":"VFR","rawOb":"METAR SBAU 241800Z 03006KT CAVOK 35/19 Q1014","temp":35,"dewp":19,"wdir":30,"wspd":6,"visib":"6+","altim":1014,"clouds":[],"obsTime":1777053600},"SBLE":{"icaoId":"SBLE","flightCategory":"VFR","rawOb":"METAR SBLE 241800Z AUTO 07010KT 9999 -RA SCT024 BKN039 OVC048 25/25 Q1015","temp":25,"dewp":25,"wdir":70,"wspd":10,"visib":"6+","altim":1015,"clouds":[{"cover":"SCT","base":2400},{"cover":"BKN","base":3900},{"cover":"OVC","base":4800}],"obsTime":1777053600},"SBAN":{"icaoId":"SBAN","flightCategory":"VFR","rawOb":"METAR SBAN 241800Z 19005KT 120V230 9999 SCT040 28/11 Q1019","temp":28,"dewp":11,"wdir":190,"wspd":5,"visib":"6+","altim":1019,"clouds":[{"cover":"SCT","base":4000}],"obsTime":1777053600},"SBAF":{"icaoId":"SBAF","flightCategory":"VFR","rawOb":"METAR SBAF 241800Z 13006KT 9999 FEW040 30/18 Q1014","temp":30,"dewp":18,"wdir":130,"wspd":6,"visib":"6+","altim":1014,"clouds":[{"cover":"FEW","base":4000}],"obsTime":1777053600},"SBGW":{"icaoId":"SBGW","flightCategory":"VFR","rawOb":"METAR SBGW 241800Z 36004KT 290V060 9999 FEW035 29/15 Q1016","temp":29,"dewp":15,"wdir":360,"wspd":4,"visib":"6+","altim":1016,"clouds":[{"cover":"FEW","base":3500}],"obsTime":1777053600},"SBJR":{"icaoId":"SBJR","flightCategory":"VFR","rawOb":"METAR SBJR 241800Z 20004KT 9999 FEW030 30/21 Q1014","temp":30,"dewp":21,"wdir":200,"wspd":4,"visib":"6+","altim":1014,"clouds":[{"cover":"FEW","base":3000}],"obsTime":1777053600},"SBLS":{"icaoId":"SBLS","flightCategory":"VFR","rawOb":"METAR SBLS 241800Z 14005KT 050V150 9999 BKN043 25/16 Q1018","temp":25,"dewp":16,"wdir":140,"wspd":5,"visib":"6+","altim":1018,"clouds":[{"cover":"BKN","base":4300}],"obsTime":1777053600},"SBMT":{"icaoId":"SBMT","flightCategory":"VFR","rawOb":"METAR SBMT 241800Z 00000KT 9999 BKN045 28/14 Q1017","temp":28,"dewp":14,"wdir":0,"wspd":0,"visib":"6+","altim":1017,"clouds":[{"cover":"BKN","base":4500}],"obsTime":1777053600},"SBST":{"icaoId":"SBST","flightCategory":"VFR","rawOb":"METAR SBST 241800Z 12006KT 9999 FEW035 27/20 Q1014","temp":27,"dewp":20,"wdir":120,"wspd":6,"visib":"6+","altim":1014,"clouds":[{"cover":"FEW","base":3500}],"obsTime":1777053600},"SBTA":{"icaoId":"SBTA","flightCategory":"VFR","rawOb":"METAR SBTA 241800Z 36003KT 300V070 9999 SCT035 28/15 Q1016","temp":28,"dewp":15,"wdir":360,"wspd":3,"visib":"6+","altim":1016,"clouds":[{"cover":"SCT","base":3500}],"obsTime":1777053600},"SBJV":{"icaoId":"SBJV","flightCategory":"MVFR","rawOb":"METAR SBJV 241800Z 06006KT 030V100 9999 BKN030 28/21 Q1014","temp":28,"dewp":21,"wdir":60,"wspd":6,"visib":"6+","altim":1014,"clouds":[{"cover":"BKN","base":3000}],"obsTime":1777053600},"SBJP":{"icaoId":"SBJP","flightCategory":"VFR","rawOb":"METAR SBJP 241800Z 12006KT 9999 FEW020 BKN100 28/23 Q1011","temp":28,"dewp":23,"wdir":120,"wspd":6,"visib":"6+","altim":1011,"clouds":[{"cover":"FEW","base":2000},{"cover":"BKN","base":10000}],"obsTime":1777053600},"SBIH":{"icaoId":"SBIH","flightCategory":"VFR","rawOb":"METAR SBIH 241800Z 33002KT 9999 SCT018 31/24 Q1010","temp":31,"dewp":24,"wdir":330,"wspd":2,"visib":"6+","altim":1010,"clouds":[{"cover":"SCT","base":1800}],"obsTime":1777053600}}}