{"updated":1776182333,"count":87,"data":{"SBRB":{"icaoId":"SBRB","flightCategory":"MVFR","rawOb":"METAR SBRB 141400Z 33004KT 9999 BKN012 BKN025 27/25 Q1012","temp":27,"dewp":25,"wdir":330,"wspd":4,"visib":"6+","altim":1012,"clouds":[{"cover":"BKN","base":1200},{"cover":"BKN","base":2500}],"obsTime":1776175200},"SBAT":{"icaoId":"SBAT","flightCategory":"VFR","rawOb":"METAR SBAT 141400Z 00000KT 9999 SCT020 30/25 Q1013","temp":30,"dewp":25,"wdir":0,"wspd":0,"visib":"6+","altim":1013,"clouds":[{"cover":"SCT","base":2000}],"obsTime":1776175200},"SBBE":{"icaoId":"SBBE","flightCategory":"VFR","rawOb":"METAR SBBE 141400Z 03003KT 9999 SCT015 28/24 Q1011","temp":28,"dewp":24,"wdir":30,"wspd":3,"visib":"6+","altim":1011,"clouds":[{"cover":"SCT","base":1500}],"obsTime":1776175200},"SBBR":{"icaoId":"SBBR","flightCategory":"MVFR","rawOb":"METAR SBBR 141400Z 10010KT 060V140 9999 SCT020 BKN025 23/18 Q1019","temp":23,"dewp":18,"wdir":100,"wspd":10,"visib":"6+","altim":1019,"clouds":[{"cover":"SCT","base":2000},{"cover":"BKN","base":2500}],"obsTime":1776175200},"SBBV":{"icaoId":"SBBV","flightCategory":"VFR","rawOb":"METAR SBBV 141400Z 08016KT 9999 FEW020 SCT100 30/20 Q1012","temp":30,"dewp":20,"wdir":80,"wspd":16,"visib":"6+","altim":1012,"clouds":[{"cover":"FEW","base":2000},{"cover":"SCT","base":10000}],"obsTime":1776175200},"SBCB":{"icaoId":"SBCB","flightCategory":"VFR","rawOb":"METAR SBCB 141400Z 23006KT 9999 FEW025 26/20 Q1016","temp":26,"dewp":20,"wdir":230,"wspd":6,"visib":"6+","altim":1016,"clouds":[{"cover":"FEW","base":2500}],"obsTime":1776175200},"SBCF":{"icaoId":"SBCF","flightCategory":"VFR","rawOb":"METAR SBCF 141400Z 13005KT 090V190 9999 SCT026 23/17 Q1019","temp":23,"dewp":17,"wdir":130,"wspd":5,"visib":"6+","altim":1019,"clouds":[{"cover":"SCT","base":2600}],"obsTime":1776175200},"SBCG":{"icaoId":"SBCG","flightCategory":"VFR","rawOb":"METAR SBCG 141400Z 07012KT CAVOK 28/19 Q1014","temp":28,"dewp":19,"wdir":70,"wspd":12,"visib":"6+","altim":1014,"clouds":[],"obsTime":1776175200},"SBCP":{"icaoId":"SBCP","flightCategory":"VFR","rawOb":"METAR SBCP 141400Z 24005KT 9999 FEW020 28/18 Q1015","temp":28,"dewp":18,"wdir":240,"wspd":5,"visib":"6+","altim":1015,"clouds":[{"cover":"FEW","base":2000}],"obsTime":1776175200},"SBCR":{"icaoId":"SBCR","flightCategory":"VFR","rawOb":"METAR SBCR 141400Z 03008KT 360V060 9999 FEW030 30/24 Q1012","temp":30,"dewp":24,"wdir":30,"wspd":8,"visib":"6+","altim":1012,"clouds":[{"cover":"FEW","base":3000}],"obsTime":1776175200},"SBCT":{"icaoId":"SBCT","flightCategory":"MVFR","rawOb":"METAR SBCT 141400Z 07008KT 040V110 9999 SCT021 BKN030 20/15 Q1021","temp":20,"dewp":15,"wdir":70,"wspd":8,"visib":"6+","altim":1021,"clouds":[{"cover":"SCT","base":2100},{"cover":"BKN","base":3000}],"obsTime":1776175200},"SBCZ":{"icaoId":"SBCZ","flightCategory":"MVFR","rawOb":"METAR SBCZ 141400Z 15007KT 9999 BKN015 28/25 Q1012","temp":28,"dewp":25,"wdir":150,"wspd":7,"visib":"6+","altim":1012,"clouds":[{"cover":"BKN","base":1500}],"obsTime":1776175200},"SBEG":{"icaoId":"SBEG","flightCategory":"MVFR","rawOb":"METAR SBEG 141400Z 36004KT 320V090 9999 BKN011 BKN046 27/24 Q1012","temp":27,"dewp":24,"wdir":360,"wspd":4,"visib":"6+","altim":1012,"clouds":[{"cover":"BKN","base":1100},{"cover":"BKN","base":4600}],"obsTime":1776175200},"SBFI":{"icaoId":"SBFI","flightCategory":"VFR","rawOb":"METAR SBFI 141400Z 06008KT CAVOK 27/22 Q1013","temp":27,"dewp":22,"wdir":60,"wspd":8,"visib":"6+","altim":1013,"clouds":[],"obsTime":1776175200},"SBFL":{"icaoId":"SBFL","flightCategory":"VFR","rawOb":"METAR SBFL 141400Z 28007KT 9999 SCT030 BKN070 25/21 Q1018","temp":25,"dewp":21,"wdir":280,"wspd":7,"visib":"6+","altim":1018,"clouds":[{"cover":"SCT","base":3000},{"cover":"BKN","base":7000}],"obsTime":1776175200},"SBFZ":{"icaoId":"SBFZ","flightCategory":"IFR","rawOb":"METAR SBFZ 141400Z COR 11007KT 4000 -RA BR BKN010 BKN020 OVC080 26/24 Q1011","temp":26,"dewp":24,"wdir":110,"wspd":7,"visib":2.49,"altim":1011,"clouds":[{"cover":"BKN","base":1000},{"cover":"BKN","base":2000},{"cover":"OVC","base":8000}],"obsTime":1776175200},"SBGL":{"icaoId":"SBGL","flightCategory":"VFR","rawOb":"METAR SBGL 141400Z VRB03KT 9999 SCT030 28/19 Q1016","temp":28,"dewp":19,"wdir":"VRB","wspd":3,"visib":"6+","altim":1016,"clouds":[{"cover":"SCT","base":3000}],"obsTime":1776175200},"SBGO":{"icaoId":"SBGO","flightCategory":"VFR","rawOb":"METAR SBGO 141400Z 09009KT 050V110 9999 BKN035 27/19 Q1017","temp":27,"dewp":19,"wdir":90,"wspd":9,"visib":"6+","altim":1017,"clouds":[{"cover":"BKN","base":3500}],"obsTime":1776175200},"SBGR":{"icaoId":"SBGR","flightCategory":"VFR","rawOb":"METAR SBGR 141400Z 05005KT 9999 SCT025 23/15 Q1020","temp":23,"dewp":15,"wdir":50,"wspd":5,"visib":"6+","altim":1020,"clouds":[{"cover":"SCT","base":2500}],"obsTime":1776175200},"SBHT":{"icaoId":"SBHT","flightCategory":"MVFR","rawOb":"METAR SBHT 141400Z 06002KT 9999 BKN020 SCT080 29/23 Q1012","temp":29,"dewp":23,"wdir":60,"wspd":2,"visib":"6+","altim":1012,"clouds":[{"cover":"BKN","base":2000},{"cover":"SCT","base":8000}],"obsTime":1776175200},"SBIL":{"icaoId":"SBIL","flightCategory":"VFR","rawOb":"METAR SBIL 141400Z 19009KT 150V220 9999 SCT023 30/22 Q1014","temp":30,"dewp":22,"wdir":190,"wspd":9,"visib":"6+","altim":1014,"clouds":[{"cover":"SCT","base":2300}],"obsTime":1776175200},"SBJU":{"icaoId":"SBJU","flightCategory":"MVFR","rawOb":"METAR SBJU 141400Z 13010KT 9999 BKN020 28/22 Q1013","temp":28,"dewp":22,"wdir":130,"wspd":10,"visib":"6+","altim":1013,"clouds":[{"cover":"BKN","base":2000}],"obsTime":1776175200},"SBKP":{"icaoId":"SBKP","flightCategory":"VFR","rawOb":"METAR SBKP 141400Z 11007KT CAVOK 24/16 Q1019","temp":24,"dewp":16,"wdir":110,"wspd":7,"visib":"6+","altim":1019,"clouds":[],"obsTime":1776175200},"SBLO":{"icaoId":"SBLO","flightCategory":"VFR","rawOb":"METAR SBLO 141400Z 10010KT 070V140 9999 FEW017 25/18 Q1017","temp":25,"dewp":18,"wdir":100,"wspd":10,"visib":"6+","altim":1017,"clouds":[{"cover":"FEW","base":1700}],"obsTime":1776175200},"SBMA":{"icaoId":"SBMA","flightCategory":"MVFR","rawOb":"METAR SBMA 141400Z 25004KT 9999 BKN018 29/24 Q1011","temp":29,"dewp":24,"wdir":250,"wspd":4,"visib":"6+","altim":1011,"clouds":[{"cover":"BKN","base":1800}],"obsTime":1776175200},"SBME":{"icaoId":"SBME","flightCategory":"VFR","rawOb":"METAR SBME 141400Z 17006KT 9999 FEW030 28/20 Q1015","temp":28,"dewp":20,"wdir":170,"wspd":6,"visib":"6+","altim":1015,"clouds":[{"cover":"FEW","base":3000}],"obsTime":1776175200},"SBMG":{"icaoId":"SBMG","flightCategory":"VFR","rawOb":"METAR SBMG 141400Z 07010KT 9999 FEW030 27/18 Q1016","temp":27,"dewp":18,"wdir":70,"wspd":10,"visib":"6+","altim":1016,"clouds":[{"cover":"FEW","base":3000}],"obsTime":1776175200},"SBMK":{"icaoId":"SBMK","flightCategory":"MVFR","rawOb":"METAR SBMK 141400Z 09007KT 9999 BKN025 25/18 Q1017","temp":25,"dewp":18,"wdir":90,"wspd":7,"visib":"6+","altim":1017,"clouds":[{"cover":"BKN","base":2500}],"obsTime":1776175200},"SBMO":{"icaoId":"SBMO","flightCategory":"VFR","rawOb":"METAR SBMO 141400Z 08003KT 9000 VCSH FEW018 SCT025 BKN060 28/25 Q1012","temp":28,"dewp":25,"wdir":80,"wspd":3,"visib":5.59,"altim":1012,"clouds":[{"cover":"FEW","base":1800},{"cover":"SCT","base":2500},{"cover":"BKN","base":6000}],"obsTime":1776175200},"SBMQ":{"icaoId":"SBMQ","flightCategory":"MVFR","rawOb":"METAR SBMQ 141400Z 06004KT 9999 BKN018 29/26 Q1011","temp":29,"dewp":26,"wdir":60,"wspd":4,"visib":"6+","altim":1011,"clouds":[{"cover":"BKN","base":1800}],"obsTime":1776175200},"SBNT":{"icaoId":"SBNT","flightCategory":"MVFR","rawOb":"METAR SBNT 141400Z 11014KT 9999 VCSH BKN025 FEW027TCU SCT070 29/24 Q1010","temp":29,"dewp":24,"wdir":110,"wspd":14,"visib":"6+","altim":1010,"clouds":[{"cover":"BKN","base":2500},{"cover":"FEW","base":2700},{"cover":"SCT","base":7000}],"obsTime":1776175200},"SBPA":{"icaoId":"SBPA","flightCategory":"VFR","rawOb":"METAR SBPA 141400Z 09004KT 050V140 CAVOK 26/20 Q1015","temp":26,"dewp":20,"wdir":90,"wspd":4,"visib":"6+","altim":1015,"clouds":[],"obsTime":1776175200},"SBPJ":{"icaoId":"SBPJ","flightCategory":"VFR","rawOb":"METAR SBPJ 141400Z 28004KT 9999 BKN035 29/24 Q1012","temp":29,"dewp":24,"wdir":280,"wspd":4,"visib":"6+","altim":1012,"clouds":[{"cover":"BKN","base":3500}],"obsTime":1776175200},"SBPV":{"icaoId":"SBPV","flightCategory":"VFR","rawOb":"METAR SBPV 141400Z 07004KT 9999 FEW007 BKN100 26/24 Q1011","temp":26,"dewp":24,"wdir":70,"wspd":4,"visib":"6+","altim":1011,"clouds":[{"cover":"FEW","base":700},{"cover":"BKN","base":10000}],"obsTime":1776175200},"SBRF":{"icaoId":"SBRF","flightCategory":"VFR","rawOb":"METAR SBRF 141400Z 13012KT 090V160 9999 VCSH SCT020 29/25 Q1010","temp":29,"dewp":25,"wdir":130,"wspd":12,"visib":"6+","altim":1010,"clouds":[{"cover":"SCT","base":2000}],"obsTime":1776175200},"SBSG":{"icaoId":"SBSG","flightCategory":"MVFR","rawOb":"METAR SBSG 141400Z 10007KT 9000 VCSH BKN023 FEW025TCU BKN050 27/25 Q1010","temp":27,"dewp":25,"wdir":100,"wspd":7,"visib":5.59,"altim":1010,"clouds":[{"cover":"BKN","base":2300},{"cover":"FEW","base":2500},{"cover":"BKN","base":5000}],"obsTime":1776175200},"SBSL":{"icaoId":"SBSL","flightCategory":"VFR","rawOb":"METAR SBSL 141400Z 08009KT 9999 SCT020 BKN100 30/24 Q1010","temp":30,"dewp":24,"wdir":80,"wspd":9,"visib":"6+","altim":1010,"clouds":[{"cover":"SCT","base":2000},{"cover":"BKN","base":10000}],"obsTime":1776175200},"SBSN":{"icaoId":"SBSN","flightCategory":"VFR","rawOb":"METAR SBSN 141400Z COR 05005KT 9999 SCT015 BKN100 28/25 Q1011","temp":28,"dewp":25,"wdir":50,"wspd":5,"visib":"6+","altim":1011,"clouds":[{"cover":"SCT","base":1500},{"cover":"BKN","base":10000}],"obsTime":1776175200},"SBSP":{"icaoId":"SBSP","flightCategory":"VFR","rawOb":"METAR SBSP 141400Z VRB06KT 9999 SCT033 23/15 Q1020","temp":23,"dewp":15,"wdir":"VRB","wspd":6,"visib":"6+","altim":1020,"clouds":[{"cover":"SCT","base":3300}],"obsTime":1776175200},"SBSV":{"icaoId":"SBSV","flightCategory":"MVFR","rawOb":"METAR SBSV 141400Z 12016KT 090V160 9999 VCSH BKN022 FEW025TCU BKN055 27/22 Q1013","temp":27,"dewp":22,"wdir":120,"wspd":16,"visib":"6+","altim":1013,"clouds":[{"cover":"BKN","base":2200},{"cover":"FEW","base":2500},{"cover":"BKN","base":5500}],"obsTime":1776175200},"SBTE":{"icaoId":"SBTE","flightCategory":"MVFR","rawOb":"METAR SBTE 141400Z 15005KT 9999 BKN016 30/25 Q1010","temp":30,"dewp":25,"wdir":150,"wspd":5,"visib":"6+","altim":1010,"clouds":[{"cover":"BKN","base":1600}],"obsTime":1776175200},"SBUL":{"icaoId":"SBUL","flightCategory":"VFR","rawOb":"METAR SBUL 141400Z 09009KT 9999 SCT025 25/18 Q1019","temp":25,"dewp":18,"wdir":90,"wspd":9,"visib":"6+","altim":1019,"clouds":[{"cover":"SCT","base":2500}],"obsTime":1776175200},"SBUR":{"icaoId":"SBUR","flightCategory":"VFR","rawOb":"METAR SBUR 141400Z 02006KT 9999 SCT036 26/17 Q1017","temp":26,"dewp":17,"wdir":20,"wspd":6,"visib":"6+","altim":1017,"clouds":[{"cover":"SCT","base":3600}],"obsTime":1776175200},"SBVT":{"icaoId":"SBVT","flightCategory":"VFR","rawOb":"METAR SBVT 141400Z 14009KT 9999 FEW040 27/21 Q1015","temp":27,"dewp":21,"wdir":140,"wspd":9,"visib":"6+","altim":1015,"clouds":[{"cover":"FEW","base":4000}],"obsTime":1776175200},"SBOI":{"icaoId":"SBOI","flightCategory":"VFR","rawOb":"METAR SBOI 141400Z AUTO 05006KT 010V100 9999 FEW026 SCT035 30/25 Q1011","temp":30,"dewp":25,"wdir":50,"wspd":6,"visib":"6+","altim":1011,"clouds":[{"cover":"FEW","base":2600},{"cover":"SCT","base":3500}],"obsTime":1776175200},"SBAR":{"icaoId":"SBAR","flightCategory":"MVFR","rawOb":"METAR SBAR 141400Z 17006KT 9999 VCSH BKN015 SCT030 BKN035 27/24 Q1011","temp":27,"dewp":24,"wdir":170,"wspd":6,"visib":"6+","altim":1011,"clouds":[{"cover":"BKN","base":1500},{"cover":"SCT","base":3000},{"cover":"BKN","base":3500}],"obsTime":1776175200},"SBAX":{"icaoId":"SBAX","flightCategory":"VFR","rawOb":"METAR SBAX 141400Z 04006KT 9999 SCT025 25/16 Q1019","temp":25,"dewp":16,"wdir":40,"wspd":6,"visib":"6+","altim":1019,"clouds":[{"cover":"SCT","base":2500}],"obsTime":1776175200},"SBBH":{"icaoId":"SBBH","flightCategory":"VFR","rawOb":"METAR SBBH 141400Z 05006KT 9999 SCT030 25/17 Q1018","temp":25,"dewp":17,"wdir":50,"wspd":6,"visib":"6+","altim":1018,"clouds":[{"cover":"SCT","base":3000}],"obsTime":1776175200},"SBBQ":{"icaoId":"SBBQ","flightCategory":"MVFR","rawOb":"METAR SBBQ 141400Z 06005KT 9999 BKN026 22/14 Q1022","temp":22,"dewp":14,"wdir":60,"wspd":5,"visib":"6+","altim":1022,"clouds":[{"cover":"BKN","base":2600}],"obsTime":1776175200},"SBBU":{"icaoId":"SBBU","flightCategory":"VFR","rawOb":"METAR SBBU 141400Z 09004KT CAVOK 26/19 Q1017","temp":26,"dewp":19,"wdir":90,"wspd":4,"visib":"6+","altim":1017,"clouds":[],"obsTime":1776175200},"SBCA":{"icaoId":"SBCA","flightCategory":"VFR","rawOb":"METAR SBCA 141400Z 06012KT CAVOK 24/17 Q1018","temp":24,"dewp":17,"wdir":60,"wspd":12,"visib":"6+","altim":1018,"clouds":[],"obsTime":1776175200},"SBCC":{"icaoId":"SBCC","flightCategory":"VFR","rawOb":"METAR SBCC 141400Z 05004KT 9999 SCT025 FEW030TCU SCT100 28/22 Q1014","temp":28,"dewp":22,"wdir":50,"wspd":4,"visib":"6+","altim":1014,"clouds":[{"cover":"SCT","base":2500},{"cover":"FEW","base":3000},{"cover":"SCT","base":10000}],"obsTime":1776175200},"SBCJ":{"icaoId":"SBCJ","flightCategory":"VFR","rawOb":"METAR SBCJ 141400Z 09006KT 9999 SCT013 BKN080 26/23 Q1016","temp":26,"dewp":23,"wdir":90,"wspd":6,"visib":"6+","altim":1016,"clouds":[{"cover":"SCT","base":1300},{"cover":"BKN","base":8000}],"obsTime":1776175200},"SBCO":{"icaoId":"SBCO","flightCategory":"VFR","rawOb":"METAR SBCO 141400Z 14004KT 070V200 9999 FEW020 26/21 Q1016","temp":26,"dewp":21,"wdir":140,"wspd":4,"visib":"6+","altim":1016,"clouds":[{"cover":"FEW","base":2000}],"obsTime":1776175200},"SBDN":{"icaoId":"SBDN","flightCategory":"VFR","rawOb":"METAR SBDN 141400Z 07009KT CAVOK 29/18 Q1015","temp":29,"dewp":18,"wdir":70,"wspd":9,"visib":"6+","altim":1015,"clouds":[],"obsTime":1776175200},"SBES":{"icaoId":"SBES","flightCategory":"VFR","rawOb":"METAR SBES 141400Z VRB06KT 9999 FEW020 24/// Q1016","temp":null,"dewp":null,"wdir":"VRB","wspd":6,"visib":"6+","altim":1016,"clouds":[{"cover":"FEW","base":2000}],"obsTime":1776175200},"SBGM":{"icaoId":"SBGM","flightCategory":"MVFR","rawOb":"METAR SBGM 141400Z 31007KT 9999 BKN013 28/22 Q1012","temp":28,"dewp":22,"wdir":310,"wspd":7,"visib":"6+","altim":1012,"clouds":[{"cover":"BKN","base":1300}],"obsTime":1776175200},"SBIP":{"icaoId":"SBIP","flightCategory":"VFR","rawOb":"METAR SBIP 141400Z AUTO VRB04KT 9999 FEW024 SCT028 27/20 Q1016","temp":27,"dewp":20,"wdir":"VRB","wspd":4,"visib":"6+","altim":1016,"clouds":[{"cover":"FEW","base":2400},{"cover":"SCT","base":2800}],"obsTime":1776175200},"SBKG":{"icaoId":"SBKG","flightCategory":"MVFR","rawOb":"METAR SBKG 141400Z 12010KT 9999 BKN018 27/22 Q1013","temp":27,"dewp":22,"wdir":120,"wspd":10,"visib":"6+","altim":1013,"clouds":[{"cover":"BKN","base":1800}],"obsTime":1776175200},"SBPB":{"icaoId":"SBPB","flightCategory":"VFR","rawOb":"METAR SBPB 141400Z 05005KT 9999 SCT010 SCT015 28/25 Q1010","temp":28,"dewp":25,"wdir":50,"wspd":5,"visib":"6+","altim":1010,"clouds":[{"cover":"SCT","base":1000},{"cover":"SCT","base":1500}],"obsTime":1776175200},"SBPL":{"icaoId":"SBPL","flightCategory":"MVFR","rawOb":"METAR SBPL 141400Z 12011KT 9999 BKN025 28/20 Q1013","temp":28,"dewp":20,"wdir":120,"wspd":11,"visib":"6+","altim":1013,"clouds":[{"cover":"BKN","base":2500}],"obsTime":1776175200},"SBPP":{"icaoId":"SBPP","flightCategory":"VFR","rawOb":"METAR SBPP 141400Z 03010KT CAVOK 26/21 Q1015","temp":26,"dewp":21,"wdir":30,"wspd":10,"visib":"6+","altim":1015,"clouds":[],"obsTime":1776175200},"SBPS":{"icaoId":"SBPS","flightCategory":"VFR","rawOb":"METAR SBPS 141400Z VRB05KT 9999 SCT025 28/22 Q1015","temp":28,"dewp":22,"wdir":"VRB","wspd":5,"visib":"6+","altim":1015,"clouds":[{"cover":"SCT","base":2500}],"obsTime":1776175200},"SBSC":{"icaoId":"SBSC","flightCategory":"VFR","rawOb":"METAR SBSC 141400Z 22006KT 9999 SCT022 27/21 Q1016","temp":27,"dewp":21,"wdir":220,"wspd":6,"visib":"6+","altim":1016,"clouds":[{"cover":"SCT","base":2200}],"obsTime":1776175200},"SBSJ":{"icaoId":"SBSJ","flightCategory":"VFR","rawOb":"METAR SBSJ 141400Z 04004KT 330V080 9999 SCT033 22/16 Q1019","temp":22,"dewp":16,"wdir":40,"wspd":4,"visib":"6+","altim":1019,"clouds":[{"cover":"SCT","base":3300}],"obsTime":1776175200},"SBSM":{"icaoId":"SBSM","flightCategory":"VFR","rawOb":"METAR SBSM 141400Z 11007KT 9999 FEW012 24/20 Q1015","temp":24,"dewp":20,"wdir":110,"wspd":7,"visib":"6+","altim":1015,"clouds":[{"cover":"FEW","base":1200}],"obsTime":1776175200},"SBSR":{"icaoId":"SBSR","flightCategory":"VFR","rawOb":"METAR SBSR 141400Z 08007KT CAVOK 28/15 Q1016","temp":28,"dewp":15,"wdir":80,"wspd":7,"visib":"6+","altim":1016,"clouds":[],"obsTime":1776175200},"SBTD":{"icaoId":"SBTD","flightCategory":"VFR","rawOb":"METAR SBTD 141400Z /////KT 9999 FEW030 26/20 Q1016","temp":26,"dewp":20,"wdir":null,"wspd":null,"visib":"6+","altim":1016,"clouds":[{"cover":"FEW","base":3000}],"obsTime":1776175200},"SBTF":{"icaoId":"SBTF","flightCategory":"VFR","rawOb":"METAR SBTF 141400Z 07007KT 9999 SCT010 28/25 Q1012","temp":28,"dewp":25,"wdir":70,"wspd":7,"visib":"6+","altim":1012,"clouds":[{"cover":"SCT","base":1000}],"obsTime":1776175200},"SBTT":{"icaoId":"SBTT","flightCategory":"VFR","rawOb":"METAR SBTT 141400Z 23004KT 170V280 9999 SCT017 28/24 Q1011","temp":28,"dewp":24,"wdir":230,"wspd":4,"visib":"6+","altim":1011,"clouds":[{"cover":"SCT","base":1700}],"obsTime":1776175200},"SBUY":{"icaoId":"SBUY","flightCategory":"VFR","rawOb":"METAR SBUY 141400Z 14002KT 9999 SCT013 SCT090 28/25 Q1010","temp":28,"dewp":25,"wdir":140,"wspd":2,"visib":"6+","altim":1010,"clouds":[{"cover":"SCT","base":1300},{"cover":"SCT","base":9000}],"obsTime":1776175200},"SBVH":{"icaoId":"SBVH","flightCategory":"VFR","rawOb":"METAR SBVH 141400Z 08003KT 9999 SCT017 BKN100 26/23 Q1014","temp":26,"dewp":23,"wdir":80,"wspd":3,"visib":"6+","altim":1014,"clouds":[{"cover":"SCT","base":1700},{"cover":"BKN","base":10000}],"obsTime":1776175200},"SBAU":{"icaoId":"SBAU","flightCategory":"VFR","rawOb":"METAR SBAU 141400Z 09010KT CAVOK 29/19 Q1015","temp":29,"dewp":19,"wdir":90,"wspd":10,"visib":"6+","altim":1015,"clouds":[],"obsTime":1776175200},"SBAF":{"icaoId":"SBAF","flightCategory":"VFR","rawOb":"METAR SBAF 141400Z 23005KT 9999 FEW025 28/20 Q1016","temp":28,"dewp":20,"wdir":230,"wspd":5,"visib":"6+","altim":1016,"clouds":[{"cover":"FEW","base":2500}],"obsTime":1776175200},"SBGW":{"icaoId":"SBGW","flightCategory":"VFR","rawOb":"METAR SBGW 141400Z 06004KT 9999 SCT025 24/14 Q1019","temp":24,"dewp":14,"wdir":60,"wspd":4,"visib":"6+","altim":1019,"clouds":[{"cover":"SCT","base":2500}],"obsTime":1776175200},"SBJR":{"icaoId":"SBJR","flightCategory":"VFR","rawOb":"METAR SBJR 141400Z 18004KT 9999 FEW025 29/20 Q1016","temp":29,"dewp":20,"wdir":180,"wspd":4,"visib":"6+","altim":1016,"clouds":[{"cover":"FEW","base":2500}],"obsTime":1776175200},"SBLS":{"icaoId":"SBLS","flightCategory":"VFR","rawOb":"METAR SBLS 141400Z 13007KT 040V130 9999 SCT030 24/16 Q1018","temp":24,"dewp":16,"wdir":130,"wspd":7,"visib":"6+","altim":1018,"clouds":[{"cover":"SCT","base":3000}],"obsTime":1776175200},"SBMT":{"icaoId":"SBMT","flightCategory":"VFR","rawOb":"METAR SBMT 141400Z 09006KT 9999 SCT020 23/15 Q1019","temp":23,"dewp":15,"wdir":90,"wspd":6,"visib":"6+","altim":1019,"clouds":[{"cover":"SCT","base":2000}],"obsTime":1776175200},"SBST":{"icaoId":"SBST","flightCategory":"VFR","rawOb":"METAR SBST 141400Z 15008KT 9999 FEW031 26/21 Q1016","temp":26,"dewp":21,"wdir":150,"wspd":8,"visib":"6+","altim":1016,"clouds":[{"cover":"FEW","base":3100}],"obsTime":1776175200},"SBTA":{"icaoId":"SBTA","flightCategory":"VFR","rawOb":"METAR SBTA 141400Z 07004KT 010V180 9999 BKN040 24/14 Q1018","temp":24,"dewp":14,"wdir":70,"wspd":4,"visib":"6+","altim":1018,"clouds":[{"cover":"BKN","base":4000}],"obsTime":1776175200},"SBIH":{"icaoId":"SBIH","flightCategory":"MVFR","rawOb":"METAR SBIH 141400Z 06004KT 9999 BKN015 28/25 Q1011","temp":28,"dewp":25,"wdir":60,"wspd":4,"visib":"6+","altim":1011,"clouds":[{"cover":"BKN","base":1500}],"obsTime":1776175200},"SBJP":{"icaoId":"SBJP","flightCategory":"VFR","rawOb":"METAR SBJP 141400Z 10013KT 010V150 9999 VCSH SCT020 FEW025TCU 30/25 Q1010","temp":30,"dewp":25,"wdir":100,"wspd":13,"visib":"6+","altim":1010,"clouds":[{"cover":"SCT","base":2000},{"cover":"FEW","base":2500}],"obsTime":1776175200},"SBJV":{"icaoId":"SBJV","flightCategory":"MVFR","rawOb":"METAR SBJV 141400Z 04005KT 9999 BKN025 27/21 Q1017","temp":27,"dewp":21,"wdir":40,"wspd":5,"visib":"6+","altim":1017,"clouds":[{"cover":"BKN","base":2500}],"obsTime":1776175200},"SBNM":{"icaoId":"SBNM","flightCategory":"VFR","rawOb":"METAR SBNM 141400Z 07006KT CAVOK 27/23 Q1014","temp":27,"dewp":23,"wdir":70,"wspd":6,"visib":"6+","altim":1014,"clouds":[],"obsTime":1776175200},"SBPF":{"icaoId":"SBPF","flightCategory":"VFR","rawOb":"METAR SBPF 141400Z 03012KT CAVOK 23/16 Q1019","temp":23,"dewp":16,"wdir":30,"wspd":12,"visib":"6+","altim":1019,"clouds":[],"obsTime":1776175200},"SBAN":{"icaoId":"SBAN","flightCategory":"MVFR","rawOb":"METAR SBAN 141400Z 11010KT 9999 BKN025 24/17 Q1020","temp":24,"dewp":17,"wdir":110,"wspd":10,"visib":"6+","altim":1020,"clouds":[{"cover":"BKN","base":2500}],"obsTime":1776175200},"SBLE":{"icaoId":"SBLE","flightCategory":"VFR","rawOb":"METAR SBLE 141400Z AUTO 17006KT 080V220 9999 SCT025 BKN035 25/20 Q1016","temp":25,"dewp":20,"wdir":170,"wspd":6,"visib":"6+","altim":1016,"clouds":[{"cover":"SCT","base":2500},{"cover":"BKN","base":3500}],"obsTime":1776175200}}}