{"updated":1773867623,"count":84,"data":{"SBSG":{"icaoId":"SBSG","flightCategory":"VFR","rawOb":"METAR SBSG 182000Z 12007KT 090V160 9999 SCT025 FEW030TCU 28/23 Q1009","temp":28,"dewp":23,"wdir":120,"wspd":7,"visib":"6+","altim":1009,"clouds":[{"cover":"SCT","base":2500},{"cover":"FEW","base":3000}],"obsTime":1773864000},"SBMA":{"icaoId":"SBMA","flightCategory":"VFR","rawOb":"METAR SBMA 182000Z 07003KT 9999 SCT020 FEW023TCU SCT100 28/25 Q1007","temp":28,"dewp":25,"wdir":70,"wspd":3,"visib":"6+","altim":1007,"clouds":[{"cover":"SCT","base":2000},{"cover":"FEW","base":2300},{"cover":"SCT","base":10000}],"obsTime":1773864000},"SBFL":{"icaoId":"SBFL","flightCategory":"VFR","rawOb":"METAR SBFL 182000Z 01001KT 9999 FEW020 28/23 Q1008","temp":28,"dewp":23,"wdir":10,"wspd":1,"visib":"6+","altim":1008,"clouds":[{"cover":"FEW","base":2000}],"obsTime":1773864000},"SBBE":{"icaoId":"SBBE","flightCategory":"IFR","rawOb":"SPECI SBBE 181915Z 05020KT 2000 RA FEW013 FEW025TCU BKN038 BKN100 26/24 Q1007","temp":26,"dewp":24,"wdir":50,"wspd":20,"visib":1.24,"altim":1007,"clouds":[{"cover":"FEW","base":1300},{"cover":"FEW","base":2500},{"cover":"BKN","base":3800},{"cover":"BKN","base":10000}],"obsTime":1773861300},"SBFZ":{"icaoId":"SBFZ","flightCategory":"VFR","rawOb":"METAR SBFZ 182000Z 13005KT 9999 SCT025 BKN090 27/23 Q1007","temp":27,"dewp":23,"wdir":130,"wspd":5,"visib":"6+","altim":1007,"clouds":[{"cover":"SCT","base":2500},{"cover":"BKN","base":9000}],"obsTime":1773864000},"SBCR":{"icaoId":"SBCR","flightCategory":"VFR","rawOb":"METAR SBCR 182000Z 30006KT 250V330 9999 SCT020 SCT070 25/24 Q1008","temp":25,"dewp":24,"wdir":300,"wspd":6,"visib":"6+","altim":1008,"clouds":[{"cover":"SCT","base":2000},{"cover":"SCT","base":7000}],"obsTime":1773864000},"SBGL":{"icaoId":"SBGL","flightCategory":"VFR","rawOb":"METAR SBGL 182000Z 14011KT 9999 SCT030 27/22 Q1008","temp":27,"dewp":22,"wdir":140,"wspd":11,"visib":"6+","altim":1008,"clouds":[{"cover":"SCT","base":3000}],"obsTime":1773864000},"SBMO":{"icaoId":"SBMO","flightCategory":"VFR","rawOb":"METAR SBMO 182000Z 10010KT 9999 FEW030 29/22 Q1009","temp":29,"dewp":22,"wdir":100,"wspd":10,"visib":"6+","altim":1009,"clouds":[{"cover":"FEW","base":3000}],"obsTime":1773864000},"SBCB":{"icaoId":"SBCB","flightCategory":"VFR","rawOb":"METAR SBCB 182000Z 10011KT 9999 SCT020 27/22 Q1009","temp":27,"dewp":22,"wdir":100,"wspd":11,"visib":"6+","altim":1009,"clouds":[{"cover":"SCT","base":2000}],"obsTime":1773864000},"SBMQ":{"icaoId":"SBMQ","flightCategory":"VFR","rawOb":"METAR SBMQ 182000Z 08002KT 9999 SCT017 BKN100 28/24 Q1008","temp":28,"dewp":24,"wdir":80,"wspd":2,"visib":"6+","altim":1008,"clouds":[{"cover":"SCT","base":1700},{"cover":"BKN","base":10000}],"obsTime":1773864000},"SBGO":{"icaoId":"SBGO","flightCategory":"VFR","rawOb":"METAR SBGO 182000Z 30011KT 9999 VCSH FEW025 SCT042 FEW048TCU 28/21 Q1011","temp":28,"dewp":21,"wdir":300,"wspd":11,"visib":"6+","altim":1011,"clouds":[{"cover":"FEW","base":2500},{"cover":"SCT","base":4200},{"cover":"FEW","base":4800}],"obsTime":1773864000},"SBSP":{"icaoId":"SBSP","flightCategory":"MVFR","rawOb":"METAR SBSP 182000Z 15010KT 6000 TS VCSH FEW030 FEW045CB BKN050 BKN080 24/21 Q1013","temp":24,"dewp":21,"wdir":150,"wspd":10,"visib":3.73,"altim":1013,"clouds":[{"cover":"FEW","base":3000},{"cover":"FEW","base":4500},{"cover":"BKN","base":5000},{"cover":"BKN","base":8000}],"obsTime":1773864000},"SBSN":{"icaoId":"SBSN","flightCategory":"VFR","rawOb":"METAR SBSN 182000Z 07005KT 9999 FEW017 SCT100 29/24 Q1006","temp":29,"dewp":24,"wdir":70,"wspd":5,"visib":"6+","altim":1006,"clouds":[{"cover":"FEW","base":1700},{"cover":"SCT","base":10000}],"obsTime":1773864000},"SBBR":{"icaoId":"SBBR","flightCategory":"VFR","rawOb":"METAR SBBR 182000Z 03005KT 340V060 9999 SCT040 FEW050TCU 27/18 Q1013","temp":27,"dewp":18,"wdir":30,"wspd":5,"visib":"6+","altim":1013,"clouds":[{"cover":"SCT","base":4000},{"cover":"FEW","base":5000}],"obsTime":1773864000},"SBSL":{"icaoId":"SBSL","flightCategory":"MVFR","rawOb":"SPECI SBSL 181910Z 16008KT 130V190 6000 -TSRA FEW009 BKN012 FEW025CB OVC070 24/23 Q1008","temp":24,"dewp":23,"wdir":160,"wspd":8,"visib":3.73,"altim":1008,"clouds":[{"cover":"FEW","base":900},{"cover":"BKN","base":1200},{"cover":"FEW","base":2500},{"cover":"OVC","base":7000}],"obsTime":1773861000},"SBTE":{"icaoId":"SBTE","flightCategory":"MVFR","rawOb":"SPECI SBTE 181931Z 09013KT 6000 SHRA BKN020 FEW025TCU 28/24 Q1007","temp":28,"dewp":24,"wdir":90,"wspd":13,"visib":3.73,"altim":1007,"clouds":[{"cover":"BKN","base":2000},{"cover":"FEW","base":2500}],"obsTime":1773862260},"SBEG":{"icaoId":"SBEG","flightCategory":"VFR","rawOb":"METAR SBEG 182000Z 05004KT 9999 SCT025 FEW030TCU BKN100 29/24 Q1007","temp":29,"dewp":24,"wdir":50,"wspd":4,"visib":"6+","altim":1007,"clouds":[{"cover":"SCT","base":2500},{"cover":"FEW","base":3000},{"cover":"BKN","base":10000}],"obsTime":1773864000},"SBPV":{"icaoId":"SBPV","flightCategory":"VFR","rawOb":"METAR SBPV 182000Z 30003KT CAVOK 30/22 Q1008","temp":30,"dewp":22,"wdir":300,"wspd":3,"visib":"6+","altim":1008,"clouds":[],"obsTime":1773864000},"SBLO":{"icaoId":"SBLO","flightCategory":"VFR","rawOb":"METAR SBLO 182000Z 02004KT 9999 SCT030 FEW050TCU 29/23 Q1009","temp":29,"dewp":23,"wdir":20,"wspd":4,"visib":"6+","altim":1009,"clouds":[{"cover":"SCT","base":3000},{"cover":"FEW","base":5000}],"obsTime":1773864000},"SBRB":{"icaoId":"SBRB","flightCategory":"VFR","rawOb":"METAR SBRB 182000Z 02006KT 9999 SCT005 BKN100 27/24 Q1009","temp":27,"dewp":24,"wdir":20,"wspd":6,"visib":"6+","altim":1009,"clouds":[{"cover":"SCT","base":500},{"cover":"BKN","base":10000}],"obsTime":1773864000},"SBRF":{"icaoId":"SBRF","flightCategory":"VFR","rawOb":"METAR SBRF 182000Z 11009KT 9999 FEW025 29/23 Q1009","temp":29,"dewp":23,"wdir":110,"wspd":9,"visib":"6+","altim":1009,"clouds":[{"cover":"FEW","base":2500}],"obsTime":1773864000},"SBFI":{"icaoId":"SBFI","flightCategory":"VFR","rawOb":"METAR SBFI 182000Z 35003KT 9999 SCT035 30/23 Q1008","temp":30,"dewp":23,"wdir":350,"wspd":3,"visib":"6+","altim":1008,"clouds":[{"cover":"SCT","base":3500}],"obsTime":1773864000},"SBBV":{"icaoId":"SBBV","flightCategory":"VFR","rawOb":"METAR SBBV 182000Z 09012KT 9999 BKN040 FEW045TCU SCT080 34/18 Q1008","temp":34,"dewp":18,"wdir":90,"wspd":12,"visib":"6+","altim":1008,"clouds":[{"cover":"BKN","base":4000},{"cover":"FEW","base":4500},{"cover":"SCT","base":8000}],"obsTime":1773864000},"SBME":{"icaoId":"SBME","flightCategory":"VFR","rawOb":"METAR SBME 182000Z 13007KT 9999 SCT030 BKN100 28/23 Q1009","temp":28,"dewp":23,"wdir":130,"wspd":7,"visib":"6+","altim":1009,"clouds":[{"cover":"SCT","base":3000},{"cover":"BKN","base":10000}],"obsTime":1773864000},"SBMG":{"icaoId":"SBMG","flightCategory":"VFR","rawOb":"METAR SBMG 182000Z 05009KT 210V270 9999 FEW030TCU 30/21 Q1009","temp":30,"dewp":21,"wdir":50,"wspd":9,"visib":"6+","altim":1009,"clouds":[{"cover":"FEW","base":3000}],"obsTime":1773864000},"SBMK":{"icaoId":"SBMK","flightCategory":"VFR","rawOb":"METAR SBMK 182000Z 01006KT 9999 BKN040 FEW045TCU 28/21 Q1011 RETS","temp":28,"dewp":21,"wdir":10,"wspd":6,"visib":"6+","altim":1011,"clouds":[{"cover":"BKN","base":4000},{"cover":"FEW","base":4500}],"obsTime":1773864000},"SBNT":{"icaoId":"SBNT","flightCategory":"VFR","rawOb":"METAR SBNT 182000Z 13013KT 9999 SCT025 29/23 Q1008","temp":29,"dewp":23,"wdir":130,"wspd":13,"visib":"6+","altim":1008,"clouds":[{"cover":"SCT","base":2500}],"obsTime":1773864000},"SBPA":{"icaoId":"SBPA","flightCategory":"MVFR","rawOb":"SPECI SBPA 181918Z 26006KT 200V300 9999 4000S TS VCSH BKN010 SCT035 FEW040CB BKN100 30/23 Q1007","temp":30,"dewp":23,"wdir":260,"wspd":6,"visib":"6+","altim":1007,"clouds":[{"cover":"BKN","base":1000},{"cover":"SCT","base":3500},{"cover":"FEW","base":4000},{"cover":"BKN","base":10000}],"obsTime":1773861480},"SBPJ":{"icaoId":"SBPJ","flightCategory":"VFR","rawOb":"METAR SBPJ 182000Z 03003KT 9999 SCT025 FEW030TCU 27/25 Q1007 RETS","temp":27,"dewp":25,"wdir":30,"wspd":3,"visib":"6+","altim":1007,"clouds":[{"cover":"SCT","base":2500},{"cover":"FEW","base":3000}],"obsTime":1773864000},"SBVT":{"icaoId":"SBVT","flightCategory":"VFR","rawOb":"METAR SBVT 182000Z 06007KT 9999 SCT045 BKN100 28/24 Q1008","temp":28,"dewp":24,"wdir":60,"wspd":7,"visib":"6+","altim":1008,"clouds":[{"cover":"SCT","base":4500},{"cover":"BKN","base":10000}],"obsTime":1773864000},"SBCF":{"icaoId":"SBCF","flightCategory":"VFR","rawOb":"METAR SBCF 182000Z 05004KT 9999 VCSH FEW035 FEW040TCU BKN080 25/19 Q1013 RETS","temp":25,"dewp":19,"wdir":50,"wspd":4,"visib":"6+","altim":1013,"clouds":[{"cover":"FEW","base":3500},{"cover":"FEW","base":4000},{"cover":"BKN","base":8000}],"obsTime":1773864000},"SBCG":{"icaoId":"SBCG","flightCategory":"MVFR","rawOb":"SPECI SBCG 181910Z 08007KT 7000 -TSRA FEW008 BKN035 FEW040CB 23/21 Q1011 RERA","temp":23,"dewp":21,"wdir":80,"wspd":7,"visib":4.35,"altim":1011,"clouds":[{"cover":"FEW","base":800},{"cover":"BKN","base":3500},{"cover":"FEW","base":4000}],"obsTime":1773861000},"SBCP":{"icaoId":"SBCP","flightCategory":"VFR","rawOb":"METAR SBCP 182000Z 11010KT 9999 SCT020 28/23 Q1008","temp":28,"dewp":23,"wdir":110,"wspd":10,"visib":"6+","altim":1008,"clouds":[{"cover":"SCT","base":2000}],"obsTime":1773864000},"SBCT":{"icaoId":"SBCT","flightCategory":"MVFR","rawOb":"METAR SBCT 182000Z 07009KT 8000 TS VCSH SCT020 FEW030CB BKN080 22/19 Q1013","temp":22,"dewp":19,"wdir":70,"wspd":9,"visib":4.97,"altim":1013,"clouds":[{"cover":"SCT","base":2000},{"cover":"FEW","base":3000},{"cover":"BKN","base":8000}],"obsTime":1773864000},"SBCZ":{"icaoId":"SBCZ","flightCategory":"VFR","rawOb":"METAR SBCZ 182000Z 02003KT 9999 SCT020 BKN100 29/24 Q1008","temp":29,"dewp":24,"wdir":20,"wspd":3,"visib":"6+","altim":1008,"clouds":[{"cover":"SCT","base":2000},{"cover":"BKN","base":10000}],"obsTime":1773864000},"SBGR":{"icaoId":"SBGR","flightCategory":"VFR","rawOb":"METAR SBGR 182000Z 23002KT 9000 -RA NSC 24/23 Q1012","temp":24,"dewp":23,"wdir":230,"wspd":2,"visib":5.59,"altim":1012,"clouds":[],"obsTime":1773864000},"SBHT":{"icaoId":"SBHT","flightCategory":"VFR","rawOb":"METAR SBHT 182000Z 09002KT 9999 SCT025 31/24 Q1007","temp":31,"dewp":24,"wdir":90,"wspd":2,"visib":"6+","altim":1007,"clouds":[{"cover":"SCT","base":2500}],"obsTime":1773864000},"SBIL":{"icaoId":"SBIL","flightCategory":"VFR","rawOb":"METAR SBIL 182000Z 08009KT CAVOK 30/24 Q1009","temp":30,"dewp":24,"wdir":80,"wspd":9,"visib":"6+","altim":1009,"clouds":[],"obsTime":1773864000},"SBJU":{"icaoId":"SBJU","flightCategory":"VFR","rawOb":"METAR SBJU 182000Z 09005KT 9999 SCT020 FEW022TCU 27/23 Q1009","temp":27,"dewp":23,"wdir":90,"wspd":5,"visib":"6+","altim":1009,"clouds":[{"cover":"SCT","base":2000},{"cover":"FEW","base":2200}],"obsTime":1773864000},"SBKP":{"icaoId":"SBKP","flightCategory":"VFR","rawOb":"METAR SBKP 182000Z 28006KT 9999 FEW040 FEW045TCU 29/22 Q1010","temp":29,"dewp":22,"wdir":280,"wspd":6,"visib":"6+","altim":1010,"clouds":[{"cover":"FEW","base":4000},{"cover":"FEW","base":4500}],"obsTime":1773864000},"SBSV":{"icaoId":"SBSV","flightCategory":"VFR","rawOb":"METAR SBSV 182000Z 10008KT 9999 FEW028 29/22 Q1009","temp":29,"dewp":22,"wdir":100,"wspd":8,"visib":"6+","altim":1009,"clouds":[{"cover":"FEW","base":2800}],"obsTime":1773864000},"SBUL":{"icaoId":"SBUL","flightCategory":"MVFR","rawOb":"METAR SBUL 182000Z 03007KT 9999 VCSH BKN030 BKN070 27/19 Q1013","temp":27,"dewp":19,"wdir":30,"wspd":7,"visib":"6+","altim":1013,"clouds":[{"cover":"BKN","base":3000},{"cover":"BKN","base":7000}],"obsTime":1773864000},"SBUR":{"icaoId":"SBUR","flightCategory":"VFR","rawOb":"METAR SBUR 182000Z 28014KT 9999 3000W TS VCSH FEW008 SCT035 FEW040CB 22/20 Q1012","temp":22,"dewp":20,"wdir":280,"wspd":14,"visib":"6+","altim":1012,"clouds":[{"cover":"FEW","base":800},{"cover":"SCT","base":3500},{"cover":"FEW","base":4000}],"obsTime":1773864000},"SBAT":{"icaoId":"SBAT","flightCategory":"VFR","rawOb":"METAR SBAT 182000Z 27003KT 9999 VCSH SCT035 FEW040TCU 34/24 Q1007","temp":34,"dewp":24,"wdir":270,"wspd":3,"visib":"6+","altim":1007,"clouds":[{"cover":"SCT","base":3500},{"cover":"FEW","base":4000}],"obsTime":1773864000},"SBTT":{"icaoId":"SBTT","flightCategory":"MVFR","rawOb":"METAR SBTT 182000Z 24004KT 200V290 6000 FEW008 SCT060 BKN080 24/21 Q1009","temp":24,"dewp":21,"wdir":240,"wspd":4,"visib":3.73,"altim":1009,"clouds":[{"cover":"FEW","base":800},{"cover":"SCT","base":6000},{"cover":"BKN","base":8000}],"obsTime":1773864000},"SBSJ":{"icaoId":"SBSJ","flightCategory":"VFR","rawOb":"METAR SBSJ 182000Z 17009KT 9999 FEW035 FEW040TCU 29/// Q1010","temp":null,"dewp":null,"wdir":170,"wspd":9,"visib":"6+","altim":1010,"clouds":[{"cover":"FEW","base":3500},{"cover":"FEW","base":4000}],"obsTime":1773864000},"SBOI":{"icaoId":"SBOI","flightCategory":"IFR","rawOb":"METAR SBOI 182000Z AUTO 05010KT 020V080 4400 -RA SCT021 BKN027 OVC036 25/24 Q1009","temp":25,"dewp":24,"wdir":50,"wspd":10,"visib":2.73,"altim":1009,"clouds":[{"cover":"SCT","base":2100},{"cover":"BKN","base":2700},{"cover":"OVC","base":3600}],"obsTime":1773864000},"SBPL":{"icaoId":"SBPL","flightCategory":"VFR","rawOb":"METAR SBPL 182000Z 12004KT 9999 SCT030 SCT070 31/20 Q1009","temp":31,"dewp":20,"wdir":120,"wspd":4,"visib":"6+","altim":1009,"clouds":[{"cover":"SCT","base":3000},{"cover":"SCT","base":7000}],"obsTime":1773864000},"SBCJ":{"icaoId":"SBCJ","flightCategory":"VFR","rawOb":"METAR SBCJ 182000Z 00000KT 9999 SCT021 27/22 Q1011","temp":27,"dewp":22,"wdir":0,"wspd":0,"visib":"6+","altim":1011,"clouds":[{"cover":"SCT","base":2100}],"obsTime":1773864000},"SBAR":{"icaoId":"SBAR","flightCategory":"VFR","rawOb":"METAR SBAR 182000Z 09009KT 9999 FEW022 29/23 Q1009","temp":29,"dewp":23,"wdir":90,"wspd":9,"visib":"6+","altim":1009,"clouds":[{"cover":"FEW","base":2200}],"obsTime":1773864000},"SBCO":{"icaoId":"SBCO","flightCategory":"IFR","rawOb":"METAR SBCO 182000Z 18007KT 110V230 4000 TSRA FEW019 BKN026 FEW035CB BKN100 25/23 Q1008","temp":25,"dewp":23,"wdir":180,"wspd":7,"visib":2.49,"altim":1008,"clouds":[{"cover":"FEW","base":1900},{"cover":"BKN","base":2600},{"cover":"FEW","base":3500},{"cover":"BKN","base":10000}],"obsTime":1773864000},"SBDN":{"icaoId":"SBDN","flightCategory":"VFR","rawOb":"METAR SBDN 182000Z 15009KT 9999 BKN035 FEW050TCU 29/22 Q1008","temp":29,"dewp":22,"wdir":150,"wspd":9,"visib":"6+","altim":1008,"clouds":[{"cover":"BKN","base":3500},{"cover":"FEW","base":5000}],"obsTime":1773864000},"SBES":{"icaoId":"SBES","flightCategory":"VFR","rawOb":"METAR SBES 182000Z 11007KT 080V140 9999 FEW020 SCT040 26/// Q1009","temp":null,"dewp":null,"wdir":110,"wspd":7,"visib":"6+","altim":1009,"clouds":[{"cover":"FEW","base":2000},{"cover":"SCT","base":4000}],"obsTime":1773864000},"SBIP":{"icaoId":"SBIP","flightCategory":"VFR","rawOb":"METAR SBIP 182000Z AUTO 31003KT CAVOK 29/23 Q1009","temp":29,"dewp":23,"wdir":310,"wspd":3,"visib":"6+","altim":1009,"clouds":[],"obsTime":1773864000},"SBKG":{"icaoId":"SBKG","flightCategory":"VFR","rawOb":"METAR SBKG 182000Z 08014KT 9999 FEW030 28/21 Q1011","temp":28,"dewp":21,"wdir":80,"wspd":14,"visib":"6+","altim":1011,"clouds":[{"cover":"FEW","base":3000}],"obsTime":1773864000},"SBPB":{"icaoId":"SBPB","flightCategory":"VFR","rawOb":"METAR SBPB 182000Z 05014KT 9999 SCT016 FEW025TCU BKN080 29/25 Q1007","temp":29,"dewp":25,"wdir":50,"wspd":14,"visib":"6+","altim":1007,"clouds":[{"cover":"SCT","base":1600},{"cover":"FEW","base":2500},{"cover":"BKN","base":8000}],"obsTime":1773864000},"SBPP":{"icaoId":"SBPP","flightCategory":"VFR","rawOb":"METAR SBPP 182000Z 27008KT CAVOK 24/21 Q1011","temp":24,"dewp":21,"wdir":270,"wspd":8,"visib":"6+","altim":1011,"clouds":[],"obsTime":1773864000},"SBPS":{"icaoId":"SBPS","flightCategory":"VFR","rawOb":"METAR SBPS 182000Z 06010KT 9999 FEW020 SCT090 28/24 Q1009","temp":28,"dewp":24,"wdir":60,"wspd":10,"visib":"6+","altim":1009,"clouds":[{"cover":"FEW","base":2000},{"cover":"SCT","base":9000}],"obsTime":1773864000},"SBSC":{"icaoId":"SBSC","flightCategory":"VFR","rawOb":"METAR SBSC 182000Z 18010KT 9999 FEW030 28/23 Q1008","temp":28,"dewp":23,"wdir":180,"wspd":10,"visib":"6+","altim":1008,"clouds":[{"cover":"FEW","base":3000}],"obsTime":1773864000},"SBSM":{"icaoId":"SBSM","flightCategory":"MVFR","rawOb":"METAR SBSM 182000Z 25005KT 9999 BKN025 SCT035 28/23 Q1009","temp":28,"dewp":23,"wdir":250,"wspd":5,"visib":"6+","altim":1009,"clouds":[{"cover":"BKN","base":2500},{"cover":"SCT","base":3500}],"obsTime":1773864000},"SBSR":{"icaoId":"SBSR","flightCategory":"VFR","rawOb":"METAR SBSR 182000Z 27004KT 9999 VCSH SCT025 FEW035TCU SCT070 27/21 Q1010","temp":27,"dewp":21,"wdir":270,"wspd":4,"visib":"6+","altim":1010,"clouds":[{"cover":"SCT","base":2500},{"cover":"FEW","base":3500},{"cover":"SCT","base":7000}],"obsTime":1773864000},"SBTF":{"icaoId":"SBTF","flightCategory":"VFR","rawOb":"METAR SBTF 182000Z 17003KT 9999 FEW025 FEW030TCU OVC100 26/25 Q1007","temp":26,"dewp":25,"wdir":170,"wspd":3,"visib":"6+","altim":1007,"clouds":[{"cover":"FEW","base":2500},{"cover":"FEW","base":3000},{"cover":"OVC","base":10000}],"obsTime":1773864000},"SBUY":{"icaoId":"SBUY","flightCategory":"VFR","rawOb":"METAR SBUY 182000Z 00000KT 9000 -RA FEW020 FEW030TCU BKN080 25/24 Q1006","temp":25,"dewp":24,"wdir":0,"wspd":0,"visib":5.59,"altim":1006,"clouds":[{"cover":"FEW","base":2000},{"cover":"FEW","base":3000},{"cover":"BKN","base":8000}],"obsTime":1773864000},"SBVH":{"icaoId":"SBVH","flightCategory":"IFR","rawOb":"METAR SBVH 182000Z 36004KT 3000 -RA BR FEW015 BKN035 FEW040TCU 23/22 Q1010 RESHRA","temp":23,"dewp":22,"wdir":360,"wspd":4,"visib":1.86,"altim":1010,"clouds":[{"cover":"FEW","base":1500},{"cover":"BKN","base":3500},{"cover":"FEW","base":4000}],"obsTime":1773864000},"SBAX":{"icaoId":"SBAX","flightCategory":"VFR","rawOb":"METAR SBAX 182000Z 33006KT 9999 SCT035 SCT100 26/19 Q1013","temp":26,"dewp":19,"wdir":330,"wspd":6,"visib":"6+","altim":1013,"clouds":[{"cover":"SCT","base":3500},{"cover":"SCT","base":10000}],"obsTime":1773864000},"SBBH":{"icaoId":"SBBH","flightCategory":"VFR","rawOb":"METAR SBBH 182000Z 07004KT 9999 SCT040 SCT045TCU 27/21 Q1012","temp":27,"dewp":21,"wdir":70,"wspd":4,"visib":"6+","altim":1012,"clouds":[{"cover":"SCT","base":4000},{"cover":"SCT","base":4500}],"obsTime":1773864000},"SBBU":{"icaoId":"SBBU","flightCategory":"MVFR","rawOb":"METAR SBBU 182000Z 22003KT 8000 -RA BKN030 FEW040TCU 25/22 Q1011 RETS","temp":25,"dewp":22,"wdir":220,"wspd":3,"visib":4.97,"altim":1011,"clouds":[{"cover":"BKN","base":3000},{"cover":"FEW","base":4000}],"obsTime":1773864000},"SBCA":{"icaoId":"SBCA","flightCategory":"VFR","rawOb":"METAR SBCA 182000Z 30007KT 270V330 9999 SCT030 BKN070 27/21 Q1012","temp":27,"dewp":21,"wdir":300,"wspd":7,"visib":"6+","altim":1012,"clouds":[{"cover":"SCT","base":3000},{"cover":"BKN","base":7000}],"obsTime":1773864000},"SBCC":{"icaoId":"SBCC","flightCategory":"MVFR","rawOb":"METAR SBCC 182000Z 25004KT 9999 BKN030 25/22 Q1009","temp":25,"dewp":22,"wdir":250,"wspd":4,"visib":"6+","altim":1009,"clouds":[{"cover":"BKN","base":3000}],"obsTime":1773864000},"SBAF":{"icaoId":"SBAF","flightCategory":"VFR","rawOb":" SBAF 182000Z 19010KT 9999 FEW030 27/24 Q1008","temp":27,"dewp":24,"wdir":190,"wspd":10,"visib":"6+","altim":1008,"clouds":[{"cover":"FEW","base":3000}],"obsTime":1773864000},"SBAN":{"icaoId":"SBAN","flightCategory":"VFR","rawOb":"METAR SBAN 182000Z 09007KT 9999 VCSH SCT030 FEW035TCU 24/19 Q1014","temp":24,"dewp":19,"wdir":90,"wspd":7,"visib":"6+","altim":1014,"clouds":[{"cover":"SCT","base":3000},{"cover":"FEW","base":3500}],"obsTime":1773864000},"SBGW":{"icaoId":"SBGW","flightCategory":"VFR","rawOb":"METAR SBGW 182000Z 32006KT 9999 SCT030 FEW035TCU 31/19 Q1009","temp":31,"dewp":19,"wdir":320,"wspd":6,"visib":"6+","altim":1009,"clouds":[{"cover":"SCT","base":3000},{"cover":"FEW","base":3500}],"obsTime":1773864000},"SBIH":{"icaoId":"SBIH","flightCategory":"VFR","rawOb":"METAR SBIH 182000Z 11004KT 9999 SCT016 BKN080 29/25 Q1007","temp":29,"dewp":25,"wdir":110,"wspd":4,"visib":"6+","altim":1007,"clouds":[{"cover":"SCT","base":1600},{"cover":"BKN","base":8000}],"obsTime":1773864000},"SBJP":{"icaoId":"SBJP","flightCategory":"VFR","rawOb":"METAR SBJP 182000Z 11011KT 9999 FEW030 29/21 Q1009","temp":29,"dewp":21,"wdir":110,"wspd":11,"visib":"6+","altim":1009,"clouds":[{"cover":"FEW","base":3000}],"obsTime":1773864000},"SBJR":{"icaoId":"SBJR","flightCategory":"VFR","rawOb":"METAR SBJR 182000Z 15010KT 9999 FEW018 BKN040 28/22 Q1008","temp":28,"dewp":22,"wdir":150,"wspd":10,"visib":"6+","altim":1008,"clouds":[{"cover":"FEW","base":1800},{"cover":"BKN","base":4000}],"obsTime":1773864000},"SBJV":{"icaoId":"SBJV","flightCategory":"VFR","rawOb":"METAR SBJV 182000Z 03005KT 9999 FEW015 BKN035 28/23 Q1008","temp":28,"dewp":23,"wdir":30,"wspd":5,"visib":"6+","altim":1008,"clouds":[{"cover":"FEW","base":1500},{"cover":"BKN","base":3500}],"obsTime":1773864000},"SBLE":{"icaoId":"SBLE","flightCategory":"VFR","rawOb":"METAR SBLE 182000Z AUTO 08005KT 050V110 CAVOK 31/18 Q1011","temp":31,"dewp":18,"wdir":80,"wspd":5,"visib":"6+","altim":1011,"clouds":[],"obsTime":1773864000},"SBLS":{"icaoId":"SBLS","flightCategory":"VFR","rawOb":"METAR SBLS 182000Z 35003KT 250V020 9999 VCSH SCT023 FEW030TCU BKN080 25/21 Q1013","temp":25,"dewp":21,"wdir":350,"wspd":3,"visib":"6+","altim":1013,"clouds":[{"cover":"SCT","base":2300},{"cover":"FEW","base":3000},{"cover":"BKN","base":8000}],"obsTime":1773864000},"SBMT":{"icaoId":"SBMT","flightCategory":"VFR","rawOb":"METAR SBMT 182000Z 33003KT 9999 -RA BKN040 23/21 Q1011 RETS","temp":23,"dewp":21,"wdir":330,"wspd":3,"visib":"6+","altim":1011,"clouds":[{"cover":"BKN","base":4000}],"obsTime":1773864000},"SBNM":{"icaoId":"SBNM","flightCategory":"VFR","rawOb":"METAR SBNM 182000Z 24006KT 9999 FEW040 32/22 Q1009","temp":32,"dewp":22,"wdir":240,"wspd":6,"visib":"6+","altim":1009,"clouds":[{"cover":"FEW","base":4000}],"obsTime":1773864000},"SBPF":{"icaoId":"SBPF","flightCategory":"VFR","rawOb":"METAR SBPF 182000Z 24006KT 9999 SCT040 28/19 Q1012","temp":28,"dewp":19,"wdir":240,"wspd":6,"visib":"6+","altim":1012,"clouds":[{"cover":"SCT","base":4000}],"obsTime":1773864000},"SBST":{"icaoId":"SBST","flightCategory":"MVFR","rawOb":"METAR SBST 182000Z 14005KT 9000 BKN027 OVC032 26/22 Q1008","temp":26,"dewp":22,"wdir":140,"wspd":5,"visib":5.59,"altim":1008,"clouds":[{"cover":"BKN","base":2700},{"cover":"OVC","base":3200}],"obsTime":1773864000},"SBTA":{"icaoId":"SBTA","flightCategory":"VFR","rawOb":"METAR SBTA 182000Z VRB03KT 9999 SCT040 SCT080 26/21 Q1009","temp":26,"dewp":21,"wdir":"VRB","wspd":3,"visib":"6+","altim":1009,"clouds":[{"cover":"SCT","base":4000},{"cover":"SCT","base":8000}],"obsTime":1773864000},"SBTC":{"icaoId":"SBTC","flightCategory":"VFR","rawOb":"METAR SBTC 182000Z 06003KT 9999 FEW025 29/23 Q1009","temp":29,"dewp":23,"wdir":60,"wspd":3,"visib":"6+","altim":1009,"clouds":[{"cover":"FEW","base":2500}],"obsTime":1773864000}}}