{"updated":1776427668,"count":82,"data":{"SBVT":{"icaoId":"SBVT","flightCategory":"VFR","rawOb":"METAR SBVT 171100Z 28003KT 240V300 9999 FEW030 SCT100 24/20 Q1012","temp":24,"dewp":20,"wdir":280,"wspd":3,"visib":"6+","altim":1012,"clouds":[{"cover":"FEW","base":3000},{"cover":"SCT","base":10000}],"obsTime":1776423600},"SBBE":{"icaoId":"SBBE","flightCategory":"VFR","rawOb":"METAR SBBE 171100Z 09002KT 9999 FEW010 SCT100 27/26 Q1008","temp":27,"dewp":26,"wdir":90,"wspd":2,"visib":"6+","altim":1008,"clouds":[{"cover":"FEW","base":1000},{"cover":"SCT","base":10000}],"obsTime":1776423600},"SBBR":{"icaoId":"SBBR","flightCategory":"VFR","rawOb":"METAR SBBR 171100Z 21003KT 170V280 9999 FEW020 BKN080 21/18 Q1017","temp":21,"dewp":18,"wdir":210,"wspd":3,"visib":"6+","altim":1017,"clouds":[{"cover":"FEW","base":2000},{"cover":"BKN","base":8000}],"obsTime":1776423600},"SBBV":{"icaoId":"SBBV","flightCategory":"VFR","rawOb":"METAR SBBV 171100Z 09010KT 9999 SCT010 FEW045TCU BKN080 26/23 Q1009","temp":26,"dewp":23,"wdir":90,"wspd":10,"visib":"6+","altim":1009,"clouds":[{"cover":"SCT","base":1000},{"cover":"FEW","base":4500},{"cover":"BKN","base":8000}],"obsTime":1776423600},"SBCB":{"icaoId":"SBCB","flightCategory":"VFR","rawOb":"METAR SBCB 171100Z 04005KT 9999 FEW030 25/21 Q1012","temp":25,"dewp":21,"wdir":40,"wspd":5,"visib":"6+","altim":1012,"clouds":[{"cover":"FEW","base":3000}],"obsTime":1776423600},"SBCF":{"icaoId":"SBCF","flightCategory":"VFR","rawOb":"METAR SBCF 171100Z VRB02KT 9000 NSC 18/16 Q1016","temp":18,"dewp":16,"wdir":"VRB","wspd":2,"visib":5.59,"altim":1016,"clouds":[],"obsTime":1776423600},"SBCG":{"icaoId":"SBCG","flightCategory":"VFR","rawOb":"METAR SBCG 171100Z 06002KT CAVOK 24/22 Q1012","temp":24,"dewp":22,"wdir":60,"wspd":2,"visib":"6+","altim":1012,"clouds":[],"obsTime":1776423600},"SBCP":{"icaoId":"SBCP","flightCategory":"VFR","rawOb":"METAR SBCP 171100Z 30004KT CAVOK 24/23 Q1012","temp":24,"dewp":23,"wdir":300,"wspd":4,"visib":"6+","altim":1012,"clouds":[],"obsTime":1776423600},"SBCR":{"icaoId":"SBCR","flightCategory":"VFR","rawOb":"METAR SBCR 171100Z 25004KT 190V300 9999 FEW003 24/22 Q1010","temp":24,"dewp":22,"wdir":250,"wspd":4,"visib":"6+","altim":1010,"clouds":[{"cover":"FEW","base":300}],"obsTime":1776423600},"SBCT":{"icaoId":"SBCT","flightCategory":"LIFR","rawOb":"SPECI SBCT 171012Z 03002KT 3000 BR BKN004 17/17 Q1014","temp":17,"dewp":17,"wdir":30,"wspd":2,"visib":1.86,"altim":1014,"clouds":[{"cover":"BKN","base":400}],"obsTime":1776420720},"SBCZ":{"icaoId":"SBCZ","flightCategory":"LIFR","rawOb":"METAR SBCZ 171200Z VRB02KT 7000 -RA BKN002 OVC070 24/23 Q1011","temp":24,"dewp":23,"wdir":"VRB","wspd":2,"visib":4.35,"altim":1011,"clouds":[{"cover":"BKN","base":200},{"cover":"OVC","base":7000}],"obsTime":1776427200},"SBEG":{"icaoId":"SBEG","flightCategory":"VFR","rawOb":"METAR SBEG 171100Z VRB01KT 9999 FEW009 SCT025 FEW030TCU 25/25 Q1009","temp":25,"dewp":25,"wdir":"VRB","wspd":1,"visib":"6+","altim":1009,"clouds":[{"cover":"FEW","base":900},{"cover":"SCT","base":2500},{"cover":"FEW","base":3000}],"obsTime":1776423600},"SBFI":{"icaoId":"SBFI","flightCategory":"MVFR","rawOb":"METAR SBFI 171100Z 14001KT 9999 FEW015 OVC030 21/21 Q1011","temp":21,"dewp":21,"wdir":140,"wspd":1,"visib":"6+","altim":1011,"clouds":[{"cover":"FEW","base":1500},{"cover":"OVC","base":3000}],"obsTime":1776423600},"SBFL":{"icaoId":"SBFL","flightCategory":"MVFR","rawOb":"METAR SBFL 171100Z 33010KT 9999 FEW015 BKN030 24/22 Q1009","temp":24,"dewp":22,"wdir":330,"wspd":10,"visib":"6+","altim":1009,"clouds":[{"cover":"FEW","base":1500},{"cover":"BKN","base":3000}],"obsTime":1776423600},"SBFZ":{"icaoId":"SBFZ","flightCategory":"VFR","rawOb":"METAR SBFZ 171100Z 13009KT 9999 FEW015 28/26 Q1008","temp":28,"dewp":26,"wdir":130,"wspd":9,"visib":"6+","altim":1008,"clouds":[{"cover":"FEW","base":1500}],"obsTime":1776423600},"SBGL":{"icaoId":"SBGL","flightCategory":"VFR","rawOb":"METAR SBGL 171100Z 04004KT 360V090 9000 FEW010 25/21 Q1011","temp":25,"dewp":21,"wdir":40,"wspd":4,"visib":5.59,"altim":1011,"clouds":[{"cover":"FEW","base":1000}],"obsTime":1776423600},"SBGO":{"icaoId":"SBGO","flightCategory":"VFR","rawOb":"METAR SBGO 171100Z VRB01KT CAVOK 23/20 Q1015","temp":23,"dewp":20,"wdir":"VRB","wspd":1,"visib":"6+","altim":1015,"clouds":[],"obsTime":1776423600},"SBGR":{"icaoId":"SBGR","flightCategory":"VFR","rawOb":"METAR SBGR 171100Z 06006KT 9999 NSC 18/16 Q1015","temp":18,"dewp":16,"wdir":60,"wspd":6,"visib":"6+","altim":1015,"clouds":[],"obsTime":1776423600},"SBKP":{"icaoId":"SBKP","flightCategory":"VFR","rawOb":"METAR SBKP 171100Z 11003KT 9000 NSC 20/16 Q1014","temp":20,"dewp":16,"wdir":110,"wspd":3,"visib":5.59,"altim":1014,"clouds":[],"obsTime":1776423600},"SBLO":{"icaoId":"SBLO","flightCategory":"VFR","rawOb":"METAR SBLO 171100Z 14002KT 9999 SCT020 22/18 Q1013","temp":22,"dewp":18,"wdir":140,"wspd":2,"visib":"6+","altim":1013,"clouds":[{"cover":"SCT","base":2000}],"obsTime":1776423600},"SBMA":{"icaoId":"SBMA","flightCategory":"VFR","rawOb":"METAR SBMA 171100Z 03005KT 9999 SCT015 SCT090 27/24 Q1009","temp":27,"dewp":24,"wdir":30,"wspd":5,"visib":"6+","altim":1009,"clouds":[{"cover":"SCT","base":1500},{"cover":"SCT","base":9000}],"obsTime":1776423600},"SBMO":{"icaoId":"SBMO","flightCategory":"MVFR","rawOb":"SPECI SBMO 171035Z 25004KT 5000 -RA BR BKN010 24/24 Q1011 RERA","temp":24,"dewp":24,"wdir":250,"wspd":4,"visib":3.11,"altim":1011,"clouds":[{"cover":"BKN","base":1000}],"obsTime":1776422100},"SBMQ":{"icaoId":"SBMQ","flightCategory":"IFR","rawOb":"SPECI SBMQ 171013Z 17002KT 2000 -RA BR SCT011 OVC021 24/24 Q1008","temp":24,"dewp":24,"wdir":170,"wspd":2,"visib":1.24,"altim":1008,"clouds":[{"cover":"SCT","base":1100},{"cover":"OVC","base":2100}],"obsTime":1776420780},"SBNT":{"icaoId":"SBNT","flightCategory":"VFR","rawOb":"METAR SBNT 171100Z 16011KT 130V190 9999 FEW020 28/24 Q1009","temp":28,"dewp":24,"wdir":160,"wspd":11,"visib":"6+","altim":1009,"clouds":[{"cover":"FEW","base":2000}],"obsTime":1776423600},"SBPA":{"icaoId":"SBPA","flightCategory":"IFR","rawOb":"METAR SBPA 171100Z 30009KT 4000 -RA BKN025 BKN050 23/19 Q1007","temp":23,"dewp":19,"wdir":300,"wspd":9,"visib":2.49,"altim":1007,"clouds":[{"cover":"BKN","base":2500},{"cover":"BKN","base":5000}],"obsTime":1776423600},"SBPJ":{"icaoId":"SBPJ","flightCategory":"VFR","rawOb":"METAR SBPJ 171100Z 00000KT 9999 FEW030 28/25 Q1011","temp":28,"dewp":25,"wdir":0,"wspd":0,"visib":"6+","altim":1011,"clouds":[{"cover":"FEW","base":3000}],"obsTime":1776423600},"SBPV":{"icaoId":"SBPV","flightCategory":"LIFR","rawOb":"METAR SBPV 171100Z 33002KT 9999 OVC004 25/24 Q1009","temp":25,"dewp":24,"wdir":330,"wspd":2,"visib":"6+","altim":1009,"clouds":[{"cover":"OVC","base":400}],"obsTime":1776423600},"SBRB":{"icaoId":"SBRB","flightCategory":"VFR","rawOb":"METAR SBRB 171100Z VRB02KT 9999 FEW004 SCT020 BKN100 22/21 Q1010","temp":22,"dewp":21,"wdir":"VRB","wspd":2,"visib":"6+","altim":1010,"clouds":[{"cover":"FEW","base":400},{"cover":"SCT","base":2000},{"cover":"BKN","base":10000}],"obsTime":1776423600},"SBRF":{"icaoId":"SBRF","flightCategory":"VFR","rawOb":"METAR SBRF 171100Z 21006KT 180V260 9999 FEW013 SCT023 28/24 Q1010","temp":28,"dewp":24,"wdir":210,"wspd":6,"visib":"6+","altim":1010,"clouds":[{"cover":"FEW","base":1300},{"cover":"SCT","base":2300}],"obsTime":1776423600},"SBSG":{"icaoId":"SBSG","flightCategory":"VFR","rawOb":"METAR SBSG 171100Z 17008KT 120V200 9999 SCT015 27/24 Q1010","temp":27,"dewp":24,"wdir":170,"wspd":8,"visib":"6+","altim":1010,"clouds":[{"cover":"SCT","base":1500}],"obsTime":1776423600},"SBSL":{"icaoId":"SBSL","flightCategory":"VFR","rawOb":"METAR SBSL 171100Z 07004KT 9999 SCT018 SCT090 27/26 Q1008","temp":27,"dewp":26,"wdir":70,"wspd":4,"visib":"6+","altim":1008,"clouds":[{"cover":"SCT","base":1800},{"cover":"SCT","base":9000}],"obsTime":1776423600},"SBSN":{"icaoId":"SBSN","flightCategory":"VFR","rawOb":"METAR SBSN 171100Z 08009KT 9999 SCT015 FEW040TCU BKN080 27/24 Q1009","temp":27,"dewp":24,"wdir":80,"wspd":9,"visib":"6+","altim":1009,"clouds":[{"cover":"SCT","base":1500},{"cover":"FEW","base":4000},{"cover":"BKN","base":8000}],"obsTime":1776423600},"SBSP":{"icaoId":"SBSP","flightCategory":"VFR","rawOb":"METAR SBSP 171100Z 05004KT CAVOK 20/16 Q1016","temp":20,"dewp":16,"wdir":50,"wspd":4,"visib":"6+","altim":1016,"clouds":[],"obsTime":1776423600},"SBSV":{"icaoId":"SBSV","flightCategory":"VFR","rawOb":"METAR SBSV 171100Z 15006KT 100V200 9999 SCT021 FEW023TCU 29/23 Q1011","temp":29,"dewp":23,"wdir":150,"wspd":6,"visib":"6+","altim":1011,"clouds":[{"cover":"SCT","base":2100},{"cover":"FEW","base":2300}],"obsTime":1776423600},"SBTE":{"icaoId":"SBTE","flightCategory":"MVFR","rawOb":"METAR SBTE 171100Z 00000KT 9999 BKN015 25/24 Q1008","temp":25,"dewp":24,"wdir":0,"wspd":0,"visib":"6+","altim":1008,"clouds":[{"cover":"BKN","base":1500}],"obsTime":1776423600},"SBHT":{"icaoId":"SBHT","flightCategory":"VFR","rawOb":"METAR SBHT 171100Z 00000KT 9999 SCT012 SCT015 BKN080 24/24 Q1009","temp":24,"dewp":24,"wdir":0,"wspd":0,"visib":"6+","altim":1009,"clouds":[{"cover":"SCT","base":1200},{"cover":"SCT","base":1500},{"cover":"BKN","base":8000}],"obsTime":1776423600},"SBIL":{"icaoId":"SBIL","flightCategory":"VFR","rawOb":"METAR SBIL 171100Z 26004KT 9999 FEW020 26/23 Q1012","temp":26,"dewp":23,"wdir":260,"wspd":4,"visib":"6+","altim":1012,"clouds":[{"cover":"FEW","base":2000}],"obsTime":1776423600},"SBJU":{"icaoId":"SBJU","flightCategory":"VFR","rawOb":"METAR SBJU 171100Z 18008KT CAVOK 26/21 Q1012","temp":26,"dewp":21,"wdir":180,"wspd":8,"visib":"6+","altim":1012,"clouds":[],"obsTime":1776423600},"SBME":{"icaoId":"SBME","flightCategory":"VFR","rawOb":"METAR SBME 171100Z 36003KT CAVOK 24/22 Q1012","temp":24,"dewp":22,"wdir":360,"wspd":3,"visib":"6+","altim":1012,"clouds":[],"obsTime":1776423600},"SBMG":{"icaoId":"SBMG","flightCategory":"VFR","rawOb":"METAR SBMG 171100Z 36007KT 9999 FEW045 BKN080 23/18 Q1012","temp":23,"dewp":18,"wdir":360,"wspd":7,"visib":"6+","altim":1012,"clouds":[{"cover":"FEW","base":4500},{"cover":"BKN","base":8000}],"obsTime":1776423600},"SBMK":{"icaoId":"SBMK","flightCategory":"VFR","rawOb":"METAR SBMK 171100Z 00000KT CAVOK 21/17 Q1015","temp":21,"dewp":17,"wdir":0,"wspd":0,"visib":"6+","altim":1015,"clouds":[],"obsTime":1776423600},"SBAT":{"icaoId":"SBAT","flightCategory":"MVFR","rawOb":"METAR SBAT 171100Z 00000KT 8000 FEW035TCU BKN080 24/24 Q1011","temp":24,"dewp":24,"wdir":0,"wspd":0,"visib":4.97,"altim":1011,"clouds":[{"cover":"FEW","base":3500},{"cover":"BKN","base":8000}],"obsTime":1776423600},"SBUL":{"icaoId":"SBUL","flightCategory":"VFR","rawOb":"METAR SBUL 171100Z 09007KT CAVOK 21/15 Q1017","temp":21,"dewp":15,"wdir":90,"wspd":7,"visib":"6+","altim":1017,"clouds":[],"obsTime":1776423600},"SBUR":{"icaoId":"SBUR","flightCategory":"VFR","rawOb":"METAR SBUR 171100Z 02006KT CAVOK 21/14 Q1015","temp":21,"dewp":14,"wdir":20,"wspd":6,"visib":"6+","altim":1015,"clouds":[],"obsTime":1776423600},"SBPL":{"icaoId":"SBPL","flightCategory":"MVFR","rawOb":"METAR SBPL 171100Z 10008KT 9999 BKN022 26/21 Q1012","temp":26,"dewp":21,"wdir":100,"wspd":8,"visib":"6+","altim":1012,"clouds":[{"cover":"BKN","base":2200}],"obsTime":1776423600},"SBPP":{"icaoId":"SBPP","flightCategory":"VFR","rawOb":"SPECI SBPP 171115Z 19003KT CAVOK 21/21 Q1013","temp":21,"dewp":21,"wdir":190,"wspd":3,"visib":"6+","altim":1013,"clouds":[],"obsTime":1776424500},"SBCJ":{"icaoId":"SBCJ","flightCategory":"VFR","rawOb":"SPECI SBCJ 171015Z 00000KT 9999 FEW010 23/22 Q1013","temp":23,"dewp":22,"wdir":0,"wspd":0,"visib":"6+","altim":1013,"clouds":[{"cover":"FEW","base":1000}],"obsTime":1776420900},"SBPS":{"icaoId":"SBPS","flightCategory":"VFR","rawOb":"METAR SBPS 171100Z 24004KT 9999 SCT020 25/23 Q1012","temp":25,"dewp":23,"wdir":240,"wspd":4,"visib":"6+","altim":1012,"clouds":[{"cover":"SCT","base":2000}],"obsTime":1776423600},"SBOI":{"icaoId":"SBOI","flightCategory":"MVFR","rawOb":"METAR SBOI 171100Z AUTO VRB02KT 9999 SCT015 BKN020 26/24 Q1009","temp":26,"dewp":24,"wdir":"VRB","wspd":2,"visib":"6+","altim":1009,"clouds":[{"cover":"SCT","base":1500},{"cover":"BKN","base":2000}],"obsTime":1776423600},"SBTT":{"icaoId":"SBTT","flightCategory":"IFR","rawOb":"METAR SBTT 171100Z 26003KT 9999 BKN006 25/23 Q1010","temp":25,"dewp":23,"wdir":260,"wspd":3,"visib":"6+","altim":1010,"clouds":[{"cover":"BKN","base":600}],"obsTime":1776423600},"SBSJ":{"icaoId":"SBSJ","flightCategory":"IFR","rawOb":"METAR SBSJ 171100Z 03003KT 3000 BR OVC006 18/17 Q1015","temp":18,"dewp":17,"wdir":30,"wspd":3,"visib":1.86,"altim":1015,"clouds":[{"cover":"OVC","base":600}],"obsTime":1776423600},"SBUY":{"icaoId":"SBUY","flightCategory":"VFR","rawOb":"METAR SBUY 171100Z 28003KT 9999 FEW004 SCT025 BKN090 24/24 Q1008","temp":24,"dewp":24,"wdir":280,"wspd":3,"visib":"6+","altim":1008,"clouds":[{"cover":"FEW","base":400},{"cover":"SCT","base":2500},{"cover":"BKN","base":9000}],"obsTime":1776423600},"SBTD":{"icaoId":"SBTD","flightCategory":"MVFR","rawOb":"METAR SBTD 171100Z /////KT 7000 SCT010 SCT020 22/21 Q1013","temp":22,"dewp":21,"wdir":null,"wspd":null,"visib":4.35,"altim":1013,"clouds":[{"cover":"SCT","base":1000},{"cover":"SCT","base":2000}],"obsTime":1776423600},"SBPB":{"icaoId":"SBPB","flightCategory":"VFR","rawOb":"SPECI SBPB 171015Z 08005KT 9999 FEW016 FEW025TCU 27/25 Q1007","temp":27,"dewp":25,"wdir":80,"wspd":5,"visib":"6+","altim":1007,"clouds":[{"cover":"FEW","base":1600},{"cover":"FEW","base":2500}],"obsTime":1776420900},"SBAR":{"icaoId":"SBAR","flightCategory":"MVFR","rawOb":"METAR SBAR 171100Z 12008KT 9999 BKN024 29/23 Q1010","temp":29,"dewp":23,"wdir":120,"wspd":8,"visib":"6+","altim":1010,"clouds":[{"cover":"BKN","base":2400}],"obsTime":1776423600},"SBTF":{"icaoId":"SBTF","flightCategory":"IFR","rawOb":"METAR SBTF 171100Z 29003KT 9999 -RA BKN006 OVC080 26/26 Q1009","temp":26,"dewp":26,"wdir":290,"wspd":3,"visib":"6+","altim":1009,"clouds":[{"cover":"BKN","base":600},{"cover":"OVC","base":8000}],"obsTime":1776423600},"SBSC":{"icaoId":"SBSC","flightCategory":"VFR","rawOb":"METAR SBSC 171100Z 03006KT CAVOK 23/21 Q1011","temp":23,"dewp":21,"wdir":30,"wspd":6,"visib":"6+","altim":1011,"clouds":[],"obsTime":1776423600},"SBSM":{"icaoId":"SBSM","flightCategory":"VFR","rawOb":"METAR SBSM 171100Z 28007KT 9999 FEW025 BKN045 22/19 Q1009","temp":22,"dewp":19,"wdir":280,"wspd":7,"visib":"6+","altim":1009,"clouds":[{"cover":"FEW","base":2500},{"cover":"BKN","base":4500}],"obsTime":1776423600},"SBVH":{"icaoId":"SBVH","flightCategory":"VFR","rawOb":"METAR SBVH 171100Z 36003KT 9999 SCT035 BKN080 20/20 Q1012","temp":20,"dewp":20,"wdir":360,"wspd":3,"visib":"6+","altim":1012,"clouds":[{"cover":"SCT","base":3500},{"cover":"BKN","base":8000}],"obsTime":1776423600},"SBAX":{"icaoId":"SBAX","flightCategory":"VFR","rawOb":"METAR SBAX 171100Z 00000KT CAVOK 19/15 Q1017","temp":19,"dewp":15,"wdir":0,"wspd":0,"visib":"6+","altim":1017,"clouds":[],"obsTime":1776423600},"SBBH":{"icaoId":"SBBH","flightCategory":"VFR","rawOb":"METAR SBBH 171100Z 06002KT CAVOK 20/16 Q1016","temp":20,"dewp":16,"wdir":60,"wspd":2,"visib":"6+","altim":1016,"clouds":[],"obsTime":1776423600},"SBBU":{"icaoId":"SBBU","flightCategory":"VFR","rawOb":"METAR SBBU 171100Z 10004KT CAVOK 23/18 Q1014","temp":23,"dewp":18,"wdir":100,"wspd":4,"visib":"6+","altim":1014,"clouds":[],"obsTime":1776423600},"SBCA":{"icaoId":"SBCA","flightCategory":"LIFR","rawOb":"METAR SBCA 171100Z 16004KT 0100 FG VV000 20/20 Q1014","temp":20,"dewp":20,"wdir":160,"wspd":4,"visib":0.06,"altim":1014,"clouds":[{"cover":"OVX","base":0}],"obsTime":1776423600},"SBCC":{"icaoId":"SBCC","flightCategory":"VFR","rawOb":"METAR SBCC 171100Z 35004KT 9999 -RA SCT030 FEW035TCU OVC080 22/21 Q1011","temp":22,"dewp":21,"wdir":350,"wspd":4,"visib":"6+","altim":1011,"clouds":[{"cover":"SCT","base":3000},{"cover":"FEW","base":3500},{"cover":"OVC","base":8000}],"obsTime":1776423600},"SBCO":{"icaoId":"SBCO","flightCategory":"VFR","rawOb":"METAR SBCO 171100Z 32008KT 9999 VCSH BKN035 BKN060 23/19 Q1008","temp":23,"dewp":19,"wdir":320,"wspd":8,"visib":"6+","altim":1008,"clouds":[{"cover":"BKN","base":3500},{"cover":"BKN","base":6000}],"obsTime":1776423600},"SBDN":{"icaoId":"SBDN","flightCategory":"VFR","rawOb":"METAR SBDN 171100Z 04006KT CAVOK 24/17 Q1012","temp":24,"dewp":17,"wdir":40,"wspd":6,"visib":"6+","altim":1012,"clouds":[],"obsTime":1776423600},"SBES":{"icaoId":"SBES","flightCategory":"VFR","rawOb":"METAR SBES 171100Z VRB04KT 9999 FEW020 24/// Q1012","temp":null,"dewp":null,"wdir":"VRB","wspd":4,"visib":"6+","altim":1012,"clouds":[{"cover":"FEW","base":2000}],"obsTime":1776423600},"SBIP":{"icaoId":"SBIP","flightCategory":"MVFR","rawOb":"METAR SBIP 171100Z AUTO VRB02KT 9999 OVC025 19/19 Q1014","temp":19,"dewp":19,"wdir":"VRB","wspd":2,"visib":"6+","altim":1014,"clouds":[{"cover":"OVC","base":2500}],"obsTime":1776423600},"SBKG":{"icaoId":"SBKG","flightCategory":"MVFR","rawOb":"METAR SBKG 171100Z 16007KT 9999 BKN015 25/22 Q1012","temp":25,"dewp":22,"wdir":160,"wspd":7,"visib":"6+","altim":1012,"clouds":[{"cover":"BKN","base":1500}],"obsTime":1776423600},"SBJP":{"icaoId":"SBJP","flightCategory":"VFR","rawOb":"METAR SBJP 171100Z 21009KT 170V250 9999 FEW020 27/24 Q1010","temp":27,"dewp":24,"wdir":210,"wspd":9,"visib":"6+","altim":1010,"clouds":[{"cover":"FEW","base":2000}],"obsTime":1776423600},"SBIH":{"icaoId":"SBIH","flightCategory":"VFR","rawOb":"METAR SBIH 171100Z 00000KT 9999 FEW008 27/25 Q1009","temp":27,"dewp":25,"wdir":0,"wspd":0,"visib":"6+","altim":1009,"clouds":[{"cover":"FEW","base":800}],"obsTime":1776423600},"SBLE":{"icaoId":"SBLE","flightCategory":"VFR","rawOb":"METAR SBLE 171100Z AUTO 08003KT 360V130 9999 OVC035 23/22 Q1015","temp":23,"dewp":22,"wdir":80,"wspd":3,"visib":"6+","altim":1015,"clouds":[{"cover":"OVC","base":3500}],"obsTime":1776423600},"SBJV":{"icaoId":"SBJV","flightCategory":"VFR","rawOb":"METAR SBJV 171100Z 34002KT 9999 FEW005 SCT060 23/22 Q1010","temp":23,"dewp":22,"wdir":340,"wspd":2,"visib":"6+","altim":1010,"clouds":[{"cover":"FEW","base":500},{"cover":"SCT","base":6000}],"obsTime":1776423600},"SBPF":{"icaoId":"SBPF","flightCategory":"LIFR","rawOb":"METAR SBPF 171100Z 30008KT 9999 BKN004 17/16 Q1013","temp":17,"dewp":16,"wdir":300,"wspd":8,"visib":"6+","altim":1013,"clouds":[{"cover":"BKN","base":400}],"obsTime":1776423600},"SBAF":{"icaoId":"SBAF","flightCategory":"VFR","rawOb":"METAR SBAF 171100Z 36003KT 9999 SCT015 24/24 Q1012","temp":24,"dewp":24,"wdir":360,"wspd":3,"visib":"6+","altim":1012,"clouds":[{"cover":"SCT","base":1500}],"obsTime":1776423600},"SBGW":{"icaoId":"SBGW","flightCategory":"IFR","rawOb":"METAR SBGW 171100Z 30003KT 350V070 3000 HZ OVC009 19/15 Q1014","temp":19,"dewp":15,"wdir":300,"wspd":3,"visib":1.86,"altim":1014,"clouds":[{"cover":"OVC","base":900}],"obsTime":1776423600},"SBAN":{"icaoId":"SBAN","flightCategory":"VFR","rawOb":"METAR SBAN 171100Z 08004KT 9999 FEW010 SCT100 20/18 Q1017","temp":20,"dewp":18,"wdir":80,"wspd":4,"visib":"6+","altim":1017,"clouds":[{"cover":"FEW","base":1000},{"cover":"SCT","base":10000}],"obsTime":1776423600},"SBLS":{"icaoId":"SBLS","flightCategory":"VFR","rawOb":"METAR SBLS 171100Z 18004KT CAVOK 18/15 Q1016","temp":18,"dewp":15,"wdir":180,"wspd":4,"visib":"6+","altim":1016,"clouds":[],"obsTime":1776423600},"SBMT":{"icaoId":"SBMT","flightCategory":"VFR","rawOb":"METAR SBMT 171100Z 10003KT CAVOK 20/16 Q1015","temp":20,"dewp":16,"wdir":100,"wspd":3,"visib":"6+","altim":1015,"clouds":[],"obsTime":1776423600},"SBST":{"icaoId":"SBST","flightCategory":"VFR","rawOb":"METAR SBST 171100Z 10002KT CAVOK 21/21 Q1010","temp":21,"dewp":21,"wdir":100,"wspd":2,"visib":"6+","altim":1010,"clouds":[],"obsTime":1776423600},"SBTA":{"icaoId":"SBTA","flightCategory":"IFR","rawOb":"METAR SBTA 171100Z 10004KT 070V150 6000 OVC007 19/18 Q1014","temp":19,"dewp":18,"wdir":100,"wspd":4,"visib":3.73,"altim":1014,"clouds":[{"cover":"OVC","base":700}],"obsTime":1776423600},"SBJR":{"icaoId":"SBJR","flightCategory":"VFR","rawOb":"METAR SBJR 171100Z 33003KT 9999 FEW020 26/22 Q1011","temp":26,"dewp":22,"wdir":330,"wspd":3,"visib":"6+","altim":1011,"clouds":[{"cover":"FEW","base":2000}],"obsTime":1776423600}}}