{"updated":1773654704,"count":64,"data":{"SBPA":{"icaoId":"SBPA","flightCategory":"IFR","rawOb":"METAR SBPA 160800Z 08005KT 9000 OVC005 23/22 Q1009","temp":23,"dewp":22,"wdir":80,"wspd":5,"visib":5.59,"altim":1009,"clouds":[{"cover":"OVC","base":500}],"obsTime":1773648000},"SBFZ":{"icaoId":"SBFZ","flightCategory":"VFR","rawOb":"METAR SBFZ 160800Z 17003KT 9999 FEW020 SCT050 25/22 Q1009","temp":25,"dewp":22,"wdir":170,"wspd":3,"visib":"6+","altim":1009,"clouds":[{"cover":"FEW","base":2000},{"cover":"SCT","base":5000}],"obsTime":1773648000},"SBBV":{"icaoId":"SBBV","flightCategory":"VFR","rawOb":"METAR SBBV 160800Z 09010KT 9999 FEW040 BKN100 27/22 Q1010","temp":27,"dewp":22,"wdir":90,"wspd":10,"visib":"6+","altim":1010,"clouds":[{"cover":"FEW","base":4000},{"cover":"BKN","base":10000}],"obsTime":1773648000},"SBMO":{"icaoId":"SBMO","flightCategory":"VFR","rawOb":"METAR SBMO 160800Z 31003KT 9999 FEW025 23/23 Q1011","temp":23,"dewp":23,"wdir":310,"wspd":3,"visib":"6+","altim":1011,"clouds":[{"cover":"FEW","base":2500}],"obsTime":1773648000},"SBCG":{"icaoId":"SBCG","flightCategory":"VFR","rawOb":"METAR SBCG 160800Z 36008KT CAVOK 24/21 Q1011","temp":24,"dewp":21,"wdir":360,"wspd":8,"visib":"6+","altim":1011,"clouds":[],"obsTime":1773648000},"SBMQ":{"icaoId":"SBMQ","flightCategory":"VFR","rawOb":"METAR SBMQ 160800Z 01002KT 9999 FEW045 26/25 Q1010","temp":26,"dewp":25,"wdir":10,"wspd":2,"visib":"6+","altim":1010,"clouds":[{"cover":"FEW","base":4500}],"obsTime":1773648000},"SBGL":{"icaoId":"SBGL","flightCategory":"IFR","rawOb":"METAR SBGL 160800Z 09002KT 9999 BKN006 23/22 Q1011","temp":23,"dewp":22,"wdir":90,"wspd":2,"visib":"6+","altim":1011,"clouds":[{"cover":"BKN","base":600}],"obsTime":1773648000},"SBNT":{"icaoId":"SBNT","flightCategory":"VFR","rawOb":"METAR SBNT 160800Z 23004KT 9999 FEW018 25/24 Q1010","temp":25,"dewp":24,"wdir":230,"wspd":4,"visib":"6+","altim":1010,"clouds":[{"cover":"FEW","base":1800}],"obsTime":1773648000},"SBBE":{"icaoId":"SBBE","flightCategory":"VFR","rawOb":"METAR SBBE 160800Z 10003KT 9999 SCT015 SCT030 BKN080 25/25 Q1010","temp":25,"dewp":25,"wdir":100,"wspd":3,"visib":"6+","altim":1010,"clouds":[{"cover":"SCT","base":1500},{"cover":"SCT","base":3000},{"cover":"BKN","base":8000}],"obsTime":1773648000},"SBGO":{"icaoId":"SBGO","flightCategory":"VFR","rawOb":"METAR SBGO 160800Z 15004KT 9999 FEW040 FEW050TCU BKN080 22/20 Q1015","temp":22,"dewp":20,"wdir":150,"wspd":4,"visib":"6+","altim":1015,"clouds":[{"cover":"FEW","base":4000},{"cover":"FEW","base":5000},{"cover":"BKN","base":8000}],"obsTime":1773648000},"SBPJ":{"icaoId":"SBPJ","flightCategory":"VFR","rawOb":"METAR SBPJ 160800Z 10003KT 9999 SCT010 24/24 Q1011","temp":24,"dewp":24,"wdir":100,"wspd":3,"visib":"6+","altim":1011,"clouds":[{"cover":"SCT","base":1000}],"obsTime":1773648000},"SBPV":{"icaoId":"SBPV","flightCategory":"VFR","rawOb":"METAR SBPV 160800Z 00000KT 9999 FEW035 FEW040TCU BKN066 23/22 Q1011","temp":23,"dewp":22,"wdir":0,"wspd":0,"visib":"6+","altim":1011,"clouds":[{"cover":"FEW","base":3500},{"cover":"FEW","base":4000},{"cover":"BKN","base":6600}],"obsTime":1773648000},"SBCT":{"icaoId":"SBCT","flightCategory":"MVFR","rawOb":"METAR SBCT 160800Z 08003KT 8000 FEW017 BKN100 19/19 Q1017","temp":19,"dewp":19,"wdir":80,"wspd":3,"visib":4.97,"altim":1017,"clouds":[{"cover":"FEW","base":1700},{"cover":"BKN","base":10000}],"obsTime":1773648000},"SBGR":{"icaoId":"SBGR","flightCategory":"VFR","rawOb":"METAR SBGR 160800Z 00000KT CAVOK 17/16 Q1015","temp":17,"dewp":16,"wdir":0,"wspd":0,"visib":"6+","altim":1015,"clouds":[],"obsTime":1773648000},"SBRB":{"icaoId":"SBRB","flightCategory":"MVFR","rawOb":"METAR SBRB 160800Z 36003KT 7000 NSC 22/22 Q1009","temp":22,"dewp":22,"wdir":360,"wspd":3,"visib":4.35,"altim":1009,"clouds":[],"obsTime":1773648000},"SBEG":{"icaoId":"SBEG","flightCategory":"VFR","rawOb":"METAR SBEG 160800Z 11003KT CAVOK 26/24 Q1009","temp":26,"dewp":24,"wdir":110,"wspd":3,"visib":"6+","altim":1009,"clouds":[],"obsTime":1773648000},"SBRF":{"icaoId":"SBRF","flightCategory":"VFR","rawOb":"METAR SBRF 160800Z 30004KT 270V330 9999 SCT021 26/24 Q1010","temp":26,"dewp":24,"wdir":300,"wspd":4,"visib":"6+","altim":1010,"clouds":[{"cover":"SCT","base":2100}],"obsTime":1773648000},"SBJU":{"icaoId":"SBJU","flightCategory":"VFR","rawOb":"METAR SBJU 160800Z 00000KT 9999 SCT020 24/23 Q1013","temp":24,"dewp":23,"wdir":0,"wspd":0,"visib":"6+","altim":1013,"clouds":[{"cover":"SCT","base":2000}],"obsTime":1773648000},"SBSG":{"icaoId":"SBSG","flightCategory":"VFR","rawOb":"METAR SBSG 160800Z 24004KT 9999 FEW020 24/23 Q1011","temp":24,"dewp":23,"wdir":240,"wspd":4,"visib":"6+","altim":1011,"clouds":[{"cover":"FEW","base":2000}],"obsTime":1773648000},"SBSL":{"icaoId":"SBSL","flightCategory":"VFR","rawOb":"METAR SBSL 160800Z 01003KT 9999 SCT016 BKN080 26/25 Q1010","temp":26,"dewp":25,"wdir":10,"wspd":3,"visib":"6+","altim":1010,"clouds":[{"cover":"SCT","base":1600},{"cover":"BKN","base":8000}],"obsTime":1773648000},"SBKP":{"icaoId":"SBKP","flightCategory":"VFR","rawOb":"METAR SBKP 160800Z 09005KT CAVOK 21/18 Q1014","temp":21,"dewp":18,"wdir":90,"wspd":5,"visib":"6+","altim":1014,"clouds":[],"obsTime":1773648000},"SBCB":{"icaoId":"SBCB","flightCategory":"VFR","rawOb":"METAR SBCB 160900Z 06006KT 9999 FEW005 24/22 Q1012","temp":24,"dewp":22,"wdir":60,"wspd":6,"visib":"6+","altim":1012,"clouds":[{"cover":"FEW","base":500}],"obsTime":1773651600},"SBSN":{"icaoId":"SBSN","flightCategory":"VFR","rawOb":"METAR SBSN 160800Z 08013KT 9999 SCT014 27/24 Q1009","temp":27,"dewp":24,"wdir":80,"wspd":13,"visib":"6+","altim":1009,"clouds":[{"cover":"SCT","base":1400}],"obsTime":1773648000},"SBFI":{"icaoId":"SBFI","flightCategory":"VFR","rawOb":"METAR SBFI 160800Z 04001KT 9999 FEW030 FEW040TCU BKN100 24/21 Q1008","temp":24,"dewp":21,"wdir":40,"wspd":1,"visib":"6+","altim":1008,"clouds":[{"cover":"FEW","base":3000},{"cover":"FEW","base":4000},{"cover":"BKN","base":10000}],"obsTime":1773648000},"SBSP":{"icaoId":"SBSP","flightCategory":"VFR","rawOb":"METAR SBSP 160800Z AUTO VRB01KT CAVOK 20/18 Q1016","temp":20,"dewp":18,"wdir":"VRB","wspd":1,"visib":"6+","altim":1016,"clouds":[],"obsTime":1773648000},"SBLO":{"icaoId":"SBLO","flightCategory":"VFR","rawOb":"METAR SBLO 160800Z 22002KT CAVOK 21/19 Q1012","temp":21,"dewp":19,"wdir":220,"wspd":2,"visib":"6+","altim":1012,"clouds":[],"obsTime":1773648000},"SBSV":{"icaoId":"SBSV","flightCategory":"VFR","rawOb":"METAR SBSV 160800Z 05007KT 9999 SCT025 26/21 Q1011","temp":26,"dewp":21,"wdir":50,"wspd":7,"visib":"6+","altim":1011,"clouds":[{"cover":"SCT","base":2500}],"obsTime":1773648000},"SBTE":{"icaoId":"SBTE","flightCategory":"IFR","rawOb":"METAR SBTE 160800Z 29003KT 9999 BKN008 24/23 Q1010","temp":24,"dewp":23,"wdir":290,"wspd":3,"visib":"6+","altim":1010,"clouds":[{"cover":"BKN","base":800}],"obsTime":1773648000},"SBMA":{"icaoId":"SBMA","flightCategory":"VFR","rawOb":"METAR SBMA 160800Z 02005KT 9999 FEW016 SCT090 25/25 Q1010","temp":25,"dewp":25,"wdir":20,"wspd":5,"visib":"6+","altim":1010,"clouds":[{"cover":"FEW","base":1600},{"cover":"SCT","base":9000}],"obsTime":1773648000},"SBUL":{"icaoId":"SBUL","flightCategory":"VFR","rawOb":"METAR SBUL 160800Z 07007KT CAVOK 21/19 Q1016","temp":21,"dewp":19,"wdir":70,"wspd":7,"visib":"6+","altim":1016,"clouds":[],"obsTime":1773648000},"SBCF":{"icaoId":"SBCF","flightCategory":"VFR","rawOb":"METAR SBCF 160800Z 16002KT CAVOK 20/20 Q1016","temp":20,"dewp":20,"wdir":160,"wspd":2,"visib":"6+","altim":1016,"clouds":[],"obsTime":1773648000},"SBUR":{"icaoId":"SBUR","flightCategory":"VFR","rawOb":"METAR SBUR 160800Z 03005KT CAVOK 21/18 Q1014","temp":21,"dewp":18,"wdir":30,"wspd":5,"visib":"6+","altim":1014,"clouds":[],"obsTime":1773648000},"SBBR":{"icaoId":"SBBR","flightCategory":"IFR","rawOb":"METAR SBBR 160800Z 12003KT 9999 -RA BKN005 BKN060 19/19 Q1017","temp":19,"dewp":19,"wdir":120,"wspd":3,"visib":"6+","altim":1017,"clouds":[{"cover":"BKN","base":500},{"cover":"BKN","base":6000}],"obsTime":1773648000},"SBVT":{"icaoId":"SBVT","flightCategory":"VFR","rawOb":"METAR SBVT 160800Z 31003KT 9999 FEW020 21/21 Q1012","temp":21,"dewp":21,"wdir":310,"wspd":3,"visib":"6+","altim":1012,"clouds":[{"cover":"FEW","base":2000}],"obsTime":1773648000},"SBME":{"icaoId":"SBME","flightCategory":"VFR","rawOb":"METAR SBME 160800Z 04002KT CAVOK 23/21 Q1011","temp":23,"dewp":21,"wdir":40,"wspd":2,"visib":"6+","altim":1011,"clouds":[],"obsTime":1773648000},"SBFL":{"icaoId":"SBFL","flightCategory":"VFR","rawOb":"METAR SBFL 160800Z 29007KT 9999 FEW015 SCT020 24/23 Q1011","temp":24,"dewp":23,"wdir":290,"wspd":7,"visib":"6+","altim":1011,"clouds":[{"cover":"FEW","base":1500},{"cover":"SCT","base":2000}],"obsTime":1773648000},"SBMK":{"icaoId":"SBMK","flightCategory":"VFR","rawOb":"METAR SBMK 160800Z 00000KT CAVOK 21/21 Q1014","temp":21,"dewp":21,"wdir":0,"wspd":0,"visib":"6+","altim":1014,"clouds":[],"obsTime":1773648000},"SBMG":{"icaoId":"SBMG","flightCategory":"VFR","rawOb":"METAR SBMG 160800Z AUTO 03007KT CAVOK 23/17 Q1011","temp":23,"dewp":17,"wdir":30,"wspd":7,"visib":"6+","altim":1011,"clouds":[],"obsTime":1773648000},"SBOI":{"icaoId":"SBOI","flightCategory":"MVFR","rawOb":"METAR SBOI 160900Z AUTO VRB02KT 9999 // BKN010/// BKN025/// OVC031/// 24/23 Q1011","temp":24,"dewp":23,"wdir":"VRB","wspd":2,"visib":"6+","altim":1011,"clouds":[{"cover":"BKN","base":1000},{"cover":"BKN","base":2500},{"cover":"OVC","base":3100}],"obsTime":1773651600},"SBIP":{"icaoId":"SBIP","flightCategory":"VFR","rawOb":"METAR SBIP 160800Z AUTO VRB01KT 9999 SCT001 21/21 Q1013","temp":21,"dewp":21,"wdir":"VRB","wspd":1,"visib":"6+","altim":1013,"clouds":[{"cover":"SCT","base":100}],"obsTime":1773648000},"SBDN":{"icaoId":"SBDN","flightCategory":"VFR","rawOb":"METAR SBDN 160800Z 06006KT CAVOK 24/17 Q1011","temp":24,"dewp":17,"wdir":60,"wspd":6,"visib":"6+","altim":1011,"clouds":[],"obsTime":1773648000},"SBSJ":{"icaoId":"SBSJ","flightCategory":"LIFR","rawOb":"SPECI SBSJ 160830Z 00000KT 3500 BR BKN003 18/18 Q1015","temp":18,"dewp":18,"wdir":0,"wspd":0,"visib":2.17,"altim":1015,"clouds":[{"cover":"BKN","base":300}],"obsTime":1773649800},"SBSM":{"icaoId":"SBSM","flightCategory":"IFR","rawOb":"METAR SBSM 160900Z 13003KT 4000 BR FEW004 20/20 Q1009","temp":20,"dewp":20,"wdir":130,"wspd":3,"visib":2.49,"altim":1009,"clouds":[{"cover":"FEW","base":400}],"obsTime":1773651600},"SBSR":{"icaoId":"SBSR","flightCategory":"VFR","rawOb":"METAR SBSR 160800Z 00000KT CAVOK 22/18 Q1013","temp":22,"dewp":18,"wdir":0,"wspd":0,"visib":"6+","altim":1013,"clouds":[],"obsTime":1773648000},"SBAX":{"icaoId":"SBAX","flightCategory":"VFR","rawOb":"METAR SBAX 160800Z AUTO VRB02KT CAVOK ///// Q1016","temp":null,"dewp":null,"wdir":"VRB","wspd":2,"visib":"6+","altim":1016,"clouds":[],"obsTime":1773648000},"SBES":{"icaoId":"SBES","flightCategory":"VFR","rawOb":"METAR SBES 160900Z 05006KT 020V080 9999 FEW005 22/// Q1012","temp":null,"dewp":null,"wdir":50,"wspd":6,"visib":"6+","altim":1012,"clouds":[{"cover":"FEW","base":500}],"obsTime":1773651600},"SBAR":{"icaoId":"SBAR","flightCategory":"VFR","rawOb":"METAR SBAR 160800Z 31003KT 9999 SCT020 24/22 Q1011","temp":24,"dewp":22,"wdir":310,"wspd":3,"visib":"6+","altim":1011,"clouds":[{"cover":"SCT","base":2000}],"obsTime":1773648000},"SBPS":{"icaoId":"SBPS","flightCategory":"MVFR","rawOb":"METAR SBPS 160800Z 35002KT 5000 BR SCT004 BKN015 OVC040 24/24 Q1012","temp":24,"dewp":24,"wdir":350,"wspd":2,"visib":3.11,"altim":1012,"clouds":[{"cover":"SCT","base":400},{"cover":"BKN","base":1500},{"cover":"OVC","base":4000}],"obsTime":1773648000},"SBCO":{"icaoId":"SBCO","flightCategory":"LIFR","rawOb":"METAR SBCO 160900Z 11004KT 2500 BR BKN004 22/21 Q1010","temp":22,"dewp":21,"wdir":110,"wspd":4,"visib":1.55,"altim":1010,"clouds":[{"cover":"BKN","base":400}],"obsTime":1773651600},"SBSC":{"icaoId":"SBSC","flightCategory":"VFR","rawOb":"METAR SBSC 160800Z 29002KT CAVOK 22/20 Q1011","temp":22,"dewp":20,"wdir":290,"wspd":2,"visib":"6+","altim":1011,"clouds":[],"obsTime":1773648000},"SBBU":{"icaoId":"SBBU","flightCategory":"VFR","rawOb":"METAR SBBU 160900Z 14005KT CAVOK 24/18 Q1013","temp":24,"dewp":18,"wdir":140,"wspd":5,"visib":"6+","altim":1013,"clouds":[],"obsTime":1773651600},"SBPL":{"icaoId":"SBPL","flightCategory":"VFR","rawOb":"METAR SBPL 160800Z 00000KT 9999 SCT020 SCT070 25/24 Q1013 RETS","temp":25,"dewp":24,"wdir":0,"wspd":0,"visib":"6+","altim":1013,"clouds":[{"cover":"SCT","base":2000},{"cover":"SCT","base":7000}],"obsTime":1773648000},"SBKG":{"icaoId":"SBKG","flightCategory":"VFR","rawOb":"METAR SBKG 160800Z 10005KT 9999 SCT010 23/22 Q1013","temp":23,"dewp":22,"wdir":100,"wspd":5,"visib":"6+","altim":1013,"clouds":[{"cover":"SCT","base":1000}],"obsTime":1773648000},"SBBH":{"icaoId":"SBBH","flightCategory":"VFR","rawOb":"METAR SBBH 160900Z 00000KT CAVOK 20/19 Q1016","temp":20,"dewp":19,"wdir":0,"wspd":0,"visib":"6+","altim":1016,"clouds":[],"obsTime":1773651600},"SBTA":{"icaoId":"SBTA","flightCategory":"VFR","rawOb":"METAR SBTA 160900Z VRB02KT CAVOK 18/17 Q1015","temp":18,"dewp":17,"wdir":"VRB","wspd":2,"visib":"6+","altim":1015,"clouds":[],"obsTime":1773651600},"SBNM":{"icaoId":"SBNM","flightCategory":"VFR","rawOb":"METAR SBNM 160900Z 31002KT CAVOK 22/18 Q1010","temp":22,"dewp":18,"wdir":310,"wspd":2,"visib":"6+","altim":1010,"clouds":[],"obsTime":1773651600},"SBPF":{"icaoId":"SBPF","flightCategory":"VFR","rawOb":"METAR SBPF 160900Z 07011KT CAVOK 18/14 Q1014","temp":18,"dewp":14,"wdir":70,"wspd":11,"visib":"6+","altim":1014,"clouds":[],"obsTime":1773651600},"SBAN":{"icaoId":"SBAN","flightCategory":"LIFR","rawOb":"METAR SBAN 160800Z 10004KT 2000 BR BKN003 19/19 Q1017","temp":19,"dewp":19,"wdir":100,"wspd":4,"visib":1.24,"altim":1017,"clouds":[{"cover":"BKN","base":300}],"obsTime":1773648000},"SBGW":{"icaoId":"SBGW","flightCategory":"VFR","rawOb":"METAR SBGW 160900Z VRB02KT CAVOK 18/14 Q1015","temp":18,"dewp":14,"wdir":"VRB","wspd":2,"visib":"6+","altim":1015,"clouds":[],"obsTime":1773651600},"SBJP":{"icaoId":"SBJP","flightCategory":"VFR","rawOb":"METAR SBJP 160800Z 24002KT 9999 FEW020 24/23 Q1011","temp":24,"dewp":23,"wdir":240,"wspd":2,"visib":"6+","altim":1011,"clouds":[{"cover":"FEW","base":2000}],"obsTime":1773648000},"SBJV":{"icaoId":"SBJV","flightCategory":"MVFR","rawOb":"METAR SBJV 160900Z 35002KT 9999 BKN025 25/25 Q1012","temp":25,"dewp":25,"wdir":350,"wspd":2,"visib":"6+","altim":1012,"clouds":[{"cover":"BKN","base":2500}],"obsTime":1773651600},"SBLE":{"icaoId":"SBLE","flightCategory":"MVFR","rawOb":"METAR SBLE 160800Z AUTO 03005KT 360V060 9999 -RA SCT016 BKN021 OVC026 ///// Q////","temp":null,"dewp":null,"wdir":30,"wspd":5,"visib":"6+","altim":null,"clouds":[{"cover":"SCT","base":1600},{"cover":"BKN","base":2100},{"cover":"OVC","base":2600}],"obsTime":1773648000},"SBLS":{"icaoId":"SBLS","flightCategory":"VFR","rawOb":"METAR SBLS 160900Z 16007KT 9999 FEW020 21/20 Q1016","temp":21,"dewp":20,"wdir":160,"wspd":7,"visib":"6+","altim":1016,"clouds":[{"cover":"FEW","base":2000}],"obsTime":1773651600},"SBMT":{"icaoId":"SBMT","flightCategory":"VFR","rawOb":"METAR SBMT 160900Z 12002KT CAVOK 18/17 Q1016","temp":18,"dewp":17,"wdir":120,"wspd":2,"visib":"6+","altim":1016,"clouds":[],"obsTime":1773651600}}}