{"updated":1775389787,"count":81,"data":{"SBGR":{"icaoId":"SBGR","flightCategory":"LIFR","rawOb":"METAR SBGR 051000Z 00000KT 0900 R28R/0500N R10L/0900D R28L/P2000 R10R/P2000 FG OVC002 19/19 Q1019","temp":19,"dewp":19,"wdir":0,"wspd":0,"visib":0.56,"altim":1019,"clouds":[{"cover":"OVC","base":200}],"obsTime":1775383200},"SBMQ":{"icaoId":"SBMQ","flightCategory":"IFR","rawOb":"METAR SBMQ 051000Z 22001KT 2000 RA BR SCT007 OVC043 24/24 Q1013","temp":24,"dewp":24,"wdir":220,"wspd":1,"visib":1.24,"altim":1013,"clouds":[{"cover":"SCT","base":700},{"cover":"OVC","base":4300}],"obsTime":1775383200},"SBFZ":{"icaoId":"SBFZ","flightCategory":"MVFR","rawOb":"METAR SBFZ 051000Z 17009KT 9999 BKN020 FEW025TCU 25/24 Q1011 RETS","temp":25,"dewp":24,"wdir":170,"wspd":9,"visib":"6+","altim":1011,"clouds":[{"cover":"BKN","base":2000},{"cover":"FEW","base":2500}],"obsTime":1775383200},"SBBV":{"icaoId":"SBBV","flightCategory":"MVFR","rawOb":"METAR SBBV 051000Z 11004KT 9999 SCT007 BKN020 FEW030TCU BKN100 23/23 Q1014","temp":23,"dewp":23,"wdir":110,"wspd":4,"visib":"6+","altim":1014,"clouds":[{"cover":"SCT","base":700},{"cover":"BKN","base":2000},{"cover":"FEW","base":3000},{"cover":"BKN","base":10000}],"obsTime":1775383200},"SBPV":{"icaoId":"SBPV","flightCategory":"VFR","rawOb":"METAR SBPV 051000Z 21002KT 9999 FEW007 23/22 Q1011","temp":23,"dewp":22,"wdir":210,"wspd":2,"visib":"6+","altim":1011,"clouds":[{"cover":"FEW","base":700}],"obsTime":1775383200},"SBBE":{"icaoId":"SBBE","flightCategory":"VFR","rawOb":"METAR SBBE 051000Z 09001KT 9999 FEW028 BKN080 25/25 Q1012","temp":25,"dewp":25,"wdir":90,"wspd":1,"visib":"6+","altim":1012,"clouds":[{"cover":"FEW","base":2800},{"cover":"BKN","base":8000}],"obsTime":1775383200},"SBBR":{"icaoId":"SBBR","flightCategory":"VFR","rawOb":"METAR SBBR 051000Z 21004KT CAVOK 19/17 Q1020","temp":19,"dewp":17,"wdir":210,"wspd":4,"visib":"6+","altim":1020,"clouds":[],"obsTime":1775383200},"SBCB":{"icaoId":"SBCB","flightCategory":"LIFR","rawOb":"METAR SBCB 051000Z 06003KT 0200 FG NSC 23/22 Q1014","temp":23,"dewp":22,"wdir":60,"wspd":3,"visib":0.12,"altim":1014,"clouds":[],"obsTime":1775383200},"SBCF":{"icaoId":"SBCF","flightCategory":"VFR","rawOb":"METAR SBCF 051000Z 16003KT CAVOK 21/19 Q1019","temp":21,"dewp":19,"wdir":160,"wspd":3,"visib":"6+","altim":1019,"clouds":[],"obsTime":1775383200},"SBCG":{"icaoId":"SBCG","flightCategory":"VFR","rawOb":"METAR SBCG 051000Z 24002KT CAVOK 21/21 Q1016","temp":21,"dewp":21,"wdir":240,"wspd":2,"visib":"6+","altim":1016,"clouds":[],"obsTime":1775383200},"SBCP":{"icaoId":"SBCP","flightCategory":"VFR","rawOb":"METAR SBCP 051000Z /////KT CAVOK ///// Q1014","temp":null,"dewp":null,"wdir":null,"wspd":null,"visib":"6+","altim":1014,"clouds":[],"obsTime":1775383200},"SBCR":{"icaoId":"SBCR","flightCategory":"VFR","rawOb":"METAR SBCR 051100Z 11003KT 9999 FEW030 23/22 Q1014","temp":23,"dewp":22,"wdir":110,"wspd":3,"visib":"6+","altim":1014,"clouds":[{"cover":"FEW","base":3000}],"obsTime":1775386800},"SBCT":{"icaoId":"SBCT","flightCategory":"LIFR","rawOb":"METAR SBCT 051000Z 10003KT 0400 R15/0500 R33/0500 FG VV001 19/19 Q1021","temp":19,"dewp":19,"wdir":100,"wspd":3,"visib":0.25,"altim":1021,"clouds":[{"cover":"OVX","base":100}],"obsTime":1775383200},"SBEG":{"icaoId":"SBEG","flightCategory":"VFR","rawOb":"METAR SBEG 051000Z 08003KT 9999 FEW012 BKN100 23/22 Q1012","temp":23,"dewp":22,"wdir":80,"wspd":3,"visib":"6+","altim":1012,"clouds":[{"cover":"FEW","base":1200},{"cover":"BKN","base":10000}],"obsTime":1775383200},"SBFI":{"icaoId":"SBFI","flightCategory":"VFR","rawOb":"METAR SBFI 051000Z 12005KT CAVOK 22/22 Q1014","temp":22,"dewp":22,"wdir":120,"wspd":5,"visib":"6+","altim":1014,"clouds":[],"obsTime":1775383200},"SBFL":{"icaoId":"SBFL","flightCategory":"VFR","rawOb":"METAR SBFL 051000Z 07003KT 9999 FEW015 BKN070 24/23 Q1016","temp":24,"dewp":23,"wdir":70,"wspd":3,"visib":"6+","altim":1016,"clouds":[{"cover":"FEW","base":1500},{"cover":"BKN","base":7000}],"obsTime":1775383200},"SBGL":{"icaoId":"SBGL","flightCategory":"VFR","rawOb":"METAR SBGL 051000Z 06003KT 9999 FEW004 24/23 Q1014","temp":24,"dewp":23,"wdir":60,"wspd":3,"visib":"6+","altim":1014,"clouds":[{"cover":"FEW","base":400}],"obsTime":1775383200},"SBGO":{"icaoId":"SBGO","flightCategory":"VFR","rawOb":"METAR SBGO 051000Z 12004KT CAVOK 20/20 Q1018","temp":20,"dewp":20,"wdir":120,"wspd":4,"visib":"6+","altim":1018,"clouds":[],"obsTime":1775383200},"SBHT":{"icaoId":"SBHT","flightCategory":"VFR","rawOb":"METAR SBHT 051000Z 00000KT 9999 SCT011 SCT080 25/25 Q1012","temp":25,"dewp":25,"wdir":0,"wspd":0,"visib":"6+","altim":1012,"clouds":[{"cover":"SCT","base":1100},{"cover":"SCT","base":8000}],"obsTime":1775383200},"SBIL":{"icaoId":"SBIL","flightCategory":"VFR","rawOb":"METAR SBIL 051000Z 27005KT 9999 VCSH FEW010 SCT020 BKN050 25/25 Q1015","temp":25,"dewp":25,"wdir":270,"wspd":5,"visib":"6+","altim":1015,"clouds":[{"cover":"FEW","base":1000},{"cover":"SCT","base":2000},{"cover":"BKN","base":5000}],"obsTime":1775383200},"SBJU":{"icaoId":"SBJU","flightCategory":"VFR","rawOb":"METAR SBJU 051000Z 00000KT 9999 SCT020 26/23 Q1015","temp":26,"dewp":23,"wdir":0,"wspd":0,"visib":"6+","altim":1015,"clouds":[{"cover":"SCT","base":2000}],"obsTime":1775383200},"SBKP":{"icaoId":"SBKP","flightCategory":"VFR","rawOb":"METAR SBKP 051000Z 13007KT CAVOK 21/19 Q1018","temp":21,"dewp":19,"wdir":130,"wspd":7,"visib":"6+","altim":1018,"clouds":[],"obsTime":1775383200},"SBLO":{"icaoId":"SBLO","flightCategory":"VFR","rawOb":"METAR SBLO 051000Z 12003KT CAVOK 20/19 Q1017","temp":20,"dewp":19,"wdir":120,"wspd":3,"visib":"6+","altim":1017,"clouds":[],"obsTime":1775383200},"SBMA":{"icaoId":"SBMA","flightCategory":"VFR","rawOb":"METAR SBMA 051000Z 16003KT 9999 FEW010 FEW020TCU BKN090 25/24 Q1012","temp":25,"dewp":24,"wdir":160,"wspd":3,"visib":"6+","altim":1012,"clouds":[{"cover":"FEW","base":1000},{"cover":"FEW","base":2000},{"cover":"BKN","base":9000}],"obsTime":1775383200},"SBME":{"icaoId":"SBME","flightCategory":"VFR","rawOb":"METAR SBME 051000Z 29002KT CAVOK 23/22 Q1014","temp":23,"dewp":22,"wdir":290,"wspd":2,"visib":"6+","altim":1014,"clouds":[],"obsTime":1775383200},"SBMG":{"icaoId":"SBMG","flightCategory":"VFR","rawOb":"METAR SBMG 051000Z 17001KT CAVOK 23/18 Q1016","temp":23,"dewp":18,"wdir":170,"wspd":1,"visib":"6+","altim":1016,"clouds":[],"obsTime":1775383200},"SBMK":{"icaoId":"SBMK","flightCategory":"VFR","rawOb":"METAR SBMK 051000Z 00000KT 9999 SCT035 BKN070 21/19 Q1018","temp":21,"dewp":19,"wdir":0,"wspd":0,"visib":"6+","altim":1018,"clouds":[{"cover":"SCT","base":3500},{"cover":"BKN","base":7000}],"obsTime":1775383200},"SBMO":{"icaoId":"SBMO","flightCategory":"VFR","rawOb":"METAR SBMO 051000Z VRB01KT 9999 VCSH SCT018 BKN080 27/25 Q1013","temp":27,"dewp":25,"wdir":"VRB","wspd":1,"visib":"6+","altim":1013,"clouds":[{"cover":"SCT","base":1800},{"cover":"BKN","base":8000}],"obsTime":1775383200},"SBNT":{"icaoId":"SBNT","flightCategory":"VFR","rawOb":"METAR SBNT 051000Z 16007KT 130V190 9999 FEW021 26/24 Q1012","temp":26,"dewp":24,"wdir":160,"wspd":7,"visib":"6+","altim":1012,"clouds":[{"cover":"FEW","base":2100}],"obsTime":1775383200},"SBPA":{"icaoId":"SBPA","flightCategory":"IFR","rawOb":"METAR SBPA 051000Z 16007KT 120V190 5000 -RA BKN009 BKN011 OVC020 20/19 Q1019","temp":20,"dewp":19,"wdir":160,"wspd":7,"visib":3.11,"altim":1019,"clouds":[{"cover":"BKN","base":900},{"cover":"BKN","base":1100},{"cover":"OVC","base":2000}],"obsTime":1775383200},"SBPJ":{"icaoId":"SBPJ","flightCategory":"VFR","rawOb":"METAR SBPJ 051000Z 16003KT 9999 FEW025 25/23 Q1013","temp":25,"dewp":23,"wdir":160,"wspd":3,"visib":"6+","altim":1013,"clouds":[{"cover":"FEW","base":2500}],"obsTime":1775383200},"SBAT":{"icaoId":"SBAT","flightCategory":"VFR","rawOb":"METAR SBAT 051100Z 00000KT CAVOK 25/25 Q1014","temp":25,"dewp":25,"wdir":0,"wspd":0,"visib":"6+","altim":1014,"clouds":[],"obsTime":1775386800},"SBRB":{"icaoId":"SBRB","flightCategory":"MVFR","rawOb":"METAR SBRB 051000Z 17002KT 8000 SCT011 BKN100 22/22 Q1013","temp":22,"dewp":22,"wdir":170,"wspd":2,"visib":4.97,"altim":1013,"clouds":[{"cover":"SCT","base":1100},{"cover":"BKN","base":10000}],"obsTime":1775383200},"SBRF":{"icaoId":"SBRF","flightCategory":"VFR","rawOb":"METAR SBRF 051000Z 22005KT 9999 VCSH SCT020 FEW025TCU 26/24 Q1012","temp":26,"dewp":24,"wdir":220,"wspd":5,"visib":"6+","altim":1012,"clouds":[{"cover":"SCT","base":2000},{"cover":"FEW","base":2500}],"obsTime":1775383200},"SBSG":{"icaoId":"SBSG","flightCategory":"VFR","rawOb":"METAR SBSG 051000Z 18004KT 150V210 9999 FEW020 FEW025TCU SCT100 25/24 Q1012","temp":25,"dewp":24,"wdir":180,"wspd":4,"visib":"6+","altim":1012,"clouds":[{"cover":"FEW","base":2000},{"cover":"FEW","base":2500},{"cover":"SCT","base":10000}],"obsTime":1775383200},"SBSL":{"icaoId":"SBSL","flightCategory":"VFR","rawOb":"METAR SBSL 051000Z 19002KT CAVOK 25/25 Q1011","temp":25,"dewp":25,"wdir":190,"wspd":2,"visib":"6+","altim":1011,"clouds":[],"obsTime":1775383200},"SBSN":{"icaoId":"SBSN","flightCategory":"VFR","rawOb":"METAR SBSN 051000Z 17002KT 9999 VCSH FEW015 FEW020TCU SCT073 BKN100 25/24 Q1012","temp":25,"dewp":24,"wdir":170,"wspd":2,"visib":"6+","altim":1012,"clouds":[{"cover":"FEW","base":1500},{"cover":"FEW","base":2000},{"cover":"SCT","base":7300},{"cover":"BKN","base":10000}],"obsTime":1775383200},"SBSP":{"icaoId":"SBSP","flightCategory":"VFR","rawOb":"METAR SBSP 051000Z 05004KT CAVOK 21/19 Q1020","temp":21,"dewp":19,"wdir":50,"wspd":4,"visib":"6+","altim":1020,"clouds":[],"obsTime":1775383200},"SBSV":{"icaoId":"SBSV","flightCategory":"VFR","rawOb":"METAR SBSV 051000Z 29002KT 9999 VCSH SCT019 FEW023TCU BKN050 BKN100 26/24 Q1014 RESHRA","temp":26,"dewp":24,"wdir":290,"wspd":2,"visib":"6+","altim":1014,"clouds":[{"cover":"SCT","base":1900},{"cover":"FEW","base":2300},{"cover":"BKN","base":5000},{"cover":"BKN","base":10000}],"obsTime":1775383200},"SBTE":{"icaoId":"SBTE","flightCategory":"VFR","rawOb":"METAR SBTE 051000Z 00000KT 9999 SCT007 SCT016 26/24 Q1011","temp":26,"dewp":24,"wdir":0,"wspd":0,"visib":"6+","altim":1011,"clouds":[{"cover":"SCT","base":700},{"cover":"SCT","base":1600}],"obsTime":1775383200},"SBUL":{"icaoId":"SBUL","flightCategory":"VFR","rawOb":"METAR SBUL 051000Z 12006KT 080V140 CAVOK 21/17 Q1019","temp":21,"dewp":17,"wdir":120,"wspd":6,"visib":"6+","altim":1019,"clouds":[],"obsTime":1775383200},"SBUR":{"icaoId":"SBUR","flightCategory":"VFR","rawOb":"METAR SBUR 051000Z 04004KT CAVOK 21/18 Q1018","temp":21,"dewp":18,"wdir":40,"wspd":4,"visib":"6+","altim":1018,"clouds":[],"obsTime":1775383200},"SBVT":{"icaoId":"SBVT","flightCategory":"VFR","rawOb":"METAR SBVT 051000Z 34002KT 9999 SCT025 24/23 Q1015","temp":24,"dewp":23,"wdir":340,"wspd":2,"visib":"6+","altim":1015,"clouds":[{"cover":"SCT","base":2500}],"obsTime":1775383200},"SBPP":{"icaoId":"SBPP","flightCategory":"VFR","rawOb":"SPECI SBPP 051115Z 03004KT CAVOK 25/20 Q1018","temp":25,"dewp":20,"wdir":30,"wspd":4,"visib":"6+","altim":1018,"clouds":[],"obsTime":1775387700},"SBTF":{"icaoId":"SBTF","flightCategory":"VFR","rawOb":"SPECI SBTF 051115Z 00000KT 9999 FEW005 BKN100 26/25 Q1012","temp":26,"dewp":25,"wdir":0,"wspd":0,"visib":"6+","altim":1012,"clouds":[{"cover":"FEW","base":500},{"cover":"BKN","base":10000}],"obsTime":1775387700},"SBPS":{"icaoId":"SBPS","flightCategory":"MVFR","rawOb":"METAR SBPS 051000Z 27005KT 9999 BKN020 24/23 Q1015","temp":24,"dewp":23,"wdir":270,"wspd":5,"visib":"6+","altim":1015,"clouds":[{"cover":"BKN","base":2000}],"obsTime":1775383200},"SBSC":{"icaoId":"SBSC","flightCategory":"VFR","rawOb":"METAR SBSC 051000Z 01003KT CAVOK 24/22 Q1014","temp":24,"dewp":22,"wdir":10,"wspd":3,"visib":"6+","altim":1014,"clouds":[],"obsTime":1775383200},"SBBH":{"icaoId":"SBBH","flightCategory":"VFR","rawOb":"METAR SBBH 051000Z 08003KT CAVOK 22/19 Q1019","temp":22,"dewp":19,"wdir":80,"wspd":3,"visib":"6+","altim":1019,"clouds":[],"obsTime":1775383200},"SBCO":{"icaoId":"SBCO","flightCategory":"IFR","rawOb":"METAR SBCO 051000Z 15006KT 3000 -DZ BR BKN009 OVC024 20/19 Q1019","temp":20,"dewp":19,"wdir":150,"wspd":6,"visib":1.86,"altim":1019,"clouds":[{"cover":"BKN","base":900},{"cover":"OVC","base":2400}],"obsTime":1775383200},"SBSJ":{"icaoId":"SBSJ","flightCategory":"VFR","rawOb":"METAR SBSJ 051000Z 15001KT CAVOK 19/18 Q1018","temp":19,"dewp":18,"wdir":150,"wspd":1,"visib":"6+","altim":1018,"clouds":[],"obsTime":1775383200},"SBDN":{"icaoId":"SBDN","flightCategory":"VFR","rawOb":"METAR SBDN 051000Z 13003KT CAVOK 22/19 Q1016","temp":22,"dewp":19,"wdir":130,"wspd":3,"visib":"6+","altim":1016,"clouds":[],"obsTime":1775383200},"SBSM":{"icaoId":"SBSM","flightCategory":"MVFR","rawOb":"METAR SBSM 051000Z 13004KT 9999 OVC016 18/15 Q1020","temp":18,"dewp":15,"wdir":130,"wspd":4,"visib":"6+","altim":1020,"clouds":[{"cover":"OVC","base":1600}],"obsTime":1775383200},"SBSR":{"icaoId":"SBSR","flightCategory":"VFR","rawOb":"METAR SBSR 051000Z 07003KT 9999 FEW035 23/20 Q1017","temp":23,"dewp":20,"wdir":70,"wspd":3,"visib":"6+","altim":1017,"clouds":[{"cover":"FEW","base":3500}],"obsTime":1775383200},"SBAX":{"icaoId":"SBAX","flightCategory":"VFR","rawOb":"METAR SBAX 051000Z AUTO 00000KT CAVOK ///// Q1020","temp":null,"dewp":null,"wdir":0,"wspd":0,"visib":"6+","altim":1020,"clouds":[],"obsTime":1775383200},"SBTT":{"icaoId":"SBTT","flightCategory":"VFR","rawOb":"METAR SBTT 051100Z 13002KT CAVOK 23/22 Q1011","temp":23,"dewp":22,"wdir":130,"wspd":2,"visib":"6+","altim":1011,"clouds":[],"obsTime":1775386800},"SBUY":{"icaoId":"SBUY","flightCategory":"LIFR","rawOb":"METAR SBUY 051100Z 19002KT 0500 FG NSC 23/22 Q1011","temp":23,"dewp":22,"wdir":190,"wspd":2,"visib":0.31,"altim":1011,"clouds":[],"obsTime":1775386800},"SBVH":{"icaoId":"SBVH","flightCategory":"MVFR","rawOb":"METAR SBVH 051100Z 07005KT 8000 SCT008 OVC100 21/21 Q1016","temp":21,"dewp":21,"wdir":70,"wspd":5,"visib":4.97,"altim":1016,"clouds":[{"cover":"SCT","base":800},{"cover":"OVC","base":10000}],"obsTime":1775386800},"SBBU":{"icaoId":"SBBU","flightCategory":"VFR","rawOb":"METAR SBBU 051000Z 01002KT CAVOK 24/20 Q1017","temp":24,"dewp":20,"wdir":10,"wspd":2,"visib":"6+","altim":1017,"clouds":[],"obsTime":1775383200},"SBES":{"icaoId":"SBES","flightCategory":"VFR","rawOb":"METAR SBES 051000Z 06003KT 350V080 CAVOK 21/// Q1014","temp":null,"dewp":null,"wdir":60,"wspd":3,"visib":"6+","altim":1014,"clouds":[],"obsTime":1775383200},"SBIP":{"icaoId":"SBIP","flightCategory":"VFR","rawOb":"METAR SBIP 051000Z AUTO VRB02KT 9999 FEW037 24/22 Q1017","temp":24,"dewp":22,"wdir":"VRB","wspd":2,"visib":"6+","altim":1017,"clouds":[{"cover":"FEW","base":3700}],"obsTime":1775383200},"SBAR":{"icaoId":"SBAR","flightCategory":"VFR","rawOb":"METAR SBAR 051000Z 09006KT 9999 FEW020 SCT060 28/24 Q1013","temp":28,"dewp":24,"wdir":90,"wspd":6,"visib":"6+","altim":1013,"clouds":[{"cover":"FEW","base":2000},{"cover":"SCT","base":6000}],"obsTime":1775383200},"SBCA":{"icaoId":"SBCA","flightCategory":"VFR","rawOb":"METAR SBCA 051100Z 13007KT CAVOK 23/18 Q1019","temp":23,"dewp":18,"wdir":130,"wspd":7,"visib":"6+","altim":1019,"clouds":[],"obsTime":1775386800},"SBKG":{"icaoId":"SBKG","flightCategory":"VFR","rawOb":"METAR SBKG 051000Z 10005KT 9999 SCT012 BKN070 23/22 Q1015","temp":23,"dewp":22,"wdir":100,"wspd":5,"visib":"6+","altim":1015,"clouds":[{"cover":"SCT","base":1200},{"cover":"BKN","base":7000}],"obsTime":1775383200},"SBCC":{"icaoId":"SBCC","flightCategory":"VFR","rawOb":"METAR SBCC 051100Z 05005KT CAVOK 23/22 Q1015","temp":23,"dewp":22,"wdir":50,"wspd":5,"visib":"6+","altim":1015,"clouds":[],"obsTime":1775386800},"SBOI":{"icaoId":"SBOI","flightCategory":"VFR","rawOb":"METAR SBOI 051000Z AUTO 00000KT CAVOK 23/23 Q1012","temp":23,"dewp":23,"wdir":0,"wspd":0,"visib":"6+","altim":1012,"clouds":[],"obsTime":1775383200},"SBPB":{"icaoId":"SBPB","flightCategory":"VFR","rawOb":"SPECI SBPB 051015Z 16001KT 9999 FEW020 28/24 Q1011","temp":28,"dewp":24,"wdir":160,"wspd":1,"visib":"6+","altim":1011,"clouds":[{"cover":"FEW","base":2000}],"obsTime":1775384100},"SBPL":{"icaoId":"SBPL","flightCategory":"VFR","rawOb":"METAR SBPL 051000Z 13004KT CAVOK 25/22 Q1015","temp":25,"dewp":22,"wdir":130,"wspd":4,"visib":"6+","altim":1015,"clouds":[],"obsTime":1775383200},"SBCJ":{"icaoId":"SBCJ","flightCategory":"VFR","rawOb":"SPECI SBCJ 051015Z 00000KT CAVOK 23/22 Q1016","temp":23,"dewp":22,"wdir":0,"wspd":0,"visib":"6+","altim":1016,"clouds":[],"obsTime":1775384100},"SBLE":{"icaoId":"SBLE","flightCategory":"MVFR","rawOb":"METAR SBLE 051000Z AUTO 15003KT 110V190 9999 SCT004 BKN026 OVC031 ///// Q////","temp":null,"dewp":null,"wdir":150,"wspd":3,"visib":"6+","altim":null,"clouds":[{"cover":"SCT","base":400},{"cover":"BKN","base":2600},{"cover":"OVC","base":3100}],"obsTime":1775383200},"SBJV":{"icaoId":"SBJV","flightCategory":"MVFR","rawOb":"METAR SBJV 051000Z 30002KT 9000 OVC016 24/24 Q1016","temp":24,"dewp":24,"wdir":300,"wspd":2,"visib":5.59,"altim":1016,"clouds":[{"cover":"OVC","base":1600}],"obsTime":1775383200},"SBPF":{"icaoId":"SBPF","flightCategory":"VFR","rawOb":"METAR SBPF 051000Z 14015KT 9999 SCT010 19/17 Q1020","temp":19,"dewp":17,"wdir":140,"wspd":15,"visib":"6+","altim":1020,"clouds":[{"cover":"SCT","base":1000}],"obsTime":1775383200},"SBIH":{"icaoId":"SBIH","flightCategory":"VFR","rawOb":"METAR SBIH 051100Z 25004KT 9999 SCT010 SCT080 25/24 Q1013","temp":25,"dewp":24,"wdir":250,"wspd":4,"visib":"6+","altim":1013,"clouds":[{"cover":"SCT","base":1000},{"cover":"SCT","base":8000}],"obsTime":1775386800},"SBAF":{"icaoId":"SBAF","flightCategory":"VFR","rawOb":"METAR SBAF 051000Z 26002KT CAVOK 23/23 Q1014","temp":23,"dewp":23,"wdir":260,"wspd":2,"visib":"6+","altim":1014,"clouds":[],"obsTime":1775383200},"SBGW":{"icaoId":"SBGW","flightCategory":"LIFR","rawOb":"METAR SBGW 051000Z 25004KT 220V280 2000 1000N BCFG BKN002 BKN004 20/17 Q1018","temp":20,"dewp":17,"wdir":250,"wspd":4,"visib":1.24,"altim":1018,"clouds":[{"cover":"BKN","base":200},{"cover":"BKN","base":400}],"obsTime":1775383200},"SBJR":{"icaoId":"SBJR","flightCategory":"VFR","rawOb":"METAR SBJR 051000Z 02004KT CAVOK 25/23 Q1014","temp":25,"dewp":23,"wdir":20,"wspd":4,"visib":"6+","altim":1014,"clouds":[],"obsTime":1775383200},"SBLS":{"icaoId":"SBLS","flightCategory":"VFR","rawOb":"METAR SBLS 051000Z 14006KT CAVOK 21/19 Q1019","temp":21,"dewp":19,"wdir":140,"wspd":6,"visib":"6+","altim":1019,"clouds":[],"obsTime":1775383200},"SBMT":{"icaoId":"SBMT","flightCategory":"MVFR","rawOb":"METAR SBMT 051000Z 10003KT 7000 NSC 20/19 Q1019","temp":20,"dewp":19,"wdir":100,"wspd":3,"visib":4.35,"altim":1019,"clouds":[],"obsTime":1775383200},"SBST":{"icaoId":"SBST","flightCategory":"MVFR","rawOb":"METAR SBST 051100Z 03004KT 8000 FEW011 BKN020 23/23 Q1016","temp":23,"dewp":23,"wdir":30,"wspd":4,"visib":4.97,"altim":1016,"clouds":[{"cover":"FEW","base":1100},{"cover":"BKN","base":2000}],"obsTime":1775386800},"SBTA":{"icaoId":"SBTA","flightCategory":"VFR","rawOb":"METAR SBTA 051000Z 26003KT CAVOK 19/19 Q1017","temp":19,"dewp":19,"wdir":260,"wspd":3,"visib":"6+","altim":1017,"clouds":[],"obsTime":1775383200},"SBJP":{"icaoId":"SBJP","flightCategory":"IFR","rawOb":"METAR SBJP 051000Z 06003KT 4000 -RA BKN010 25/24 Q1013","temp":25,"dewp":24,"wdir":60,"wspd":3,"visib":2.49,"altim":1013,"clouds":[{"cover":"BKN","base":1000}],"obsTime":1775383200},"SBAN":{"icaoId":"SBAN","flightCategory":"VFR","rawOb":"METAR SBAN 051000Z 10007KT CAVOK 20/17 Q1020","temp":20,"dewp":17,"wdir":100,"wspd":7,"visib":"6+","altim":1020,"clouds":[],"obsTime":1775383200}}}