{"updated":1775385218,"count":70,"data":{"SBCT":{"icaoId":"SBCT","flightCategory":"IFR","rawOb":"METAR SBCT 050900Z 13005KT 4000 BR SCT003 18/18 Q1020","temp":18,"dewp":18,"wdir":130,"wspd":5,"visib":2.49,"altim":1020,"clouds":[{"cover":"SCT","base":300}],"obsTime":1775379600},"SBBR":{"icaoId":"SBBR","flightCategory":"VFR","rawOb":"METAR SBBR 050900Z 28003KT CAVOK 18/17 Q1019","temp":18,"dewp":17,"wdir":280,"wspd":3,"visib":"6+","altim":1019,"clouds":[],"obsTime":1775379600},"SBFI":{"icaoId":"SBFI","flightCategory":"VFR","rawOb":"METAR SBFI 050900Z 09001KT CAVOK 21/21 Q1014","temp":21,"dewp":21,"wdir":90,"wspd":1,"visib":"6+","altim":1014,"clouds":[],"obsTime":1775379600},"SBBV":{"icaoId":"SBBV","flightCategory":"MVFR","rawOb":"METAR SBBV 050900Z 11005KT 9999 BKN020 FEW030TCU BKN100 24/23 Q1013","temp":24,"dewp":23,"wdir":110,"wspd":5,"visib":"6+","altim":1013,"clouds":[{"cover":"BKN","base":2000},{"cover":"FEW","base":3000},{"cover":"BKN","base":10000}],"obsTime":1775379600},"SBCB":{"icaoId":"SBCB","flightCategory":"LIFR","rawOb":"METAR SBCB 050900Z 02003KT 0200 FG NSC 23/22 Q1014","temp":23,"dewp":22,"wdir":20,"wspd":3,"visib":0.12,"altim":1014,"clouds":[],"obsTime":1775379600},"SBCF":{"icaoId":"SBCF","flightCategory":"VFR","rawOb":"METAR SBCF 050900Z 17004KT CAVOK 20/19 Q1019","temp":20,"dewp":19,"wdir":170,"wspd":4,"visib":"6+","altim":1019,"clouds":[],"obsTime":1775379600},"SBCG":{"icaoId":"SBCG","flightCategory":"VFR","rawOb":"METAR SBCG 050900Z 21002KT CAVOK 22/21 Q1015","temp":22,"dewp":21,"wdir":210,"wspd":2,"visib":"6+","altim":1015,"clouds":[],"obsTime":1775379600},"SBCP":{"icaoId":"SBCP","flightCategory":"VFR","rawOb":"METAR SBCP 051000Z /////KT CAVOK ///// Q1014","temp":null,"dewp":null,"wdir":null,"wspd":null,"visib":"6+","altim":1014,"clouds":[],"obsTime":1775383200},"SBEG":{"icaoId":"SBEG","flightCategory":"VFR","rawOb":"METAR SBEG 050900Z 00000KT 9999 FEW002 22/22 Q1011","temp":22,"dewp":22,"wdir":0,"wspd":0,"visib":"6+","altim":1011,"clouds":[{"cover":"FEW","base":200}],"obsTime":1775379600},"SBBE":{"icaoId":"SBBE","flightCategory":"VFR","rawOb":"METAR SBBE 050900Z 09003KT 9999 FEW009 25/25 Q1011","temp":25,"dewp":25,"wdir":90,"wspd":3,"visib":"6+","altim":1011,"clouds":[{"cover":"FEW","base":900}],"obsTime":1775379600},"SBFL":{"icaoId":"SBFL","flightCategory":"VFR","rawOb":"METAR SBFL 050900Z 19002KT 9999 FEW025 BKN070 24/22 Q1015","temp":24,"dewp":22,"wdir":190,"wspd":2,"visib":"6+","altim":1015,"clouds":[{"cover":"FEW","base":2500},{"cover":"BKN","base":7000}],"obsTime":1775379600},"SBFZ":{"icaoId":"SBFZ","flightCategory":"MVFR","rawOb":"METAR SBFZ 050900Z 10008KT 5000 -TSRA FEW006 BKN018 FEW025CB BKN070 25/24 Q1011","temp":25,"dewp":24,"wdir":100,"wspd":8,"visib":3.11,"altim":1011,"clouds":[{"cover":"FEW","base":600},{"cover":"BKN","base":1800},{"cover":"FEW","base":2500},{"cover":"BKN","base":7000}],"obsTime":1775379600},"SBGL":{"icaoId":"SBGL","flightCategory":"VFR","rawOb":"METAR SBGL 050900Z 07003KT 9999 FEW004 23/22 Q1013","temp":23,"dewp":22,"wdir":70,"wspd":3,"visib":"6+","altim":1013,"clouds":[{"cover":"FEW","base":400}],"obsTime":1775379600},"SBGO":{"icaoId":"SBGO","flightCategory":"VFR","rawOb":"METAR SBGO 050900Z 12003KT CAVOK 21/20 Q1018","temp":21,"dewp":20,"wdir":120,"wspd":3,"visib":"6+","altim":1018,"clouds":[],"obsTime":1775379600},"SBGR":{"icaoId":"SBGR","flightCategory":"LIFR","rawOb":"METAR SBGR 050900Z 07002KT 0700 R10L/0800N R10R/1000N R28R/1200N R28L/1400N FG OVC002 19/19 Q1018","temp":19,"dewp":19,"wdir":70,"wspd":2,"visib":0.43,"altim":1018,"clouds":[{"cover":"OVC","base":200}],"obsTime":1775379600},"SBHT":{"icaoId":"SBHT","flightCategory":"VFR","rawOb":"METAR SBHT 051000Z 00000KT 9999 SCT011 SCT080 25/25 Q1012","temp":25,"dewp":25,"wdir":0,"wspd":0,"visib":"6+","altim":1012,"clouds":[{"cover":"SCT","base":1100},{"cover":"SCT","base":8000}],"obsTime":1775383200},"SBIL":{"icaoId":"SBIL","flightCategory":"VFR","rawOb":"METAR SBIL 051000Z 27005KT 9999 VCSH FEW010 SCT020 BKN050 25/25 Q1015","temp":25,"dewp":25,"wdir":270,"wspd":5,"visib":"6+","altim":1015,"clouds":[{"cover":"FEW","base":1000},{"cover":"SCT","base":2000},{"cover":"BKN","base":5000}],"obsTime":1775383200},"SBJU":{"icaoId":"SBJU","flightCategory":"VFR","rawOb":"METAR SBJU 050900Z 00000KT 9999 SCT020 23/22 Q1014","temp":23,"dewp":22,"wdir":0,"wspd":0,"visib":"6+","altim":1014,"clouds":[{"cover":"SCT","base":2000}],"obsTime":1775379600},"SBKP":{"icaoId":"SBKP","flightCategory":"VFR","rawOb":"METAR SBKP 050900Z 12006KT CAVOK 20/19 Q1017","temp":20,"dewp":19,"wdir":120,"wspd":6,"visib":"6+","altim":1017,"clouds":[],"obsTime":1775379600},"SBLO":{"icaoId":"SBLO","flightCategory":"VFR","rawOb":"METAR SBLO 050900Z 19002KT CAVOK 21/19 Q1016","temp":21,"dewp":19,"wdir":190,"wspd":2,"visib":"6+","altim":1016,"clouds":[],"obsTime":1775379600},"SBMA":{"icaoId":"SBMA","flightCategory":"VFR","rawOb":"METAR SBMA 050900Z 15004KT 9999 FEW010 BKN080 25/24 Q1011","temp":25,"dewp":24,"wdir":150,"wspd":4,"visib":"6+","altim":1011,"clouds":[{"cover":"FEW","base":1000},{"cover":"BKN","base":8000}],"obsTime":1775379600},"SBME":{"icaoId":"SBME","flightCategory":"VFR","rawOb":"METAR SBME 050900Z 32002KT CAVOK 22/21 Q1013","temp":22,"dewp":21,"wdir":320,"wspd":2,"visib":"6+","altim":1013,"clouds":[],"obsTime":1775379600},"SBMG":{"icaoId":"SBMG","flightCategory":"VFR","rawOb":"METAR SBMG 050900Z AUTO 05002KT CAVOK 23/18 Q1015","temp":23,"dewp":18,"wdir":50,"wspd":2,"visib":"6+","altim":1015,"clouds":[],"obsTime":1775379600},"SBMK":{"icaoId":"SBMK","flightCategory":"VFR","rawOb":"METAR SBMK 050900Z 16002KT 9999 FEW035 SCT070 20/18 Q1017","temp":20,"dewp":18,"wdir":160,"wspd":2,"visib":"6+","altim":1017,"clouds":[{"cover":"FEW","base":3500},{"cover":"SCT","base":7000}],"obsTime":1775379600},"SBMO":{"icaoId":"SBMO","flightCategory":"VFR","rawOb":"METAR SBMO 050900Z 01005KT 9999 VCSH SCT018 BKN070 24/24 Q1012","temp":24,"dewp":24,"wdir":10,"wspd":5,"visib":"6+","altim":1012,"clouds":[{"cover":"SCT","base":1800},{"cover":"BKN","base":7000}],"obsTime":1775379600},"SBMQ":{"icaoId":"SBMQ","flightCategory":"IFR","rawOb":"METAR SBMQ 050900Z 35004KT 2000 RA BR OVC043 24/24 Q1012","temp":24,"dewp":24,"wdir":350,"wspd":4,"visib":1.24,"altim":1012,"clouds":[{"cover":"OVC","base":4300}],"obsTime":1775379600},"SBNT":{"icaoId":"SBNT","flightCategory":"VFR","rawOb":"METAR SBNT 050900Z 19003KT 160V220 9999 SCT020 FEW030TCU 24/24 Q1011","temp":24,"dewp":24,"wdir":190,"wspd":3,"visib":"6+","altim":1011,"clouds":[{"cover":"SCT","base":2000},{"cover":"FEW","base":3000}],"obsTime":1775379600},"SBPA":{"icaoId":"SBPA","flightCategory":"IFR","rawOb":"METAR SBPA 050900Z 15008KT 9000 BKN009 BKN011 OVC030 21/19 Q1018","temp":21,"dewp":19,"wdir":150,"wspd":8,"visib":5.59,"altim":1018,"clouds":[{"cover":"BKN","base":900},{"cover":"BKN","base":1100},{"cover":"OVC","base":3000}],"obsTime":1775379600},"SBPJ":{"icaoId":"SBPJ","flightCategory":"VFR","rawOb":"METAR SBPJ 050900Z 20004KT 9999 FEW025 SCT100 24/23 Q1012","temp":24,"dewp":23,"wdir":200,"wspd":4,"visib":"6+","altim":1012,"clouds":[{"cover":"FEW","base":2500},{"cover":"SCT","base":10000}],"obsTime":1775379600},"SBPV":{"icaoId":"SBPV","flightCategory":"VFR","rawOb":"METAR SBPV 050900Z 17002KT 9999 FEW004 23/22 Q1010","temp":23,"dewp":22,"wdir":170,"wspd":2,"visib":"6+","altim":1010,"clouds":[{"cover":"FEW","base":400}],"obsTime":1775379600},"SBRB":{"icaoId":"SBRB","flightCategory":"VFR","rawOb":"METAR SBRB 050900Z 00000KT 9999 SCT011 BKN100 23/22 Q1012","temp":23,"dewp":22,"wdir":0,"wspd":0,"visib":"6+","altim":1012,"clouds":[{"cover":"SCT","base":1100},{"cover":"BKN","base":10000}],"obsTime":1775379600},"SBRF":{"icaoId":"SBRF","flightCategory":"MVFR","rawOb":"METAR SBRF 050900Z 31001KT 9999 BKN017 24/23 Q1012","temp":24,"dewp":23,"wdir":310,"wspd":1,"visib":"6+","altim":1012,"clouds":[{"cover":"BKN","base":1700}],"obsTime":1775379600},"SBSG":{"icaoId":"SBSG","flightCategory":"VFR","rawOb":"METAR SBSG 050900Z 18003KT 9999 VCSH SCT020 FEW025TCU SCT100 24/23 Q1012","temp":24,"dewp":23,"wdir":180,"wspd":3,"visib":"6+","altim":1012,"clouds":[{"cover":"SCT","base":2000},{"cover":"FEW","base":2500},{"cover":"SCT","base":10000}],"obsTime":1775379600},"SBSL":{"icaoId":"SBSL","flightCategory":"VFR","rawOb":"METAR SBSL 050900Z 26002KT 9999 FEW030 SCT100 25/25 Q1011","temp":25,"dewp":25,"wdir":260,"wspd":2,"visib":"6+","altim":1011,"clouds":[{"cover":"FEW","base":3000},{"cover":"SCT","base":10000}],"obsTime":1775379600},"SBSN":{"icaoId":"SBSN","flightCategory":"VFR","rawOb":"METAR SBSN 050900Z 00000KT 9999 -RA SCT010 SCT020 BKN100 25/24 Q1011","temp":25,"dewp":24,"wdir":0,"wspd":0,"visib":"6+","altim":1011,"clouds":[{"cover":"SCT","base":1000},{"cover":"SCT","base":2000},{"cover":"BKN","base":10000}],"obsTime":1775379600},"SBSP":{"icaoId":"SBSP","flightCategory":"VFR","rawOb":"METAR SBSP 050900Z 06003KT CAVOK 21/19 Q1019","temp":21,"dewp":19,"wdir":60,"wspd":3,"visib":"6+","altim":1019,"clouds":[],"obsTime":1775379600},"SBSV":{"icaoId":"SBSV","flightCategory":"VFR","rawOb":"METAR SBSV 050900Z VRB02KT 9000 VCSH SCT019 FEW023TCU BKN100 25/24 Q1013","temp":25,"dewp":24,"wdir":"VRB","wspd":2,"visib":5.59,"altim":1013,"clouds":[{"cover":"SCT","base":1900},{"cover":"FEW","base":2300},{"cover":"BKN","base":10000}],"obsTime":1775379600},"SBTE":{"icaoId":"SBTE","flightCategory":"VFR","rawOb":"METAR SBTE 050900Z 06001KT 9999 FEW007 SCT016 25/24 Q1010","temp":25,"dewp":24,"wdir":60,"wspd":1,"visib":"6+","altim":1010,"clouds":[{"cover":"FEW","base":700},{"cover":"SCT","base":1600}],"obsTime":1775379600},"SBUL":{"icaoId":"SBUL","flightCategory":"VFR","rawOb":"METAR SBUL 050900Z 13007KT CAVOK 20/17 Q1019","temp":20,"dewp":17,"wdir":130,"wspd":7,"visib":"6+","altim":1019,"clouds":[],"obsTime":1775379600},"SBUR":{"icaoId":"SBUR","flightCategory":"VFR","rawOb":"METAR SBUR 050900Z 04005KT CAVOK 21/18 Q1018","temp":21,"dewp":18,"wdir":40,"wspd":5,"visib":"6+","altim":1018,"clouds":[],"obsTime":1775379600},"SBVT":{"icaoId":"SBVT","flightCategory":"VFR","rawOb":"METAR SBVT 050900Z 01001KT 9999 FEW025 22/22 Q1015","temp":22,"dewp":22,"wdir":10,"wspd":1,"visib":"6+","altim":1015,"clouds":[{"cover":"FEW","base":2500}],"obsTime":1775379600},"SBCJ":{"icaoId":"SBCJ","flightCategory":"VFR","rawOb":"SPECI SBCJ 051015Z 00000KT CAVOK 23/22 Q1016","temp":23,"dewp":22,"wdir":0,"wspd":0,"visib":"6+","altim":1016,"clouds":[],"obsTime":1775384100},"SBPB":{"icaoId":"SBPB","flightCategory":"VFR","rawOb":"SPECI SBPB 051015Z 16001KT 9999 FEW020 28/24 Q1011","temp":28,"dewp":24,"wdir":160,"wspd":1,"visib":"6+","altim":1011,"clouds":[{"cover":"FEW","base":2000}],"obsTime":1775384100},"SBAR":{"icaoId":"SBAR","flightCategory":"VFR","rawOb":"METAR SBAR 050900Z 13008KT 100V160 9999 VCSH SCT019 FEW021TCU SCT070 26/24 Q1012","temp":26,"dewp":24,"wdir":130,"wspd":8,"visib":"6+","altim":1012,"clouds":[{"cover":"SCT","base":1900},{"cover":"FEW","base":2100},{"cover":"SCT","base":7000}],"obsTime":1775379600},"SBAX":{"icaoId":"SBAX","flightCategory":"VFR","rawOb":"METAR SBAX 050900Z AUTO 19003KT CAVOK ///// Q1019","temp":null,"dewp":null,"wdir":190,"wspd":3,"visib":"6+","altim":1019,"clouds":[],"obsTime":1775379600},"SBBH":{"icaoId":"SBBH","flightCategory":"VFR","rawOb":"METAR SBBH 050900Z 09004KT CAVOK 21/19 Q1018","temp":21,"dewp":19,"wdir":90,"wspd":4,"visib":"6+","altim":1018,"clouds":[],"obsTime":1775379600},"SBBU":{"icaoId":"SBBU","flightCategory":"VFR","rawOb":"METAR SBBU 050900Z 31003KT CAVOK 24/20 Q1016","temp":24,"dewp":20,"wdir":310,"wspd":3,"visib":"6+","altim":1016,"clouds":[],"obsTime":1775379600},"SBCO":{"icaoId":"SBCO","flightCategory":"IFR","rawOb":"METAR SBCO 050900Z 14007KT 9999 BKN009 BKN015 OVC035 20/19 Q1018","temp":20,"dewp":19,"wdir":140,"wspd":7,"visib":"6+","altim":1018,"clouds":[{"cover":"BKN","base":900},{"cover":"BKN","base":1500},{"cover":"OVC","base":3500}],"obsTime":1775379600},"SBDN":{"icaoId":"SBDN","flightCategory":"VFR","rawOb":"METAR SBDN 050900Z 12003KT CAVOK 22/19 Q1015","temp":22,"dewp":19,"wdir":120,"wspd":3,"visib":"6+","altim":1015,"clouds":[],"obsTime":1775379600},"SBES":{"icaoId":"SBES","flightCategory":"VFR","rawOb":"METAR SBES 050900Z 00000KT 9999 BCFG NSC 19/// Q1014","temp":null,"dewp":null,"wdir":0,"wspd":0,"visib":"6+","altim":1014,"clouds":[],"obsTime":1775379600},"SBIP":{"icaoId":"SBIP","flightCategory":"VFR","rawOb":"METAR SBIP 050900Z AUTO 32002KT 9999 SCT045 23/23 Q1016","temp":23,"dewp":23,"wdir":320,"wspd":2,"visib":"6+","altim":1016,"clouds":[{"cover":"SCT","base":4500}],"obsTime":1775379600},"SBKG":{"icaoId":"SBKG","flightCategory":"VFR","rawOb":"METAR SBKG 050900Z 10004KT 9999 SCT010 SCT070 22/22 Q1014","temp":22,"dewp":22,"wdir":100,"wspd":4,"visib":"6+","altim":1014,"clouds":[{"cover":"SCT","base":1000},{"cover":"SCT","base":7000}],"obsTime":1775379600},"SBOI":{"icaoId":"SBOI","flightCategory":"VFR","rawOb":"METAR SBOI 050900Z AUTO 00000KT CAVOK 23/23 Q1012","temp":23,"dewp":23,"wdir":0,"wspd":0,"visib":"6+","altim":1012,"clouds":[],"obsTime":1775379600},"SBPL":{"icaoId":"SBPL","flightCategory":"VFR","rawOb":"METAR SBPL 050900Z 14002KT CAVOK 23/21 Q1014","temp":23,"dewp":21,"wdir":140,"wspd":2,"visib":"6+","altim":1014,"clouds":[],"obsTime":1775379600},"SBPS":{"icaoId":"SBPS","flightCategory":"MVFR","rawOb":"METAR SBPS 050900Z 25004KT 9999 BKN016 23/23 Q1014","temp":23,"dewp":23,"wdir":250,"wspd":4,"visib":"6+","altim":1014,"clouds":[{"cover":"BKN","base":1600}],"obsTime":1775379600},"SBSC":{"icaoId":"SBSC","flightCategory":"VFR","rawOb":"METAR SBSC 050900Z 02002KT CAVOK 22/21 Q1013","temp":22,"dewp":21,"wdir":20,"wspd":2,"visib":"6+","altim":1013,"clouds":[],"obsTime":1775379600},"SBSJ":{"icaoId":"SBSJ","flightCategory":"VFR","rawOb":"METAR SBSJ 050900Z 13001KT CAVOK 18/18 Q1018","temp":18,"dewp":18,"wdir":130,"wspd":1,"visib":"6+","altim":1018,"clouds":[],"obsTime":1775379600},"SBSM":{"icaoId":"SBSM","flightCategory":"MVFR","rawOb":"METAR SBSM 050900Z 09005KT 9999 BKN013 18/16 Q1020","temp":18,"dewp":16,"wdir":90,"wspd":5,"visib":"6+","altim":1020,"clouds":[{"cover":"BKN","base":1300}],"obsTime":1775379600},"SBSR":{"icaoId":"SBSR","flightCategory":"VFR","rawOb":"METAR SBSR 050900Z 03003KT 9999 FEW035 SCT070 23/20 Q1016","temp":23,"dewp":20,"wdir":30,"wspd":3,"visib":"6+","altim":1016,"clouds":[{"cover":"FEW","base":3500},{"cover":"SCT","base":7000}],"obsTime":1775379600},"SBMT":{"icaoId":"SBMT","flightCategory":"MVFR","rawOb":"METAR SBMT 050900Z 10003KT 7000 NSC 19/19 Q1018","temp":19,"dewp":19,"wdir":100,"wspd":3,"visib":4.35,"altim":1018,"clouds":[],"obsTime":1775379600},"SBAF":{"icaoId":"SBAF","flightCategory":"VFR","rawOb":"METAR SBAF 051000Z 26002KT CAVOK 23/23 Q1014","temp":23,"dewp":23,"wdir":260,"wspd":2,"visib":"6+","altim":1014,"clouds":[],"obsTime":1775383200},"SBTA":{"icaoId":"SBTA","flightCategory":"VFR","rawOb":"METAR SBTA 050900Z 25002KT CAVOK 18/18 Q1017","temp":18,"dewp":18,"wdir":250,"wspd":2,"visib":"6+","altim":1017,"clouds":[],"obsTime":1775379600},"SBJR":{"icaoId":"SBJR","flightCategory":"VFR","rawOb":"METAR SBJR 051000Z 02004KT CAVOK 25/23 Q1014","temp":25,"dewp":23,"wdir":20,"wspd":4,"visib":"6+","altim":1014,"clouds":[],"obsTime":1775383200},"SBGW":{"icaoId":"SBGW","flightCategory":"LIFR","rawOb":"METAR SBGW 050900Z 19002KT 0900 FG BKN001 BKN004 20/16 Q1017","temp":20,"dewp":16,"wdir":190,"wspd":2,"visib":0.56,"altim":1017,"clouds":[{"cover":"BKN","base":100},{"cover":"BKN","base":400}],"obsTime":1775379600},"SBLE":{"icaoId":"SBLE","flightCategory":"VFR","rawOb":"METAR SBLE 050900Z AUTO VRB01KT 9999 OVC031 ///// Q////","temp":null,"dewp":null,"wdir":"VRB","wspd":1,"visib":"6+","altim":null,"clouds":[{"cover":"OVC","base":3100}],"obsTime":1775379600},"SBJP":{"icaoId":"SBJP","flightCategory":"VFR","rawOb":"METAR SBJP 050900Z 21003KT 9999 FEW020 24/24 Q1012","temp":24,"dewp":24,"wdir":210,"wspd":3,"visib":"6+","altim":1012,"clouds":[{"cover":"FEW","base":2000}],"obsTime":1775379600},"SBAN":{"icaoId":"SBAN","flightCategory":"VFR","rawOb":"METAR SBAN 050900Z 20003KT 9999 FEW030 20/18 Q1021","temp":20,"dewp":18,"wdir":200,"wspd":3,"visib":"6+","altim":1021,"clouds":[{"cover":"FEW","base":3000}],"obsTime":1775379600},"SBJV":{"icaoId":"SBJV","flightCategory":"MVFR","rawOb":"METAR SBJV 050900Z 00000KT 9000 BKN016 24/23 Q1015","temp":24,"dewp":23,"wdir":0,"wspd":0,"visib":5.59,"altim":1015,"clouds":[{"cover":"BKN","base":1600}],"obsTime":1775379600},"SBLS":{"icaoId":"SBLS","flightCategory":"VFR","rawOb":"METAR SBLS 050900Z 16005KT CAVOK 20/19 Q1018","temp":20,"dewp":19,"wdir":160,"wspd":5,"visib":"6+","altim":1018,"clouds":[],"obsTime":1775379600},"SBPF":{"icaoId":"SBPF","flightCategory":"MVFR","rawOb":"METAR SBPF 050900Z 12015KT 9999 BKN020 19/17 Q1020","temp":19,"dewp":17,"wdir":120,"wspd":15,"visib":"6+","altim":1020,"clouds":[{"cover":"BKN","base":2000}],"obsTime":1775379600}}}