{"updated":1780725914,"count":51,"data":{"SBVT":{"icaoId":"SBVT","flightCategory":"VFR","rawOb":"METAR SBVT 060500Z 29004KT CAVOK 16/15 Q1021","temp":16,"dewp":15,"wdir":290,"wspd":4,"visib":"6+","altim":1021,"clouds":[],"obsTime":1780722000},"SBBE":{"icaoId":"SBBE","flightCategory":"VFR","rawOb":"METAR SBBE 060500Z 05002KT CAVOK 26/25 Q1012","temp":26,"dewp":25,"wdir":50,"wspd":2,"visib":"6+","altim":1012,"clouds":[],"obsTime":1780722000},"SBBR":{"icaoId":"SBBR","flightCategory":"VFR","rawOb":"METAR SBBR 060500Z 08006KT CAVOK 13/10 Q1022","temp":13,"dewp":10,"wdir":80,"wspd":6,"visib":"6+","altim":1022,"clouds":[],"obsTime":1780722000},"SBBV":{"icaoId":"SBBV","flightCategory":"VFR","rawOb":"METAR SBBV 060500Z 13005KT 9999 -SHRA SCT030 FEW035TCU BKN070 26/24 Q1013","temp":26,"dewp":24,"wdir":130,"wspd":5,"visib":"6+","altim":1013,"clouds":[{"cover":"SCT","base":3000},{"cover":"FEW","base":3500},{"cover":"BKN","base":7000}],"obsTime":1780722000},"SBCF":{"icaoId":"SBCF","flightCategory":"VFR","rawOb":"METAR SBCF 060500Z 17005KT CAVOK 12/09 Q1023","temp":12,"dewp":9,"wdir":170,"wspd":5,"visib":"6+","altim":1023,"clouds":[],"obsTime":1780722000},"SBCG":{"icaoId":"SBCG","flightCategory":"VFR","rawOb":"METAR SBCG 060500Z 09005KT CAVOK 18/14 Q1019","temp":18,"dewp":14,"wdir":90,"wspd":5,"visib":"6+","altim":1019,"clouds":[],"obsTime":1780722000},"SBCT":{"icaoId":"SBCT","flightCategory":"LIFR","rawOb":"METAR SBCT 060500Z 03003KT 0400 R15/0400 R33/0400 FG VV001 10/10 Q1024","temp":10,"dewp":10,"wdir":30,"wspd":3,"visib":0.25,"altim":1024,"clouds":[{"cover":"OVX","base":100}],"obsTime":1780722000},"SBEG":{"icaoId":"SBEG","flightCategory":"VFR","rawOb":"METAR SBEG 060500Z 00000KT 9999 FEW020 SCT025 23/23 Q1013","temp":23,"dewp":23,"wdir":0,"wspd":0,"visib":"6+","altim":1013,"clouds":[{"cover":"FEW","base":2000},{"cover":"SCT","base":2500}],"obsTime":1780722000},"SBFI":{"icaoId":"SBFI","flightCategory":"VFR","rawOb":"METAR SBFI 060500Z 13002KT CAVOK 13/13 Q1019","temp":13,"dewp":13,"wdir":130,"wspd":2,"visib":"6+","altim":1019,"clouds":[],"obsTime":1780722000},"SBFL":{"icaoId":"SBFL","flightCategory":"VFR","rawOb":"METAR SBFL 060500Z 33007KT CAVOK 17/16 Q1020","temp":17,"dewp":16,"wdir":330,"wspd":7,"visib":"6+","altim":1020,"clouds":[],"obsTime":1780722000},"SBFZ":{"icaoId":"SBFZ","flightCategory":"MVFR","rawOb":"METAR SBFZ 060500Z 10006KT 9999 BKN015 27/25 Q1011","temp":27,"dewp":25,"wdir":100,"wspd":6,"visib":"6+","altim":1011,"clouds":[{"cover":"BKN","base":1500}],"obsTime":1780722000},"SBGL":{"icaoId":"SBGL","flightCategory":"MVFR","rawOb":"METAR SBGL 060500Z 01003KT 8000 FEW008 17/15 Q1021","temp":17,"dewp":15,"wdir":10,"wspd":3,"visib":4.97,"altim":1021,"clouds":[{"cover":"FEW","base":800}],"obsTime":1780722000},"SBGO":{"icaoId":"SBGO","flightCategory":"VFR","rawOb":"METAR SBGO 060500Z 14007KT CAVOK 16/12 Q1020","temp":16,"dewp":12,"wdir":140,"wspd":7,"visib":"6+","altim":1020,"clouds":[],"obsTime":1780722000},"SBGR":{"icaoId":"SBGR","flightCategory":"IFR","rawOb":"METAR SBGR 060500Z 07006KT 8000 2500E FEW003 BKN008 12/12 Q1023","temp":12,"dewp":12,"wdir":70,"wspd":6,"visib":4.97,"altim":1023,"clouds":[{"cover":"FEW","base":300},{"cover":"BKN","base":800}],"obsTime":1780722000},"SBKP":{"icaoId":"SBKP","flightCategory":"VFR","rawOb":"METAR SBKP 060500Z 15007KT CAVOK 13/11 Q1022","temp":13,"dewp":11,"wdir":150,"wspd":7,"visib":"6+","altim":1022,"clouds":[],"obsTime":1780722000},"SBLO":{"icaoId":"SBLO","flightCategory":"VFR","rawOb":"METAR SBLO 060500Z 16002KT CAVOK 14/13 Q1022","temp":14,"dewp":13,"wdir":160,"wspd":2,"visib":"6+","altim":1022,"clouds":[],"obsTime":1780722000},"SBMA":{"icaoId":"SBMA","flightCategory":"VFR","rawOb":"METAR SBMA 060500Z 00000KT CAVOK 26/24 Q1012","temp":26,"dewp":24,"wdir":0,"wspd":0,"visib":"6+","altim":1012,"clouds":[],"obsTime":1780722000},"SBMO":{"icaoId":"SBMO","flightCategory":"IFR","rawOb":"SPECI SBMO 060426Z 23004KT 2500 RA BKN006 SCT015 BKN066 23/22 Q1014","temp":23,"dewp":22,"wdir":230,"wspd":4,"visib":1.55,"altim":1014,"clouds":[{"cover":"BKN","base":600},{"cover":"SCT","base":1500},{"cover":"BKN","base":6600}],"obsTime":1780719960},"SBMQ":{"icaoId":"SBMQ","flightCategory":"MVFR","rawOb":"SPECI SBMQ 060440Z 25003KT 9999 FEW011 SCT014 BKN018 26/25 Q1012","temp":26,"dewp":25,"wdir":250,"wspd":3,"visib":"6+","altim":1012,"clouds":[{"cover":"FEW","base":1100},{"cover":"SCT","base":1400},{"cover":"BKN","base":1800}],"obsTime":1780720800},"SBPA":{"icaoId":"SBPA","flightCategory":"VFR","rawOb":"METAR SBPA 060500Z 28003KT CAVOK 16/16 Q1018","temp":16,"dewp":16,"wdir":280,"wspd":3,"visib":"6+","altim":1018,"clouds":[],"obsTime":1780722000},"SBPJ":{"icaoId":"SBPJ","flightCategory":"VFR","rawOb":"METAR SBPJ 060500Z 16005KT 130V190 CAVOK 24/17 Q1015","temp":24,"dewp":17,"wdir":160,"wspd":5,"visib":"6+","altim":1015,"clouds":[],"obsTime":1780722000},"SBPV":{"icaoId":"SBPV","flightCategory":"VFR","rawOb":"METAR SBPV 060500Z 00000KT CAVOK 25/23 Q1013","temp":25,"dewp":23,"wdir":0,"wspd":0,"visib":"6+","altim":1013,"clouds":[],"obsTime":1780722000},"SBRB":{"icaoId":"SBRB","flightCategory":"VFR","rawOb":"METAR SBRB 060500Z 27002KT CAVOK 22/21 Q1014","temp":22,"dewp":21,"wdir":270,"wspd":2,"visib":"6+","altim":1014,"clouds":[],"obsTime":1780722000},"SBRF":{"icaoId":"SBRF","flightCategory":"MVFR","rawOb":"METAR SBRF 060500Z 22005KT 9999 BKN025 24/22 Q1013","temp":24,"dewp":22,"wdir":220,"wspd":5,"visib":"6+","altim":1013,"clouds":[{"cover":"BKN","base":2500}],"obsTime":1780722000},"SBSG":{"icaoId":"SBSG","flightCategory":"VFR","rawOb":"METAR SBSG 060500Z 18003KT 140V220 9999 FEW023 22/22 Q1013","temp":22,"dewp":22,"wdir":180,"wspd":3,"visib":"6+","altim":1013,"clouds":[{"cover":"FEW","base":2300}],"obsTime":1780722000},"SBSL":{"icaoId":"SBSL","flightCategory":"VFR","rawOb":"METAR SBSL 060500Z 13003KT CAVOK 26/25 Q1011","temp":26,"dewp":25,"wdir":130,"wspd":3,"visib":"6+","altim":1011,"clouds":[],"obsTime":1780722000},"SBSN":{"icaoId":"SBSN","flightCategory":"VFR","rawOb":"METAR SBSN 060500Z 00000KT 9999 SCT020 BKN080 26/25 Q1012","temp":26,"dewp":25,"wdir":0,"wspd":0,"visib":"6+","altim":1012,"clouds":[{"cover":"SCT","base":2000},{"cover":"BKN","base":8000}],"obsTime":1780722000},"SBSP":{"icaoId":"SBSP","flightCategory":"MVFR","rawOb":"SPECI SBSP 060411Z AUTO 14004KT 9999 SCT011 BKN014 12/12 Q1024","temp":12,"dewp":12,"wdir":140,"wspd":4,"visib":"6+","altim":1024,"clouds":[{"cover":"SCT","base":1100},{"cover":"BKN","base":1400}],"obsTime":1780719060},"SBSV":{"icaoId":"SBSV","flightCategory":"VFR","rawOb":"METAR SBSV 060500Z 15012KT 9999 FEW016 SCT040 25/18 Q1016","temp":25,"dewp":18,"wdir":150,"wspd":12,"visib":"6+","altim":1016,"clouds":[{"cover":"FEW","base":1600},{"cover":"SCT","base":4000}],"obsTime":1780722000},"SBTE":{"icaoId":"SBTE","flightCategory":"VFR","rawOb":"METAR SBTE 060500Z 10004KT 9999 SCT020 BKN080 28/20 Q1011","temp":28,"dewp":20,"wdir":100,"wspd":4,"visib":"6+","altim":1011,"clouds":[{"cover":"SCT","base":2000},{"cover":"BKN","base":8000}],"obsTime":1780722000},"SBNT":{"icaoId":"SBNT","flightCategory":"VFR","rawOb":"METAR SBNT 060500Z 19007KT 9999 FEW018 24/22 Q1012","temp":24,"dewp":22,"wdir":190,"wspd":7,"visib":"6+","altim":1012,"clouds":[{"cover":"FEW","base":1800}],"obsTime":1780722000},"SBME":{"icaoId":"SBME","flightCategory":"VFR","rawOb":"METAR SBME 060500Z 31004KT CAVOK 16/14 Q1021","temp":16,"dewp":14,"wdir":310,"wspd":4,"visib":"6+","altim":1021,"clouds":[],"obsTime":1780722000},"SBMG":{"icaoId":"SBMG","flightCategory":"VFR","rawOb":"METAR SBMG 060500Z AUTO 11007KT 070V160 CAVOK 15/12 Q1020","temp":15,"dewp":12,"wdir":110,"wspd":7,"visib":"6+","altim":1020,"clouds":[],"obsTime":1780722000},"SBJU":{"icaoId":"SBJU","flightCategory":"VFR","rawOb":"METAR SBJU 060500Z 18003KT 9999 SCT020 22/19 Q1016","temp":22,"dewp":19,"wdir":180,"wspd":3,"visib":"6+","altim":1016,"clouds":[{"cover":"SCT","base":2000}],"obsTime":1780722000},"SBUL":{"icaoId":"SBUL","flightCategory":"VFR","rawOb":"METAR SBUL 060500Z 15006KT CAVOK 14/10 Q1022","temp":14,"dewp":10,"wdir":150,"wspd":6,"visib":"6+","altim":1022,"clouds":[],"obsTime":1780722000},"SBUR":{"icaoId":"SBUR","flightCategory":"VFR","rawOb":"METAR SBUR 060500Z 06005KT CAVOK 17/10 Q1021","temp":17,"dewp":10,"wdir":60,"wspd":5,"visib":"6+","altim":1021,"clouds":[],"obsTime":1780722000},"SBPL":{"icaoId":"SBPL","flightCategory":"VFR","rawOb":"METAR SBPL 060500Z 13005KT CAVOK 22/17 Q1017","temp":22,"dewp":17,"wdir":130,"wspd":5,"visib":"6+","altim":1017,"clouds":[],"obsTime":1780722000},"SBAR":{"icaoId":"SBAR","flightCategory":"MVFR","rawOb":"METAR SBAR 060500Z 18004KT 9000 4000N -SHRA BKN023 OVC040 24/22 Q1015","temp":24,"dewp":22,"wdir":180,"wspd":4,"visib":5.59,"altim":1015,"clouds":[{"cover":"BKN","base":2300},{"cover":"OVC","base":4000}],"obsTime":1780722000},"SBPS":{"icaoId":"SBPS","flightCategory":"MVFR","rawOb":"METAR SBPS 060500Z 25005KT 9999 SCT007 BKN015 OVC030 19/18 Q1019","temp":19,"dewp":18,"wdir":250,"wspd":5,"visib":"6+","altim":1019,"clouds":[{"cover":"SCT","base":700},{"cover":"BKN","base":1500},{"cover":"OVC","base":3000}],"obsTime":1780722000},"SBTU":{"icaoId":"SBTU","flightCategory":"VFR","rawOb":"METAR SBTU 060500Z AUTO VRB02KT 9999 // NCD ///// Q1014","temp":null,"dewp":null,"wdir":"VRB","wspd":2,"visib":"6+","altim":1014,"clouds":[],"obsTime":1780722000},"SBIP":{"icaoId":"SBIP","flightCategory":"VFR","rawOb":"METAR SBIP 060500Z AUTO 20002KT CAVOK 14/14 Q1022","temp":14,"dewp":14,"wdir":200,"wspd":2,"visib":"6+","altim":1022,"clouds":[],"obsTime":1780722000},"SBKG":{"icaoId":"SBKG","flightCategory":"MVFR","rawOb":"METAR SBKG 060500Z 18002KT 9999 BKN012 21/20 Q1015","temp":21,"dewp":20,"wdir":180,"wspd":2,"visib":"6+","altim":1015,"clouds":[{"cover":"BKN","base":1200}],"obsTime":1780722000},"SBDN":{"icaoId":"SBDN","flightCategory":"VFR","rawOb":"METAR SBDN 060500Z 11007KT CAVOK 16/12 Q1020","temp":16,"dewp":12,"wdir":110,"wspd":7,"visib":"6+","altim":1020,"clouds":[],"obsTime":1780722000},"SBAX":{"icaoId":"SBAX","flightCategory":"VFR","rawOb":"METAR SBAX 060500Z AUTO 13008KT CAVOK 12/09 Q1023","temp":12,"dewp":9,"wdir":130,"wspd":8,"visib":"6+","altim":1023,"clouds":[],"obsTime":1780722000},"SBSC":{"icaoId":"SBSC","flightCategory":"MVFR","rawOb":"METAR SBSC 060500Z 01005KT 5000 BR FEW005 BKN015 BKN040 15/14 Q1022","temp":15,"dewp":14,"wdir":10,"wspd":5,"visib":3.11,"altim":1022,"clouds":[{"cover":"FEW","base":500},{"cover":"BKN","base":1500},{"cover":"BKN","base":4000}],"obsTime":1780722000},"SBSM":{"icaoId":"SBSM","flightCategory":"VFR","rawOb":"METAR SBSM 060500Z 00000KT CAVOK 12/12 Q1019","temp":12,"dewp":12,"wdir":0,"wspd":0,"visib":"6+","altim":1019,"clouds":[],"obsTime":1780722000},"SBSR":{"icaoId":"SBSR","flightCategory":"VFR","rawOb":"METAR SBSR 060500Z 15004KT CAVOK 17/11 Q1021","temp":17,"dewp":11,"wdir":150,"wspd":4,"visib":"6+","altim":1021,"clouds":[],"obsTime":1780722000},"SBJP":{"icaoId":"SBJP","flightCategory":"MVFR","rawOb":"METAR SBJP 060500Z 19005KT 8000 -RA BKN020 BKN070 23/22 Q1013","temp":23,"dewp":22,"wdir":190,"wspd":5,"visib":4.97,"altim":1013,"clouds":[{"cover":"BKN","base":2000},{"cover":"BKN","base":7000}],"obsTime":1780722000},"SBAN":{"icaoId":"SBAN","flightCategory":"VFR","rawOb":"METAR SBAN 060500Z 12005KT CAVOK 14/10 Q1023","temp":14,"dewp":10,"wdir":120,"wspd":5,"visib":"6+","altim":1023,"clouds":[],"obsTime":1780722000},"SBNM":{"icaoId":"SBNM","flightCategory":"VFR","rawOb":"METAR SBNM 060500Z AUTO 04003KT CAVOK 15/14 Q1020","temp":15,"dewp":14,"wdir":40,"wspd":3,"visib":"6+","altim":1020,"clouds":[],"obsTime":1780722000},"SBLE":{"icaoId":"SBLE","flightCategory":"VFR","rawOb":"METAR SBLE 060500Z AUTO 13001KT 9999 SCT028 SCT046 ///// Q////","temp":null,"dewp":null,"wdir":130,"wspd":1,"visib":"6+","altim":null,"clouds":[{"cover":"SCT","base":2800},{"cover":"SCT","base":4600}],"obsTime":1780722000}}}