{"updated":1777427082,"count":62,"data":{"SBMG":{"icaoId":"SBMG","flightCategory":"MVFR","rawOb":"METAR SBMG 290000Z 16004KT 5000 1000W R10/P2000N -RA BR BCFG SCT003 BKN025 BKN080 20/20 Q1016","temp":20,"dewp":20,"wdir":160,"wspd":4,"visib":3.11,"altim":1016,"clouds":[{"cover":"SCT","base":300},{"cover":"BKN","base":2500},{"cover":"BKN","base":8000}],"obsTime":1777420800},"SBFZ":{"icaoId":"SBFZ","flightCategory":"VFR","rawOb":"METAR SBFZ 290000Z 20004KT 130V220 9999 SCT020 27/24 Q1012","temp":27,"dewp":24,"wdir":200,"wspd":4,"visib":"6+","altim":1012,"clouds":[{"cover":"SCT","base":2000}],"obsTime":1777420800},"SBMK":{"icaoId":"SBMK","flightCategory":"VFR","rawOb":"METAR SBMK 290000Z 13006KT CAVOK 23/15 Q1017","temp":23,"dewp":15,"wdir":130,"wspd":6,"visib":"6+","altim":1017,"clouds":[],"obsTime":1777420800},"SBBV":{"icaoId":"SBBV","flightCategory":"VFR","rawOb":"METAR SBBV 290000Z 13004KT 9999 FEW040 SCT100 31/22 Q1009","temp":31,"dewp":22,"wdir":130,"wspd":4,"visib":"6+","altim":1009,"clouds":[{"cover":"FEW","base":4000},{"cover":"SCT","base":10000}],"obsTime":1777420800},"SBGL":{"icaoId":"SBGL","flightCategory":"VFR","rawOb":"METAR SBGL 290000Z 13004KT 110V170 9999 SCT020 25/23 Q1014","temp":25,"dewp":23,"wdir":130,"wspd":4,"visib":"6+","altim":1014,"clouds":[{"cover":"SCT","base":2000}],"obsTime":1777420800},"SBMO":{"icaoId":"SBMO","flightCategory":"VFR","rawOb":"METAR SBMO 290000Z 08005KT 9999 FEW023 SCT043 25/24 Q1014","temp":25,"dewp":24,"wdir":80,"wspd":5,"visib":"6+","altim":1014,"clouds":[{"cover":"FEW","base":2300},{"cover":"SCT","base":4300}],"obsTime":1777420800},"SBMQ":{"icaoId":"SBMQ","flightCategory":"VFR","rawOb":"METAR SBMQ 290000Z 03004KT 9999 SCT017 28/26 Q1011","temp":28,"dewp":26,"wdir":30,"wspd":4,"visib":"6+","altim":1011,"clouds":[{"cover":"SCT","base":1700}],"obsTime":1777420800},"SBBR":{"icaoId":"SBBR","flightCategory":"VFR","rawOb":"METAR SBBR 290000Z 14007KT CAVOK 24/14 Q1019","temp":24,"dewp":14,"wdir":140,"wspd":7,"visib":"6+","altim":1019,"clouds":[],"obsTime":1777420800},"SBGO":{"icaoId":"SBGO","flightCategory":"VFR","rawOb":"METAR SBGO 290000Z 10003KT 070V130 CAVOK 25/18 Q1017","temp":25,"dewp":18,"wdir":100,"wspd":3,"visib":"6+","altim":1017,"clouds":[],"obsTime":1777420800},"SBNT":{"icaoId":"SBNT","flightCategory":"VFR","rawOb":"METAR SBNT 290000Z 13005KT 9999 SCT013 SCT020 BKN100 26/25 Q1013","temp":26,"dewp":25,"wdir":130,"wspd":5,"visib":"6+","altim":1013,"clouds":[{"cover":"SCT","base":1300},{"cover":"SCT","base":2000},{"cover":"BKN","base":10000}],"obsTime":1777420800},"SBCF":{"icaoId":"SBCF","flightCategory":"VFR","rawOb":"METAR SBCF 290000Z 09005KT CAVOK 23/18 Q1019","temp":23,"dewp":18,"wdir":90,"wspd":5,"visib":"6+","altim":1019,"clouds":[],"obsTime":1777420800},"SBPA":{"icaoId":"SBPA","flightCategory":"VFR","rawOb":"METAR SBPA 290000Z VRB02KT CAVOK 13/09 Q1017","temp":13,"dewp":9,"wdir":"VRB","wspd":2,"visib":"6+","altim":1017,"clouds":[],"obsTime":1777420800},"SBPJ":{"icaoId":"SBPJ","flightCategory":"VFR","rawOb":"METAR SBPJ 290000Z 13004KT 9999 FEW030 BKN080 26/24 Q1013","temp":26,"dewp":24,"wdir":130,"wspd":4,"visib":"6+","altim":1013,"clouds":[{"cover":"FEW","base":3000},{"cover":"BKN","base":8000}],"obsTime":1777420800},"SBGR":{"icaoId":"SBGR","flightCategory":"IFR","rawOb":"METAR SBGR 290000Z 16003KT 9999 OVC008 21/20 Q1019","temp":21,"dewp":20,"wdir":160,"wspd":3,"visib":"6+","altim":1019,"clouds":[{"cover":"OVC","base":800}],"obsTime":1777420800},"SBIL":{"icaoId":"SBIL","flightCategory":"VFR","rawOb":"METAR SBIL 290000Z 12006KT 9999 FEW020 26/23 Q1016","temp":26,"dewp":23,"wdir":120,"wspd":6,"visib":"6+","altim":1016,"clouds":[{"cover":"FEW","base":2000}],"obsTime":1777420800},"SBPV":{"icaoId":"SBPV","flightCategory":"VFR","rawOb":"METAR SBPV 290000Z 22002KT 9999 VCTS SCT030 FEW035CB 28/23 Q1009","temp":28,"dewp":23,"wdir":220,"wspd":2,"visib":"6+","altim":1009,"clouds":[{"cover":"SCT","base":3000},{"cover":"FEW","base":3500}],"obsTime":1777420800},"SBEG":{"icaoId":"SBEG","flightCategory":"VFR","rawOb":"METAR SBEG 290000Z 35003KT 9999 VCTS FEW020 FEW025CB 26/25 Q1010","temp":26,"dewp":25,"wdir":350,"wspd":3,"visib":"6+","altim":1010,"clouds":[{"cover":"FEW","base":2000},{"cover":"FEW","base":2500}],"obsTime":1777420800},"SBRB":{"icaoId":"SBRB","flightCategory":"VFR","rawOb":"METAR SBRB 290000Z 16001KT 9999 SCT036 SCT100 24/24 Q1011","temp":24,"dewp":24,"wdir":160,"wspd":1,"visib":"6+","altim":1011,"clouds":[{"cover":"SCT","base":3600},{"cover":"SCT","base":10000}],"obsTime":1777420800},"SBBE":{"icaoId":"SBBE","flightCategory":"VFR","rawOb":"METAR SBBE 290000Z 11007KT CAVOK 26/24 Q1011","temp":26,"dewp":24,"wdir":110,"wspd":7,"visib":"6+","altim":1011,"clouds":[],"obsTime":1777420800},"SBRF":{"icaoId":"SBRF","flightCategory":"MVFR","rawOb":"METAR SBRF 290000Z 12010KT 9999 BKN023 28/23 Q1013","temp":28,"dewp":23,"wdir":120,"wspd":10,"visib":"6+","altim":1013,"clouds":[{"cover":"BKN","base":2300}],"obsTime":1777420800},"SBJU":{"icaoId":"SBJU","flightCategory":"VFR","rawOb":"METAR SBJU 290000Z 00000KT 9999 SCT020 26/24 Q1014","temp":26,"dewp":24,"wdir":0,"wspd":0,"visib":"6+","altim":1014,"clouds":[{"cover":"SCT","base":2000}],"obsTime":1777420800},"SBSG":{"icaoId":"SBSG","flightCategory":"VFR","rawOb":"METAR SBSG 290000Z 13003KT 100V180 9999 -RA SCT013 FEW025TCU SCT090 25/24 Q1013","temp":25,"dewp":24,"wdir":130,"wspd":3,"visib":"6+","altim":1013,"clouds":[{"cover":"SCT","base":1300},{"cover":"FEW","base":2500},{"cover":"SCT","base":9000}],"obsTime":1777420800},"SBFI":{"icaoId":"SBFI","flightCategory":"VFR","rawOb":"METAR SBFI 290000Z 22002KT 9999 SCT020 OVC070 16/16 Q1016","temp":16,"dewp":16,"wdir":220,"wspd":2,"visib":"6+","altim":1016,"clouds":[{"cover":"SCT","base":2000},{"cover":"OVC","base":7000}],"obsTime":1777420800},"SBSL":{"icaoId":"SBSL","flightCategory":"VFR","rawOb":"METAR SBSL 290000Z 00000KT 9999 FEW020 BKN080 25/24 Q1012","temp":25,"dewp":24,"wdir":0,"wspd":0,"visib":"6+","altim":1012,"clouds":[{"cover":"FEW","base":2000},{"cover":"BKN","base":8000}],"obsTime":1777420800},"SBKP":{"icaoId":"SBKP","flightCategory":"VFR","rawOb":"METAR SBKP 290000Z 12005KT 9999 FEW025 BKN100 22/21 Q1017","temp":22,"dewp":21,"wdir":120,"wspd":5,"visib":"6+","altim":1017,"clouds":[{"cover":"FEW","base":2500},{"cover":"BKN","base":10000}],"obsTime":1777420800},"SBSN":{"icaoId":"SBSN","flightCategory":"VFR","rawOb":"METAR SBSN 290000Z 08002KT CAVOK 26/25 Q1010","temp":26,"dewp":25,"wdir":80,"wspd":2,"visib":"6+","altim":1010,"clouds":[],"obsTime":1777420800},"SBSP":{"icaoId":"SBSP","flightCategory":"IFR","rawOb":"METAR SBSP 290000Z 20004KT 9999 BKN007 20/19 Q1020","temp":20,"dewp":19,"wdir":200,"wspd":4,"visib":"6+","altim":1020,"clouds":[{"cover":"BKN","base":700}],"obsTime":1777420800},"SBFL":{"icaoId":"SBFL","flightCategory":"VFR","rawOb":"METAR SBFL 290000Z 07003KT 9999 BKN040 19/15 Q1017","temp":19,"dewp":15,"wdir":70,"wspd":3,"visib":"6+","altim":1017,"clouds":[{"cover":"BKN","base":4000}],"obsTime":1777420800},"SBLO":{"icaoId":"SBLO","flightCategory":"MVFR","rawOb":"METAR SBLO 290000Z 08001KT 5000 BR NSC 22/22 Q1016","temp":22,"dewp":22,"wdir":80,"wspd":1,"visib":3.11,"altim":1016,"clouds":[],"obsTime":1777420800},"SBSV":{"icaoId":"SBSV","flightCategory":"VFR","rawOb":"METAR SBSV 290000Z 15005KT 120V210 9999 SCT023 SCT043 BKN060 27/22 Q1014","temp":27,"dewp":22,"wdir":150,"wspd":5,"visib":"6+","altim":1014,"clouds":[{"cover":"SCT","base":2300},{"cover":"SCT","base":4300},{"cover":"BKN","base":6000}],"obsTime":1777420800},"SBTE":{"icaoId":"SBTE","flightCategory":"VFR","rawOb":"METAR SBTE 290000Z 35002KT 9999 FEW020 SCT100 29/25 Q1011","temp":29,"dewp":25,"wdir":350,"wspd":2,"visib":"6+","altim":1011,"clouds":[{"cover":"FEW","base":2000},{"cover":"SCT","base":10000}],"obsTime":1777420800},"SBCG":{"icaoId":"SBCG","flightCategory":"VFR","rawOb":"METAR SBCG 290000Z 16005KT CAVOK 23/22 Q1016","temp":23,"dewp":22,"wdir":160,"wspd":5,"visib":"6+","altim":1016,"clouds":[],"obsTime":1777420800},"SBUL":{"icaoId":"SBUL","flightCategory":"VFR","rawOb":"METAR SBUL 290000Z 08004KT CAVOK 25/16 Q1019","temp":25,"dewp":16,"wdir":80,"wspd":4,"visib":"6+","altim":1019,"clouds":[],"obsTime":1777420800},"SBMA":{"icaoId":"SBMA","flightCategory":"VFR","rawOb":"METAR SBMA 290000Z 00000KT CAVOK 26/24 Q1012","temp":26,"dewp":24,"wdir":0,"wspd":0,"visib":"6+","altim":1012,"clouds":[],"obsTime":1777420800},"SBUR":{"icaoId":"SBUR","flightCategory":"VFR","rawOb":"METAR SBUR 290000Z 04004KT CAVOK 26/16 Q1018","temp":26,"dewp":16,"wdir":40,"wspd":4,"visib":"6+","altim":1018,"clouds":[],"obsTime":1777420800},"SBME":{"icaoId":"SBME","flightCategory":"VFR","rawOb":"METAR SBME 290000Z 36003KT CAVOK 24/23 Q1015","temp":24,"dewp":23,"wdir":360,"wspd":3,"visib":"6+","altim":1015,"clouds":[],"obsTime":1777420800},"SBCT":{"icaoId":"SBCT","flightCategory":"LIFR","rawOb":"METAR SBCT 290000Z 10003KT 6000 -RA BKN004 OVC009 15/15 Q1020","temp":15,"dewp":15,"wdir":100,"wspd":3,"visib":3.73,"altim":1020,"clouds":[{"cover":"BKN","base":400},{"cover":"OVC","base":900}],"obsTime":1777420800},"SBVT":{"icaoId":"SBVT","flightCategory":"VFR","rawOb":"METAR SBVT 290000Z 02006KT 9999 FEW045 25/23 Q1016","temp":25,"dewp":23,"wdir":20,"wspd":6,"visib":"6+","altim":1016,"clouds":[{"cover":"FEW","base":4500}],"obsTime":1777420800},"SBCZ":{"icaoId":"SBCZ","flightCategory":"VFR","rawOb":"METAR SBCZ 290000Z 00000KT CAVOK 25/25 Q1010","temp":25,"dewp":25,"wdir":0,"wspd":0,"visib":"6+","altim":1010,"clouds":[],"obsTime":1777420800},"SBCO":{"icaoId":"SBCO","flightCategory":"VFR","rawOb":"METAR SBCO 290000Z 07002KT CAVOK 10/08 Q1017","temp":10,"dewp":8,"wdir":70,"wspd":2,"visib":"6+","altim":1017,"clouds":[],"obsTime":1777420800},"SBAX":{"icaoId":"SBAX","flightCategory":"VFR","rawOb":"METAR SBAX 290000Z 11007KT CAVOK 24/17 Q1019","temp":24,"dewp":17,"wdir":110,"wspd":7,"visib":"6+","altim":1019,"clouds":[],"obsTime":1777420800},"SBOI":{"icaoId":"SBOI","flightCategory":"VFR","rawOb":"METAR SBOI 290000Z AUTO VRB02KT 9999 FEW020 SCT048 25/24 Q1012","temp":25,"dewp":24,"wdir":"VRB","wspd":2,"visib":"6+","altim":1012,"clouds":[{"cover":"FEW","base":2000},{"cover":"SCT","base":4800}],"obsTime":1777420800},"SBDN":{"icaoId":"SBDN","flightCategory":"VFR","rawOb":"METAR SBDN 290000Z 13004KT CAVOK 24/21 Q1015","temp":24,"dewp":21,"wdir":130,"wspd":4,"visib":"6+","altim":1015,"clouds":[],"obsTime":1777420800},"SBPL":{"icaoId":"SBPL","flightCategory":"VFR","rawOb":"METAR SBPL 290000Z 14005KT CAVOK 28/17 Q1013","temp":28,"dewp":17,"wdir":140,"wspd":5,"visib":"6+","altim":1013,"clouds":[],"obsTime":1777420800},"SBBU":{"icaoId":"SBBU","flightCategory":"VFR","rawOb":"METAR SBBU 290000Z 20005KT CAVOK 26/21 Q1017","temp":26,"dewp":21,"wdir":200,"wspd":5,"visib":"6+","altim":1017,"clouds":[],"obsTime":1777420800},"SBPS":{"icaoId":"SBPS","flightCategory":"VFR","rawOb":"METAR SBPS 290000Z 23002KT 9999 SCT020 SCT060 24/22 Q1016","temp":24,"dewp":22,"wdir":230,"wspd":2,"visib":"6+","altim":1016,"clouds":[{"cover":"SCT","base":2000},{"cover":"SCT","base":6000}],"obsTime":1777420800},"SBIP":{"icaoId":"SBIP","flightCategory":"VFR","rawOb":"METAR SBIP 290000Z AUTO 22001KT CAVOK 22/21 Q1016","temp":22,"dewp":21,"wdir":220,"wspd":1,"visib":"6+","altim":1016,"clouds":[],"obsTime":1777420800},"SBSC":{"icaoId":"SBSC","flightCategory":"MVFR","rawOb":"METAR SBSC 290000Z 20004KT 8000 SCT025 BKN035 BKN100 25/23 Q1015","temp":25,"dewp":23,"wdir":200,"wspd":4,"visib":4.97,"altim":1015,"clouds":[{"cover":"SCT","base":2500},{"cover":"BKN","base":3500},{"cover":"BKN","base":10000}],"obsTime":1777420800},"SBBH":{"icaoId":"SBBH","flightCategory":"VFR","rawOb":"METAR SBBH 290000Z 10007KT CAVOK 23/18 Q1019","temp":23,"dewp":18,"wdir":100,"wspd":7,"visib":"6+","altim":1019,"clouds":[],"obsTime":1777420800},"SBSJ":{"icaoId":"SBSJ","flightCategory":"MVFR","rawOb":"METAR SBSJ 290000Z 21004KT 8000 VCTS FEW011 FEW035CB SCT100 22/20 Q1018","temp":22,"dewp":20,"wdir":210,"wspd":4,"visib":4.97,"altim":1018,"clouds":[{"cover":"FEW","base":1100},{"cover":"FEW","base":3500},{"cover":"SCT","base":10000}],"obsTime":1777420800},"SBSM":{"icaoId":"SBSM","flightCategory":"VFR","rawOb":"METAR SBSM 290000Z 07002KT 9999 BCFG NSC 08/07 Q1017","temp":8,"dewp":7,"wdir":70,"wspd":2,"visib":"6+","altim":1017,"clouds":[],"obsTime":1777420800},"SBKG":{"icaoId":"SBKG","flightCategory":"IFR","rawOb":"METAR SBKG 290000Z 10008KT 3000 -RA BR BKN010 OVC070 22/22 Q1016","temp":22,"dewp":22,"wdir":100,"wspd":8,"visib":1.86,"altim":1016,"clouds":[{"cover":"BKN","base":1000},{"cover":"OVC","base":7000}],"obsTime":1777420800},"SBSR":{"icaoId":"SBSR","flightCategory":"VFR","rawOb":"METAR SBSR 290000Z 18005KT CAVOK 28/18 Q1016","temp":28,"dewp":18,"wdir":180,"wspd":5,"visib":"6+","altim":1016,"clouds":[],"obsTime":1777420800},"SBAR":{"icaoId":"SBAR","flightCategory":"VFR","rawOb":"METAR SBAR 290000Z 12007KT 9999 -RA FEW015 SCT024 BKN040 26/24 Q1014","temp":26,"dewp":24,"wdir":120,"wspd":7,"visib":"6+","altim":1014,"clouds":[{"cover":"FEW","base":1500},{"cover":"SCT","base":2400},{"cover":"BKN","base":4000}],"obsTime":1777420800},"SBJP":{"icaoId":"SBJP","flightCategory":"MVFR","rawOb":"METAR SBJP 290000Z 11006KT 5000 -RA BKN014 OVC070 25/24 Q1013","temp":25,"dewp":24,"wdir":110,"wspd":6,"visib":3.11,"altim":1013,"clouds":[{"cover":"BKN","base":1400},{"cover":"OVC","base":7000}],"obsTime":1777420800},"SBAN":{"icaoId":"SBAN","flightCategory":"VFR","rawOb":"METAR SBAN 290000Z 18004KT CAVOK 21/15 Q1020","temp":21,"dewp":15,"wdir":180,"wspd":4,"visib":"6+","altim":1020,"clouds":[],"obsTime":1777420800},"SBLE":{"icaoId":"SBLE","flightCategory":"VFR","rawOb":"METAR SBLE 290000Z AUTO 04004KT CAVOK 21/21 Q1017","temp":21,"dewp":21,"wdir":40,"wspd":4,"visib":"6+","altim":1017,"clouds":[],"obsTime":1777420800},"SBJV":{"icaoId":"SBJV","flightCategory":"IFR","rawOb":"METAR SBJV 290000Z 32002KT 4000 -RA BKN005 BKN030 17/17 Q1018","temp":17,"dewp":17,"wdir":320,"wspd":2,"visib":2.49,"altim":1018,"clouds":[{"cover":"BKN","base":500},{"cover":"BKN","base":3000}],"obsTime":1777420800},"SBLS":{"icaoId":"SBLS","flightCategory":"VFR","rawOb":"METAR SBLS 290000Z 12006KT CAVOK 23/17 Q1019","temp":23,"dewp":17,"wdir":120,"wspd":6,"visib":"6+","altim":1019,"clouds":[],"obsTime":1777420800},"SBMT":{"icaoId":"SBMT","flightCategory":"MVFR","rawOb":"METAR SBMT 290000Z 11004KT 7000 BKN015 21/20 Q1018","temp":21,"dewp":20,"wdir":110,"wspd":4,"visib":4.35,"altim":1018,"clouds":[{"cover":"BKN","base":1500}],"obsTime":1777420800},"SBTA":{"icaoId":"SBTA","flightCategory":"VFR","rawOb":"METAR SBTA 290000Z 10003KT 9999 VCTS SCT030 FEW040CB BKN090 23/22 Q1017","temp":23,"dewp":22,"wdir":100,"wspd":3,"visib":"6+","altim":1017,"clouds":[{"cover":"SCT","base":3000},{"cover":"FEW","base":4000},{"cover":"BKN","base":9000}],"obsTime":1777420800},"SBJR":{"icaoId":"SBJR","flightCategory":"MVFR","rawOb":"METAR SBJR 290000Z 00000KT 9999 FEW015 BKN030 26/24 Q1014","temp":26,"dewp":24,"wdir":0,"wspd":0,"visib":"6+","altim":1014,"clouds":[{"cover":"FEW","base":1500},{"cover":"BKN","base":3000}],"obsTime":1777420800}}}