{"updated":1777572040,"count":84,"data":{"SBCT":{"icaoId":"SBCT","flightCategory":"MVFR","rawOb":"SPECI SBCT 301615Z VRB03KT 9999 BKN017 BKN025 20/15 Q1020","temp":20,"dewp":15,"wdir":"VRB","wspd":3,"visib":"6+","altim":1020,"clouds":[{"cover":"BKN","base":1700},{"cover":"BKN","base":2500}],"obsTime":1777565700},"SBCB":{"icaoId":"SBCB","flightCategory":"VFR","rawOb":"METAR SBCB 301700Z 19009KT 9999 SCT020 27/23 Q1014","temp":27,"dewp":23,"wdir":190,"wspd":9,"visib":"6+","altim":1014,"clouds":[{"cover":"SCT","base":2000}],"obsTime":1777568400},"SBLO":{"icaoId":"SBLO","flightCategory":"VFR","rawOb":"METAR SBLO 301700Z 11005KT 9999 SCT019 26/21 Q1016","temp":26,"dewp":21,"wdir":110,"wspd":5,"visib":"6+","altim":1016,"clouds":[{"cover":"SCT","base":1900}],"obsTime":1777568400},"SBSP":{"icaoId":"SBSP","flightCategory":"VFR","rawOb":"METAR SBSP 301700Z 15011KT 9999 SCT025 25/19 Q1018","temp":25,"dewp":19,"wdir":150,"wspd":11,"visib":"6+","altim":1018,"clouds":[{"cover":"SCT","base":2500}],"obsTime":1777568400},"SBBE":{"icaoId":"SBBE","flightCategory":"LIFR","rawOb":"SPECI SBBE 301625Z 07013KT 0200 +TSRA BKN009 BKN025 FEW030CB 24/22 Q1010","temp":24,"dewp":22,"wdir":70,"wspd":13,"visib":0.12,"altim":1010,"clouds":[{"cover":"BKN","base":900},{"cover":"BKN","base":2500},{"cover":"FEW","base":3000}],"obsTime":1777566300},"SBSV":{"icaoId":"SBSV","flightCategory":"VFR","rawOb":"METAR SBSV 301700Z 13011KT 9999 VCSH SCT021 FEW025TCU SCT050 30/22 Q1013","temp":30,"dewp":22,"wdir":130,"wspd":11,"visib":"6+","altim":1013,"clouds":[{"cover":"SCT","base":2100},{"cover":"FEW","base":2500},{"cover":"SCT","base":5000}],"obsTime":1777568400},"SBKP":{"icaoId":"SBKP","flightCategory":"VFR","rawOb":"METAR SBKP 301700Z 22004KT CAVOK 28/20 Q1016","temp":28,"dewp":20,"wdir":220,"wspd":4,"visib":"6+","altim":1016,"clouds":[],"obsTime":1777568400},"SBMA":{"icaoId":"SBMA","flightCategory":"VFR","rawOb":"METAR SBMA 301700Z 19004KT 9999 SCT020 FEW023TCU BKN100 27/24 Q1008","temp":27,"dewp":24,"wdir":190,"wspd":4,"visib":"6+","altim":1008,"clouds":[{"cover":"SCT","base":2000},{"cover":"FEW","base":2300},{"cover":"BKN","base":10000}],"obsTime":1777568400},"SBVT":{"icaoId":"SBVT","flightCategory":"VFR","rawOb":"METAR SBVT 301700Z 08006KT 050V120 9999 FEW030 29/22 Q1014","temp":29,"dewp":22,"wdir":80,"wspd":6,"visib":"6+","altim":1014,"clouds":[{"cover":"FEW","base":3000}],"obsTime":1777568400},"SBEG":{"icaoId":"SBEG","flightCategory":"VFR","rawOb":"METAR SBEG 301700Z 21007KT 9999 VCSH SCT035 FEW040TCU 29/24 Q1010","temp":29,"dewp":24,"wdir":210,"wspd":7,"visib":"6+","altim":1010,"clouds":[{"cover":"SCT","base":3500},{"cover":"FEW","base":4000}],"obsTime":1777568400},"SBFI":{"icaoId":"SBFI","flightCategory":"MVFR","rawOb":"METAR SBFI 301700Z 07005KT 9999 BKN017 26/22 Q1014","temp":26,"dewp":22,"wdir":70,"wspd":5,"visib":"6+","altim":1014,"clouds":[{"cover":"BKN","base":1700}],"obsTime":1777568400},"SBCF":{"icaoId":"SBCF","flightCategory":"VFR","rawOb":"METAR SBCF 301700Z 03007KT 9999 SCT040 28/15 Q1018","temp":28,"dewp":15,"wdir":30,"wspd":7,"visib":"6+","altim":1018,"clouds":[{"cover":"SCT","base":4000}],"obsTime":1777568400},"SBMO":{"icaoId":"SBMO","flightCategory":"VFR","rawOb":"METAR SBMO 301700Z 11010KT 9999 SCT025 29/24 Q1011","temp":29,"dewp":24,"wdir":110,"wspd":10,"visib":"6+","altim":1011,"clouds":[{"cover":"SCT","base":2500}],"obsTime":1777568400},"SBBR":{"icaoId":"SBBR","flightCategory":"VFR","rawOb":"METAR SBBR 301700Z 11011KT 060V150 CAVOK 27/14 Q1018","temp":27,"dewp":14,"wdir":110,"wspd":11,"visib":"6+","altim":1018,"clouds":[],"obsTime":1777568400},"SBFL":{"icaoId":"SBFL","flightCategory":"VFR","rawOb":"METAR SBFL 301700Z 14008KT 100V160 9999 FEW030 25/18 Q1016","temp":25,"dewp":18,"wdir":140,"wspd":8,"visib":"6+","altim":1016,"clouds":[{"cover":"FEW","base":3000}],"obsTime":1777568400},"SBMQ":{"icaoId":"SBMQ","flightCategory":"VFR","rawOb":"METAR SBMQ 301700Z 06008KT 9999 VCSH SCT020 FEW025TCU BKN100 31/26 Q1008","temp":31,"dewp":26,"wdir":60,"wspd":8,"visib":"6+","altim":1008,"clouds":[{"cover":"SCT","base":2000},{"cover":"FEW","base":2500},{"cover":"BKN","base":10000}],"obsTime":1777568400},"SBCG":{"icaoId":"SBCG","flightCategory":"VFR","rawOb":"METAR SBCG 301700Z 09009KT 060V120 9999 SCT030 29/21 Q1015","temp":29,"dewp":21,"wdir":90,"wspd":9,"visib":"6+","altim":1015,"clouds":[{"cover":"SCT","base":3000}],"obsTime":1777568400},"SBFZ":{"icaoId":"SBFZ","flightCategory":"VFR","rawOb":"METAR SBFZ 301700Z 11014KT 9999 SCT026 31/22 Q1008","temp":31,"dewp":22,"wdir":110,"wspd":14,"visib":"6+","altim":1008,"clouds":[{"cover":"SCT","base":2600}],"obsTime":1777568400},"SBPA":{"icaoId":"SBPA","flightCategory":"VFR","rawOb":"METAR SBPA 301700Z VRB02KT CAVOK 26/12 Q1015","temp":26,"dewp":12,"wdir":"VRB","wspd":2,"visib":"6+","altim":1015,"clouds":[],"obsTime":1777568400},"SBCP":{"icaoId":"SBCP","flightCategory":"VFR","rawOb":"METAR SBCP 301700Z 27005KT 9999 SCT020 32/21 Q1013","temp":32,"dewp":21,"wdir":270,"wspd":5,"visib":"6+","altim":1013,"clouds":[{"cover":"SCT","base":2000}],"obsTime":1777568400},"SBPV":{"icaoId":"SBPV","flightCategory":"MVFR","rawOb":"METAR SBPV 301700Z 36007KT 9999 VCSH BKN030 BKN045 29/25 Q1009","temp":29,"dewp":25,"wdir":360,"wspd":7,"visib":"6+","altim":1009,"clouds":[{"cover":"BKN","base":3000},{"cover":"BKN","base":4500}],"obsTime":1777568400},"SBGL":{"icaoId":"SBGL","flightCategory":"VFR","rawOb":"METAR SBGL 301700Z 13013KT 9999 FEW022 28/22 Q1013","temp":28,"dewp":22,"wdir":130,"wspd":13,"visib":"6+","altim":1013,"clouds":[{"cover":"FEW","base":2200}],"obsTime":1777568400},"SBRB":{"icaoId":"SBRB","flightCategory":"MVFR","rawOb":"METAR SBRB 301700Z 01006KT 330V070 9999 BKN025 FEW040TCU 32/24 Q1011","temp":32,"dewp":24,"wdir":10,"wspd":6,"visib":"6+","altim":1011,"clouds":[{"cover":"BKN","base":2500},{"cover":"FEW","base":4000}],"obsTime":1777568400},"SBRF":{"icaoId":"SBRF","flightCategory":"VFR","rawOb":"METAR SBRF 301700Z 17008KT 140V210 9999 FEW018 FEW025TCU SCT053 29/24 Q1010","temp":29,"dewp":24,"wdir":170,"wspd":8,"visib":"6+","altim":1010,"clouds":[{"cover":"FEW","base":1800},{"cover":"FEW","base":2500},{"cover":"SCT","base":5300}],"obsTime":1777568400},"SBGO":{"icaoId":"SBGO","flightCategory":"VFR","rawOb":"METAR SBGO 301700Z 09014KT CAVOK 30/14 Q1016","temp":30,"dewp":14,"wdir":90,"wspd":14,"visib":"6+","altim":1016,"clouds":[],"obsTime":1777568400},"SBSG":{"icaoId":"SBSG","flightCategory":"MVFR","rawOb":"METAR SBSG 301700Z 13007KT 090V160 8000 -RA BKN033 FEW040TCU 26/24 Q1010","temp":26,"dewp":24,"wdir":130,"wspd":7,"visib":4.97,"altim":1010,"clouds":[{"cover":"BKN","base":3300},{"cover":"FEW","base":4000}],"obsTime":1777568400},"SBBV":{"icaoId":"SBBV","flightCategory":"MVFR","rawOb":"METAR SBBV 301700Z 12007KT 9999 BKN010 BKN020 FEW035TCU BKN100 26/24 Q1012","temp":26,"dewp":24,"wdir":120,"wspd":7,"visib":"6+","altim":1012,"clouds":[{"cover":"BKN","base":1000},{"cover":"BKN","base":2000},{"cover":"FEW","base":3500},{"cover":"BKN","base":10000}],"obsTime":1777568400},"SBGR":{"icaoId":"SBGR","flightCategory":"VFR","rawOb":"METAR SBGR 301700Z 16010KT 9999 BKN036 25/20 Q1018","temp":25,"dewp":20,"wdir":160,"wspd":10,"visib":"6+","altim":1018,"clouds":[{"cover":"BKN","base":3600}],"obsTime":1777568400},"SBSL":{"icaoId":"SBSL","flightCategory":"VFR","rawOb":"METAR SBSL 301700Z 02012KT 9999 SCT020 FEW025TCU BKN100 28/25 Q1009","temp":28,"dewp":25,"wdir":20,"wspd":12,"visib":"6+","altim":1009,"clouds":[{"cover":"SCT","base":2000},{"cover":"FEW","base":2500},{"cover":"BKN","base":10000}],"obsTime":1777568400},"SBSN":{"icaoId":"SBSN","flightCategory":"VFR","rawOb":"METAR SBSN 301700Z 12005KT 9999 VCSH SCT020 FEW025TCU SCT100 31/25 Q1009","temp":31,"dewp":25,"wdir":120,"wspd":5,"visib":"6+","altim":1009,"clouds":[{"cover":"SCT","base":2000},{"cover":"FEW","base":2500},{"cover":"SCT","base":10000}],"obsTime":1777568400},"SBCR":{"icaoId":"SBCR","flightCategory":"VFR","rawOb":"METAR SBCR 301700Z 11003KT 020V190 9999 BKN035 FEW040TCU 32/23 Q1011","temp":32,"dewp":23,"wdir":110,"wspd":3,"visib":"6+","altim":1011,"clouds":[{"cover":"BKN","base":3500},{"cover":"FEW","base":4000}],"obsTime":1777568400},"SBTE":{"icaoId":"SBTE","flightCategory":"VFR","rawOb":"METAR SBTE 301700Z 14008KT 9999 SCT020 33/21 Q1008","temp":33,"dewp":21,"wdir":140,"wspd":8,"visib":"6+","altim":1008,"clouds":[{"cover":"SCT","base":2000}],"obsTime":1777568400},"SBCZ":{"icaoId":"SBCZ","flightCategory":"MVFR","rawOb":"METAR SBCZ 301700Z 21004KT 9999 BKN025 29/24 Q1011","temp":29,"dewp":24,"wdir":210,"wspd":4,"visib":"6+","altim":1011,"clouds":[{"cover":"BKN","base":2500}],"obsTime":1777568400},"SBHT":{"icaoId":"SBHT","flightCategory":"MVFR","rawOb":"METAR SBHT 301700Z 10007KT 9999 BKN025 BKN100 31/24 Q1009","temp":31,"dewp":24,"wdir":100,"wspd":7,"visib":"6+","altim":1009,"clouds":[{"cover":"BKN","base":2500},{"cover":"BKN","base":10000}],"obsTime":1777568400},"SBIL":{"icaoId":"SBIL","flightCategory":"VFR","rawOb":"METAR SBIL 301700Z 20009KT 9999 VCSH SCT020 FEW023TCU SCT070 29/24 Q1014","temp":29,"dewp":24,"wdir":200,"wspd":9,"visib":"6+","altim":1014,"clouds":[{"cover":"SCT","base":2000},{"cover":"FEW","base":2300},{"cover":"SCT","base":7000}],"obsTime":1777568400},"SBJU":{"icaoId":"SBJU","flightCategory":"VFR","rawOb":"METAR SBJU 301700Z 15010KT 9999 FEW020 30/19 Q1012","temp":30,"dewp":19,"wdir":150,"wspd":10,"visib":"6+","altim":1012,"clouds":[{"cover":"FEW","base":2000}],"obsTime":1777568400},"SBME":{"icaoId":"SBME","flightCategory":"VFR","rawOb":"METAR SBME 301700Z 14007KT 110V200 9999 FEW040 29/23 Q1013","temp":29,"dewp":23,"wdir":140,"wspd":7,"visib":"6+","altim":1013,"clouds":[{"cover":"FEW","base":4000}],"obsTime":1777568400},"SBMG":{"icaoId":"SBMG","flightCategory":"VFR","rawOb":"METAR SBMG 301700Z 19004KT 120V260 9999 FEW025 26/21 Q1015","temp":26,"dewp":21,"wdir":190,"wspd":4,"visib":"6+","altim":1015,"clouds":[{"cover":"FEW","base":2500}],"obsTime":1777568400},"SBMK":{"icaoId":"SBMK","flightCategory":"VFR","rawOb":"METAR SBMK 301700Z 08008KT CAVOK 29/15 Q1016","temp":29,"dewp":15,"wdir":80,"wspd":8,"visib":"6+","altim":1016,"clouds":[],"obsTime":1777568400},"SBNT":{"icaoId":"SBNT","flightCategory":"IFR","rawOb":"METAR SBNT 301700Z 13011KT 3000 -RA BR BKN020 FEW033TCU OVC040 27/24 Q1009","temp":27,"dewp":24,"wdir":130,"wspd":11,"visib":1.86,"altim":1009,"clouds":[{"cover":"BKN","base":2000},{"cover":"FEW","base":3300},{"cover":"OVC","base":4000}],"obsTime":1777568400},"SBPJ":{"icaoId":"SBPJ","flightCategory":"VFR","rawOb":"METAR SBPJ 301700Z 13006KT 080V170 9999 BKN040 33/22 Q1011","temp":33,"dewp":22,"wdir":130,"wspd":6,"visib":"6+","altim":1011,"clouds":[{"cover":"BKN","base":4000}],"obsTime":1777568400},"SBUR":{"icaoId":"SBUR","flightCategory":"VFR","rawOb":"METAR SBUR 301700Z 08006KT CAVOK 30/14 Q1017","temp":30,"dewp":14,"wdir":80,"wspd":6,"visib":"6+","altim":1017,"clouds":[],"obsTime":1777568400},"SBAT":{"icaoId":"SBAT","flightCategory":"VFR","rawOb":"METAR SBAT 301700Z 17004KT 9999 VCSH SCT030 FEW035TCU 32/25 Q1010","temp":32,"dewp":25,"wdir":170,"wspd":4,"visib":"6+","altim":1010,"clouds":[{"cover":"SCT","base":3000},{"cover":"FEW","base":3500}],"obsTime":1777568400},"SBUL":{"icaoId":"SBUL","flightCategory":"VFR","rawOb":"METAR SBUL 301700Z VRB04KT 9999 SCT049 28/15 Q1018","temp":28,"dewp":15,"wdir":"VRB","wspd":4,"visib":"6+","altim":1018,"clouds":[{"cover":"SCT","base":4900}],"obsTime":1777568400},"SBCJ":{"icaoId":"SBCJ","flightCategory":"MVFR","rawOb":"METAR SBCJ 301700Z 00000KT 9999 BKN025 26/23 Q1014","temp":26,"dewp":23,"wdir":0,"wspd":0,"visib":"6+","altim":1014,"clouds":[{"cover":"BKN","base":2500}],"obsTime":1777568400},"SBUY":{"icaoId":"SBUY","flightCategory":"VFR","rawOb":"METAR SBUY 301700Z 08006KT 9999 VCSH SCT025 FEW035TCU 32/24 Q1009","temp":32,"dewp":24,"wdir":80,"wspd":6,"visib":"6+","altim":1009,"clouds":[{"cover":"SCT","base":2500},{"cover":"FEW","base":3500}],"obsTime":1777568400},"SBTT":{"icaoId":"SBTT","flightCategory":"MVFR","rawOb":"METAR SBTT 301700Z 05003KT 9999 BKN020 BKN050 29/24 Q1011","temp":29,"dewp":24,"wdir":50,"wspd":3,"visib":"6+","altim":1011,"clouds":[{"cover":"BKN","base":2000},{"cover":"BKN","base":5000}],"obsTime":1777568400},"SBSJ":{"icaoId":"SBSJ","flightCategory":"VFR","rawOb":"METAR SBSJ 301700Z 26003KT 9999 FEW045 27/19 Q1017","temp":27,"dewp":19,"wdir":260,"wspd":3,"visib":"6+","altim":1017,"clouds":[{"cover":"FEW","base":4500}],"obsTime":1777568400},"SBPS":{"icaoId":"SBPS","flightCategory":"VFR","rawOb":"METAR SBPS 301700Z 14005KT 9999 SCT020 FEW025TCU BKN070 27/23 Q1014","temp":27,"dewp":23,"wdir":140,"wspd":5,"visib":"6+","altim":1014,"clouds":[{"cover":"SCT","base":2000},{"cover":"FEW","base":2500},{"cover":"BKN","base":7000}],"obsTime":1777568400},"SBPP":{"icaoId":"SBPP","flightCategory":"VFR","rawOb":"METAR SBPP 301700Z 07012KT 9999 SCT025 26/21 Q1016","temp":26,"dewp":21,"wdir":70,"wspd":12,"visib":"6+","altim":1016,"clouds":[{"cover":"SCT","base":2500}],"obsTime":1777568400},"SBPL":{"icaoId":"SBPL","flightCategory":"MVFR","rawOb":"METAR SBPL 301700Z 13009KT 9999 BKN030 29/21 Q1013","temp":29,"dewp":21,"wdir":130,"wspd":9,"visib":"6+","altim":1013,"clouds":[{"cover":"BKN","base":3000}],"obsTime":1777568400},"SBOI":{"icaoId":"SBOI","flightCategory":"MVFR","rawOb":"SPECI SBOI 301610Z AUTO 04004KT 360V090 8000 -RA FEW006 SCT020 BKN031 26/25 Q1011","temp":26,"dewp":25,"wdir":40,"wspd":4,"visib":4.97,"altim":1011,"clouds":[{"cover":"FEW","base":600},{"cover":"SCT","base":2000},{"cover":"BKN","base":3100}],"obsTime":1777565400},"SBAR":{"icaoId":"SBAR","flightCategory":"VFR","rawOb":"METAR SBAR 301700Z 10013KT 9999 -RA SCT015 OVC040 27/24 Q1012","temp":27,"dewp":24,"wdir":100,"wspd":13,"visib":"6+","altim":1012,"clouds":[{"cover":"SCT","base":1500},{"cover":"OVC","base":4000}],"obsTime":1777568400},"SBVH":{"icaoId":"SBVH","flightCategory":"VFR","rawOb":"METAR SBVH 301700Z 07007KT 9999 SCT028 30/22 Q1014","temp":30,"dewp":22,"wdir":70,"wspd":7,"visib":"6+","altim":1014,"clouds":[{"cover":"SCT","base":2800}],"obsTime":1777568400},"SBES":{"icaoId":"SBES","flightCategory":"VFR","rawOb":"METAR SBES 301700Z 20008KT 140V250 9999 SCT015 28/// Q1014","temp":null,"dewp":null,"wdir":200,"wspd":8,"visib":"6+","altim":1014,"clouds":[{"cover":"SCT","base":1500}],"obsTime":1777568400},"SBGM":{"icaoId":"SBGM","flightCategory":"VFR","rawOb":"METAR SBGM 301700Z VRB04KT CAVOK 32/17 Q1011","temp":32,"dewp":17,"wdir":"VRB","wspd":4,"visib":"6+","altim":1011,"clouds":[],"obsTime":1777568400},"SBIP":{"icaoId":"SBIP","flightCategory":"VFR","rawOb":"METAR SBIP 301700Z AUTO 01005KT 290V080 CAVOK 32/17 Q1015","temp":32,"dewp":17,"wdir":10,"wspd":5,"visib":"6+","altim":1015,"clouds":[],"obsTime":1777568400},"SBKG":{"icaoId":"SBKG","flightCategory":"MVFR","rawOb":"METAR SBKG 301700Z 11010KT 9999 BKN017 SCT080 27/21 Q1013","temp":27,"dewp":21,"wdir":110,"wspd":10,"visib":"6+","altim":1013,"clouds":[{"cover":"BKN","base":1700},{"cover":"SCT","base":8000}],"obsTime":1777568400},"SBCO":{"icaoId":"SBCO","flightCategory":"VFR","rawOb":"METAR SBCO 301700Z 13003KT CAVOK 25/09 Q1016","temp":25,"dewp":9,"wdir":130,"wspd":3,"visib":"6+","altim":1016,"clouds":[],"obsTime":1777568400},"SBDN":{"icaoId":"SBDN","flightCategory":"VFR","rawOb":"METAR SBDN 301700Z 06005KT CAVOK 30/20 Q1015","temp":30,"dewp":20,"wdir":60,"wspd":5,"visib":"6+","altim":1015,"clouds":[],"obsTime":1777568400},"SBCC":{"icaoId":"SBCC","flightCategory":"VFR","rawOb":"METAR SBCC 301700Z 08010KT 9999 SCT025 32/20 Q1012","temp":32,"dewp":20,"wdir":80,"wspd":10,"visib":"6+","altim":1012,"clouds":[{"cover":"SCT","base":2500}],"obsTime":1777568400},"SBPB":{"icaoId":"SBPB","flightCategory":"MVFR","rawOb":"METAR SBPB 301700Z 17010KT 8000 -RA BKN015 OVC080 25/23 Q1009","temp":25,"dewp":23,"wdir":170,"wspd":10,"visib":4.97,"altim":1009,"clouds":[{"cover":"BKN","base":1500},{"cover":"OVC","base":8000}],"obsTime":1777568400},"SBCA":{"icaoId":"SBCA","flightCategory":"VFR","rawOb":"METAR SBCA 301700Z 02010KT 9999 SCT020 26/19 Q1017","temp":26,"dewp":19,"wdir":20,"wspd":10,"visib":"6+","altim":1017,"clouds":[{"cover":"SCT","base":2000}],"obsTime":1777568400},"SBBU":{"icaoId":"SBBU","flightCategory":"VFR","rawOb":"METAR SBBU 301700Z 32003KT CAVOK 28/20 Q1016","temp":28,"dewp":20,"wdir":320,"wspd":3,"visib":"6+","altim":1016,"clouds":[],"obsTime":1777568400},"SBBQ":{"icaoId":"SBBQ","flightCategory":"VFR","rawOb":"METAR SBBQ 301700Z 14003KT CAVOK 26/13 Q1021","temp":26,"dewp":13,"wdir":140,"wspd":3,"visib":"6+","altim":1021,"clouds":[],"obsTime":1777568400},"SBSC":{"icaoId":"SBSC","flightCategory":"VFR","rawOb":"METAR SBSC 301700Z 20011KT 9999 FEW040 27/22 Q1014","temp":27,"dewp":22,"wdir":200,"wspd":11,"visib":"6+","altim":1014,"clouds":[{"cover":"FEW","base":4000}],"obsTime":1777568400},"SBBH":{"icaoId":"SBBH","flightCategory":"VFR","rawOb":"METAR SBBH 301700Z 06008KT 9999 SCT046 28/16 Q1018","temp":28,"dewp":16,"wdir":60,"wspd":8,"visib":"6+","altim":1018,"clouds":[{"cover":"SCT","base":4600}],"obsTime":1777568400},"SBSM":{"icaoId":"SBSM","flightCategory":"VFR","rawOb":"METAR SBSM 301700Z 12006KT 070V170 CAVOK 25/12 Q1015","temp":25,"dewp":12,"wdir":120,"wspd":6,"visib":"6+","altim":1015,"clouds":[],"obsTime":1777568400},"SBSR":{"icaoId":"SBSR","flightCategory":"VFR","rawOb":"METAR SBSR 301700Z 33002KT 9999 FEW025 31/16 Q1015","temp":31,"dewp":16,"wdir":330,"wspd":2,"visib":"6+","altim":1015,"clouds":[{"cover":"FEW","base":2500}],"obsTime":1777568400},"SBTF":{"icaoId":"SBTF","flightCategory":"VFR","rawOb":"METAR SBTF 301700Z 15002KT 9999 SCT020 32/25 Q1009","temp":32,"dewp":25,"wdir":150,"wspd":2,"visib":"6+","altim":1009,"clouds":[{"cover":"SCT","base":2000}],"obsTime":1777568400},"SBAU":{"icaoId":"SBAU","flightCategory":"VFR","rawOb":"METAR SBAU 301700Z 06006KT CAVOK 31/17 Q1014","temp":31,"dewp":17,"wdir":60,"wspd":6,"visib":"6+","altim":1014,"clouds":[],"obsTime":1777568400},"SBIH":{"icaoId":"SBIH","flightCategory":"VFR","rawOb":"METAR SBIH 301700Z 01008KT 9999 VCSH SCT020 FEW023TCU 33/24 Q1008","temp":33,"dewp":24,"wdir":10,"wspd":8,"visib":"6+","altim":1008,"clouds":[{"cover":"SCT","base":2000},{"cover":"FEW","base":2300}],"obsTime":1777568400},"SBJP":{"icaoId":"SBJP","flightCategory":"IFR","rawOb":"SPECI SBJP 301640Z 12016KT 2000 -RA BKN010 SCT020 25/25 Q1011","temp":25,"dewp":25,"wdir":120,"wspd":16,"visib":1.24,"altim":1011,"clouds":[{"cover":"BKN","base":1000},{"cover":"SCT","base":2000}],"obsTime":1777567200},"SBST":{"icaoId":"SBST","flightCategory":"VFR","rawOb":"METAR SBST 301700Z /////KT 9999 FEW020 SCT036 ///// Q1015","temp":null,"dewp":null,"wdir":null,"wspd":null,"visib":"6+","altim":1015,"clouds":[{"cover":"FEW","base":2000},{"cover":"SCT","base":3600}],"obsTime":1777568400},"SBAN":{"icaoId":"SBAN","flightCategory":"VFR","rawOb":"METAR SBAN 301700Z 15019KT 120V180 CAVOK 27/12 Q1019","temp":27,"dewp":12,"wdir":150,"wspd":19,"visib":"6+","altim":1019,"clouds":[],"obsTime":1777568400},"SBJV":{"icaoId":"SBJV","flightCategory":"VFR","rawOb":"METAR SBJV 301700Z 12005KT 9999 SCT015 BKN040 24/19 Q1016","temp":24,"dewp":19,"wdir":120,"wspd":5,"visib":"6+","altim":1016,"clouds":[{"cover":"SCT","base":1500},{"cover":"BKN","base":4000}],"obsTime":1777568400},"SBNM":{"icaoId":"SBNM","flightCategory":"VFR","rawOb":"METAR SBNM 301700Z 06004KT CAVOK 27/13 Q1015","temp":27,"dewp":13,"wdir":60,"wspd":4,"visib":"6+","altim":1015,"clouds":[],"obsTime":1777568400},"SBLE":{"icaoId":"SBLE","flightCategory":"VFR","rawOb":"METAR SBLE 301700Z AUTO 17006KT 090V210 9999 BKN044 27/18 Q1015","temp":27,"dewp":18,"wdir":170,"wspd":6,"visib":"6+","altim":1015,"clouds":[{"cover":"BKN","base":4400}],"obsTime":1777568400},"SBAF":{"icaoId":"SBAF","flightCategory":"VFR","rawOb":"METAR SBAF 301700Z 16009KT 9999 FEW020 29/23 Q1013","temp":29,"dewp":23,"wdir":160,"wspd":9,"visib":"6+","altim":1013,"clouds":[{"cover":"FEW","base":2000}],"obsTime":1777568400},"SBGW":{"icaoId":"SBGW","flightCategory":"VFR","rawOb":"METAR SBGW 301700Z 31004KT 9999 SCT030 30/17 Q1016","temp":30,"dewp":17,"wdir":310,"wspd":4,"visib":"6+","altim":1016,"clouds":[{"cover":"SCT","base":3000}],"obsTime":1777568400},"SBJR":{"icaoId":"SBJR","flightCategory":"VFR","rawOb":"METAR SBJR 301700Z 15009KT 9999 FEW025 30/22 Q1014","temp":30,"dewp":22,"wdir":150,"wspd":9,"visib":"6+","altim":1014,"clouds":[{"cover":"FEW","base":2500}],"obsTime":1777568400},"SBLS":{"icaoId":"SBLS","flightCategory":"VFR","rawOb":"METAR SBLS 301700Z VRB04KT 9999 SCT046 28/15 Q1018","temp":28,"dewp":15,"wdir":"VRB","wspd":4,"visib":"6+","altim":1018,"clouds":[{"cover":"SCT","base":4600}],"obsTime":1777568400},"SBMT":{"icaoId":"SBMT","flightCategory":"VFR","rawOb":"METAR SBMT 301700Z 15008KT 100V200 9999 SCT043 24/19 Q1017","temp":24,"dewp":19,"wdir":150,"wspd":8,"visib":"6+","altim":1017,"clouds":[{"cover":"SCT","base":4300}],"obsTime":1777568400},"SBTA":{"icaoId":"SBTA","flightCategory":"VFR","rawOb":"METAR SBTA 301700Z VRB02KT 9999 FEW035 29/18 Q1015","temp":29,"dewp":18,"wdir":"VRB","wspd":2,"visib":"6+","altim":1015,"clouds":[{"cover":"FEW","base":3500}],"obsTime":1777568400}}}