{"updated":1773719041,"count":58,"data":{"SBVT":{"icaoId":"SBVT","flightCategory":"MVFR","rawOb":"METAR SBVT 170200Z 30004KT 9999 BKN025 23/22 Q1014","temp":23,"dewp":22,"wdir":300,"wspd":4,"visib":"6+","altim":1014,"clouds":[{"cover":"BKN","base":2500}],"obsTime":1773712800},"SBBE":{"icaoId":"SBBE","flightCategory":"VFR","rawOb":"METAR SBBE 170200Z 04003KT 9999 FEW015 SCT066 BKN095 26/26 Q1012","temp":26,"dewp":26,"wdir":40,"wspd":3,"visib":"6+","altim":1012,"clouds":[{"cover":"FEW","base":1500},{"cover":"SCT","base":6600},{"cover":"BKN","base":9500}],"obsTime":1773712800},"SBBR":{"icaoId":"SBBR","flightCategory":"VFR","rawOb":"METAR SBBR 170200Z 24003KT 9999 FEW040 SCT100 21/19 Q1018","temp":21,"dewp":19,"wdir":240,"wspd":3,"visib":"6+","altim":1018,"clouds":[{"cover":"FEW","base":4000},{"cover":"SCT","base":10000}],"obsTime":1773712800},"SBBV":{"icaoId":"SBBV","flightCategory":"VFR","rawOb":"METAR SBBV 170200Z 08013KT CAVOK 29/22 Q1010","temp":29,"dewp":22,"wdir":80,"wspd":13,"visib":"6+","altim":1010,"clouds":[],"obsTime":1773712800},"SBCF":{"icaoId":"SBCF","flightCategory":"VFR","rawOb":"METAR SBCF 170200Z VRB02KT 9999 FEW045 SCT066 23/19 Q1017","temp":23,"dewp":19,"wdir":"VRB","wspd":2,"visib":"6+","altim":1017,"clouds":[{"cover":"FEW","base":4500},{"cover":"SCT","base":6600}],"obsTime":1773712800},"SBCG":{"icaoId":"SBCG","flightCategory":"VFR","rawOb":"METAR SBCG 170200Z 08005KT CAVOK 24/22 Q1012","temp":24,"dewp":22,"wdir":80,"wspd":5,"visib":"6+","altim":1012,"clouds":[],"obsTime":1773712800},"SBCT":{"icaoId":"SBCT","flightCategory":"IFR","rawOb":"METAR SBCT 170200Z 07005KT 9999 BKN009 20/19 Q1018","temp":20,"dewp":19,"wdir":70,"wspd":5,"visib":"6+","altim":1018,"clouds":[{"cover":"BKN","base":900}],"obsTime":1773712800},"SBEG":{"icaoId":"SBEG","flightCategory":"VFR","rawOb":"METAR SBEG 170200Z 04003KT CAVOK 25/24 Q1009","temp":25,"dewp":24,"wdir":40,"wspd":3,"visib":"6+","altim":1009,"clouds":[],"obsTime":1773712800},"SBFI":{"icaoId":"SBFI","flightCategory":"VFR","rawOb":"METAR SBFI 170200Z 06006KT 9999 FEW006 BKN080 22/21 Q1008","temp":22,"dewp":21,"wdir":60,"wspd":6,"visib":"6+","altim":1008,"clouds":[{"cover":"FEW","base":600},{"cover":"BKN","base":8000}],"obsTime":1773712800},"SBFL":{"icaoId":"SBFL","flightCategory":"VFR","rawOb":"METAR SBFL 170200Z 01007KT 9999 BKN040 26/23 Q1013","temp":26,"dewp":23,"wdir":10,"wspd":7,"visib":"6+","altim":1013,"clouds":[{"cover":"BKN","base":4000}],"obsTime":1773712800},"SBFZ":{"icaoId":"SBFZ","flightCategory":"VFR","rawOb":"METAR SBFZ 170200Z 07002KT 9999 FEW018 28/24 Q1011","temp":28,"dewp":24,"wdir":70,"wspd":2,"visib":"6+","altim":1011,"clouds":[{"cover":"FEW","base":1800}],"obsTime":1773712800},"SBGL":{"icaoId":"SBGL","flightCategory":"VFR","rawOb":"METAR SBGL 170200Z 11006KT 9999 FEW013 25/20 Q1013","temp":25,"dewp":20,"wdir":110,"wspd":6,"visib":"6+","altim":1013,"clouds":[{"cover":"FEW","base":1300}],"obsTime":1773712800},"SBGO":{"icaoId":"SBGO","flightCategory":"VFR","rawOb":"METAR SBGO 170200Z 09009KT 9999 RA FEW005 SCT040 FEW045TCU OVC060 22/21 Q1017 RETS","temp":22,"dewp":21,"wdir":90,"wspd":9,"visib":"6+","altim":1017,"clouds":[{"cover":"FEW","base":500},{"cover":"SCT","base":4000},{"cover":"FEW","base":4500},{"cover":"OVC","base":6000}],"obsTime":1773712800},"SBGR":{"icaoId":"SBGR","flightCategory":"MVFR","rawOb":"METAR SBGR 170200Z 00000KT 8000 NSC 20/19 Q1018","temp":20,"dewp":19,"wdir":0,"wspd":0,"visib":4.97,"altim":1018,"clouds":[],"obsTime":1773712800},"SBJU":{"icaoId":"SBJU","flightCategory":"VFR","rawOb":"METAR SBJU 170200Z 00000KT 9999 SCT020 25/23 Q1014","temp":25,"dewp":23,"wdir":0,"wspd":0,"visib":"6+","altim":1014,"clouds":[{"cover":"SCT","base":2000}],"obsTime":1773712800},"SBKP":{"icaoId":"SBKP","flightCategory":"VFR","rawOb":"METAR SBKP 170200Z 12011KT CAVOK 24/19 Q1015","temp":24,"dewp":19,"wdir":120,"wspd":11,"visib":"6+","altim":1015,"clouds":[],"obsTime":1773712800},"SBLO":{"icaoId":"SBLO","flightCategory":"VFR","rawOb":"METAR SBLO 170200Z 11003KT CAVOK 24/16 Q1013","temp":24,"dewp":16,"wdir":110,"wspd":3,"visib":"6+","altim":1013,"clouds":[],"obsTime":1773712800},"SBMA":{"icaoId":"SBMA","flightCategory":"VFR","rawOb":"METAR SBMA 170200Z 08001KT 9999 FEW020TCU 27/25 Q1011","temp":27,"dewp":25,"wdir":80,"wspd":1,"visib":"6+","altim":1011,"clouds":[{"cover":"FEW","base":2000}],"obsTime":1773712800},"SBME":{"icaoId":"SBME","flightCategory":"VFR","rawOb":"METAR SBME 170200Z 08003KT CAVOK 24/22 Q1014","temp":24,"dewp":22,"wdir":80,"wspd":3,"visib":"6+","altim":1014,"clouds":[],"obsTime":1773712800},"SBMG":{"icaoId":"SBMG","flightCategory":"VFR","rawOb":"METAR SBMG 170200Z 26005KT 200V320 CAVOK 26/19 Q1011","temp":26,"dewp":19,"wdir":260,"wspd":5,"visib":"6+","altim":1011,"clouds":[],"obsTime":1773712800},"SBMK":{"icaoId":"SBMK","flightCategory":"VFR","rawOb":"METAR SBMK 170200Z 19004KT 9999 FEW040 22/21 Q1015","temp":22,"dewp":21,"wdir":190,"wspd":4,"visib":"6+","altim":1015,"clouds":[{"cover":"FEW","base":4000}],"obsTime":1773712800},"SBMO":{"icaoId":"SBMO","flightCategory":"VFR","rawOb":"METAR SBMO 170200Z 04003KT 9999 FEW020 25/24 Q1012","temp":25,"dewp":24,"wdir":40,"wspd":3,"visib":"6+","altim":1012,"clouds":[{"cover":"FEW","base":2000}],"obsTime":1773712800},"SBMQ":{"icaoId":"SBMQ","flightCategory":"MVFR","rawOb":"METAR SBMQ 170200Z 36005KT 5000 -TSRA SCT008 BKN020 FEW025CB 26/25 Q1012 RERA","temp":26,"dewp":25,"wdir":360,"wspd":5,"visib":3.11,"altim":1012,"clouds":[{"cover":"SCT","base":800},{"cover":"BKN","base":2000},{"cover":"FEW","base":2500}],"obsTime":1773712800},"SBNT":{"icaoId":"SBNT","flightCategory":"VFR","rawOb":"METAR SBNT 170200Z 08005KT 9999 SCT020 28/24 Q1012","temp":28,"dewp":24,"wdir":80,"wspd":5,"visib":"6+","altim":1012,"clouds":[{"cover":"SCT","base":2000}],"obsTime":1773712800},"SBPA":{"icaoId":"SBPA","flightCategory":"VFR","rawOb":"METAR SBPA 170200Z 10009KT CAVOK 25/23 Q1010","temp":25,"dewp":23,"wdir":100,"wspd":9,"visib":"6+","altim":1010,"clouds":[],"obsTime":1773712800},"SBPJ":{"icaoId":"SBPJ","flightCategory":"VFR","rawOb":"METAR SBPJ 170200Z VRB02KT 9999 FEW010 SCT090 25/23 Q1013","temp":25,"dewp":23,"wdir":"VRB","wspd":2,"visib":"6+","altim":1013,"clouds":[{"cover":"FEW","base":1000},{"cover":"SCT","base":9000}],"obsTime":1773712800},"SBPV":{"icaoId":"SBPV","flightCategory":"VFR","rawOb":"METAR SBPV 170200Z 12003KT 9999 FEW030 26/24 Q1008","temp":26,"dewp":24,"wdir":120,"wspd":3,"visib":"6+","altim":1008,"clouds":[{"cover":"FEW","base":3000}],"obsTime":1773712800},"SBRB":{"icaoId":"SBRB","flightCategory":"VFR","rawOb":"METAR SBRB 170200Z 35005KT 9999 VCTS SCT025 FEW035CB SCT100 25/23 Q1009","temp":25,"dewp":23,"wdir":350,"wspd":5,"visib":"6+","altim":1009,"clouds":[{"cover":"SCT","base":2500},{"cover":"FEW","base":3500},{"cover":"SCT","base":10000}],"obsTime":1773712800},"SBRF":{"icaoId":"SBRF","flightCategory":"MVFR","rawOb":"METAR SBRF 170200Z 07005KT 040V100 9999 BKN020 28/24 Q1013","temp":28,"dewp":24,"wdir":70,"wspd":5,"visib":"6+","altim":1013,"clouds":[{"cover":"BKN","base":2000}],"obsTime":1773712800},"SBSG":{"icaoId":"SBSG","flightCategory":"VFR","rawOb":"METAR SBSG 170200Z 03003KT 9999 FEW023 27/24 Q1012","temp":27,"dewp":24,"wdir":30,"wspd":3,"visib":"6+","altim":1012,"clouds":[{"cover":"FEW","base":2300}],"obsTime":1773712800},"SBSL":{"icaoId":"SBSL","flightCategory":"MVFR","rawOb":"METAR SBSL 170200Z VRB01KT 9999 SCT010 BKN020 BKN080 26/25 Q1011","temp":26,"dewp":25,"wdir":"VRB","wspd":1,"visib":"6+","altim":1011,"clouds":[{"cover":"SCT","base":1000},{"cover":"BKN","base":2000},{"cover":"BKN","base":8000}],"obsTime":1773712800},"SBSN":{"icaoId":"SBSN","flightCategory":"VFR","rawOb":"METAR SBSN 170200Z 11005KT CAVOK 27/26 Q1010","temp":27,"dewp":26,"wdir":110,"wspd":5,"visib":"6+","altim":1010,"clouds":[],"obsTime":1773712800},"SBSP":{"icaoId":"SBSP","flightCategory":"VFR","rawOb":"METAR SBSP 170200Z 14004KT CAVOK 20/19 Q1018","temp":20,"dewp":19,"wdir":140,"wspd":4,"visib":"6+","altim":1018,"clouds":[],"obsTime":1773712800},"SBSV":{"icaoId":"SBSV","flightCategory":"VFR","rawOb":"METAR SBSV 170200Z 10007KT 070V160 9999 FEW023 28/22 Q1012","temp":28,"dewp":22,"wdir":100,"wspd":7,"visib":"6+","altim":1012,"clouds":[{"cover":"FEW","base":2300}],"obsTime":1773712800},"SBTE":{"icaoId":"SBTE","flightCategory":"VFR","rawOb":"METAR SBTE 170200Z 04002KT 9999 -RA NSC 25/23 Q1011 RETS","temp":25,"dewp":23,"wdir":40,"wspd":2,"visib":"6+","altim":1011,"clouds":[],"obsTime":1773712800},"SBUL":{"icaoId":"SBUL","flightCategory":"VFR","rawOb":"METAR SBUL 170200Z 02002KT 9999 SCT045 FEW050TCU BKN100 22/21 Q1017 RETS","temp":22,"dewp":21,"wdir":20,"wspd":2,"visib":"6+","altim":1017,"clouds":[{"cover":"SCT","base":4500},{"cover":"FEW","base":5000},{"cover":"BKN","base":10000}],"obsTime":1773712800},"SBUR":{"icaoId":"SBUR","flightCategory":"VFR","rawOb":"METAR SBUR 170200Z 36005KT 9999 FEW049TCU BKN070 23/21 Q1016","temp":23,"dewp":21,"wdir":360,"wspd":5,"visib":"6+","altim":1016,"clouds":[{"cover":"FEW","base":4900},{"cover":"BKN","base":7000}],"obsTime":1773712800},"SBSR":{"icaoId":"SBSR","flightCategory":"VFR","rawOb":"METAR SBSR 170200Z 27003KT 9999 FEW040 27/21 Q1013","temp":27,"dewp":21,"wdir":270,"wspd":3,"visib":"6+","altim":1013,"clouds":[{"cover":"FEW","base":4000}],"obsTime":1773712800},"SBAX":{"icaoId":"SBAX","flightCategory":"VFR","rawOb":"METAR SBAX 170200Z AUTO 11002KT CAVOK 22/22 Q1018","temp":22,"dewp":22,"wdir":110,"wspd":2,"visib":"6+","altim":1018,"clouds":[],"obsTime":1773712800},"SBPL":{"icaoId":"SBPL","flightCategory":"VFR","rawOb":"METAR SBPL 170200Z 04002KT CAVOK 24/18 Q1013","temp":24,"dewp":18,"wdir":40,"wspd":2,"visib":"6+","altim":1013,"clouds":[],"obsTime":1773712800},"SBIP":{"icaoId":"SBIP","flightCategory":"VFR","rawOb":"METAR SBIP 170200Z AUTO 18002KT CAVOK 23/23 Q1014","temp":23,"dewp":23,"wdir":180,"wspd":2,"visib":"6+","altim":1014,"clouds":[],"obsTime":1773712800},"SBPS":{"icaoId":"SBPS","flightCategory":"VFR","rawOb":"METAR SBPS 170200Z 00000KT 9999 FEW024 25/24 Q1013","temp":25,"dewp":24,"wdir":0,"wspd":0,"visib":"6+","altim":1013,"clouds":[{"cover":"FEW","base":2400}],"obsTime":1773712800},"SBSC":{"icaoId":"SBSC","flightCategory":"VFR","rawOb":"METAR SBSC 170200Z 24003KT 9999 FEW030 24/23 Q1014","temp":24,"dewp":23,"wdir":240,"wspd":3,"visib":"6+","altim":1014,"clouds":[{"cover":"FEW","base":3000}],"obsTime":1773712800},"SBCO":{"icaoId":"SBCO","flightCategory":"VFR","rawOb":"METAR SBCO 170200Z 13005KT CAVOK 24/23 Q1011","temp":24,"dewp":23,"wdir":130,"wspd":5,"visib":"6+","altim":1011,"clouds":[],"obsTime":1773712800},"SBAR":{"icaoId":"SBAR","flightCategory":"VFR","rawOb":"METAR SBAR 170200Z 09009KT 9999 SCT023 28/23 Q1012","temp":28,"dewp":23,"wdir":90,"wspd":9,"visib":"6+","altim":1012,"clouds":[{"cover":"SCT","base":2300}],"obsTime":1773712800},"SBOI":{"icaoId":"SBOI","flightCategory":"VFR","rawOb":"METAR SBOI 170200Z AUTO VRB02KT 9999 FEW026 24/23 Q1013","temp":24,"dewp":23,"wdir":"VRB","wspd":2,"visib":"6+","altim":1013,"clouds":[{"cover":"FEW","base":2600}],"obsTime":1773712800},"SBSM":{"icaoId":"SBSM","flightCategory":"VFR","rawOb":"METAR SBSM 170200Z 11002KT 9999 FEW040 SCT080 25/21 Q1010","temp":25,"dewp":21,"wdir":110,"wspd":2,"visib":"6+","altim":1010,"clouds":[{"cover":"FEW","base":4000},{"cover":"SCT","base":8000}],"obsTime":1773712800},"SBKG":{"icaoId":"SBKG","flightCategory":"VFR","rawOb":"METAR SBKG 170200Z 09008KT 9999 SCT015 24/22 Q1015","temp":24,"dewp":22,"wdir":90,"wspd":8,"visib":"6+","altim":1015,"clouds":[{"cover":"SCT","base":1500}],"obsTime":1773712800},"SBDN":{"icaoId":"SBDN","flightCategory":"VFR","rawOb":"METAR SBDN 170200Z 08008KT CAVOK 28/18 Q1011","temp":28,"dewp":18,"wdir":80,"wspd":8,"visib":"6+","altim":1011,"clouds":[],"obsTime":1773712800},"SBSJ":{"icaoId":"SBSJ","flightCategory":"VFR","rawOb":"METAR SBSJ 170200Z 15004KT CAVOK 20/18 Q1017","temp":20,"dewp":18,"wdir":150,"wspd":4,"visib":"6+","altim":1017,"clouds":[],"obsTime":1773712800},"SBBH":{"icaoId":"SBBH","flightCategory":"VFR","rawOb":"METAR SBBH 170200Z 09003KT CAVOK 23/20 Q1017","temp":23,"dewp":20,"wdir":90,"wspd":3,"visib":"6+","altim":1017,"clouds":[],"obsTime":1773712800},"SBBU":{"icaoId":"SBBU","flightCategory":"VFR","rawOb":"METAR SBBU 170200Z 20006KT CAVOK 27/19 Q1014","temp":27,"dewp":19,"wdir":200,"wspd":6,"visib":"6+","altim":1014,"clouds":[],"obsTime":1773712800},"SBLE":{"icaoId":"SBLE","flightCategory":"VFR","rawOb":"METAR SBLE 170200Z AUTO 00000KT CAVOK 20/20 Q1015","temp":20,"dewp":20,"wdir":0,"wspd":0,"visib":"6+","altim":1015,"clouds":[],"obsTime":1773712800},"SBAN":{"icaoId":"SBAN","flightCategory":"MVFR","rawOb":"METAR SBAN 170200Z 06005KT 8000 -RA VCTS SCT008 BKN020 FEW040CB BKN080 20/19 Q1019","temp":20,"dewp":19,"wdir":60,"wspd":5,"visib":4.97,"altim":1019,"clouds":[{"cover":"SCT","base":800},{"cover":"BKN","base":2000},{"cover":"FEW","base":4000},{"cover":"BKN","base":8000}],"obsTime":1773712800},"SBTA":{"icaoId":"SBTA","flightCategory":"VFR","rawOb":"METAR SBTA 170200Z VRB02KT CAVOK 21/16 Q1016","temp":21,"dewp":16,"wdir":"VRB","wspd":2,"visib":"6+","altim":1016,"clouds":[],"obsTime":1773712800},"SBJP":{"icaoId":"SBJP","flightCategory":"VFR","rawOb":"METAR SBJP 170200Z 07006KT 9999 SCT020 27/24 Q1012","temp":27,"dewp":24,"wdir":70,"wspd":6,"visib":"6+","altim":1012,"clouds":[{"cover":"SCT","base":2000}],"obsTime":1773712800},"SBMT":{"icaoId":"SBMT","flightCategory":"VFR","rawOb":"METAR SBMT 170200Z 08007KT CAVOK 21/17 Q1017","temp":21,"dewp":17,"wdir":80,"wspd":7,"visib":"6+","altim":1017,"clouds":[],"obsTime":1773712800},"SBJV":{"icaoId":"SBJV","flightCategory":"MVFR","rawOb":"METAR SBJV 170200Z 01003KT 320V040 9000 SCT010 BKN020 26/25 Q1013","temp":26,"dewp":25,"wdir":10,"wspd":3,"visib":5.59,"altim":1013,"clouds":[{"cover":"SCT","base":1000},{"cover":"BKN","base":2000}],"obsTime":1773712800}}}