{"updated":1776004267,"count":86,"data":{"SBRF":{"icaoId":"SBRF","flightCategory":"IFR","rawOb":"METAR SBRF 121300Z 21004KT 3000 RA BR BKN007 BKN012 FEW024TCU OVC060 25/24 Q1014","temp":25,"dewp":24,"wdir":210,"wspd":4,"visib":1.86,"altim":1014,"clouds":[{"cover":"BKN","base":700},{"cover":"BKN","base":1200},{"cover":"FEW","base":2400},{"cover":"OVC","base":6000}],"obsTime":1775998800},"SBMG":{"icaoId":"SBMG","flightCategory":"VFR","rawOb":"METAR SBMG 121300Z 09010KT 060V130 CAVOK 25/16 Q1019","temp":25,"dewp":16,"wdir":90,"wspd":10,"visib":"6+","altim":1019,"clouds":[],"obsTime":1775998800},"SBMK":{"icaoId":"SBMK","flightCategory":"VFR","rawOb":"METAR SBMK 121300Z 11007KT 9999 BKN040 24/18 Q1021","temp":24,"dewp":18,"wdir":110,"wspd":7,"visib":"6+","altim":1021,"clouds":[{"cover":"BKN","base":4000}],"obsTime":1775998800},"SBMO":{"icaoId":"SBMO","flightCategory":"VFR","rawOb":"METAR SBMO 121300Z VRB02KT 9999 SCT020 BKN080 27/24 Q1015","temp":27,"dewp":24,"wdir":"VRB","wspd":2,"visib":"6+","altim":1015,"clouds":[{"cover":"SCT","base":2000},{"cover":"BKN","base":8000}],"obsTime":1775998800},"SBFI":{"icaoId":"SBFI","flightCategory":"VFR","rawOb":"METAR SBFI 121300Z 17011KT 9999 -RA VCTS FEW030 FEW035CB BKN070 20/20 Q1019","temp":20,"dewp":20,"wdir":170,"wspd":11,"visib":"6+","altim":1019,"clouds":[{"cover":"FEW","base":3000},{"cover":"FEW","base":3500},{"cover":"BKN","base":7000}],"obsTime":1775998800},"SBMQ":{"icaoId":"SBMQ","flightCategory":"VFR","rawOb":"METAR SBMQ 121300Z 34004KT 9999 FEW008 SCT035 OVC050 27/25 Q1014","temp":27,"dewp":25,"wdir":340,"wspd":4,"visib":"6+","altim":1014,"clouds":[{"cover":"FEW","base":800},{"cover":"SCT","base":3500},{"cover":"OVC","base":5000}],"obsTime":1775998800},"SBCG":{"icaoId":"SBCG","flightCategory":"VFR","rawOb":"METAR SBCG 121300Z 06013KT CAVOK 28/21 Q1018","temp":28,"dewp":21,"wdir":60,"wspd":13,"visib":"6+","altim":1018,"clouds":[],"obsTime":1775998800},"SBFL":{"icaoId":"SBFL","flightCategory":"MVFR","rawOb":"METAR SBFL 121300Z 27006KT 9999 FEW020 BKN030 BKN070 24/21 Q1022","temp":24,"dewp":21,"wdir":270,"wspd":6,"visib":"6+","altim":1022,"clouds":[{"cover":"FEW","base":2000},{"cover":"BKN","base":3000},{"cover":"BKN","base":7000}],"obsTime":1775998800},"SBNT":{"icaoId":"SBNT","flightCategory":"MVFR","rawOb":"METAR SBNT 121300Z 15006KT 9999 VCSH SCT008 BKN011 BKN100 26/25 Q1014","temp":26,"dewp":25,"wdir":150,"wspd":6,"visib":"6+","altim":1014,"clouds":[{"cover":"SCT","base":800},{"cover":"BKN","base":1100},{"cover":"BKN","base":10000}],"obsTime":1775998800},"SBPA":{"icaoId":"SBPA","flightCategory":"VFR","rawOb":"METAR SBPA 121300Z 08008KT CAVOK 22/18 Q1018","temp":22,"dewp":18,"wdir":80,"wspd":8,"visib":"6+","altim":1018,"clouds":[],"obsTime":1775998800},"SBBV":{"icaoId":"SBBV","flightCategory":"VFR","rawOb":"METAR SBBV 121300Z 09019KT 9999 SCT030 29/21 Q1014","temp":29,"dewp":21,"wdir":90,"wspd":19,"visib":"6+","altim":1014,"clouds":[{"cover":"SCT","base":3000}],"obsTime":1775998800},"SBPJ":{"icaoId":"SBPJ","flightCategory":"VFR","rawOb":"METAR SBPJ 121300Z 22006KT 9999 FEW008 BKN100 27/24 Q1016","temp":27,"dewp":24,"wdir":220,"wspd":6,"visib":"6+","altim":1016,"clouds":[{"cover":"FEW","base":800},{"cover":"BKN","base":10000}],"obsTime":1775998800},"SBFZ":{"icaoId":"SBFZ","flightCategory":"VFR","rawOb":"METAR SBFZ 121300Z 16004KT 9999 FEW010 BKN050 BKN080 26/25 Q1013","temp":26,"dewp":25,"wdir":160,"wspd":4,"visib":"6+","altim":1013,"clouds":[{"cover":"FEW","base":1000},{"cover":"BKN","base":5000},{"cover":"BKN","base":8000}],"obsTime":1775998800},"SBPV":{"icaoId":"SBPV","flightCategory":"VFR","rawOb":"METAR SBPV 121300Z 01003KT 330V050 CAVOK 27/24 Q1013","temp":27,"dewp":24,"wdir":10,"wspd":3,"visib":"6+","altim":1013,"clouds":[],"obsTime":1775998800},"SBGL":{"icaoId":"SBGL","flightCategory":"VFR","rawOb":"METAR SBGL 121300Z 02006KT 9999 FEW020 25/21 Q1021","temp":25,"dewp":21,"wdir":20,"wspd":6,"visib":"6+","altim":1021,"clouds":[{"cover":"FEW","base":2000}],"obsTime":1775998800},"SBCP":{"icaoId":"SBCP","flightCategory":"VFR","rawOb":"METAR SBCP 121300Z 14003KT 9999 SCT020 27/21 Q1021","temp":27,"dewp":21,"wdir":140,"wspd":3,"visib":"6+","altim":1021,"clouds":[{"cover":"SCT","base":2000}],"obsTime":1775998800},"SBRB":{"icaoId":"SBRB","flightCategory":"LIFR","rawOb":"METAR SBRB 121300Z 34002KT 0800 R07///// R25///// -RA BKN004 SCT080 25/24 Q1015","temp":25,"dewp":24,"wdir":340,"wspd":2,"visib":0.5,"altim":1015,"clouds":[{"cover":"BKN","base":400},{"cover":"SCT","base":8000}],"obsTime":1775998800},"SBEG":{"icaoId":"SBEG","flightCategory":"VFR","rawOb":"METAR SBEG 121300Z 33003KT 290V020 9999 SCT007 BKN100 26/24 Q1015","temp":26,"dewp":24,"wdir":330,"wspd":3,"visib":"6+","altim":1015,"clouds":[{"cover":"SCT","base":700},{"cover":"BKN","base":10000}],"obsTime":1775998800},"SBAT":{"icaoId":"SBAT","flightCategory":"VFR","rawOb":"METAR SBAT 121300Z 09002KT 9999 FEW020 BKN090 27/24 Q1016","temp":27,"dewp":24,"wdir":90,"wspd":2,"visib":"6+","altim":1016,"clouds":[{"cover":"FEW","base":2000},{"cover":"BKN","base":9000}],"obsTime":1775998800},"SBCF":{"icaoId":"SBCF","flightCategory":"VFR","rawOb":"METAR SBCF 121300Z 12011KT 9999 SCT025 23/16 Q1024","temp":23,"dewp":16,"wdir":120,"wspd":11,"visib":"6+","altim":1024,"clouds":[{"cover":"SCT","base":2500}],"obsTime":1775998800},"SBLO":{"icaoId":"SBLO","flightCategory":"VFR","rawOb":"METAR SBLO 121300Z 12006KT 9999 FEW030 22/16 Q1021","temp":22,"dewp":16,"wdir":120,"wspd":6,"visib":"6+","altim":1021,"clouds":[{"cover":"FEW","base":3000}],"obsTime":1775998800},"SBMA":{"icaoId":"SBMA","flightCategory":"MVFR","rawOb":"METAR SBMA 121300Z 16003KT 9999 BKN015 FEW020TCU 26/24 Q1015","temp":26,"dewp":24,"wdir":160,"wspd":3,"visib":"6+","altim":1015,"clouds":[{"cover":"BKN","base":1500},{"cover":"FEW","base":2000}],"obsTime":1775998800},"SBME":{"icaoId":"SBME","flightCategory":"VFR","rawOb":"METAR SBME 121300Z 19009KT 9999 SCT025 BKN070 27/22 Q1021","temp":27,"dewp":22,"wdir":190,"wspd":9,"visib":"6+","altim":1021,"clouds":[{"cover":"SCT","base":2500},{"cover":"BKN","base":7000}],"obsTime":1775998800},"SBCR":{"icaoId":"SBCR","flightCategory":"VFR","rawOb":"METAR SBCR 121300Z 06007KT CAVOK 30/24 Q1014","temp":30,"dewp":24,"wdir":60,"wspd":7,"visib":"6+","altim":1014,"clouds":[],"obsTime":1775998800},"SBGO":{"icaoId":"SBGO","flightCategory":"MVFR","rawOb":"METAR SBGO 121300Z 09013KT 9999 BKN020 26/19 Q1021","temp":26,"dewp":19,"wdir":90,"wspd":13,"visib":"6+","altim":1021,"clouds":[{"cover":"BKN","base":2000}],"obsTime":1775998800},"SBSG":{"icaoId":"SBSG","flightCategory":"MVFR","rawOb":"METAR SBSG 121300Z 16007KT 120V190 9999 FEW007 BKN010 BKN030 27/24 Q1014","temp":27,"dewp":24,"wdir":160,"wspd":7,"visib":"6+","altim":1014,"clouds":[{"cover":"FEW","base":700},{"cover":"BKN","base":1000},{"cover":"BKN","base":3000}],"obsTime":1775998800},"SBSL":{"icaoId":"SBSL","flightCategory":"VFR","rawOb":"METAR SBSL 121300Z 11011KT 9999 BKN035 30/24 Q1013","temp":30,"dewp":24,"wdir":110,"wspd":11,"visib":"6+","altim":1013,"clouds":[{"cover":"BKN","base":3500}],"obsTime":1775998800},"SBBR":{"icaoId":"SBBR","flightCategory":"MVFR","rawOb":"METAR SBBR 121300Z 10012KT 9999 BKN015 23/19 Q1022","temp":23,"dewp":19,"wdir":100,"wspd":12,"visib":"6+","altim":1022,"clouds":[{"cover":"BKN","base":1500}],"obsTime":1775998800},"SBGR":{"icaoId":"SBGR","flightCategory":"VFR","rawOb":"METAR SBGR 121300Z 06011KT 9999 FEW017 20/16 Q1024","temp":20,"dewp":16,"wdir":60,"wspd":11,"visib":"6+","altim":1024,"clouds":[{"cover":"FEW","base":1700}],"obsTime":1775998800},"SBSN":{"icaoId":"SBSN","flightCategory":"VFR","rawOb":"METAR SBSN 121300Z 08012KT 9999 FEW023 FEW035TCU 29/24 Q1014","temp":29,"dewp":24,"wdir":80,"wspd":12,"visib":"6+","altim":1014,"clouds":[{"cover":"FEW","base":2300},{"cover":"FEW","base":3500}],"obsTime":1775998800},"SBCT":{"icaoId":"SBCT","flightCategory":"VFR","rawOb":"METAR SBCT 121300Z 06008KT CAVOK 21/14 Q1025","temp":21,"dewp":14,"wdir":60,"wspd":8,"visib":"6+","altim":1025,"clouds":[],"obsTime":1775998800},"SBSP":{"icaoId":"SBSP","flightCategory":"VFR","rawOb":"METAR SBSP 121300Z VRB06KT CAVOK 21/15 Q1025","temp":21,"dewp":15,"wdir":"VRB","wspd":6,"visib":"6+","altim":1025,"clouds":[],"obsTime":1775998800},"SBSV":{"icaoId":"SBSV","flightCategory":"MVFR","rawOb":"METAR SBSV 121300Z 10005KT 060V160 8000 VCSH SCT023 FEW025TCU 27/23 Q1016","temp":27,"dewp":23,"wdir":100,"wspd":5,"visib":4.97,"altim":1016,"clouds":[{"cover":"SCT","base":2300},{"cover":"FEW","base":2500}],"obsTime":1775998800},"SBHT":{"icaoId":"SBHT","flightCategory":"MVFR","rawOb":"METAR SBHT 121300Z 09009KT 9999 BKN025 28/24 Q1014","temp":28,"dewp":24,"wdir":90,"wspd":9,"visib":"6+","altim":1014,"clouds":[{"cover":"BKN","base":2500}],"obsTime":1775998800},"SBCB":{"icaoId":"SBCB","flightCategory":"VFR","rawOb":"METAR SBCB 121300Z 27007KT 9999 SCT020 26/21 Q1022","temp":26,"dewp":21,"wdir":270,"wspd":7,"visib":"6+","altim":1022,"clouds":[{"cover":"SCT","base":2000}],"obsTime":1775998800},"SBTE":{"icaoId":"SBTE","flightCategory":"MVFR","rawOb":"METAR SBTE 121300Z 00000KT 9999 BKN020 30/24 Q1013","temp":30,"dewp":24,"wdir":0,"wspd":0,"visib":"6+","altim":1013,"clouds":[{"cover":"BKN","base":2000}],"obsTime":1775998800},"SBIL":{"icaoId":"SBIL","flightCategory":"VFR","rawOb":"METAR SBIL 121300Z 22008KT 9999 SCT018 SCT060 27/24 Q1017","temp":27,"dewp":24,"wdir":220,"wspd":8,"visib":"6+","altim":1017,"clouds":[{"cover":"SCT","base":1800},{"cover":"SCT","base":6000}],"obsTime":1775998800},"SBUL":{"icaoId":"SBUL","flightCategory":"VFR","rawOb":"METAR SBUL 121300Z 08015KT 040V110 9999 FEW021 24/18 Q1023","temp":24,"dewp":18,"wdir":80,"wspd":15,"visib":"6+","altim":1023,"clouds":[{"cover":"FEW","base":2100}],"obsTime":1775998800},"SBBE":{"icaoId":"SBBE","flightCategory":"MVFR","rawOb":"METAR SBBE 121300Z 04007KT 9999 BKN020 30/25 Q1014","temp":30,"dewp":25,"wdir":40,"wspd":7,"visib":"6+","altim":1014,"clouds":[{"cover":"BKN","base":2000}],"obsTime":1775998800},"SBUR":{"icaoId":"SBUR","flightCategory":"VFR","rawOb":"METAR SBUR 121300Z 03013KT CAVOK 25/17 Q1021","temp":25,"dewp":17,"wdir":30,"wspd":13,"visib":"6+","altim":1021,"clouds":[],"obsTime":1775998800},"SBJU":{"icaoId":"SBJU","flightCategory":"MVFR","rawOb":"METAR SBJU 121300Z 12010KT 9999 BKN020 28/22 Q1016","temp":28,"dewp":22,"wdir":120,"wspd":10,"visib":"6+","altim":1016,"clouds":[{"cover":"BKN","base":2000}],"obsTime":1775998800},"SBVT":{"icaoId":"SBVT","flightCategory":"MVFR","rawOb":"METAR SBVT 121300Z 28004KT 9999 FEW006 BKN025 OVC060 22/22 Q1020","temp":22,"dewp":22,"wdir":280,"wspd":4,"visib":"6+","altim":1020,"clouds":[{"cover":"FEW","base":600},{"cover":"BKN","base":2500},{"cover":"OVC","base":6000}],"obsTime":1775998800},"SBCZ":{"icaoId":"SBCZ","flightCategory":"LIFR","rawOb":"METAR SBCZ 121300Z 06002KT 5000 BR OVC004 24/24 Q1015","temp":24,"dewp":24,"wdir":60,"wspd":2,"visib":3.11,"altim":1015,"clouds":[{"cover":"OVC","base":400}],"obsTime":1775998800},"SBKP":{"icaoId":"SBKP","flightCategory":"VFR","rawOb":"METAR SBKP 121300Z 05005KT 350V130 CAVOK 25/15 Q1023","temp":25,"dewp":15,"wdir":50,"wspd":5,"visib":"6+","altim":1023,"clouds":[],"obsTime":1775998800},"SBVH":{"icaoId":"SBVH","flightCategory":"VFR","rawOb":"METAR SBVH 121300Z 10006KT CAVOK 26/23 Q1016","temp":26,"dewp":23,"wdir":100,"wspd":6,"visib":"6+","altim":1016,"clouds":[],"obsTime":1775998800},"SBAR":{"icaoId":"SBAR","flightCategory":"VFR","rawOb":"METAR SBAR 121300Z 14009KT 9999 SCT021 30/23 Q1015","temp":30,"dewp":23,"wdir":140,"wspd":9,"visib":"6+","altim":1015,"clouds":[{"cover":"SCT","base":2100}],"obsTime":1775998800},"SBAU":{"icaoId":"SBAU","flightCategory":"VFR","rawOb":"METAR SBAU 121300Z 09012KT CAVOK 27/19 Q1019","temp":27,"dewp":19,"wdir":90,"wspd":12,"visib":"6+","altim":1019,"clouds":[],"obsTime":1775998800},"SBAX":{"icaoId":"SBAX","flightCategory":"MVFR","rawOb":"METAR SBAX 121300Z AUTO 08010KT 040V110 9999 BKN019 22/17 Q1024","temp":22,"dewp":17,"wdir":80,"wspd":10,"visib":"6+","altim":1024,"clouds":[{"cover":"BKN","base":1900}],"obsTime":1775998800},"SBBH":{"icaoId":"SBBH","flightCategory":"VFR","rawOb":"METAR SBBH 121300Z 11009KT 9999 FEW026 BKN033 23/16 Q1024","temp":23,"dewp":16,"wdir":110,"wspd":9,"visib":"6+","altim":1024,"clouds":[{"cover":"FEW","base":2600},{"cover":"BKN","base":3300}],"obsTime":1775998800},"SBBQ":{"icaoId":"SBBQ","flightCategory":"MVFR","rawOb":"METAR SBBQ 121300Z 09007KT 9999 BKN015 18/15 Q1028","temp":18,"dewp":15,"wdir":90,"wspd":7,"visib":"6+","altim":1028,"clouds":[{"cover":"BKN","base":1500}],"obsTime":1775998800},"SBBU":{"icaoId":"SBBU","flightCategory":"VFR","rawOb":"METAR SBBU 121300Z 08008KT CAVOK 25/18 Q1021","temp":25,"dewp":18,"wdir":80,"wspd":8,"visib":"6+","altim":1021,"clouds":[],"obsTime":1775998800},"SBCA":{"icaoId":"SBCA","flightCategory":"VFR","rawOb":"METAR SBCA 121300Z 06014G24KT 9999 FEW030 SCT080 21/14 Q1020","temp":21,"dewp":14,"wdir":60,"wspd":14,"visib":"6+","altim":1020,"clouds":[{"cover":"FEW","base":3000},{"cover":"SCT","base":8000}],"obsTime":1775998800},"SBCC":{"icaoId":"SBCC","flightCategory":"VFR","rawOb":"METAR SBCC 121300Z 01005KT 9999 SCT030 BKN100 24/23 Q1017","temp":24,"dewp":23,"wdir":10,"wspd":5,"visib":"6+","altim":1017,"clouds":[{"cover":"SCT","base":3000},{"cover":"BKN","base":10000}],"obsTime":1775998800},"SBCJ":{"icaoId":"SBCJ","flightCategory":"MVFR","rawOb":"METAR SBCJ 121300Z 05003KT 9999 SCT007 BKN011 24/22 Q1019","temp":24,"dewp":22,"wdir":50,"wspd":3,"visib":"6+","altim":1019,"clouds":[{"cover":"SCT","base":700},{"cover":"BKN","base":1100}],"obsTime":1775998800},"SBCO":{"icaoId":"SBCO","flightCategory":"VFR","rawOb":"METAR SBCO 121300Z 08005KT 9999 FEW045 SCT100 22/18 Q1019","temp":22,"dewp":18,"wdir":80,"wspd":5,"visib":"6+","altim":1019,"clouds":[{"cover":"FEW","base":4500},{"cover":"SCT","base":10000}],"obsTime":1775998800},"SBDN":{"icaoId":"SBDN","flightCategory":"VFR","rawOb":"METAR SBDN 121300Z 07010KT CAVOK 26/18 Q1019","temp":26,"dewp":18,"wdir":70,"wspd":10,"visib":"6+","altim":1019,"clouds":[],"obsTime":1775998800},"SBES":{"icaoId":"SBES","flightCategory":"VFR","rawOb":"METAR SBES 121300Z VRB04KT 9999 VCSH SCT015 26/// Q1022","temp":null,"dewp":null,"wdir":"VRB","wspd":4,"visib":"6+","altim":1022,"clouds":[{"cover":"SCT","base":1500}],"obsTime":1775998800},"SBGM":{"icaoId":"SBGM","flightCategory":"VFR","rawOb":"METAR SBGM 121300Z 32003KT 9999 FEW010 SCT040 28/24 Q1014","temp":28,"dewp":24,"wdir":320,"wspd":3,"visib":"6+","altim":1014,"clouds":[{"cover":"FEW","base":1000},{"cover":"SCT","base":4000}],"obsTime":1775998800},"SBIP":{"icaoId":"SBIP","flightCategory":"VFR","rawOb":"METAR SBIP 121300Z AUTO 17003KT 070V200 9999 SCT039 OVC045 25/19 Q1021","temp":25,"dewp":19,"wdir":170,"wspd":3,"visib":"6+","altim":1021,"clouds":[{"cover":"SCT","base":3900},{"cover":"OVC","base":4500}],"obsTime":1775998800},"SBKG":{"icaoId":"SBKG","flightCategory":"MVFR","rawOb":"METAR SBKG 121300Z 16007KT 9999 BKN020 27/21 Q1016","temp":27,"dewp":21,"wdir":160,"wspd":7,"visib":"6+","altim":1016,"clouds":[{"cover":"BKN","base":2000}],"obsTime":1775998800},"SBOI":{"icaoId":"SBOI","flightCategory":"VFR","rawOb":"METAR SBOI 121300Z AUTO 04009KT 010V070 9999 FEW024 29/24 Q1015","temp":29,"dewp":24,"wdir":40,"wspd":9,"visib":"6+","altim":1015,"clouds":[{"cover":"FEW","base":2400}],"obsTime":1775998800},"SBPB":{"icaoId":"SBPB","flightCategory":"VFR","rawOb":"METAR SBPB 121300Z 06010KT 9999 SCT020 30/24 Q1013","temp":30,"dewp":24,"wdir":60,"wspd":10,"visib":"6+","altim":1013,"clouds":[{"cover":"SCT","base":2000}],"obsTime":1775998800},"SBPL":{"icaoId":"SBPL","flightCategory":"MVFR","rawOb":"METAR SBPL 121300Z 12008KT 9999 BKN020 28/21 Q1016","temp":28,"dewp":21,"wdir":120,"wspd":8,"visib":"6+","altim":1016,"clouds":[{"cover":"BKN","base":2000}],"obsTime":1775998800},"SBPP":{"icaoId":"SBPP","flightCategory":"VFR","rawOb":"METAR SBPP 121300Z 06017KT 9999 FEW015 26/18 Q1019","temp":26,"dewp":18,"wdir":60,"wspd":17,"visib":"6+","altim":1019,"clouds":[{"cover":"FEW","base":1500}],"obsTime":1775998800},"SBPS":{"icaoId":"SBPS","flightCategory":"MVFR","rawOb":"METAR SBPS 121300Z VRB04KT 9999 BKN015 BKN080 26/23 Q1018","temp":26,"dewp":23,"wdir":"VRB","wspd":4,"visib":"6+","altim":1018,"clouds":[{"cover":"BKN","base":1500},{"cover":"BKN","base":8000}],"obsTime":1775998800},"SBSC":{"icaoId":"SBSC","flightCategory":"VFR","rawOb":"METAR SBSC 121300Z 05005KT 9999 SCT030 27/20 Q1021","temp":27,"dewp":20,"wdir":50,"wspd":5,"visib":"6+","altim":1021,"clouds":[{"cover":"SCT","base":3000}],"obsTime":1775998800},"SBSJ":{"icaoId":"SBSJ","flightCategory":"VFR","rawOb":"METAR SBSJ 121300Z 03007KT 340V080 9999 FEW023 22/16 Q1024","temp":22,"dewp":16,"wdir":30,"wspd":7,"visib":"6+","altim":1024,"clouds":[{"cover":"FEW","base":2300}],"obsTime":1775998800},"SBSM":{"icaoId":"SBSM","flightCategory":"VFR","rawOb":"METAR SBSM 121300Z 02004KT 300V100 9999 SCT023 BKN060 22/18 Q1018","temp":22,"dewp":18,"wdir":20,"wspd":4,"visib":"6+","altim":1018,"clouds":[{"cover":"SCT","base":2300},{"cover":"BKN","base":6000}],"obsTime":1775998800},"SBSR":{"icaoId":"SBSR","flightCategory":"VFR","rawOb":"METAR SBSR 121300Z 07011KT CAVOK 26/18 Q1020","temp":26,"dewp":18,"wdir":70,"wspd":11,"visib":"6+","altim":1020,"clouds":[],"obsTime":1775998800},"SBTF":{"icaoId":"SBTF","flightCategory":"VFR","rawOb":"METAR SBTF 121300Z 20002KT CAVOK 30/25 Q1013","temp":30,"dewp":25,"wdir":200,"wspd":2,"visib":"6+","altim":1013,"clouds":[],"obsTime":1775998800},"SBTT":{"icaoId":"SBTT","flightCategory":"IFR","rawOb":"METAR SBTT 121300Z 05005KT 9999 BKN008 25/22 Q1015","temp":25,"dewp":22,"wdir":50,"wspd":5,"visib":"6+","altim":1015,"clouds":[{"cover":"BKN","base":800}],"obsTime":1775998800},"SBUY":{"icaoId":"SBUY","flightCategory":"VFR","rawOb":"METAR SBUY 121300Z 30002KT 9999 FEW006 SCT090 26/24 Q1013","temp":26,"dewp":24,"wdir":300,"wspd":2,"visib":"6+","altim":1013,"clouds":[{"cover":"FEW","base":600},{"cover":"SCT","base":9000}],"obsTime":1775998800},"SBAN":{"icaoId":"SBAN","flightCategory":"MVFR","rawOb":"METAR SBAN 121300Z 13014KT 9999 BKN014 22/18 Q1023","temp":22,"dewp":18,"wdir":130,"wspd":14,"visib":"6+","altim":1023,"clouds":[{"cover":"BKN","base":1400}],"obsTime":1775998800},"SBMT":{"icaoId":"SBMT","flightCategory":"VFR","rawOb":"METAR SBMT 121300Z 10009KT 060V140 CAVOK 21/16 Q1023","temp":21,"dewp":16,"wdir":100,"wspd":9,"visib":"6+","altim":1023,"clouds":[],"obsTime":1775998800},"SBNM":{"icaoId":"SBNM","flightCategory":"MVFR","rawOb":"METAR SBNM 121400Z 05010KT 8000 -RA SCT005 SCT020 BKN070 20/17 Q1018","temp":20,"dewp":17,"wdir":50,"wspd":10,"visib":4.97,"altim":1018,"clouds":[{"cover":"SCT","base":500},{"cover":"SCT","base":2000},{"cover":"BKN","base":7000}],"obsTime":1776002400},"SBST":{"icaoId":"SBST","flightCategory":"VFR","rawOb":"METAR SBST 121300Z 35004KT CAVOK 24/21 Q1020","temp":24,"dewp":21,"wdir":350,"wspd":4,"visib":"6+","altim":1020,"clouds":[],"obsTime":1775998800},"SBGW":{"icaoId":"SBGW","flightCategory":"MVFR","rawOb":"METAR SBGW 121300Z 04004KT 320V110 9999 BKN020 23/14 Q1023","temp":23,"dewp":14,"wdir":40,"wspd":4,"visib":"6+","altim":1023,"clouds":[{"cover":"BKN","base":2000}],"obsTime":1775998800},"SBTA":{"icaoId":"SBTA","flightCategory":"VFR","rawOb":"METAR SBTA 121300Z 04008KT 010V080 9999 FEW025 23/15 Q1023","temp":23,"dewp":15,"wdir":40,"wspd":8,"visib":"6+","altim":1023,"clouds":[{"cover":"FEW","base":2500}],"obsTime":1775998800},"SBJV":{"icaoId":"SBJV","flightCategory":"VFR","rawOb":"METAR SBJV 121300Z 19003KT 9999 SCT010 BKN070 24/21 Q1022","temp":24,"dewp":21,"wdir":190,"wspd":3,"visib":"6+","altim":1022,"clouds":[{"cover":"SCT","base":1000},{"cover":"BKN","base":7000}],"obsTime":1775998800},"SBAF":{"icaoId":"SBAF","flightCategory":"VFR","rawOb":"METAR SBAF 121300Z 07006KT 030V110 9999 FEW020 SCT030 27/21 Q1022","temp":27,"dewp":21,"wdir":70,"wspd":6,"visib":"6+","altim":1022,"clouds":[{"cover":"FEW","base":2000},{"cover":"SCT","base":3000}],"obsTime":1775998800},"SBJR":{"icaoId":"SBJR","flightCategory":"VFR","rawOb":"METAR SBJR 121300Z 36005KT 9999 SCT025 30/21 Q1021","temp":30,"dewp":21,"wdir":360,"wspd":5,"visib":"6+","altim":1021,"clouds":[{"cover":"SCT","base":2500}],"obsTime":1775998800},"SBJP":{"icaoId":"SBJP","flightCategory":"MVFR","rawOb":"METAR SBJP 121300Z 18008KT 5000 -RA BKN015 28/25 Q1014","temp":28,"dewp":25,"wdir":180,"wspd":8,"visib":3.11,"altim":1014,"clouds":[{"cover":"BKN","base":1500}],"obsTime":1775998800},"SBIH":{"icaoId":"SBIH","flightCategory":"MVFR","rawOb":"METAR SBIH 121300Z 07004KT 8000 SCT015 27/25 Q1014","temp":27,"dewp":25,"wdir":70,"wspd":4,"visib":4.97,"altim":1014,"clouds":[{"cover":"SCT","base":1500}],"obsTime":1775998800},"SBLS":{"icaoId":"SBLS","flightCategory":"VFR","rawOb":"METAR SBLS 121300Z 14011KT 050V140 9999 SCT023 22/17 Q1024","temp":22,"dewp":17,"wdir":140,"wspd":11,"visib":"6+","altim":1024,"clouds":[{"cover":"SCT","base":2300}],"obsTime":1775998800},"SBLE":{"icaoId":"SBLE","flightCategory":"VFR","rawOb":"METAR SBLE 121300Z AUTO 19005KT 130V260 9999 FEW019 BKN037 24/20 Q1020","temp":24,"dewp":20,"wdir":190,"wspd":5,"visib":"6+","altim":1020,"clouds":[{"cover":"FEW","base":1900},{"cover":"BKN","base":3700}],"obsTime":1775998800},"SBPF":{"icaoId":"SBPF","flightCategory":"VFR","rawOb":"METAR SBPF 121300Z 03016KT 9999 FEW005 BKN070 17/15 Q1022","temp":17,"dewp":15,"wdir":30,"wspd":16,"visib":"6+","altim":1022,"clouds":[{"cover":"FEW","base":500},{"cover":"BKN","base":7000}],"obsTime":1775998800}}}