{"updated":1777062818,"count":84,"data":{"SBPA":{"icaoId":"SBPA","flightCategory":"IFR","rawOb":"SPECI SBPA 241834Z 10007KT 3000 RA BR BKN007 BKN015 OVC033 20/20 Q1014","temp":20,"dewp":20,"wdir":100,"wspd":7,"visib":1.86,"altim":1014,"clouds":[{"cover":"BKN","base":700},{"cover":"BKN","base":1500},{"cover":"OVC","base":3300}],"obsTime":1777055640},"SBRB":{"icaoId":"SBRB","flightCategory":"MVFR","rawOb":"METAR SBRB 241900Z 06008KT 9999 VCSH FEW007 BKN025 FEW030TCU 29/25 Q1009","temp":29,"dewp":25,"wdir":60,"wspd":8,"visib":"6+","altim":1009,"clouds":[{"cover":"FEW","base":700},{"cover":"BKN","base":2500},{"cover":"FEW","base":3000}],"obsTime":1777057200},"SBMO":{"icaoId":"SBMO","flightCategory":"VFR","rawOb":"METAR SBMO 241900Z 14008KT 9999 SCT030 FEW035TCU 30/22 Q1011","temp":30,"dewp":22,"wdir":140,"wspd":8,"visib":"6+","altim":1011,"clouds":[{"cover":"SCT","base":3000},{"cover":"FEW","base":3500}],"obsTime":1777057200},"SBBV":{"icaoId":"SBBV","flightCategory":"VFR","rawOb":"METAR SBBV 241900Z 18004KT 9999 SCT030 FEW040TCU 32/22 Q1008","temp":32,"dewp":22,"wdir":180,"wspd":4,"visib":"6+","altim":1008,"clouds":[{"cover":"SCT","base":3000},{"cover":"FEW","base":4000}],"obsTime":1777057200},"SBCB":{"icaoId":"SBCB","flightCategory":"VFR","rawOb":"METAR SBCB 241900Z 10014KT CAVOK 26/21 Q1015","temp":26,"dewp":21,"wdir":100,"wspd":14,"visib":"6+","altim":1015,"clouds":[],"obsTime":1777057200},"SBVT":{"icaoId":"SBVT","flightCategory":"VFR","rawOb":"METAR SBVT 241900Z 16008KT 9999 SCT030 26/21 Q1016","temp":26,"dewp":21,"wdir":160,"wspd":8,"visib":"6+","altim":1016,"clouds":[{"cover":"SCT","base":3000}],"obsTime":1777057200},"SBAT":{"icaoId":"SBAT","flightCategory":"VFR","rawOb":"METAR SBAT 241900Z 14006KT 9999 VCSH SCT030 FEW035TCU 31/24 Q1010","temp":31,"dewp":24,"wdir":140,"wspd":6,"visib":"6+","altim":1010,"clouds":[{"cover":"SCT","base":3000},{"cover":"FEW","base":3500}],"obsTime":1777057200},"SBBE":{"icaoId":"SBBE","flightCategory":"MVFR","rawOb":"METAR SBBE 241900Z 32004KT 9999 FEW014 BKN024 FEW025TCU 26/26 Q1010","temp":26,"dewp":26,"wdir":320,"wspd":4,"visib":"6+","altim":1010,"clouds":[{"cover":"FEW","base":1400},{"cover":"BKN","base":2400},{"cover":"FEW","base":2500}],"obsTime":1777057200},"SBBR":{"icaoId":"SBBR","flightCategory":"VFR","rawOb":"METAR SBBR 241900Z 09006KT 030V150 9999 SCT045 28/14 Q1018","temp":28,"dewp":14,"wdir":90,"wspd":6,"visib":"6+","altim":1018,"clouds":[{"cover":"SCT","base":4500}],"obsTime":1777057200},"SBCF":{"icaoId":"SBCF","flightCategory":"VFR","rawOb":"METAR SBCF 241900Z 12006KT 090V150 9999 BKN040 26/16 Q1018","temp":26,"dewp":16,"wdir":120,"wspd":6,"visib":"6+","altim":1018,"clouds":[{"cover":"BKN","base":4000}],"obsTime":1777057200},"SBCG":{"icaoId":"SBCG","flightCategory":"VFR","rawOb":"METAR SBCG 241900Z 31006KT 9999 SCT046 31/18 Q1014","temp":31,"dewp":18,"wdir":310,"wspd":6,"visib":"6+","altim":1014,"clouds":[{"cover":"SCT","base":4600}],"obsTime":1777057200},"SBCP":{"icaoId":"SBCP","flightCategory":"VFR","rawOb":"METAR SBCP 241900Z 11010KT CAVOK 28/18 Q1015","temp":28,"dewp":18,"wdir":110,"wspd":10,"visib":"6+","altim":1015,"clouds":[],"obsTime":1777057200},"SBCR":{"icaoId":"SBCR","flightCategory":"VFR","rawOb":"METAR SBCR 241900Z 32004KT 270V360 CAVOK 32/20 Q1011","temp":32,"dewp":20,"wdir":320,"wspd":4,"visib":"6+","altim":1011,"clouds":[],"obsTime":1777057200},"SBCT":{"icaoId":"SBCT","flightCategory":"VFR","rawOb":"METAR SBCT 241900Z 29008KT 9999 FEW045 25/14 Q1018","temp":25,"dewp":14,"wdir":290,"wspd":8,"visib":"6+","altim":1018,"clouds":[{"cover":"FEW","base":4500}],"obsTime":1777057200},"SBCZ":{"icaoId":"SBCZ","flightCategory":"MVFR","rawOb":"METAR SBCZ 241900Z 18004KT 9999 BKN015 OVC100 27/26 Q1011","temp":27,"dewp":26,"wdir":180,"wspd":4,"visib":"6+","altim":1011,"clouds":[{"cover":"BKN","base":1500},{"cover":"OVC","base":10000}],"obsTime":1777057200},"SBEG":{"icaoId":"SBEG","flightCategory":"VFR","rawOb":"METAR SBEG 241900Z 25003KT 9999 VCSH FEW020 FEW025TCU SCT100 29/24 Q1009","temp":29,"dewp":24,"wdir":250,"wspd":3,"visib":"6+","altim":1009,"clouds":[{"cover":"FEW","base":2000},{"cover":"FEW","base":2500},{"cover":"SCT","base":10000}],"obsTime":1777057200},"SBFI":{"icaoId":"SBFI","flightCategory":"VFR","rawOb":"METAR SBFI 241900Z 02008KT CAVOK 29/18 Q1012","temp":29,"dewp":18,"wdir":20,"wspd":8,"visib":"6+","altim":1012,"clouds":[],"obsTime":1777057200},"SBFL":{"icaoId":"SBFL","flightCategory":"VFR","rawOb":"METAR SBFL 241900Z 01013KT 9999 SCT040 26/18 Q1013","temp":26,"dewp":18,"wdir":10,"wspd":13,"visib":"6+","altim":1013,"clouds":[{"cover":"SCT","base":4000}],"obsTime":1777057200},"SBFZ":{"icaoId":"SBFZ","flightCategory":"VFR","rawOb":"METAR SBFZ 241900Z 08009KT 9999 FEW023 30/23 Q1009","temp":30,"dewp":23,"wdir":80,"wspd":9,"visib":"6+","altim":1009,"clouds":[{"cover":"FEW","base":2300}],"obsTime":1777057200},"SBGL":{"icaoId":"SBGL","flightCategory":"VFR","rawOb":"METAR SBGL 241900Z 14010KT 9999 FEW030 28/20 Q1014","temp":28,"dewp":20,"wdir":140,"wspd":10,"visib":"6+","altim":1014,"clouds":[{"cover":"FEW","base":3000}],"obsTime":1777057200},"SBGO":{"icaoId":"SBGO","flightCategory":"VFR","rawOb":"METAR SBGO 241900Z 13004KT 070V190 CAVOK 31/15 Q1016","temp":31,"dewp":15,"wdir":130,"wspd":4,"visib":"6+","altim":1016,"clouds":[],"obsTime":1777057200},"SBGR":{"icaoId":"SBGR","flightCategory":"VFR","rawOb":"METAR SBGR 241900Z 14003KT CAVOK 28/15 Q1017","temp":28,"dewp":15,"wdir":140,"wspd":3,"visib":"6+","altim":1017,"clouds":[],"obsTime":1777057200},"SBHT":{"icaoId":"SBHT","flightCategory":"MVFR","rawOb":"METAR SBHT 241900Z 07005KT 9999 BKN020 BKN100 29/23 Q1011","temp":29,"dewp":23,"wdir":70,"wspd":5,"visib":"6+","altim":1011,"clouds":[{"cover":"BKN","base":2000},{"cover":"BKN","base":10000}],"obsTime":1777057200},"SBIL":{"icaoId":"SBIL","flightCategory":"MVFR","rawOb":"METAR SBIL 241900Z 21005KT 170V250 8000 VCSH SCT008 BKN018 BKN070 24/23 Q1015","temp":24,"dewp":23,"wdir":210,"wspd":5,"visib":4.97,"altim":1015,"clouds":[{"cover":"SCT","base":800},{"cover":"BKN","base":1800},{"cover":"BKN","base":7000}],"obsTime":1777057200},"SBJU":{"icaoId":"SBJU","flightCategory":"VFR","rawOb":"METAR SBJU 241900Z 10010KT 9999 SCT020 FEW022TCU 25/23 Q1012","temp":25,"dewp":23,"wdir":100,"wspd":10,"visib":"6+","altim":1012,"clouds":[{"cover":"SCT","base":2000},{"cover":"FEW","base":2200}],"obsTime":1777057200},"SBKP":{"icaoId":"SBKP","flightCategory":"VFR","rawOb":"METAR SBKP 241900Z 29005KT 250V330 9999 FEW045 29/15 Q1017","temp":29,"dewp":15,"wdir":290,"wspd":5,"visib":"6+","altim":1017,"clouds":[{"cover":"FEW","base":4500}],"obsTime":1777057200},"SBLO":{"icaoId":"SBLO","flightCategory":"VFR","rawOb":"METAR SBLO 241900Z VRB05KT CAVOK 29/18 Q1015","temp":29,"dewp":18,"wdir":"VRB","wspd":5,"visib":"6+","altim":1015,"clouds":[],"obsTime":1777057200},"SBMA":{"icaoId":"SBMA","flightCategory":"VFR","rawOb":"METAR SBMA 241900Z 31003KT 9999 SCT025 FEW030TCU 30/24 Q1010","temp":30,"dewp":24,"wdir":310,"wspd":3,"visib":"6+","altim":1010,"clouds":[{"cover":"SCT","base":2500},{"cover":"FEW","base":3000}],"obsTime":1777057200},"SBME":{"icaoId":"SBME","flightCategory":"VFR","rawOb":"METAR SBME 241900Z 08007KT 9999 FEW040 27/21 Q1015","temp":27,"dewp":21,"wdir":80,"wspd":7,"visib":"6+","altim":1015,"clouds":[{"cover":"FEW","base":4000}],"obsTime":1777057200},"SBMG":{"icaoId":"SBMG","flightCategory":"VFR","rawOb":"METAR SBMG 241900Z VRB04KT 9999 FEW045 30/16 Q1014","temp":30,"dewp":16,"wdir":"VRB","wspd":4,"visib":"6+","altim":1014,"clouds":[{"cover":"FEW","base":4500}],"obsTime":1777057200},"SBMK":{"icaoId":"SBMK","flightCategory":"VFR","rawOb":"METAR SBMK 241900Z 09004KT 9999 FEW040 30/17 Q1016","temp":30,"dewp":17,"wdir":90,"wspd":4,"visib":"6+","altim":1016,"clouds":[{"cover":"FEW","base":4000}],"obsTime":1777057200},"SBMQ":{"icaoId":"SBMQ","flightCategory":"MVFR","rawOb":"METAR SBMQ 241900Z 26006KT 9999 -RA BKN018 27/25 Q1010","temp":27,"dewp":25,"wdir":260,"wspd":6,"visib":"6+","altim":1010,"clouds":[{"cover":"BKN","base":1800}],"obsTime":1777057200},"SBNT":{"icaoId":"SBNT","flightCategory":"MVFR","rawOb":"METAR SBNT 241900Z 18002KT 9999 -RA BKN020 OVC070 22/21 Q1011 RERA","temp":22,"dewp":21,"wdir":180,"wspd":2,"visib":"6+","altim":1011,"clouds":[{"cover":"BKN","base":2000},{"cover":"OVC","base":7000}],"obsTime":1777057200},"SBPJ":{"icaoId":"SBPJ","flightCategory":"VFR","rawOb":"METAR SBPJ 241900Z 11003KT 9999 FEW020 FEW027TCU 31/23 Q1011","temp":31,"dewp":23,"wdir":110,"wspd":3,"visib":"6+","altim":1011,"clouds":[{"cover":"FEW","base":2000},{"cover":"FEW","base":2700}],"obsTime":1777057200},"SBPV":{"icaoId":"SBPV","flightCategory":"MVFR","rawOb":"METAR SBPV 241900Z 01006KT 9999 BKN025 FEW030TCU 31/27 Q1008","temp":31,"dewp":27,"wdir":10,"wspd":6,"visib":"6+","altim":1008,"clouds":[{"cover":"BKN","base":2500},{"cover":"FEW","base":3000}],"obsTime":1777057200},"SBRF":{"icaoId":"SBRF","flightCategory":"VFR","rawOb":"METAR SBRF 241900Z 16010KT 9999 FEW025 29/23 Q1010","temp":29,"dewp":23,"wdir":160,"wspd":10,"visib":"6+","altim":1010,"clouds":[{"cover":"FEW","base":2500}],"obsTime":1777057200},"SBSG":{"icaoId":"SBSG","flightCategory":"MVFR","rawOb":"METAR SBSG 241900Z 17005KT 130V210 7000 -RA BKN010 BKN023 BKN100 22/21 Q1011","temp":22,"dewp":21,"wdir":170,"wspd":5,"visib":4.35,"altim":1011,"clouds":[{"cover":"BKN","base":1000},{"cover":"BKN","base":2300},{"cover":"BKN","base":10000}],"obsTime":1777057200},"SBSL":{"icaoId":"SBSL","flightCategory":"VFR","rawOb":"METAR SBSL 241900Z 01010KT 9999 FEW015 SCT020 BKN100 27/25 Q1009","temp":27,"dewp":25,"wdir":10,"wspd":10,"visib":"6+","altim":1009,"clouds":[{"cover":"FEW","base":1500},{"cover":"SCT","base":2000},{"cover":"BKN","base":10000}],"obsTime":1777057200},"SBSN":{"icaoId":"SBSN","flightCategory":"VFR","rawOb":"METAR SBSN 241900Z 09012KT 9999 SCT018 29/25 Q1010","temp":29,"dewp":25,"wdir":90,"wspd":12,"visib":"6+","altim":1010,"clouds":[{"cover":"SCT","base":1800}],"obsTime":1777057200},"SBSP":{"icaoId":"SBSP","flightCategory":"VFR","rawOb":"METAR SBSP 241900Z 17009KT CAVOK 26/17 Q1018","temp":26,"dewp":17,"wdir":170,"wspd":9,"visib":"6+","altim":1018,"clouds":[],"obsTime":1777057200},"SBSV":{"icaoId":"SBSV","flightCategory":"VFR","rawOb":"METAR SBSV 241900Z 11009KT 9999 SCT021 SCT050 28/23 Q1012","temp":28,"dewp":23,"wdir":110,"wspd":9,"visib":"6+","altim":1012,"clouds":[{"cover":"SCT","base":2100},{"cover":"SCT","base":5000}],"obsTime":1777057200},"SBTE":{"icaoId":"SBTE","flightCategory":"MVFR","rawOb":"METAR SBTE 241900Z 03005KT 9999 BKN025 FEW030TCU 32/24 Q1007","temp":32,"dewp":24,"wdir":30,"wspd":5,"visib":"6+","altim":1007,"clouds":[{"cover":"BKN","base":2500},{"cover":"FEW","base":3000}],"obsTime":1777057200},"SBUL":{"icaoId":"SBUL","flightCategory":"VFR","rawOb":"METAR SBUL 241900Z 05006KT 9999 SCT045 SCT080 26/14 Q1019","temp":26,"dewp":14,"wdir":50,"wspd":6,"visib":"6+","altim":1019,"clouds":[{"cover":"SCT","base":4500},{"cover":"SCT","base":8000}],"obsTime":1777057200},"SBUR":{"icaoId":"SBUR","flightCategory":"VFR","rawOb":"METAR SBUR 241900Z 04006KT 9999 FEW045 SCT080 29/14 Q1017","temp":29,"dewp":14,"wdir":40,"wspd":6,"visib":"6+","altim":1017,"clouds":[{"cover":"FEW","base":4500},{"cover":"SCT","base":8000}],"obsTime":1777057200},"SBVH":{"icaoId":"SBVH","flightCategory":"MVFR","rawOb":"METAR SBVH 241900Z 32008KT 9999 BKN030 FEW035TCU 28/23 Q1013","temp":28,"dewp":23,"wdir":320,"wspd":8,"visib":"6+","altim":1013,"clouds":[{"cover":"BKN","base":3000},{"cover":"FEW","base":3500}],"obsTime":1777057200},"SBAR":{"icaoId":"SBAR","flightCategory":"VFR","rawOb":"METAR SBAR 241900Z 09007KT 9999 SCT025 29/24 Q1012","temp":29,"dewp":24,"wdir":90,"wspd":7,"visib":"6+","altim":1012,"clouds":[{"cover":"SCT","base":2500}],"obsTime":1777057200},"SBAX":{"icaoId":"SBAX","flightCategory":"VFR","rawOb":"METAR SBAX 241900Z 28003KT 9999 SCT040 BKN090 25/14 Q1019","temp":25,"dewp":14,"wdir":280,"wspd":3,"visib":"6+","altim":1019,"clouds":[{"cover":"SCT","base":4000},{"cover":"BKN","base":9000}],"obsTime":1777057200},"SBBH":{"icaoId":"SBBH","flightCategory":"VFR","rawOb":"METAR SBBH 241900Z 04004KT 9999 SCT045 SCT060 26/15 Q1018","temp":26,"dewp":15,"wdir":40,"wspd":4,"visib":"6+","altim":1018,"clouds":[{"cover":"SCT","base":4500},{"cover":"SCT","base":6000}],"obsTime":1777057200},"SBBQ":{"icaoId":"SBBQ","flightCategory":"VFR","rawOb":"METAR SBBQ 241900Z 07004KT 9999 SCT045 23/14 Q1022","temp":23,"dewp":14,"wdir":70,"wspd":4,"visib":"6+","altim":1022,"clouds":[{"cover":"SCT","base":4500}],"obsTime":1777057200},"SBBU":{"icaoId":"SBBU","flightCategory":"VFR","rawOb":"METAR SBBU 241900Z /////KT 9999 FEW040 30/19 Q1016","temp":30,"dewp":19,"wdir":null,"wspd":null,"visib":"6+","altim":1016,"clouds":[{"cover":"FEW","base":4000}],"obsTime":1777057200},"SBCA":{"icaoId":"SBCA","flightCategory":"VFR","rawOb":"METAR SBCA 241900Z 35007KT 320V050 CAVOK 27/16 Q1016","temp":27,"dewp":16,"wdir":350,"wspd":7,"visib":"6+","altim":1016,"clouds":[],"obsTime":1777057200},"SBCC":{"icaoId":"SBCC","flightCategory":"MVFR","rawOb":"METAR SBCC 241900Z 04008KT 9999 BKN030 31/20 Q1011","temp":31,"dewp":20,"wdir":40,"wspd":8,"visib":"6+","altim":1011,"clouds":[{"cover":"BKN","base":3000}],"obsTime":1777057200},"SBCJ":{"icaoId":"SBCJ","flightCategory":"VFR","rawOb":"METAR SBCJ 241900Z 00000KT 9999 FEW015 FEW025TCU 27/22 Q1015","temp":27,"dewp":22,"wdir":0,"wspd":0,"visib":"6+","altim":1015,"clouds":[{"cover":"FEW","base":1500},{"cover":"FEW","base":2500}],"obsTime":1777057200},"SBCO":{"icaoId":"SBCO","flightCategory":"IFR","rawOb":"METAR SBCO 241900Z 11009KT 4000 -RA BKN009 OVC060 20/20 Q1014","temp":20,"dewp":20,"wdir":110,"wspd":9,"visib":2.49,"altim":1014,"clouds":[{"cover":"BKN","base":900},{"cover":"OVC","base":6000}],"obsTime":1777057200},"SBDN":{"icaoId":"SBDN","flightCategory":"VFR","rawOb":"METAR SBDN 241900Z 28005KT 9999 SCT049 33/17 Q1014","temp":33,"dewp":17,"wdir":280,"wspd":5,"visib":"6+","altim":1014,"clouds":[{"cover":"SCT","base":4900}],"obsTime":1777057200},"SBES":{"icaoId":"SBES","flightCategory":"VFR","rawOb":"METAR SBES 241900Z 07009KT 020V120 CAVOK 27/// Q1015","temp":null,"dewp":null,"wdir":70,"wspd":9,"visib":"6+","altim":1015,"clouds":[],"obsTime":1777057200},"SBIP":{"icaoId":"SBIP","flightCategory":"VFR","rawOb":"METAR SBIP 241900Z AUTO 02005KT 340V050 CAVOK 29/17 Q1016","temp":29,"dewp":17,"wdir":20,"wspd":5,"visib":"6+","altim":1016,"clouds":[],"obsTime":1777057200},"SBKG":{"icaoId":"SBKG","flightCategory":"VFR","rawOb":"METAR SBKG 241900Z 06010KT 9999 FEW020 SCT100 25/22 Q1013","temp":25,"dewp":22,"wdir":60,"wspd":10,"visib":"6+","altim":1013,"clouds":[{"cover":"FEW","base":2000},{"cover":"SCT","base":10000}],"obsTime":1777057200},"SBOI":{"icaoId":"SBOI","flightCategory":"MVFR","rawOb":"METAR SBOI 241900Z AUTO 13004KT 070V170 9999 -RA BKN010 BKN012 26/24 Q1011","temp":26,"dewp":24,"wdir":130,"wspd":4,"visib":"6+","altim":1011,"clouds":[{"cover":"BKN","base":1000},{"cover":"BKN","base":1200}],"obsTime":1777057200},"SBPB":{"icaoId":"SBPB","flightCategory":"VFR","rawOb":"METAR SBPB 241900Z 06009KT 9999 SCT020 BKN100 30/25 Q1008","temp":30,"dewp":25,"wdir":60,"wspd":9,"visib":"6+","altim":1008,"clouds":[{"cover":"SCT","base":2000},{"cover":"BKN","base":10000}],"obsTime":1777057200},"SBPL":{"icaoId":"SBPL","flightCategory":"VFR","rawOb":"METAR SBPL 241900Z 13010KT 9999 FEW025 31/20 Q1011","temp":31,"dewp":20,"wdir":130,"wspd":10,"visib":"6+","altim":1011,"clouds":[{"cover":"FEW","base":2500}],"obsTime":1777057200},"SBPP":{"icaoId":"SBPP","flightCategory":"VFR","rawOb":"METAR SBPP 241900Z 12006KT CAVOK 29/15 Q1015","temp":29,"dewp":15,"wdir":120,"wspd":6,"visib":"6+","altim":1015,"clouds":[],"obsTime":1777057200},"SBPS":{"icaoId":"SBPS","flightCategory":"MVFR","rawOb":"METAR SBPS 241900Z 18002KT 8000 -RA FEW004 BKN036 OVC070 24/23 Q1015","temp":24,"dewp":23,"wdir":180,"wspd":2,"visib":4.97,"altim":1015,"clouds":[{"cover":"FEW","base":400},{"cover":"BKN","base":3600},{"cover":"OVC","base":7000}],"obsTime":1777057200},"SBSC":{"icaoId":"SBSC","flightCategory":"VFR","rawOb":"METAR SBSC 241900Z 17010KT CAVOK 29/20 Q1014","temp":29,"dewp":20,"wdir":170,"wspd":10,"visib":"6+","altim":1014,"clouds":[],"obsTime":1777057200},"SBSJ":{"icaoId":"SBSJ","flightCategory":"VFR","rawOb":"METAR SBSJ 241900Z 33003KT 220V030 CAVOK 28/14 Q1017","temp":28,"dewp":14,"wdir":330,"wspd":3,"visib":"6+","altim":1017,"clouds":[],"obsTime":1777057200},"SBSM":{"icaoId":"SBSM","flightCategory":"IFR","rawOb":"METAR SBSM 241900Z 11007KT 8000 OVC006 20/19 Q1014","temp":20,"dewp":19,"wdir":110,"wspd":7,"visib":4.97,"altim":1014,"clouds":[{"cover":"OVC","base":600}],"obsTime":1777057200},"SBSR":{"icaoId":"SBSR","flightCategory":"VFR","rawOb":"METAR SBSR 241900Z 05008KT 9999 FEW030 SCT070 30/16 Q1015","temp":30,"dewp":16,"wdir":50,"wspd":8,"visib":"6+","altim":1015,"clouds":[{"cover":"FEW","base":3000},{"cover":"SCT","base":7000}],"obsTime":1777057200},"SBTF":{"icaoId":"SBTF","flightCategory":"VFR","rawOb":"METAR SBTF 241900Z 03003KT 9999 SCT020 33/25 Q1008","temp":33,"dewp":25,"wdir":30,"wspd":3,"visib":"6+","altim":1008,"clouds":[{"cover":"SCT","base":2000}],"obsTime":1777057200},"SBTT":{"icaoId":"SBTT","flightCategory":"VFR","rawOb":"METAR SBTT 241900Z 24005KT 9999 FEW022 BKN100 25/21 Q1011","temp":25,"dewp":21,"wdir":240,"wspd":5,"visib":"6+","altim":1011,"clouds":[{"cover":"FEW","base":2200},{"cover":"BKN","base":10000}],"obsTime":1777057200},"SBUY":{"icaoId":"SBUY","flightCategory":"VFR","rawOb":"METAR SBUY 241900Z 33002KT 9999 FEW012 BKN100 26/24 Q1009","temp":26,"dewp":24,"wdir":330,"wspd":2,"visib":"6+","altim":1009,"clouds":[{"cover":"FEW","base":1200},{"cover":"BKN","base":10000}],"obsTime":1777057200},"SBGM":{"icaoId":"SBGM","flightCategory":"VFR","rawOb":"METAR SBGM 241900Z 36009KT CAVOK 33/16 Q1009","temp":33,"dewp":16,"wdir":360,"wspd":9,"visib":"6+","altim":1009,"clouds":[],"obsTime":1777057200},"SBJP":{"icaoId":"SBJP","flightCategory":"VFR","rawOb":"METAR SBJP 241900Z 12006KT 9999 FEW020 BKN100 28/23 Q1011","temp":28,"dewp":23,"wdir":120,"wspd":6,"visib":"6+","altim":1011,"clouds":[{"cover":"FEW","base":2000},{"cover":"BKN","base":10000}],"obsTime":1777057200},"SBJV":{"icaoId":"SBJV","flightCategory":"VFR","rawOb":"METAR SBJV 241900Z 06006KT 030V110 9999 SCT030 28/21 Q1013","temp":28,"dewp":21,"wdir":60,"wspd":6,"visib":"6+","altim":1013,"clouds":[{"cover":"SCT","base":3000}],"obsTime":1777057200},"SBPF":{"icaoId":"SBPF","flightCategory":"VFR","rawOb":"METAR SBPF 242000Z 03008KT 9999 -RA FEW006 BKN070 17/17 Q1016","temp":17,"dewp":17,"wdir":30,"wspd":8,"visib":"6+","altim":1016,"clouds":[{"cover":"FEW","base":600},{"cover":"BKN","base":7000}],"obsTime":1777060800},"SBAN":{"icaoId":"SBAN","flightCategory":"VFR","rawOb":"METAR SBAN 241900Z 16007KT 130V220 9999 SCT045 28/13 Q1019","temp":28,"dewp":13,"wdir":160,"wspd":7,"visib":"6+","altim":1019,"clouds":[{"cover":"SCT","base":4500}],"obsTime":1777057200},"SBAF":{"icaoId":"SBAF","flightCategory":"VFR","rawOb":"METAR SBAF 241900Z 12005KT 9999 FEW040 29/20 Q1014","temp":29,"dewp":20,"wdir":120,"wspd":5,"visib":"6+","altim":1014,"clouds":[{"cover":"FEW","base":4000}],"obsTime":1777057200},"SBGW":{"icaoId":"SBGW","flightCategory":"VFR","rawOb":"METAR SBGW 241900Z VRB02KT 9999 FEW040 29/14 Q1016","temp":29,"dewp":14,"wdir":"VRB","wspd":2,"visib":"6+","altim":1016,"clouds":[{"cover":"FEW","base":4000}],"obsTime":1777057200},"SBJR":{"icaoId":"SBJR","flightCategory":"VFR","rawOb":"METAR SBJR 241900Z 14005KT 9999 FEW030 30/20 Q1014","temp":30,"dewp":20,"wdir":140,"wspd":5,"visib":"6+","altim":1014,"clouds":[{"cover":"FEW","base":3000}],"obsTime":1777057200},"SBLS":{"icaoId":"SBLS","flightCategory":"VFR","rawOb":"METAR SBLS 241900Z 16007KT 9999 BKN043 26/16 Q1018","temp":26,"dewp":16,"wdir":160,"wspd":7,"visib":"6+","altim":1018,"clouds":[{"cover":"BKN","base":4300}],"obsTime":1777057200},"SBMT":{"icaoId":"SBMT","flightCategory":"VFR","rawOb":"METAR SBMT 241900Z 00000KT 9999 BKN045 28/14 Q1017","temp":28,"dewp":14,"wdir":0,"wspd":0,"visib":"6+","altim":1017,"clouds":[{"cover":"BKN","base":4500}],"obsTime":1777057200},"SBST":{"icaoId":"SBST","flightCategory":"VFR","rawOb":"METAR SBST 241900Z 16007KT 9999 FEW035 26/20 Q1014","temp":26,"dewp":20,"wdir":160,"wspd":7,"visib":"6+","altim":1014,"clouds":[{"cover":"FEW","base":3500}],"obsTime":1777057200},"SBTA":{"icaoId":"SBTA","flightCategory":"VFR","rawOb":"METAR SBTA 241900Z VRB02KT 9999 SCT035 28/14 Q1016","temp":28,"dewp":14,"wdir":"VRB","wspd":2,"visib":"6+","altim":1016,"clouds":[{"cover":"SCT","base":3500}],"obsTime":1777057200},"SBIH":{"icaoId":"SBIH","flightCategory":"VFR","rawOb":"METAR SBIH 241900Z 33006KT 9999 VCSH SCT018 30/24 Q1009","temp":30,"dewp":24,"wdir":330,"wspd":6,"visib":"6+","altim":1009,"clouds":[{"cover":"SCT","base":1800}],"obsTime":1777057200},"SBLE":{"icaoId":"SBLE","flightCategory":"VFR","rawOb":"METAR SBLE 241900Z AUTO VRB02KT CAVOK ///// Q////","temp":null,"dewp":null,"wdir":"VRB","wspd":2,"visib":"6+","altim":null,"clouds":[],"obsTime":1777057200}}}