{"updated":1783260782,"count":88,"data":{"SBGO":{"icaoId":"SBGO","flightCategory":"VFR","rawOb":"METAR SBGO 051300Z VRB02KT CAVOK 22/13 Q1022","temp":22,"dewp":13,"wdir":"VRB","wspd":2,"visib":"6+","altim":1022,"clouds":[],"obsTime":1783256400},"SBLO":{"icaoId":"SBLO","flightCategory":"LIFR","rawOb":"METAR SBLO 051300Z VRB02KT 2000 BR OVC002 16/16 Q1022","temp":16,"dewp":16,"wdir":"VRB","wspd":2,"visib":1.24,"altim":1022,"clouds":[{"cover":"OVC","base":200}],"obsTime":1783256400},"SBAT":{"icaoId":"SBAT","flightCategory":"VFR","rawOb":"METAR SBAT 051300Z 12007KT CAVOK 29/18 Q1017","temp":29,"dewp":18,"wdir":120,"wspd":7,"visib":"6+","altim":1017,"clouds":[],"obsTime":1783256400},"SBHT":{"icaoId":"SBHT","flightCategory":"VFR","rawOb":"METAR SBHT 051300Z 09008KT 9999 SCT020 28/24 Q1015","temp":28,"dewp":24,"wdir":90,"wspd":8,"visib":"6+","altim":1015,"clouds":[{"cover":"SCT","base":2000}],"obsTime":1783256400},"SBMG":{"icaoId":"SBMG","flightCategory":"MVFR","rawOb":"METAR SBMG 051300Z 15004KT 8000 FEW010 19/17 Q1020","temp":19,"dewp":17,"wdir":150,"wspd":4,"visib":4.97,"altim":1020,"clouds":[{"cover":"FEW","base":1000}],"obsTime":1783256400},"SBIL":{"icaoId":"SBIL","flightCategory":"VFR","rawOb":"METAR SBIL 051300Z 21010KT 190V250 9999 -RA SCT025 BKN070 24/22 Q1019","temp":24,"dewp":22,"wdir":210,"wspd":10,"visib":"6+","altim":1019,"clouds":[{"cover":"SCT","base":2500},{"cover":"BKN","base":7000}],"obsTime":1783256400},"SBJU":{"icaoId":"SBJU","flightCategory":"VFR","rawOb":"METAR SBJU 051300Z 15002KT CAVOK 28/16 Q1018","temp":28,"dewp":16,"wdir":150,"wspd":2,"visib":"6+","altim":1018,"clouds":[],"obsTime":1783256400},"SBME":{"icaoId":"SBME","flightCategory":"MVFR","rawOb":"METAR SBME 051300Z 23008KT 9999 BKN015 21/18 Q1022","temp":21,"dewp":18,"wdir":230,"wspd":8,"visib":"6+","altim":1022,"clouds":[{"cover":"BKN","base":1500}],"obsTime":1783256400},"SBMK":{"icaoId":"SBMK","flightCategory":"VFR","rawOb":"METAR SBMK 051300Z 13003KT CAVOK 23/13 Q1022","temp":23,"dewp":13,"wdir":130,"wspd":3,"visib":"6+","altim":1022,"clouds":[],"obsTime":1783256400},"SBUL":{"icaoId":"SBUL","flightCategory":"VFR","rawOb":"METAR SBUL 051300Z 12005KT CAVOK 23/14 Q1023","temp":23,"dewp":14,"wdir":120,"wspd":5,"visib":"6+","altim":1023,"clouds":[],"obsTime":1783256400},"SBUR":{"icaoId":"SBUR","flightCategory":"VFR","rawOb":"METAR SBUR 051300Z 11007KT CAVOK 23/15 Q1022","temp":23,"dewp":15,"wdir":110,"wspd":7,"visib":"6+","altim":1022,"clouds":[],"obsTime":1783256400},"SBSV":{"icaoId":"SBSV","flightCategory":"IFR","rawOb":"SPECI SBSV 051213Z 11005KT 4000 -RA BR BKN007 BKN019 OVC050 24/22 Q1019","temp":24,"dewp":22,"wdir":110,"wspd":5,"visib":2.49,"altim":1019,"clouds":[{"cover":"BKN","base":700},{"cover":"BKN","base":1900},{"cover":"OVC","base":5000}],"obsTime":1783253580},"SBPV":{"icaoId":"SBPV","flightCategory":"VFR","rawOb":"METAR SBPV 051300Z 15008KT CAVOK 25/20 Q1016","temp":25,"dewp":20,"wdir":150,"wspd":8,"visib":"6+","altim":1016,"clouds":[],"obsTime":1783256400},"SBMO":{"icaoId":"SBMO","flightCategory":"VFR","rawOb":"METAR SBMO 051300Z 20006KT 160V240 9999 SCT022 BKN034 26/22 Q1018","temp":26,"dewp":22,"wdir":200,"wspd":6,"visib":"6+","altim":1018,"clouds":[{"cover":"SCT","base":2200},{"cover":"BKN","base":3400}],"obsTime":1783256400},"SBFZ":{"icaoId":"SBFZ","flightCategory":"VFR","rawOb":"METAR SBFZ 051300Z 14011KT 9999 SCT020 28/23 Q1015","temp":28,"dewp":23,"wdir":140,"wspd":11,"visib":"6+","altim":1015,"clouds":[{"cover":"SCT","base":2000}],"obsTime":1783256400},"SBCG":{"icaoId":"SBCG","flightCategory":"VFR","rawOb":"METAR SBCG 051300Z 06012KT CAVOK 22/16 Q1020","temp":22,"dewp":16,"wdir":60,"wspd":12,"visib":"6+","altim":1020,"clouds":[],"obsTime":1783256400},"SBRB":{"icaoId":"SBRB","flightCategory":"VFR","rawOb":"METAR SBRB 051300Z 13006KT 090V170 CAVOK 22/19 Q1017","temp":22,"dewp":19,"wdir":130,"wspd":6,"visib":"6+","altim":1017,"clouds":[],"obsTime":1783256400},"SBEG":{"icaoId":"SBEG","flightCategory":"VFR","rawOb":"METAR SBEG 051300Z 29004KT 9999 FEW016 28/25 Q1015","temp":28,"dewp":25,"wdir":290,"wspd":4,"visib":"6+","altim":1015,"clouds":[{"cover":"FEW","base":1600}],"obsTime":1783256400},"SBBE":{"icaoId":"SBBE","flightCategory":"VFR","rawOb":"METAR SBBE 051300Z 09013KT 9999 FEW022 SCT100 29/24 Q1014","temp":29,"dewp":24,"wdir":90,"wspd":13,"visib":"6+","altim":1014,"clouds":[{"cover":"FEW","base":2200},{"cover":"SCT","base":10000}],"obsTime":1783256400},"SBCF":{"icaoId":"SBCF","flightCategory":"VFR","rawOb":"METAR SBCF 051300Z 19004KT CAVOK 21/14 Q1023","temp":21,"dewp":14,"wdir":190,"wspd":4,"visib":"6+","altim":1023,"clouds":[],"obsTime":1783256400},"SBSL":{"icaoId":"SBSL","flightCategory":"VFR","rawOb":"METAR SBSL 051300Z 07015KT CAVOK 29/23 Q1014","temp":29,"dewp":23,"wdir":70,"wspd":15,"visib":"6+","altim":1014,"clouds":[],"obsTime":1783256400},"SBSG":{"icaoId":"SBSG","flightCategory":"MVFR","rawOb":"METAR SBSG 051300Z 17005KT 080V240 9999 SCT012 BKN015 27/24 Q1016","temp":27,"dewp":24,"wdir":170,"wspd":5,"visib":"6+","altim":1016,"clouds":[{"cover":"SCT","base":1200},{"cover":"BKN","base":1500}],"obsTime":1783256400},"SBRF":{"icaoId":"SBRF","flightCategory":"IFR","rawOb":"SPECI SBRF 051231Z 17008KT 4000 BR BKN014 BKN023 OVC050 26/23 Q1017","temp":26,"dewp":23,"wdir":170,"wspd":8,"visib":2.49,"altim":1017,"clouds":[{"cover":"BKN","base":1400},{"cover":"BKN","base":2300},{"cover":"OVC","base":5000}],"obsTime":1783254660},"SBCP":{"icaoId":"SBCP","flightCategory":"MVFR","rawOb":"METAR SBCP 051300Z 22012KT 9999 BKN015 23/18 Q1022","temp":23,"dewp":18,"wdir":220,"wspd":12,"visib":"6+","altim":1022,"clouds":[{"cover":"BKN","base":1500}],"obsTime":1783256400},"SBFI":{"icaoId":"SBFI","flightCategory":"VFR","rawOb":"METAR SBFI 051300Z 07004KT CAVOK 18/15 Q1019","temp":18,"dewp":15,"wdir":70,"wspd":4,"visib":"6+","altim":1019,"clouds":[],"obsTime":1783256400},"SBPA":{"icaoId":"SBPA","flightCategory":"LIFR","rawOb":"METAR SBPA 051300Z 10005KT 4000 BR OVC003 11/11 Q1022","temp":11,"dewp":11,"wdir":100,"wspd":5,"visib":2.49,"altim":1022,"clouds":[{"cover":"OVC","base":300}],"obsTime":1783256400},"SBCZ":{"icaoId":"SBCZ","flightCategory":"VFR","rawOb":"METAR SBCZ 051300Z 17002KT CAVOK 23/21 Q1016","temp":23,"dewp":21,"wdir":170,"wspd":2,"visib":"6+","altim":1016,"clouds":[],"obsTime":1783256400},"SBNT":{"icaoId":"SBNT","flightCategory":"MVFR","rawOb":"METAR SBNT 051300Z 19006KT 120V220 9999 BKN014 SCT021 BKN080 27/23 Q1016","temp":27,"dewp":23,"wdir":190,"wspd":6,"visib":"6+","altim":1016,"clouds":[{"cover":"BKN","base":1400},{"cover":"SCT","base":2100},{"cover":"BKN","base":8000}],"obsTime":1783256400},"SBMQ":{"icaoId":"SBMQ","flightCategory":"MVFR","rawOb":"METAR SBMQ 051300Z 09005KT 9999 SCT013 BKN015 28/25 Q1015","temp":28,"dewp":25,"wdir":90,"wspd":5,"visib":"6+","altim":1015,"clouds":[{"cover":"SCT","base":1300},{"cover":"BKN","base":1500}],"obsTime":1783256400},"SBSP":{"icaoId":"SBSP","flightCategory":"MVFR","rawOb":"SPECI SBSP 051218Z AUTO 08006KT 040V120 9999 OVC010 14/12 Q1025","temp":14,"dewp":12,"wdir":80,"wspd":6,"visib":"6+","altim":1025,"clouds":[{"cover":"OVC","base":1000}],"obsTime":1783253880},"SBFL":{"icaoId":"SBFL","flightCategory":"VFR","rawOb":"METAR SBFL 051300Z 34003KT 300V050 CAVOK 15/11 Q1024","temp":15,"dewp":11,"wdir":340,"wspd":3,"visib":"6+","altim":1024,"clouds":[],"obsTime":1783256400},"SBSN":{"icaoId":"SBSN","flightCategory":"VFR","rawOb":"METAR SBSN 051300Z 09009KT 9999 FEW017 30/24 Q1014","temp":30,"dewp":24,"wdir":90,"wspd":9,"visib":"6+","altim":1014,"clouds":[{"cover":"FEW","base":1700}],"obsTime":1783256400},"SBKP":{"icaoId":"SBKP","flightCategory":"MVFR","rawOb":"METAR SBKP 051300Z 11009KT 070V140 8000 SCT008 16/13 Q1023","temp":16,"dewp":13,"wdir":110,"wspd":9,"visib":4.97,"altim":1023,"clouds":[{"cover":"SCT","base":800}],"obsTime":1783256400},"SBVT":{"icaoId":"SBVT","flightCategory":"VFR","rawOb":"METAR SBVT 051300Z 18007KT 9999 FEW017 BKN045 22/19 Q1021","temp":22,"dewp":19,"wdir":180,"wspd":7,"visib":"6+","altim":1021,"clouds":[{"cover":"FEW","base":1700},{"cover":"BKN","base":4500}],"obsTime":1783256400},"SBCR":{"icaoId":"SBCR","flightCategory":"LIFR","rawOb":"METAR SBCR 051300Z 07003KT 030V120 2000 BR BKN002 OVC006 16/16 Q1019","temp":16,"dewp":16,"wdir":70,"wspd":3,"visib":1.24,"altim":1019,"clouds":[{"cover":"BKN","base":200},{"cover":"OVC","base":600}],"obsTime":1783256400},"SBMA":{"icaoId":"SBMA","flightCategory":"VFR","rawOb":"METAR SBMA 051300Z 01004KT CAVOK 31/20 Q1014","temp":31,"dewp":20,"wdir":10,"wspd":4,"visib":"6+","altim":1014,"clouds":[],"obsTime":1783256400},"SBCB":{"icaoId":"SBCB","flightCategory":"MVFR","rawOb":"METAR SBCB 051300Z 29008KT 9999 BKN015 BKN040 21/17 Q1022","temp":21,"dewp":17,"wdir":290,"wspd":8,"visib":"6+","altim":1022,"clouds":[{"cover":"BKN","base":1500},{"cover":"BKN","base":4000}],"obsTime":1783256400},"SBTE":{"icaoId":"SBTE","flightCategory":"VFR","rawOb":"METAR SBTE 051300Z 09006KT CAVOK 30/21 Q1014","temp":30,"dewp":21,"wdir":90,"wspd":6,"visib":"6+","altim":1014,"clouds":[],"obsTime":1783256400},"SBPJ":{"icaoId":"SBPJ","flightCategory":"VFR","rawOb":"METAR SBPJ 051300Z 23006KT CAVOK 29/20 Q1016","temp":29,"dewp":20,"wdir":230,"wspd":6,"visib":"6+","altim":1016,"clouds":[],"obsTime":1783256400},"SBGL":{"icaoId":"SBGL","flightCategory":"VFR","rawOb":"METAR SBGL 051300Z 26006KT 9999 SCT027 OVC034 20/17 Q1023","temp":20,"dewp":17,"wdir":260,"wspd":6,"visib":"6+","altim":1023,"clouds":[{"cover":"SCT","base":2700},{"cover":"OVC","base":3400}],"obsTime":1783256400},"SBCT":{"icaoId":"SBCT","flightCategory":"LIFR","rawOb":"SPECI SBCT 051244Z 36003KT 290V090 2500 BR OVC002 12/12 Q1024","temp":12,"dewp":12,"wdir":360,"wspd":3,"visib":1.55,"altim":1024,"clouds":[{"cover":"OVC","base":200}],"obsTime":1783255440},"SBBR":{"icaoId":"SBBR","flightCategory":"VFR","rawOb":"METAR SBBR 051300Z 12003KT 030V160 CAVOK 23/12 Q1023","temp":23,"dewp":12,"wdir":120,"wspd":3,"visib":"6+","altim":1023,"clouds":[],"obsTime":1783256400},"SBBV":{"icaoId":"SBBV","flightCategory":"IFR","rawOb":"METAR SBBV 051300Z 34005KT 9999 VCSH BKN007 BKN015 FEW030TCU BKN100 24/23 Q1016","temp":24,"dewp":23,"wdir":340,"wspd":5,"visib":"6+","altim":1016,"clouds":[{"cover":"BKN","base":700},{"cover":"BKN","base":1500},{"cover":"FEW","base":3000},{"cover":"BKN","base":10000}],"obsTime":1783256400},"SBGR":{"icaoId":"SBGR","flightCategory":"IFR","rawOb":"METAR SBGR 051300Z 06006KT 7000 SCT006 BKN009 OVC011 15/12 Q1025","temp":15,"dewp":12,"wdir":60,"wspd":6,"visib":4.35,"altim":1025,"clouds":[{"cover":"SCT","base":600},{"cover":"BKN","base":900},{"cover":"OVC","base":1100}],"obsTime":1783256400},"SBBH":{"icaoId":"SBBH","flightCategory":"VFR","rawOb":"METAR SBBH 051300Z 10008KT CAVOK 21/14 Q1023","temp":21,"dewp":14,"wdir":100,"wspd":8,"visib":"6+","altim":1023,"clouds":[],"obsTime":1783256400},"SBBQ":{"icaoId":"SBBQ","flightCategory":"IFR","rawOb":"METAR SBBQ 051300Z 07005KT 5000 HZ BKN009 18/13 Q1027","temp":18,"dewp":13,"wdir":70,"wspd":5,"visib":3.11,"altim":1027,"clouds":[{"cover":"BKN","base":900}],"obsTime":1783256400},"SBBU":{"icaoId":"SBBU","flightCategory":"LIFR","rawOb":"METAR SBBU 051300Z 09007KT 0800 FG VV002 16/16 Q1022","temp":16,"dewp":16,"wdir":90,"wspd":7,"visib":0.5,"altim":1022,"clouds":[{"cover":"OVX","base":200}],"obsTime":1783256400},"SBDN":{"icaoId":"SBDN","flightCategory":"VFR","rawOb":"METAR SBDN 051300Z 06005KT CAVOK 20/17 Q1021","temp":20,"dewp":17,"wdir":60,"wspd":5,"visib":"6+","altim":1021,"clouds":[],"obsTime":1783256400},"SBIP":{"icaoId":"SBIP","flightCategory":"MVFR","rawOb":"METAR SBIP 051300Z AUTO VRB02KT 9999 FEW024 OVC029 20/16 Q1022","temp":20,"dewp":16,"wdir":"VRB","wspd":2,"visib":"6+","altim":1022,"clouds":[{"cover":"FEW","base":2400},{"cover":"OVC","base":2900}],"obsTime":1783256400},"SBSC":{"icaoId":"SBSC","flightCategory":"MVFR","rawOb":"METAR SBSC 051300Z 21007KT 9999 FEW015 BKN025 OVC040 20/17 Q1023","temp":20,"dewp":17,"wdir":210,"wspd":7,"visib":"6+","altim":1023,"clouds":[{"cover":"FEW","base":1500},{"cover":"BKN","base":2500},{"cover":"OVC","base":4000}],"obsTime":1783256400},"SBSR":{"icaoId":"SBSR","flightCategory":"VFR","rawOb":"METAR SBSR 051300Z 12006KT CAVOK 23/14 Q1021","temp":23,"dewp":14,"wdir":120,"wspd":6,"visib":"6+","altim":1021,"clouds":[],"obsTime":1783256400},"SBTU":{"icaoId":"SBTU","flightCategory":"VFR","rawOb":"METAR SBTU 051300Z AUTO 24007KT 200V260 9999 // OVC092/// ///// Q1016","temp":null,"dewp":null,"wdir":240,"wspd":7,"visib":"6+","altim":1016,"clouds":[{"cover":"OVC","base":9200}],"obsTime":1783256400},"SBES":{"icaoId":"SBES","flightCategory":"IFR","rawOb":"METAR SBES 051300Z 25006KT 220V290 2000 -DZ BR BKN006 OVC030 18/// Q1022","temp":null,"dewp":null,"wdir":250,"wspd":6,"visib":1.24,"altim":1022,"clouds":[{"cover":"BKN","base":600},{"cover":"OVC","base":3000}],"obsTime":1783256400},"SBTT":{"icaoId":"SBTT","flightCategory":"VFR","rawOb":"METAR SBTT 051300Z 20004KT 160V250 CAVOK 24/22 Q1016","temp":24,"dewp":22,"wdir":200,"wspd":4,"visib":"6+","altim":1016,"clouds":[],"obsTime":1783256400},"SBSJ":{"icaoId":"SBSJ","flightCategory":"IFR","rawOb":"METAR SBSJ 051300Z 33002KT 8000 OVC009 15/13 Q1024","temp":15,"dewp":13,"wdir":330,"wspd":2,"visib":4.97,"altim":1024,"clouds":[{"cover":"OVC","base":900}],"obsTime":1783256400},"SBGM":{"icaoId":"SBGM","flightCategory":"VFR","rawOb":"METAR SBGM 051300Z 09005KT CAVOK 23/18 Q1017","temp":23,"dewp":18,"wdir":90,"wspd":5,"visib":"6+","altim":1017,"clouds":[],"obsTime":1783256400},"SBVH":{"icaoId":"SBVH","flightCategory":"VFR","rawOb":"METAR SBVH 051300Z 11007KT CAVOK 22/17 Q1019","temp":22,"dewp":17,"wdir":110,"wspd":7,"visib":"6+","altim":1019,"clouds":[],"obsTime":1783256400},"SBCA":{"icaoId":"SBCA","flightCategory":"VFR","rawOb":"METAR SBCA 051300Z 05008KT CAVOK 19/14 Q1022","temp":19,"dewp":14,"wdir":50,"wspd":8,"visib":"6+","altim":1022,"clouds":[],"obsTime":1783256400},"SBCO":{"icaoId":"SBCO","flightCategory":"LIFR","rawOb":"METAR SBCO 051300Z 12006KT 4000 BR OVC003 11/10 Q1023","temp":11,"dewp":10,"wdir":120,"wspd":6,"visib":2.49,"altim":1023,"clouds":[{"cover":"OVC","base":300}],"obsTime":1783256400},"SBSM":{"icaoId":"SBSM","flightCategory":"VFR","rawOb":"METAR SBSM 051300Z 11005KT 080V150 9999 FEW007 OVC050 10/09 Q1022","temp":10,"dewp":9,"wdir":110,"wspd":5,"visib":"6+","altim":1022,"clouds":[{"cover":"FEW","base":700},{"cover":"OVC","base":5000}],"obsTime":1783256400},"SBCJ":{"icaoId":"SBCJ","flightCategory":"VFR","rawOb":"METAR SBCJ 051300Z 09006KT CAVOK 28/17 Q1018","temp":28,"dewp":17,"wdir":90,"wspd":6,"visib":"6+","altim":1018,"clouds":[],"obsTime":1783256400},"SBOI":{"icaoId":"SBOI","flightCategory":"VFR","rawOb":"METAR SBOI 051300Z AUTO 11004KT 070V170 9999 FEW025 29/24 Q1015","temp":29,"dewp":24,"wdir":110,"wspd":4,"visib":"6+","altim":1015,"clouds":[{"cover":"FEW","base":2500}],"obsTime":1783256400},"SBKG":{"icaoId":"SBKG","flightCategory":"MVFR","rawOb":"METAR SBKG 051300Z 13006KT 9999 BKN017 BKN070 23/21 Q1019","temp":23,"dewp":21,"wdir":130,"wspd":6,"visib":"6+","altim":1019,"clouds":[{"cover":"BKN","base":1700},{"cover":"BKN","base":7000}],"obsTime":1783256400},"SBUY":{"icaoId":"SBUY","flightCategory":"VFR","rawOb":"METAR SBUY 051300Z 16002KT CAVOK 26/23 Q1014","temp":26,"dewp":23,"wdir":160,"wspd":2,"visib":"6+","altim":1014,"clouds":[],"obsTime":1783256400},"SBAR":{"icaoId":"SBAR","flightCategory":"VFR","rawOb":"METAR SBAR 051300Z 10006KT 9999 SCT020 27/22 Q1018","temp":27,"dewp":22,"wdir":100,"wspd":6,"visib":"6+","altim":1018,"clouds":[{"cover":"SCT","base":2000}],"obsTime":1783256400},"SBCC":{"icaoId":"SBCC","flightCategory":"VFR","rawOb":"METAR SBCC 051300Z 10008KT CAVOK 28/15 Q1017","temp":28,"dewp":15,"wdir":100,"wspd":8,"visib":"6+","altim":1017,"clouds":[],"obsTime":1783256400},"SBPL":{"icaoId":"SBPL","flightCategory":"MVFR","rawOb":"METAR SBPL 051300Z 09008KT 9999 BKN025 25/18 Q1020","temp":25,"dewp":18,"wdir":90,"wspd":8,"visib":"6+","altim":1020,"clouds":[{"cover":"BKN","base":2500}],"obsTime":1783256400},"SBPS":{"icaoId":"SBPS","flightCategory":"VFR","rawOb":"METAR SBPS 051300Z VRB02KT 9999 SCT025 BKN050 25/21 Q1019","temp":25,"dewp":21,"wdir":"VRB","wspd":2,"visib":"6+","altim":1019,"clouds":[{"cover":"SCT","base":2500},{"cover":"BKN","base":5000}],"obsTime":1783256400},"SBAU":{"icaoId":"SBAU","flightCategory":"VFR","rawOb":"METAR SBAU 051300Z 10008KT CAVOK 22/17 Q1021","temp":22,"dewp":17,"wdir":100,"wspd":8,"visib":"6+","altim":1021,"clouds":[],"obsTime":1783256400},"SBAX":{"icaoId":"SBAX","flightCategory":"VFR","rawOb":"METAR SBAX 051300Z AUTO 07006KT 040V110 CAVOK 23/14 Q1023","temp":23,"dewp":14,"wdir":70,"wspd":6,"visib":"6+","altim":1023,"clouds":[],"obsTime":1783256400},"SBTF":{"icaoId":"SBTF","flightCategory":"VFR","rawOb":"METAR SBTF 051300Z 15005KT CAVOK 28/24 Q1011","temp":28,"dewp":24,"wdir":150,"wspd":5,"visib":"6+","altim":1011,"clouds":[],"obsTime":1783256400},"SBPP":{"icaoId":"SBPP","flightCategory":"VFR","rawOb":"METAR SBPP 051300Z 05008KT CAVOK 19/16 Q1021","temp":19,"dewp":16,"wdir":50,"wspd":8,"visib":"6+","altim":1021,"clouds":[],"obsTime":1783256400},"SBPB":{"icaoId":"SBPB","flightCategory":"VFR","rawOb":"METAR SBPB 051300Z 11013KT 9999 SCT020 29/23 Q1014","temp":29,"dewp":23,"wdir":110,"wspd":13,"visib":"6+","altim":1014,"clouds":[{"cover":"SCT","base":2000}],"obsTime":1783256400},"SBAN":{"icaoId":"SBAN","flightCategory":"VFR","rawOb":"METAR SBAN 051300Z 06007KT CAVOK 24/11 Q1024","temp":24,"dewp":11,"wdir":60,"wspd":7,"visib":"6+","altim":1024,"clouds":[],"obsTime":1783256400},"SBIH":{"icaoId":"SBIH","flightCategory":"VFR","rawOb":"METAR SBIH 051300Z 00000KT CAVOK 29/23 Q1014","temp":29,"dewp":23,"wdir":0,"wspd":0,"visib":"6+","altim":1014,"clouds":[],"obsTime":1783256400},"SBJV":{"icaoId":"SBJV","flightCategory":"MVFR","rawOb":"METAR SBJV 051300Z 21001KT 9999 SCT009 OVC020 15/12 Q1024","temp":15,"dewp":12,"wdir":210,"wspd":1,"visib":"6+","altim":1024,"clouds":[{"cover":"SCT","base":900},{"cover":"OVC","base":2000}],"obsTime":1783256400},"SBNM":{"icaoId":"SBNM","flightCategory":"VFR","rawOb":"METAR SBNM 051300Z AUTO 09004KT 050V110 CAVOK 10/08 Q1021","temp":10,"dewp":8,"wdir":90,"wspd":4,"visib":"6+","altim":1021,"clouds":[],"obsTime":1783256400},"SBPF":{"icaoId":"SBPF","flightCategory":"VFR","rawOb":"METAR SBPF 051300Z 04011KT CAVOK 11/08 Q1022","temp":11,"dewp":8,"wdir":40,"wspd":11,"visib":"6+","altim":1022,"clouds":[],"obsTime":1783256400},"SBLE":{"icaoId":"SBLE","flightCategory":"MVFR","rawOb":"METAR SBLE 051300Z AUTO 20003KT 160V270 9999 OVC021 ///// Q1022","temp":null,"dewp":null,"wdir":200,"wspd":3,"visib":"6+","altim":1022,"clouds":[{"cover":"OVC","base":2100}],"obsTime":1783256400},"SBTC":{"icaoId":"SBTC","flightCategory":"MVFR","rawOb":"METAR SBTC 051300Z 20007KT 9999 BKN020 BKN060 25/21 Q1019","temp":25,"dewp":21,"wdir":200,"wspd":7,"visib":"6+","altim":1019,"clouds":[{"cover":"BKN","base":2000},{"cover":"BKN","base":6000}],"obsTime":1783256400},"SBAF":{"icaoId":"SBAF","flightCategory":"MVFR","rawOb":"METAR SBAF 051300Z 28003KT 9999 SCT013 BKN020 OVC035 20/20 Q1023","temp":20,"dewp":20,"wdir":280,"wspd":3,"visib":"6+","altim":1023,"clouds":[{"cover":"SCT","base":1300},{"cover":"BKN","base":2000},{"cover":"OVC","base":3500}],"obsTime":1783256400},"SBGW":{"icaoId":"SBGW","flightCategory":"IFR","rawOb":"METAR SBGW 051300Z 23003KT 3000 HZ BKN005 OVC013 17/12 Q1024","temp":17,"dewp":12,"wdir":230,"wspd":3,"visib":1.86,"altim":1024,"clouds":[{"cover":"BKN","base":500},{"cover":"OVC","base":1300}],"obsTime":1783256400},"SBJR":{"icaoId":"SBJR","flightCategory":"MVFR","rawOb":"METAR SBJR 051300Z 26002KT 8000 -RA BKN010 OVC040 20/18 Q1023","temp":20,"dewp":18,"wdir":260,"wspd":2,"visib":4.97,"altim":1023,"clouds":[{"cover":"BKN","base":1000},{"cover":"OVC","base":4000}],"obsTime":1783256400},"SBLS":{"icaoId":"SBLS","flightCategory":"VFR","rawOb":"METAR SBLS 051300Z 17004KT 070V230 CAVOK 21/14 Q1023","temp":21,"dewp":14,"wdir":170,"wspd":4,"visib":"6+","altim":1023,"clouds":[],"obsTime":1783256400},"SBMT":{"icaoId":"SBMT","flightCategory":"MVFR","rawOb":"METAR SBMT 051300Z 06006KT 9999 BKN012 14/10 Q1025","temp":14,"dewp":10,"wdir":60,"wspd":6,"visib":"6+","altim":1025,"clouds":[{"cover":"BKN","base":1200}],"obsTime":1783256400},"SBST":{"icaoId":"SBST","flightCategory":"MVFR","rawOb":"METAR SBST 051300Z 00000KT 8000 SCT009 17/15 Q1023","temp":17,"dewp":15,"wdir":0,"wspd":0,"visib":4.97,"altim":1023,"clouds":[{"cover":"SCT","base":900}],"obsTime":1783256400},"SBTA":{"icaoId":"SBTA","flightCategory":"LIFR","rawOb":"METAR SBTA 051300Z VRB02KT 2000 -DZ BR OVC004 16/15 Q1024","temp":16,"dewp":15,"wdir":"VRB","wspd":2,"visib":1.24,"altim":1024,"clouds":[{"cover":"OVC","base":400}],"obsTime":1783256400},"SBJP":{"icaoId":"SBJP","flightCategory":"MVFR","rawOb":"METAR SBJP 051300Z 16010KT 5000 -RA BKN010 25/23 Q1017","temp":25,"dewp":23,"wdir":160,"wspd":10,"visib":3.11,"altim":1017,"clouds":[{"cover":"BKN","base":1000}],"obsTime":1783256400}}}