{"updated":1780869348,"count":85,"data":{"SBBE":{"icaoId":"SBBE","flightCategory":"VFR","rawOb":"METAR SBBE 072000Z 15005KT 9999 SCT040 31/23 Q1010","temp":31,"dewp":23,"wdir":150,"wspd":5,"visib":"6+","altim":1010,"clouds":[{"cover":"SCT","base":4000}],"obsTime":1780862400},"SBCZ":{"icaoId":"SBCZ","flightCategory":"MVFR","rawOb":"METAR SBCZ 072000Z 15003KT 9999 BKN030 30/24 Q1010","temp":30,"dewp":24,"wdir":150,"wspd":3,"visib":"6+","altim":1010,"clouds":[{"cover":"BKN","base":3000}],"obsTime":1780862400},"SBBR":{"icaoId":"SBBR","flightCategory":"VFR","rawOb":"METAR SBBR 072000Z 06004KT 320V120 9999 FEW045 25/09 Q1019","temp":25,"dewp":9,"wdir":60,"wspd":4,"visib":"6+","altim":1019,"clouds":[{"cover":"FEW","base":4500}],"obsTime":1780862400},"SBMA":{"icaoId":"SBMA","flightCategory":"VFR","rawOb":"METAR SBMA 072000Z 10003KT 9999 FEW025 33/21 Q1010","temp":33,"dewp":21,"wdir":100,"wspd":3,"visib":"6+","altim":1010,"clouds":[{"cover":"FEW","base":2500}],"obsTime":1780862400},"SBME":{"icaoId":"SBME","flightCategory":"VFR","rawOb":"METAR SBME 072000Z 18007KT CAVOK 23/16 Q1016","temp":23,"dewp":16,"wdir":180,"wspd":7,"visib":"6+","altim":1016,"clouds":[],"obsTime":1780862400},"SBEG":{"icaoId":"SBEG","flightCategory":"MVFR","rawOb":"METAR SBEG 072000Z 31003KT 5000 -TSRA BKN025 FEW030CB 25/24 Q1010 RERA","temp":25,"dewp":24,"wdir":310,"wspd":3,"visib":3.11,"altim":1010,"clouds":[{"cover":"BKN","base":2500},{"cover":"FEW","base":3000}],"obsTime":1780862400},"SBMG":{"icaoId":"SBMG","flightCategory":"VFR","rawOb":"METAR SBMG 072000Z 17004KT 130V210 9999 SCT049 21/13 Q1016","temp":21,"dewp":13,"wdir":170,"wspd":4,"visib":"6+","altim":1016,"clouds":[{"cover":"SCT","base":4900}],"obsTime":1780862400},"SBKP":{"icaoId":"SBKP","flightCategory":"VFR","rawOb":"METAR SBKP 072000Z VRB04KT CAVOK 22/09 Q1018","temp":22,"dewp":9,"wdir":"VRB","wspd":4,"visib":"6+","altim":1018,"clouds":[],"obsTime":1780862400},"SBCB":{"icaoId":"SBCB","flightCategory":"VFR","rawOb":"METAR SBCB 072000Z 20006KT CAVOK 22/17 Q1017","temp":22,"dewp":17,"wdir":200,"wspd":6,"visib":"6+","altim":1017,"clouds":[],"obsTime":1780862400},"SBLO":{"icaoId":"SBLO","flightCategory":"VFR","rawOb":"METAR SBLO 072000Z VRB02KT 9999 FEW040 22/11 Q1017","temp":22,"dewp":11,"wdir":"VRB","wspd":2,"visib":"6+","altim":1017,"clouds":[{"cover":"FEW","base":4000}],"obsTime":1780862400},"SBMK":{"icaoId":"SBMK","flightCategory":"VFR","rawOb":"METAR SBMK 072000Z 06003KT CAVOK 25/10 Q1018","temp":25,"dewp":10,"wdir":60,"wspd":3,"visib":"6+","altim":1018,"clouds":[],"obsTime":1780862400},"SBFI":{"icaoId":"SBFI","flightCategory":"VFR","rawOb":"METAR SBFI 072000Z 03002KT 9999 FEW030 SCT070 24/16 Q1015","temp":24,"dewp":16,"wdir":30,"wspd":2,"visib":"6+","altim":1015,"clouds":[{"cover":"FEW","base":3000},{"cover":"SCT","base":7000}],"obsTime":1780862400},"SBMO":{"icaoId":"SBMO","flightCategory":"MVFR","rawOb":"METAR SBMO 072000Z 14007KT 9999 BKN020 24/21 Q1015","temp":24,"dewp":21,"wdir":140,"wspd":7,"visib":"6+","altim":1015,"clouds":[{"cover":"BKN","base":2000}],"obsTime":1780862400},"SBCF":{"icaoId":"SBCF","flightCategory":"VFR","rawOb":"METAR SBCF 072000Z 04003KT CAVOK 22/08 Q1019","temp":22,"dewp":8,"wdir":40,"wspd":3,"visib":"6+","altim":1019,"clouds":[],"obsTime":1780862400},"SBMQ":{"icaoId":"SBMQ","flightCategory":"VFR","rawOb":"METAR SBMQ 072000Z 07009KT 9999 4500E VCSH FEW017 SCT022 FEW033TCU 29/25 Q1010","temp":29,"dewp":25,"wdir":70,"wspd":9,"visib":"6+","altim":1010,"clouds":[{"cover":"FEW","base":1700},{"cover":"SCT","base":2200},{"cover":"FEW","base":3300}],"obsTime":1780862400},"SBNT":{"icaoId":"SBNT","flightCategory":"VFR","rawOb":"METAR SBNT 072000Z 17008KT 9999 SCT027 27/23 Q1013","temp":27,"dewp":23,"wdir":170,"wspd":8,"visib":"6+","altim":1013,"clouds":[{"cover":"SCT","base":2700}],"obsTime":1780862400},"SBFL":{"icaoId":"SBFL","flightCategory":"MVFR","rawOb":"METAR SBFL 072000Z 13006KT 6000 BKN014 BKN022 19/17 Q1017","temp":19,"dewp":17,"wdir":130,"wspd":6,"visib":3.73,"altim":1017,"clouds":[{"cover":"BKN","base":1400},{"cover":"BKN","base":2200}],"obsTime":1780862400},"SBAT":{"icaoId":"SBAT","flightCategory":"VFR","rawOb":"METAR SBAT 072000Z 05004KT 9999 SCT035 33/18 Q1012","temp":33,"dewp":18,"wdir":50,"wspd":4,"visib":"6+","altim":1012,"clouds":[{"cover":"SCT","base":3500}],"obsTime":1780862400},"SBPA":{"icaoId":"SBPA","flightCategory":"MVFR","rawOb":"METAR SBPA 072000Z 15006KT 9999 SCT015 BKN025 17/15 Q1018","temp":17,"dewp":15,"wdir":150,"wspd":6,"visib":"6+","altim":1018,"clouds":[{"cover":"SCT","base":1500},{"cover":"BKN","base":2500}],"obsTime":1780862400},"SBCG":{"icaoId":"SBCG","flightCategory":"VFR","rawOb":"METAR SBCG 072000Z 30006KT CAVOK 26/09 Q1015","temp":26,"dewp":9,"wdir":300,"wspd":6,"visib":"6+","altim":1015,"clouds":[],"obsTime":1780862400},"SBPJ":{"icaoId":"SBPJ","flightCategory":"VFR","rawOb":"METAR SBPJ 072000Z 26005KT 9999 FEW030 32/19 Q1013","temp":32,"dewp":19,"wdir":260,"wspd":5,"visib":"6+","altim":1013,"clouds":[{"cover":"FEW","base":3000}],"obsTime":1780862400},"SBFZ":{"icaoId":"SBFZ","flightCategory":"VFR","rawOb":"METAR SBFZ 072000Z 12007KT 9999 FEW025 SCT090 28/22 Q1012","temp":28,"dewp":22,"wdir":120,"wspd":7,"visib":"6+","altim":1012,"clouds":[{"cover":"FEW","base":2500},{"cover":"SCT","base":9000}],"obsTime":1780862400},"SBPV":{"icaoId":"SBPV","flightCategory":"VFR","rawOb":"METAR SBPV 072000Z 04005KT 9999 SCT030 32/20 Q1010","temp":32,"dewp":20,"wdir":40,"wspd":5,"visib":"6+","altim":1010,"clouds":[{"cover":"SCT","base":3000}],"obsTime":1780862400},"SBGL":{"icaoId":"SBGL","flightCategory":"VFR","rawOb":"METAR SBGL 072000Z 20008KT 9999 FEW040 24/13 Q1016","temp":24,"dewp":13,"wdir":200,"wspd":8,"visib":"6+","altim":1016,"clouds":[{"cover":"FEW","base":4000}],"obsTime":1780862400},"SBRB":{"icaoId":"SBRB","flightCategory":"VFR","rawOb":"METAR SBRB 072000Z 25003KT 9999 SCT025 BKN100 28/23 Q1011","temp":28,"dewp":23,"wdir":250,"wspd":3,"visib":"6+","altim":1011,"clouds":[{"cover":"SCT","base":2500},{"cover":"BKN","base":10000}],"obsTime":1780862400},"SBCP":{"icaoId":"SBCP","flightCategory":"VFR","rawOb":"METAR SBCP 072000Z 31003KT CAVOK 26/13 Q1016","temp":26,"dewp":13,"wdir":310,"wspd":3,"visib":"6+","altim":1016,"clouds":[],"obsTime":1780862400},"SBRF":{"icaoId":"SBRF","flightCategory":"VFR","rawOb":"METAR SBRF 072000Z 14010KT 9999 SCT015 BKN050 26/21 Q1014","temp":26,"dewp":21,"wdir":140,"wspd":10,"visib":"6+","altim":1014,"clouds":[{"cover":"SCT","base":1500},{"cover":"BKN","base":5000}],"obsTime":1780862400},"SBGO":{"icaoId":"SBGO","flightCategory":"VFR","rawOb":"METAR SBGO 072000Z 33007KT CAVOK 28/10 Q1017","temp":28,"dewp":10,"wdir":330,"wspd":7,"visib":"6+","altim":1017,"clouds":[],"obsTime":1780862400},"SBSG":{"icaoId":"SBSG","flightCategory":"VFR","rawOb":"METAR SBSG 072000Z 17004KT 130V200 9999 SCT027 27/23 Q1013","temp":27,"dewp":23,"wdir":170,"wspd":4,"visib":"6+","altim":1013,"clouds":[{"cover":"SCT","base":2700}],"obsTime":1780862400},"SBSL":{"icaoId":"SBSL","flightCategory":"VFR","rawOb":"METAR SBSL 072000Z 35006KT 9999 SCT030 29/25 Q1010","temp":29,"dewp":25,"wdir":350,"wspd":6,"visib":"6+","altim":1010,"clouds":[{"cover":"SCT","base":3000}],"obsTime":1780862400},"SBBV":{"icaoId":"SBBV","flightCategory":"MVFR","rawOb":"METAR SBBV 072000Z 16007KT 9999 VCSH BKN030 FEW035TCU SCT080 29/23 Q1010","temp":29,"dewp":23,"wdir":160,"wspd":7,"visib":"6+","altim":1010,"clouds":[{"cover":"BKN","base":3000},{"cover":"FEW","base":3500},{"cover":"SCT","base":8000}],"obsTime":1780862400},"SBSN":{"icaoId":"SBSN","flightCategory":"VFR","rawOb":"METAR SBSN 072000Z 08008KT 9999 FEW020 FEW025TCU 30/24 Q1010","temp":30,"dewp":24,"wdir":80,"wspd":8,"visib":"6+","altim":1010,"clouds":[{"cover":"FEW","base":2000},{"cover":"FEW","base":2500}],"obsTime":1780862400},"SBGR":{"icaoId":"SBGR","flightCategory":"VFR","rawOb":"METAR SBGR 072000Z 30005KT CAVOK 22/07 Q1019","temp":22,"dewp":7,"wdir":300,"wspd":5,"visib":"6+","altim":1019,"clouds":[],"obsTime":1780862400},"SBSP":{"icaoId":"SBSP","flightCategory":"VFR","rawOb":"METAR SBSP 072000Z 33003KT 270V040 CAVOK 22/04 Q1019","temp":22,"dewp":4,"wdir":330,"wspd":3,"visib":"6+","altim":1019,"clouds":[],"obsTime":1780862400},"SBSV":{"icaoId":"SBSV","flightCategory":"VFR","rawOb":"METAR SBSV 072000Z 18004KT 9999 VCSH FEW019 FEW023TCU BKN060 25/20 Q1016","temp":25,"dewp":20,"wdir":180,"wspd":4,"visib":"6+","altim":1016,"clouds":[{"cover":"FEW","base":1900},{"cover":"FEW","base":2300},{"cover":"BKN","base":6000}],"obsTime":1780862400},"SBCR":{"icaoId":"SBCR","flightCategory":"VFR","rawOb":"METAR SBCR 072000Z 03007KT 360V070 CAVOK 30/12 Q1012","temp":30,"dewp":12,"wdir":30,"wspd":7,"visib":"6+","altim":1012,"clouds":[],"obsTime":1780862400},"SBTE":{"icaoId":"SBTE","flightCategory":"VFR","rawOb":"METAR SBTE 072000Z 04005KT CAVOK 33/21 Q1010","temp":33,"dewp":21,"wdir":40,"wspd":5,"visib":"6+","altim":1010,"clouds":[],"obsTime":1780862400},"SBHT":{"icaoId":"SBHT","flightCategory":"VFR","rawOb":"METAR SBHT 072000Z 12001KT 9999 FEW030 31/26 Q1010","temp":31,"dewp":26,"wdir":120,"wspd":1,"visib":"6+","altim":1010,"clouds":[{"cover":"FEW","base":3000}],"obsTime":1780862400},"SBUL":{"icaoId":"SBUL","flightCategory":"VFR","rawOb":"METAR SBUL 072000Z 08004KT 030V120 CAVOK 23/06 Q1019","temp":23,"dewp":6,"wdir":80,"wspd":4,"visib":"6+","altim":1019,"clouds":[],"obsTime":1780862400},"SBIL":{"icaoId":"SBIL","flightCategory":"VFR","rawOb":"METAR SBIL 072000Z 13003KT CAVOK 25/20 Q1017","temp":25,"dewp":20,"wdir":130,"wspd":3,"visib":"6+","altim":1017,"clouds":[],"obsTime":1780862400},"SBUR":{"icaoId":"SBUR","flightCategory":"VFR","rawOb":"METAR SBUR 072000Z 35005KT CAVOK 25/05 Q1018","temp":25,"dewp":5,"wdir":350,"wspd":5,"visib":"6+","altim":1018,"clouds":[],"obsTime":1780862400},"SBVT":{"icaoId":"SBVT","flightCategory":"VFR","rawOb":"METAR SBVT 072000Z 14005KT CAVOK 24/13 Q1016","temp":24,"dewp":13,"wdir":140,"wspd":5,"visib":"6+","altim":1016,"clouds":[],"obsTime":1780862400},"SBCT":{"icaoId":"SBCT","flightCategory":"VFR","rawOb":"METAR SBCT 072000Z 14007KT 9999 BKN040 18/13 Q1019","temp":18,"dewp":13,"wdir":140,"wspd":7,"visib":"6+","altim":1019,"clouds":[{"cover":"BKN","base":4000}],"obsTime":1780862400},"SBJU":{"icaoId":"SBJU","flightCategory":"VFR","rawOb":"METAR SBJU 072000Z 15010KT 9999 SCT020 27/19 Q1015","temp":27,"dewp":19,"wdir":150,"wspd":10,"visib":"6+","altim":1015,"clouds":[{"cover":"SCT","base":2000}],"obsTime":1780862400},"SBPB":{"icaoId":"SBPB","flightCategory":"VFR","rawOb":"METAR SBPB 072000Z 12006KT 9999 FEW020 30/23 Q1011","temp":30,"dewp":23,"wdir":120,"wspd":6,"visib":"6+","altim":1011,"clouds":[{"cover":"FEW","base":2000}],"obsTime":1780862400},"SBCJ":{"icaoId":"SBCJ","flightCategory":"VFR","rawOb":"METAR SBCJ 072000Z 11003KT 9999 FEW027 28/18 Q1015","temp":28,"dewp":18,"wdir":110,"wspd":3,"visib":"6+","altim":1015,"clouds":[{"cover":"FEW","base":2700}],"obsTime":1780862400},"SBOI":{"icaoId":"SBOI","flightCategory":"MVFR","rawOb":"METAR SBOI 072000Z AUTO VRB01KT 7000 -RA FEW008 BKN014 OVC021 26/25 Q1011 RERA","temp":26,"dewp":25,"wdir":"VRB","wspd":1,"visib":4.35,"altim":1011,"clouds":[{"cover":"FEW","base":800},{"cover":"BKN","base":1400},{"cover":"OVC","base":2100}],"obsTime":1780862400},"SBCA":{"icaoId":"SBCA","flightCategory":"VFR","rawOb":"METAR SBCA 072000Z 02006KT 9999 SCT030 20/11 Q1018","temp":20,"dewp":11,"wdir":20,"wspd":6,"visib":"6+","altim":1018,"clouds":[{"cover":"SCT","base":3000}],"obsTime":1780862400},"SBSJ":{"icaoId":"SBSJ","flightCategory":"VFR","rawOb":"METAR SBSJ 072000Z 18003KT CAVOK 21/08 Q1018","temp":21,"dewp":8,"wdir":180,"wspd":3,"visib":"6+","altim":1018,"clouds":[],"obsTime":1780862400},"SBAR":{"icaoId":"SBAR","flightCategory":"VFR","rawOb":"METAR SBAR 072000Z 14008KT 9999 SCT030 27/19 Q1015","temp":27,"dewp":19,"wdir":140,"wspd":8,"visib":"6+","altim":1015,"clouds":[{"cover":"SCT","base":3000}],"obsTime":1780862400},"SBAX":{"icaoId":"SBAX","flightCategory":"VFR","rawOb":"METAR SBAX 072000Z AUTO VRB02KT CAVOK 23/07 Q1019","temp":23,"dewp":7,"wdir":"VRB","wspd":2,"visib":"6+","altim":1019,"clouds":[],"obsTime":1780862400},"SBBH":{"icaoId":"SBBH","flightCategory":"VFR","rawOb":"METAR SBBH 072000Z 34004KT CAVOK 22/08 Q1019","temp":22,"dewp":8,"wdir":340,"wspd":4,"visib":"6+","altim":1019,"clouds":[],"obsTime":1780862400},"SBBU":{"icaoId":"SBBU","flightCategory":"VFR","rawOb":"METAR SBBU 072000Z 16003KT CAVOK 24/12 Q1017","temp":24,"dewp":12,"wdir":160,"wspd":3,"visib":"6+","altim":1017,"clouds":[],"obsTime":1780862400},"SBCO":{"icaoId":"SBCO","flightCategory":"MVFR","rawOb":"METAR SBCO 072000Z 12007KT 9999 SCT019 BKN025 18/14 Q1018","temp":18,"dewp":14,"wdir":120,"wspd":7,"visib":"6+","altim":1018,"clouds":[{"cover":"SCT","base":1900},{"cover":"BKN","base":2500}],"obsTime":1780862400},"SBDN":{"icaoId":"SBDN","flightCategory":"VFR","rawOb":"METAR SBDN 072000Z 33003KT CAVOK 25/11 Q1016","temp":25,"dewp":11,"wdir":330,"wspd":3,"visib":"6+","altim":1016,"clouds":[],"obsTime":1780862400},"SBES":{"icaoId":"SBES","flightCategory":"VFR","rawOb":"METAR SBES 072000Z 20008KT CAVOK 21/// Q1016","temp":null,"dewp":null,"wdir":200,"wspd":8,"visib":"6+","altim":1016,"clouds":[],"obsTime":1780862400},"SBIP":{"icaoId":"SBIP","flightCategory":"VFR","rawOb":"METAR SBIP 072000Z AUTO VRB01KT CAVOK 21/14 Q1017","temp":21,"dewp":14,"wdir":"VRB","wspd":1,"visib":"6+","altim":1017,"clouds":[],"obsTime":1780862400},"SBKG":{"icaoId":"SBKG","flightCategory":"MVFR","rawOb":"METAR SBKG 072000Z 10006KT 9999 BKN022 BKN070 22/20 Q1017","temp":22,"dewp":20,"wdir":100,"wspd":6,"visib":"6+","altim":1017,"clouds":[{"cover":"BKN","base":2200},{"cover":"BKN","base":7000}],"obsTime":1780862400},"SBPL":{"icaoId":"SBPL","flightCategory":"MVFR","rawOb":"METAR SBPL 072000Z 11009KT 9999 BKN025 29/17 Q1015","temp":29,"dewp":17,"wdir":110,"wspd":9,"visib":"6+","altim":1015,"clouds":[{"cover":"BKN","base":2500}],"obsTime":1780862400},"SBPP":{"icaoId":"SBPP","flightCategory":"VFR","rawOb":"METAR SBPP 072000Z 05009KT CAVOK 23/11 Q1016","temp":23,"dewp":11,"wdir":50,"wspd":9,"visib":"6+","altim":1016,"clouds":[],"obsTime":1780862400},"SBPS":{"icaoId":"SBPS","flightCategory":"VFR","rawOb":"METAR SBPS 072000Z 09006KT 9999 SCT025 23/19 Q1016","temp":23,"dewp":19,"wdir":90,"wspd":6,"visib":"6+","altim":1016,"clouds":[{"cover":"SCT","base":2500}],"obsTime":1780862400},"SBSC":{"icaoId":"SBSC","flightCategory":"VFR","rawOb":"METAR SBSC 072000Z 19004KT CAVOK 21/16 Q1017","temp":21,"dewp":16,"wdir":190,"wspd":4,"visib":"6+","altim":1017,"clouds":[],"obsTime":1780862400},"SBSM":{"icaoId":"SBSM","flightCategory":"LIFR","rawOb":"METAR SBSM 072000Z 11006KT 2500 BR OVC004 16/16 Q1017","temp":16,"dewp":16,"wdir":110,"wspd":6,"visib":1.55,"altim":1017,"clouds":[{"cover":"OVC","base":400}],"obsTime":1780862400},"SBSR":{"icaoId":"SBSR","flightCategory":"VFR","rawOb":"METAR SBSR 072000Z 09002KT CAVOK 26/06 Q1017","temp":26,"dewp":6,"wdir":90,"wspd":2,"visib":"6+","altim":1017,"clouds":[],"obsTime":1780862400},"SBTF":{"icaoId":"SBTF","flightCategory":"VFR","rawOb":"METAR SBTF 072000Z 34006KT 9999 SCT016 FEW025TCU BKN080 30/25 Q1010","temp":30,"dewp":25,"wdir":340,"wspd":6,"visib":"6+","altim":1010,"clouds":[{"cover":"SCT","base":1600},{"cover":"FEW","base":2500},{"cover":"BKN","base":8000}],"obsTime":1780862400},"SBTT":{"icaoId":"SBTT","flightCategory":"MVFR","rawOb":"METAR SBTT 072000Z 33004KT 9999 BKN021 28/24 Q1010","temp":28,"dewp":24,"wdir":330,"wspd":4,"visib":"6+","altim":1010,"clouds":[{"cover":"BKN","base":2100}],"obsTime":1780862400},"SBTU":{"icaoId":"SBTU","flightCategory":"VFR","rawOb":"METAR SBTU 072000Z AUTO 26004KT 230V290 9999 // FEW081/// 31/22 Q1012","temp":31,"dewp":22,"wdir":260,"wspd":4,"visib":"6+","altim":1012,"clouds":[{"cover":"FEW","base":8100}],"obsTime":1780862400},"SBUY":{"icaoId":"SBUY","flightCategory":"MVFR","rawOb":"METAR SBUY 072000Z 18005KT 6000 -RA VCSH SCT025 FEW035TCU SCT090 27/24 Q1008","temp":27,"dewp":24,"wdir":180,"wspd":5,"visib":3.73,"altim":1008,"clouds":[{"cover":"SCT","base":2500},{"cover":"FEW","base":3500},{"cover":"SCT","base":9000}],"obsTime":1780862400},"SBVH":{"icaoId":"SBVH","flightCategory":"VFR","rawOb":"METAR SBVH 072000Z 09006KT CAVOK 29/16 Q1014","temp":29,"dewp":16,"wdir":90,"wspd":6,"visib":"6+","altim":1014,"clouds":[],"obsTime":1780862400},"SBCC":{"icaoId":"SBCC","flightCategory":"VFR","rawOb":"METAR SBCC 072000Z 08008KT 9999 SCT020 29/18 Q1013","temp":29,"dewp":18,"wdir":80,"wspd":8,"visib":"6+","altim":1013,"clouds":[{"cover":"SCT","base":2000}],"obsTime":1780862400},"SBBQ":{"icaoId":"SBBQ","flightCategory":"VFR","rawOb":"METAR SBBQ 072000Z 25003KT CAVOK 20/05 Q1021","temp":20,"dewp":5,"wdir":250,"wspd":3,"visib":"6+","altim":1021,"clouds":[],"obsTime":1780862400},"SBGW":{"icaoId":"SBGW","flightCategory":"VFR","rawOb":"METAR SBGW 072000Z 30003KT CAVOK 22/08 Q1018","temp":22,"dewp":8,"wdir":300,"wspd":3,"visib":"6+","altim":1018,"clouds":[],"obsTime":1780862400},"SBJV":{"icaoId":"SBJV","flightCategory":"VFR","rawOb":"METAR SBJV 072000Z 13009KT 9999 FEW015 SCT060 20/18 Q1017","temp":20,"dewp":18,"wdir":130,"wspd":9,"visib":"6+","altim":1017,"clouds":[{"cover":"FEW","base":1500},{"cover":"SCT","base":6000}],"obsTime":1780862400},"SBJR":{"icaoId":"SBJR","flightCategory":"VFR","rawOb":"METAR SBJR 072000Z 20003KT CAVOK 21/16 Q1017","temp":21,"dewp":16,"wdir":200,"wspd":3,"visib":"6+","altim":1017,"clouds":[],"obsTime":1780862400},"SBAN":{"icaoId":"SBAN","flightCategory":"VFR","rawOb":"METAR SBAN 072000Z 34005KT CAVOK 24/09 Q1020","temp":24,"dewp":9,"wdir":340,"wspd":5,"visib":"6+","altim":1020,"clouds":[],"obsTime":1780862400},"SBLS":{"icaoId":"SBLS","flightCategory":"VFR","rawOb":"METAR SBLS 072000Z VRB02KT CAVOK 22/08 Q1019","temp":22,"dewp":8,"wdir":"VRB","wspd":2,"visib":"6+","altim":1019,"clouds":[],"obsTime":1780862400},"SBMT":{"icaoId":"SBMT","flightCategory":"VFR","rawOb":"METAR SBMT 072000Z 32004KT CAVOK 21/06 Q1018","temp":21,"dewp":6,"wdir":320,"wspd":4,"visib":"6+","altim":1018,"clouds":[],"obsTime":1780862400},"SBST":{"icaoId":"SBST","flightCategory":"VFR","rawOb":"METAR SBST 072000Z 16005KT CAVOK 22/15 Q1016","temp":22,"dewp":15,"wdir":160,"wspd":5,"visib":"6+","altim":1016,"clouds":[],"obsTime":1780862400},"SBTA":{"icaoId":"SBTA","flightCategory":"VFR","rawOb":"METAR SBTA 072000Z 26003KT CAVOK 22/08 Q1017","temp":22,"dewp":8,"wdir":260,"wspd":3,"visib":"6+","altim":1017,"clouds":[],"obsTime":1780862400},"SBNM":{"icaoId":"SBNM","flightCategory":"VFR","rawOb":"METAR SBNM 072000Z AUTO 09007KT CAVOK 20/17 Q1015","temp":20,"dewp":17,"wdir":90,"wspd":7,"visib":"6+","altim":1015,"clouds":[],"obsTime":1780862400},"SBIH":{"icaoId":"SBIH","flightCategory":"VFR","rawOb":"METAR SBIH 072000Z 21004KT 9999 SCT018 FEW025TCU 30/26 Q1009","temp":30,"dewp":26,"wdir":210,"wspd":4,"visib":"6+","altim":1009,"clouds":[{"cover":"SCT","base":1800},{"cover":"FEW","base":2500}],"obsTime":1780862400},"SBLE":{"icaoId":"SBLE","flightCategory":"VFR","rawOb":"METAR SBLE 072000Z AUTO 33004KT CAVOK 22/18 Q1018","temp":22,"dewp":18,"wdir":330,"wspd":4,"visib":"6+","altim":1018,"clouds":[],"obsTime":1780862400},"SBJP":{"icaoId":"SBJP","flightCategory":"IFR","rawOb":"METAR SBJP 072000Z 16009KT 9999 BKN009 BKN020 24/23 Q1014","temp":24,"dewp":23,"wdir":160,"wspd":9,"visib":"6+","altim":1014,"clouds":[{"cover":"BKN","base":900},{"cover":"BKN","base":2000}],"obsTime":1780862400},"SBAF":{"icaoId":"SBAF","flightCategory":"VFR","rawOb":"METAR SBAF 072000Z 19007KT CAVOK 22/15 Q1017","temp":22,"dewp":15,"wdir":190,"wspd":7,"visib":"6+","altim":1017,"clouds":[],"obsTime":1780862400},"SBTC":{"icaoId":"SBTC","flightCategory":"VFR","rawOb":"METAR SBTC 072000Z 10003KT 9999 FEW025 25/20 Q1016","temp":25,"dewp":20,"wdir":100,"wspd":3,"visib":"6+","altim":1016,"clouds":[{"cover":"FEW","base":2500}],"obsTime":1780862400}}}