{"updated":1777288807,"count":81,"data":{"SBCR":{"icaoId":"SBCR","flightCategory":"IFR","rawOb":"METAR SBCR 271100Z VRB02KT 9999 VCTS BKN007 SCT035 FEW040CB BKN080 24/23 Q1014","temp":24,"dewp":23,"wdir":"VRB","wspd":2,"visib":"6+","altim":1014,"clouds":[{"cover":"BKN","base":700},{"cover":"SCT","base":3500},{"cover":"FEW","base":4000},{"cover":"BKN","base":8000}],"obsTime":1777287600},"SBCT":{"icaoId":"SBCT","flightCategory":"IFR","rawOb":"METAR SBCT 271000Z 03002KT 9999 BKN007 BKN070 17/17 Q1017","temp":17,"dewp":17,"wdir":30,"wspd":2,"visib":"6+","altim":1017,"clouds":[{"cover":"BKN","base":700},{"cover":"BKN","base":7000}],"obsTime":1777284000},"SBMA":{"icaoId":"SBMA","flightCategory":"VFR","rawOb":"METAR SBMA 271000Z 00000KT 9999 FEW012 BKN100 25/23 Q1013","temp":25,"dewp":23,"wdir":0,"wspd":0,"visib":"6+","altim":1013,"clouds":[{"cover":"FEW","base":1200},{"cover":"BKN","base":10000}],"obsTime":1777284000},"SBCB":{"icaoId":"SBCB","flightCategory":"VFR","rawOb":"METAR SBCB 271000Z 05007KT CAVOK 25/22 Q1011","temp":25,"dewp":22,"wdir":50,"wspd":7,"visib":"6+","altim":1011,"clouds":[],"obsTime":1777284000},"SBME":{"icaoId":"SBME","flightCategory":"VFR","rawOb":"METAR SBME 271000Z 03008KT CAVOK 24/21 Q1011","temp":24,"dewp":21,"wdir":30,"wspd":8,"visib":"6+","altim":1011,"clouds":[],"obsTime":1777284000},"SBBE":{"icaoId":"SBBE","flightCategory":"VFR","rawOb":"METAR SBBE 271000Z 09002KT 9999 FEW040 BKN090 25/25 Q1012","temp":25,"dewp":25,"wdir":90,"wspd":2,"visib":"6+","altim":1012,"clouds":[{"cover":"FEW","base":4000},{"cover":"BKN","base":9000}],"obsTime":1777284000},"SBMG":{"icaoId":"SBMG","flightCategory":"IFR","rawOb":"METAR SBMG 271000Z 19003KT 5000 -RA SCT001 BKN007 BKN010 19/19 Q1014","temp":19,"dewp":19,"wdir":190,"wspd":3,"visib":3.11,"altim":1014,"clouds":[{"cover":"SCT","base":100},{"cover":"BKN","base":700},{"cover":"BKN","base":1000}],"obsTime":1777284000},"SBEG":{"icaoId":"SBEG","flightCategory":"VFR","rawOb":"METAR SBEG 271000Z 00000KT CAVOK 24/23 Q1012","temp":24,"dewp":23,"wdir":0,"wspd":0,"visib":"6+","altim":1012,"clouds":[],"obsTime":1777284000},"SBMK":{"icaoId":"SBMK","flightCategory":"VFR","rawOb":"METAR SBMK 271000Z 00000KT CAVOK 20/17 Q1018","temp":20,"dewp":17,"wdir":0,"wspd":0,"visib":"6+","altim":1018,"clouds":[],"obsTime":1777284000},"SBCF":{"icaoId":"SBCF","flightCategory":"VFR","rawOb":"METAR SBCF 271000Z VRB01KT CAVOK 18/16 Q1019","temp":18,"dewp":16,"wdir":"VRB","wspd":1,"visib":"6+","altim":1019,"clouds":[],"obsTime":1777284000},"SBMO":{"icaoId":"SBMO","flightCategory":"VFR","rawOb":"METAR SBMO 271000Z 29003KT 9999 VCSH FEW021 BKN035 23/23 Q1014","temp":23,"dewp":23,"wdir":290,"wspd":3,"visib":"6+","altim":1014,"clouds":[{"cover":"FEW","base":2100},{"cover":"BKN","base":3500}],"obsTime":1777284000},"SBFI":{"icaoId":"SBFI","flightCategory":"VFR","rawOb":"METAR SBFI 271000Z 18006KT 9999 FEW002 17/17 Q1016","temp":17,"dewp":17,"wdir":180,"wspd":6,"visib":"6+","altim":1016,"clouds":[{"cover":"FEW","base":200}],"obsTime":1777284000},"SBMQ":{"icaoId":"SBMQ","flightCategory":"VFR","rawOb":"METAR SBMQ 271000Z 35003KT CAVOK 26/25 Q1013","temp":26,"dewp":25,"wdir":350,"wspd":3,"visib":"6+","altim":1013,"clouds":[],"obsTime":1777284000},"SBFL":{"icaoId":"SBFL","flightCategory":"VFR","rawOb":"METAR SBFL 271000Z 27004KT 9999 SCT008 20/20 Q1011","temp":20,"dewp":20,"wdir":270,"wspd":4,"visib":"6+","altim":1011,"clouds":[{"cover":"SCT","base":800}],"obsTime":1777284000},"SBNT":{"icaoId":"SBNT","flightCategory":"VFR","rawOb":"METAR SBNT 271000Z 18006KT 9999 FEW018 BKN100 25/23 Q1012","temp":25,"dewp":23,"wdir":180,"wspd":6,"visib":"6+","altim":1012,"clouds":[{"cover":"FEW","base":1800},{"cover":"BKN","base":10000}],"obsTime":1777284000},"SBAT":{"icaoId":"SBAT","flightCategory":"MVFR","rawOb":"METAR SBAT 271100Z 00000KT 8000 FEW004 26/25 Q1014","temp":26,"dewp":25,"wdir":0,"wspd":0,"visib":4.97,"altim":1014,"clouds":[{"cover":"FEW","base":400}],"obsTime":1777287600},"SBPA":{"icaoId":"SBPA","flightCategory":"VFR","rawOb":"METAR SBPA 271000Z 28012KT CAVOK 14/07 Q1014","temp":14,"dewp":7,"wdir":280,"wspd":12,"visib":"6+","altim":1014,"clouds":[],"obsTime":1777284000},"SBPJ":{"icaoId":"SBPJ","flightCategory":"VFR","rawOb":"METAR SBPJ 271000Z 13002KT 9999 FEW015 BKN080 26/24 Q1014","temp":26,"dewp":24,"wdir":130,"wspd":2,"visib":"6+","altim":1014,"clouds":[{"cover":"FEW","base":1500},{"cover":"BKN","base":8000}],"obsTime":1777284000},"SBBR":{"icaoId":"SBBR","flightCategory":"VFR","rawOb":"METAR SBBR 271000Z 30001KT 9999 FEW030 19/17 Q1020","temp":19,"dewp":17,"wdir":300,"wspd":1,"visib":"6+","altim":1020,"clouds":[{"cover":"FEW","base":3000}],"obsTime":1777284000},"SBKP":{"icaoId":"SBKP","flightCategory":"VFR","rawOb":"METAR SBKP 271000Z 03008KT 9999 SCT040 SCT090 24/17 Q1015","temp":24,"dewp":17,"wdir":30,"wspd":8,"visib":"6+","altim":1015,"clouds":[{"cover":"SCT","base":4000},{"cover":"SCT","base":9000}],"obsTime":1777284000},"SBLO":{"icaoId":"SBLO","flightCategory":"LIFR","rawOb":"SPECI SBLO 270935Z 06003KT 8000 3500E -RA BKN003 21/20 Q1014 RETS RETSRA","temp":21,"dewp":20,"wdir":60,"wspd":3,"visib":4.97,"altim":1014,"clouds":[{"cover":"BKN","base":300}],"obsTime":1777282500},"SBUR":{"icaoId":"SBUR","flightCategory":"VFR","rawOb":"METAR SBUR 271000Z 03007KT 9999 FEW020 21/14 Q1017","temp":21,"dewp":14,"wdir":30,"wspd":7,"visib":"6+","altim":1017,"clouds":[{"cover":"FEW","base":2000}],"obsTime":1777284000},"SBFZ":{"icaoId":"SBFZ","flightCategory":"VFR","rawOb":"METAR SBFZ 271000Z 15004KT 9000 FEW025TCU BKN070 24/23 Q1013 RERA","temp":24,"dewp":23,"wdir":150,"wspd":4,"visib":5.59,"altim":1013,"clouds":[{"cover":"FEW","base":2500},{"cover":"BKN","base":7000}],"obsTime":1777284000},"SBUL":{"icaoId":"SBUL","flightCategory":"VFR","rawOb":"METAR SBUL 271000Z 09006KT CAVOK 21/14 Q1019","temp":21,"dewp":14,"wdir":90,"wspd":6,"visib":"6+","altim":1019,"clouds":[],"obsTime":1777284000},"SBPV":{"icaoId":"SBPV","flightCategory":"LIFR","rawOb":"SPECI SBPV 270936Z 20002KT 9999 BKN002 25/24 Q1011","temp":25,"dewp":24,"wdir":200,"wspd":2,"visib":"6+","altim":1011,"clouds":[{"cover":"BKN","base":200}],"obsTime":1777282560},"SBVT":{"icaoId":"SBVT","flightCategory":"VFR","rawOb":"METAR SBVT 271000Z 33004KT CAVOK 25/21 Q1014","temp":25,"dewp":21,"wdir":330,"wspd":4,"visib":"6+","altim":1014,"clouds":[],"obsTime":1777284000},"SBRB":{"icaoId":"SBRB","flightCategory":"MVFR","rawOb":"METAR SBRB 271000Z 02001KT 8000 FEW008 SCT100 23/23 Q1012","temp":23,"dewp":23,"wdir":20,"wspd":1,"visib":4.97,"altim":1012,"clouds":[{"cover":"FEW","base":800},{"cover":"SCT","base":10000}],"obsTime":1777284000},"SBGL":{"icaoId":"SBGL","flightCategory":"MVFR","rawOb":"METAR SBGL 271000Z 24002KT 8000 FEW008 24/22 Q1011","temp":24,"dewp":22,"wdir":240,"wspd":2,"visib":4.97,"altim":1011,"clouds":[{"cover":"FEW","base":800}],"obsTime":1777284000},"SBRF":{"icaoId":"SBRF","flightCategory":"VFR","rawOb":"METAR SBRF 271000Z 21003KT 160V240 9999 FEW025 SCT050 26/23 Q1013","temp":26,"dewp":23,"wdir":210,"wspd":3,"visib":"6+","altim":1013,"clouds":[{"cover":"FEW","base":2500},{"cover":"SCT","base":5000}],"obsTime":1777284000},"SBGO":{"icaoId":"SBGO","flightCategory":"VFR","rawOb":"METAR SBGO 271000Z 28002KT CAVOK 18/17 Q1018","temp":18,"dewp":17,"wdir":280,"wspd":2,"visib":"6+","altim":1018,"clouds":[],"obsTime":1777284000},"SBSG":{"icaoId":"SBSG","flightCategory":"VFR","rawOb":"METAR SBSG 271000Z 18004KT 140V240 9999 FEW020 BKN100 24/23 Q1013","temp":24,"dewp":23,"wdir":180,"wspd":4,"visib":"6+","altim":1013,"clouds":[{"cover":"FEW","base":2000},{"cover":"BKN","base":10000}],"obsTime":1777284000},"SBSL":{"icaoId":"SBSL","flightCategory":"VFR","rawOb":"METAR SBSL 271000Z 07005KT 9999 FEW020 25/24 Q1012","temp":25,"dewp":24,"wdir":70,"wspd":5,"visib":"6+","altim":1012,"clouds":[{"cover":"FEW","base":2000}],"obsTime":1777284000},"SBGR":{"icaoId":"SBGR","flightCategory":"VFR","rawOb":"METAR SBGR 271000Z 06005KT CAVOK 20/18 Q1016","temp":20,"dewp":18,"wdir":60,"wspd":5,"visib":"6+","altim":1016,"clouds":[],"obsTime":1777284000},"SBSN":{"icaoId":"SBSN","flightCategory":"VFR","rawOb":"METAR SBSN 271000Z VRB02KT 9999 TS VCSH FEW016 FEW022CB SCT100 25/24 Q1012","temp":25,"dewp":24,"wdir":"VRB","wspd":2,"visib":"6+","altim":1012,"clouds":[{"cover":"FEW","base":1600},{"cover":"FEW","base":2200},{"cover":"SCT","base":10000}],"obsTime":1777284000},"SBBV":{"icaoId":"SBBV","flightCategory":"MVFR","rawOb":"METAR SBBV 271000Z 35002KT 9999 BKN013 BKN100 24/23 Q1013","temp":24,"dewp":23,"wdir":350,"wspd":2,"visib":"6+","altim":1013,"clouds":[{"cover":"BKN","base":1300},{"cover":"BKN","base":10000}],"obsTime":1777284000},"SBSP":{"icaoId":"SBSP","flightCategory":"VFR","rawOb":"METAR SBSP 271000Z VRB02KT CAVOK 22/18 Q1017","temp":22,"dewp":18,"wdir":"VRB","wspd":2,"visib":"6+","altim":1017,"clouds":[],"obsTime":1777284000},"SBSV":{"icaoId":"SBSV","flightCategory":"VFR","rawOb":"METAR SBSV 271000Z 27002KT 9999 SCT025 25/24 Q1015","temp":25,"dewp":24,"wdir":270,"wspd":2,"visib":"6+","altim":1015,"clouds":[{"cover":"SCT","base":2500}],"obsTime":1777284000},"SBHT":{"icaoId":"SBHT","flightCategory":"VFR","rawOb":"METAR SBHT 271000Z 35002KT 9999 FEW020 BKN090 24/24 Q1013","temp":24,"dewp":24,"wdir":350,"wspd":2,"visib":"6+","altim":1013,"clouds":[{"cover":"FEW","base":2000},{"cover":"BKN","base":9000}],"obsTime":1777284000},"SBTE":{"icaoId":"SBTE","flightCategory":"VFR","rawOb":"METAR SBTE 271000Z 10001KT 9999 FEW015 BKN080 25/23 Q1012","temp":25,"dewp":23,"wdir":100,"wspd":1,"visib":"6+","altim":1012,"clouds":[{"cover":"FEW","base":1500},{"cover":"BKN","base":8000}],"obsTime":1777284000},"SBCG":{"icaoId":"SBCG","flightCategory":"MVFR","rawOb":"SPECI SBCG 270935Z 19006KT 5000 -TSRA FEW009 BKN030 FEW040CB BKN090 22/21 Q1015 RERA","temp":22,"dewp":21,"wdir":190,"wspd":6,"visib":3.11,"altim":1015,"clouds":[{"cover":"FEW","base":900},{"cover":"BKN","base":3000},{"cover":"FEW","base":4000},{"cover":"BKN","base":9000}],"obsTime":1777282500},"SBIL":{"icaoId":"SBIL","flightCategory":"VFR","rawOb":"METAR SBIL 271000Z 29004KT 9999 FEW020 24/23 Q1016","temp":24,"dewp":23,"wdir":290,"wspd":4,"visib":"6+","altim":1016,"clouds":[{"cover":"FEW","base":2000}],"obsTime":1777284000},"SBCP":{"icaoId":"SBCP","flightCategory":"MVFR","rawOb":"METAR SBCP 271000Z 04005KT 8000 NSC 22/22 Q1012","temp":22,"dewp":22,"wdir":40,"wspd":5,"visib":4.97,"altim":1012,"clouds":[],"obsTime":1777284000},"SBJU":{"icaoId":"SBJU","flightCategory":"VFR","rawOb":"METAR SBJU 271000Z 00000KT 9999 FEW020 24/21 Q1016","temp":24,"dewp":21,"wdir":0,"wspd":0,"visib":"6+","altim":1016,"clouds":[{"cover":"FEW","base":2000}],"obsTime":1777284000},"SBPP":{"icaoId":"SBPP","flightCategory":"MVFR","rawOb":"SPECI SBPP 271115Z 14014KT 5000 -RA BR SCT010 OVC070 19/18 Q1016","temp":19,"dewp":18,"wdir":140,"wspd":14,"visib":3.11,"altim":1016,"clouds":[{"cover":"SCT","base":1000},{"cover":"OVC","base":7000}],"obsTime":1777288500},"SBAR":{"icaoId":"SBAR","flightCategory":"MVFR","rawOb":"METAR SBAR 271000Z 31003KT 9999 BKN026 26/23 Q1014","temp":26,"dewp":23,"wdir":310,"wspd":3,"visib":"6+","altim":1014,"clouds":[{"cover":"BKN","base":2600}],"obsTime":1777284000},"SBAX":{"icaoId":"SBAX","flightCategory":"VFR","rawOb":"METAR SBAX 271000Z AUTO 11003KT CAVOK 18/15 Q1019","temp":18,"dewp":15,"wdir":110,"wspd":3,"visib":"6+","altim":1019,"clouds":[],"obsTime":1777284000},"SBSC":{"icaoId":"SBSC","flightCategory":"VFR","rawOb":"METAR SBSC 271000Z 24004KT CAVOK 26/21 Q1010","temp":26,"dewp":21,"wdir":240,"wspd":4,"visib":"6+","altim":1010,"clouds":[],"obsTime":1777284000},"SBBH":{"icaoId":"SBBH","flightCategory":"VFR","rawOb":"METAR SBBH 271000Z 00000KT CAVOK 18/17 Q1018","temp":18,"dewp":17,"wdir":0,"wspd":0,"visib":"6+","altim":1018,"clouds":[],"obsTime":1777284000},"SBBU":{"icaoId":"SBBU","flightCategory":"VFR","rawOb":"METAR SBBU 271000Z 20004KT 9999 FEW049 SCT070 23/19 Q1015","temp":23,"dewp":19,"wdir":200,"wspd":4,"visib":"6+","altim":1015,"clouds":[{"cover":"FEW","base":4900},{"cover":"SCT","base":7000}],"obsTime":1777284000},"SBCA":{"icaoId":"SBCA","flightCategory":"VFR","rawOb":"METAR SBCA 271000Z 18012KT 9999 SCT002 BKN100 17/17 Q1017","temp":17,"dewp":17,"wdir":180,"wspd":12,"visib":"6+","altim":1017,"clouds":[{"cover":"SCT","base":200},{"cover":"BKN","base":10000}],"obsTime":1777284000},"SBCC":{"icaoId":"SBCC","flightCategory":"VFR","rawOb":"METAR SBCC 271100Z 01003KT CAVOK 24/22 Q1015","temp":24,"dewp":22,"wdir":10,"wspd":3,"visib":"6+","altim":1015,"clouds":[],"obsTime":1777287600},"SBCJ":{"icaoId":"SBCJ","flightCategory":"VFR","rawOb":"SPECI SBCJ 271015Z 00000KT CAVOK 21/20 Q1017","temp":21,"dewp":20,"wdir":0,"wspd":0,"visib":"6+","altim":1017,"clouds":[],"obsTime":1777284900},"SBCO":{"icaoId":"SBCO","flightCategory":"VFR","rawOb":"METAR SBCO 271000Z 29010KT CAVOK 13/07 Q1015","temp":13,"dewp":7,"wdir":290,"wspd":10,"visib":"6+","altim":1015,"clouds":[],"obsTime":1777284000},"SBDN":{"icaoId":"SBDN","flightCategory":"MVFR","rawOb":"METAR SBDN 271000Z 18007KT 7000 -RA SCT012 OVC050 21/20 Q1014 RERA","temp":21,"dewp":20,"wdir":180,"wspd":7,"visib":4.35,"altim":1014,"clouds":[{"cover":"SCT","base":1200},{"cover":"OVC","base":5000}],"obsTime":1777284000},"SBES":{"icaoId":"SBES","flightCategory":"VFR","rawOb":"METAR SBES 271000Z VRB06KT CAVOK 23/// Q1011","temp":null,"dewp":null,"wdir":"VRB","wspd":6,"visib":"6+","altim":1011,"clouds":[],"obsTime":1777284000},"SBIP":{"icaoId":"SBIP","flightCategory":"VFR","rawOb":"METAR SBIP 271000Z AUTO VRB01KT 9999 FEW004 20/20 Q1016","temp":20,"dewp":20,"wdir":"VRB","wspd":1,"visib":"6+","altim":1016,"clouds":[{"cover":"FEW","base":400}],"obsTime":1777284000},"SBKG":{"icaoId":"SBKG","flightCategory":"VFR","rawOb":"METAR SBKG 271000Z 00000KT 9999 FEW015 22/21 Q1016","temp":22,"dewp":21,"wdir":0,"wspd":0,"visib":"6+","altim":1016,"clouds":[{"cover":"FEW","base":1500}],"obsTime":1777284000},"SBOI":{"icaoId":"SBOI","flightCategory":"VFR","rawOb":"METAR SBOI 271000Z AUTO 18001KT 9999 SCT001 23/23 Q1013","temp":23,"dewp":23,"wdir":180,"wspd":1,"visib":"6+","altim":1013,"clouds":[{"cover":"SCT","base":100}],"obsTime":1777284000},"SBPB":{"icaoId":"SBPB","flightCategory":"VFR","rawOb":"SPECI SBPB 271015Z 08002KT 9999 FEW016 27/26 Q1012","temp":27,"dewp":26,"wdir":80,"wspd":2,"visib":"6+","altim":1012,"clouds":[{"cover":"FEW","base":1600}],"obsTime":1777284900},"SBPL":{"icaoId":"SBPL","flightCategory":"VFR","rawOb":"METAR SBPL 271000Z 12007KT CAVOK 24/20 Q1016","temp":24,"dewp":20,"wdir":120,"wspd":7,"visib":"6+","altim":1016,"clouds":[],"obsTime":1777284000},"SBPS":{"icaoId":"SBPS","flightCategory":"VFR","rawOb":"METAR SBPS 271000Z 30003KT 9999 FEW020 24/22 Q1016","temp":24,"dewp":22,"wdir":300,"wspd":3,"visib":"6+","altim":1016,"clouds":[{"cover":"FEW","base":2000}],"obsTime":1777284000},"SBSJ":{"icaoId":"SBSJ","flightCategory":"VFR","rawOb":"METAR SBSJ 271000Z 05001KT CAVOK 19/17 Q1016","temp":19,"dewp":17,"wdir":50,"wspd":1,"visib":"6+","altim":1016,"clouds":[],"obsTime":1777284000},"SBSM":{"icaoId":"SBSM","flightCategory":"VFR","rawOb":"METAR SBSM 271000Z 27007KT CAVOK 10/04 Q1017","temp":10,"dewp":4,"wdir":270,"wspd":7,"visib":"6+","altim":1017,"clouds":[],"obsTime":1777284000},"SBSR":{"icaoId":"SBSR","flightCategory":"VFR","rawOb":"METAR SBSR 271000Z 06004KT 9999 VCSH SCT030 BKN070 23/18 Q1015","temp":23,"dewp":18,"wdir":60,"wspd":4,"visib":"6+","altim":1015,"clouds":[{"cover":"SCT","base":3000},{"cover":"BKN","base":7000}],"obsTime":1777284000},"SBTD":{"icaoId":"SBTD","flightCategory":"VFR","rawOb":"METAR SBTD 271100Z /////KT 9999 FEW040 BKN100 18/18 Q1016","temp":18,"dewp":18,"wdir":null,"wspd":null,"visib":"6+","altim":1016,"clouds":[{"cover":"FEW","base":4000},{"cover":"BKN","base":10000}],"obsTime":1777287600},"SBTT":{"icaoId":"SBTT","flightCategory":"LIFR","rawOb":"METAR SBTT 271100Z 26002KT 5000 BR BKN004 24/23 Q1012","temp":24,"dewp":23,"wdir":260,"wspd":2,"visib":3.11,"altim":1012,"clouds":[{"cover":"BKN","base":400}],"obsTime":1777287600},"SBUY":{"icaoId":"SBUY","flightCategory":"VFR","rawOb":"METAR SBUY 271100Z 00000KT 9999 FEW025 23/22 Q1011","temp":23,"dewp":22,"wdir":0,"wspd":0,"visib":"6+","altim":1011,"clouds":[{"cover":"FEW","base":2500}],"obsTime":1777287600},"SBVH":{"icaoId":"SBVH","flightCategory":"VFR","rawOb":"METAR SBVH 271100Z 07003KT 9999 0900E BCFG NSC 22/21 Q1016","temp":22,"dewp":21,"wdir":70,"wspd":3,"visib":"6+","altim":1016,"clouds":[],"obsTime":1777287600},"SBAN":{"icaoId":"SBAN","flightCategory":"VFR","rawOb":"METAR SBAN 271000Z 18005KT CAVOK 19/16 Q1020","temp":19,"dewp":16,"wdir":180,"wspd":5,"visib":"6+","altim":1020,"clouds":[],"obsTime":1777284000},"SBAF":{"icaoId":"SBAF","flightCategory":"VFR","rawOb":"METAR SBAF 271000Z 23003KT CAVOK 24/23 Q1011","temp":24,"dewp":23,"wdir":230,"wspd":3,"visib":"6+","altim":1011,"clouds":[],"obsTime":1777284000},"SBGW":{"icaoId":"SBGW","flightCategory":"VFR","rawOb":"METAR SBGW 271000Z VRB02KT CAVOK 18/14 Q1016","temp":18,"dewp":14,"wdir":"VRB","wspd":2,"visib":"6+","altim":1016,"clouds":[],"obsTime":1777284000},"SBJR":{"icaoId":"SBJR","flightCategory":"VFR","rawOb":"METAR SBJR 271000Z 00000KT CAVOK 25/21 Q1011","temp":25,"dewp":21,"wdir":0,"wspd":0,"visib":"6+","altim":1011,"clouds":[],"obsTime":1777284000},"SBLS":{"icaoId":"SBLS","flightCategory":"VFR","rawOb":"METAR SBLS 271000Z 19003KT CAVOK 18/17 Q1018","temp":18,"dewp":17,"wdir":190,"wspd":3,"visib":"6+","altim":1018,"clouds":[],"obsTime":1777284000},"SBMT":{"icaoId":"SBMT","flightCategory":"VFR","rawOb":"METAR SBMT 271000Z 00000KT CAVOK 22/17 Q1016","temp":22,"dewp":17,"wdir":0,"wspd":0,"visib":"6+","altim":1016,"clouds":[],"obsTime":1777284000},"SBST":{"icaoId":"SBST","flightCategory":"MVFR","rawOb":"METAR SBST 271100Z 11002KT 7000 NSC 24/22 Q1012","temp":24,"dewp":22,"wdir":110,"wspd":2,"visib":4.35,"altim":1012,"clouds":[],"obsTime":1777287600},"SBLE":{"icaoId":"SBLE","flightCategory":"VFR","rawOb":"METAR SBLE 271000Z AUTO VRB02KT 9999 BKN032 ///// Q////","temp":null,"dewp":null,"wdir":"VRB","wspd":2,"visib":"6+","altim":null,"clouds":[{"cover":"BKN","base":3200}],"obsTime":1777284000},"SBTA":{"icaoId":"SBTA","flightCategory":"VFR","rawOb":"METAR SBTA 271000Z 00000KT CAVOK 17/17 Q1015","temp":17,"dewp":17,"wdir":0,"wspd":0,"visib":"6+","altim":1015,"clouds":[],"obsTime":1777284000},"SBIH":{"icaoId":"SBIH","flightCategory":"MVFR","rawOb":"METAR SBIH 271100Z 32003KT 8000 SCT008 FEW023TCU BKN080 26/25 Q1013","temp":26,"dewp":25,"wdir":320,"wspd":3,"visib":4.97,"altim":1013,"clouds":[{"cover":"SCT","base":800},{"cover":"FEW","base":2300},{"cover":"BKN","base":8000}],"obsTime":1777287600},"SBJP":{"icaoId":"SBJP","flightCategory":"VFR","rawOb":"METAR SBJP 271000Z 18008KT 9999 SCT020 26/23 Q1013","temp":26,"dewp":23,"wdir":180,"wspd":8,"visib":"6+","altim":1013,"clouds":[{"cover":"SCT","base":2000}],"obsTime":1777284000},"SBPF":{"icaoId":"SBPF","flightCategory":"VFR","rawOb":"METAR SBPF 271000Z 27010KT CAVOK 15/12 Q1017","temp":15,"dewp":12,"wdir":270,"wspd":10,"visib":"6+","altim":1017,"clouds":[],"obsTime":1777284000},"SBJV":{"icaoId":"SBJV","flightCategory":"VFR","rawOb":"METAR SBJV 271000Z 32003KT CAVOK 21/21 Q1012","temp":21,"dewp":21,"wdir":320,"wspd":3,"visib":"6+","altim":1012,"clouds":[],"obsTime":1777284000}}}