{"updated":1784855981,"count":64,"data":{"SBCG":{"icaoId":"SBCG","flightCategory":"VFR","rawOb":"METAR SBCG 240000Z 15004KT 9999 FEW025 SCT100 21/19 Q1016","temp":21,"dewp":19,"wdir":150,"wspd":4,"visib":"6+","altim":1016,"clouds":[{"cover":"FEW","base":2500},{"cover":"SCT","base":10000}],"obsTime":1784851200},"SBFL":{"icaoId":"SBFL","flightCategory":"VFR","rawOb":"METAR SBFL 240000Z 13008KT 110V170 CAVOK 17/12 Q1020","temp":17,"dewp":12,"wdir":130,"wspd":8,"visib":"6+","altim":1020,"clouds":[],"obsTime":1784851200},"SBTE":{"icaoId":"SBTE","flightCategory":"VFR","rawOb":"METAR SBTE 240000Z 35004KT CAVOK 30/22 Q1011","temp":30,"dewp":22,"wdir":350,"wspd":4,"visib":"6+","altim":1011,"clouds":[],"obsTime":1784851200},"SBKP":{"icaoId":"SBKP","flightCategory":"VFR","rawOb":"METAR SBKP 240000Z 14013KT CAVOK 17/14 Q1019","temp":17,"dewp":14,"wdir":140,"wspd":13,"visib":"6+","altim":1019,"clouds":[],"obsTime":1784851200},"SBMQ":{"icaoId":"SBMQ","flightCategory":"MVFR","rawOb":"METAR SBMQ 240000Z 02009KT 9999 BKN023 FEW035TCU 28/25 Q1012","temp":28,"dewp":25,"wdir":20,"wspd":9,"visib":"6+","altim":1012,"clouds":[{"cover":"BKN","base":2300},{"cover":"FEW","base":3500}],"obsTime":1784851200},"SBLO":{"icaoId":"SBLO","flightCategory":"MVFR","rawOb":"METAR SBLO 240000Z 15004KT 7000 -RA FEW005 SCT025 OVC090 18/17 Q1019","temp":18,"dewp":17,"wdir":150,"wspd":4,"visib":4.35,"altim":1019,"clouds":[{"cover":"FEW","base":500},{"cover":"SCT","base":2500},{"cover":"OVC","base":9000}],"obsTime":1784851200},"SBPJ":{"icaoId":"SBPJ","flightCategory":"VFR","rawOb":"METAR SBPJ 240000Z 10005KT CAVOK 26/19 Q1012","temp":26,"dewp":19,"wdir":100,"wspd":5,"visib":"6+","altim":1012,"clouds":[],"obsTime":1784851200},"SBCT":{"icaoId":"SBCT","flightCategory":"MVFR","rawOb":"METAR SBCT 240000Z 11004KT 9999 BKN014 BKN035 11/10 Q1022","temp":11,"dewp":10,"wdir":110,"wspd":4,"visib":"6+","altim":1022,"clouds":[{"cover":"BKN","base":1400},{"cover":"BKN","base":3500}],"obsTime":1784851200},"SBMG":{"icaoId":"SBMG","flightCategory":"MVFR","rawOb":"METAR SBMG 240000Z 12009KT 7000 -TSRA FEW002 FEW030CB BKN040 17/17 Q1017 RETSRA","temp":17,"dewp":17,"wdir":120,"wspd":9,"visib":4.35,"altim":1017,"clouds":[{"cover":"FEW","base":200},{"cover":"FEW","base":3000},{"cover":"BKN","base":4000}],"obsTime":1784851200},"SBIL":{"icaoId":"SBIL","flightCategory":"VFR","rawOb":"METAR SBIL 240000Z 08006KT CAVOK 26/23 Q1017","temp":26,"dewp":23,"wdir":80,"wspd":6,"visib":"6+","altim":1017,"clouds":[],"obsTime":1784851200},"SBJU":{"icaoId":"SBJU","flightCategory":"MVFR","rawOb":"METAR SBJU 240000Z 13004KT 9999 BKN020 27/19 Q1016","temp":27,"dewp":19,"wdir":130,"wspd":4,"visib":"6+","altim":1016,"clouds":[{"cover":"BKN","base":2000}],"obsTime":1784851200},"SBME":{"icaoId":"SBME","flightCategory":"VFR","rawOb":"METAR SBME 240000Z 24004KT CAVOK 22/19 Q1017","temp":22,"dewp":19,"wdir":240,"wspd":4,"visib":"6+","altim":1017,"clouds":[],"obsTime":1784851200},"SBMK":{"icaoId":"SBMK","flightCategory":"VFR","rawOb":"METAR SBMK 240000Z 24002KT CAVOK 22/11 Q1017","temp":22,"dewp":11,"wdir":240,"wspd":2,"visib":"6+","altim":1017,"clouds":[],"obsTime":1784851200},"SBNT":{"icaoId":"SBNT","flightCategory":"MVFR","rawOb":"METAR SBNT 240000Z 16006KT 8000 VCSH FEW016 BKN050 BKN066 24/24 Q1015 RERA","temp":24,"dewp":24,"wdir":160,"wspd":6,"visib":4.97,"altim":1015,"clouds":[{"cover":"FEW","base":1600},{"cover":"BKN","base":5000},{"cover":"BKN","base":6600}],"obsTime":1784851200},"SBUL":{"icaoId":"SBUL","flightCategory":"VFR","rawOb":"METAR SBUL 240000Z 26003KT CAVOK 23/11 Q1019","temp":23,"dewp":11,"wdir":260,"wspd":3,"visib":"6+","altim":1019,"clouds":[],"obsTime":1784851200},"SBUR":{"icaoId":"SBUR","flightCategory":"VFR","rawOb":"METAR SBUR 240000Z 15002KT CAVOK 25/13 Q1018","temp":25,"dewp":13,"wdir":150,"wspd":2,"visib":"6+","altim":1018,"clouds":[],"obsTime":1784851200},"SBSL":{"icaoId":"SBSL","flightCategory":"VFR","rawOb":"METAR SBSL 240000Z 07006KT 040V110 9999 FEW015 27/24 Q1012","temp":27,"dewp":24,"wdir":70,"wspd":6,"visib":"6+","altim":1012,"clouds":[{"cover":"FEW","base":1500}],"obsTime":1784851200},"SBMA":{"icaoId":"SBMA","flightCategory":"VFR","rawOb":"METAR SBMA 240000Z 31002KT CAVOK 30/23 Q1011","temp":30,"dewp":23,"wdir":310,"wspd":2,"visib":"6+","altim":1011,"clouds":[],"obsTime":1784851200},"SBSP":{"icaoId":"SBSP","flightCategory":"IFR","rawOb":"METAR SBSP 240000Z 16010KT 9999 OVC007 14/14 Q1021","temp":14,"dewp":14,"wdir":160,"wspd":10,"visib":"6+","altim":1021,"clouds":[{"cover":"OVC","base":700}],"obsTime":1784851200},"SBGR":{"icaoId":"SBGR","flightCategory":"IFR","rawOb":"METAR SBGR 240000Z 11006KT 7000 OVC009 15/13 Q1021","temp":15,"dewp":13,"wdir":110,"wspd":6,"visib":4.35,"altim":1021,"clouds":[{"cover":"OVC","base":900}],"obsTime":1784851200},"SBBR":{"icaoId":"SBBR","flightCategory":"VFR","rawOb":"METAR SBBR 240000Z 31003KT CAVOK 19/11 Q1019","temp":19,"dewp":11,"wdir":310,"wspd":3,"visib":"6+","altim":1019,"clouds":[],"obsTime":1784851200},"SBRF":{"icaoId":"SBRF","flightCategory":"MVFR","rawOb":"METAR SBRF 240000Z 14012KT 9999 BKN017 OVC090 26/23 Q1016","temp":26,"dewp":23,"wdir":140,"wspd":12,"visib":"6+","altim":1016,"clouds":[{"cover":"BKN","base":1700},{"cover":"OVC","base":9000}],"obsTime":1784851200},"SBPA":{"icaoId":"SBPA","flightCategory":"VFR","rawOb":"METAR SBPA 240000Z 13007KT 9999 FEW020 SCT060 15/13 Q1020","temp":15,"dewp":13,"wdir":130,"wspd":7,"visib":"6+","altim":1020,"clouds":[{"cover":"FEW","base":2000},{"cover":"SCT","base":6000}],"obsTime":1784851200},"SBVT":{"icaoId":"SBVT","flightCategory":"VFR","rawOb":"METAR SBVT 240000Z 04011KT CAVOK 23/20 Q1015","temp":23,"dewp":20,"wdir":40,"wspd":11,"visib":"6+","altim":1015,"clouds":[],"obsTime":1784851200},"SBEG":{"icaoId":"SBEG","flightCategory":"VFR","rawOb":"METAR SBEG 240000Z 10002KT CAVOK 29/24 Q1011","temp":29,"dewp":24,"wdir":100,"wspd":2,"visib":"6+","altim":1011,"clouds":[],"obsTime":1784851200},"SBSV":{"icaoId":"SBSV","flightCategory":"VFR","rawOb":"METAR SBSV 240000Z 08007KT CAVOK 25/21 Q1017","temp":25,"dewp":21,"wdir":80,"wspd":7,"visib":"6+","altim":1017,"clouds":[],"obsTime":1784851200},"SBCF":{"icaoId":"SBCF","flightCategory":"VFR","rawOb":"METAR SBCF 240000Z 02002KT CAVOK 21/11 Q1018","temp":21,"dewp":11,"wdir":20,"wspd":2,"visib":"6+","altim":1018,"clouds":[],"obsTime":1784851200},"SBSG":{"icaoId":"SBSG","flightCategory":"IFR","rawOb":"METAR SBSG 240000Z 18004KT 150V220 3000 -RA SCT007 BKN010 BKN019 24/23 Q1015","temp":24,"dewp":23,"wdir":180,"wspd":4,"visib":1.86,"altim":1015,"clouds":[{"cover":"SCT","base":700},{"cover":"BKN","base":1000},{"cover":"BKN","base":1900}],"obsTime":1784851200},"SBPV":{"icaoId":"SBPV","flightCategory":"VFR","rawOb":"METAR SBPV 240000Z 00000KT CAVOK 27/22 Q1010","temp":27,"dewp":22,"wdir":0,"wspd":0,"visib":"6+","altim":1010,"clouds":[],"obsTime":1784851200},"SBFZ":{"icaoId":"SBFZ","flightCategory":"MVFR","rawOb":"METAR SBFZ 240000Z 11009KT 9999 BKN017 26/24 Q1014","temp":26,"dewp":24,"wdir":110,"wspd":9,"visib":"6+","altim":1014,"clouds":[{"cover":"BKN","base":1700}],"obsTime":1784851200},"SBBE":{"icaoId":"SBBE","flightCategory":"VFR","rawOb":"METAR SBBE 240000Z 05005KT 9999 SCT040 27/25 Q1012","temp":27,"dewp":25,"wdir":50,"wspd":5,"visib":"6+","altim":1012,"clouds":[{"cover":"SCT","base":4000}],"obsTime":1784851200},"SBMO":{"icaoId":"SBMO","flightCategory":"VFR","rawOb":"METAR SBMO 240000Z 10004KT 9999 SCT017 23/22 Q1017","temp":23,"dewp":22,"wdir":100,"wspd":4,"visib":"6+","altim":1017,"clouds":[{"cover":"SCT","base":1700}],"obsTime":1784851200},"SBRB":{"icaoId":"SBRB","flightCategory":"MVFR","rawOb":"METAR SBRB 240000Z 31001KT 8000 FEW030 FEW030TCU SCT100 26/24 Q1011","temp":26,"dewp":24,"wdir":310,"wspd":1,"visib":4.97,"altim":1011,"clouds":[{"cover":"FEW","base":3000},{"cover":"FEW","base":3000},{"cover":"SCT","base":10000}],"obsTime":1784851200},"SBBV":{"icaoId":"SBBV","flightCategory":"VFR","rawOb":"METAR SBBV 240000Z 08005KT CAVOK 30/22 Q1011","temp":30,"dewp":22,"wdir":80,"wspd":5,"visib":"6+","altim":1011,"clouds":[],"obsTime":1784851200},"SBGL":{"icaoId":"SBGL","flightCategory":"VFR","rawOb":"METAR SBGL 240000Z 23008KT 9999 SCT040 22/18 Q1018","temp":22,"dewp":18,"wdir":230,"wspd":8,"visib":"6+","altim":1018,"clouds":[{"cover":"SCT","base":4000}],"obsTime":1784851200},"SBSN":{"icaoId":"SBSN","flightCategory":"VFR","rawOb":"METAR SBSN 240000Z 11003KT CAVOK 27/25 Q1011","temp":27,"dewp":25,"wdir":110,"wspd":3,"visib":"6+","altim":1011,"clouds":[],"obsTime":1784851200},"SBGO":{"icaoId":"SBGO","flightCategory":"VFR","rawOb":"METAR SBGO 240000Z VRB02KT CAVOK 22/14 Q1017","temp":22,"dewp":14,"wdir":"VRB","wspd":2,"visib":"6+","altim":1017,"clouds":[],"obsTime":1784851200},"SBFI":{"icaoId":"SBFI","flightCategory":"VFR","rawOb":"METAR SBFI 240000Z 17004KT 9999 FEW040 17/16 Q1016","temp":17,"dewp":16,"wdir":170,"wspd":4,"visib":"6+","altim":1016,"clouds":[{"cover":"FEW","base":4000}],"obsTime":1784851200},"SBCZ":{"icaoId":"SBCZ","flightCategory":"VFR","rawOb":"METAR SBCZ 240000Z 09002KT 9999 FEW030TCU BKN100 25/24 Q1012","temp":25,"dewp":24,"wdir":90,"wspd":2,"visib":"6+","altim":1012,"clouds":[{"cover":"FEW","base":3000},{"cover":"BKN","base":10000}],"obsTime":1784851200},"SBCO":{"icaoId":"SBCO","flightCategory":"VFR","rawOb":"METAR SBCO 240000Z 11006KT 9999 FEW028 13/12 Q1021","temp":13,"dewp":12,"wdir":110,"wspd":6,"visib":"6+","altim":1021,"clouds":[{"cover":"FEW","base":2800}],"obsTime":1784851200},"SBAR":{"icaoId":"SBAR","flightCategory":"VFR","rawOb":"METAR SBAR 240000Z 11007KT 9999 FEW022 BKN100 25/21 Q1016","temp":25,"dewp":21,"wdir":110,"wspd":7,"visib":"6+","altim":1016,"clouds":[{"cover":"FEW","base":2200},{"cover":"BKN","base":10000}],"obsTime":1784851200},"SBSM":{"icaoId":"SBSM","flightCategory":"MVFR","rawOb":"METAR SBSM 240000Z 12003KT 090V170 9999 FEW016 BKN030 15/14 Q1020","temp":15,"dewp":14,"wdir":120,"wspd":3,"visib":"6+","altim":1020,"clouds":[{"cover":"FEW","base":1600},{"cover":"BKN","base":3000}],"obsTime":1784851200},"SBKG":{"icaoId":"SBKG","flightCategory":"IFR","rawOb":"METAR SBKG 240000Z 14005KT 5000 -RA BR BKN009 21/21 Q1018","temp":21,"dewp":21,"wdir":140,"wspd":5,"visib":3.11,"altim":1018,"clouds":[{"cover":"BKN","base":900}],"obsTime":1784851200},"SBBH":{"icaoId":"SBBH","flightCategory":"VFR","rawOb":"METAR SBBH 240000Z 00000KT CAVOK 19/15 Q1018","temp":19,"dewp":15,"wdir":0,"wspd":0,"visib":"6+","altim":1018,"clouds":[],"obsTime":1784851200},"SBBU":{"icaoId":"SBBU","flightCategory":"VFR","rawOb":"METAR SBBU 240000Z 17007KT CAVOK 20/16 Q1018","temp":20,"dewp":16,"wdir":170,"wspd":7,"visib":"6+","altim":1018,"clouds":[],"obsTime":1784851200},"SBDN":{"icaoId":"SBDN","flightCategory":"VFR","rawOb":"METAR SBDN 240000Z 11009KT CAVOK 19/15 Q1017","temp":19,"dewp":15,"wdir":110,"wspd":9,"visib":"6+","altim":1017,"clouds":[],"obsTime":1784851200},"SBIP":{"icaoId":"SBIP","flightCategory":"VFR","rawOb":"METAR SBIP 240100Z AUTO 20002KT CAVOK 17/17 Q1015","temp":17,"dewp":17,"wdir":200,"wspd":2,"visib":"6+","altim":1015,"clouds":[],"obsTime":1784854800},"SBSC":{"icaoId":"SBSC","flightCategory":"MVFR","rawOb":"METAR SBSC 240000Z 19008KT 9999 SCT010 BKN020 21/19 Q1018","temp":21,"dewp":19,"wdir":190,"wspd":8,"visib":"6+","altim":1018,"clouds":[{"cover":"SCT","base":1000},{"cover":"BKN","base":2000}],"obsTime":1784851200},"SBSR":{"icaoId":"SBSR","flightCategory":"VFR","rawOb":"METAR SBSR 240000Z 20004KT CAVOK 24/16 Q1016","temp":24,"dewp":16,"wdir":200,"wspd":4,"visib":"6+","altim":1016,"clouds":[],"obsTime":1784851200},"SBPS":{"icaoId":"SBPS","flightCategory":"VFR","rawOb":"METAR SBPS 240000Z 03006KT 9999 FEW020 22/21 Q1016","temp":22,"dewp":21,"wdir":30,"wspd":6,"visib":"6+","altim":1016,"clouds":[{"cover":"FEW","base":2000}],"obsTime":1784851200},"SBTU":{"icaoId":"SBTU","flightCategory":"VFR","rawOb":"METAR SBTU 240000Z AUTO 22003KT 9999 // NCD ///// Q1014","temp":null,"dewp":null,"wdir":220,"wspd":3,"visib":"6+","altim":1014,"clouds":[],"obsTime":1784851200},"SBSJ":{"icaoId":"SBSJ","flightCategory":"MVFR","rawOb":"METAR SBSJ 240000Z 19003KT 9999 BKN017 17/14 Q1020","temp":17,"dewp":14,"wdir":190,"wspd":3,"visib":"6+","altim":1020,"clouds":[{"cover":"BKN","base":1700}],"obsTime":1784851200},"SBOI":{"icaoId":"SBOI","flightCategory":"VFR","rawOb":"METAR SBOI 240000Z AUTO VRB02KT CAVOK 27/21 Q1014","temp":27,"dewp":21,"wdir":"VRB","wspd":2,"visib":"6+","altim":1014,"clouds":[],"obsTime":1784851200},"SBPL":{"icaoId":"SBPL","flightCategory":"VFR","rawOb":"METAR SBPL 240000Z 11006KT CAVOK 27/16 Q1016","temp":27,"dewp":16,"wdir":110,"wspd":6,"visib":"6+","altim":1016,"clouds":[],"obsTime":1784851200},"SBJP":{"icaoId":"SBJP","flightCategory":"MVFR","rawOb":"METAR SBJP 240000Z 08006KT 9999 BKN014 OVC070 25/24 Q1016","temp":25,"dewp":24,"wdir":80,"wspd":6,"visib":"6+","altim":1016,"clouds":[{"cover":"BKN","base":1400},{"cover":"OVC","base":7000}],"obsTime":1784851200},"SBNM":{"icaoId":"SBNM","flightCategory":"VFR","rawOb":"METAR SBNM 240000Z AUTO 10007KT CAVOK 13/12 Q1019","temp":13,"dewp":12,"wdir":100,"wspd":7,"visib":"6+","altim":1019,"clouds":[],"obsTime":1784851200},"SBPF":{"icaoId":"SBPF","flightCategory":"VFR","rawOb":"METAR SBPF 240000Z 15010KT CAVOK 13/11 Q1020","temp":13,"dewp":11,"wdir":150,"wspd":10,"visib":"6+","altim":1020,"clouds":[],"obsTime":1784851200},"SBAN":{"icaoId":"SBAN","flightCategory":"VFR","rawOb":"METAR SBAN 240000Z 18004KT CAVOK 21/20 Q1020","temp":21,"dewp":20,"wdir":180,"wspd":4,"visib":"6+","altim":1020,"clouds":[],"obsTime":1784851200},"SBLE":{"icaoId":"SBLE","flightCategory":"VFR","rawOb":"METAR SBLE 240000Z AUTO 31002KT CAVOK ///// Q1018","temp":null,"dewp":null,"wdir":310,"wspd":2,"visib":"6+","altim":1018,"clouds":[],"obsTime":1784851200},"SBLS":{"icaoId":"SBLS","flightCategory":"VFR","rawOb":"METAR SBLS 240000Z 05002KT CAVOK 22/10 Q1018","temp":22,"dewp":10,"wdir":50,"wspd":2,"visib":"6+","altim":1018,"clouds":[],"obsTime":1784851200},"SBMT":{"icaoId":"SBMT","flightCategory":"MVFR","rawOb":"METAR SBMT 240000Z 11008KT 9999 BKN013 15/11 Q1021","temp":15,"dewp":11,"wdir":110,"wspd":8,"visib":"6+","altim":1021,"clouds":[{"cover":"BKN","base":1300}],"obsTime":1784851200},"SBTA":{"icaoId":"SBTA","flightCategory":"MVFR","rawOb":"METAR SBTA 240000Z 18006KT 130V220 9999 FEW018 BKN030 BKN045 19/15 Q1019","temp":19,"dewp":15,"wdir":180,"wspd":6,"visib":"6+","altim":1019,"clouds":[{"cover":"FEW","base":1800},{"cover":"BKN","base":3000},{"cover":"BKN","base":4500}],"obsTime":1784851200},"SBJV":{"icaoId":"SBJV","flightCategory":"MVFR","rawOb":"METAR SBJV 240000Z 35003KT 9999 FEW020 BKN030 18/16 Q1021","temp":18,"dewp":16,"wdir":350,"wspd":3,"visib":"6+","altim":1021,"clouds":[{"cover":"FEW","base":2000},{"cover":"BKN","base":3000}],"obsTime":1784851200},"SBJR":{"icaoId":"SBJR","flightCategory":"VFR","rawOb":"METAR SBJR 240000Z 21005KT 9999 SCT018 BKN100 22/20 Q1018","temp":22,"dewp":20,"wdir":210,"wspd":5,"visib":"6+","altim":1018,"clouds":[{"cover":"SCT","base":1800},{"cover":"BKN","base":10000}],"obsTime":1784851200}}}