{"updated":1782248977,"count":85,"data":{"SBGR":{"icaoId":"SBGR","flightCategory":"IFR","rawOb":"SPECI SBGR 231915Z 12005KT 3000 -RA BR BKN017 BKN023 19/17 Q1016","temp":19,"dewp":17,"wdir":120,"wspd":5,"visib":1.86,"altim":1016,"clouds":[{"cover":"BKN","base":1700},{"cover":"BKN","base":2300}],"obsTime":1782242100},"SBCB":{"icaoId":"SBCB","flightCategory":"VFR","rawOb":"METAR SBCB 232000Z 25008KT CAVOK 24/20 Q1013","temp":24,"dewp":20,"wdir":250,"wspd":8,"visib":"6+","altim":1013,"clouds":[],"obsTime":1782244800},"SBCT":{"icaoId":"SBCT","flightCategory":"MVFR","rawOb":"METAR SBCT 232000Z 23004KT 190V320 9999 BKN011 BKN014 10/08 Q1017","temp":10,"dewp":8,"wdir":230,"wspd":4,"visib":"6+","altim":1017,"clouds":[{"cover":"BKN","base":1100},{"cover":"BKN","base":1400}],"obsTime":1782244800},"SBVT":{"icaoId":"SBVT","flightCategory":"VFR","rawOb":"METAR SBVT 232000Z 06011KT CAVOK 25/18 Q1013","temp":25,"dewp":18,"wdir":60,"wspd":11,"visib":"6+","altim":1013,"clouds":[],"obsTime":1782244800},"SBKP":{"icaoId":"SBKP","flightCategory":"MVFR","rawOb":"SPECI SBKP 231943Z 36006KT 9000 -RA VCSH BKN010 FEW030TCU SCT040 OVC100 19/17 Q1016","temp":19,"dewp":17,"wdir":360,"wspd":6,"visib":5.59,"altim":1016,"clouds":[{"cover":"BKN","base":1000},{"cover":"FEW","base":3000},{"cover":"SCT","base":4000},{"cover":"OVC","base":10000}],"obsTime":1782243780},"SBSN":{"icaoId":"SBSN","flightCategory":"VFR","rawOb":"METAR SBSN 232000Z 09008KT 9999 FEW023 FEW026TCU 31/24 Q1009","temp":31,"dewp":24,"wdir":90,"wspd":8,"visib":"6+","altim":1009,"clouds":[{"cover":"FEW","base":2300},{"cover":"FEW","base":2600}],"obsTime":1782244800},"SBSP":{"icaoId":"SBSP","flightCategory":"IFR","rawOb":"METAR SBSP 232000Z COR 19011KT 150V260 2500 RA BKN005 BKN012 15/14 Q1018","temp":15,"dewp":14,"wdir":190,"wspd":11,"visib":1.55,"altim":1018,"clouds":[{"cover":"BKN","base":500},{"cover":"BKN","base":1200}],"obsTime":1782244800},"SBCR":{"icaoId":"SBCR","flightCategory":"VFR","rawOb":"METAR SBCR 232000Z 21011KT 180V240 9999 SCT040 BKN070 15/09 Q1017","temp":15,"dewp":9,"wdir":210,"wspd":11,"visib":"6+","altim":1017,"clouds":[{"cover":"SCT","base":4000},{"cover":"BKN","base":7000}],"obsTime":1782244800},"SBCZ":{"icaoId":"SBCZ","flightCategory":"MVFR","rawOb":"METAR SBCZ 232000Z 28003KT 9999 BKN030 31/23 Q1010","temp":31,"dewp":23,"wdir":280,"wspd":3,"visib":"6+","altim":1010,"clouds":[{"cover":"BKN","base":3000}],"obsTime":1782244800},"SBLO":{"icaoId":"SBLO","flightCategory":"VFR","rawOb":"METAR SBLO 232000Z 23004KT 180V290 CAVOK 16/11 Q1016","temp":16,"dewp":11,"wdir":230,"wspd":4,"visib":"6+","altim":1016,"clouds":[],"obsTime":1782244800},"SBTE":{"icaoId":"SBTE","flightCategory":"VFR","rawOb":"METAR SBTE 232000Z 11003KT CAVOK 34/19 Q1009","temp":34,"dewp":19,"wdir":110,"wspd":3,"visib":"6+","altim":1009,"clouds":[],"obsTime":1782244800},"SBMA":{"icaoId":"SBMA","flightCategory":"VFR","rawOb":"METAR SBMA 232000Z 07004KT 9999 FEW023 FEW025TCU 34/20 Q1009","temp":34,"dewp":20,"wdir":70,"wspd":4,"visib":"6+","altim":1009,"clouds":[{"cover":"FEW","base":2300},{"cover":"FEW","base":2500}],"obsTime":1782244800},"SBEG":{"icaoId":"SBEG","flightCategory":"VFR","rawOb":"METAR SBEG 232000Z 12010KT 080V150 9999 VCSH SCT035 FEW040TCU 32/23 Q1009","temp":32,"dewp":23,"wdir":120,"wspd":10,"visib":"6+","altim":1009,"clouds":[{"cover":"SCT","base":3500},{"cover":"FEW","base":4000}],"obsTime":1782244800},"SBCF":{"icaoId":"SBCF","flightCategory":"VFR","rawOb":"METAR SBCF 232000Z 05005KT CAVOK 25/13 Q1017","temp":25,"dewp":13,"wdir":50,"wspd":5,"visib":"6+","altim":1017,"clouds":[],"obsTime":1782244800},"SBFI":{"icaoId":"SBFI","flightCategory":"VFR","rawOb":"METAR SBFI 232000Z 20007KT 9999 SCT030 13/06 Q1019","temp":13,"dewp":6,"wdir":200,"wspd":7,"visib":"6+","altim":1019,"clouds":[{"cover":"SCT","base":3000}],"obsTime":1782244800},"SBCG":{"icaoId":"SBCG","flightCategory":"MVFR","rawOb":"METAR SBCG 232000Z 16008KT 9999 BKN023 OVC028 12/09 Q1017","temp":12,"dewp":9,"wdir":160,"wspd":8,"visib":"6+","altim":1017,"clouds":[{"cover":"BKN","base":2300},{"cover":"OVC","base":2800}],"obsTime":1782244800},"SBMO":{"icaoId":"SBMO","flightCategory":"VFR","rawOb":"METAR SBMO 232000Z 14008KT 9000 4000E -SHRA FEW010 SCT020 BKN070 24/23 Q1014","temp":24,"dewp":23,"wdir":140,"wspd":8,"visib":5.59,"altim":1014,"clouds":[{"cover":"FEW","base":1000},{"cover":"SCT","base":2000},{"cover":"BKN","base":7000}],"obsTime":1782244800},"SBMQ":{"icaoId":"SBMQ","flightCategory":"VFR","rawOb":"METAR SBMQ 232000Z 05014KT 9999 SCT030 FEW040TCU BKN100 31/25 Q1009","temp":31,"dewp":25,"wdir":50,"wspd":14,"visib":"6+","altim":1009,"clouds":[{"cover":"SCT","base":3000},{"cover":"FEW","base":4000},{"cover":"BKN","base":10000}],"obsTime":1782244800},"SBFL":{"icaoId":"SBFL","flightCategory":"MVFR","rawOb":"METAR SBFL 232000Z 13004KT 9999 BKN030 BKN050 15/08 Q1017","temp":15,"dewp":8,"wdir":130,"wspd":4,"visib":"6+","altim":1017,"clouds":[{"cover":"BKN","base":3000},{"cover":"BKN","base":5000}],"obsTime":1782244800},"SBFZ":{"icaoId":"SBFZ","flightCategory":"VFR","rawOb":"METAR SBFZ 232000Z 09010KT 9999 FEW023 29/23 Q1010","temp":29,"dewp":23,"wdir":90,"wspd":10,"visib":"6+","altim":1010,"clouds":[{"cover":"FEW","base":2300}],"obsTime":1782244800},"SBNT":{"icaoId":"SBNT","flightCategory":"VFR","rawOb":"METAR SBNT 232000Z 15013KT 9999 VCSH FEW022 27/23 Q1012","temp":27,"dewp":23,"wdir":150,"wspd":13,"visib":"6+","altim":1012,"clouds":[{"cover":"FEW","base":2200}],"obsTime":1782244800},"SBBR":{"icaoId":"SBBR","flightCategory":"VFR","rawOb":"METAR SBBR 232000Z 07002KT CAVOK 26/13 Q1018","temp":26,"dewp":13,"wdir":70,"wspd":2,"visib":"6+","altim":1018,"clouds":[],"obsTime":1782244800},"SBPA":{"icaoId":"SBPA","flightCategory":"VFR","rawOb":"METAR SBPA 232000Z 28011KT 9999 SCT045 12/04 Q1018","temp":12,"dewp":4,"wdir":280,"wspd":11,"visib":"6+","altim":1018,"clouds":[{"cover":"SCT","base":4500}],"obsTime":1782244800},"SBGL":{"icaoId":"SBGL","flightCategory":"VFR","rawOb":"METAR SBGL 232000Z 24009KT CAVOK 24/19 Q1013","temp":24,"dewp":19,"wdir":240,"wspd":9,"visib":"6+","altim":1013,"clouds":[],"obsTime":1782244800},"SBPJ":{"icaoId":"SBPJ","flightCategory":"VFR","rawOb":"METAR SBPJ 232000Z 27005KT CAVOK 34/15 Q1011","temp":34,"dewp":15,"wdir":270,"wspd":5,"visib":"6+","altim":1011,"clouds":[],"obsTime":1782244800},"SBBE":{"icaoId":"SBBE","flightCategory":"IFR","rawOb":"SPECI SBBE 231928Z 02013G27KT 4000 1000NE R07/0500N +RA SCT034 BKN040 FEW041TCU 27/26 Q1009 RESHRA","temp":27,"dewp":26,"wdir":20,"wspd":13,"visib":2.49,"altim":1009,"clouds":[{"cover":"SCT","base":3400},{"cover":"BKN","base":4000},{"cover":"FEW","base":4100}],"obsTime":1782242880},"SBPV":{"icaoId":"SBPV","flightCategory":"VFR","rawOb":"METAR SBPV 232000Z 01004KT 9999 SCT030 FEW035TCU 32/21 Q1009","temp":32,"dewp":21,"wdir":10,"wspd":4,"visib":"6+","altim":1009,"clouds":[{"cover":"SCT","base":3000},{"cover":"FEW","base":3500}],"obsTime":1782244800},"SBCP":{"icaoId":"SBCP","flightCategory":"VFR","rawOb":"METAR SBCP 232000Z 35005KT CAVOK 28/16 Q1012","temp":28,"dewp":16,"wdir":350,"wspd":5,"visib":"6+","altim":1012,"clouds":[],"obsTime":1782244800},"SBRB":{"icaoId":"SBRB","flightCategory":"VFR","rawOb":"METAR SBRB 232000Z 31002KT 9999 SCT040 33/23 Q1009","temp":33,"dewp":23,"wdir":310,"wspd":2,"visib":"6+","altim":1009,"clouds":[{"cover":"SCT","base":4000}],"obsTime":1782244800},"SBGO":{"icaoId":"SBGO","flightCategory":"VFR","rawOb":"METAR SBGO 232000Z 31005KT 280V340 CAVOK 29/16 Q1015","temp":29,"dewp":16,"wdir":310,"wspd":5,"visib":"6+","altim":1015,"clouds":[],"obsTime":1782244800},"SBRF":{"icaoId":"SBRF","flightCategory":"VFR","rawOb":"METAR SBRF 232000Z 14010KT 9999 SCT022 BKN050 27/22 Q1013","temp":27,"dewp":22,"wdir":140,"wspd":10,"visib":"6+","altim":1013,"clouds":[{"cover":"SCT","base":2200},{"cover":"BKN","base":5000}],"obsTime":1782244800},"SBBV":{"icaoId":"SBBV","flightCategory":"MVFR","rawOb":"METAR SBBV 232000Z 09010KT 8000 BKN030 FEW035TCU BKN070 28/24 Q1009","temp":28,"dewp":24,"wdir":90,"wspd":10,"visib":4.97,"altim":1009,"clouds":[{"cover":"BKN","base":3000},{"cover":"FEW","base":3500},{"cover":"BKN","base":7000}],"obsTime":1782244800},"SBSG":{"icaoId":"SBSG","flightCategory":"MVFR","rawOb":"METAR SBSG 232000Z 14008KT 100V180 9999 VCSH BKN025 FEW030TCU 26/22 Q1012","temp":26,"dewp":22,"wdir":140,"wspd":8,"visib":"6+","altim":1012,"clouds":[{"cover":"BKN","base":2500},{"cover":"FEW","base":3000}],"obsTime":1782244800},"SBSV":{"icaoId":"SBSV","flightCategory":"VFR","rawOb":"METAR SBSV 232000Z 09007KT 9999 FEW030 SCT050 26/20 Q1015","temp":26,"dewp":20,"wdir":90,"wspd":7,"visib":"6+","altim":1015,"clouds":[{"cover":"FEW","base":3000},{"cover":"SCT","base":5000}],"obsTime":1782244800},"SBSL":{"icaoId":"SBSL","flightCategory":"VFR","rawOb":"METAR SBSL 232000Z 07011KT 9999 SCT025 FEW030TCU 29/24 Q1010","temp":29,"dewp":24,"wdir":70,"wspd":11,"visib":"6+","altim":1010,"clouds":[{"cover":"SCT","base":2500},{"cover":"FEW","base":3000}],"obsTime":1782244800},"SBHT":{"icaoId":"SBHT","flightCategory":"VFR","rawOb":"METAR SBHT 232000Z 15005KT 9999 SCT030 32/24 Q1009","temp":32,"dewp":24,"wdir":150,"wspd":5,"visib":"6+","altim":1009,"clouds":[{"cover":"SCT","base":3000}],"obsTime":1782244800},"SBIL":{"icaoId":"SBIL","flightCategory":"VFR","rawOb":"METAR SBIL 232000Z 14008KT 9999 FEW025 SCT080 27/21 Q1015","temp":27,"dewp":21,"wdir":140,"wspd":8,"visib":"6+","altim":1015,"clouds":[{"cover":"FEW","base":2500},{"cover":"SCT","base":8000}],"obsTime":1782244800},"SBJU":{"icaoId":"SBJU","flightCategory":"VFR","rawOb":"METAR SBJU 232000Z 15007KT 9999 SCT022 31/17 Q1013","temp":31,"dewp":17,"wdir":150,"wspd":7,"visib":"6+","altim":1013,"clouds":[{"cover":"SCT","base":2200}],"obsTime":1782244800},"SBME":{"icaoId":"SBME","flightCategory":"VFR","rawOb":"METAR SBME 232000Z 19007KT 140V210 CAVOK 25/21 Q1013","temp":25,"dewp":21,"wdir":190,"wspd":7,"visib":"6+","altim":1013,"clouds":[],"obsTime":1782244800},"SBMG":{"icaoId":"SBMG","flightCategory":"VFR","rawOb":"METAR SBMG 232000Z 30005KT 9999 FEW030 BKN100 12/10 Q1016","temp":12,"dewp":10,"wdir":300,"wspd":5,"visib":"6+","altim":1016,"clouds":[{"cover":"FEW","base":3000},{"cover":"BKN","base":10000}],"obsTime":1782244800},"SBMK":{"icaoId":"SBMK","flightCategory":"VFR","rawOb":"METAR SBMK 232000Z 12004KT CAVOK 27/12 Q1016","temp":27,"dewp":12,"wdir":120,"wspd":4,"visib":"6+","altim":1016,"clouds":[],"obsTime":1782244800},"SBAT":{"icaoId":"SBAT","flightCategory":"VFR","rawOb":"METAR SBAT 232000Z 01001KT 9999 VCSH FEW035 FEW040TCU 31/22 Q1010","temp":31,"dewp":22,"wdir":10,"wspd":1,"visib":"6+","altim":1010,"clouds":[{"cover":"FEW","base":3500},{"cover":"FEW","base":4000}],"obsTime":1782244800},"SBUL":{"icaoId":"SBUL","flightCategory":"VFR","rawOb":" SBUL 232000Z 01005KT 290V050 9999 VCSH SCT045 FEW050TCU BKN100 25/15 Q1017","temp":25,"dewp":15,"wdir":10,"wspd":5,"visib":"6+","altim":1017,"clouds":[{"cover":"SCT","base":4500},{"cover":"FEW","base":5000},{"cover":"BKN","base":10000}],"obsTime":1782244800},"SBUR":{"icaoId":"SBUR","flightCategory":"VFR","rawOb":"METAR SBUR 232000Z 20010KT 9999 SCT007 BKN100 20/17 Q1017","temp":20,"dewp":17,"wdir":200,"wspd":10,"visib":"6+","altim":1017,"clouds":[{"cover":"SCT","base":700},{"cover":"BKN","base":10000}],"obsTime":1782244800},"SBSJ":{"icaoId":"SBSJ","flightCategory":"MVFR","rawOb":"METAR SBSJ 232000Z 18001KT 6000 FEW025 OVC100 18/17 Q1015","temp":18,"dewp":17,"wdir":180,"wspd":1,"visib":3.73,"altim":1015,"clouds":[{"cover":"FEW","base":2500},{"cover":"OVC","base":10000}],"obsTime":1782244800},"SBCJ":{"icaoId":"SBCJ","flightCategory":"VFR","rawOb":"METAR SBCJ 232000Z 00000KT 9999 FEW020 29/19 Q1015","temp":29,"dewp":19,"wdir":0,"wspd":0,"visib":"6+","altim":1015,"clouds":[{"cover":"FEW","base":2000}],"obsTime":1782244800},"SBOI":{"icaoId":"SBOI","flightCategory":"VFR","rawOb":"METAR SBOI 232000Z AUTO 13004KT 080V160 9999 FEW033 30/24 Q1010","temp":30,"dewp":24,"wdir":130,"wspd":4,"visib":"6+","altim":1010,"clouds":[{"cover":"FEW","base":3300}],"obsTime":1782244800},"SBPP":{"icaoId":"SBPP","flightCategory":"VFR","rawOb":"METAR SBPP 232000Z 23008KT CAVOK 11/04 Q1019","temp":11,"dewp":4,"wdir":230,"wspd":8,"visib":"6+","altim":1019,"clouds":[],"obsTime":1782244800},"SBTF":{"icaoId":"SBTF","flightCategory":"VFR","rawOb":"METAR SBTF 232000Z 18008KT 9999 SCT018 FEW025TCU 28/25 Q1009","temp":28,"dewp":25,"wdir":180,"wspd":8,"visib":"6+","altim":1009,"clouds":[{"cover":"SCT","base":1800},{"cover":"FEW","base":2500}],"obsTime":1782244800},"SBPS":{"icaoId":"SBPS","flightCategory":"VFR","rawOb":"METAR SBPS 232000Z 09006KT 060V130 9999 FEW020 SCT070 25/21 Q1015","temp":25,"dewp":21,"wdir":90,"wspd":6,"visib":"6+","altim":1015,"clouds":[{"cover":"FEW","base":2000},{"cover":"SCT","base":7000}],"obsTime":1782244800},"SBTT":{"icaoId":"SBTT","flightCategory":"MVFR","rawOb":"METAR SBTT 232000Z 35007KT 9999 BKN015 FEW025TCU SCT100 30/24 Q1010","temp":30,"dewp":24,"wdir":350,"wspd":7,"visib":"6+","altim":1010,"clouds":[{"cover":"BKN","base":1500},{"cover":"FEW","base":2500},{"cover":"SCT","base":10000}],"obsTime":1782244800},"SBAR":{"icaoId":"SBAR","flightCategory":"VFR","rawOb":"METAR SBAR 232000Z 14005KT 9999 VCSH SCT030 OVC040 25/22 Q1014","temp":25,"dewp":22,"wdir":140,"wspd":5,"visib":"6+","altim":1014,"clouds":[{"cover":"SCT","base":3000},{"cover":"OVC","base":4000}],"obsTime":1782244800},"SBUY":{"icaoId":"SBUY","flightCategory":"VFR","rawOb":"METAR SBUY 232000Z 18003KT 9999 FEW020 FEW030TCU SCT100 25/24 Q1009","temp":25,"dewp":24,"wdir":180,"wspd":3,"visib":"6+","altim":1009,"clouds":[{"cover":"FEW","base":2000},{"cover":"FEW","base":3000},{"cover":"SCT","base":10000}],"obsTime":1782244800},"SBPB":{"icaoId":"SBPB","flightCategory":"VFR","rawOb":"METAR SBPB 232000Z 06010KT 9999 FEW020 29/25 Q1010","temp":29,"dewp":25,"wdir":60,"wspd":10,"visib":"6+","altim":1010,"clouds":[{"cover":"FEW","base":2000}],"obsTime":1782244800},"SBPL":{"icaoId":"SBPL","flightCategory":"VFR","rawOb":"METAR SBPL 232000Z 10008KT CAVOK 32/12 Q1013","temp":32,"dewp":12,"wdir":100,"wspd":8,"visib":"6+","altim":1013,"clouds":[],"obsTime":1782244800},"SBIP":{"icaoId":"SBIP","flightCategory":"VFR","rawOb":"METAR SBIP 232000Z AUTO VRB02KT CAVOK 23/17 Q1015","temp":23,"dewp":17,"wdir":"VRB","wspd":2,"visib":"6+","altim":1015,"clouds":[],"obsTime":1782244800},"SBKG":{"icaoId":"SBKG","flightCategory":"VFR","rawOb":"METAR SBKG 232000Z 14008KT 9999 -RA SCT008 SCT080 22/21 Q1016","temp":22,"dewp":21,"wdir":140,"wspd":8,"visib":"6+","altim":1016,"clouds":[{"cover":"SCT","base":800},{"cover":"SCT","base":8000}],"obsTime":1782244800},"SBSC":{"icaoId":"SBSC","flightCategory":"MVFR","rawOb":"METAR SBSC 232000Z 20010KT 9999 BKN012 BKN020 22/19 Q1014","temp":22,"dewp":19,"wdir":200,"wspd":10,"visib":"6+","altim":1014,"clouds":[{"cover":"BKN","base":1200},{"cover":"BKN","base":2000}],"obsTime":1782244800},"SBSM":{"icaoId":"SBSM","flightCategory":"VFR","rawOb":"METAR SBSM 232000Z 26007KT 9999 SCT045 12/03 Q1019","temp":12,"dewp":3,"wdir":260,"wspd":7,"visib":"6+","altim":1019,"clouds":[{"cover":"SCT","base":4500}],"obsTime":1782244800},"SBSR":{"icaoId":"SBSR","flightCategory":"LIFR","rawOb":"METAR SBSR 232000Z 25013KT 1500 -DZ BR BKN005 FEW035TCU OVC040 18/18 Q1016","temp":18,"dewp":18,"wdir":250,"wspd":13,"visib":0.93,"altim":1016,"clouds":[{"cover":"BKN","base":500},{"cover":"FEW","base":3500},{"cover":"OVC","base":4000}],"obsTime":1782244800},"SBTU":{"icaoId":"SBTU","flightCategory":"VFR","rawOb":"METAR SBTU 232000Z AUTO 03004KT 9999 // FEW059/// 31/23 Q1011","temp":31,"dewp":23,"wdir":30,"wspd":4,"visib":"6+","altim":1011,"clouds":[{"cover":"FEW","base":5900}],"obsTime":1782244800},"SBVH":{"icaoId":"SBVH","flightCategory":"VFR","rawOb":"METAR SBVH 232000Z 22007KT 9999 FEW030 25/21 Q1014","temp":25,"dewp":21,"wdir":220,"wspd":7,"visib":"6+","altim":1014,"clouds":[{"cover":"FEW","base":3000}],"obsTime":1782244800},"SBAX":{"icaoId":"SBAX","flightCategory":"VFR","rawOb":"METAR SBAX 232000Z 35004KT 9999 SCT030 25/15 Q1017","temp":25,"dewp":15,"wdir":350,"wspd":4,"visib":"6+","altim":1017,"clouds":[{"cover":"SCT","base":3000}],"obsTime":1782244800},"SBBH":{"icaoId":"SBBH","flightCategory":"VFR","rawOb":"METAR SBBH 232000Z 00000KT CAVOK 25/14 Q1017","temp":25,"dewp":14,"wdir":0,"wspd":0,"visib":"6+","altim":1017,"clouds":[],"obsTime":1782244800},"SBBQ":{"icaoId":"SBBQ","flightCategory":"VFR","rawOb":"METAR SBBQ 232000Z 26003KT 9999 SCT035 23/13 Q1020","temp":23,"dewp":13,"wdir":260,"wspd":3,"visib":"6+","altim":1020,"clouds":[{"cover":"SCT","base":3500}],"obsTime":1782244800},"SBBU":{"icaoId":"SBBU","flightCategory":"LIFR","rawOb":"METAR SBBU 232000Z 28007KT 5000 BR BKN003 BKN020 OVC070 19/19 Q1016","temp":19,"dewp":19,"wdir":280,"wspd":7,"visib":3.11,"altim":1016,"clouds":[{"cover":"BKN","base":300},{"cover":"BKN","base":2000},{"cover":"OVC","base":7000}],"obsTime":1782244800},"SBCA":{"icaoId":"SBCA","flightCategory":"VFR","rawOb":"METAR SBCA 232000Z 18008KT 9999 FEW015 10/05 Q1019","temp":10,"dewp":5,"wdir":180,"wspd":8,"visib":"6+","altim":1019,"clouds":[{"cover":"FEW","base":1500}],"obsTime":1782244800},"SBCC":{"icaoId":"SBCC","flightCategory":"VFR","rawOb":"METAR SBCC 232000Z 12003KT 9999 BKN040 30/19 Q1012","temp":30,"dewp":19,"wdir":120,"wspd":3,"visib":"6+","altim":1012,"clouds":[{"cover":"BKN","base":4000}],"obsTime":1782244800},"SBCO":{"icaoId":"SBCO","flightCategory":"VFR","rawOb":"METAR SBCO 232000Z 28007KT 9999 FEW045 12/04 Q1018","temp":12,"dewp":4,"wdir":280,"wspd":7,"visib":"6+","altim":1018,"clouds":[{"cover":"FEW","base":4500}],"obsTime":1782244800},"SBDN":{"icaoId":"SBDN","flightCategory":"VFR","rawOb":"METAR SBDN 232000Z 23007KT 9999 SCT030 OVC060 15/10 Q1017","temp":15,"dewp":10,"wdir":230,"wspd":7,"visib":"6+","altim":1017,"clouds":[{"cover":"SCT","base":3000},{"cover":"OVC","base":6000}],"obsTime":1782244800},"SBES":{"icaoId":"SBES","flightCategory":"VFR","rawOb":"METAR SBES 232000Z 23009KT CAVOK 23/// Q1013","temp":null,"dewp":null,"wdir":230,"wspd":9,"visib":"6+","altim":1013,"clouds":[],"obsTime":1782244800},"SBJP":{"icaoId":"SBJP","flightCategory":"VFR","rawOb":"METAR SBJP 232000Z 14004KT 9999 FEW025 SCT040 BKN070 25/24 Q1013","temp":25,"dewp":24,"wdir":140,"wspd":4,"visib":"6+","altim":1013,"clouds":[{"cover":"FEW","base":2500},{"cover":"SCT","base":4000},{"cover":"BKN","base":7000}],"obsTime":1782244800},"SBMT":{"icaoId":"SBMT","flightCategory":"IFR","rawOb":"METAR SBMT 232000Z 16005KT 2000 RA BR BKN008 OVC011 16/15 Q1017 RERA","temp":16,"dewp":15,"wdir":160,"wspd":5,"visib":1.24,"altim":1017,"clouds":[{"cover":"BKN","base":800},{"cover":"OVC","base":1100}],"obsTime":1782244800},"SBLE":{"icaoId":"SBLE","flightCategory":"VFR","rawOb":"METAR SBLE 232000Z AUTO 17001KT CAVOK 27/16 Q1016","temp":27,"dewp":16,"wdir":170,"wspd":1,"visib":"6+","altim":1016,"clouds":[],"obsTime":1782244800},"SBGW":{"icaoId":"SBGW","flightCategory":"VFR","rawOb":"METAR SBGW 232000Z 01005KT 340V050 9000 -RA FEW040 BKN100 23/13 Q1015","temp":23,"dewp":13,"wdir":10,"wspd":5,"visib":5.59,"altim":1015,"clouds":[{"cover":"FEW","base":4000},{"cover":"BKN","base":10000}],"obsTime":1782244800},"SBJR":{"icaoId":"SBJR","flightCategory":"MVFR","rawOb":"METAR SBJR 232000Z 22006KT 9999 BKN015 23/20 Q1014","temp":23,"dewp":20,"wdir":220,"wspd":6,"visib":"6+","altim":1014,"clouds":[{"cover":"BKN","base":1500}],"obsTime":1782244800},"SBLS":{"icaoId":"SBLS","flightCategory":"VFR","rawOb":"METAR SBLS 232000Z VRB02KT CAVOK 25/13 Q1017","temp":25,"dewp":13,"wdir":"VRB","wspd":2,"visib":"6+","altim":1017,"clouds":[],"obsTime":1782244800},"SBST":{"icaoId":"SBST","flightCategory":"IFR","rawOb":"METAR SBST 232000Z 25006KT 2000 -RA BR OVC007 17/17 Q1016 RERA","temp":17,"dewp":17,"wdir":250,"wspd":6,"visib":1.24,"altim":1016,"clouds":[{"cover":"OVC","base":700}],"obsTime":1782244800},"SBTA":{"icaoId":"SBTA","flightCategory":"MVFR","rawOb":"METAR SBTA 232000Z 24002KT 8000 FEW020 SCT040 BKN090 19/17 Q1014","temp":19,"dewp":17,"wdir":240,"wspd":2,"visib":4.97,"altim":1014,"clouds":[{"cover":"FEW","base":2000},{"cover":"SCT","base":4000},{"cover":"BKN","base":9000}],"obsTime":1782244800},"SBAF":{"icaoId":"SBAF","flightCategory":"VFR","rawOb":" SBAF 232000Z 18012KT 9999 FEW030 SCT050 23/22 Q1014","temp":23,"dewp":22,"wdir":180,"wspd":12,"visib":"6+","altim":1014,"clouds":[{"cover":"FEW","base":3000},{"cover":"SCT","base":5000}],"obsTime":1782244800},"SBJV":{"icaoId":"SBJV","flightCategory":"MVFR","rawOb":"METAR SBJV 232000Z 16004KT 130V200 9999 SCT013 BKN030 14/09 Q1017","temp":14,"dewp":9,"wdir":160,"wspd":4,"visib":"6+","altim":1017,"clouds":[{"cover":"SCT","base":1300},{"cover":"BKN","base":3000}],"obsTime":1782244800},"SBNM":{"icaoId":"SBNM","flightCategory":"VFR","rawOb":"METAR SBNM 232000Z AUTO 27006KT CAVOK 10/03 Q1020","temp":10,"dewp":3,"wdir":270,"wspd":6,"visib":"6+","altim":1020,"clouds":[],"obsTime":1782244800},"SBPF":{"icaoId":"SBPF","flightCategory":"VFR","rawOb":"METAR SBPF 232000Z 26006KT 9999 FEW025 08/02 Q1019","temp":8,"dewp":2,"wdir":260,"wspd":6,"visib":"6+","altim":1019,"clouds":[{"cover":"FEW","base":2500}],"obsTime":1782244800},"SBIH":{"icaoId":"SBIH","flightCategory":"VFR","rawOb":"METAR SBIH 232000Z 19006KT 9999 FEW020 FEW025TCU 32/24 Q1008","temp":32,"dewp":24,"wdir":190,"wspd":6,"visib":"6+","altim":1008,"clouds":[{"cover":"FEW","base":2000},{"cover":"FEW","base":2500}],"obsTime":1782244800},"SBAN":{"icaoId":"SBAN","flightCategory":"VFR","rawOb":"METAR SBAN 232000Z 33005KT 9999 FEW030 26/14 Q1018","temp":26,"dewp":14,"wdir":330,"wspd":5,"visib":"6+","altim":1018,"clouds":[{"cover":"FEW","base":3000}],"obsTime":1782244800}}}