{"updated":1774700814,"count":85,"data":{"SBGR":{"icaoId":"SBGR","flightCategory":"IFR","rawOb":"METAR SBGR 281100Z 06009KT 9999 BKN007 20/19 Q1023","temp":20,"dewp":19,"wdir":60,"wspd":9,"visib":"6+","altim":1023,"clouds":[{"cover":"BKN","base":700}],"obsTime":1774695600},"SBEG":{"icaoId":"SBEG","flightCategory":"VFR","rawOb":"METAR SBEG 281100Z 06002KT 9999 FEW011 BKN100 24/24 Q1011","temp":24,"dewp":24,"wdir":60,"wspd":2,"visib":"6+","altim":1011,"clouds":[{"cover":"FEW","base":1100},{"cover":"BKN","base":10000}],"obsTime":1774695600},"SBMG":{"icaoId":"SBMG","flightCategory":"VFR","rawOb":"METAR SBMG 281100Z 10012KT CAVOK 24/18 Q1019","temp":24,"dewp":18,"wdir":100,"wspd":12,"visib":"6+","altim":1019,"clouds":[],"obsTime":1774695600},"SBFL":{"icaoId":"SBFL","flightCategory":"VFR","rawOb":"METAR SBFL 281100Z 33012KT 9999 FEW015 27/24 Q1018","temp":27,"dewp":24,"wdir":330,"wspd":12,"visib":"6+","altim":1018,"clouds":[{"cover":"FEW","base":1500}],"obsTime":1774695600},"SBMK":{"icaoId":"SBMK","flightCategory":"MVFR","rawOb":"METAR SBMK 281100Z 16006KT 9999 BKN025 23/18 Q1019","temp":23,"dewp":18,"wdir":160,"wspd":6,"visib":"6+","altim":1019,"clouds":[{"cover":"BKN","base":2500}],"obsTime":1774695600},"SBMO":{"icaoId":"SBMO","flightCategory":"MVFR","rawOb":"METAR SBMO 281100Z 35002KT 6000 -RA SCT010 SCT025 BKN070 26/24 Q1013","temp":26,"dewp":24,"wdir":350,"wspd":2,"visib":3.73,"altim":1013,"clouds":[{"cover":"SCT","base":1000},{"cover":"SCT","base":2500},{"cover":"BKN","base":7000}],"obsTime":1774695600},"SBBV":{"icaoId":"SBBV","flightCategory":"VFR","rawOb":"METAR SBBV 281100Z 06002KT 9999 SCT030 FEW035TCU SCT100 25/24 Q1012","temp":25,"dewp":24,"wdir":60,"wspd":2,"visib":"6+","altim":1012,"clouds":[{"cover":"SCT","base":3000},{"cover":"FEW","base":3500},{"cover":"SCT","base":10000}],"obsTime":1774695600},"SBFZ":{"icaoId":"SBFZ","flightCategory":"MVFR","rawOb":"METAR SBFZ 281100Z 16010KT 9999 VCSH FEW009 BKN015 FEW025TCU 26/25 Q1011","temp":26,"dewp":25,"wdir":160,"wspd":10,"visib":"6+","altim":1011,"clouds":[{"cover":"FEW","base":900},{"cover":"BKN","base":1500},{"cover":"FEW","base":2500}],"obsTime":1774695600},"SBMQ":{"icaoId":"SBMQ","flightCategory":"MVFR","rawOb":"METAR SBMQ 281100Z 34003KT 9999 FEW005 BKN025 26/26 Q1011","temp":26,"dewp":26,"wdir":340,"wspd":3,"visib":"6+","altim":1011,"clouds":[{"cover":"FEW","base":500},{"cover":"BKN","base":2500}],"obsTime":1774695600},"SBNT":{"icaoId":"SBNT","flightCategory":"VFR","rawOb":"METAR SBNT 281100Z 12009KT 090V150 9999 FEW025 29/22 Q1011","temp":29,"dewp":22,"wdir":120,"wspd":9,"visib":"6+","altim":1011,"clouds":[{"cover":"FEW","base":2500}],"obsTime":1774695600},"SBCB":{"icaoId":"SBCB","flightCategory":"VFR","rawOb":"METAR SBCB 281100Z 04002KT 9999 FEW020 26/23 Q1020","temp":26,"dewp":23,"wdir":40,"wspd":2,"visib":"6+","altim":1020,"clouds":[{"cover":"FEW","base":2000}],"obsTime":1774695600},"SBCP":{"icaoId":"SBCP","flightCategory":"VFR","rawOb":"METAR SBCP 281100Z 20004KT 9999 SCT015 BKN090 26/24 Q1019","temp":26,"dewp":24,"wdir":200,"wspd":4,"visib":"6+","altim":1019,"clouds":[{"cover":"SCT","base":1500},{"cover":"BKN","base":9000}],"obsTime":1774695600},"SBPA":{"icaoId":"SBPA","flightCategory":"VFR","rawOb":"METAR SBPA 281100Z 05003KT 020V090 9000 FEW005 25/23 Q1017","temp":25,"dewp":23,"wdir":50,"wspd":3,"visib":5.59,"altim":1017,"clouds":[{"cover":"FEW","base":500}],"obsTime":1774695600},"SBGL":{"icaoId":"SBGL","flightCategory":"VFR","rawOb":"METAR SBGL 281100Z 01002KT 9999 FEW013 27/23 Q1019","temp":27,"dewp":23,"wdir":10,"wspd":2,"visib":"6+","altim":1019,"clouds":[{"cover":"FEW","base":1300}],"obsTime":1774695600},"SBPJ":{"icaoId":"SBPJ","flightCategory":"VFR","rawOb":"METAR SBPJ 281100Z 18004KT 150V220 CAVOK 28/22 Q1013","temp":28,"dewp":22,"wdir":180,"wspd":4,"visib":"6+","altim":1013,"clouds":[],"obsTime":1774695600},"SBAT":{"icaoId":"SBAT","flightCategory":"MVFR","rawOb":"METAR SBAT 281200Z 16005KT 9999 BKN015 BKN090 23/22 Q1013","temp":23,"dewp":22,"wdir":160,"wspd":5,"visib":"6+","altim":1013,"clouds":[{"cover":"BKN","base":1500},{"cover":"BKN","base":9000}],"obsTime":1774699200},"SBPV":{"icaoId":"SBPV","flightCategory":"LIFR","rawOb":"SPECI SBPV 281041Z 12002KT 9999 BKN003 24/23 Q1010","temp":24,"dewp":23,"wdir":120,"wspd":2,"visib":"6+","altim":1010,"clouds":[{"cover":"BKN","base":300}],"obsTime":1774694460},"SBBR":{"icaoId":"SBBR","flightCategory":"VFR","rawOb":"METAR SBBR 281100Z 11012KT 9999 FEW013 20/17 Q1021","temp":20,"dewp":17,"wdir":110,"wspd":12,"visib":"6+","altim":1021,"clouds":[{"cover":"FEW","base":1300}],"obsTime":1774695600},"SBGO":{"icaoId":"SBGO","flightCategory":"VFR","rawOb":"METAR SBGO 281100Z 11006KT CAVOK 22/19 Q1020","temp":22,"dewp":19,"wdir":110,"wspd":6,"visib":"6+","altim":1020,"clouds":[],"obsTime":1774695600},"SBRB":{"icaoId":"SBRB","flightCategory":"VFR","rawOb":"METAR SBRB 281100Z 00000KT 9999 FEW005 BKN100 24/24 Q1011","temp":24,"dewp":24,"wdir":0,"wspd":0,"visib":"6+","altim":1011,"clouds":[{"cover":"FEW","base":500},{"cover":"BKN","base":10000}],"obsTime":1774695600},"SBVT":{"icaoId":"SBVT","flightCategory":"MVFR","rawOb":"SPECI SBVT 281042Z 28007KT 8000 VCSH SCT012 BKN040 22/22 Q1019 RERA","temp":22,"dewp":22,"wdir":280,"wspd":7,"visib":4.97,"altim":1019,"clouds":[{"cover":"SCT","base":1200},{"cover":"BKN","base":4000}],"obsTime":1774694520},"SBCG":{"icaoId":"SBCG","flightCategory":"VFR","rawOb":"METAR SBCG 281100Z 10003KT CAVOK 25/20 Q1017","temp":25,"dewp":20,"wdir":100,"wspd":3,"visib":"6+","altim":1017,"clouds":[],"obsTime":1774695600},"SBFI":{"icaoId":"SBFI","flightCategory":"VFR","rawOb":"METAR SBFI 281100Z 08004KT CAVOK 26/23 Q1016","temp":26,"dewp":23,"wdir":80,"wspd":4,"visib":"6+","altim":1016,"clouds":[],"obsTime":1774695600},"SBLO":{"icaoId":"SBLO","flightCategory":"VFR","rawOb":"METAR SBLO 281100Z 13006KT CAVOK 23/18 Q1020","temp":23,"dewp":18,"wdir":130,"wspd":6,"visib":"6+","altim":1020,"clouds":[],"obsTime":1774695600},"SBMA":{"icaoId":"SBMA","flightCategory":"VFR","rawOb":"METAR SBMA 281100Z 26004KT 9999 SCT010 BKN100 26/25 Q1012","temp":26,"dewp":25,"wdir":260,"wspd":4,"visib":"6+","altim":1012,"clouds":[{"cover":"SCT","base":1000},{"cover":"BKN","base":10000}],"obsTime":1774695600},"SBME":{"icaoId":"SBME","flightCategory":"VFR","rawOb":"METAR SBME 281100Z 34004KT 9999 SCT023 27/25 Q1019","temp":27,"dewp":25,"wdir":340,"wspd":4,"visib":"6+","altim":1019,"clouds":[{"cover":"SCT","base":2300}],"obsTime":1774695600},"SBRF":{"icaoId":"SBRF","flightCategory":"IFR","rawOb":"SPECI SBRF 281037Z 03005KT 2100 RA BR BKN007 BKN015 OVC050 25/24 Q1012","temp":25,"dewp":24,"wdir":30,"wspd":5,"visib":1.3,"altim":1012,"clouds":[{"cover":"BKN","base":700},{"cover":"BKN","base":1500},{"cover":"OVC","base":5000}],"obsTime":1774694220},"SBSG":{"icaoId":"SBSG","flightCategory":"VFR","rawOb":"METAR SBSG 281100Z 14003KT 060V230 9999 SCT023 27/24 Q1012","temp":27,"dewp":24,"wdir":140,"wspd":3,"visib":"6+","altim":1012,"clouds":[{"cover":"SCT","base":2300}],"obsTime":1774695600},"SBCR":{"icaoId":"SBCR","flightCategory":"VFR","rawOb":"METAR SBCR 281100Z 09007KT CAVOK 25/22 Q1014","temp":25,"dewp":22,"wdir":90,"wspd":7,"visib":"6+","altim":1014,"clouds":[],"obsTime":1774695600},"SBSL":{"icaoId":"SBSL","flightCategory":"VFR","rawOb":"METAR SBSL 281100Z 12008KT 9999 SCT020 28/25 Q1011","temp":28,"dewp":25,"wdir":120,"wspd":8,"visib":"6+","altim":1011,"clouds":[{"cover":"SCT","base":2000}],"obsTime":1774695600},"SBSN":{"icaoId":"SBSN","flightCategory":"VFR","rawOb":"METAR SBSN 281100Z 16003KT 9999 SCT013 BKN070 26/25 Q1011","temp":26,"dewp":25,"wdir":160,"wspd":3,"visib":"6+","altim":1011,"clouds":[{"cover":"SCT","base":1300},{"cover":"BKN","base":7000}],"obsTime":1774695600},"SBCT":{"icaoId":"SBCT","flightCategory":"VFR","rawOb":"METAR SBCT 281100Z 14004KT 9999 FEW015 20/19 Q1024","temp":20,"dewp":19,"wdir":140,"wspd":4,"visib":"6+","altim":1024,"clouds":[{"cover":"FEW","base":1500}],"obsTime":1774695600},"SBHT":{"icaoId":"SBHT","flightCategory":"MVFR","rawOb":"METAR SBHT 281100Z 00000KT 9999 BKN015 BKN080 25/24 Q1011","temp":25,"dewp":24,"wdir":0,"wspd":0,"visib":"6+","altim":1011,"clouds":[{"cover":"BKN","base":1500},{"cover":"BKN","base":8000}],"obsTime":1774695600},"SBSP":{"icaoId":"SBSP","flightCategory":"VFR","rawOb":"METAR SBSP 281100Z 10005KT 040V160 CAVOK 21/18 Q1024","temp":21,"dewp":18,"wdir":100,"wspd":5,"visib":"6+","altim":1024,"clouds":[],"obsTime":1774695600},"SBSV":{"icaoId":"SBSV","flightCategory":"VFR","rawOb":"METAR SBSV 281100Z 29001KT 9999 VCSH SCT024 FEW025TCU 26/24 Q1014","temp":26,"dewp":24,"wdir":290,"wspd":1,"visib":"6+","altim":1014,"clouds":[{"cover":"SCT","base":2400},{"cover":"FEW","base":2500}],"obsTime":1774695600},"SBBE":{"icaoId":"SBBE","flightCategory":"VFR","rawOb":"METAR SBBE 281100Z 07004KT 9999 FEW015 28/26 Q1011","temp":28,"dewp":26,"wdir":70,"wspd":4,"visib":"6+","altim":1011,"clouds":[{"cover":"FEW","base":1500}],"obsTime":1774695600},"SBIL":{"icaoId":"SBIL","flightCategory":"VFR","rawOb":"METAR SBIL 281100Z 23006KT 200V270 9999 VCSH SCT020 BKN050 25/23 Q1015","temp":25,"dewp":23,"wdir":230,"wspd":6,"visib":"6+","altim":1015,"clouds":[{"cover":"SCT","base":2000},{"cover":"BKN","base":5000}],"obsTime":1774695600},"SBTE":{"icaoId":"SBTE","flightCategory":"MVFR","rawOb":"METAR SBTE 281100Z 35003KT 9999 BKN015 26/24 Q1011","temp":26,"dewp":24,"wdir":350,"wspd":3,"visib":"6+","altim":1011,"clouds":[{"cover":"BKN","base":1500}],"obsTime":1774695600},"SBCZ":{"icaoId":"SBCZ","flightCategory":"MVFR","rawOb":"METAR SBCZ 281200Z VRB01KT 7000 NSC 24/24 Q1011","temp":24,"dewp":24,"wdir":"VRB","wspd":1,"visib":4.35,"altim":1011,"clouds":[],"obsTime":1774699200},"SBUL":{"icaoId":"SBUL","flightCategory":"VFR","rawOb":"METAR SBUL 281100Z 12008KT CAVOK 20/16 Q1022","temp":20,"dewp":16,"wdir":120,"wspd":8,"visib":"6+","altim":1022,"clouds":[],"obsTime":1774695600},"SBJU":{"icaoId":"SBJU","flightCategory":"MVFR","rawOb":"METAR SBJU 281100Z 00000KT 9999 BKN018 25/21 Q1014","temp":25,"dewp":21,"wdir":0,"wspd":0,"visib":"6+","altim":1014,"clouds":[{"cover":"BKN","base":1800}],"obsTime":1774695600},"SBUR":{"icaoId":"SBUR","flightCategory":"VFR","rawOb":"METAR SBUR 281100Z 05006KT CAVOK 22/15 Q1021","temp":22,"dewp":15,"wdir":50,"wspd":6,"visib":"6+","altim":1021,"clouds":[],"obsTime":1774695600},"SBKP":{"icaoId":"SBKP","flightCategory":"VFR","rawOb":"METAR SBKP 281100Z 12006KT CAVOK 22/18 Q1021","temp":22,"dewp":18,"wdir":120,"wspd":6,"visib":"6+","altim":1021,"clouds":[],"obsTime":1774695600},"SBCF":{"icaoId":"SBCF","flightCategory":"VFR","rawOb":"METAR SBCF 281100Z 14010KT 9999 FEW020 21/17 Q1022","temp":21,"dewp":17,"wdir":140,"wspd":10,"visib":"6+","altim":1022,"clouds":[{"cover":"FEW","base":2000}],"obsTime":1774695600},"SBOI":{"icaoId":"SBOI","flightCategory":"VFR","rawOb":"METAR SBOI 281100Z AUTO VRB01KT 9999 FEW003 25/25 Q1012","temp":25,"dewp":25,"wdir":"VRB","wspd":1,"visib":"6+","altim":1012,"clouds":[{"cover":"FEW","base":300}],"obsTime":1774695600},"SBAR":{"icaoId":"SBAR","flightCategory":"VFR","rawOb":"METAR SBAR 281100Z 10010KT 9999 VCSH SCT020 FEW023TCU 30/24 Q1012","temp":30,"dewp":24,"wdir":100,"wspd":10,"visib":"6+","altim":1012,"clouds":[{"cover":"SCT","base":2000},{"cover":"FEW","base":2300}],"obsTime":1774695600},"SBAX":{"icaoId":"SBAX","flightCategory":"VFR","rawOb":"METAR SBAX 281100Z AUTO 12011KT CAVOK 20/15 Q1022","temp":20,"dewp":15,"wdir":120,"wspd":11,"visib":"6+","altim":1022,"clouds":[],"obsTime":1774695600},"SBSJ":{"icaoId":"SBSJ","flightCategory":"MVFR","rawOb":"METAR SBSJ 281100Z 07004KT 7000 SCT017 21/18 Q1022","temp":21,"dewp":18,"wdir":70,"wspd":4,"visib":4.35,"altim":1022,"clouds":[{"cover":"SCT","base":1700}],"obsTime":1774695600},"SBBH":{"icaoId":"SBBH","flightCategory":"VFR","rawOb":"METAR SBBH 281100Z 09007KT 9999 FEW020 22/17 Q1022","temp":22,"dewp":17,"wdir":90,"wspd":7,"visib":"6+","altim":1022,"clouds":[{"cover":"FEW","base":2000}],"obsTime":1774695600},"SBBQ":{"icaoId":"SBBQ","flightCategory":"MVFR","rawOb":"METAR SBBQ 281200Z 08008KT 9999 BKN015 19/16 Q1027","temp":19,"dewp":16,"wdir":80,"wspd":8,"visib":"6+","altim":1027,"clouds":[{"cover":"BKN","base":1500}],"obsTime":1774699200},"SBBU":{"icaoId":"SBBU","flightCategory":"VFR","rawOb":"METAR SBBU 281100Z 11011KT CAVOK 23/19 Q1020","temp":23,"dewp":19,"wdir":110,"wspd":11,"visib":"6+","altim":1020,"clouds":[],"obsTime":1774695600},"SBCA":{"icaoId":"SBCA","flightCategory":"VFR","rawOb":"METAR SBCA 281100Z 06012KT CAVOK 24/19 Q1021","temp":24,"dewp":19,"wdir":60,"wspd":12,"visib":"6+","altim":1021,"clouds":[],"obsTime":1774695600},"SBCC":{"icaoId":"SBCC","flightCategory":"LIFR","rawOb":"METAR SBCC 281100Z 17005KT 1500 R12/P2000 BR OVC002 21/21 Q1013","temp":21,"dewp":21,"wdir":170,"wspd":5,"visib":0.93,"altim":1013,"clouds":[{"cover":"OVC","base":200}],"obsTime":1774695600},"SBCJ":{"icaoId":"SBCJ","flightCategory":"VFR","rawOb":"METAR SBCJ 281100Z 13006KT 9999 SCT010 24/22 Q1016","temp":24,"dewp":22,"wdir":130,"wspd":6,"visib":"6+","altim":1016,"clouds":[{"cover":"SCT","base":1000}],"obsTime":1774695600},"SBCO":{"icaoId":"SBCO","flightCategory":"LIFR","rawOb":"METAR SBCO 281100Z 14002KT 0800 R13///// R31/1000 FG SCT002 24/23 Q1017","temp":24,"dewp":23,"wdir":140,"wspd":2,"visib":0.5,"altim":1017,"clouds":[{"cover":"SCT","base":200}],"obsTime":1774695600},"SBDN":{"icaoId":"SBDN","flightCategory":"VFR","rawOb":"METAR SBDN 281100Z 11011KT CAVOK 24/19 Q1018","temp":24,"dewp":19,"wdir":110,"wspd":11,"visib":"6+","altim":1018,"clouds":[],"obsTime":1774695600},"SBES":{"icaoId":"SBES","flightCategory":"VFR","rawOb":"METAR SBES 281100Z VRB02KT 9999 SCT020 25/// Q1020","temp":null,"dewp":null,"wdir":"VRB","wspd":2,"visib":"6+","altim":1020,"clouds":[{"cover":"SCT","base":2000}],"obsTime":1774695600},"SBGM":{"icaoId":"SBGM","flightCategory":"VFR","rawOb":"METAR SBGM 281200Z 07002KT 9999 SCT004 BKN050 25/23 Q1012","temp":25,"dewp":23,"wdir":70,"wspd":2,"visib":"6+","altim":1012,"clouds":[{"cover":"SCT","base":400},{"cover":"BKN","base":5000}],"obsTime":1774699200},"SBIP":{"icaoId":"SBIP","flightCategory":"VFR","rawOb":"METAR SBIP 281100Z AUTO 19003KT 160V230 9999 BKN047 23/21 Q1020","temp":23,"dewp":21,"wdir":190,"wspd":3,"visib":"6+","altim":1020,"clouds":[{"cover":"BKN","base":4700}],"obsTime":1774695600},"SBKG":{"icaoId":"SBKG","flightCategory":"IFR","rawOb":"METAR SBKG 281100Z 08005KT 6000 -DZ BKN006 BKN010 23/22 Q1015","temp":23,"dewp":22,"wdir":80,"wspd":5,"visib":3.73,"altim":1015,"clouds":[{"cover":"BKN","base":600},{"cover":"BKN","base":1000}],"obsTime":1774695600},"SBPB":{"icaoId":"SBPB","flightCategory":"VFR","rawOb":"METAR SBPB 281100Z 08008KT 9999 FEW016 29/26 Q1010","temp":29,"dewp":26,"wdir":80,"wspd":8,"visib":"6+","altim":1010,"clouds":[{"cover":"FEW","base":1600}],"obsTime":1774695600},"SBPL":{"icaoId":"SBPL","flightCategory":"MVFR","rawOb":"METAR SBPL 281100Z 09009KT 9999 BKN020 26/21 Q1014","temp":26,"dewp":21,"wdir":90,"wspd":9,"visib":"6+","altim":1014,"clouds":[{"cover":"BKN","base":2000}],"obsTime":1774695600},"SBPP":{"icaoId":"SBPP","flightCategory":"VFR","rawOb":"SPECI SBPP 281115Z 02006KT CAVOK 23/22 Q1019","temp":23,"dewp":22,"wdir":20,"wspd":6,"visib":"6+","altim":1019,"clouds":[],"obsTime":1774696500},"SBPS":{"icaoId":"SBPS","flightCategory":"MVFR","rawOb":"METAR SBPS 281100Z 25004KT 220V280 9999 VCSH BKN020 FEW023TCU BKN100 25/23 Q1016","temp":25,"dewp":23,"wdir":250,"wspd":4,"visib":"6+","altim":1016,"clouds":[{"cover":"BKN","base":2000},{"cover":"FEW","base":2300},{"cover":"BKN","base":10000}],"obsTime":1774695600},"SBSC":{"icaoId":"SBSC","flightCategory":"VFR","rawOb":"METAR SBSC 281100Z 02006KT 9999 FEW040 27/22 Q1019","temp":27,"dewp":22,"wdir":20,"wspd":6,"visib":"6+","altim":1019,"clouds":[{"cover":"FEW","base":4000}],"obsTime":1774695600},"SBSM":{"icaoId":"SBSM","flightCategory":"VFR","rawOb":"METAR SBSM 281100Z 03003KT 350V080 9999 BCFG FEW002 25/25 Q1016","temp":25,"dewp":25,"wdir":30,"wspd":3,"visib":"6+","altim":1016,"clouds":[{"cover":"FEW","base":200}],"obsTime":1774695600},"SBSR":{"icaoId":"SBSR","flightCategory":"VFR","rawOb":"METAR SBSR 281100Z 09006KT CAVOK 25/18 Q1019","temp":25,"dewp":18,"wdir":90,"wspd":6,"visib":"6+","altim":1019,"clouds":[],"obsTime":1774695600},"SBTF":{"icaoId":"SBTF","flightCategory":"VFR","rawOb":"SPECI SBTF 281115Z 16002KT 9999 FEW015 BKN070 25/25 Q1011","temp":25,"dewp":25,"wdir":160,"wspd":2,"visib":"6+","altim":1011,"clouds":[{"cover":"FEW","base":1500},{"cover":"BKN","base":7000}],"obsTime":1774696500},"SBTT":{"icaoId":"SBTT","flightCategory":"VFR","rawOb":"METAR SBTT 281100Z /////KT 9999 SCT012 ///// Q////","temp":null,"dewp":null,"wdir":null,"wspd":null,"visib":"6+","altim":null,"clouds":[{"cover":"SCT","base":1200}],"obsTime":1774695600},"SBUY":{"icaoId":"SBUY","flightCategory":"IFR","rawOb":"METAR SBUY 281100Z 34002KT 9999 BKN007 OVC100 24/23 Q1010","temp":24,"dewp":23,"wdir":340,"wspd":2,"visib":"6+","altim":1010,"clouds":[{"cover":"BKN","base":700},{"cover":"OVC","base":10000}],"obsTime":1774695600},"SBVH":{"icaoId":"SBVH","flightCategory":"VFR","rawOb":"METAR SBVH 281100Z 17002KT 9999 FEW007 SCT015 BKN080 22/21 Q1016","temp":22,"dewp":21,"wdir":170,"wspd":2,"visib":"6+","altim":1016,"clouds":[{"cover":"FEW","base":700},{"cover":"SCT","base":1500},{"cover":"BKN","base":8000}],"obsTime":1774695600},"SBIH":{"icaoId":"SBIH","flightCategory":"VFR","rawOb":"METAR SBIH 281100Z 13003KT 9999 FEW006 BKN100 25/24 Q0101","temp":25,"dewp":24,"wdir":130,"wspd":3,"visib":"6+","altim":101,"clouds":[{"cover":"FEW","base":600},{"cover":"BKN","base":10000}],"obsTime":1774695600},"SBLE":{"icaoId":"SBLE","flightCategory":"LIFR","rawOb":"METAR SBLE 281100Z AUTO 10006KT 2500 RA BKN004 OVC011 ///// Q////","temp":null,"dewp":null,"wdir":100,"wspd":6,"visib":1.55,"altim":null,"clouds":[{"cover":"BKN","base":400},{"cover":"OVC","base":1100}],"obsTime":1774695600},"SBAF":{"icaoId":"SBAF","flightCategory":"VFR","rawOb":"METAR SBAF 281100Z 09003KT 9999 FEW025 27/23 Q1020","temp":27,"dewp":23,"wdir":90,"wspd":3,"visib":"6+","altim":1020,"clouds":[{"cover":"FEW","base":2500}],"obsTime":1774695600},"SBLS":{"icaoId":"SBLS","flightCategory":"VFR","rawOb":"METAR SBLS 281100Z 15009KT CAVOK 21/17 Q1022","temp":21,"dewp":17,"wdir":150,"wspd":9,"visib":"6+","altim":1022,"clouds":[],"obsTime":1774695600},"SBJP":{"icaoId":"SBJP","flightCategory":"VFR","rawOb":"METAR SBJP 281100Z 00000KT 9999 SCT020 28/24 Q1012","temp":28,"dewp":24,"wdir":0,"wspd":0,"visib":"6+","altim":1012,"clouds":[{"cover":"SCT","base":2000}],"obsTime":1774695600},"SBMT":{"icaoId":"SBMT","flightCategory":"VFR","rawOb":"METAR SBMT 281100Z 08009KT CAVOK 20/16 Q1022","temp":20,"dewp":16,"wdir":80,"wspd":9,"visib":"6+","altim":1022,"clouds":[],"obsTime":1774695600},"SBGW":{"icaoId":"SBGW","flightCategory":"MVFR","rawOb":"METAR SBGW 281100Z 08003KT 6000 BKN020 22/16 Q1022","temp":22,"dewp":16,"wdir":80,"wspd":3,"visib":3.73,"altim":1022,"clouds":[{"cover":"BKN","base":2000}],"obsTime":1774695600},"SBNM":{"icaoId":"SBNM","flightCategory":"VFR","rawOb":"METAR SBNM 281100Z 13002KT CAVOK 24/22 Q1018","temp":24,"dewp":22,"wdir":130,"wspd":2,"visib":"6+","altim":1018,"clouds":[],"obsTime":1774695600},"SBJR":{"icaoId":"SBJR","flightCategory":"VFR","rawOb":"METAR SBJR 281100Z 00000KT 9999 FEW020 28/22 Q1019","temp":28,"dewp":22,"wdir":0,"wspd":0,"visib":"6+","altim":1019,"clouds":[{"cover":"FEW","base":2000}],"obsTime":1774695600},"SBPF":{"icaoId":"SBPF","flightCategory":"VFR","rawOb":"METAR SBPF 281100Z 04015KT CAVOK 22/19 Q1021","temp":22,"dewp":19,"wdir":40,"wspd":15,"visib":"6+","altim":1021,"clouds":[],"obsTime":1774695600},"SBAN":{"icaoId":"SBAN","flightCategory":"VFR","rawOb":"METAR SBAN 281100Z 15009KT CAVOK 20/17 Q1022","temp":20,"dewp":17,"wdir":150,"wspd":9,"visib":"6+","altim":1022,"clouds":[],"obsTime":1774695600},"SBST":{"icaoId":"SBST","flightCategory":"MVFR","rawOb":"METAR SBST 281100Z 00000KT 7000 NSC 24/22 Q1019","temp":24,"dewp":22,"wdir":0,"wspd":0,"visib":4.35,"altim":1019,"clouds":[],"obsTime":1774695600},"SBJV":{"icaoId":"SBJV","flightCategory":"VFR","rawOb":"METAR SBJV 281100Z 35003KT 9999 SCT015 26/25 Q1019","temp":26,"dewp":25,"wdir":350,"wspd":3,"visib":"6+","altim":1019,"clouds":[{"cover":"SCT","base":1500}],"obsTime":1774695600},"SBTA":{"icaoId":"SBTA","flightCategory":"VFR","rawOb":"METAR SBTA 281100Z VRB02KT CAVOK 20/19 Q1021","temp":20,"dewp":19,"wdir":"VRB","wspd":2,"visib":"6+","altim":1021,"clouds":[],"obsTime":1774695600}}}