{"updated":1774940759,"count":49,"data":{"SBBE":{"icaoId":"SBBE","flightCategory":"VFR","rawOb":"METAR SBBE 310600Z 11003KT 9999 SCT008 BKN100 26/26 Q1009","temp":26,"dewp":26,"wdir":110,"wspd":3,"visib":"6+","altim":1009,"clouds":[{"cover":"SCT","base":800},{"cover":"BKN","base":10000}],"obsTime":1774936800},"SBBR":{"icaoId":"SBBR","flightCategory":"VFR","rawOb":"METAR SBBR 310600Z 20003KT CAVOK 20/17 Q1016","temp":20,"dewp":17,"wdir":200,"wspd":3,"visib":"6+","altim":1016,"clouds":[],"obsTime":1774936800},"SBBV":{"icaoId":"SBBV","flightCategory":"VFR","rawOb":"METAR SBBV 310600Z 31004KT 9999 FEW015 SCT020 FEW030TCU OVC100 23/22 Q1011","temp":23,"dewp":22,"wdir":310,"wspd":4,"visib":"6+","altim":1011,"clouds":[{"cover":"FEW","base":1500},{"cover":"SCT","base":2000},{"cover":"FEW","base":3000},{"cover":"OVC","base":10000}],"obsTime":1774936800},"SBCF":{"icaoId":"SBCF","flightCategory":"VFR","rawOb":"METAR SBCF 310600Z 00000KT 9999 FEW046 SCT070 20/18 Q1015","temp":20,"dewp":18,"wdir":0,"wspd":0,"visib":"6+","altim":1015,"clouds":[{"cover":"FEW","base":4600},{"cover":"SCT","base":7000}],"obsTime":1774936800},"SBCG":{"icaoId":"SBCG","flightCategory":"VFR","rawOb":"METAR SBCG 310600Z 11002KT CAVOK 21/20 Q1012","temp":21,"dewp":20,"wdir":110,"wspd":2,"visib":"6+","altim":1012,"clouds":[],"obsTime":1774936800},"SBCT":{"icaoId":"SBCT","flightCategory":"IFR","rawOb":"METAR SBCT 310600Z 04003KT 3000 BR BKN014 18/16 Q1017","temp":18,"dewp":16,"wdir":40,"wspd":3,"visib":1.86,"altim":1017,"clouds":[{"cover":"BKN","base":1400}],"obsTime":1774936800},"SBEG":{"icaoId":"SBEG","flightCategory":"VFR","rawOb":"METAR SBEG 310600Z 36001KT 9999 FEW020 24/23 Q1009","temp":24,"dewp":23,"wdir":360,"wspd":1,"visib":"6+","altim":1009,"clouds":[{"cover":"FEW","base":2000}],"obsTime":1774936800},"SBFI":{"icaoId":"SBFI","flightCategory":"VFR","rawOb":"METAR SBFI 310600Z 03001KT CAVOK 22/21 Q1010","temp":22,"dewp":21,"wdir":30,"wspd":1,"visib":"6+","altim":1010,"clouds":[],"obsTime":1774936800},"SBFL":{"icaoId":"SBFL","flightCategory":"VFR","rawOb":"METAR SBFL 310600Z 26002KT 9999 FEW020 SCT055 21/21 Q1014","temp":21,"dewp":21,"wdir":260,"wspd":2,"visib":"6+","altim":1014,"clouds":[{"cover":"FEW","base":2000},{"cover":"SCT","base":5500}],"obsTime":1774936800},"SBFZ":{"icaoId":"SBFZ","flightCategory":"VFR","rawOb":"METAR SBFZ 310600Z 21003KT CAVOK 25/23 Q1009","temp":25,"dewp":23,"wdir":210,"wspd":3,"visib":"6+","altim":1009,"clouds":[],"obsTime":1774936800},"SBGL":{"icaoId":"SBGL","flightCategory":"VFR","rawOb":"METAR SBGL 310600Z 30002KT 9999 FEW010 SCT080 24/22 Q1010","temp":24,"dewp":22,"wdir":300,"wspd":2,"visib":"6+","altim":1010,"clouds":[{"cover":"FEW","base":1000},{"cover":"SCT","base":8000}],"obsTime":1774936800},"SBGO":{"icaoId":"SBGO","flightCategory":"VFR","rawOb":"METAR SBGO 310600Z 13003KT CAVOK 20/18 Q1015","temp":20,"dewp":18,"wdir":130,"wspd":3,"visib":"6+","altim":1015,"clouds":[],"obsTime":1774936800},"SBGR":{"icaoId":"SBGR","flightCategory":"VFR","rawOb":"METAR SBGR 310600Z 08004KT 9000 -RA SCT015 OVC080 19/18 Q1015","temp":19,"dewp":18,"wdir":80,"wspd":4,"visib":5.59,"altim":1015,"clouds":[{"cover":"SCT","base":1500},{"cover":"OVC","base":8000}],"obsTime":1774936800},"SBKP":{"icaoId":"SBKP","flightCategory":"VFR","rawOb":"METAR SBKP 310600Z 13009KT CAVOK 21/18 Q1013","temp":21,"dewp":18,"wdir":130,"wspd":9,"visib":"6+","altim":1013,"clouds":[],"obsTime":1774936800},"SBLO":{"icaoId":"SBLO","flightCategory":"VFR","rawOb":"METAR SBLO 310600Z 20003KT 9999 SCT040 21/19 Q1012","temp":21,"dewp":19,"wdir":200,"wspd":3,"visib":"6+","altim":1012,"clouds":[{"cover":"SCT","base":4000}],"obsTime":1774936800},"SBMA":{"icaoId":"SBMA","flightCategory":"VFR","rawOb":"METAR SBMA 310600Z 00000KT 9999 FEW012 BKN090 24/23 Q1010","temp":24,"dewp":23,"wdir":0,"wspd":0,"visib":"6+","altim":1010,"clouds":[{"cover":"FEW","base":1200},{"cover":"BKN","base":9000}],"obsTime":1774936800},"SBMO":{"icaoId":"SBMO","flightCategory":"VFR","rawOb":"METAR SBMO 310600Z 26004KT 9999 FEW010 24/23 Q1010","temp":24,"dewp":23,"wdir":260,"wspd":4,"visib":"6+","altim":1010,"clouds":[{"cover":"FEW","base":1000}],"obsTime":1774936800},"SBMQ":{"icaoId":"SBMQ","flightCategory":"VFR","rawOb":"METAR SBMQ 310600Z VRB01KT 9999 SCT005 26/25 Q1009","temp":26,"dewp":25,"wdir":"VRB","wspd":1,"visib":"6+","altim":1009,"clouds":[{"cover":"SCT","base":500}],"obsTime":1774936800},"SBNT":{"icaoId":"SBNT","flightCategory":"VFR","rawOb":"METAR SBNT 310600Z 21004KT 9999 SCT017 SCT080 25/24 Q1009","temp":25,"dewp":24,"wdir":210,"wspd":4,"visib":"6+","altim":1009,"clouds":[{"cover":"SCT","base":1700},{"cover":"SCT","base":8000}],"obsTime":1774936800},"SBPA":{"icaoId":"SBPA","flightCategory":"VFR","rawOb":"METAR SBPA 310600Z 10007KT 9999 FEW007 22/21 Q1012","temp":22,"dewp":21,"wdir":100,"wspd":7,"visib":"6+","altim":1012,"clouds":[{"cover":"FEW","base":700}],"obsTime":1774936800},"SBPJ":{"icaoId":"SBPJ","flightCategory":"VFR","rawOb":"METAR SBPJ 310600Z 01002KT 9999 FEW020 BKN090 24/22 Q1010","temp":24,"dewp":22,"wdir":10,"wspd":2,"visib":"6+","altim":1010,"clouds":[{"cover":"FEW","base":2000},{"cover":"BKN","base":9000}],"obsTime":1774936800},"SBPV":{"icaoId":"SBPV","flightCategory":"VFR","rawOb":"METAR SBPV 310600Z 00000KT CAVOK 26/22 Q1010","temp":26,"dewp":22,"wdir":0,"wspd":0,"visib":"6+","altim":1010,"clouds":[],"obsTime":1774936800},"SBRB":{"icaoId":"SBRB","flightCategory":"VFR","rawOb":"METAR SBRB 310600Z 22003KT 9999 FEW036 23/23 Q1011","temp":23,"dewp":23,"wdir":220,"wspd":3,"visib":"6+","altim":1011,"clouds":[{"cover":"FEW","base":3600}],"obsTime":1774936800},"SBRF":{"icaoId":"SBRF","flightCategory":"VFR","rawOb":"METAR SBRF 310600Z 00000KT 9999 FEW017 BKN060 25/24 Q1009","temp":25,"dewp":24,"wdir":0,"wspd":0,"visib":"6+","altim":1009,"clouds":[{"cover":"FEW","base":1700},{"cover":"BKN","base":6000}],"obsTime":1774936800},"SBSG":{"icaoId":"SBSG","flightCategory":"VFR","rawOb":"METAR SBSG 310600Z 24003KT 200V270 9999 SCT025 SCT100 24/23 Q1010","temp":24,"dewp":23,"wdir":240,"wspd":3,"visib":"6+","altim":1010,"clouds":[{"cover":"SCT","base":2500},{"cover":"SCT","base":10000}],"obsTime":1774936800},"SBSL":{"icaoId":"SBSL","flightCategory":"MVFR","rawOb":"METAR SBSL 310600Z 13004KT 9999 BKN020 25/24 Q1010","temp":25,"dewp":24,"wdir":130,"wspd":4,"visib":"6+","altim":1010,"clouds":[{"cover":"BKN","base":2000}],"obsTime":1774936800},"SBSN":{"icaoId":"SBSN","flightCategory":"VFR","rawOb":"METAR SBSN 310600Z 05002KT CAVOK 26/24 Q1009","temp":26,"dewp":24,"wdir":50,"wspd":2,"visib":"6+","altim":1009,"clouds":[],"obsTime":1774936800},"SBSP":{"icaoId":"SBSP","flightCategory":"VFR","rawOb":"METAR SBSP 310600Z AUTO 14003KT 110V180 9999 FEW009 19/18 Q1015","temp":19,"dewp":18,"wdir":140,"wspd":3,"visib":"6+","altim":1015,"clouds":[{"cover":"FEW","base":900}],"obsTime":1774936800},"SBSV":{"icaoId":"SBSV","flightCategory":"VFR","rawOb":"METAR SBSV 310600Z VRB02KT 9999 SCT011 FEW023TCU BKN050 25/23 Q1011","temp":25,"dewp":23,"wdir":"VRB","wspd":2,"visib":"6+","altim":1011,"clouds":[{"cover":"SCT","base":1100},{"cover":"FEW","base":2300},{"cover":"BKN","base":5000}],"obsTime":1774936800},"SBTE":{"icaoId":"SBTE","flightCategory":"VFR","rawOb":"METAR SBTE 310600Z 30002KT 9999 SCT010 BKN090 24/23 Q1008","temp":24,"dewp":23,"wdir":300,"wspd":2,"visib":"6+","altim":1008,"clouds":[{"cover":"SCT","base":1000},{"cover":"BKN","base":9000}],"obsTime":1774936800},"SBVT":{"icaoId":"SBVT","flightCategory":"VFR","rawOb":"METAR SBVT 310600Z 00000KT 9999 FEW025 22/22 Q1012","temp":22,"dewp":22,"wdir":0,"wspd":0,"visib":"6+","altim":1012,"clouds":[{"cover":"FEW","base":2500}],"obsTime":1774936800},"SBME":{"icaoId":"SBME","flightCategory":"VFR","rawOb":"METAR SBME 310600Z 05003KT 9999 SCT040 BKN100 24/23 Q1011","temp":24,"dewp":23,"wdir":50,"wspd":3,"visib":"6+","altim":1011,"clouds":[{"cover":"SCT","base":4000},{"cover":"BKN","base":10000}],"obsTime":1774936800},"SBMG":{"icaoId":"SBMG","flightCategory":"VFR","rawOb":"METAR SBMG 310600Z AUTO 00000KT CAVOK 22/19 Q1011","temp":22,"dewp":19,"wdir":0,"wspd":0,"visib":"6+","altim":1011,"clouds":[],"obsTime":1774936800},"SBUL":{"icaoId":"SBUL","flightCategory":"VFR","rawOb":"METAR SBUL 310600Z 15004KT CAVOK 21/16 Q1015","temp":21,"dewp":16,"wdir":150,"wspd":4,"visib":"6+","altim":1015,"clouds":[],"obsTime":1774936800},"SBUR":{"icaoId":"SBUR","flightCategory":"VFR","rawOb":"METAR SBUR 310600Z 03006KT CAVOK 22/17 Q1014","temp":22,"dewp":17,"wdir":30,"wspd":6,"visib":"6+","altim":1014,"clouds":[],"obsTime":1774936800},"SBJU":{"icaoId":"SBJU","flightCategory":"MVFR","rawOb":"METAR SBJU 310600Z 00000KT 9999 BKN017 22/22 Q1012","temp":22,"dewp":22,"wdir":0,"wspd":0,"visib":"6+","altim":1012,"clouds":[{"cover":"BKN","base":1700}],"obsTime":1774936800},"SBPL":{"icaoId":"SBPL","flightCategory":"VFR","rawOb":"METAR SBPL 310600Z 11004KT 9999 FEW020 BKN070 25/22 Q1012","temp":25,"dewp":22,"wdir":110,"wspd":4,"visib":"6+","altim":1012,"clouds":[{"cover":"FEW","base":2000},{"cover":"BKN","base":7000}],"obsTime":1774936800},"SBPS":{"icaoId":"SBPS","flightCategory":"VFR","rawOb":"METAR SBPS 310600Z 26004KT 9999 FEW030 BKN070 23/23 Q1012","temp":23,"dewp":23,"wdir":260,"wspd":4,"visib":"6+","altim":1012,"clouds":[{"cover":"FEW","base":3000},{"cover":"BKN","base":7000}],"obsTime":1774936800},"SBAR":{"icaoId":"SBAR","flightCategory":"VFR","rawOb":"METAR SBAR 310600Z 29002KT 9999 FEW021 24/24 Q1010","temp":24,"dewp":24,"wdir":290,"wspd":2,"visib":"6+","altim":1010,"clouds":[{"cover":"FEW","base":2100}],"obsTime":1774936800},"SBDN":{"icaoId":"SBDN","flightCategory":"VFR","rawOb":"METAR SBDN 310600Z 11007KT CAVOK 23/18 Q1011","temp":23,"dewp":18,"wdir":110,"wspd":7,"visib":"6+","altim":1011,"clouds":[],"obsTime":1774936800},"SBIP":{"icaoId":"SBIP","flightCategory":"VFR","rawOb":"METAR SBIP 310600Z AUTO 00000KT 9999 FEW027 OVC031 22/22 Q1013","temp":22,"dewp":22,"wdir":0,"wspd":0,"visib":"6+","altim":1013,"clouds":[{"cover":"FEW","base":2700},{"cover":"OVC","base":3100}],"obsTime":1774936800},"SBKG":{"icaoId":"SBKG","flightCategory":"MVFR","rawOb":"METAR SBKG 310600Z 26003KT 9999 BKN010 22/22 Q1012","temp":22,"dewp":22,"wdir":260,"wspd":3,"visib":"6+","altim":1012,"clouds":[{"cover":"BKN","base":1000}],"obsTime":1774936800},"SBOI":{"icaoId":"SBOI","flightCategory":"LIFR","rawOb":"METAR SBOI 310600Z AUTO 36002KT 2900 // BKN001/// BKN004/// BKN006/// 24/23 Q1010","temp":24,"dewp":23,"wdir":360,"wspd":2,"visib":1.8,"altim":1010,"clouds":[{"cover":"BKN","base":100},{"cover":"BKN","base":400},{"cover":"BKN","base":600}],"obsTime":1774936800},"SBSC":{"icaoId":"SBSC","flightCategory":"VFR","rawOb":"METAR SBSC 310600Z 02003KT CAVOK 23/21 Q1011","temp":23,"dewp":21,"wdir":20,"wspd":3,"visib":"6+","altim":1011,"clouds":[],"obsTime":1774936800},"SBSR":{"icaoId":"SBSR","flightCategory":"VFR","rawOb":"METAR SBSR 310600Z 01001KT CAVOK 24/18 Q1012","temp":24,"dewp":18,"wdir":10,"wspd":1,"visib":"6+","altim":1012,"clouds":[],"obsTime":1774936800},"SBAX":{"icaoId":"SBAX","flightCategory":"VFR","rawOb":"METAR SBAX 310600Z AUTO 05003KT 9999 FEW044 18/18 Q1015","temp":18,"dewp":18,"wdir":50,"wspd":3,"visib":"6+","altim":1015,"clouds":[{"cover":"FEW","base":4400}],"obsTime":1774936800},"SBJP":{"icaoId":"SBJP","flightCategory":"VFR","rawOb":"METAR SBJP 310600Z 00000KT 9999 FEW030 25/24 Q1010","temp":25,"dewp":24,"wdir":0,"wspd":0,"visib":"6+","altim":1010,"clouds":[{"cover":"FEW","base":3000}],"obsTime":1774936800},"SBAN":{"icaoId":"SBAN","flightCategory":"VFR","rawOb":"METAR SBAN 310600Z 08005KT CAVOK 18/16 Q1018","temp":18,"dewp":16,"wdir":80,"wspd":5,"visib":"6+","altim":1018,"clouds":[],"obsTime":1774936800},"SBLE":{"icaoId":"SBLE","flightCategory":"VFR","rawOb":"METAR SBLE 310600Z AUTO 00000KT 9999 FEW022 OVC044 ///// Q////","temp":null,"dewp":null,"wdir":0,"wspd":0,"visib":"6+","altim":null,"clouds":[{"cover":"FEW","base":2200},{"cover":"OVC","base":4400}],"obsTime":1774936800}}}