{"updated":1774824903,"count":81,"data":{"SBMQ":{"icaoId":"SBMQ","flightCategory":"VFR","rawOb":"METAR SBMQ 292100Z 09004KT 060V120 9999 FEW015 28/26 Q1009","temp":28,"dewp":26,"wdir":90,"wspd":4,"visib":"6+","altim":1009,"clouds":[{"cover":"FEW","base":1500}],"obsTime":1774818000},"SBMO":{"icaoId":"SBMO","flightCategory":"MVFR","rawOb":"METAR SBMO 292100Z 11009KT 5000 -RA BR BKN010 BKN016 OVC050 25/24 Q1011","temp":25,"dewp":24,"wdir":110,"wspd":9,"visib":3.11,"altim":1011,"clouds":[{"cover":"BKN","base":1000},{"cover":"BKN","base":1600},{"cover":"OVC","base":5000}],"obsTime":1774818000},"SBMG":{"icaoId":"SBMG","flightCategory":"VFR","rawOb":"METAR SBMG 292100Z 21008KT CAVOK 31/18 Q1015","temp":31,"dewp":18,"wdir":210,"wspd":8,"visib":"6+","altim":1015,"clouds":[],"obsTime":1774818000},"SBCP":{"icaoId":"SBCP","flightCategory":"VFR","rawOb":"METAR SBCP 292100Z 10005KT 9999 SCT020 25/22 Q1015","temp":25,"dewp":22,"wdir":100,"wspd":5,"visib":"6+","altim":1015,"clouds":[{"cover":"SCT","base":2000}],"obsTime":1774818000},"SBMK":{"icaoId":"SBMK","flightCategory":"VFR","rawOb":"METAR SBMK 292100Z 05003KT 9999 FEW030 26/17 Q1016","temp":26,"dewp":17,"wdir":50,"wspd":3,"visib":"6+","altim":1016,"clouds":[{"cover":"FEW","base":3000}],"obsTime":1774818000},"SBBR":{"icaoId":"SBBR","flightCategory":"VFR","rawOb":"METAR SBBR 292100Z 14010KT 9999 FEW045 FEW050TCU SCT070 26/15 Q1018","temp":26,"dewp":15,"wdir":140,"wspd":10,"visib":"6+","altim":1018,"clouds":[{"cover":"FEW","base":4500},{"cover":"FEW","base":5000},{"cover":"SCT","base":7000}],"obsTime":1774818000},"SBFZ":{"icaoId":"SBFZ","flightCategory":"VFR","rawOb":"METAR SBFZ 292100Z 02006KT 9999 FEW020 BKN100 28/24 Q1010","temp":28,"dewp":24,"wdir":20,"wspd":6,"visib":"6+","altim":1010,"clouds":[{"cover":"FEW","base":2000},{"cover":"BKN","base":10000}],"obsTime":1774818000},"SBCB":{"icaoId":"SBCB","flightCategory":"VFR","rawOb":"METAR SBCB 292100Z 14005KT CAVOK 26/22 Q1016","temp":26,"dewp":22,"wdir":140,"wspd":5,"visib":"6+","altim":1016,"clouds":[],"obsTime":1774818000},"SBNT":{"icaoId":"SBNT","flightCategory":"VFR","rawOb":"METAR SBNT 292100Z 10007KT 9999 FEW023 28/23 Q1009","temp":28,"dewp":23,"wdir":100,"wspd":7,"visib":"6+","altim":1009,"clouds":[{"cover":"FEW","base":2300}],"obsTime":1774818000},"SBGL":{"icaoId":"SBGL","flightCategory":"VFR","rawOb":"METAR SBGL 292100Z 13012KT 9999 FEW040 26/22 Q1015","temp":26,"dewp":22,"wdir":130,"wspd":12,"visib":"6+","altim":1015,"clouds":[{"cover":"FEW","base":4000}],"obsTime":1774818000},"SBCT":{"icaoId":"SBCT","flightCategory":"VFR","rawOb":"METAR SBCT 292100Z 12007KT CAVOK 25/20 Q1019","temp":25,"dewp":20,"wdir":120,"wspd":7,"visib":"6+","altim":1019,"clouds":[],"obsTime":1774818000},"SBPA":{"icaoId":"SBPA","flightCategory":"VFR","rawOb":"METAR SBPA 292100Z 15006KT 100V190 9999 VCSH FEW015 FEW035TCU 28/24 Q1015","temp":28,"dewp":24,"wdir":150,"wspd":6,"visib":"6+","altim":1015,"clouds":[{"cover":"FEW","base":1500},{"cover":"FEW","base":3500}],"obsTime":1774818000},"SBPJ":{"icaoId":"SBPJ","flightCategory":"VFR","rawOb":"METAR SBPJ 292100Z 24003KT 9999 SCT030 FEW035TCU 33/24 Q1010","temp":33,"dewp":24,"wdir":240,"wspd":3,"visib":"6+","altim":1010,"clouds":[{"cover":"SCT","base":3000},{"cover":"FEW","base":3500}],"obsTime":1774818000},"SBGO":{"icaoId":"SBGO","flightCategory":"VFR","rawOb":"METAR SBGO 292100Z 15007KT 9999 FEW050 FEW053TCU 29/17 Q1016","temp":29,"dewp":17,"wdir":150,"wspd":7,"visib":"6+","altim":1016,"clouds":[{"cover":"FEW","base":5000},{"cover":"FEW","base":5300}],"obsTime":1774818000},"SBMA":{"icaoId":"SBMA","flightCategory":"VFR","rawOb":"METAR SBMA 292100Z 03005KT 9999 SCT020 SCT025TCU BKN080 26/24 Q1008","temp":26,"dewp":24,"wdir":30,"wspd":5,"visib":"6+","altim":1008,"clouds":[{"cover":"SCT","base":2000},{"cover":"SCT","base":2500},{"cover":"BKN","base":8000}],"obsTime":1774818000},"SBFL":{"icaoId":"SBFL","flightCategory":"VFR","rawOb":"METAR SBFL 292100Z 33008KT 9999 FEW040 29/23 Q1014","temp":29,"dewp":23,"wdir":330,"wspd":8,"visib":"6+","altim":1014,"clouds":[{"cover":"FEW","base":4000}],"obsTime":1774818000},"SBME":{"icaoId":"SBME","flightCategory":"VFR","rawOb":"METAR SBME 292100Z 14002KT 9999 FEW040 26/23 Q1015","temp":26,"dewp":23,"wdir":140,"wspd":2,"visib":"6+","altim":1015,"clouds":[{"cover":"FEW","base":4000}],"obsTime":1774818000},"SBGR":{"icaoId":"SBGR","flightCategory":"VFR","rawOb":"METAR SBGR 292100Z 17009KT CAVOK 25/20 Q1018","temp":25,"dewp":20,"wdir":170,"wspd":9,"visib":"6+","altim":1018,"clouds":[],"obsTime":1774818000},"SBPV":{"icaoId":"SBPV","flightCategory":"MVFR","rawOb":"METAR SBPV 292100Z 24001KT 5000 -RA SCT005 BKN030 24/23 Q1009","temp":24,"dewp":23,"wdir":240,"wspd":1,"visib":3.11,"altim":1009,"clouds":[{"cover":"SCT","base":500},{"cover":"BKN","base":3000}],"obsTime":1774818000},"SBBV":{"icaoId":"SBBV","flightCategory":"VFR","rawOb":"METAR SBBV 292100Z 36002KT 9999 SCT040 FEW045TCU BKN070 33/21 Q1007","temp":33,"dewp":21,"wdir":360,"wspd":2,"visib":"6+","altim":1007,"clouds":[{"cover":"SCT","base":4000},{"cover":"FEW","base":4500},{"cover":"BKN","base":7000}],"obsTime":1774818000},"SBRB":{"icaoId":"SBRB","flightCategory":"MVFR","rawOb":"METAR SBRB 292100Z 01002KT 9999 BKN026 FEW027TCU 28/24 Q1009","temp":28,"dewp":24,"wdir":10,"wspd":2,"visib":"6+","altim":1009,"clouds":[{"cover":"BKN","base":2600},{"cover":"FEW","base":2700}],"obsTime":1774818000},"SBRF":{"icaoId":"SBRF","flightCategory":"MVFR","rawOb":"METAR SBRF 292100Z 15010KT 9999 BKN018 BKN100 28/24 Q1010","temp":28,"dewp":24,"wdir":150,"wspd":10,"visib":"6+","altim":1010,"clouds":[{"cover":"BKN","base":1800},{"cover":"BKN","base":10000}],"obsTime":1774818000},"SBCZ":{"icaoId":"SBCZ","flightCategory":"VFR","rawOb":"METAR SBCZ 292100Z 23007KT 9999 VCSH FEW012 SCT025 FEW025TCU BKN080 25/23 Q1011","temp":25,"dewp":23,"wdir":230,"wspd":7,"visib":"6+","altim":1011,"clouds":[{"cover":"FEW","base":1200},{"cover":"SCT","base":2500},{"cover":"FEW","base":2500},{"cover":"BKN","base":8000}],"obsTime":1774818000},"SBIL":{"icaoId":"SBIL","flightCategory":"VFR","rawOb":"METAR SBIL 292100Z 22005KT 9999 VCSH SCT018 FEW023TCU SCT050 27/24 Q1013","temp":27,"dewp":24,"wdir":220,"wspd":5,"visib":"6+","altim":1013,"clouds":[{"cover":"SCT","base":1800},{"cover":"FEW","base":2300},{"cover":"SCT","base":5000}],"obsTime":1774818000},"SBSG":{"icaoId":"SBSG","flightCategory":"VFR","rawOb":"METAR SBSG 292100Z 11004KT 9999 FEW023 27/24 Q1010","temp":27,"dewp":24,"wdir":110,"wspd":4,"visib":"6+","altim":1010,"clouds":[{"cover":"FEW","base":2300}],"obsTime":1774818000},"SBCF":{"icaoId":"SBCF","flightCategory":"VFR","rawOb":"METAR SBCF 292100Z 10006KT 9999 FEW040 SCT100 25/16 Q1018","temp":25,"dewp":16,"wdir":100,"wspd":6,"visib":"6+","altim":1018,"clouds":[{"cover":"FEW","base":4000},{"cover":"SCT","base":10000}],"obsTime":1774818000},"SBSL":{"icaoId":"SBSL","flightCategory":"VFR","rawOb":"METAR SBSL 292100Z 01004KT 9999 SCT021 SCT080 27/24 Q1009","temp":27,"dewp":24,"wdir":10,"wspd":4,"visib":"6+","altim":1009,"clouds":[{"cover":"SCT","base":2100},{"cover":"SCT","base":8000}],"obsTime":1774818000},"SBSN":{"icaoId":"SBSN","flightCategory":"VFR","rawOb":"METAR SBSN 292100Z 20002KT 9999 TS SCT017 FEW026CB BKN100 27/25 Q1009","temp":27,"dewp":25,"wdir":200,"wspd":2,"visib":"6+","altim":1009,"clouds":[{"cover":"SCT","base":1700},{"cover":"FEW","base":2600},{"cover":"BKN","base":10000}],"obsTime":1774818000},"SBEG":{"icaoId":"SBEG","flightCategory":"VFR","rawOb":"METAR SBEG 292100Z 14004KT 9999 FEW020 SCT100 27/23 Q1009","temp":27,"dewp":23,"wdir":140,"wspd":4,"visib":"6+","altim":1009,"clouds":[{"cover":"FEW","base":2000},{"cover":"SCT","base":10000}],"obsTime":1774818000},"SBJU":{"icaoId":"SBJU","flightCategory":"VFR","rawOb":"METAR SBJU 292100Z 00000KT 9999 SCT022 29/21 Q1011","temp":29,"dewp":21,"wdir":0,"wspd":0,"visib":"6+","altim":1011,"clouds":[{"cover":"SCT","base":2200}],"obsTime":1774818000},"SBSP":{"icaoId":"SBSP","flightCategory":"VFR","rawOb":"METAR SBSP 292100Z 17008KT 140V230 CAVOK 23/20 Q1020","temp":23,"dewp":20,"wdir":170,"wspd":8,"visib":"6+","altim":1020,"clouds":[],"obsTime":1774818000},"SBSV":{"icaoId":"SBSV","flightCategory":"VFR","rawOb":"METAR SBSV 292100Z 08006KT 9999 VCSH SCT021 FEW023TCU BKN080 27/23 Q1012","temp":27,"dewp":23,"wdir":80,"wspd":6,"visib":"6+","altim":1012,"clouds":[{"cover":"SCT","base":2100},{"cover":"FEW","base":2300},{"cover":"BKN","base":8000}],"obsTime":1774818000},"SBCG":{"icaoId":"SBCG","flightCategory":"VFR","rawOb":"METAR SBCG 292100Z 11007KT 070V130 CAVOK 30/17 Q1015","temp":30,"dewp":17,"wdir":110,"wspd":7,"visib":"6+","altim":1015,"clouds":[],"obsTime":1774818000},"SBKP":{"icaoId":"SBKP","flightCategory":"VFR","rawOb":"METAR SBKP 292100Z 21006KT 150V230 9999 FEW045 30/18 Q1017","temp":30,"dewp":18,"wdir":210,"wspd":6,"visib":"6+","altim":1017,"clouds":[{"cover":"FEW","base":4500}],"obsTime":1774818000},"SBTE":{"icaoId":"SBTE","flightCategory":"VFR","rawOb":"METAR SBTE 292100Z 36003KT 9999 FEW025TCU BKN090 27/24 Q1009","temp":27,"dewp":24,"wdir":360,"wspd":3,"visib":"6+","altim":1009,"clouds":[{"cover":"FEW","base":2500},{"cover":"BKN","base":9000}],"obsTime":1774818000},"SBLO":{"icaoId":"SBLO","flightCategory":"VFR","rawOb":"METAR SBLO 292100Z 10003KT 9999 FEW035 31/18 Q1016","temp":31,"dewp":18,"wdir":100,"wspd":3,"visib":"6+","altim":1016,"clouds":[{"cover":"FEW","base":3500}],"obsTime":1774818000},"SBUL":{"icaoId":"SBUL","flightCategory":"VFR","rawOb":"METAR SBUL 292100Z 12004KT CAVOK 27/16 Q1018","temp":27,"dewp":16,"wdir":120,"wspd":4,"visib":"6+","altim":1018,"clouds":[],"obsTime":1774818000},"SBUR":{"icaoId":"SBUR","flightCategory":"VFR","rawOb":"METAR SBUR 292100Z 15004KT 9999 VCSH SCT049 FEW051TCU 27/17 Q1017","temp":27,"dewp":17,"wdir":150,"wspd":4,"visib":"6+","altim":1017,"clouds":[{"cover":"SCT","base":4900},{"cover":"FEW","base":5100}],"obsTime":1774818000},"SBBE":{"icaoId":"SBBE","flightCategory":"IFR","rawOb":"METAR SBBE 292100Z 10006KT 4000 TSRA SCT006 BKN015 FEW020CB BKN070 24/24 Q1011","temp":24,"dewp":24,"wdir":100,"wspd":6,"visib":2.49,"altim":1011,"clouds":[{"cover":"SCT","base":600},{"cover":"BKN","base":1500},{"cover":"FEW","base":2000},{"cover":"BKN","base":7000}],"obsTime":1774818000},"SBVT":{"icaoId":"SBVT","flightCategory":"VFR","rawOb":"METAR SBVT 292100Z 16005KT 9999 FEW030 25/23 Q1015","temp":25,"dewp":23,"wdir":160,"wspd":5,"visib":"6+","altim":1015,"clouds":[{"cover":"FEW","base":3000}],"obsTime":1774818000},"SBFI":{"icaoId":"SBFI","flightCategory":"VFR","rawOb":"METAR SBFI 292100Z 24003KT CAVOK 34/20 Q1014","temp":34,"dewp":20,"wdir":240,"wspd":3,"visib":"6+","altim":1014,"clouds":[],"obsTime":1774818000},"SBCR":{"icaoId":"SBCR","flightCategory":"VFR","rawOb":"METAR SBCR 292100Z 09004KT 040V140 9999 FEW030 33/21 Q1011","temp":33,"dewp":21,"wdir":90,"wspd":4,"visib":"6+","altim":1011,"clouds":[{"cover":"FEW","base":3000}],"obsTime":1774818000},"SBHT":{"icaoId":"SBHT","flightCategory":"MVFR","rawOb":"METAR SBHT 292100Z 00000KT 5000 -RA SCT012 OVC080 25/24 Q1010 RETS","temp":25,"dewp":24,"wdir":0,"wspd":0,"visib":3.11,"altim":1010,"clouds":[{"cover":"SCT","base":1200},{"cover":"OVC","base":8000}],"obsTime":1774818000},"SBTF":{"icaoId":"SBTF","flightCategory":"VFR","rawOb":"METAR SBTF 292100Z 12002KT 9999 FEW020 BKN090 29/25 Q1008","temp":29,"dewp":25,"wdir":120,"wspd":2,"visib":"6+","altim":1008,"clouds":[{"cover":"FEW","base":2000},{"cover":"BKN","base":9000}],"obsTime":1774818000},"SBPL":{"icaoId":"SBPL","flightCategory":"VFR","rawOb":"METAR SBPL 292100Z 14004KT 9999 FEW030 FEW035TCU BKN070 31/19 Q1010","temp":31,"dewp":19,"wdir":140,"wspd":4,"visib":"6+","altim":1010,"clouds":[{"cover":"FEW","base":3000},{"cover":"FEW","base":3500},{"cover":"BKN","base":7000}],"obsTime":1774818000},"SBAX":{"icaoId":"SBAX","flightCategory":"VFR","rawOb":"METAR SBAX 292100Z AUTO 09005KT CAVOK 25/15 Q1019","temp":25,"dewp":15,"wdir":90,"wspd":5,"visib":"6+","altim":1019,"clouds":[],"obsTime":1774818000},"SBDN":{"icaoId":"SBDN","flightCategory":"VFR","rawOb":"METAR SBDN 292100Z 03003KT CAVOK 32/19 Q1015","temp":32,"dewp":19,"wdir":30,"wspd":3,"visib":"6+","altim":1015,"clouds":[],"obsTime":1774818000},"SBPS":{"icaoId":"SBPS","flightCategory":"MVFR","rawOb":"METAR SBPS 292100Z 17003KT 100V230 9999 BKN016 BKN060 26/23 Q1014","temp":26,"dewp":23,"wdir":170,"wspd":3,"visib":"6+","altim":1014,"clouds":[{"cover":"BKN","base":1600},{"cover":"BKN","base":6000}],"obsTime":1774818000},"SBBU":{"icaoId":"SBBU","flightCategory":"VFR","rawOb":"METAR SBBU 292100Z /////KT CAVOK 30/18 Q1016","temp":30,"dewp":18,"wdir":null,"wspd":null,"visib":"6+","altim":1016,"clouds":[],"obsTime":1774818000},"SBSC":{"icaoId":"SBSC","flightCategory":"VFR","rawOb":"METAR SBSC 292100Z 17008KT CAVOK 26/21 Q1015","temp":26,"dewp":21,"wdir":170,"wspd":8,"visib":"6+","altim":1015,"clouds":[],"obsTime":1774818000},"SBAR":{"icaoId":"SBAR","flightCategory":"VFR","rawOb":"METAR SBAR 292100Z 10009KT 9999 FEW010 FEW030TCU BKN060 27/23 Q1011","temp":27,"dewp":23,"wdir":100,"wspd":9,"visib":"6+","altim":1011,"clouds":[{"cover":"FEW","base":1000},{"cover":"FEW","base":3000},{"cover":"BKN","base":6000}],"obsTime":1774818000},"SBSJ":{"icaoId":"SBSJ","flightCategory":"VFR","rawOb":"METAR SBSJ 292100Z 13008KT CAVOK 25/18 Q1017","temp":25,"dewp":18,"wdir":130,"wspd":8,"visib":"6+","altim":1017,"clouds":[],"obsTime":1774818000},"SBIP":{"icaoId":"SBIP","flightCategory":"VFR","rawOb":"METAR SBIP 292100Z AUTO VRB02KT CAVOK 26/21 Q1015","temp":26,"dewp":21,"wdir":"VRB","wspd":2,"visib":"6+","altim":1015,"clouds":[],"obsTime":1774818000},"SBSM":{"icaoId":"SBSM","flightCategory":"VFR","rawOb":"METAR SBSM 292100Z 15003KT 120V180 9999 FEW040 FEW045TCU 32/26 Q1014","temp":32,"dewp":26,"wdir":150,"wspd":3,"visib":"6+","altim":1014,"clouds":[{"cover":"FEW","base":4000},{"cover":"FEW","base":4500}],"obsTime":1774818000},"SBCC":{"icaoId":"SBCC","flightCategory":"VFR","rawOb":"METAR SBCC 292200Z 07003KT CAVOK 28/21 Q1012","temp":28,"dewp":21,"wdir":70,"wspd":3,"visib":"6+","altim":1012,"clouds":[],"obsTime":1774821600},"SBSR":{"icaoId":"SBSR","flightCategory":"VFR","rawOb":"METAR SBSR 292100Z 18005KT 9999 FEW040 30/14 Q1016","temp":30,"dewp":14,"wdir":180,"wspd":5,"visib":"6+","altim":1016,"clouds":[{"cover":"FEW","base":4000}],"obsTime":1774818000},"SBKG":{"icaoId":"SBKG","flightCategory":"VFR","rawOb":"METAR SBKG 292100Z 10007KT CAVOK 27/17 Q1012","temp":27,"dewp":17,"wdir":100,"wspd":7,"visib":"6+","altim":1012,"clouds":[],"obsTime":1774818000},"SBBH":{"icaoId":"SBBH","flightCategory":"VFR","rawOb":"METAR SBBH 292100Z 08004KT 9999 FEW045 25/17 Q1018","temp":25,"dewp":17,"wdir":80,"wspd":4,"visib":"6+","altim":1018,"clouds":[{"cover":"FEW","base":4500}],"obsTime":1774818000},"SBOI":{"icaoId":"SBOI","flightCategory":"MVFR","rawOb":"METAR SBOI 292100Z AUTO 06004KT 340V110 9999 -RA SCT013 BKN020 26/25 Q1009","temp":26,"dewp":25,"wdir":60,"wspd":4,"visib":"6+","altim":1009,"clouds":[{"cover":"SCT","base":1300},{"cover":"BKN","base":2000}],"obsTime":1774818000},"SBTT":{"icaoId":"SBTT","flightCategory":"VFR","rawOb":"METAR SBTT 292100Z 07006KT 9999 SCT020 30/23 Q1008","temp":30,"dewp":23,"wdir":70,"wspd":6,"visib":"6+","altim":1008,"clouds":[{"cover":"SCT","base":2000}],"obsTime":1774818000},"SBUY":{"icaoId":"SBUY","flightCategory":"VFR","rawOb":"METAR SBUY 292100Z 10005KT 9999 SCT025 FEW030TCU BKN090 25/24 Q1008","temp":25,"dewp":24,"wdir":100,"wspd":5,"visib":"6+","altim":1008,"clouds":[{"cover":"SCT","base":2500},{"cover":"FEW","base":3000},{"cover":"BKN","base":9000}],"obsTime":1774818000},"SBCO":{"icaoId":"SBCO","flightCategory":"VFR","rawOb":"METAR SBCO 292100Z 12009KT 9999 FEW035TCU 28/24 Q1015","temp":28,"dewp":24,"wdir":120,"wspd":9,"visib":"6+","altim":1015,"clouds":[{"cover":"FEW","base":3500}],"obsTime":1774818000},"SBVH":{"icaoId":"SBVH","flightCategory":"VFR","rawOb":"METAR SBVH 292100Z 09002KT 9999 SCT035 SCT100 27/22 Q1014","temp":27,"dewp":22,"wdir":90,"wspd":2,"visib":"6+","altim":1014,"clouds":[{"cover":"SCT","base":3500},{"cover":"SCT","base":10000}],"obsTime":1774818000},"SBPB":{"icaoId":"SBPB","flightCategory":"VFR","rawOb":"METAR SBPB 292100Z 06004KT 9999 FEW020 BKN100 27/25 Q1009","temp":27,"dewp":25,"wdir":60,"wspd":4,"visib":"6+","altim":1009,"clouds":[{"cover":"FEW","base":2000},{"cover":"BKN","base":10000}],"obsTime":1774818000},"SBCJ":{"icaoId":"SBCJ","flightCategory":"VFR","rawOb":"METAR SBCJ 292100Z 11002KT 9999 -TSRA FEW027CB 26/22 Q1013","temp":26,"dewp":22,"wdir":110,"wspd":2,"visib":"6+","altim":1013,"clouds":[{"cover":"FEW","base":2700}],"obsTime":1774818000},"SBES":{"icaoId":"SBES","flightCategory":"VFR","rawOb":"METAR SBES 292100Z 12005KT 090V170 9999 FEW030 25/// Q1016","temp":null,"dewp":null,"wdir":120,"wspd":5,"visib":"6+","altim":1016,"clouds":[{"cover":"FEW","base":3000}],"obsTime":1774818000},"SBPP":{"icaoId":"SBPP","flightCategory":"VFR","rawOb":"METAR SBPP 292100Z 05004KT 9999 FEW025 30/19 Q1017","temp":30,"dewp":19,"wdir":50,"wspd":4,"visib":"6+","altim":1017,"clouds":[{"cover":"FEW","base":2500}],"obsTime":1774818000},"SBJV":{"icaoId":"SBJV","flightCategory":"VFR","rawOb":"METAR SBJV 292100Z 03004KT 9999 FEW025 29/24 Q1014","temp":29,"dewp":24,"wdir":30,"wspd":4,"visib":"6+","altim":1014,"clouds":[{"cover":"FEW","base":2500}],"obsTime":1774818000},"SBNM":{"icaoId":"SBNM","flightCategory":"VFR","rawOb":"METAR SBNM 292200Z 18002KT 9999 FEW030 32/17 Q1015","temp":32,"dewp":17,"wdir":180,"wspd":2,"visib":"6+","altim":1015,"clouds":[{"cover":"FEW","base":3000}],"obsTime":1774821600},"SBPF":{"icaoId":"SBPF","flightCategory":"VFR","rawOb":"METAR SBPF 292100Z 22006KT CAVOK 30/19 Q1018","temp":30,"dewp":19,"wdir":220,"wspd":6,"visib":"6+","altim":1018,"clouds":[],"obsTime":1774818000},"SBLE":{"icaoId":"SBLE","flightCategory":"VFR","rawOb":"METAR SBLE 292100Z AUTO 15003KT CAVOK 25/22 Q1014","temp":25,"dewp":22,"wdir":150,"wspd":3,"visib":"6+","altim":1014,"clouds":[],"obsTime":1774818000},"SBAN":{"icaoId":"SBAN","flightCategory":"VFR","rawOb":"METAR SBAN 292100Z 16005KT 9999 VCSH FEW040 FEW045TCU 24/16 Q1019","temp":24,"dewp":16,"wdir":160,"wspd":5,"visib":"6+","altim":1019,"clouds":[{"cover":"FEW","base":4000},{"cover":"FEW","base":4500}],"obsTime":1774818000},"SBAF":{"icaoId":"SBAF","flightCategory":"VFR","rawOb":"METAR SBAF 292100Z 17006KT CAVOK 26/23 Q1015","temp":26,"dewp":23,"wdir":170,"wspd":6,"visib":"6+","altim":1015,"clouds":[],"obsTime":1774818000},"SBGW":{"icaoId":"SBGW","flightCategory":"VFR","rawOb":"METAR SBGW 292100Z 03004KT 350V070 9999 FEW040 27/15 Q1016","temp":27,"dewp":15,"wdir":30,"wspd":4,"visib":"6+","altim":1016,"clouds":[{"cover":"FEW","base":4000}],"obsTime":1774818000},"SBJR":{"icaoId":"SBJR","flightCategory":"VFR","rawOb":"METAR SBJR 292100Z 16006KT 9999 FEW018 26/21 Q1015","temp":26,"dewp":21,"wdir":160,"wspd":6,"visib":"6+","altim":1015,"clouds":[{"cover":"FEW","base":1800}],"obsTime":1774818000},"SBLS":{"icaoId":"SBLS","flightCategory":"VFR","rawOb":"METAR SBLS 292100Z 12005KT 9999 FEW040 24/17 Q1018","temp":24,"dewp":17,"wdir":120,"wspd":5,"visib":"6+","altim":1018,"clouds":[{"cover":"FEW","base":4000}],"obsTime":1774818000},"SBMT":{"icaoId":"SBMT","flightCategory":"VFR","rawOb":"METAR SBMT 292100Z 17006KT 120V210 CAVOK 24/19 Q1018","temp":24,"dewp":19,"wdir":170,"wspd":6,"visib":"6+","altim":1018,"clouds":[],"obsTime":1774818000},"SBJP":{"icaoId":"SBJP","flightCategory":"VFR","rawOb":"METAR SBJP 292100Z 13008KT CAVOK 27/22 Q1010","temp":27,"dewp":22,"wdir":130,"wspd":8,"visib":"6+","altim":1010,"clouds":[],"obsTime":1774818000},"SBST":{"icaoId":"SBST","flightCategory":"MVFR","rawOb":"METAR SBST 292100Z 20002KT 9999 BKN025 26/21 Q1015","temp":26,"dewp":21,"wdir":200,"wspd":2,"visib":"6+","altim":1015,"clouds":[{"cover":"BKN","base":2500}],"obsTime":1774818000},"SBTA":{"icaoId":"SBTA","flightCategory":"VFR","rawOb":"METAR SBTA 292100Z 16006KT 130V190 9999 FEW035 27/20 Q1016","temp":27,"dewp":20,"wdir":160,"wspd":6,"visib":"6+","altim":1016,"clouds":[{"cover":"FEW","base":3500}],"obsTime":1774818000},"SBIH":{"icaoId":"SBIH","flightCategory":"MVFR","rawOb":"METAR SBIH 292100Z 32007KT 5000 TS SHRA BR SCT017 FEW025CB OVC080 28/24 Q1009","temp":28,"dewp":24,"wdir":320,"wspd":7,"visib":3.11,"altim":1009,"clouds":[{"cover":"SCT","base":1700},{"cover":"FEW","base":2500},{"cover":"OVC","base":8000}],"obsTime":1774818000}}}