{"updated":1783141446,"count":52,"data":{"SBSN":{"icaoId":"SBSN","flightCategory":"VFR","rawOb":"METAR SBSN 040400Z 18003KT CAVOK 26/25 Q1013","temp":26,"dewp":25,"wdir":180,"wspd":3,"visib":"6+","altim":1013,"clouds":[],"obsTime":1783137600},"SBPJ":{"icaoId":"SBPJ","flightCategory":"VFR","rawOb":"METAR SBPJ 040400Z 12004KT CAVOK 21/16 Q1015","temp":21,"dewp":16,"wdir":120,"wspd":4,"visib":"6+","altim":1015,"clouds":[],"obsTime":1783137600},"SBBV":{"icaoId":"SBBV","flightCategory":"VFR","rawOb":"METAR SBBV 040400Z 27002KT 9999 FEW040 FEW045TCU BKN070 25/24 Q1014","temp":25,"dewp":24,"wdir":270,"wspd":2,"visib":"6+","altim":1014,"clouds":[{"cover":"FEW","base":4000},{"cover":"FEW","base":4500},{"cover":"BKN","base":7000}],"obsTime":1783137600},"SBBR":{"icaoId":"SBBR","flightCategory":"VFR","rawOb":"METAR SBBR 040400Z VRB02KT CAVOK 13/10 Q1022","temp":13,"dewp":10,"wdir":"VRB","wspd":2,"visib":"6+","altim":1022,"clouds":[],"obsTime":1783137600},"SBSV":{"icaoId":"SBSV","flightCategory":"VFR","rawOb":"METAR SBSV 040400Z 13006KT 9999 FEW025 25/20 Q1017","temp":25,"dewp":20,"wdir":130,"wspd":6,"visib":"6+","altim":1017,"clouds":[{"cover":"FEW","base":2500}],"obsTime":1783137600},"SBFZ":{"icaoId":"SBFZ","flightCategory":"VFR","rawOb":"METAR SBFZ 040400Z 14002KT CAVOK 25/23 Q1013","temp":25,"dewp":23,"wdir":140,"wspd":2,"visib":"6+","altim":1013,"clouds":[],"obsTime":1783137600},"SBCT":{"icaoId":"SBCT","flightCategory":"LIFR","rawOb":"METAR SBCT 040400Z 11003KT 7000 OVC002 11/11 Q1024","temp":11,"dewp":11,"wdir":110,"wspd":3,"visib":4.35,"altim":1024,"clouds":[{"cover":"OVC","base":200}],"obsTime":1783137600},"SBBE":{"icaoId":"SBBE","flightCategory":"VFR","rawOb":"METAR SBBE 040400Z 08007KT 9999 SCT040 BKN100 26/24 Q1013","temp":26,"dewp":24,"wdir":80,"wspd":7,"visib":"6+","altim":1013,"clouds":[{"cover":"SCT","base":4000},{"cover":"BKN","base":10000}],"obsTime":1783137600},"SBEG":{"icaoId":"SBEG","flightCategory":"VFR","rawOb":"METAR SBEG 040400Z 12001KT CAVOK 26/24 Q1013","temp":26,"dewp":24,"wdir":120,"wspd":1,"visib":"6+","altim":1013,"clouds":[],"obsTime":1783137600},"SBCF":{"icaoId":"SBCF","flightCategory":"VFR","rawOb":"METAR SBCF 040400Z 20002KT CAVOK 16/13 Q1022","temp":16,"dewp":13,"wdir":200,"wspd":2,"visib":"6+","altim":1022,"clouds":[],"obsTime":1783137600},"SBLO":{"icaoId":"SBLO","flightCategory":"VFR","rawOb":"METAR SBLO 040400Z 24003KT CAVOK 18/16 Q1021","temp":18,"dewp":16,"wdir":240,"wspd":3,"visib":"6+","altim":1021,"clouds":[],"obsTime":1783137600},"SBRB":{"icaoId":"SBRB","flightCategory":"VFR","rawOb":"METAR SBRB 040400Z 17003KT 9999 FEW021 20/18 Q1017","temp":20,"dewp":18,"wdir":170,"wspd":3,"visib":"6+","altim":1017,"clouds":[{"cover":"FEW","base":2100}],"obsTime":1783137600},"SBMA":{"icaoId":"SBMA","flightCategory":"VFR","rawOb":"METAR SBMA 040400Z 00000KT CAVOK 22/19 Q1013","temp":22,"dewp":19,"wdir":0,"wspd":0,"visib":"6+","altim":1013,"clouds":[],"obsTime":1783137600},"SBGR":{"icaoId":"SBGR","flightCategory":"MVFR","rawOb":"METAR SBGR 040400Z 11004KT 8000 OVC011 16/14 Q1024","temp":16,"dewp":14,"wdir":110,"wspd":4,"visib":4.97,"altim":1024,"clouds":[{"cover":"OVC","base":1100}],"obsTime":1783137600},"SBSL":{"icaoId":"SBSL","flightCategory":"VFR","rawOb":"METAR SBSL 040400Z 07004KT CAVOK 26/25 Q1013","temp":26,"dewp":25,"wdir":70,"wspd":4,"visib":"6+","altim":1013,"clouds":[],"obsTime":1783137600},"SBPA":{"icaoId":"SBPA","flightCategory":"MVFR","rawOb":"METAR SBPA 040400Z 29008KT 9999 BKN023 09/05 Q1026","temp":9,"dewp":5,"wdir":290,"wspd":8,"visib":"6+","altim":1026,"clouds":[{"cover":"BKN","base":2300}],"obsTime":1783137600},"SBSG":{"icaoId":"SBSG","flightCategory":"VFR","rawOb":"METAR SBSG 040400Z 18004KT 9999 FEW013 SCT050 24/23 Q1014","temp":24,"dewp":23,"wdir":180,"wspd":4,"visib":"6+","altim":1014,"clouds":[{"cover":"FEW","base":1300},{"cover":"SCT","base":5000}],"obsTime":1783137600},"SBVT":{"icaoId":"SBVT","flightCategory":"VFR","rawOb":"METAR SBVT 040400Z 00000KT CAVOK 17/17 Q1019","temp":17,"dewp":17,"wdir":0,"wspd":0,"visib":"6+","altim":1019,"clouds":[],"obsTime":1783137600},"SBRF":{"icaoId":"SBRF","flightCategory":"MVFR","rawOb":"METAR SBRF 040400Z 20005KT 8000 VCSH SCT013 BKN017 24/23 Q1015","temp":24,"dewp":23,"wdir":200,"wspd":5,"visib":4.97,"altim":1015,"clouds":[{"cover":"SCT","base":1300},{"cover":"BKN","base":1700}],"obsTime":1783137600},"SBFL":{"icaoId":"SBFL","flightCategory":"VFR","rawOb":"METAR SBFL 040400Z 24003KT 170V270 9999 FEW022 09/09 Q1024","temp":9,"dewp":9,"wdir":240,"wspd":3,"visib":"6+","altim":1024,"clouds":[{"cover":"FEW","base":2200}],"obsTime":1783137600},"SBGO":{"icaoId":"SBGO","flightCategory":"VFR","rawOb":"METAR SBGO 040400Z 13003KT CAVOK 17/12 Q1021","temp":17,"dewp":12,"wdir":130,"wspd":3,"visib":"6+","altim":1021,"clouds":[],"obsTime":1783137600},"SBTE":{"icaoId":"SBTE","flightCategory":"VFR","rawOb":"METAR SBTE 040400Z 35003KT CAVOK 24/21 Q1012","temp":24,"dewp":21,"wdir":350,"wspd":3,"visib":"6+","altim":1012,"clouds":[],"obsTime":1783137600},"SBMQ":{"icaoId":"SBMQ","flightCategory":"MVFR","rawOb":"METAR SBMQ 040400Z 31003KT 8000 -RA SCT021 BKN065 BKN100 25/24 Q1013","temp":25,"dewp":24,"wdir":310,"wspd":3,"visib":4.97,"altim":1013,"clouds":[{"cover":"SCT","base":2100},{"cover":"BKN","base":6500},{"cover":"BKN","base":10000}],"obsTime":1783137600},"SBMO":{"icaoId":"SBMO","flightCategory":"VFR","rawOb":"METAR SBMO 040400Z 24005KT 9999 SCT025 22/21 Q1016","temp":22,"dewp":21,"wdir":240,"wspd":5,"visib":"6+","altim":1016,"clouds":[{"cover":"SCT","base":2500}],"obsTime":1783137600},"SBGL":{"icaoId":"SBGL","flightCategory":"VFR","rawOb":"METAR SBGL 040400Z 31006KT 9999 SCT020 OVC040 21/19 Q1021","temp":21,"dewp":19,"wdir":310,"wspd":6,"visib":"6+","altim":1021,"clouds":[{"cover":"SCT","base":2000},{"cover":"OVC","base":4000}],"obsTime":1783137600},"SBKP":{"icaoId":"SBKP","flightCategory":"VFR","rawOb":"METAR SBKP 040400Z 11010KT CAVOK 17/15 Q1022","temp":17,"dewp":15,"wdir":110,"wspd":10,"visib":"6+","altim":1022,"clouds":[],"obsTime":1783137600},"SBCG":{"icaoId":"SBCG","flightCategory":"IFR","rawOb":"METAR SBCG 040400Z 14009KT 9999 OVC005 15/14 Q1021","temp":15,"dewp":14,"wdir":140,"wspd":9,"visib":"6+","altim":1021,"clouds":[{"cover":"OVC","base":500}],"obsTime":1783137600},"SBSP":{"icaoId":"SBSP","flightCategory":"IFR","rawOb":"METAR SBSP 040400Z AUTO 14005KT 100V180 9999 OVC008 16/15 Q1024","temp":16,"dewp":15,"wdir":140,"wspd":5,"visib":"6+","altim":1024,"clouds":[{"cover":"OVC","base":800}],"obsTime":1783137600},"SBPV":{"icaoId":"SBPV","flightCategory":"VFR","rawOb":"METAR SBPV 040400Z 19005KT CAVOK 24/20 Q1014","temp":24,"dewp":20,"wdir":190,"wspd":5,"visib":"6+","altim":1014,"clouds":[],"obsTime":1783137600},"SBFI":{"icaoId":"SBFI","flightCategory":"VFR","rawOb":"METAR SBFI 040400Z 20004KT CAVOK 08/07 Q1023","temp":8,"dewp":7,"wdir":200,"wspd":4,"visib":"6+","altim":1023,"clouds":[],"obsTime":1783137600},"SBNT":{"icaoId":"SBNT","flightCategory":"VFR","rawOb":"METAR SBNT 040400Z 18009KT 9999 VCSH SCT023 SCT053 BKN065 24/22 Q1014","temp":24,"dewp":22,"wdir":180,"wspd":9,"visib":"6+","altim":1014,"clouds":[{"cover":"SCT","base":2300},{"cover":"SCT","base":5300},{"cover":"BKN","base":6500}],"obsTime":1783137600},"SBJU":{"icaoId":"SBJU","flightCategory":"VFR","rawOb":"METAR SBJU 040400Z 18010KT 9999 FEW020 24/15 Q1016","temp":24,"dewp":15,"wdir":180,"wspd":10,"visib":"6+","altim":1016,"clouds":[{"cover":"FEW","base":2000}],"obsTime":1783137600},"SBMG":{"icaoId":"SBMG","flightCategory":"VFR","rawOb":"METAR SBMG 040400Z AUTO 22006KT CAVOK 15/13 Q1021","temp":15,"dewp":13,"wdir":220,"wspd":6,"visib":"6+","altim":1021,"clouds":[],"obsTime":1783137600},"SBME":{"icaoId":"SBME","flightCategory":"VFR","rawOb":"METAR SBME 040400Z 26002KT 9999 SCT020 BKN100 21/19 Q1020","temp":21,"dewp":19,"wdir":260,"wspd":2,"visib":"6+","altim":1020,"clouds":[{"cover":"SCT","base":2000},{"cover":"BKN","base":10000}],"obsTime":1783137600},"SBMK":{"icaoId":"SBMK","flightCategory":"VFR","rawOb":"METAR SBMK 040400Z 00000KT CAVOK 18/15 Q1020","temp":18,"dewp":15,"wdir":0,"wspd":0,"visib":"6+","altim":1020,"clouds":[],"obsTime":1783137600},"SBUL":{"icaoId":"SBUL","flightCategory":"VFR","rawOb":"METAR SBUL 040400Z 15005KT CAVOK 19/11 Q1023","temp":19,"dewp":11,"wdir":150,"wspd":5,"visib":"6+","altim":1023,"clouds":[],"obsTime":1783137600},"SBUR":{"icaoId":"SBUR","flightCategory":"VFR","rawOb":"METAR SBUR 040400Z 12004KT CAVOK 20/13 Q1022","temp":20,"dewp":13,"wdir":120,"wspd":4,"visib":"6+","altim":1022,"clouds":[],"obsTime":1783137600},"SBPL":{"icaoId":"SBPL","flightCategory":"VFR","rawOb":"METAR SBPL 040400Z 11007KT CAVOK 23/17 Q1017","temp":23,"dewp":17,"wdir":110,"wspd":7,"visib":"6+","altim":1017,"clouds":[],"obsTime":1783137600},"SBAR":{"icaoId":"SBAR","flightCategory":"VFR","rawOb":"METAR SBAR 040400Z 13005KT 9999 SCT028 25/20 Q1016","temp":25,"dewp":20,"wdir":130,"wspd":5,"visib":"6+","altim":1016,"clouds":[{"cover":"SCT","base":2800}],"obsTime":1783137600},"SBPS":{"icaoId":"SBPS","flightCategory":"MVFR","rawOb":"METAR SBPS 040400Z 28004KT 9999 -RA BKN030 21/20 Q1019","temp":21,"dewp":20,"wdir":280,"wspd":4,"visib":"6+","altim":1019,"clouds":[{"cover":"BKN","base":3000}],"obsTime":1783137600},"SBOI":{"icaoId":"SBOI","flightCategory":"MVFR","rawOb":"METAR SBOI 040400Z AUTO 35005KT 9999 // FEW005/// OVC013/// 25/25 Q1014","temp":25,"dewp":25,"wdir":350,"wspd":5,"visib":"6+","altim":1014,"clouds":[{"cover":"FEW","base":500},{"cover":"OVC","base":1300}],"obsTime":1783137600},"SBKG":{"icaoId":"SBKG","flightCategory":"MVFR","rawOb":"METAR SBKG 040400Z 15005KT 9999 FEW008 BKN013 21/19 Q1017","temp":21,"dewp":19,"wdir":150,"wspd":5,"visib":"6+","altim":1017,"clouds":[{"cover":"FEW","base":800},{"cover":"BKN","base":1300}],"obsTime":1783137600},"SBAX":{"icaoId":"SBAX","flightCategory":"VFR","rawOb":"METAR SBAX 040400Z AUTO 11004KT 080V140 CAVOK 17/11 Q1023","temp":17,"dewp":11,"wdir":110,"wspd":4,"visib":"6+","altim":1023,"clouds":[],"obsTime":1783137600},"SBDN":{"icaoId":"SBDN","flightCategory":"LIFR","rawOb":"METAR SBDN 040400Z 21002KT 0800 FG FEW001 14/14 Q1021","temp":14,"dewp":14,"wdir":210,"wspd":2,"visib":0.5,"altim":1021,"clouds":[{"cover":"FEW","base":100}],"obsTime":1783137600},"SBIP":{"icaoId":"SBIP","flightCategory":"LIFR","rawOb":"SPECI SBIP 040305Z AUTO 20002KT 0500 FG SCT004 16/16 Q1020","temp":16,"dewp":16,"wdir":200,"wspd":2,"visib":0.31,"altim":1020,"clouds":[{"cover":"SCT","base":400}],"obsTime":1783134300},"SBSC":{"icaoId":"SBSC","flightCategory":"MVFR","rawOb":"METAR SBSC 040400Z 00000KT 9999 BKN012 OVC030 21/20 Q1021","temp":21,"dewp":20,"wdir":0,"wspd":0,"visib":"6+","altim":1021,"clouds":[{"cover":"BKN","base":1200},{"cover":"OVC","base":3000}],"obsTime":1783137600},"SBSR":{"icaoId":"SBSR","flightCategory":"VFR","rawOb":"METAR SBSR 040400Z 20002KT CAVOK 20/16 Q1021","temp":20,"dewp":16,"wdir":200,"wspd":2,"visib":"6+","altim":1021,"clouds":[],"obsTime":1783137600},"SBTU":{"icaoId":"SBTU","flightCategory":"VFR","rawOb":"METAR SBTU 040400Z AUTO 29004KT 9999 // NCD 26/18 Q1015","temp":26,"dewp":18,"wdir":290,"wspd":4,"visib":"6+","altim":1015,"clouds":[],"obsTime":1783137600},"SBJP":{"icaoId":"SBJP","flightCategory":"VFR","rawOb":"METAR SBJP 040400Z 15009KT 9999 FEW020 BKN070 23/23 Q1015","temp":23,"dewp":23,"wdir":150,"wspd":9,"visib":"6+","altim":1015,"clouds":[{"cover":"FEW","base":2000},{"cover":"BKN","base":7000}],"obsTime":1783137600},"SBLE":{"icaoId":"SBLE","flightCategory":"VFR","rawOb":"METAR SBLE 040400Z AUTO VRB01KT 9999 SCT001 OVC043 ///// Q1020","temp":null,"dewp":null,"wdir":"VRB","wspd":1,"visib":"6+","altim":1020,"clouds":[{"cover":"SCT","base":100},{"cover":"OVC","base":4300}],"obsTime":1783137600},"SBAN":{"icaoId":"SBAN","flightCategory":"VFR","rawOb":"METAR SBAN 040400Z 12006KT CAVOK 18/11 Q1023","temp":18,"dewp":11,"wdir":120,"wspd":6,"visib":"6+","altim":1023,"clouds":[],"obsTime":1783137600},"SBNM":{"icaoId":"SBNM","flightCategory":"VFR","rawOb":"METAR SBNM 040400Z AUTO 07004KT CAVOK 03/01 Q1026","temp":3,"dewp":1,"wdir":70,"wspd":4,"visib":"6+","altim":1026,"clouds":[],"obsTime":1783137600}}}