{"updated":1782486394,"count":88,"data":{"SBRF":{"icaoId":"SBRF","flightCategory":"MVFR","rawOb":"SPECI SBRF 261320Z 06008KT 7000 BKN017 OVC060 25/22 Q1018","temp":25,"dewp":22,"wdir":60,"wspd":8,"visib":4.35,"altim":1018,"clouds":[{"cover":"BKN","base":1700},{"cover":"OVC","base":6000}],"obsTime":1782480000},"SBPV":{"icaoId":"SBPV","flightCategory":"VFR","rawOb":"METAR SBPV 261400Z 16011KT 9999 FEW020 26/21 Q1017","temp":26,"dewp":21,"wdir":160,"wspd":11,"visib":"6+","altim":1017,"clouds":[{"cover":"FEW","base":2000}],"obsTime":1782482400},"SBSL":{"icaoId":"SBSL","flightCategory":"VFR","rawOb":"METAR SBSL 261400Z 11016KT 9999 SCT020 30/24 Q1015","temp":30,"dewp":24,"wdir":110,"wspd":16,"visib":"6+","altim":1015,"clouds":[{"cover":"SCT","base":2000}],"obsTime":1782482400},"SBBR":{"icaoId":"SBBR","flightCategory":"VFR","rawOb":"METAR SBBR 261400Z 10014KT CAVOK 21/13 Q1026","temp":21,"dewp":13,"wdir":100,"wspd":14,"visib":"6+","altim":1026,"clouds":[],"obsTime":1782482400},"SBFZ":{"icaoId":"SBFZ","flightCategory":"VFR","rawOb":"METAR SBFZ 261400Z 11010KT 9999 SCT030 30/23 Q1016","temp":30,"dewp":23,"wdir":110,"wspd":10,"visib":"6+","altim":1016,"clouds":[{"cover":"SCT","base":3000}],"obsTime":1782482400},"SBBE":{"icaoId":"SBBE","flightCategory":"MVFR","rawOb":"METAR SBBE 261400Z 07007KT 9999 BKN025 31/26 Q1015","temp":31,"dewp":26,"wdir":70,"wspd":7,"visib":"6+","altim":1015,"clouds":[{"cover":"BKN","base":2500}],"obsTime":1782482400},"SBCF":{"icaoId":"SBCF","flightCategory":"VFR","rawOb":"METAR SBCF 261400Z 08006KT 030V130 9999 FEW020 BKN100 22/15 Q1027","temp":22,"dewp":15,"wdir":80,"wspd":6,"visib":"6+","altim":1027,"clouds":[{"cover":"FEW","base":2000},{"cover":"BKN","base":10000}],"obsTime":1782482400},"SBFL":{"icaoId":"SBFL","flightCategory":"VFR","rawOb":"METAR SBFL 261400Z 35008KT 9999 SCT043 18/11 Q1025","temp":18,"dewp":11,"wdir":350,"wspd":8,"visib":"6+","altim":1025,"clouds":[{"cover":"SCT","base":4300}],"obsTime":1782482400},"SBCZ":{"icaoId":"SBCZ","flightCategory":"IFR","rawOb":"METAR SBCZ 261400Z 14006KT 9000 -DZ OVC006 21/19 Q1019","temp":21,"dewp":19,"wdir":140,"wspd":6,"visib":5.59,"altim":1019,"clouds":[{"cover":"OVC","base":600}],"obsTime":1782482400},"SBNT":{"icaoId":"SBNT","flightCategory":"MVFR","rawOb":"METAR SBNT 261400Z 15005KT 120V180 9999 4000E -RA BKN013 BKN020 FEW029TCU OVC047 26/23 Q1017","temp":26,"dewp":23,"wdir":150,"wspd":5,"visib":"6+","altim":1017,"clouds":[{"cover":"BKN","base":1300},{"cover":"BKN","base":2000},{"cover":"FEW","base":2900},{"cover":"OVC","base":4700}],"obsTime":1782482400},"SBMQ":{"icaoId":"SBMQ","flightCategory":"VFR","rawOb":"METAR SBMQ 261400Z 03008KT 9999 SCT021 30/25 Q1015","temp":30,"dewp":25,"wdir":30,"wspd":8,"visib":"6+","altim":1015,"clouds":[{"cover":"SCT","base":2100}],"obsTime":1782482400},"SBSP":{"icaoId":"SBSP","flightCategory":"IFR","rawOb":"METAR SBSP 261400Z 04005KT 010V090 5000 BR OVC005 15/15 Q1027","temp":15,"dewp":15,"wdir":40,"wspd":5,"visib":3.11,"altim":1027,"clouds":[{"cover":"OVC","base":500}],"obsTime":1782482400},"SBCB":{"icaoId":"SBCB","flightCategory":"MVFR","rawOb":"METAR SBCB 261400Z 16011KT 6000 FEW006 BKN020 BKN040 22/21 Q1025","temp":22,"dewp":21,"wdir":160,"wspd":11,"visib":3.73,"altim":1025,"clouds":[{"cover":"FEW","base":600},{"cover":"BKN","base":2000},{"cover":"BKN","base":4000}],"obsTime":1782482400},"SBEG":{"icaoId":"SBEG","flightCategory":"MVFR","rawOb":"METAR SBEG 261400Z 19005KT 9999 BKN012 SCT020 27/25 Q1015","temp":27,"dewp":25,"wdir":190,"wspd":5,"visib":"6+","altim":1015,"clouds":[{"cover":"BKN","base":1200},{"cover":"SCT","base":2000}],"obsTime":1782482400},"SBPJ":{"icaoId":"SBPJ","flightCategory":"VFR","rawOb":"METAR SBPJ 261400Z 12012KT CAVOK 30/16 Q1018","temp":30,"dewp":16,"wdir":120,"wspd":12,"visib":"6+","altim":1018,"clouds":[],"obsTime":1782482400},"SBMO":{"icaoId":"SBMO","flightCategory":"IFR","rawOb":"METAR SBMO 261400Z VRB02KT 7000 -DZ BKN008 OVC016 24/24 Q1019","temp":24,"dewp":24,"wdir":"VRB","wspd":2,"visib":4.35,"altim":1019,"clouds":[{"cover":"BKN","base":800},{"cover":"OVC","base":1600}],"obsTime":1782482400},"SBBV":{"icaoId":"SBBV","flightCategory":"MVFR","rawOb":"METAR SBBV 261400Z 12010KT 9999 BKN025 28/23 Q1016","temp":28,"dewp":23,"wdir":120,"wspd":10,"visib":"6+","altim":1016,"clouds":[{"cover":"BKN","base":2500}],"obsTime":1782482400},"SBLO":{"icaoId":"SBLO","flightCategory":"IFR","rawOb":"METAR SBLO 261400Z 12005KT 9999 OVC007 14/12 Q1025","temp":14,"dewp":12,"wdir":120,"wspd":5,"visib":"6+","altim":1025,"clouds":[{"cover":"OVC","base":700}],"obsTime":1782482400},"SBSG":{"icaoId":"SBSG","flightCategory":"MVFR","rawOb":"METAR SBSG 261400Z 14003KT 100V210 9999 VCSH BKN015 FEW030TCU BKN050 26/24 Q1018","temp":26,"dewp":24,"wdir":140,"wspd":3,"visib":"6+","altim":1018,"clouds":[{"cover":"BKN","base":1500},{"cover":"FEW","base":3000},{"cover":"BKN","base":5000}],"obsTime":1782482400},"SBRB":{"icaoId":"SBRB","flightCategory":"IFR","rawOb":"METAR SBRB 261400Z 16004KT 9999 BKN008 21/18 Q1020","temp":21,"dewp":18,"wdir":160,"wspd":4,"visib":"6+","altim":1020,"clouds":[{"cover":"BKN","base":800}],"obsTime":1782482400},"SBSV":{"icaoId":"SBSV","flightCategory":"MVFR","rawOb":"METAR SBSV 261400Z 10015KT 9999 VCSH BKN021 FEW023TCU BKN050 28/22 Q1020","temp":28,"dewp":22,"wdir":100,"wspd":15,"visib":"6+","altim":1020,"clouds":[{"cover":"BKN","base":2100},{"cover":"FEW","base":2300},{"cover":"BKN","base":5000}],"obsTime":1782482400},"SBPA":{"icaoId":"SBPA","flightCategory":"VFR","rawOb":"METAR SBPA 261400Z VRB03KT CAVOK 12/07 Q1025","temp":12,"dewp":7,"wdir":"VRB","wspd":3,"visib":"6+","altim":1025,"clouds":[],"obsTime":1782482400},"SBCR":{"icaoId":"SBCR","flightCategory":"VFR","rawOb":"METAR SBCR 261400Z 07004KT 010V070 CAVOK 19/12 Q1021","temp":19,"dewp":12,"wdir":70,"wspd":4,"visib":"6+","altim":1021,"clouds":[],"obsTime":1782482400},"SBTE":{"icaoId":"SBTE","flightCategory":"VFR","rawOb":"METAR SBTE 261400Z 08008KT 9999 SCT035 31/20 Q1015","temp":31,"dewp":20,"wdir":80,"wspd":8,"visib":"6+","altim":1015,"clouds":[{"cover":"SCT","base":3500}],"obsTime":1782482400},"SBMA":{"icaoId":"SBMA","flightCategory":"VFR","rawOb":"METAR SBMA 261400Z 01009KT 9999 FEW025 31/22 Q1015","temp":31,"dewp":22,"wdir":10,"wspd":9,"visib":"6+","altim":1015,"clouds":[{"cover":"FEW","base":2500}],"obsTime":1782482400},"SBKP":{"icaoId":"SBKP","flightCategory":"VFR","rawOb":"METAR SBKP 261400Z 00000KT 9999 FEW006 18/15 Q1026","temp":18,"dewp":15,"wdir":0,"wspd":0,"visib":"6+","altim":1026,"clouds":[{"cover":"FEW","base":600}],"obsTime":1782482400},"SBGO":{"icaoId":"SBGO","flightCategory":"VFR","rawOb":"METAR SBGO 261400Z 09010KT 060V130 CAVOK 25/15 Q1024","temp":25,"dewp":15,"wdir":90,"wspd":10,"visib":"6+","altim":1024,"clouds":[],"obsTime":1782482400},"SBCP":{"icaoId":"SBCP","flightCategory":"VFR","rawOb":"METAR SBCP 261400Z 15003KT 9999 SCT020 26/20 Q1024","temp":26,"dewp":20,"wdir":150,"wspd":3,"visib":"6+","altim":1024,"clouds":[{"cover":"SCT","base":2000}],"obsTime":1782482400},"SBVT":{"icaoId":"SBVT","flightCategory":"VFR","rawOb":"METAR SBVT 261400Z 00000KT 9999 FEW030 SCT045 BKN080 25/20 Q1024","temp":25,"dewp":20,"wdir":0,"wspd":0,"visib":"6+","altim":1024,"clouds":[{"cover":"FEW","base":3000},{"cover":"SCT","base":4500},{"cover":"BKN","base":8000}],"obsTime":1782482400},"SBGR":{"icaoId":"SBGR","flightCategory":"IFR","rawOb":"METAR SBGR 261400Z 07007KT 6000 -DZ OVC006 16/15 Q1027","temp":16,"dewp":15,"wdir":70,"wspd":7,"visib":3.73,"altim":1027,"clouds":[{"cover":"OVC","base":600}],"obsTime":1782482400},"SBGL":{"icaoId":"SBGL","flightCategory":"MVFR","rawOb":"METAR SBGL 261400Z 19004KT 9000 FEW008 SCT015 BKN030 21/19 Q1024","temp":21,"dewp":19,"wdir":190,"wspd":4,"visib":5.59,"altim":1024,"clouds":[{"cover":"FEW","base":800},{"cover":"SCT","base":1500},{"cover":"BKN","base":3000}],"obsTime":1782482400},"SBCG":{"icaoId":"SBCG","flightCategory":"VFR","rawOb":"METAR SBCG 261400Z 06005KT 9999 FEW020 SCT100 20/15 Q1022","temp":20,"dewp":15,"wdir":60,"wspd":5,"visib":"6+","altim":1022,"clouds":[{"cover":"FEW","base":2000},{"cover":"SCT","base":10000}],"obsTime":1782482400},"SBCT":{"icaoId":"SBCT","flightCategory":"IFR","rawOb":"METAR SBCT 261400Z 35004KT 6000 OVC006 11/11 Q1027","temp":11,"dewp":11,"wdir":350,"wspd":4,"visib":3.73,"altim":1027,"clouds":[{"cover":"OVC","base":600}],"obsTime":1782482400},"SBSN":{"icaoId":"SBSN","flightCategory":"MVFR","rawOb":"METAR SBSN 261400Z 17004KT 100V200 9999 SCT011 BKN016 28/26 Q1015","temp":28,"dewp":26,"wdir":170,"wspd":4,"visib":"6+","altim":1015,"clouds":[{"cover":"SCT","base":1100},{"cover":"BKN","base":1600}],"obsTime":1782482400},"SBFI":{"icaoId":"SBFI","flightCategory":"VFR","rawOb":"METAR SBFI 261400Z 09006KT CAVOK 14/10 Q1023","temp":14,"dewp":10,"wdir":90,"wspd":6,"visib":"6+","altim":1023,"clouds":[],"obsTime":1782482400},"SBAT":{"icaoId":"SBAT","flightCategory":"VFR","rawOb":"METAR SBAT 261400Z 16008KT CAVOK 30/21 Q1018","temp":30,"dewp":21,"wdir":160,"wspd":8,"visib":"6+","altim":1018,"clouds":[],"obsTime":1782482400},"SBHT":{"icaoId":"SBHT","flightCategory":"MVFR","rawOb":"METAR SBHT 261400Z 05005KT 9999 BKN025 30/25 Q1016","temp":30,"dewp":25,"wdir":50,"wspd":5,"visib":"6+","altim":1016,"clouds":[{"cover":"BKN","base":2500}],"obsTime":1782482400},"SBMG":{"icaoId":"SBMG","flightCategory":"MVFR","rawOb":"METAR SBMG 261400Z 14005KT 110V180 9999 OVC013 13/11 Q1024","temp":13,"dewp":11,"wdir":140,"wspd":5,"visib":"6+","altim":1024,"clouds":[{"cover":"OVC","base":1300}],"obsTime":1782482400},"SBME":{"icaoId":"SBME","flightCategory":"VFR","rawOb":"METAR SBME 261400Z 03003KT 9999 SCT013 BKN080 23/20 Q1024","temp":23,"dewp":20,"wdir":30,"wspd":3,"visib":"6+","altim":1024,"clouds":[{"cover":"SCT","base":1300},{"cover":"BKN","base":8000}],"obsTime":1782482400},"SBMK":{"icaoId":"SBMK","flightCategory":"VFR","rawOb":"METAR SBMK 261400Z 07009KT 9999 BKN035 25/16 Q1025","temp":25,"dewp":16,"wdir":70,"wspd":9,"visib":"6+","altim":1025,"clouds":[{"cover":"BKN","base":3500}],"obsTime":1782482400},"SBUL":{"icaoId":"SBUL","flightCategory":"VFR","rawOb":"METAR SBUL 261400Z 09015KT 9999 FEW020 BKN090 21/15 Q1026","temp":21,"dewp":15,"wdir":90,"wspd":15,"visib":"6+","altim":1026,"clouds":[{"cover":"FEW","base":2000},{"cover":"BKN","base":9000}],"obsTime":1782482400},"SBUR":{"icaoId":"SBUR","flightCategory":"VFR","rawOb":"METAR SBUR 261400Z 04008KT CAVOK 21/16 Q1025","temp":21,"dewp":16,"wdir":40,"wspd":8,"visib":"6+","altim":1025,"clouds":[],"obsTime":1782482400},"SBJU":{"icaoId":"SBJU","flightCategory":"VFR","rawOb":"METAR SBJU 261400Z 14005KT 9999 FEW020 29/18 Q1018","temp":29,"dewp":18,"wdir":140,"wspd":5,"visib":"6+","altim":1018,"clouds":[{"cover":"FEW","base":2000}],"obsTime":1782482400},"SBIL":{"icaoId":"SBIL","flightCategory":"VFR","rawOb":"METAR SBIL 261400Z 15005KT 100V200 9999 VCSH SCT020 SCT045 BKN070 26/24 Q1021","temp":26,"dewp":24,"wdir":150,"wspd":5,"visib":"6+","altim":1021,"clouds":[{"cover":"SCT","base":2000},{"cover":"SCT","base":4500},{"cover":"BKN","base":7000}],"obsTime":1782482400},"SBOI":{"icaoId":"SBOI","flightCategory":"VFR","rawOb":"METAR SBOI 261400Z AUTO 27004KT 240V300 CAVOK 25/23 Q1016","temp":25,"dewp":23,"wdir":270,"wspd":4,"visib":"6+","altim":1016,"clouds":[],"obsTime":1782482400},"SBAR":{"icaoId":"SBAR","flightCategory":"VFR","rawOb":"METAR SBAR 261400Z 11009KT 9999 -RA SCT015 SCT020 OVC050 27/24 Q1019","temp":27,"dewp":24,"wdir":110,"wspd":9,"visib":"6+","altim":1019,"clouds":[{"cover":"SCT","base":1500},{"cover":"SCT","base":2000},{"cover":"OVC","base":5000}],"obsTime":1782482400},"SBCJ":{"icaoId":"SBCJ","flightCategory":"VFR","rawOb":"METAR SBCJ 261400Z 12010KT CAVOK 27/18 Q1020","temp":27,"dewp":18,"wdir":120,"wspd":10,"visib":"6+","altim":1020,"clouds":[],"obsTime":1782482400},"SBPB":{"icaoId":"SBPB","flightCategory":"VFR","rawOb":"METAR SBPB 261400Z 06013KT 9999 SCT020 31/24 Q1015","temp":31,"dewp":24,"wdir":60,"wspd":13,"visib":"6+","altim":1015,"clouds":[{"cover":"SCT","base":2000}],"obsTime":1782482400},"SBTD":{"icaoId":"SBTD","flightCategory":"VFR","rawOb":"METAR SBTD 261400Z /////KT CAVOK 16/11 Q1024","temp":16,"dewp":11,"wdir":null,"wspd":null,"visib":"6+","altim":1024,"clouds":[],"obsTime":1782482400},"SBTT":{"icaoId":"SBTT","flightCategory":"MVFR","rawOb":"METAR SBTT 261400Z 19010KT 9999 BKN012 BKN080 23/20 Q1018","temp":23,"dewp":20,"wdir":190,"wspd":10,"visib":"6+","altim":1018,"clouds":[{"cover":"BKN","base":1200},{"cover":"BKN","base":8000}],"obsTime":1782482400},"SBUY":{"icaoId":"SBUY","flightCategory":"MVFR","rawOb":"METAR SBUY 261400Z 20002KT 9999 BKN010 BKN080 24/22 Q1016","temp":24,"dewp":22,"wdir":200,"wspd":2,"visib":"6+","altim":1016,"clouds":[{"cover":"BKN","base":1000},{"cover":"BKN","base":8000}],"obsTime":1782482400},"SBPL":{"icaoId":"SBPL","flightCategory":"MVFR","rawOb":"METAR SBPL 261400Z 10010KT 9999 BKN025 BKN070 28/21 Q1020","temp":28,"dewp":21,"wdir":100,"wspd":10,"visib":"6+","altim":1020,"clouds":[{"cover":"BKN","base":2500},{"cover":"BKN","base":7000}],"obsTime":1782482400},"SBSJ":{"icaoId":"SBSJ","flightCategory":"MVFR","rawOb":"METAR SBSJ 261400Z 02003KT 310V080 9999 OVC012 18/15 Q1026","temp":18,"dewp":15,"wdir":20,"wspd":3,"visib":"6+","altim":1026,"clouds":[{"cover":"OVC","base":1200}],"obsTime":1782482400},"SBPP":{"icaoId":"SBPP","flightCategory":"LIFR","rawOb":"SPECI SBPP 261330Z 08011KT 1200 BR OVC001 12/12 Q1022","temp":12,"dewp":12,"wdir":80,"wspd":11,"visib":0.75,"altim":1022,"clouds":[{"cover":"OVC","base":100}],"obsTime":1782480600},"SBTF":{"icaoId":"SBTF","flightCategory":"VFR","rawOb":"METAR SBTF 261400Z 23008KT 9999 SCT012 BKN090 26/24 Q1016","temp":26,"dewp":24,"wdir":230,"wspd":8,"visib":"6+","altim":1016,"clouds":[{"cover":"SCT","base":1200},{"cover":"BKN","base":9000}],"obsTime":1782482400},"SBPS":{"icaoId":"SBPS","flightCategory":"VFR","rawOb":"METAR SBPS 261400Z 09013KT 9999 SCT025 BKN040 27/22 Q1023","temp":27,"dewp":22,"wdir":90,"wspd":13,"visib":"6+","altim":1023,"clouds":[{"cover":"SCT","base":2500},{"cover":"BKN","base":4000}],"obsTime":1782482400},"SBKG":{"icaoId":"SBKG","flightCategory":"IFR","rawOb":"METAR SBKG 261400Z 14009KT 4000 -RA BR FEW006 BKN008 BKN070 21/21 Q1021 RERA","temp":21,"dewp":21,"wdir":140,"wspd":9,"visib":2.49,"altim":1021,"clouds":[{"cover":"FEW","base":600},{"cover":"BKN","base":800},{"cover":"BKN","base":7000}],"obsTime":1782482400},"SBCC":{"icaoId":"SBCC","flightCategory":"VFR","rawOb":"METAR SBCC 261400Z 10010KT CAVOK 28/18 Q1018","temp":28,"dewp":18,"wdir":100,"wspd":10,"visib":"6+","altim":1018,"clouds":[],"obsTime":1782482400},"SBGM":{"icaoId":"SBGM","flightCategory":"MVFR","rawOb":"METAR SBGM 261400Z 13006KT 9999 BKN010 OVC020 22/18 Q1019","temp":22,"dewp":18,"wdir":130,"wspd":6,"visib":"6+","altim":1019,"clouds":[{"cover":"BKN","base":1000},{"cover":"OVC","base":2000}],"obsTime":1782482400},"SBVH":{"icaoId":"SBVH","flightCategory":"VFR","rawOb":"METAR SBVH 261400Z 10008KT CAVOK 23/18 Q1021","temp":23,"dewp":18,"wdir":100,"wspd":8,"visib":"6+","altim":1021,"clouds":[],"obsTime":1782482400},"SBCA":{"icaoId":"SBCA","flightCategory":"VFR","rawOb":"METAR SBCA 261400Z 05014KT CAVOK 14/10 Q1025","temp":14,"dewp":10,"wdir":50,"wspd":14,"visib":"6+","altim":1025,"clouds":[],"obsTime":1782482400},"SBCO":{"icaoId":"SBCO","flightCategory":"VFR","rawOb":"METAR SBCO 261400Z 32004KT 290V350 CAVOK 13/06 Q1026","temp":13,"dewp":6,"wdir":320,"wspd":4,"visib":"6+","altim":1026,"clouds":[],"obsTime":1782482400},"SBSM":{"icaoId":"SBSM","flightCategory":"VFR","rawOb":"METAR SBSM 261400Z 11004KT 040V170 CAVOK 13/08 Q1025","temp":13,"dewp":8,"wdir":110,"wspd":4,"visib":"6+","altim":1025,"clouds":[],"obsTime":1782482400},"SBAU":{"icaoId":"SBAU","flightCategory":"IFR","rawOb":"METAR SBAU 261400Z 09010KT 8000 BKN008 19/16 Q1023","temp":19,"dewp":16,"wdir":90,"wspd":10,"visib":4.97,"altim":1023,"clouds":[{"cover":"BKN","base":800}],"obsTime":1782482400},"SBAX":{"icaoId":"SBAX","flightCategory":"VFR","rawOb":"METAR SBAX 261400Z AUTO 07007KT 020V110 9999 FEW017 20/15 Q1027","temp":20,"dewp":15,"wdir":70,"wspd":7,"visib":"6+","altim":1027,"clouds":[{"cover":"FEW","base":1700}],"obsTime":1782482400},"SBBH":{"icaoId":"SBBH","flightCategory":"VFR","rawOb":"METAR SBBH 261400Z 07008KT 9999 FEW045 23/14 Q1027","temp":23,"dewp":14,"wdir":70,"wspd":8,"visib":"6+","altim":1027,"clouds":[{"cover":"FEW","base":4500}],"obsTime":1782482400},"SBBQ":{"icaoId":"SBBQ","flightCategory":"MVFR","rawOb":"METAR SBBQ 261400Z 06006KT 020V120 9999 BKN015 18/15 Q1030","temp":18,"dewp":15,"wdir":60,"wspd":6,"visib":"6+","altim":1030,"clouds":[{"cover":"BKN","base":1500}],"obsTime":1782482400},"SBBU":{"icaoId":"SBBU","flightCategory":"VFR","rawOb":"METAR SBBU 261400Z 17004KT 9999 FEW015 18/18 Q1025","temp":18,"dewp":18,"wdir":170,"wspd":4,"visib":"6+","altim":1025,"clouds":[{"cover":"FEW","base":1500}],"obsTime":1782482400},"SBIP":{"icaoId":"SBIP","flightCategory":"VFR","rawOb":"METAR SBIP 261400Z AUTO 17004KT 100V230 9999 FEW049 25/18 Q1025","temp":25,"dewp":18,"wdir":170,"wspd":4,"visib":"6+","altim":1025,"clouds":[{"cover":"FEW","base":4900}],"obsTime":1782482400},"SBSC":{"icaoId":"SBSC","flightCategory":"VFR","rawOb":"METAR SBSC 261400Z 04004KT 9999 FEW010 SCT020 BKN070 21/19 Q1025","temp":21,"dewp":19,"wdir":40,"wspd":4,"visib":"6+","altim":1025,"clouds":[{"cover":"FEW","base":1000},{"cover":"SCT","base":2000},{"cover":"BKN","base":7000}],"obsTime":1782482400},"SBSR":{"icaoId":"SBSR","flightCategory":"VFR","rawOb":"METAR SBSR 261400Z 12003KT 9999 FEW040 SCT063 21/17 Q1024","temp":21,"dewp":17,"wdir":120,"wspd":3,"visib":"6+","altim":1024,"clouds":[{"cover":"FEW","base":4000},{"cover":"SCT","base":6300}],"obsTime":1782482400},"SBTU":{"icaoId":"SBTU","flightCategory":"MVFR","rawOb":"METAR SBTU 261400Z AUTO 24005KT 200V280 9999 // BKN012/// ///// Q1017","temp":null,"dewp":null,"wdir":240,"wspd":5,"visib":"6+","altim":1017,"clouds":[{"cover":"BKN","base":1200}],"obsTime":1782482400},"SBDN":{"icaoId":"SBDN","flightCategory":"LIFR","rawOb":"METAR SBDN 261400Z 12006KT 5000 BR OVC004 15/13 Q1024","temp":15,"dewp":13,"wdir":120,"wspd":6,"visib":3.11,"altim":1024,"clouds":[{"cover":"OVC","base":400}],"obsTime":1782482400},"SBES":{"icaoId":"SBES","flightCategory":"MVFR","rawOb":"METAR SBES 261400Z 07005KT 9999 SCT008 BKN030 22/// Q1024","temp":null,"dewp":null,"wdir":70,"wspd":5,"visib":"6+","altim":1024,"clouds":[{"cover":"SCT","base":800},{"cover":"BKN","base":3000}],"obsTime":1782482400},"SBJP":{"icaoId":"SBJP","flightCategory":"IFR","rawOb":"METAR SBJP 261400Z 10008KT 4500 RA BKN014 OVC070 25/24 Q1018","temp":25,"dewp":24,"wdir":100,"wspd":8,"visib":2.8,"altim":1018,"clouds":[{"cover":"BKN","base":1400},{"cover":"OVC","base":7000}],"obsTime":1782482400},"SBLE":{"icaoId":"SBLE","flightCategory":"MVFR","rawOb":"METAR SBLE 261400Z AUTO 14007KT 110V180 9999 BKN027 24/18 Q1023","temp":24,"dewp":18,"wdir":140,"wspd":7,"visib":"6+","altim":1023,"clouds":[{"cover":"BKN","base":2700}],"obsTime":1782482400},"SBIH":{"icaoId":"SBIH","flightCategory":"VFR","rawOb":"METAR SBIH 261400Z 22003KT 9999 SCT015 28/25 Q1015","temp":28,"dewp":25,"wdir":220,"wspd":3,"visib":"6+","altim":1015,"clouds":[{"cover":"SCT","base":1500}],"obsTime":1782482400},"SBAN":{"icaoId":"SBAN","flightCategory":"VFR","rawOb":"METAR SBAN 261400Z 07004KT CAVOK 22/13 Q1026","temp":22,"dewp":13,"wdir":70,"wspd":4,"visib":"6+","altim":1026,"clouds":[],"obsTime":1782482400},"SBJV":{"icaoId":"SBJV","flightCategory":"MVFR","rawOb":"METAR SBJV 261400Z 32001KT 9999 OVC030 15/11 Q1026","temp":15,"dewp":11,"wdir":320,"wspd":1,"visib":"6+","altim":1026,"clouds":[{"cover":"OVC","base":3000}],"obsTime":1782482400},"SBNM":{"icaoId":"SBNM","flightCategory":"VFR","rawOb":"METAR SBNM 261400Z 14002KT CAVOK 11/08 Q1024","temp":11,"dewp":8,"wdir":140,"wspd":2,"visib":"6+","altim":1024,"clouds":[],"obsTime":1782482400},"SBPF":{"icaoId":"SBPF","flightCategory":"VFR","rawOb":"METAR SBPF 261400Z 03010KT CAVOK 09/04 Q1026","temp":9,"dewp":4,"wdir":30,"wspd":10,"visib":"6+","altim":1026,"clouds":[],"obsTime":1782482400},"SBAF":{"icaoId":"SBAF","flightCategory":"MVFR","rawOb":"METAR SBAF 261400Z 25003KT 9000 SCT009 BKN020 21/21 Q1024","temp":21,"dewp":21,"wdir":250,"wspd":3,"visib":5.59,"altim":1024,"clouds":[{"cover":"SCT","base":900},{"cover":"BKN","base":2000}],"obsTime":1782482400},"SBGW":{"icaoId":"SBGW","flightCategory":"MVFR","rawOb":"METAR SBGW 261400Z 04003KT 7000 FEW008 SCT015 BKN100 19/14 Q1026","temp":19,"dewp":14,"wdir":40,"wspd":3,"visib":4.35,"altim":1026,"clouds":[{"cover":"FEW","base":800},{"cover":"SCT","base":1500},{"cover":"BKN","base":10000}],"obsTime":1782482400},"SBJR":{"icaoId":"SBJR","flightCategory":"MVFR","rawOb":"METAR SBJR 261400Z 00000KT 9999 FEW008 BKN018 OVC030 23/20 Q1024","temp":23,"dewp":20,"wdir":0,"wspd":0,"visib":"6+","altim":1024,"clouds":[{"cover":"FEW","base":800},{"cover":"BKN","base":1800},{"cover":"OVC","base":3000}],"obsTime":1782482400},"SBLS":{"icaoId":"SBLS","flightCategory":"VFR","rawOb":"METAR SBLS 261400Z 10005KT 9999 FEW025 BKN100 21/15 Q1027","temp":21,"dewp":15,"wdir":100,"wspd":5,"visib":"6+","altim":1027,"clouds":[{"cover":"FEW","base":2500},{"cover":"BKN","base":10000}],"obsTime":1782482400},"SBMT":{"icaoId":"SBMT","flightCategory":"IFR","rawOb":"METAR SBMT 261400Z 06005KT 4000 BR OVC006 16/14 Q1026","temp":16,"dewp":14,"wdir":60,"wspd":5,"visib":2.49,"altim":1026,"clouds":[{"cover":"OVC","base":600}],"obsTime":1782482400},"SBST":{"icaoId":"SBST","flightCategory":"VFR","rawOb":"METAR SBST 261400Z 00000KT 9999 BKN036 18/14 Q1025","temp":18,"dewp":14,"wdir":0,"wspd":0,"visib":"6+","altim":1025,"clouds":[{"cover":"BKN","base":3600}],"obsTime":1782482400},"SBTA":{"icaoId":"SBTA","flightCategory":"MVFR","rawOb":"METAR SBTA 261400Z 07003KT 340V130 9999 BKN010 19/16 Q1026","temp":19,"dewp":16,"wdir":70,"wspd":3,"visib":"6+","altim":1026,"clouds":[{"cover":"BKN","base":1000}],"obsTime":1782482400}}}