{"updated":1784850290,"count":75,"data":{"SBGO":{"icaoId":"SBGO","flightCategory":"VFR","rawOb":"METAR SBGO 232200Z 13004KT CAVOK 27/12 Q1016","temp":27,"dewp":12,"wdir":130,"wspd":4,"visib":"6+","altim":1016,"clouds":[],"obsTime":1784844000},"SBFZ":{"icaoId":"SBFZ","flightCategory":"VFR","rawOb":"METAR SBFZ 232200Z 10010KT 9999 SCT020 27/24 Q1013","temp":27,"dewp":24,"wdir":100,"wspd":10,"visib":"6+","altim":1013,"clouds":[{"cover":"SCT","base":2000}],"obsTime":1784844000},"SBRF":{"icaoId":"SBRF","flightCategory":"VFR","rawOb":"METAR SBRF 232200Z 14010KT 9999 SCT018 OVC080 26/23 Q1015","temp":26,"dewp":23,"wdir":140,"wspd":10,"visib":"6+","altim":1015,"clouds":[{"cover":"SCT","base":1800},{"cover":"OVC","base":8000}],"obsTime":1784844000},"SBMG":{"icaoId":"SBMG","flightCategory":"LIFR","rawOb":"METAR SBMG 232200Z 15010KT 1000 R10/P2000 -RA BR BKN001 BKN040 18/17 Q1016 RERA","temp":18,"dewp":17,"wdir":150,"wspd":10,"visib":0.62,"altim":1016,"clouds":[{"cover":"BKN","base":100},{"cover":"BKN","base":4000}],"obsTime":1784844000},"SBFL":{"icaoId":"SBFL","flightCategory":"VFR","rawOb":"METAR SBFL 232200Z 12008KT 9999 FEW030 18/13 Q1018","temp":18,"dewp":13,"wdir":120,"wspd":8,"visib":"6+","altim":1018,"clouds":[{"cover":"FEW","base":3000}],"obsTime":1784844000},"SBSV":{"icaoId":"SBSV","flightCategory":"VFR","rawOb":"METAR SBSV 232200Z 09008KT 9999 FEW022 25/20 Q1016","temp":25,"dewp":20,"wdir":90,"wspd":8,"visib":"6+","altim":1016,"clouds":[{"cover":"FEW","base":2200}],"obsTime":1784844000},"SBPJ":{"icaoId":"SBPJ","flightCategory":"VFR","rawOb":"METAR SBPJ 232200Z 12002KT CAVOK 28/19 Q1011","temp":28,"dewp":19,"wdir":120,"wspd":2,"visib":"6+","altim":1011,"clouds":[],"obsTime":1784844000},"SBIL":{"icaoId":"SBIL","flightCategory":"VFR","rawOb":"METAR SBIL 232200Z 11006KT CAVOK 25/22 Q1016","temp":25,"dewp":22,"wdir":110,"wspd":6,"visib":"6+","altim":1016,"clouds":[],"obsTime":1784844000},"SBMA":{"icaoId":"SBMA","flightCategory":"VFR","rawOb":"METAR SBMA 232200Z 06004KT 9999 FEW025 SCT100 33/19 Q1010","temp":33,"dewp":19,"wdir":60,"wspd":4,"visib":"6+","altim":1010,"clouds":[{"cover":"FEW","base":2500},{"cover":"SCT","base":10000}],"obsTime":1784844000},"SBJU":{"icaoId":"SBJU","flightCategory":"VFR","rawOb":"METAR SBJU 232200Z 10005KT 9999 SCT020 27/19 Q1015","temp":27,"dewp":19,"wdir":100,"wspd":5,"visib":"6+","altim":1015,"clouds":[{"cover":"SCT","base":2000}],"obsTime":1784844000},"SBGR":{"icaoId":"SBGR","flightCategory":"IFR","rawOb":"METAR SBGR 232200Z 17006KT 8000 OVC007 16/14 Q1020","temp":16,"dewp":14,"wdir":170,"wspd":6,"visib":4.97,"altim":1020,"clouds":[{"cover":"OVC","base":700}],"obsTime":1784844000},"SBME":{"icaoId":"SBME","flightCategory":"VFR","rawOb":"METAR SBME 232200Z 20008KT 9999 FEW030 BKN070 23/20 Q1016","temp":23,"dewp":20,"wdir":200,"wspd":8,"visib":"6+","altim":1016,"clouds":[{"cover":"FEW","base":3000},{"cover":"BKN","base":7000}],"obsTime":1784844000},"SBMK":{"icaoId":"SBMK","flightCategory":"VFR","rawOb":"METAR SBMK 232200Z 12005KT CAVOK 26/11 Q1016","temp":26,"dewp":11,"wdir":120,"wspd":5,"visib":"6+","altim":1016,"clouds":[],"obsTime":1784844000},"SBUL":{"icaoId":"SBUL","flightCategory":"VFR","rawOb":"METAR SBUL 232200Z 02003KT CAVOK 26/10 Q1018","temp":26,"dewp":10,"wdir":20,"wspd":3,"visib":"6+","altim":1018,"clouds":[],"obsTime":1784844000},"SBUR":{"icaoId":"SBUR","flightCategory":"VFR","rawOb":"METAR SBUR 232200Z 25003KT CAVOK 26/13 Q1017","temp":26,"dewp":13,"wdir":250,"wspd":3,"visib":"6+","altim":1017,"clouds":[],"obsTime":1784844000},"SBKP":{"icaoId":"SBKP","flightCategory":"VFR","rawOb":"METAR SBKP 232200Z 13006KT CAVOK 20/15 Q1017","temp":20,"dewp":15,"wdir":130,"wspd":6,"visib":"6+","altim":1017,"clouds":[],"obsTime":1784844000},"SBTE":{"icaoId":"SBTE","flightCategory":"VFR","rawOb":"METAR SBTE 232200Z 33004KT 9999 FEW030 31/22 Q1010","temp":31,"dewp":22,"wdir":330,"wspd":4,"visib":"6+","altim":1010,"clouds":[{"cover":"FEW","base":3000}],"obsTime":1784844000},"SBPA":{"icaoId":"SBPA","flightCategory":"VFR","rawOb":"METAR SBPA 232200Z 13008KT 9999 FEW020 SCT060 16/13 Q1020","temp":16,"dewp":13,"wdir":130,"wspd":8,"visib":"6+","altim":1020,"clouds":[{"cover":"FEW","base":2000},{"cover":"SCT","base":6000}],"obsTime":1784844000},"SBVT":{"icaoId":"SBVT","flightCategory":"VFR","rawOb":"METAR SBVT 232200Z 04011KT CAVOK 24/21 Q1014","temp":24,"dewp":21,"wdir":40,"wspd":11,"visib":"6+","altim":1014,"clouds":[],"obsTime":1784844000},"SBCG":{"icaoId":"SBCG","flightCategory":"VFR","rawOb":"METAR SBCG 232200Z 21005KT 9999 FEW035 BKN100 22/19 Q1015","temp":22,"dewp":19,"wdir":210,"wspd":5,"visib":"6+","altim":1015,"clouds":[{"cover":"FEW","base":3500},{"cover":"BKN","base":10000}],"obsTime":1784844000},"SBCF":{"icaoId":"SBCF","flightCategory":"VFR","rawOb":"METAR SBCF 232200Z 01004KT CAVOK 26/09 Q1018","temp":26,"dewp":9,"wdir":10,"wspd":4,"visib":"6+","altim":1018,"clouds":[],"obsTime":1784844000},"SBMQ":{"icaoId":"SBMQ","flightCategory":"VFR","rawOb":"METAR SBMQ 232200Z 04007KT 9999 FEW020 FEW025TCU 30/25 Q1011","temp":30,"dewp":25,"wdir":40,"wspd":7,"visib":"6+","altim":1011,"clouds":[{"cover":"FEW","base":2000},{"cover":"FEW","base":2500}],"obsTime":1784844000},"SBFI":{"icaoId":"SBFI","flightCategory":"VFR","rawOb":"METAR SBFI 232200Z 20005KT 9999 FEW040 BKN100 29/17 Q1015","temp":29,"dewp":17,"wdir":200,"wspd":5,"visib":"6+","altim":1015,"clouds":[{"cover":"FEW","base":4000},{"cover":"BKN","base":10000}],"obsTime":1784844000},"SBCZ":{"icaoId":"SBCZ","flightCategory":"VFR","rawOb":"METAR SBCZ 232200Z 36004KT 9999 FEW030 FEW030TCU SCT100 27/25 Q1010","temp":27,"dewp":25,"wdir":360,"wspd":4,"visib":"6+","altim":1010,"clouds":[{"cover":"FEW","base":3000},{"cover":"FEW","base":3000},{"cover":"SCT","base":10000}],"obsTime":1784844000},"SBEG":{"icaoId":"SBEG","flightCategory":"VFR","rawOb":"METAR SBEG 232200Z 11008KT 9999 FEW030 31/23 Q1010","temp":31,"dewp":23,"wdir":110,"wspd":8,"visib":"6+","altim":1010,"clouds":[{"cover":"FEW","base":3000}],"obsTime":1784844000},"SBSN":{"icaoId":"SBSN","flightCategory":"VFR","rawOb":"METAR SBSN 232200Z 12005KT CAVOK 29/24 Q1010","temp":29,"dewp":24,"wdir":120,"wspd":5,"visib":"6+","altim":1010,"clouds":[],"obsTime":1784844000},"SBSP":{"icaoId":"SBSP","flightCategory":"IFR","rawOb":"METAR SBSP 232200Z 18011KT 9999 FEW003 OVC006 15/14 Q1021","temp":15,"dewp":14,"wdir":180,"wspd":11,"visib":"6+","altim":1021,"clouds":[{"cover":"FEW","base":300},{"cover":"OVC","base":600}],"obsTime":1784844000},"SBNT":{"icaoId":"SBNT","flightCategory":"MVFR","rawOb":"METAR SBNT 232200Z 16009KT 7000 -RA FEW008 BKN013 OVC033 24/23 Q1014","temp":24,"dewp":23,"wdir":160,"wspd":9,"visib":4.35,"altim":1014,"clouds":[{"cover":"FEW","base":800},{"cover":"BKN","base":1300},{"cover":"OVC","base":3300}],"obsTime":1784844000},"SBBV":{"icaoId":"SBBV","flightCategory":"VFR","rawOb":"METAR SBBV 232200Z 08004KT 9999 SCT045 SCT090 33/20 Q1010","temp":33,"dewp":20,"wdir":80,"wspd":4,"visib":"6+","altim":1010,"clouds":[{"cover":"SCT","base":4500},{"cover":"SCT","base":9000}],"obsTime":1784844000},"SBMO":{"icaoId":"SBMO","flightCategory":"VFR","rawOb":"METAR SBMO 232200Z 14005KT 9999 SCT017 25/22 Q1016","temp":25,"dewp":22,"wdir":140,"wspd":5,"visib":"6+","altim":1016,"clouds":[{"cover":"SCT","base":1700}],"obsTime":1784844000},"SBBE":{"icaoId":"SBBE","flightCategory":"MVFR","rawOb":"METAR SBBE 232200Z 05008KT 9999 FEW026 BKN030 27/25 Q1011","temp":27,"dewp":25,"wdir":50,"wspd":8,"visib":"6+","altim":1011,"clouds":[{"cover":"FEW","base":2600},{"cover":"BKN","base":3000}],"obsTime":1784844000},"SBSL":{"icaoId":"SBSL","flightCategory":"VFR","rawOb":"METAR SBSL 232200Z 06009KT 9999 FEW020 28/25 Q1011","temp":28,"dewp":25,"wdir":60,"wspd":9,"visib":"6+","altim":1011,"clouds":[{"cover":"FEW","base":2000}],"obsTime":1784844000},"SBSG":{"icaoId":"SBSG","flightCategory":"MVFR","rawOb":"METAR SBSG 232200Z 15003KT 110V190 9999 VCSH SCT005 BKN012 24/24 Q1015 RERA","temp":24,"dewp":24,"wdir":150,"wspd":3,"visib":"6+","altim":1015,"clouds":[{"cover":"SCT","base":500},{"cover":"BKN","base":1200}],"obsTime":1784844000},"SBPV":{"icaoId":"SBPV","flightCategory":"VFR","rawOb":"METAR SBPV 232200Z 35002KT 9999 FEW048 29/21 Q1009","temp":29,"dewp":21,"wdir":350,"wspd":2,"visib":"6+","altim":1009,"clouds":[{"cover":"FEW","base":4800}],"obsTime":1784844000},"SBLO":{"icaoId":"SBLO","flightCategory":"MVFR","rawOb":"METAR SBLO 232200Z 32002KT 9000 -RA BKN025 19/17 Q1018 RETS","temp":19,"dewp":17,"wdir":320,"wspd":2,"visib":5.59,"altim":1018,"clouds":[{"cover":"BKN","base":2500}],"obsTime":1784844000},"SBBR":{"icaoId":"SBBR","flightCategory":"VFR","rawOb":"METAR SBBR 232200Z 13004KT CAVOK 25/09 Q1018","temp":25,"dewp":9,"wdir":130,"wspd":4,"visib":"6+","altim":1018,"clouds":[],"obsTime":1784844000},"SBGL":{"icaoId":"SBGL","flightCategory":"VFR","rawOb":"METAR SBGL 232200Z 22007KT 9999 FEW030 BKN100 23/18 Q1016","temp":23,"dewp":18,"wdir":220,"wspd":7,"visib":"6+","altim":1016,"clouds":[{"cover":"FEW","base":3000},{"cover":"BKN","base":10000}],"obsTime":1784844000},"SBRB":{"icaoId":"SBRB","flightCategory":"MVFR","rawOb":"METAR SBRB 232200Z 11002KT 8000 SCT030 FEW030TCU SCT100 30/24 Q1010","temp":30,"dewp":24,"wdir":110,"wspd":2,"visib":4.97,"altim":1010,"clouds":[{"cover":"SCT","base":3000},{"cover":"FEW","base":3000},{"cover":"SCT","base":10000}],"obsTime":1784844000},"SBCT":{"icaoId":"SBCT","flightCategory":"IFR","rawOb":"METAR SBCT 232200Z 07007KT 9999 BKN008 12/11 Q1020","temp":12,"dewp":11,"wdir":70,"wspd":7,"visib":"6+","altim":1020,"clouds":[{"cover":"BKN","base":800}],"obsTime":1784844000},"SBCP":{"icaoId":"SBCP","flightCategory":"VFR","rawOb":"METAR SBCP 232200Z 21010KT CAVOK 23/20 Q1015","temp":23,"dewp":20,"wdir":210,"wspd":10,"visib":"6+","altim":1015,"clouds":[],"obsTime":1784844000},"SBSJ":{"icaoId":"SBSJ","flightCategory":"MVFR","rawOb":"METAR SBSJ 232200Z 18007KT 140V200 9999 BKN013 17/15 Q1019","temp":17,"dewp":15,"wdir":180,"wspd":7,"visib":"6+","altim":1019,"clouds":[{"cover":"BKN","base":1300}],"obsTime":1784844000},"SBVH":{"icaoId":"SBVH","flightCategory":"VFR","rawOb":"METAR SBVH 232200Z 08005KT 9999 FEW040 27/18 Q1014","temp":27,"dewp":18,"wdir":80,"wspd":5,"visib":"6+","altim":1014,"clouds":[{"cover":"FEW","base":4000}],"obsTime":1784844000},"SBTT":{"icaoId":"SBTT","flightCategory":"VFR","rawOb":"METAR SBTT 232200Z 15005KT CAVOK 31/23 Q1009","temp":31,"dewp":23,"wdir":150,"wspd":5,"visib":"6+","altim":1009,"clouds":[],"obsTime":1784844000},"SBCA":{"icaoId":"SBCA","flightCategory":"VFR","rawOb":"METAR SBCA 232200Z 12005KT 9999 FEW005 SCT020 BKN070 17/15 Q1017","temp":17,"dewp":15,"wdir":120,"wspd":5,"visib":"6+","altim":1017,"clouds":[{"cover":"FEW","base":500},{"cover":"SCT","base":2000},{"cover":"BKN","base":7000}],"obsTime":1784844000},"SBCO":{"icaoId":"SBCO","flightCategory":"VFR","rawOb":"METAR SBCO 232200Z 13007KT 9999 FEW020 BKN060 15/13 Q1020","temp":15,"dewp":13,"wdir":130,"wspd":7,"visib":"6+","altim":1020,"clouds":[{"cover":"FEW","base":2000},{"cover":"BKN","base":6000}],"obsTime":1784844000},"SBSM":{"icaoId":"SBSM","flightCategory":"MVFR","rawOb":"METAR SBSM 232200Z 11004KT 070V140 9999 BKN023 BKN035 15/14 Q1019","temp":15,"dewp":14,"wdir":110,"wspd":4,"visib":"6+","altim":1019,"clouds":[{"cover":"BKN","base":2300},{"cover":"BKN","base":3500}],"obsTime":1784844000},"SBKG":{"icaoId":"SBKG","flightCategory":"MVFR","rawOb":"METAR SBKG 232200Z 13004KT 5000 -RA BR BKN012 22/21 Q1017","temp":22,"dewp":21,"wdir":130,"wspd":4,"visib":3.11,"altim":1017,"clouds":[{"cover":"BKN","base":1200}],"obsTime":1784844000},"SBBH":{"icaoId":"SBBH","flightCategory":"VFR","rawOb":"METAR SBBH 232200Z 00000KT CAVOK 21/12 Q1017","temp":21,"dewp":12,"wdir":0,"wspd":0,"visib":"6+","altim":1017,"clouds":[],"obsTime":1784844000},"SBBU":{"icaoId":"SBBU","flightCategory":"VFR","rawOb":"METAR SBBU 232200Z 16004KT CAVOK 21/17 Q1017","temp":21,"dewp":17,"wdir":160,"wspd":4,"visib":"6+","altim":1017,"clouds":[],"obsTime":1784844000},"SBDN":{"icaoId":"SBDN","flightCategory":"VFR","rawOb":"METAR SBDN 232200Z 17009KT 9999 VCTS BKN035 FEW050CB 19/16 Q1017 RETSRA","temp":19,"dewp":16,"wdir":170,"wspd":9,"visib":"6+","altim":1017,"clouds":[{"cover":"BKN","base":3500},{"cover":"FEW","base":5000}],"obsTime":1784844000},"SBIP":{"icaoId":"SBIP","flightCategory":"VFR","rawOb":"METAR SBIP 232200Z AUTO 32002KT CAVOK 19/17 Q1015","temp":19,"dewp":17,"wdir":320,"wspd":2,"visib":"6+","altim":1015,"clouds":[],"obsTime":1784844000},"SBSC":{"icaoId":"SBSC","flightCategory":"VFR","rawOb":"METAR SBSC 232200Z COR 18005KT 9999 FEW010 BKN090 21/19 Q1017","temp":21,"dewp":19,"wdir":180,"wspd":5,"visib":"6+","altim":1017,"clouds":[{"cover":"FEW","base":1000},{"cover":"BKN","base":9000}],"obsTime":1784844000},"SBSR":{"icaoId":"SBSR","flightCategory":"VFR","rawOb":"METAR SBSR 232200Z 21005KT 130V240 CAVOK 25/16 Q1015","temp":25,"dewp":16,"wdir":210,"wspd":5,"visib":"6+","altim":1015,"clouds":[],"obsTime":1784844000},"SBES":{"icaoId":"SBES","flightCategory":"VFR","rawOb":"METAR SBES 232200Z 22007KT 9999 FEW020 BKN100 21/// Q1016","temp":null,"dewp":null,"wdir":220,"wspd":7,"visib":"6+","altim":1016,"clouds":[{"cover":"FEW","base":2000},{"cover":"BKN","base":10000}],"obsTime":1784844000},"SBPL":{"icaoId":"SBPL","flightCategory":"VFR","rawOb":"METAR SBPL 232200Z 13006KT CAVOK 28/15 Q1015","temp":28,"dewp":15,"wdir":130,"wspd":6,"visib":"6+","altim":1015,"clouds":[],"obsTime":1784844000},"SBOI":{"icaoId":"SBOI","flightCategory":"VFR","rawOb":"METAR SBOI 232200Z AUTO 09004KT 050V130 CAVOK 29/22 Q1012","temp":29,"dewp":22,"wdir":90,"wspd":4,"visib":"6+","altim":1012,"clouds":[],"obsTime":1784844000},"SBTU":{"icaoId":"SBTU","flightCategory":"VFR","rawOb":"METAR SBTU 232200Z AUTO 25003KT 9999 // NCD ///// Q1013","temp":null,"dewp":null,"wdir":250,"wspd":3,"visib":"6+","altim":1013,"clouds":[],"obsTime":1784844000},"SBPS":{"icaoId":"SBPS","flightCategory":"VFR","rawOb":"METAR SBPS 232200Z 04007KT 9999 FEW020 BKN100 23/21 Q1016","temp":23,"dewp":21,"wdir":40,"wspd":7,"visib":"6+","altim":1016,"clouds":[{"cover":"FEW","base":2000},{"cover":"BKN","base":10000}],"obsTime":1784844000},"SBAR":{"icaoId":"SBAR","flightCategory":"VFR","rawOb":"METAR SBAR 232200Z 11008KT 9999 FEW022 26/22 Q1016","temp":26,"dewp":22,"wdir":110,"wspd":8,"visib":"6+","altim":1016,"clouds":[{"cover":"FEW","base":2200}],"obsTime":1784844000},"SBTF":{"icaoId":"SBTF","flightCategory":"VFR","rawOb":"METAR SBTF 232200Z 18003KT 9999 FEW020 FEW025TCU 32/25 Q1008","temp":32,"dewp":25,"wdir":180,"wspd":3,"visib":"6+","altim":1008,"clouds":[{"cover":"FEW","base":2000},{"cover":"FEW","base":2500}],"obsTime":1784844000},"SBUY":{"icaoId":"SBUY","flightCategory":"VFR","rawOb":"METAR SBUY 232200Z 00000KT 9999 FEW030 FEW035TCU 28/25 Q1008","temp":28,"dewp":25,"wdir":0,"wspd":0,"visib":"6+","altim":1008,"clouds":[{"cover":"FEW","base":3000},{"cover":"FEW","base":3500}],"obsTime":1784844000},"SBPB":{"icaoId":"SBPB","flightCategory":"VFR","rawOb":"SPECI SBPB 232145Z 06017KT 9999 SCT020 28/25 Q1011","temp":28,"dewp":25,"wdir":60,"wspd":17,"visib":"6+","altim":1011,"clouds":[{"cover":"SCT","base":2000}],"obsTime":1784843100},"SBJV":{"icaoId":"SBJV","flightCategory":"VFR","rawOb":"METAR SBJV 232200Z 00000KT 9999 BKN035 18/15 Q1019","temp":18,"dewp":15,"wdir":0,"wspd":0,"visib":"6+","altim":1019,"clouds":[{"cover":"BKN","base":3500}],"obsTime":1784844000},"SBNM":{"icaoId":"SBNM","flightCategory":"VFR","rawOb":"METAR SBNM 232200Z AUTO 11007KT 9999 BKN045 16/13 Q1018","temp":16,"dewp":13,"wdir":110,"wspd":7,"visib":"6+","altim":1018,"clouds":[{"cover":"BKN","base":4500}],"obsTime":1784844000},"SBPF":{"icaoId":"SBPF","flightCategory":"VFR","rawOb":"METAR SBPF 232200Z 14008KT CAVOK 13/11 Q1019","temp":13,"dewp":11,"wdir":140,"wspd":8,"visib":"6+","altim":1019,"clouds":[],"obsTime":1784844000},"SBAN":{"icaoId":"SBAN","flightCategory":"VFR","rawOb":"METAR SBAN 232200Z 07004KT CAVOK 24/09 Q1019","temp":24,"dewp":9,"wdir":70,"wspd":4,"visib":"6+","altim":1019,"clouds":[],"obsTime":1784844000},"SBAF":{"icaoId":"SBAF","flightCategory":"VFR","rawOb":"METAR SBAF 232200Z 20005KT 9999 FEW030 BKN100 22/22 Q1017","temp":22,"dewp":22,"wdir":200,"wspd":5,"visib":"6+","altim":1017,"clouds":[{"cover":"FEW","base":3000},{"cover":"BKN","base":10000}],"obsTime":1784844000},"SBJR":{"icaoId":"SBJR","flightCategory":"VFR","rawOb":"METAR SBJR 232200Z 20003KT 9999 SCT018 BKN100 21/19 Q1017","temp":21,"dewp":19,"wdir":200,"wspd":3,"visib":"6+","altim":1017,"clouds":[{"cover":"SCT","base":1800},{"cover":"BKN","base":10000}],"obsTime":1784844000},"SBLS":{"icaoId":"SBLS","flightCategory":"VFR","rawOb":"METAR SBLS 232200Z 01003KT CAVOK 25/09 Q1017","temp":25,"dewp":9,"wdir":10,"wspd":3,"visib":"6+","altim":1017,"clouds":[],"obsTime":1784844000},"SBMT":{"icaoId":"SBMT","flightCategory":"MVFR","rawOb":"METAR SBMT 232200Z 15007KT 110V190 9999 BKN011 16/12 Q1019","temp":16,"dewp":12,"wdir":150,"wspd":7,"visib":"6+","altim":1019,"clouds":[{"cover":"BKN","base":1100}],"obsTime":1784844000},"SBTA":{"icaoId":"SBTA","flightCategory":"VFR","rawOb":"METAR SBTA 232200Z 16008KT 130V200 9999 SCT035 BKN040 20/14 Q1018","temp":20,"dewp":14,"wdir":160,"wspd":8,"visib":"6+","altim":1018,"clouds":[{"cover":"SCT","base":3500},{"cover":"BKN","base":4000}],"obsTime":1784844000},"SBLE":{"icaoId":"SBLE","flightCategory":"VFR","rawOb":"METAR SBLE 232200Z AUTO 35002KT CAVOK ///// Q1017","temp":null,"dewp":null,"wdir":350,"wspd":2,"visib":"6+","altim":1017,"clouds":[],"obsTime":1784844000},"SBJP":{"icaoId":"SBJP","flightCategory":"VFR","rawOb":"METAR SBJP 232200Z 08004KT 9999 SCT018 BKN070 25/24 Q1015","temp":25,"dewp":24,"wdir":80,"wspd":4,"visib":"6+","altim":1015,"clouds":[{"cover":"SCT","base":1800},{"cover":"BKN","base":7000}],"obsTime":1784844000},"SBIH":{"icaoId":"SBIH","flightCategory":"VFR","rawOb":"METAR SBIH 232200Z 05004KT 9999 FEW025TCU 32/24 Q1009","temp":32,"dewp":24,"wdir":50,"wspd":4,"visib":"6+","altim":1009,"clouds":[{"cover":"FEW","base":2500}],"obsTime":1784844000},"SBGW":{"icaoId":"SBGW","flightCategory":"VFR","rawOb":"METAR SBGW 232200Z VRB01KT 9999 SCT030 BKN070 22/15 Q1017","temp":22,"dewp":15,"wdir":"VRB","wspd":1,"visib":"6+","altim":1017,"clouds":[{"cover":"SCT","base":3000},{"cover":"BKN","base":7000}],"obsTime":1784844000}}}