{"updated":1773928832,"count":87,"data":{"SBEG":{"icaoId":"SBEG","flightCategory":"IFR","rawOb":"SPECI SBEG 191235Z 24010KT 3000 TSRA BKN007 FEW030CB BKN100 23/23 Q1012 RERA","temp":23,"dewp":23,"wdir":240,"wspd":10,"visib":1.86,"altim":1012,"clouds":[{"cover":"BKN","base":700},{"cover":"FEW","base":3000},{"cover":"BKN","base":10000}],"obsTime":1773923700},"SBTE":{"icaoId":"SBTE","flightCategory":"MVFR","rawOb":"METAR SBTE 191300Z 10002KT 9999 BKN012 26/23 Q1012","temp":26,"dewp":23,"wdir":100,"wspd":2,"visib":"6+","altim":1012,"clouds":[{"cover":"BKN","base":1200}],"obsTime":1773925200},"SBBE":{"icaoId":"SBBE","flightCategory":"MVFR","rawOb":"METAR SBBE 191300Z 06003KT 9999 FEW011 BKN014 28/24 Q1011","temp":28,"dewp":24,"wdir":60,"wspd":3,"visib":"6+","altim":1011,"clouds":[{"cover":"FEW","base":1100},{"cover":"BKN","base":1400}],"obsTime":1773925200},"SBSN":{"icaoId":"SBSN","flightCategory":"VFR","rawOb":"METAR SBSN 191300Z 07007KT 9999 SCT013 BKN100 26/24 Q1011","temp":26,"dewp":24,"wdir":70,"wspd":7,"visib":"6+","altim":1011,"clouds":[{"cover":"SCT","base":1300},{"cover":"BKN","base":10000}],"obsTime":1773925200},"SBBR":{"icaoId":"SBBR","flightCategory":"VFR","rawOb":"METAR SBBR 191300Z VRB04KT 9999 FEW020 25/19 Q1017","temp":25,"dewp":19,"wdir":"VRB","wspd":4,"visib":"6+","altim":1017,"clouds":[{"cover":"FEW","base":2000}],"obsTime":1773925200},"SBSL":{"icaoId":"SBSL","flightCategory":"MVFR","rawOb":"METAR SBSL 191300Z 07007KT 9999 SCT012 BKN016 28/24 Q1011","temp":28,"dewp":24,"wdir":70,"wspd":7,"visib":"6+","altim":1011,"clouds":[{"cover":"SCT","base":1200},{"cover":"BKN","base":1600}],"obsTime":1773925200},"SBBV":{"icaoId":"SBBV","flightCategory":"VFR","rawOb":"METAR SBBV 191300Z 09016KT 9999 FEW030 28/20 Q1012","temp":28,"dewp":20,"wdir":90,"wspd":16,"visib":"6+","altim":1012,"clouds":[{"cover":"FEW","base":3000}],"obsTime":1773925200},"SBSG":{"icaoId":"SBSG","flightCategory":"MVFR","rawOb":"METAR SBSG 191300Z 14006KT 090V190 9999 BKN027 30/24 Q1010","temp":30,"dewp":24,"wdir":140,"wspd":6,"visib":"6+","altim":1010,"clouds":[{"cover":"BKN","base":2700}],"obsTime":1773925200},"SBCB":{"icaoId":"SBCB","flightCategory":"VFR","rawOb":"METAR SBCB 191300Z 08011KT 9999 SCT015 SCT030 BKN070 28/23 Q1010","temp":28,"dewp":23,"wdir":80,"wspd":11,"visib":"6+","altim":1010,"clouds":[{"cover":"SCT","base":1500},{"cover":"SCT","base":3000},{"cover":"BKN","base":7000}],"obsTime":1773925200},"SBRF":{"icaoId":"SBRF","flightCategory":"VFR","rawOb":"METAR SBRF 191300Z 10008KT 070V140 9999 SCT025 30/24 Q1011","temp":30,"dewp":24,"wdir":100,"wspd":8,"visib":"6+","altim":1011,"clouds":[{"cover":"SCT","base":2500}],"obsTime":1773925200},"SBCF":{"icaoId":"SBCF","flightCategory":"IFR","rawOb":"SPECI SBCF 191236Z 12003KT 4000 BCFG BKN030 SCT090 21/20 Q1015 RETSRA","temp":21,"dewp":20,"wdir":120,"wspd":3,"visib":2.49,"altim":1015,"clouds":[{"cover":"BKN","base":3000},{"cover":"SCT","base":9000}],"obsTime":1773923760},"SBRB":{"icaoId":"SBRB","flightCategory":"VFR","rawOb":"METAR SBRB 191300Z 04002KT 9999 FEW019 BKN100 27/23 Q1012","temp":27,"dewp":23,"wdir":40,"wspd":2,"visib":"6+","altim":1012,"clouds":[{"cover":"FEW","base":1900},{"cover":"BKN","base":10000}],"obsTime":1773925200},"SBLO":{"icaoId":"SBLO","flightCategory":"MVFR","rawOb":"SPECI SBLO 191213Z 07005KT 030V130 9999 SCT010 BKN013 25/22 Q1012","temp":25,"dewp":22,"wdir":70,"wspd":5,"visib":"6+","altim":1012,"clouds":[{"cover":"SCT","base":1000},{"cover":"BKN","base":1300}],"obsTime":1773922380},"SBGL":{"icaoId":"SBGL","flightCategory":"VFR","rawOb":"METAR SBGL 191300Z 11004KT 9000 SCT015 BKN100 27/23 Q1009","temp":27,"dewp":23,"wdir":110,"wspd":4,"visib":5.59,"altim":1009,"clouds":[{"cover":"SCT","base":1500},{"cover":"BKN","base":10000}],"obsTime":1773925200},"SBCG":{"icaoId":"SBCG","flightCategory":"VFR","rawOb":"METAR SBCG 191300Z COR 34006KT 300V020 9999 SCT010 25/20 Q1012","temp":25,"dewp":20,"wdir":340,"wspd":6,"visib":"6+","altim":1012,"clouds":[{"cover":"SCT","base":1000}],"obsTime":1773925200},"SBPV":{"icaoId":"SBPV","flightCategory":"IFR","rawOb":"SPECI SBPV 191245Z 35007KT 9999 BKN007 25/23 Q1011","temp":25,"dewp":23,"wdir":350,"wspd":7,"visib":"6+","altim":1011,"clouds":[{"cover":"BKN","base":700}],"obsTime":1773924300},"SBPJ":{"icaoId":"SBPJ","flightCategory":"VFR","rawOb":"METAR SBPJ 191300Z 33006KT 9999 SCT025 SCT100 28/24 Q1013","temp":28,"dewp":24,"wdir":330,"wspd":6,"visib":"6+","altim":1013,"clouds":[{"cover":"SCT","base":2500},{"cover":"SCT","base":10000}],"obsTime":1773925200},"SBMQ":{"icaoId":"SBMQ","flightCategory":"MVFR","rawOb":"SPECI SBMQ 191227Z 02007KT 9999 BKN015 BKN100 27/23 Q1011","temp":27,"dewp":23,"wdir":20,"wspd":7,"visib":"6+","altim":1011,"clouds":[{"cover":"BKN","base":1500},{"cover":"BKN","base":10000}],"obsTime":1773923220},"SBMO":{"icaoId":"SBMO","flightCategory":"VFR","rawOb":"METAR SBMO 191300Z 07007KT 9999 SCT030 31/23 Q1011","temp":31,"dewp":23,"wdir":70,"wspd":7,"visib":"6+","altim":1011,"clouds":[{"cover":"SCT","base":3000}],"obsTime":1773925200},"SBMA":{"icaoId":"SBMA","flightCategory":"VFR","rawOb":"METAR SBMA 191300Z 21003KT 9999 SCT012 BKN100 27/23 Q1011","temp":27,"dewp":23,"wdir":210,"wspd":3,"visib":"6+","altim":1011,"clouds":[{"cover":"SCT","base":1200},{"cover":"BKN","base":10000}],"obsTime":1773925200},"SBCT":{"icaoId":"SBCT","flightCategory":"MVFR","rawOb":"METAR SBCT 191300Z 10004KT 050V170 9999 BKN013 BKN020 24/21 Q1014","temp":24,"dewp":21,"wdir":100,"wspd":4,"visib":"6+","altim":1014,"clouds":[{"cover":"BKN","base":1300},{"cover":"BKN","base":2000}],"obsTime":1773925200},"SBFI":{"icaoId":"SBFI","flightCategory":"IFR","rawOb":"SPECI SBFI 191220Z 11002KT 2000 BR VV003 24/24 Q1009","temp":24,"dewp":24,"wdir":110,"wspd":2,"visib":1.24,"altim":1009,"clouds":[{"cover":"OVX","base":300}],"obsTime":1773922800},"SBFL":{"icaoId":"SBFL","flightCategory":"VFR","rawOb":"METAR SBFL 191300Z 34007KT 9999 FEW020 28/24 Q1009","temp":28,"dewp":24,"wdir":340,"wspd":7,"visib":"6+","altim":1009,"clouds":[{"cover":"FEW","base":2000}],"obsTime":1773925200},"SBFZ":{"icaoId":"SBFZ","flightCategory":"VFR","rawOb":"METAR SBFZ 191300Z 14010KT 9999 SCT017 30/25 Q1010","temp":30,"dewp":25,"wdir":140,"wspd":10,"visib":"6+","altim":1010,"clouds":[{"cover":"SCT","base":1700}],"obsTime":1773925200},"SBVT":{"icaoId":"SBVT","flightCategory":"VFR","rawOb":"METAR SBVT 191300Z 36005KT 310V040 9999 SCT040 BKN090 30/24 Q1009","temp":30,"dewp":24,"wdir":360,"wspd":5,"visib":"6+","altim":1009,"clouds":[{"cover":"SCT","base":4000},{"cover":"BKN","base":9000}],"obsTime":1773925200},"SBSP":{"icaoId":"SBSP","flightCategory":"MVFR","rawOb":"METAR SBSP 191300Z 09002KT 6000 SCT015 BKN083 23/21 Q1014","temp":23,"dewp":21,"wdir":90,"wspd":2,"visib":3.73,"altim":1014,"clouds":[{"cover":"SCT","base":1500},{"cover":"BKN","base":8300}],"obsTime":1773925200},"SBSV":{"icaoId":"SBSV","flightCategory":"VFR","rawOb":"METAR SBSV 191300Z 09009KT 9999 SCT023 30/21 Q1012","temp":30,"dewp":21,"wdir":90,"wspd":9,"visib":"6+","altim":1012,"clouds":[{"cover":"SCT","base":2300}],"obsTime":1773925200},"SBUL":{"icaoId":"SBUL","flightCategory":"MVFR","rawOb":"METAR SBUL 191300Z 36007KT 9999 FEW007 SCT012 BKN025 24/21 Q1015","temp":24,"dewp":21,"wdir":360,"wspd":7,"visib":"6+","altim":1015,"clouds":[{"cover":"FEW","base":700},{"cover":"SCT","base":1200},{"cover":"BKN","base":2500}],"obsTime":1773925200},"SBUR":{"icaoId":"SBUR","flightCategory":"VFR","rawOb":" SBUR 191300Z 33007KT 9999 FEW015 BKN090 26/21 Q1014","temp":26,"dewp":21,"wdir":330,"wspd":7,"visib":"6+","altim":1014,"clouds":[{"cover":"FEW","base":1500},{"cover":"BKN","base":9000}],"obsTime":1773925200},"SBGO":{"icaoId":"SBGO","flightCategory":"VFR","rawOb":"METAR SBGO 191300Z 30005KT 9999 FEW026 27/21 Q1014","temp":27,"dewp":21,"wdir":300,"wspd":5,"visib":"6+","altim":1014,"clouds":[{"cover":"FEW","base":2600}],"obsTime":1773925200},"SBGR":{"icaoId":"SBGR","flightCategory":"MVFR","rawOb":"METAR SBGR 191300Z 05006KT 6000 FEW008 SCT011 BKN070 23/21 Q1013","temp":23,"dewp":21,"wdir":50,"wspd":6,"visib":3.73,"altim":1013,"clouds":[{"cover":"FEW","base":800},{"cover":"SCT","base":1100},{"cover":"BKN","base":7000}],"obsTime":1773925200},"SBHT":{"icaoId":"SBHT","flightCategory":"VFR","rawOb":"METAR SBHT 191300Z 09006KT 9999 FEW012 SCT015 BKN090 28/23 Q1011","temp":28,"dewp":23,"wdir":90,"wspd":6,"visib":"6+","altim":1011,"clouds":[{"cover":"FEW","base":1200},{"cover":"SCT","base":1500},{"cover":"BKN","base":9000}],"obsTime":1773925200},"SBIL":{"icaoId":"SBIL","flightCategory":"VFR","rawOb":"METAR SBIL 191300Z 05008KT 9999 FEW023 31/23 Q1012","temp":31,"dewp":23,"wdir":50,"wspd":8,"visib":"6+","altim":1012,"clouds":[{"cover":"FEW","base":2300}],"obsTime":1773925200},"SBJU":{"icaoId":"SBJU","flightCategory":"VFR","rawOb":"METAR SBJU 191300Z 00000KT 9999 FEW007 SCT020 BKN070 24/22 Q1014","temp":24,"dewp":22,"wdir":0,"wspd":0,"visib":"6+","altim":1014,"clouds":[{"cover":"FEW","base":700},{"cover":"SCT","base":2000},{"cover":"BKN","base":7000}],"obsTime":1773925200},"SBKP":{"icaoId":"SBKP","flightCategory":"VFR","rawOb":"METAR SBKP 191300Z 05004KT 360V110 9999 FEW010 SCT045 BKN080 25/21 Q1013","temp":25,"dewp":21,"wdir":50,"wspd":4,"visib":"6+","altim":1013,"clouds":[{"cover":"FEW","base":1000},{"cover":"SCT","base":4500},{"cover":"BKN","base":8000}],"obsTime":1773925200},"SBCZ":{"icaoId":"SBCZ","flightCategory":"IFR","rawOb":"METAR SBCZ 191300Z 00000KT 9999 BKN006 BKN100 25/24 Q1011","temp":25,"dewp":24,"wdir":0,"wspd":0,"visib":"6+","altim":1011,"clouds":[{"cover":"BKN","base":600},{"cover":"BKN","base":10000}],"obsTime":1773925200},"SBME":{"icaoId":"SBME","flightCategory":"MVFR","rawOb":"METAR SBME 191300Z 12008KT 9999 BKN015 BKN100 29/24 Q1009","temp":29,"dewp":24,"wdir":120,"wspd":8,"visib":"6+","altim":1009,"clouds":[{"cover":"BKN","base":1500},{"cover":"BKN","base":10000}],"obsTime":1773925200},"SBMG":{"icaoId":"SBMG","flightCategory":"VFR","rawOb":"METAR SBMG 191300Z 13005KT 080V170 9999 FEW015 28/21 Q1010","temp":28,"dewp":21,"wdir":130,"wspd":5,"visib":"6+","altim":1010,"clouds":[{"cover":"FEW","base":1500}],"obsTime":1773925200},"SBMK":{"icaoId":"SBMK","flightCategory":"VFR","rawOb":"METAR SBMK 191300Z 05006KT 9999 FEW040 28/21 Q1013","temp":28,"dewp":21,"wdir":50,"wspd":6,"visib":"6+","altim":1013,"clouds":[{"cover":"FEW","base":4000}],"obsTime":1773925200},"SBCR":{"icaoId":"SBCR","flightCategory":"MVFR","rawOb":"METAR SBCR 191300Z 02004KT 330V060 9999 BKN010 SCT030 26/24 Q1009","temp":26,"dewp":24,"wdir":20,"wspd":4,"visib":"6+","altim":1009,"clouds":[{"cover":"BKN","base":1000},{"cover":"SCT","base":3000}],"obsTime":1773925200},"SBNT":{"icaoId":"SBNT","flightCategory":"VFR","rawOb":"METAR SBNT 191300Z 11012KT 9999 SCT031 31/23 Q1010","temp":31,"dewp":23,"wdir":110,"wspd":12,"visib":"6+","altim":1010,"clouds":[{"cover":"SCT","base":3100}],"obsTime":1773925200},"SBPA":{"icaoId":"SBPA","flightCategory":"IFR","rawOb":"SPECI SBPA 191205Z 22006KT 180V250 2000 -DZ OVC009 24/22 Q1010","temp":24,"dewp":22,"wdir":220,"wspd":6,"visib":1.24,"altim":1010,"clouds":[{"cover":"OVC","base":900}],"obsTime":1773921900},"SBCP":{"icaoId":"SBCP","flightCategory":"MVFR","rawOb":"METAR SBCP 191300Z 06005KT 9999 BKN015 29/23 Q1009","temp":29,"dewp":23,"wdir":60,"wspd":5,"visib":"6+","altim":1009,"clouds":[{"cover":"BKN","base":1500}],"obsTime":1773925200},"SBAT":{"icaoId":"SBAT","flightCategory":"MVFR","rawOb":"METAR SBAT 191300Z 07002KT 9999 BKN013 BKN100 24/24 Q1012","temp":24,"dewp":24,"wdir":70,"wspd":2,"visib":"6+","altim":1012,"clouds":[{"cover":"BKN","base":1300},{"cover":"BKN","base":10000}],"obsTime":1773925200},"SBPS":{"icaoId":"SBPS","flightCategory":"VFR","rawOb":"METAR SBPS 191300Z 35008KT 320V040 9999 SCT025 30/23 Q1011","temp":30,"dewp":23,"wdir":350,"wspd":8,"visib":"6+","altim":1011,"clouds":[{"cover":"SCT","base":2500}],"obsTime":1773925200},"SBAR":{"icaoId":"SBAR","flightCategory":"VFR","rawOb":"METAR SBAR 191300Z 09008KT 9999 SCT027 30/23 Q1011","temp":30,"dewp":23,"wdir":90,"wspd":8,"visib":"6+","altim":1011,"clouds":[{"cover":"SCT","base":2700}],"obsTime":1773925200},"SBPL":{"icaoId":"SBPL","flightCategory":"VFR","rawOb":"METAR SBPL 191300Z 15003KT 9999 SCT020 29/21 Q1013","temp":29,"dewp":21,"wdir":150,"wspd":3,"visib":"6+","altim":1013,"clouds":[{"cover":"SCT","base":2000}],"obsTime":1773925200},"SBUY":{"icaoId":"SBUY","flightCategory":"MVFR","rawOb":"METAR SBUY 191300Z 15002KT 5000 BR FEW004 BKN080 23/23 Q1010","temp":23,"dewp":23,"wdir":150,"wspd":2,"visib":3.11,"altim":1010,"clouds":[{"cover":"FEW","base":400},{"cover":"BKN","base":8000}],"obsTime":1773925200},"SBOI":{"icaoId":"SBOI","flightCategory":"VFR","rawOb":"METAR SBOI 191300Z AUTO 36009KT 9999 SCT021 BKN031 27/24 Q1012","temp":27,"dewp":24,"wdir":360,"wspd":9,"visib":"6+","altim":1012,"clouds":[{"cover":"SCT","base":2100},{"cover":"BKN","base":3100}],"obsTime":1773925200},"SBPB":{"icaoId":"SBPB","flightCategory":"MVFR","rawOb":"METAR SBPB 191300Z 12001KT 9999 BKN015 OVC070 25/24 Q1011","temp":25,"dewp":24,"wdir":120,"wspd":1,"visib":"6+","altim":1011,"clouds":[{"cover":"BKN","base":1500},{"cover":"OVC","base":7000}],"obsTime":1773925200},"SBCA":{"icaoId":"SBCA","flightCategory":"VFR","rawOb":"METAR SBCA 191300Z 15007KT 120V190 CAVOK 27/22 Q1013","temp":27,"dewp":22,"wdir":150,"wspd":7,"visib":"6+","altim":1013,"clouds":[],"obsTime":1773925200},"SBCC":{"icaoId":"SBCC","flightCategory":"VFR","rawOb":"METAR SBCC 191300Z 26002KT 9999 SCT010 BKN035 BKN080 26/22 Q1013","temp":26,"dewp":22,"wdir":260,"wspd":2,"visib":"6+","altim":1013,"clouds":[{"cover":"SCT","base":1000},{"cover":"BKN","base":3500},{"cover":"BKN","base":8000}],"obsTime":1773925200},"SBCJ":{"icaoId":"SBCJ","flightCategory":"VFR","rawOb":"METAR SBCJ 191300Z 17004KT 9999 FEW001 23/21 Q1015","temp":23,"dewp":21,"wdir":170,"wspd":4,"visib":"6+","altim":1015,"clouds":[{"cover":"FEW","base":100}],"obsTime":1773925200},"SBCO":{"icaoId":"SBCO","flightCategory":"IFR","rawOb":"METAR SBCO 191300Z 29006KT 9000 -DZ BKN006 OVC009 23/22 Q1011","temp":23,"dewp":22,"wdir":290,"wspd":6,"visib":5.59,"altim":1011,"clouds":[{"cover":"BKN","base":600},{"cover":"OVC","base":900}],"obsTime":1773925200},"SBDN":{"icaoId":"SBDN","flightCategory":"VFR","rawOb":"METAR SBDN 191300Z 06005KT 9999 SCT016 29/23 Q1010","temp":29,"dewp":23,"wdir":60,"wspd":5,"visib":"6+","altim":1010,"clouds":[{"cover":"SCT","base":1600}],"obsTime":1773925200},"SBES":{"icaoId":"SBES","flightCategory":"VFR","rawOb":"METAR SBES 191300Z 07009KT 9999 SCT015 SCT030 BKN060 27/// Q1009","temp":null,"dewp":null,"wdir":70,"wspd":9,"visib":"6+","altim":1009,"clouds":[{"cover":"SCT","base":1500},{"cover":"SCT","base":3000},{"cover":"BKN","base":6000}],"obsTime":1773925200},"SBGM":{"icaoId":"SBGM","flightCategory":"VFR","rawOb":"METAR SBGM 191300Z 27005KT 220V300 9999 SCT010 BKN033 BKN053 27/21 Q1011","temp":27,"dewp":21,"wdir":270,"wspd":5,"visib":"6+","altim":1011,"clouds":[{"cover":"SCT","base":1000},{"cover":"BKN","base":3300},{"cover":"BKN","base":5300}],"obsTime":1773925200},"SBIP":{"icaoId":"SBIP","flightCategory":"MVFR","rawOb":"METAR SBIP 191300Z AUTO 01005KT 340V060 9999 BKN016 27/23 Q1011","temp":27,"dewp":23,"wdir":10,"wspd":5,"visib":"6+","altim":1011,"clouds":[{"cover":"BKN","base":1600}],"obsTime":1773925200},"SBKG":{"icaoId":"SBKG","flightCategory":"MVFR","rawOb":"METAR SBKG 191300Z 11010KT 9999 BKN018 27/21 Q1014","temp":27,"dewp":21,"wdir":110,"wspd":10,"visib":"6+","altim":1014,"clouds":[{"cover":"BKN","base":1800}],"obsTime":1773925200},"SBPP":{"icaoId":"SBPP","flightCategory":"VFR","rawOb":"METAR SBPP 191300Z 07007KT CAVOK 26/22 Q1012","temp":26,"dewp":22,"wdir":70,"wspd":7,"visib":"6+","altim":1012,"clouds":[],"obsTime":1773925200},"SBSC":{"icaoId":"SBSC","flightCategory":"VFR","rawOb":"METAR SBSC 191300Z 02007KT 9000 FEW030 28/22 Q1009","temp":28,"dewp":22,"wdir":20,"wspd":7,"visib":5.59,"altim":1009,"clouds":[{"cover":"FEW","base":3000}],"obsTime":1773925200},"SBSJ":{"icaoId":"SBSJ","flightCategory":"IFR","rawOb":"METAR SBSJ 191300Z 21002KT 4000 BR SCT015 BKN100 23/// Q1013","temp":null,"dewp":null,"wdir":210,"wspd":2,"visib":2.49,"altim":1013,"clouds":[{"cover":"SCT","base":1500},{"cover":"BKN","base":10000}],"obsTime":1773925200},"SBSM":{"icaoId":"SBSM","flightCategory":"MVFR","rawOb":"METAR SBSM 191300Z 12004KT 9999 SCT011 OVC020 23/21 Q1012","temp":23,"dewp":21,"wdir":120,"wspd":4,"visib":"6+","altim":1012,"clouds":[{"cover":"SCT","base":1100},{"cover":"OVC","base":2000}],"obsTime":1773925200},"SBSR":{"icaoId":"SBSR","flightCategory":"VFR","rawOb":"METAR SBSR 191300Z 33003KT 9999 SCT015 SCT020 BKN070 25/21 Q1012","temp":25,"dewp":21,"wdir":330,"wspd":3,"visib":"6+","altim":1012,"clouds":[{"cover":"SCT","base":1500},{"cover":"SCT","base":2000},{"cover":"BKN","base":7000}],"obsTime":1773925200},"SBTD":{"icaoId":"SBTD","flightCategory":"VFR","rawOb":"METAR SBTD 191300Z /////KT CAVOK 27/22 Q1011","temp":27,"dewp":22,"wdir":null,"wspd":null,"visib":"6+","altim":1011,"clouds":[],"obsTime":1773925200},"SBTF":{"icaoId":"SBTF","flightCategory":"VFR","rawOb":"METAR SBTF 191300Z 10005KT 9999 FEW025 OVC100 24/23 Q1011","temp":24,"dewp":23,"wdir":100,"wspd":5,"visib":"6+","altim":1011,"clouds":[{"cover":"FEW","base":2500},{"cover":"OVC","base":10000}],"obsTime":1773925200},"SBTT":{"icaoId":"SBTT","flightCategory":"VFR","rawOb":"METAR SBTT 191300Z 00000KT 9999 FEW010 24/21 Q1012","temp":24,"dewp":21,"wdir":0,"wspd":0,"visib":"6+","altim":1012,"clouds":[{"cover":"FEW","base":1000}],"obsTime":1773925200},"SBVH":{"icaoId":"SBVH","flightCategory":"VFR","rawOb":"METAR SBVH 191300Z 02004KT 340V060 9000 SCT008 24/23 Q1013","temp":24,"dewp":23,"wdir":20,"wspd":4,"visib":5.59,"altim":1013,"clouds":[{"cover":"SCT","base":800}],"obsTime":1773925200},"SBAU":{"icaoId":"SBAU","flightCategory":"VFR","rawOb":"METAR SBAU 191300Z 06004KT 9999 SCT007 FEW030TCU BKN080 27/24 Q1011","temp":27,"dewp":24,"wdir":60,"wspd":4,"visib":"6+","altim":1011,"clouds":[{"cover":"SCT","base":700},{"cover":"FEW","base":3000},{"cover":"BKN","base":8000}],"obsTime":1773925200},"SBAX":{"icaoId":"SBAX","flightCategory":"VFR","rawOb":"METAR SBAX 191300Z 33003KT 9999 SCT012 23/22 Q1016","temp":23,"dewp":22,"wdir":330,"wspd":3,"visib":"6+","altim":1016,"clouds":[{"cover":"SCT","base":1200}],"obsTime":1773925200},"SBBH":{"icaoId":"SBBH","flightCategory":"MVFR","rawOb":"METAR SBBH 191300Z 10002KT 5000 -TSRA SCT007 BKN013 FEW030CB BKN049 21/20 Q1015","temp":21,"dewp":20,"wdir":100,"wspd":2,"visib":3.11,"altim":1015,"clouds":[{"cover":"SCT","base":700},{"cover":"BKN","base":1300},{"cover":"FEW","base":3000},{"cover":"BKN","base":4900}],"obsTime":1773925200},"SBBQ":{"icaoId":"SBBQ","flightCategory":"MVFR","rawOb":"METAR SBBQ 191300Z 36003KT 5000 BR BKN010 BKN025 FEW030TCU OVC090 20/20 Q1018","temp":20,"dewp":20,"wdir":360,"wspd":3,"visib":3.11,"altim":1018,"clouds":[{"cover":"BKN","base":1000},{"cover":"BKN","base":2500},{"cover":"FEW","base":3000},{"cover":"OVC","base":9000}],"obsTime":1773925200},"SBBU":{"icaoId":"SBBU","flightCategory":"MVFR","rawOb":"METAR SBBU 191300Z 05002KT 9999 BKN025 BKN070 25/23 Q1012","temp":25,"dewp":23,"wdir":50,"wspd":2,"visib":"6+","altim":1012,"clouds":[{"cover":"BKN","base":2500},{"cover":"BKN","base":7000}],"obsTime":1773925200},"SBAF":{"icaoId":"SBAF","flightCategory":"MVFR","rawOb":" SBAF 191300Z VRB02KT 7000 FEW010 SCT024 BKN100 28/24 Q1009","temp":28,"dewp":24,"wdir":"VRB","wspd":2,"visib":4.35,"altim":1009,"clouds":[{"cover":"FEW","base":1000},{"cover":"SCT","base":2400},{"cover":"BKN","base":10000}],"obsTime":1773925200},"SBAN":{"icaoId":"SBAN","flightCategory":"VFR","rawOb":"METAR SBAN 191300Z VRB03KT 9999 FEW015 30/16 Q1017","temp":30,"dewp":16,"wdir":"VRB","wspd":3,"visib":"6+","altim":1017,"clouds":[{"cover":"FEW","base":1500}],"obsTime":1773925200},"SBGW":{"icaoId":"SBGW","flightCategory":"IFR","rawOb":"METAR SBGW 191300Z 01003KT 2000 RA SCT010 OVC050 23/18 Q1013","temp":23,"dewp":18,"wdir":10,"wspd":3,"visib":1.24,"altim":1013,"clouds":[{"cover":"SCT","base":1000},{"cover":"OVC","base":5000}],"obsTime":1773925200},"SBIH":{"icaoId":"SBIH","flightCategory":"VFR","rawOb":"METAR SBIH 191300Z 00000KT 9999 SCT008 27/25 Q1011","temp":27,"dewp":25,"wdir":0,"wspd":0,"visib":"6+","altim":1011,"clouds":[{"cover":"SCT","base":800}],"obsTime":1773925200},"SBJP":{"icaoId":"SBJP","flightCategory":"MVFR","rawOb":"METAR SBJP 191300Z 09003KT 9999 BKN025 30/23 Q1011","temp":30,"dewp":23,"wdir":90,"wspd":3,"visib":"6+","altim":1011,"clouds":[{"cover":"BKN","base":2500}],"obsTime":1773925200},"SBJR":{"icaoId":"SBJR","flightCategory":"MVFR","rawOb":"METAR SBJR 191300Z 17004KT 8000 BKN020 BKN070 29/23 Q1009","temp":29,"dewp":23,"wdir":170,"wspd":4,"visib":4.97,"altim":1009,"clouds":[{"cover":"BKN","base":2000},{"cover":"BKN","base":7000}],"obsTime":1773925200},"SBJV":{"icaoId":"SBJV","flightCategory":"VFR","rawOb":"METAR SBJV 191300Z 33004KT 9999 FEW006 SCT030 BKN100 27/25 Q1009","temp":27,"dewp":25,"wdir":330,"wspd":4,"visib":"6+","altim":1009,"clouds":[{"cover":"FEW","base":600},{"cover":"SCT","base":3000},{"cover":"BKN","base":10000}],"obsTime":1773925200},"SBLE":{"icaoId":"SBLE","flightCategory":"MVFR","rawOb":"METAR SBLE 191300Z AUTO 02005KT 350V050 9999 BKN025 BKN031 26/20 Q1015","temp":26,"dewp":20,"wdir":20,"wspd":5,"visib":"6+","altim":1015,"clouds":[{"cover":"BKN","base":2500},{"cover":"BKN","base":3100}],"obsTime":1773925200},"SBLS":{"icaoId":"SBLS","flightCategory":"IFR","rawOb":"METAR SBLS 191300Z 14006KT 4000 BR FEW002 SCT020 BKN100 21/20 Q1015 RETS","temp":21,"dewp":20,"wdir":140,"wspd":6,"visib":2.49,"altim":1015,"clouds":[{"cover":"FEW","base":200},{"cover":"SCT","base":2000},{"cover":"BKN","base":10000}],"obsTime":1773925200},"SBMT":{"icaoId":"SBMT","flightCategory":"MVFR","rawOb":"METAR SBMT 191300Z 09002KT 5000 HZ SCT010 BKN080 23/19 Q1013","temp":23,"dewp":19,"wdir":90,"wspd":2,"visib":3.11,"altim":1013,"clouds":[{"cover":"SCT","base":1000},{"cover":"BKN","base":8000}],"obsTime":1773925200},"SBNM":{"icaoId":"SBNM","flightCategory":"VFR","rawOb":"METAR SBNM 191300Z 13004KT 9999 SCT008 27/22 Q1011","temp":27,"dewp":22,"wdir":130,"wspd":4,"visib":"6+","altim":1011,"clouds":[{"cover":"SCT","base":800}],"obsTime":1773925200},"SBPF":{"icaoId":"SBPF","flightCategory":"VFR","rawOb":"METAR SBPF 191300Z 12008KT CAVOK 24/19 Q1013","temp":24,"dewp":19,"wdir":120,"wspd":8,"visib":"6+","altim":1013,"clouds":[],"obsTime":1773925200},"SBST":{"icaoId":"SBST","flightCategory":"MVFR","rawOb":"METAR SBST 191300Z 01003KT 5000 -RA BR SCT015 BKN033 25/23 Q1009","temp":25,"dewp":23,"wdir":10,"wspd":3,"visib":3.11,"altim":1009,"clouds":[{"cover":"SCT","base":1500},{"cover":"BKN","base":3300}],"obsTime":1773925200},"SBTA":{"icaoId":"SBTA","flightCategory":"IFR","rawOb":"METAR SBTA 191300Z VRB01KT 3500 -DZ BR BKN011 BKN020 OVC070 23/21 Q1012","temp":23,"dewp":21,"wdir":"VRB","wspd":1,"visib":2.17,"altim":1012,"clouds":[{"cover":"BKN","base":1100},{"cover":"BKN","base":2000},{"cover":"OVC","base":7000}],"obsTime":1773925200}}}