{"updated":1781863082,"count":66,"data":{"SBMO":{"icaoId":"SBMO","flightCategory":"MVFR","rawOb":"METAR SBMO 190800Z 17008KT 9999 BKN015 24/23 Q1017","temp":24,"dewp":23,"wdir":170,"wspd":8,"visib":"6+","altim":1017,"clouds":[{"cover":"BKN","base":1500}],"obsTime":1781856000},"SBFI":{"icaoId":"SBFI","flightCategory":"VFR","rawOb":"METAR SBFI 190800Z 10006KT 9999 FEW030 BKN070 13/10 Q1013","temp":13,"dewp":10,"wdir":100,"wspd":6,"visib":"6+","altim":1013,"clouds":[{"cover":"FEW","base":3000},{"cover":"BKN","base":7000}],"obsTime":1781856000},"SBFZ":{"icaoId":"SBFZ","flightCategory":"VFR","rawOb":"METAR SBFZ 190800Z 15007KT 9999 SCT020 26/23 Q1013","temp":26,"dewp":23,"wdir":150,"wspd":7,"visib":"6+","altim":1013,"clouds":[{"cover":"SCT","base":2000}],"obsTime":1781856000},"SBMQ":{"icaoId":"SBMQ","flightCategory":"VFR","rawOb":"METAR SBMQ 190800Z 27001KT CAVOK 24/24 Q1013","temp":24,"dewp":24,"wdir":270,"wspd":1,"visib":"6+","altim":1013,"clouds":[],"obsTime":1781856000},"SBBE":{"icaoId":"SBBE","flightCategory":"VFR","rawOb":"METAR SBBE 190800Z 08002KT CAVOK 24/24 Q1013","temp":24,"dewp":24,"wdir":80,"wspd":2,"visib":"6+","altim":1013,"clouds":[],"obsTime":1781856000},"SBGL":{"icaoId":"SBGL","flightCategory":"VFR","rawOb":"METAR SBGL 190800Z 11002KT 9999 FEW015 15/14 Q1023","temp":15,"dewp":14,"wdir":110,"wspd":2,"visib":"6+","altim":1023,"clouds":[{"cover":"FEW","base":1500}],"obsTime":1781856000},"SBNT":{"icaoId":"SBNT","flightCategory":"VFR","rawOb":"METAR SBNT 190800Z 18008KT 9999 FEW018 BKN100 23/22 Q1015","temp":23,"dewp":22,"wdir":180,"wspd":8,"visib":"6+","altim":1015,"clouds":[{"cover":"FEW","base":1800},{"cover":"BKN","base":10000}],"obsTime":1781856000},"SBPA":{"icaoId":"SBPA","flightCategory":"VFR","rawOb":"METAR SBPA 190800Z 24005KT CAVOK 14/11 Q1015","temp":14,"dewp":11,"wdir":240,"wspd":5,"visib":"6+","altim":1015,"clouds":[],"obsTime":1781856000},"SBCG":{"icaoId":"SBCG","flightCategory":"VFR","rawOb":"METAR SBCG 190800Z 06012KT CAVOK 19/11 Q1017","temp":19,"dewp":11,"wdir":60,"wspd":12,"visib":"6+","altim":1017,"clouds":[],"obsTime":1781856000},"SBCT":{"icaoId":"SBCT","flightCategory":"MVFR","rawOb":"METAR SBCT 190800Z 02006KT 9999 BKN010 10/09 Q1022","temp":10,"dewp":9,"wdir":20,"wspd":6,"visib":"6+","altim":1022,"clouds":[{"cover":"BKN","base":1000}],"obsTime":1781856000},"SBPJ":{"icaoId":"SBPJ","flightCategory":"VFR","rawOb":"METAR SBPJ 190800Z 16003KT CAVOK 23/20 Q1015","temp":23,"dewp":20,"wdir":160,"wspd":3,"visib":"6+","altim":1015,"clouds":[],"obsTime":1781856000},"SBPV":{"icaoId":"SBPV","flightCategory":"VFR","rawOb":"METAR SBPV 190800Z 00000KT CAVOK 24/23 Q1014","temp":24,"dewp":23,"wdir":0,"wspd":0,"visib":"6+","altim":1014,"clouds":[],"obsTime":1781856000},"SBGO":{"icaoId":"SBGO","flightCategory":"VFR","rawOb":"METAR SBGO 190800Z 15002KT CAVOK 18/14 Q1021","temp":18,"dewp":14,"wdir":150,"wspd":2,"visib":"6+","altim":1021,"clouds":[],"obsTime":1781856000},"SBBV":{"icaoId":"SBBV","flightCategory":"VFR","rawOb":"METAR SBBV 190800Z 01004KT 9999 SCT010 SCT025 FEW030TCU BKN080 25/24 Q1014","temp":25,"dewp":24,"wdir":10,"wspd":4,"visib":"6+","altim":1014,"clouds":[{"cover":"SCT","base":1000},{"cover":"SCT","base":2500},{"cover":"FEW","base":3000},{"cover":"BKN","base":8000}],"obsTime":1781856000},"SBRB":{"icaoId":"SBRB","flightCategory":"LIFR","rawOb":"METAR SBRB 190800Z 00000KT 0900 R25///// R07///// FG SCT001 19/19 Q1014","temp":19,"dewp":19,"wdir":0,"wspd":0,"visib":0.56,"altim":1014,"clouds":[{"cover":"SCT","base":100}],"obsTime":1781856000},"SBRF":{"icaoId":"SBRF","flightCategory":"VFR","rawOb":"METAR SBRF 190800Z 18004KT 9999 VCSH SCT018 FEW025TCU BKN050 24/23 Q1016","temp":24,"dewp":23,"wdir":180,"wspd":4,"visib":"6+","altim":1016,"clouds":[{"cover":"SCT","base":1800},{"cover":"FEW","base":2500},{"cover":"BKN","base":5000}],"obsTime":1781856000},"SBGR":{"icaoId":"SBGR","flightCategory":"IFR","rawOb":"METAR SBGR 190800Z 07014KT 5000 BR OVC005 11/11 Q1023","temp":11,"dewp":11,"wdir":70,"wspd":14,"visib":3.11,"altim":1023,"clouds":[{"cover":"OVC","base":500}],"obsTime":1781856000},"SBSG":{"icaoId":"SBSG","flightCategory":"VFR","rawOb":"METAR SBSG 190800Z 18004KT 9999 FEW020 23/22 Q1015","temp":23,"dewp":22,"wdir":180,"wspd":4,"visib":"6+","altim":1015,"clouds":[{"cover":"FEW","base":2000}],"obsTime":1781856000},"SBJU":{"icaoId":"SBJU","flightCategory":"VFR","rawOb":"METAR SBJU 190800Z 15011KT 9999 SCT020 23/18 Q1018","temp":23,"dewp":18,"wdir":150,"wspd":11,"visib":"6+","altim":1018,"clouds":[{"cover":"SCT","base":2000}],"obsTime":1781856000},"SBEG":{"icaoId":"SBEG","flightCategory":"VFR","rawOb":"METAR SBEG 190800Z 01001KT CAVOK 22/22 Q1014","temp":22,"dewp":22,"wdir":10,"wspd":1,"visib":"6+","altim":1014,"clouds":[],"obsTime":1781856000},"SBSL":{"icaoId":"SBSL","flightCategory":"VFR","rawOb":"METAR SBSL 190800Z 15004KT 9999 FEW015 SCT070 26/24 Q1013","temp":26,"dewp":24,"wdir":150,"wspd":4,"visib":"6+","altim":1013,"clouds":[{"cover":"FEW","base":1500},{"cover":"SCT","base":7000}],"obsTime":1781856000},"SBKP":{"icaoId":"SBKP","flightCategory":"VFR","rawOb":"METAR SBKP 190800Z 11006KT CAVOK 11/09 Q1021","temp":11,"dewp":9,"wdir":110,"wspd":6,"visib":"6+","altim":1021,"clouds":[],"obsTime":1781856000},"SBSN":{"icaoId":"SBSN","flightCategory":"VFR","rawOb":"METAR SBSN 190800Z 00000KT CAVOK 24/24 Q1013","temp":24,"dewp":24,"wdir":0,"wspd":0,"visib":"6+","altim":1013,"clouds":[],"obsTime":1781856000},"SBCB":{"icaoId":"SBCB","flightCategory":"MVFR","rawOb":"METAR SBCB 190900Z /////KT 7000 SCT010 BKN025 OVC050 17/16 Q1023","temp":17,"dewp":16,"wdir":null,"wspd":null,"visib":4.35,"altim":1023,"clouds":[{"cover":"SCT","base":1000},{"cover":"BKN","base":2500},{"cover":"OVC","base":5000}],"obsTime":1781859600},"SBSP":{"icaoId":"SBSP","flightCategory":"IFR","rawOb":"METAR SBSP 190800Z AUTO 05010KT 9999 BKN007 11/10 Q1023","temp":11,"dewp":10,"wdir":50,"wspd":10,"visib":"6+","altim":1023,"clouds":[{"cover":"BKN","base":700}],"obsTime":1781856000},"SBSV":{"icaoId":"SBSV","flightCategory":"VFR","rawOb":"METAR SBSV 190800Z 14011KT 9999 SCT023 BKN050 24/20 Q1019","temp":24,"dewp":20,"wdir":140,"wspd":11,"visib":"6+","altim":1019,"clouds":[{"cover":"SCT","base":2300},{"cover":"BKN","base":5000}],"obsTime":1781856000},"SBLO":{"icaoId":"SBLO","flightCategory":"VFR","rawOb":"METAR SBLO 190800Z 17001KT CAVOK 11/09 Q1020","temp":11,"dewp":9,"wdir":170,"wspd":1,"visib":"6+","altim":1020,"clouds":[],"obsTime":1781856000},"SBTE":{"icaoId":"SBTE","flightCategory":"VFR","rawOb":"METAR SBTE 190800Z 00000KT 9999 SCT020 BKN070 25/23 Q1013","temp":25,"dewp":23,"wdir":0,"wspd":0,"visib":"6+","altim":1013,"clouds":[{"cover":"SCT","base":2000},{"cover":"BKN","base":7000}],"obsTime":1781856000},"SBUL":{"icaoId":"SBUL","flightCategory":"VFR","rawOb":"METAR SBUL 190800Z 11009KT CAVOK 15/11 Q1022","temp":15,"dewp":11,"wdir":110,"wspd":9,"visib":"6+","altim":1022,"clouds":[],"obsTime":1781856000},"SBMA":{"icaoId":"SBMA","flightCategory":"VFR","rawOb":"METAR SBMA 190800Z 00000KT CAVOK 24/23 Q1014","temp":24,"dewp":23,"wdir":0,"wspd":0,"visib":"6+","altim":1014,"clouds":[],"obsTime":1781856000},"SBUR":{"icaoId":"SBUR","flightCategory":"VFR","rawOb":"METAR SBUR 190800Z 05009KT CAVOK 17/11 Q1021","temp":17,"dewp":11,"wdir":50,"wspd":9,"visib":"6+","altim":1021,"clouds":[],"obsTime":1781856000},"SBME":{"icaoId":"SBME","flightCategory":"MVFR","rawOb":"METAR SBME 190800Z 31004KT 6000 -RA SCT020 OVC080 15/13 Q1024","temp":15,"dewp":13,"wdir":310,"wspd":4,"visib":3.73,"altim":1024,"clouds":[{"cover":"SCT","base":2000},{"cover":"OVC","base":8000}],"obsTime":1781856000},"SBVT":{"icaoId":"SBVT","flightCategory":"VFR","rawOb":"METAR SBVT 190800Z 33003KT 9999 SCT045 14/14 Q1023","temp":14,"dewp":14,"wdir":330,"wspd":3,"visib":"6+","altim":1023,"clouds":[{"cover":"SCT","base":4500}],"obsTime":1781856000},"SBCF":{"icaoId":"SBCF","flightCategory":"VFR","rawOb":"METAR SBCF 190800Z 14008KT CAVOK 14/12 Q1024","temp":14,"dewp":12,"wdir":140,"wspd":8,"visib":"6+","altim":1024,"clouds":[],"obsTime":1781856000},"SBMG":{"icaoId":"SBMG","flightCategory":"VFR","rawOb":"METAR SBMG 190800Z AUTO 17003KT 070V210 CAVOK 14/09 Q1017","temp":14,"dewp":9,"wdir":170,"wspd":3,"visib":"6+","altim":1017,"clouds":[],"obsTime":1781856000},"SBMK":{"icaoId":"SBMK","flightCategory":"VFR","rawOb":"METAR SBMK 190800Z 00000KT CAVOK 14/12 Q1023","temp":14,"dewp":12,"wdir":0,"wspd":0,"visib":"6+","altim":1023,"clouds":[],"obsTime":1781856000},"SBBR":{"icaoId":"SBBR","flightCategory":"VFR","rawOb":"METAR SBBR 190800Z 00000KT CAVOK 14/13 Q1023","temp":14,"dewp":13,"wdir":0,"wspd":0,"visib":"6+","altim":1023,"clouds":[],"obsTime":1781856000},"SBFL":{"icaoId":"SBFL","flightCategory":"MVFR","rawOb":"METAR SBFL 190800Z 31006KT 9999 FEW015 BKN020 BKN050 16/15 Q1020","temp":16,"dewp":15,"wdir":310,"wspd":6,"visib":"6+","altim":1020,"clouds":[{"cover":"FEW","base":1500},{"cover":"BKN","base":2000},{"cover":"BKN","base":5000}],"obsTime":1781856000},"SBTU":{"icaoId":"SBTU","flightCategory":"VFR","rawOb":"METAR SBTU 190900Z AUTO 18002KT 9999 // SCT027/// ///// Q1015","temp":null,"dewp":null,"wdir":180,"wspd":2,"visib":"6+","altim":1015,"clouds":[{"cover":"SCT","base":2700}],"obsTime":1781859600},"SBAR":{"icaoId":"SBAR","flightCategory":"MVFR","rawOb":"METAR SBAR 190800Z 16014G24KT 130V190 6000 -RA SCT021 BKN040 26/22 Q1017","temp":26,"dewp":22,"wdir":160,"wspd":14,"visib":3.73,"altim":1017,"clouds":[{"cover":"SCT","base":2100},{"cover":"BKN","base":4000}],"obsTime":1781856000},"SBAX":{"icaoId":"SBAX","flightCategory":"VFR","rawOb":"METAR SBAX 190800Z AUTO 11009KT CAVOK 13/12 Q1023","temp":13,"dewp":12,"wdir":110,"wspd":9,"visib":"6+","altim":1023,"clouds":[],"obsTime":1781856000},"SBBH":{"icaoId":"SBBH","flightCategory":"VFR","rawOb":"METAR SBBH 190900Z 10006KT CAVOK 14/11 Q1025","temp":14,"dewp":11,"wdir":100,"wspd":6,"visib":"6+","altim":1025,"clouds":[],"obsTime":1781859600},"SBBU":{"icaoId":"SBBU","flightCategory":"VFR","rawOb":"METAR SBBU 190900Z 10010KT CAVOK 12/11 Q1020","temp":12,"dewp":11,"wdir":100,"wspd":10,"visib":"6+","altim":1020,"clouds":[],"obsTime":1781859600},"SBCA":{"icaoId":"SBCA","flightCategory":"VFR","rawOb":"METAR SBCA 190900Z 04018G28KT CAVOK 14/08 Q1016","temp":14,"dewp":8,"wdir":40,"wspd":18,"visib":"6+","altim":1016,"clouds":[],"obsTime":1781859600},"SBCO":{"icaoId":"SBCO","flightCategory":"VFR","rawOb":"METAR SBCO 190900Z 27003KT CAVOK 11/10 Q1016","temp":11,"dewp":10,"wdir":270,"wspd":3,"visib":"6+","altim":1016,"clouds":[],"obsTime":1781859600},"SBOI":{"icaoId":"SBOI","flightCategory":"VFR","rawOb":"METAR SBOI 190800Z AUTO 22002KT 9999 // FEW014/// 24/23 Q1014","temp":24,"dewp":23,"wdir":220,"wspd":2,"visib":"6+","altim":1014,"clouds":[{"cover":"FEW","base":1400}],"obsTime":1781856000},"SBDN":{"icaoId":"SBDN","flightCategory":"VFR","rawOb":"METAR SBDN 190800Z 10005KT CAVOK 12/09 Q1018","temp":12,"dewp":9,"wdir":100,"wspd":5,"visib":"6+","altim":1018,"clouds":[],"obsTime":1781856000},"SBES":{"icaoId":"SBES","flightCategory":"VFR","rawOb":"METAR SBES 190900Z VRB02KT 9000 -DZ FEW010 BKN070 15/// Q1023","temp":null,"dewp":null,"wdir":"VRB","wspd":2,"visib":5.59,"altim":1023,"clouds":[{"cover":"FEW","base":1000},{"cover":"BKN","base":7000}],"obsTime":1781859600},"SBIP":{"icaoId":"SBIP","flightCategory":"VFR","rawOb":"METAR SBIP 190800Z AUTO 00000KT CAVOK 17/16 Q1024","temp":17,"dewp":16,"wdir":0,"wspd":0,"visib":"6+","altim":1024,"clouds":[],"obsTime":1781856000},"SBKG":{"icaoId":"SBKG","flightCategory":"VFR","rawOb":"METAR SBKG 190800Z 15003KT 9999 SCT012 20/19 Q1018","temp":20,"dewp":19,"wdir":150,"wspd":3,"visib":"6+","altim":1018,"clouds":[{"cover":"SCT","base":1200}],"obsTime":1781856000},"SBPL":{"icaoId":"SBPL","flightCategory":"VFR","rawOb":"METAR SBPL 190800Z 13012KT 9999 SCT020 23/19 Q1019","temp":23,"dewp":19,"wdir":130,"wspd":12,"visib":"6+","altim":1019,"clouds":[{"cover":"SCT","base":2000}],"obsTime":1781856000},"SBPS":{"icaoId":"SBPS","flightCategory":"VFR","rawOb":"METAR SBPS 190800Z 24005KT 9999 SCT020 SCT050 19/17 Q1021","temp":19,"dewp":17,"wdir":240,"wspd":5,"visib":"6+","altim":1021,"clouds":[{"cover":"SCT","base":2000},{"cover":"SCT","base":5000}],"obsTime":1781856000},"SBSC":{"icaoId":"SBSC","flightCategory":"MVFR","rawOb":"METAR SBSC 190800Z 01005KT 5000 BR FEW010 SCT050 13/12 Q1022","temp":13,"dewp":12,"wdir":10,"wspd":5,"visib":3.11,"altim":1022,"clouds":[{"cover":"FEW","base":1000},{"cover":"SCT","base":5000}],"obsTime":1781856000},"SBSJ":{"icaoId":"SBSJ","flightCategory":"IFR","rawOb":"SPECI SBSJ 190830Z 09007KT 040V120 3800 BR BKN011 13/11 Q1023","temp":13,"dewp":11,"wdir":90,"wspd":7,"visib":2.36,"altim":1023,"clouds":[{"cover":"BKN","base":1100}],"obsTime":1781857800},"SBSM":{"icaoId":"SBSM","flightCategory":"VFR","rawOb":"METAR SBSM 190900Z 04012G22KT 010V080 9999 -RA VCTS FEW040 FEW045CB OVC100 14/13 Q1011","temp":14,"dewp":13,"wdir":40,"wspd":12,"visib":"6+","altim":1011,"clouds":[{"cover":"FEW","base":4000},{"cover":"FEW","base":4500},{"cover":"OVC","base":10000}],"obsTime":1781859600},"SBSR":{"icaoId":"SBSR","flightCategory":"VFR","rawOb":"METAR SBSR 190800Z 08004KT CAVOK 15/12 Q1019","temp":15,"dewp":12,"wdir":80,"wspd":4,"visib":"6+","altim":1019,"clouds":[],"obsTime":1781856000},"SBNM":{"icaoId":"SBNM","flightCategory":"IFR","rawOb":"METAR SBNM 190800Z AUTO 18005KT 160V220 9999 -RA OVC006 12/12 Q1017","temp":12,"dewp":12,"wdir":180,"wspd":5,"visib":"6+","altim":1017,"clouds":[{"cover":"OVC","base":600}],"obsTime":1781856000},"SBJV":{"icaoId":"SBJV","flightCategory":"MVFR","rawOb":"METAR SBJV 190900Z 36001KT 5000 BR BKN030 13/13 Q1021","temp":13,"dewp":13,"wdir":360,"wspd":1,"visib":3.11,"altim":1021,"clouds":[{"cover":"BKN","base":3000}],"obsTime":1781859600},"SBJP":{"icaoId":"SBJP","flightCategory":"VFR","rawOb":"METAR SBJP 190800Z 20006KT CAVOK 22/22 Q1016","temp":22,"dewp":22,"wdir":200,"wspd":6,"visib":"6+","altim":1016,"clouds":[],"obsTime":1781856000},"SBLE":{"icaoId":"SBLE","flightCategory":"VFR","rawOb":"METAR SBLE 190800Z AUTO 16004KT 100V180 9999 FEW021 OVC037 19/19 Q1022","temp":19,"dewp":19,"wdir":160,"wspd":4,"visib":"6+","altim":1022,"clouds":[{"cover":"FEW","base":2100},{"cover":"OVC","base":3700}],"obsTime":1781856000},"SBAN":{"icaoId":"SBAN","flightCategory":"VFR","rawOb":"METAR SBAN 190800Z 11004KT CAVOK 17/12 Q1024","temp":17,"dewp":12,"wdir":110,"wspd":4,"visib":"6+","altim":1024,"clouds":[],"obsTime":1781856000},"SBGW":{"icaoId":"SBGW","flightCategory":"MVFR","rawOb":"METAR SBGW 190900Z VRB02KT 7000 SCT020 10/06 Q1023","temp":10,"dewp":6,"wdir":"VRB","wspd":2,"visib":4.35,"altim":1023,"clouds":[{"cover":"SCT","base":2000}],"obsTime":1781859600},"SBLS":{"icaoId":"SBLS","flightCategory":"VFR","rawOb":"METAR SBLS 190900Z 15010KT CAVOK 13/12 Q1024","temp":13,"dewp":12,"wdir":150,"wspd":10,"visib":"6+","altim":1024,"clouds":[],"obsTime":1781859600},"SBMT":{"icaoId":"SBMT","flightCategory":"IFR","rawOb":"METAR SBMT 190900Z 02003KT 4000 BR SCT005 OVC007 11/09 Q1022","temp":11,"dewp":9,"wdir":20,"wspd":3,"visib":2.49,"altim":1022,"clouds":[{"cover":"SCT","base":500},{"cover":"OVC","base":700}],"obsTime":1781859600},"SBTA":{"icaoId":"SBTA","flightCategory":"VFR","rawOb":"METAR SBTA 190900Z 10006KT 9999 FEW010 11/10 Q1022","temp":11,"dewp":10,"wdir":100,"wspd":6,"visib":"6+","altim":1022,"clouds":[{"cover":"FEW","base":1000}],"obsTime":1781859600},"SBPF":{"icaoId":"SBPF","flightCategory":"VFR","rawOb":"METAR SBPF 190900Z 25006KT CAVOK 12/08 Q1018","temp":12,"dewp":8,"wdir":250,"wspd":6,"visib":"6+","altim":1018,"clouds":[],"obsTime":1781859600}}}