{"updated":1774808611,"count":86,"data":{"SBEG":{"icaoId":"SBEG","flightCategory":"MVFR","rawOb":"METAR SBEG 291700Z 13007KT 9999 BKN020 BKN100 27/24 Q1012","temp":27,"dewp":24,"wdir":130,"wspd":7,"visib":"6+","altim":1012,"clouds":[{"cover":"BKN","base":2000},{"cover":"BKN","base":10000}],"obsTime":1774803600},"SBAT":{"icaoId":"SBAT","flightCategory":"VFR","rawOb":"METAR SBAT 291700Z 11005KT 9999 VCSH SCT030 32/22 Q1012","temp":32,"dewp":22,"wdir":110,"wspd":5,"visib":"6+","altim":1012,"clouds":[{"cover":"SCT","base":3000}],"obsTime":1774803600},"SBBE":{"icaoId":"SBBE","flightCategory":"VFR","rawOb":"METAR SBBE 291700Z 08006KT 9999 SCT032 FEW033TCU BKN041 30/23 Q1010","temp":30,"dewp":23,"wdir":80,"wspd":6,"visib":"6+","altim":1010,"clouds":[{"cover":"SCT","base":3200},{"cover":"FEW","base":3300},{"cover":"BKN","base":4100}],"obsTime":1774803600},"SBBR":{"icaoId":"SBBR","flightCategory":"VFR","rawOb":"METAR SBBR 291700Z 12007KT 080V160 9999 BKN040 FEW045TCU 26/16 Q1019","temp":26,"dewp":16,"wdir":120,"wspd":7,"visib":"6+","altim":1019,"clouds":[{"cover":"BKN","base":4000},{"cover":"FEW","base":4500}],"obsTime":1774803600},"SBBV":{"icaoId":"SBBV","flightCategory":"VFR","rawOb":"METAR SBBV 291700Z 12003KT 9999 BKN040 FEW045TCU 32/22 Q1011","temp":32,"dewp":22,"wdir":120,"wspd":3,"visib":"6+","altim":1011,"clouds":[{"cover":"BKN","base":4000},{"cover":"FEW","base":4500}],"obsTime":1774803600},"SBCB":{"icaoId":"SBCB","flightCategory":"VFR","rawOb":"METAR SBCB 291700Z 08008KT CAVOK 29/21 Q1016","temp":29,"dewp":21,"wdir":80,"wspd":8,"visib":"6+","altim":1016,"clouds":[],"obsTime":1774803600},"SBCF":{"icaoId":"SBCF","flightCategory":"VFR","rawOb":"METAR SBCF 291700Z 09007KT 9999 SCT040 26/16 Q1019","temp":26,"dewp":16,"wdir":90,"wspd":7,"visib":"6+","altim":1019,"clouds":[{"cover":"SCT","base":4000}],"obsTime":1774803600},"SBCG":{"icaoId":"SBCG","flightCategory":"VFR","rawOb":"METAR SBCG 291700Z 02008KT 350V050 CAVOK 32/14 Q1016","temp":32,"dewp":14,"wdir":20,"wspd":8,"visib":"6+","altim":1016,"clouds":[],"obsTime":1774803600},"SBCP":{"icaoId":"SBCP","flightCategory":"MVFR","rawOb":"METAR SBCP 291700Z 12006KT 9999 BKN015 29/23 Q1015","temp":29,"dewp":23,"wdir":120,"wspd":6,"visib":"6+","altim":1015,"clouds":[{"cover":"BKN","base":1500}],"obsTime":1774803600},"SBCR":{"icaoId":"SBCR","flightCategory":"VFR","rawOb":"METAR SBCR 291700Z 04006KT 350V090 9999 SCT040 34/21 Q1013","temp":34,"dewp":21,"wdir":40,"wspd":6,"visib":"6+","altim":1013,"clouds":[{"cover":"SCT","base":4000}],"obsTime":1774803600},"SBCT":{"icaoId":"SBCT","flightCategory":"VFR","rawOb":"METAR SBCT 291700Z VRB02KT 9999 FEW030 29/14 Q1021","temp":29,"dewp":14,"wdir":"VRB","wspd":2,"visib":"6+","altim":1021,"clouds":[{"cover":"FEW","base":3000}],"obsTime":1774803600},"SBCZ":{"icaoId":"SBCZ","flightCategory":"MVFR","rawOb":"METAR SBCZ 291700Z 11005KT 080V150 9999 VCSH BKN020 BKN100 28/23 Q1014","temp":28,"dewp":23,"wdir":110,"wspd":5,"visib":"6+","altim":1014,"clouds":[{"cover":"BKN","base":2000},{"cover":"BKN","base":10000}],"obsTime":1774803600},"SBFI":{"icaoId":"SBFI","flightCategory":"VFR","rawOb":"METAR SBFI 291700Z 23006KT 9999 SCT030 34/21 Q1016","temp":34,"dewp":21,"wdir":230,"wspd":6,"visib":"6+","altim":1016,"clouds":[{"cover":"SCT","base":3000}],"obsTime":1774803600},"SBFL":{"icaoId":"SBFL","flightCategory":"VFR","rawOb":"METAR SBFL 291700Z 36012KT CAVOK 32/22 Q1015","temp":32,"dewp":22,"wdir":360,"wspd":12,"visib":"6+","altim":1015,"clouds":[],"obsTime":1774803600},"SBFZ":{"icaoId":"SBFZ","flightCategory":"VFR","rawOb":"METAR SBFZ 291700Z 12002KT 9999 FEW030 BKN100 28/23 Q1009","temp":28,"dewp":23,"wdir":120,"wspd":2,"visib":"6+","altim":1009,"clouds":[{"cover":"FEW","base":3000},{"cover":"BKN","base":10000}],"obsTime":1774803600},"SBGL":{"icaoId":"SBGL","flightCategory":"VFR","rawOb":"METAR SBGL 291700Z 13006KT 9999 FEW030 30/21 Q1015","temp":30,"dewp":21,"wdir":130,"wspd":6,"visib":"6+","altim":1015,"clouds":[{"cover":"FEW","base":3000}],"obsTime":1774803600},"SBGO":{"icaoId":"SBGO","flightCategory":"VFR","rawOb":"METAR SBGO 291700Z 10009KT 9999 SCT050 FEW053TCU 30/18 Q1017","temp":30,"dewp":18,"wdir":100,"wspd":9,"visib":"6+","altim":1017,"clouds":[{"cover":"SCT","base":5000},{"cover":"FEW","base":5300}],"obsTime":1774803600},"SBGR":{"icaoId":"SBGR","flightCategory":"VFR","rawOb":"METAR SBGR 291700Z 13007KT CAVOK 30/14 Q1019","temp":30,"dewp":14,"wdir":130,"wspd":7,"visib":"6+","altim":1019,"clouds":[],"obsTime":1774803600},"SBHT":{"icaoId":"SBHT","flightCategory":"MVFR","rawOb":"METAR SBHT 291700Z 12002KT 8000 VCSH SCT025 SCT090 32/25 Q1010","temp":32,"dewp":25,"wdir":120,"wspd":2,"visib":4.97,"altim":1010,"clouds":[{"cover":"SCT","base":2500},{"cover":"SCT","base":9000}],"obsTime":1774803600},"SBIL":{"icaoId":"SBIL","flightCategory":"VFR","rawOb":"METAR SBIL 291700Z 19006KT 150V220 9999 VCSH SCT020 FEW025TCU BKN050 29/24 Q1014","temp":29,"dewp":24,"wdir":190,"wspd":6,"visib":"6+","altim":1014,"clouds":[{"cover":"SCT","base":2000},{"cover":"FEW","base":2500},{"cover":"BKN","base":5000}],"obsTime":1774803600},"SBJU":{"icaoId":"SBJU","flightCategory":"MVFR","rawOb":"METAR SBJU 291700Z 12004KT 9999 BKN022 30/22 Q1012","temp":30,"dewp":22,"wdir":120,"wspd":4,"visib":"6+","altim":1012,"clouds":[{"cover":"BKN","base":2200}],"obsTime":1774803600},"SBKP":{"icaoId":"SBKP","flightCategory":"VFR","rawOb":"METAR SBKP 291700Z 21004KT 150V290 9999 SCT045 31/16 Q1018","temp":31,"dewp":16,"wdir":210,"wspd":4,"visib":"6+","altim":1018,"clouds":[{"cover":"SCT","base":4500}],"obsTime":1774803600},"SBLO":{"icaoId":"SBLO","flightCategory":"VFR","rawOb":"METAR SBLO 291700Z 21003KT 9999 FEW025 31/18 Q1018","temp":31,"dewp":18,"wdir":210,"wspd":3,"visib":"6+","altim":1018,"clouds":[{"cover":"FEW","base":2500}],"obsTime":1774803600},"SBMA":{"icaoId":"SBMA","flightCategory":"VFR","rawOb":"METAR SBMA 291700Z 11004KT 9999 SCT023 31/25 Q1010","temp":31,"dewp":25,"wdir":110,"wspd":4,"visib":"6+","altim":1010,"clouds":[{"cover":"SCT","base":2300}],"obsTime":1774803600},"SBME":{"icaoId":"SBME","flightCategory":"VFR","rawOb":"METAR SBME 291700Z 16007KT 9999 FEW025 30/23 Q1016","temp":30,"dewp":23,"wdir":160,"wspd":7,"visib":"6+","altim":1016,"clouds":[{"cover":"FEW","base":2500}],"obsTime":1774803600},"SBMG":{"icaoId":"SBMG","flightCategory":"VFR","rawOb":"METAR SBMG 291700Z VRB03KT CAVOK 32/19 Q1017","temp":32,"dewp":19,"wdir":"VRB","wspd":3,"visib":"6+","altim":1017,"clouds":[],"obsTime":1774803600},"SBMK":{"icaoId":"SBMK","flightCategory":"VFR","rawOb":"METAR SBMK 291700Z 11005KT 9999 BKN035 29/17 Q1017","temp":29,"dewp":17,"wdir":110,"wspd":5,"visib":"6+","altim":1017,"clouds":[{"cover":"BKN","base":3500}],"obsTime":1774803600},"SBMO":{"icaoId":"SBMO","flightCategory":"MVFR","rawOb":"METAR SBMO 291700Z 18005KT 150V210 9999 VCTS FEW005 BKN018 FEW023CB BKN060 26/24 Q1011","temp":26,"dewp":24,"wdir":180,"wspd":5,"visib":"6+","altim":1011,"clouds":[{"cover":"FEW","base":500},{"cover":"BKN","base":1800},{"cover":"FEW","base":2300},{"cover":"BKN","base":6000}],"obsTime":1774803600},"SBMQ":{"icaoId":"SBMQ","flightCategory":"VFR","rawOb":"METAR SBMQ 291700Z 07011KT 9999 SCT015 FEW020TCU SCT051 29/25 Q1010","temp":29,"dewp":25,"wdir":70,"wspd":11,"visib":"6+","altim":1010,"clouds":[{"cover":"SCT","base":1500},{"cover":"FEW","base":2000},{"cover":"SCT","base":5100}],"obsTime":1774803600},"SBNT":{"icaoId":"SBNT","flightCategory":"VFR","rawOb":"METAR SBNT 291700Z 11010KT 9999 FEW040 30/23 Q1009","temp":30,"dewp":23,"wdir":110,"wspd":10,"visib":"6+","altim":1009,"clouds":[{"cover":"FEW","base":4000}],"obsTime":1774803600},"SBPA":{"icaoId":"SBPA","flightCategory":"VFR","rawOb":"METAR SBPA 291700Z 27009KT 9999 FEW030 32/24 Q1015","temp":32,"dewp":24,"wdir":270,"wspd":9,"visib":"6+","altim":1015,"clouds":[{"cover":"FEW","base":3000}],"obsTime":1774803600},"SBPJ":{"icaoId":"SBPJ","flightCategory":"MVFR","rawOb":"METAR SBPJ 291700Z VRB05KT 9999 BKN030 34/23 Q1011","temp":34,"dewp":23,"wdir":"VRB","wspd":5,"visib":"6+","altim":1011,"clouds":[{"cover":"BKN","base":3000}],"obsTime":1774803600},"SBPV":{"icaoId":"SBPV","flightCategory":"MVFR","rawOb":"METAR SBPV 291700Z 06003KT 8000 -RA BKN010 BKN050 26/23 Q1013","temp":26,"dewp":23,"wdir":60,"wspd":3,"visib":4.97,"altim":1013,"clouds":[{"cover":"BKN","base":1000},{"cover":"BKN","base":5000}],"obsTime":1774803600},"SBRB":{"icaoId":"SBRB","flightCategory":"MVFR","rawOb":"METAR SBRB 291700Z 05005KT 9999 BKN020 BKN100 28/23 Q1014","temp":28,"dewp":23,"wdir":50,"wspd":5,"visib":"6+","altim":1014,"clouds":[{"cover":"BKN","base":2000},{"cover":"BKN","base":10000}],"obsTime":1774803600},"SBRF":{"icaoId":"SBRF","flightCategory":"VFR","rawOb":"METAR SBRF 291700Z 12007KT 9999 FEW025 FEW027TCU 30/23 Q1009","temp":30,"dewp":23,"wdir":120,"wspd":7,"visib":"6+","altim":1009,"clouds":[{"cover":"FEW","base":2500},{"cover":"FEW","base":2700}],"obsTime":1774803600},"SBSG":{"icaoId":"SBSG","flightCategory":"VFR","rawOb":"METAR SBSG 291700Z 09009KT 9999 SCT030 SCT100 30/23 Q1009","temp":30,"dewp":23,"wdir":90,"wspd":9,"visib":"6+","altim":1009,"clouds":[{"cover":"SCT","base":3000},{"cover":"SCT","base":10000}],"obsTime":1774803600},"SBSL":{"icaoId":"SBSL","flightCategory":"MVFR","rawOb":"METAR SBSL 291700Z 06007KT 9999 BKN018 FEW025TCU BKN080 28/25 Q1010","temp":28,"dewp":25,"wdir":60,"wspd":7,"visib":"6+","altim":1010,"clouds":[{"cover":"BKN","base":1800},{"cover":"FEW","base":2500},{"cover":"BKN","base":8000}],"obsTime":1774803600},"SBSN":{"icaoId":"SBSN","flightCategory":"VFR","rawOb":"METAR SBSN 291700Z 35005KT 9999 SCT017 SCT100 30/24 Q1010","temp":30,"dewp":24,"wdir":350,"wspd":5,"visib":"6+","altim":1010,"clouds":[{"cover":"SCT","base":1700},{"cover":"SCT","base":10000}],"obsTime":1774803600},"SBSP":{"icaoId":"SBSP","flightCategory":"VFR","rawOb":"METAR SBSP 291700Z 17010KT 130V210 9999 FEW040 27/19 Q1020","temp":27,"dewp":19,"wdir":170,"wspd":10,"visib":"6+","altim":1020,"clouds":[{"cover":"FEW","base":4000}],"obsTime":1774803600},"SBSV":{"icaoId":"SBSV","flightCategory":"VFR","rawOb":"METAR SBSV 291700Z 19008KT 9999 SCT020 FEW025TCU BKN050 28/23 Q1012","temp":28,"dewp":23,"wdir":190,"wspd":8,"visib":"6+","altim":1012,"clouds":[{"cover":"SCT","base":2000},{"cover":"FEW","base":2500},{"cover":"BKN","base":5000}],"obsTime":1774803600},"SBTE":{"icaoId":"SBTE","flightCategory":"MVFR","rawOb":"SPECI SBTE 291635Z 05005KT 9999 -TSRA BKN020 FEW025CB 29/24 Q1009 RERA","temp":29,"dewp":24,"wdir":50,"wspd":5,"visib":"6+","altim":1009,"clouds":[{"cover":"BKN","base":2000},{"cover":"FEW","base":2500}],"obsTime":1774802100},"SBUL":{"icaoId":"SBUL","flightCategory":"VFR","rawOb":"METAR SBUL 291700Z 09007KT 020V120 9999 SCT040 28/15 Q1019","temp":28,"dewp":15,"wdir":90,"wspd":7,"visib":"6+","altim":1019,"clouds":[{"cover":"SCT","base":4000}],"obsTime":1774803600},"SBUR":{"icaoId":"SBUR","flightCategory":"VFR","rawOb":"METAR SBUR 291700Z 08007KT 9999 BKN048 29/16 Q1018","temp":29,"dewp":16,"wdir":80,"wspd":7,"visib":"6+","altim":1018,"clouds":[{"cover":"BKN","base":4800}],"obsTime":1774803600},"SBVT":{"icaoId":"SBVT","flightCategory":"VFR","rawOb":"METAR SBVT 291700Z 16012KT 9999 FEW030 27/24 Q1015","temp":27,"dewp":24,"wdir":160,"wspd":12,"visib":"6+","altim":1015,"clouds":[{"cover":"FEW","base":3000}],"obsTime":1774803600},"SBOI":{"icaoId":"SBOI","flightCategory":"VFR","rawOb":"METAR SBOI 291700Z AUTO 05006KT 340V120 9999 FEW026 SCT030 31/25 Q1010","temp":31,"dewp":25,"wdir":50,"wspd":6,"visib":"6+","altim":1010,"clouds":[{"cover":"FEW","base":2600},{"cover":"SCT","base":3000}],"obsTime":1774803600},"SBSC":{"icaoId":"SBSC","flightCategory":"VFR","rawOb":"METAR SBSC 291700Z 17009KT 9999 FEW030 30/20 Q1016","temp":30,"dewp":20,"wdir":170,"wspd":9,"visib":"6+","altim":1016,"clouds":[{"cover":"FEW","base":3000}],"obsTime":1774803600},"SBAU":{"icaoId":"SBAU","flightCategory":"VFR","rawOb":"METAR SBAU 291700Z 09008KT 9999 FEW040 33/16 Q1016","temp":33,"dewp":16,"wdir":90,"wspd":8,"visib":"6+","altim":1016,"clouds":[{"cover":"FEW","base":4000}],"obsTime":1774803600},"SBAX":{"icaoId":"SBAX","flightCategory":"VFR","rawOb":"METAR SBAX 291700Z AUTO 08005KT 030V120 CAVOK 27/16 Q1020","temp":27,"dewp":16,"wdir":80,"wspd":5,"visib":"6+","altim":1020,"clouds":[],"obsTime":1774803600},"SBBH":{"icaoId":"SBBH","flightCategory":"VFR","rawOb":"METAR SBBH 291700Z 09008KT 9999 SCT040 26/17 Q1019","temp":26,"dewp":17,"wdir":90,"wspd":8,"visib":"6+","altim":1019,"clouds":[{"cover":"SCT","base":4000}],"obsTime":1774803600},"SBBQ":{"icaoId":"SBBQ","flightCategory":"VFR","rawOb":"METAR SBBQ 291700Z 09005KT 9999 SCT045 25/14 Q1023","temp":25,"dewp":14,"wdir":90,"wspd":5,"visib":"6+","altim":1023,"clouds":[{"cover":"SCT","base":4500}],"obsTime":1774803600},"SBBU":{"icaoId":"SBBU","flightCategory":"VFR","rawOb":"METAR SBBU 291700Z 01003KT 9999 SCT040 31/18 Q1018","temp":31,"dewp":18,"wdir":10,"wspd":3,"visib":"6+","altim":1018,"clouds":[{"cover":"SCT","base":4000}],"obsTime":1774803600},"SBCA":{"icaoId":"SBCA","flightCategory":"VFR","rawOb":"METAR SBCA 291700Z 04004KT 9999 FEW030 31/17 Q1020","temp":31,"dewp":17,"wdir":40,"wspd":4,"visib":"6+","altim":1020,"clouds":[{"cover":"FEW","base":3000}],"obsTime":1774803600},"SBCC":{"icaoId":"SBCC","flightCategory":"VFR","rawOb":"METAR SBCC 291700Z 08007KT 9999 SCT020 FEW025TCU BKN100 30/20 Q1013","temp":30,"dewp":20,"wdir":80,"wspd":7,"visib":"6+","altim":1013,"clouds":[{"cover":"SCT","base":2000},{"cover":"FEW","base":2500},{"cover":"BKN","base":10000}],"obsTime":1774803600},"SBCJ":{"icaoId":"SBCJ","flightCategory":"VFR","rawOb":"METAR SBCJ 291700Z 00000KT 9999 SCT017 28/23 Q1014","temp":28,"dewp":23,"wdir":0,"wspd":0,"visib":"6+","altim":1014,"clouds":[{"cover":"SCT","base":1700}],"obsTime":1774803600},"SBCO":{"icaoId":"SBCO","flightCategory":"VFR","rawOb":"METAR SBCO 291700Z 26005KT 210V310 CAVOK 33/23 Q1015","temp":33,"dewp":23,"wdir":260,"wspd":5,"visib":"6+","altim":1015,"clouds":[],"obsTime":1774803600},"SBDN":{"icaoId":"SBDN","flightCategory":"VFR","rawOb":"METAR SBDN 291700Z 07003KT CAVOK 33/18 Q1017","temp":33,"dewp":18,"wdir":70,"wspd":3,"visib":"6+","altim":1017,"clouds":[],"obsTime":1774803600},"SBES":{"icaoId":"SBES","flightCategory":"VFR","rawOb":"METAR SBES 291700Z 06007KT 030V110 9999 FEW020 29/// Q1016","temp":null,"dewp":null,"wdir":60,"wspd":7,"visib":"6+","altim":1016,"clouds":[{"cover":"FEW","base":2000}],"obsTime":1774803600},"SBGM":{"icaoId":"SBGM","flightCategory":"VFR","rawOb":"METAR SBGM 291700Z 24002KT 9999 SCT020 SCT033 OVC046 28/22 Q1013","temp":28,"dewp":22,"wdir":240,"wspd":2,"visib":"6+","altim":1013,"clouds":[{"cover":"SCT","base":2000},{"cover":"SCT","base":3300},{"cover":"OVC","base":4600}],"obsTime":1774803600},"SBIP":{"icaoId":"SBIP","flightCategory":"VFR","rawOb":"METAR SBIP 291700Z AUTO VRB02KT CAVOK 31/19 Q1016","temp":31,"dewp":19,"wdir":"VRB","wspd":2,"visib":"6+","altim":1016,"clouds":[],"obsTime":1774803600},"SBKG":{"icaoId":"SBKG","flightCategory":"VFR","rawOb":"METAR SBKG 291700Z 12005KT 9999 FEW030 30/19 Q1012","temp":30,"dewp":19,"wdir":120,"wspd":5,"visib":"6+","altim":1012,"clouds":[{"cover":"FEW","base":3000}],"obsTime":1774803600},"SBPB":{"icaoId":"SBPB","flightCategory":"VFR","rawOb":"METAR SBPB 291700Z 03009KT 9999 FEW020 SCT100 31/26 Q1009","temp":31,"dewp":26,"wdir":30,"wspd":9,"visib":"6+","altim":1009,"clouds":[{"cover":"FEW","base":2000},{"cover":"SCT","base":10000}],"obsTime":1774803600},"SBPL":{"icaoId":"SBPL","flightCategory":"VFR","rawOb":"METAR SBPL 291700Z 14006KT 9999 SCT030 33/21 Q1011","temp":33,"dewp":21,"wdir":140,"wspd":6,"visib":"6+","altim":1011,"clouds":[{"cover":"SCT","base":3000}],"obsTime":1774803600},"SBPP":{"icaoId":"SBPP","flightCategory":"VFR","rawOb":"METAR SBPP 291700Z 02007KT 9999 SCT025 31/18 Q1018","temp":31,"dewp":18,"wdir":20,"wspd":7,"visib":"6+","altim":1018,"clouds":[{"cover":"SCT","base":2500}],"obsTime":1774803600},"SBPS":{"icaoId":"SBPS","flightCategory":"VFR","rawOb":"METAR SBPS 291700Z 14006KT 080V190 9999 SCT020 FEW023TCU 28/23 Q1014","temp":28,"dewp":23,"wdir":140,"wspd":6,"visib":"6+","altim":1014,"clouds":[{"cover":"SCT","base":2000},{"cover":"FEW","base":2300}],"obsTime":1774803600},"SBAR":{"icaoId":"SBAR","flightCategory":"VFR","rawOb":"METAR SBAR 291700Z 08008KT 9999 VCSH SCT021 FEW023TCU BKN080 28/23 Q1011","temp":28,"dewp":23,"wdir":80,"wspd":8,"visib":"6+","altim":1011,"clouds":[{"cover":"SCT","base":2100},{"cover":"FEW","base":2300},{"cover":"BKN","base":8000}],"obsTime":1774803600},"SBSJ":{"icaoId":"SBSJ","flightCategory":"VFR","rawOb":"METAR SBSJ 291700Z VRB03KT 9999 FEW040 29/16 Q1018","temp":29,"dewp":16,"wdir":"VRB","wspd":3,"visib":"6+","altim":1018,"clouds":[{"cover":"FEW","base":4000}],"obsTime":1774803600},"SBSM":{"icaoId":"SBSM","flightCategory":"VFR","rawOb":"METAR SBSM 291700Z 26004KT 210V300 9999 SCT040 FEW045TCU SCT080 34/26 Q1015","temp":34,"dewp":26,"wdir":260,"wspd":4,"visib":"6+","altim":1015,"clouds":[{"cover":"SCT","base":4000},{"cover":"FEW","base":4500},{"cover":"SCT","base":8000}],"obsTime":1774803600},"SBSR":{"icaoId":"SBSR","flightCategory":"VFR","rawOb":"METAR SBSR 291700Z 09005KT 030V120 9999 SCT030 31/16 Q1017","temp":31,"dewp":16,"wdir":90,"wspd":5,"visib":"6+","altim":1017,"clouds":[{"cover":"SCT","base":3000}],"obsTime":1774803600},"SBTF":{"icaoId":"SBTF","flightCategory":"VFR","rawOb":"METAR SBTF 291700Z 06008KT 9999 -RA SCT007 OVC080 25/25 Q1013","temp":25,"dewp":25,"wdir":60,"wspd":8,"visib":"6+","altim":1013,"clouds":[{"cover":"SCT","base":700},{"cover":"OVC","base":8000}],"obsTime":1774803600},"SBTT":{"icaoId":"SBTT","flightCategory":"VFR","rawOb":"METAR SBTT 291700Z 21007KT 9999 SCT015 29/23 Q1013","temp":29,"dewp":23,"wdir":210,"wspd":7,"visib":"6+","altim":1013,"clouds":[{"cover":"SCT","base":1500}],"obsTime":1774803600},"SBUY":{"icaoId":"SBUY","flightCategory":"VFR","rawOb":"METAR SBUY 291700Z 01002KT 9999 SCT025 BKN090 29/24 Q1012","temp":29,"dewp":24,"wdir":10,"wspd":2,"visib":"6+","altim":1012,"clouds":[{"cover":"SCT","base":2500},{"cover":"BKN","base":9000}],"obsTime":1774803600},"SBVH":{"icaoId":"SBVH","flightCategory":"MVFR","rawOb":"METAR SBVH 291700Z 09010KT 9999 BKN025 SCT100 26/21 Q1016","temp":26,"dewp":21,"wdir":90,"wspd":10,"visib":"6+","altim":1016,"clouds":[{"cover":"BKN","base":2500},{"cover":"SCT","base":10000}],"obsTime":1774803600},"SBJP":{"icaoId":"SBJP","flightCategory":"VFR","rawOb":"METAR SBJP 291700Z 10009KT 040V160 9999 FEW035 32/21 Q1010","temp":32,"dewp":21,"wdir":100,"wspd":9,"visib":"6+","altim":1010,"clouds":[{"cover":"FEW","base":3500}],"obsTime":1774803600},"SBAN":{"icaoId":"SBAN","flightCategory":"VFR","rawOb":"METAR SBAN 291700Z 12008KT 9999 VCSH BKN040 FEW045TCU 26/17 Q1020","temp":26,"dewp":17,"wdir":120,"wspd":8,"visib":"6+","altim":1020,"clouds":[{"cover":"BKN","base":4000},{"cover":"FEW","base":4500}],"obsTime":1774803600},"SBIH":{"icaoId":"SBIH","flightCategory":"VFR","rawOb":"METAR SBIH 291700Z 28005KT 9999 SCT018 FEW023TCU 31/24 Q1010","temp":31,"dewp":24,"wdir":280,"wspd":5,"visib":"6+","altim":1010,"clouds":[{"cover":"SCT","base":1800},{"cover":"FEW","base":2300}],"obsTime":1774803600},"SBJV":{"icaoId":"SBJV","flightCategory":"VFR","rawOb":"METAR SBJV 291700Z 03005KT 9999 FEW030 32/22 Q1015","temp":32,"dewp":22,"wdir":30,"wspd":5,"visib":"6+","altim":1015,"clouds":[{"cover":"FEW","base":3000}],"obsTime":1774803600},"SBLE":{"icaoId":"SBLE","flightCategory":"VFR","rawOb":"METAR SBLE 291700Z AUTO 18004KT 110V260 9999 SCT037 28/20 Q1015","temp":28,"dewp":20,"wdir":180,"wspd":4,"visib":"6+","altim":1015,"clouds":[{"cover":"SCT","base":3700}],"obsTime":1774803600},"SBTC":{"icaoId":"SBTC","flightCategory":"VFR","rawOb":"METAR SBTC 291700Z 14007KT 9999 SCT020 SCT070 29/23 Q1013","temp":29,"dewp":23,"wdir":140,"wspd":7,"visib":"6+","altim":1013,"clouds":[{"cover":"SCT","base":2000},{"cover":"SCT","base":7000}],"obsTime":1774803600},"SBAF":{"icaoId":"SBAF","flightCategory":"VFR","rawOb":"METAR SBAF 291700Z 20011KT 9999 FEW030 30/20 Q1016","temp":30,"dewp":20,"wdir":200,"wspd":11,"visib":"6+","altim":1016,"clouds":[{"cover":"FEW","base":3000}],"obsTime":1774803600},"SBGW":{"icaoId":"SBGW","flightCategory":"VFR","rawOb":"METAR SBGW 291700Z VRB03KT 9999 FEW030 30/14 Q1018","temp":30,"dewp":14,"wdir":"VRB","wspd":3,"visib":"6+","altim":1018,"clouds":[{"cover":"FEW","base":3000}],"obsTime":1774803600},"SBJR":{"icaoId":"SBJR","flightCategory":"VFR","rawOb":"METAR SBJR 291700Z 17007KT 9999 FEW025 30/21 Q1016","temp":30,"dewp":21,"wdir":170,"wspd":7,"visib":"6+","altim":1016,"clouds":[{"cover":"FEW","base":2500}],"obsTime":1774803600},"SBLS":{"icaoId":"SBLS","flightCategory":"VFR","rawOb":"METAR SBLS 291700Z 11005KT 030V130 9999 BKN040 26/17 Q1019","temp":26,"dewp":17,"wdir":110,"wspd":5,"visib":"6+","altim":1019,"clouds":[{"cover":"BKN","base":4000}],"obsTime":1774803600},"SBMT":{"icaoId":"SBMT","flightCategory":"VFR","rawOb":"METAR SBMT 291700Z 15004KT 9999 SCT030 30/15 Q1018","temp":30,"dewp":15,"wdir":150,"wspd":4,"visib":"6+","altim":1018,"clouds":[{"cover":"SCT","base":3000}],"obsTime":1774803600},"SBST":{"icaoId":"SBST","flightCategory":"MVFR","rawOb":"METAR SBST 291700Z 25002KT 9999 BKN025 28/22 Q1016","temp":28,"dewp":22,"wdir":250,"wspd":2,"visib":"6+","altim":1016,"clouds":[{"cover":"BKN","base":2500}],"obsTime":1774803600},"SBTA":{"icaoId":"SBTA","flightCategory":"VFR","rawOb":"METAR SBTA 291700Z 03005KT 330V080 9999 FEW030 28/22 Q1017","temp":28,"dewp":22,"wdir":30,"wspd":5,"visib":"6+","altim":1017,"clouds":[{"cover":"FEW","base":3000}],"obsTime":1774803600},"SBPF":{"icaoId":"SBPF","flightCategory":"VFR","rawOb":"METAR SBPF 291700Z AUTO VRB05KT 9999 NSC 30/18 Q1020","temp":30,"dewp":18,"wdir":"VRB","wspd":5,"visib":"6+","altim":1020,"clouds":[],"obsTime":1774803600}}}