{"updated":1774338289,"count":49,"data":{"SBSP":{"icaoId":"SBSP","flightCategory":"VFR","rawOb":"METAR SBSP 240600Z AUTO 08005KT 040V110 9999 FEW013 19/17 Q1015","temp":19,"dewp":17,"wdir":80,"wspd":5,"visib":"6+","altim":1015,"clouds":[{"cover":"FEW","base":1300}],"obsTime":1774332000},"SBMO":{"icaoId":"SBMO","flightCategory":"VFR","rawOb":"METAR SBMO 240600Z 33004KT 9999 FEW018 24/23 Q1011","temp":24,"dewp":23,"wdir":330,"wspd":4,"visib":"6+","altim":1011,"clouds":[{"cover":"FEW","base":1800}],"obsTime":1774332000},"SBBV":{"icaoId":"SBBV","flightCategory":"VFR","rawOb":"METAR SBBV 240600Z 09008KT 9999 FEW035 FEW040TCU SCT080 28/23 Q1009","temp":28,"dewp":23,"wdir":90,"wspd":8,"visib":"6+","altim":1009,"clouds":[{"cover":"FEW","base":3500},{"cover":"FEW","base":4000},{"cover":"SCT","base":8000}],"obsTime":1774332000},"SBBR":{"icaoId":"SBBR","flightCategory":"VFR","rawOb":"METAR SBBR 240600Z 35006KT 9999 SCT035 BKN060 20/18 Q1016","temp":20,"dewp":18,"wdir":350,"wspd":6,"visib":"6+","altim":1016,"clouds":[{"cover":"SCT","base":3500},{"cover":"BKN","base":6000}],"obsTime":1774332000},"SBMQ":{"icaoId":"SBMQ","flightCategory":"VFR","rawOb":"METAR SBMQ 240600Z 01003KT CAVOK 26/25 Q1009","temp":26,"dewp":25,"wdir":10,"wspd":3,"visib":"6+","altim":1009,"clouds":[],"obsTime":1774332000},"SBGL":{"icaoId":"SBGL","flightCategory":"VFR","rawOb":"METAR SBGL 240600Z 27003KT CAVOK 22/20 Q1011","temp":22,"dewp":20,"wdir":270,"wspd":3,"visib":"6+","altim":1011,"clouds":[],"obsTime":1774332000},"SBNT":{"icaoId":"SBNT","flightCategory":"VFR","rawOb":"METAR SBNT 240600Z 17004KT 9999 FEW020 25/23 Q1010","temp":25,"dewp":23,"wdir":170,"wspd":4,"visib":"6+","altim":1010,"clouds":[{"cover":"FEW","base":2000}],"obsTime":1774332000},"SBCT":{"icaoId":"SBCT","flightCategory":"LIFR","rawOb":"METAR SBCT 240600Z 15002KT 3000 BR OVC004 19/19 Q1016","temp":19,"dewp":19,"wdir":150,"wspd":2,"visib":1.86,"altim":1016,"clouds":[{"cover":"OVC","base":400}],"obsTime":1774332000},"SBPA":{"icaoId":"SBPA","flightCategory":"VFR","rawOb":"METAR SBPA 240600Z 29003KT 9000 FEW045 24/23 Q1007","temp":24,"dewp":23,"wdir":290,"wspd":3,"visib":5.59,"altim":1007,"clouds":[{"cover":"FEW","base":4500}],"obsTime":1774332000},"SBGO":{"icaoId":"SBGO","flightCategory":"VFR","rawOb":"METAR SBGO 240600Z 29002KT CAVOK 20/19 Q1014","temp":20,"dewp":19,"wdir":290,"wspd":2,"visib":"6+","altim":1014,"clouds":[],"obsTime":1774332000},"SBPJ":{"icaoId":"SBPJ","flightCategory":"VFR","rawOb":"METAR SBPJ 240600Z 13005KT 9999 FEW030 SCT090 24/23 Q1011","temp":24,"dewp":23,"wdir":130,"wspd":5,"visib":"6+","altim":1011,"clouds":[{"cover":"FEW","base":3000},{"cover":"SCT","base":9000}],"obsTime":1774332000},"SBGR":{"icaoId":"SBGR","flightCategory":"MVFR","rawOb":"METAR SBGR 240600Z 07005KT 8000 OVC010 20/18 Q1014","temp":20,"dewp":18,"wdir":70,"wspd":5,"visib":4.97,"altim":1014,"clouds":[{"cover":"OVC","base":1000}],"obsTime":1774332000},"SBPV":{"icaoId":"SBPV","flightCategory":"VFR","rawOb":"METAR SBPV 240600Z 07003KT 9999 SCT003 25/23 Q1009","temp":25,"dewp":23,"wdir":70,"wspd":3,"visib":"6+","altim":1009,"clouds":[{"cover":"SCT","base":300}],"obsTime":1774332000},"SBBE":{"icaoId":"SBBE","flightCategory":"VFR","rawOb":"METAR SBBE 240600Z 11002KT 9999 FEW020 25/25 Q1010","temp":25,"dewp":25,"wdir":110,"wspd":2,"visib":"6+","altim":1010,"clouds":[{"cover":"FEW","base":2000}],"obsTime":1774332000},"SBRB":{"icaoId":"SBRB","flightCategory":"VFR","rawOb":"METAR SBRB 240600Z 30004KT 9999 FEW030 SCT100 25/24 Q1009","temp":25,"dewp":24,"wdir":300,"wspd":4,"visib":"6+","altim":1009,"clouds":[{"cover":"FEW","base":3000},{"cover":"SCT","base":10000}],"obsTime":1774332000},"SBRF":{"icaoId":"SBRF","flightCategory":"VFR","rawOb":"METAR SBRF 240600Z 09005KT 9999 SCT025 28/23 Q1010","temp":28,"dewp":23,"wdir":90,"wspd":5,"visib":"6+","altim":1010,"clouds":[{"cover":"SCT","base":2500}],"obsTime":1774332000},"SBEG":{"icaoId":"SBEG","flightCategory":"VFR","rawOb":"METAR SBEG 240600Z 14003KT CAVOK 26/25 Q1008","temp":26,"dewp":25,"wdir":140,"wspd":3,"visib":"6+","altim":1008,"clouds":[],"obsTime":1774332000},"SBJU":{"icaoId":"SBJU","flightCategory":"VFR","rawOb":"METAR SBJU 240600Z 00000KT 9999 SCT018 23/22 Q1012","temp":23,"dewp":22,"wdir":0,"wspd":0,"visib":"6+","altim":1012,"clouds":[{"cover":"SCT","base":1800}],"obsTime":1774332000},"SBSG":{"icaoId":"SBSG","flightCategory":"VFR","rawOb":"METAR SBSG 240600Z 22003KT 9999 FEW020 24/23 Q1010","temp":24,"dewp":23,"wdir":220,"wspd":3,"visib":"6+","altim":1010,"clouds":[{"cover":"FEW","base":2000}],"obsTime":1774332000},"SBCF":{"icaoId":"SBCF","flightCategory":"VFR","rawOb":"METAR SBCF 240600Z 20003KT CAVOK 18/16 Q1015","temp":18,"dewp":16,"wdir":200,"wspd":3,"visib":"6+","altim":1015,"clouds":[],"obsTime":1774332000},"SBSL":{"icaoId":"SBSL","flightCategory":"VFR","rawOb":"METAR SBSL 240600Z 06004KT 9999 FEW020 26/25 Q1009","temp":26,"dewp":25,"wdir":60,"wspd":4,"visib":"6+","altim":1009,"clouds":[{"cover":"FEW","base":2000}],"obsTime":1774332000},"SBSN":{"icaoId":"SBSN","flightCategory":"VFR","rawOb":"METAR SBSN 240600Z 18005KT 9999 FEW015 BKN070 26/24 Q1008","temp":26,"dewp":24,"wdir":180,"wspd":5,"visib":"6+","altim":1008,"clouds":[{"cover":"FEW","base":1500},{"cover":"BKN","base":7000}],"obsTime":1774332000},"SBKP":{"icaoId":"SBKP","flightCategory":"VFR","rawOb":"METAR SBKP 240600Z 12008KT CAVOK 19/18 Q1013","temp":19,"dewp":18,"wdir":120,"wspd":8,"visib":"6+","altim":1013,"clouds":[],"obsTime":1774332000},"SBFI":{"icaoId":"SBFI","flightCategory":"VFR","rawOb":"METAR SBFI 240600Z 13004KT 9999 SCT020 BKN070 24/24 Q1009","temp":24,"dewp":24,"wdir":130,"wspd":4,"visib":"6+","altim":1009,"clouds":[{"cover":"SCT","base":2000},{"cover":"BKN","base":7000}],"obsTime":1774332000},"SBSV":{"icaoId":"SBSV","flightCategory":"VFR","rawOb":"METAR SBSV 240600Z 03003KT 9999 FEW023 26/22 Q1011","temp":26,"dewp":22,"wdir":30,"wspd":3,"visib":"6+","altim":1011,"clouds":[{"cover":"FEW","base":2300}],"obsTime":1774332000},"SBLO":{"icaoId":"SBLO","flightCategory":"VFR","rawOb":"METAR SBLO 240600Z 13004KT 9999 BKN040 23/22 Q1013","temp":23,"dewp":22,"wdir":130,"wspd":4,"visib":"6+","altim":1013,"clouds":[{"cover":"BKN","base":4000}],"obsTime":1774332000},"SBTE":{"icaoId":"SBTE","flightCategory":"VFR","rawOb":"METAR SBTE 240600Z 20003KT 9999 SCT015 SCT080 25/24 Q1009","temp":25,"dewp":24,"wdir":200,"wspd":3,"visib":"6+","altim":1009,"clouds":[{"cover":"SCT","base":1500},{"cover":"SCT","base":8000}],"obsTime":1774332000},"SBMA":{"icaoId":"SBMA","flightCategory":"MVFR","rawOb":"METAR SBMA 240600Z 16006KT 9999 BKN020 SCT100 24/23 Q1010","temp":24,"dewp":23,"wdir":160,"wspd":6,"visib":"6+","altim":1010,"clouds":[{"cover":"BKN","base":2000},{"cover":"SCT","base":10000}],"obsTime":1774332000},"SBCG":{"icaoId":"SBCG","flightCategory":"VFR","rawOb":"METAR SBCG 240600Z 15004KT CAVOK 24/22 Q1012","temp":24,"dewp":22,"wdir":150,"wspd":4,"visib":"6+","altim":1012,"clouds":[],"obsTime":1774332000},"SBUL":{"icaoId":"SBUL","flightCategory":"VFR","rawOb":"METAR SBUL 240600Z 16007KT CAVOK 23/17 Q1015","temp":23,"dewp":17,"wdir":160,"wspd":7,"visib":"6+","altim":1015,"clouds":[],"obsTime":1774332000},"SBFL":{"icaoId":"SBFL","flightCategory":"VFR","rawOb":"METAR SBFL 240600Z 32010KT 9999 FEW026 25/22 Q1010","temp":25,"dewp":22,"wdir":320,"wspd":10,"visib":"6+","altim":1010,"clouds":[{"cover":"FEW","base":2600}],"obsTime":1774332000},"SBUR":{"icaoId":"SBUR","flightCategory":"VFR","rawOb":"METAR SBUR 240600Z 24003KT CAVOK 24/18 Q1014","temp":24,"dewp":18,"wdir":240,"wspd":3,"visib":"6+","altim":1014,"clouds":[],"obsTime":1774332000},"SBVT":{"icaoId":"SBVT","flightCategory":"VFR","rawOb":"METAR SBVT 240600Z 36003KT 9999 SCT017 BKN070 22/22 Q1013","temp":22,"dewp":22,"wdir":360,"wspd":3,"visib":"6+","altim":1013,"clouds":[{"cover":"SCT","base":1700},{"cover":"BKN","base":7000}],"obsTime":1774332000},"SBME":{"icaoId":"SBME","flightCategory":"VFR","rawOb":"METAR SBME 240600Z 11002KT 9999 SCT023 21/20 Q1011","temp":21,"dewp":20,"wdir":110,"wspd":2,"visib":"6+","altim":1011,"clouds":[{"cover":"SCT","base":2300}],"obsTime":1774332000},"SBMG":{"icaoId":"SBMG","flightCategory":"VFR","rawOb":"METAR SBMG 240600Z AUTO 01003KT 340V050 CAVOK 25/22 Q1011","temp":25,"dewp":22,"wdir":10,"wspd":3,"visib":"6+","altim":1011,"clouds":[],"obsTime":1774332000},"SBFZ":{"icaoId":"SBFZ","flightCategory":"VFR","rawOb":"METAR SBFZ 240600Z COR 18004KT 120V210 9999 FEW020 26/24 Q1009","temp":26,"dewp":24,"wdir":180,"wspd":4,"visib":"6+","altim":1009,"clouds":[{"cover":"FEW","base":2000}],"obsTime":1774332000},"SBOI":{"icaoId":"SBOI","flightCategory":"LIFR","rawOb":"METAR SBOI 240600Z AUTO 18002KT 9999 // BKN001/// BKN004/// BKN080/// 24/24 Q1010","temp":24,"dewp":24,"wdir":180,"wspd":2,"visib":"6+","altim":1010,"clouds":[{"cover":"BKN","base":100},{"cover":"BKN","base":400},{"cover":"BKN","base":8000}],"obsTime":1774332000},"SBSR":{"icaoId":"SBSR","flightCategory":"VFR","rawOb":"METAR SBSR 240600Z 11002KT CAVOK 24/20 Q1011","temp":24,"dewp":20,"wdir":110,"wspd":2,"visib":"6+","altim":1011,"clouds":[],"obsTime":1774332000},"SBAX":{"icaoId":"SBAX","flightCategory":"VFR","rawOb":"METAR SBAX 240600Z AUTO 13001KT CAVOK 21/16 Q1015","temp":21,"dewp":16,"wdir":130,"wspd":1,"visib":"6+","altim":1015,"clouds":[],"obsTime":1774332000},"SBDN":{"icaoId":"SBDN","flightCategory":"VFR","rawOb":"METAR SBDN 240600Z 05003KT CAVOK 25/21 Q1011","temp":25,"dewp":21,"wdir":50,"wspd":3,"visib":"6+","altim":1011,"clouds":[],"obsTime":1774332000},"SBIP":{"icaoId":"SBIP","flightCategory":"VFR","rawOb":"METAR SBIP 240600Z AUTO 36008KT 9999 -RA FEW036 19/19 Q1013","temp":19,"dewp":19,"wdir":360,"wspd":8,"visib":"6+","altim":1013,"clouds":[{"cover":"FEW","base":3600}],"obsTime":1774332000},"SBKG":{"icaoId":"SBKG","flightCategory":"IFR","rawOb":"METAR SBKG 240600Z 10006KT 9999 FEW005 BKN006 22/22 Q1013","temp":22,"dewp":22,"wdir":100,"wspd":6,"visib":"6+","altim":1013,"clouds":[{"cover":"FEW","base":500},{"cover":"BKN","base":600}],"obsTime":1774332000},"SBPL":{"icaoId":"SBPL","flightCategory":"VFR","rawOb":"METAR SBPL 240600Z 00000KT 9999 FEW020 BKN070 25/24 Q1011","temp":25,"dewp":24,"wdir":0,"wspd":0,"visib":"6+","altim":1011,"clouds":[{"cover":"FEW","base":2000},{"cover":"BKN","base":7000}],"obsTime":1774332000},"SBPS":{"icaoId":"SBPS","flightCategory":"LIFR","rawOb":"METAR SBPS 240600Z 25005KT 0800 FG BKN015 23/23 Q1012","temp":23,"dewp":23,"wdir":250,"wspd":5,"visib":0.5,"altim":1012,"clouds":[{"cover":"BKN","base":1500}],"obsTime":1774332000},"SBSC":{"icaoId":"SBSC","flightCategory":"VFR","rawOb":"METAR SBSC 240600Z 03004KT CAVOK 21/20 Q1011","temp":21,"dewp":20,"wdir":30,"wspd":4,"visib":"6+","altim":1011,"clouds":[],"obsTime":1774332000},"SBAR":{"icaoId":"SBAR","flightCategory":"VFR","rawOb":"METAR SBAR 240600Z 08008KT 9999 FEW021 28/22 Q1010","temp":28,"dewp":22,"wdir":80,"wspd":8,"visib":"6+","altim":1010,"clouds":[{"cover":"FEW","base":2100}],"obsTime":1774332000},"SBAN":{"icaoId":"SBAN","flightCategory":"VFR","rawOb":"METAR SBAN 240600Z 01001KT 9999 FEW040 18/16 Q1017","temp":18,"dewp":16,"wdir":10,"wspd":1,"visib":"6+","altim":1017,"clouds":[{"cover":"FEW","base":4000}],"obsTime":1774332000},"SBLE":{"icaoId":"SBLE","flightCategory":"VFR","rawOb":"METAR SBLE 240600Z AUTO VRB01KT 9999 SCT016 ///// Q////","temp":null,"dewp":null,"wdir":"VRB","wspd":1,"visib":"6+","altim":null,"clouds":[{"cover":"SCT","base":1600}],"obsTime":1774332000},"SBJP":{"icaoId":"SBJP","flightCategory":"VFR","rawOb":"METAR SBJP 240600Z 22003KT 9999 FEW024 24/23 Q1010","temp":24,"dewp":23,"wdir":220,"wspd":3,"visib":"6+","altim":1010,"clouds":[{"cover":"FEW","base":2400}],"obsTime":1774332000}}}