{"updated":1778452415,"count":81,"data":{"SBSP":{"icaoId":"SBSP","flightCategory":"IFR","rawOb":"METAR SBSP 102100Z 23005KT 6000 -RA BKN005 OVC010 13/12 Q1021","temp":13,"dewp":12,"wdir":230,"wspd":5,"visib":3.73,"altim":1021,"clouds":[{"cover":"BKN","base":500},{"cover":"OVC","base":1000}],"obsTime":1778446800},"SBFL":{"icaoId":"SBFL","flightCategory":"VFR","rawOb":"METAR SBFL 102100Z 15005KT 120V210 CAVOK 16/10 Q1018","temp":16,"dewp":10,"wdir":150,"wspd":5,"visib":"6+","altim":1018,"clouds":[],"obsTime":1778446800},"SBMG":{"icaoId":"SBMG","flightCategory":"VFR","rawOb":"METAR SBMG 102100Z 26007KT CAVOK 13/08 Q1020","temp":13,"dewp":8,"wdir":260,"wspd":7,"visib":"6+","altim":1020,"clouds":[],"obsTime":1778446800},"SBCF":{"icaoId":"SBCF","flightCategory":"VFR","rawOb":"METAR SBCF 102100Z 02002KT CAVOK 26/15 Q1018","temp":26,"dewp":15,"wdir":20,"wspd":2,"visib":"6+","altim":1018,"clouds":[],"obsTime":1778446800},"SBMK":{"icaoId":"SBMK","flightCategory":"VFR","rawOb":"METAR SBMK 102100Z 19003KT CAVOK 27/15 Q1017","temp":27,"dewp":15,"wdir":190,"wspd":3,"visib":"6+","altim":1017,"clouds":[],"obsTime":1778446800},"SBFZ":{"icaoId":"SBFZ","flightCategory":"VFR","rawOb":"METAR SBFZ 102100Z 11006KT 9999 FEW018 26/24 Q1011","temp":26,"dewp":24,"wdir":110,"wspd":6,"visib":"6+","altim":1011,"clouds":[{"cover":"FEW","base":1800}],"obsTime":1778446800},"SBBE":{"icaoId":"SBBE","flightCategory":"MVFR","rawOb":"METAR SBBE 102100Z 12003KT 8000 -RA SCT015 BKN020 BKN100 24/24 Q1010","temp":24,"dewp":24,"wdir":120,"wspd":3,"visib":4.97,"altim":1010,"clouds":[{"cover":"SCT","base":1500},{"cover":"BKN","base":2000},{"cover":"BKN","base":10000}],"obsTime":1778446800},"SBMO":{"icaoId":"SBMO","flightCategory":"VFR","rawOb":"METAR SBMO 102100Z 12006KT 9999 FEW025 26/23 Q1014","temp":26,"dewp":23,"wdir":120,"wspd":6,"visib":"6+","altim":1014,"clouds":[{"cover":"FEW","base":2500}],"obsTime":1778446800},"SBGL":{"icaoId":"SBGL","flightCategory":"MVFR","rawOb":"METAR SBGL 102100Z 24012KT 9999 FEW016 OVC027 23/18 Q1016","temp":23,"dewp":18,"wdir":240,"wspd":12,"visib":"6+","altim":1016,"clouds":[{"cover":"FEW","base":1600},{"cover":"OVC","base":2700}],"obsTime":1778446800},"SBMQ":{"icaoId":"SBMQ","flightCategory":"VFR","rawOb":"METAR SBMQ 102100Z 02007KT 9999 FEW015 FEW030TCU 29/25 Q1009","temp":29,"dewp":25,"wdir":20,"wspd":7,"visib":"6+","altim":1009,"clouds":[{"cover":"FEW","base":1500},{"cover":"FEW","base":3000}],"obsTime":1778446800},"SBCT":{"icaoId":"SBCT","flightCategory":"VFR","rawOb":"METAR SBCT 102100Z 28007KT CAVOK 11/06 Q1020","temp":11,"dewp":6,"wdir":280,"wspd":7,"visib":"6+","altim":1020,"clouds":[],"obsTime":1778446800},"SBNT":{"icaoId":"SBNT","flightCategory":"VFR","rawOb":"METAR SBNT 102100Z 16005KT 9999 SCT008 SCT015 BKN066 24/24 Q1013","temp":24,"dewp":24,"wdir":160,"wspd":5,"visib":"6+","altim":1013,"clouds":[{"cover":"SCT","base":800},{"cover":"SCT","base":1500},{"cover":"BKN","base":6600}],"obsTime":1778446800},"SBGO":{"icaoId":"SBGO","flightCategory":"VFR","rawOb":"METAR SBGO 102100Z 24012KT 9999 FEW048 26/19 Q1018","temp":26,"dewp":19,"wdir":240,"wspd":12,"visib":"6+","altim":1018,"clouds":[{"cover":"FEW","base":4800}],"obsTime":1778446800},"SBPA":{"icaoId":"SBPA","flightCategory":"VFR","rawOb":"METAR SBPA 102100Z 27010KT CAVOK 12/05 Q1020","temp":12,"dewp":5,"wdir":270,"wspd":10,"visib":"6+","altim":1020,"clouds":[],"obsTime":1778446800},"SBPJ":{"icaoId":"SBPJ","flightCategory":"VFR","rawOb":"METAR SBPJ 102100Z 23003KT 190V280 CAVOK 32/24 Q1011","temp":32,"dewp":24,"wdir":230,"wspd":3,"visib":"6+","altim":1011,"clouds":[],"obsTime":1778446800},"SBCG":{"icaoId":"SBCG","flightCategory":"VFR","rawOb":"METAR SBCG 102100Z 16006KT CAVOK 15/08 Q1022","temp":15,"dewp":8,"wdir":160,"wspd":6,"visib":"6+","altim":1022,"clouds":[],"obsTime":1778446800},"SBPV":{"icaoId":"SBPV","flightCategory":"VFR","rawOb":"METAR SBPV 102100Z 16007KT 9999 SCT009 SCT015 BKN100 24/22 Q1013","temp":24,"dewp":22,"wdir":160,"wspd":7,"visib":"6+","altim":1013,"clouds":[{"cover":"SCT","base":900},{"cover":"SCT","base":1500},{"cover":"BKN","base":10000}],"obsTime":1778446800},"SBRB":{"icaoId":"SBRB","flightCategory":"IFR","rawOb":"METAR SBRB 102100Z 17009KT 120V220 5000 BR BKN006 BKN012 16/15 Q1017","temp":16,"dewp":15,"wdir":170,"wspd":9,"visib":3.11,"altim":1017,"clouds":[{"cover":"BKN","base":600},{"cover":"BKN","base":1200}],"obsTime":1778446800},"SBGR":{"icaoId":"SBGR","flightCategory":"IFR","rawOb":"METAR SBGR 102100Z 20004KT 9999 -RA OVC007 14/13 Q1020","temp":14,"dewp":13,"wdir":200,"wspd":4,"visib":"6+","altim":1020,"clouds":[{"cover":"OVC","base":700}],"obsTime":1778446800},"SBCP":{"icaoId":"SBCP","flightCategory":"VFR","rawOb":"METAR SBCP 102100Z 21012KT 9999 FEW020 25/22 Q1015","temp":25,"dewp":22,"wdir":210,"wspd":12,"visib":"6+","altim":1015,"clouds":[{"cover":"FEW","base":2000}],"obsTime":1778446800},"SBLO":{"icaoId":"SBLO","flightCategory":"VFR","rawOb":"METAR SBLO 102100Z 18002KT CAVOK 14/08 Q1021","temp":14,"dewp":8,"wdir":180,"wspd":2,"visib":"6+","altim":1021,"clouds":[],"obsTime":1778446800},"SBVT":{"icaoId":"SBVT","flightCategory":"VFR","rawOb":"METAR SBVT 102100Z 04010KT CAVOK 26/21 Q1014","temp":26,"dewp":21,"wdir":40,"wspd":10,"visib":"6+","altim":1014,"clouds":[],"obsTime":1778446800},"SBMA":{"icaoId":"SBMA","flightCategory":"VFR","rawOb":"METAR SBMA 102100Z 28004KT 9999 SCT020 FEW023TCU BKN100 29/25 Q1010","temp":29,"dewp":25,"wdir":280,"wspd":4,"visib":"6+","altim":1010,"clouds":[{"cover":"SCT","base":2000},{"cover":"FEW","base":2300},{"cover":"BKN","base":10000}],"obsTime":1778446800},"SBME":{"icaoId":"SBME","flightCategory":"MVFR","rawOb":"METAR SBME 102100Z 22010KT 8000 SCT023 24/20 Q1014","temp":24,"dewp":20,"wdir":220,"wspd":10,"visib":4.97,"altim":1014,"clouds":[{"cover":"SCT","base":2300}],"obsTime":1778446800},"SBCZ":{"icaoId":"SBCZ","flightCategory":"IFR","rawOb":"METAR SBCZ 102100Z 12012KT 8000 -RA BKN006 FEW030TCU OVC090 22/21 Q1013 RETSRA","temp":22,"dewp":21,"wdir":120,"wspd":12,"visib":4.97,"altim":1013,"clouds":[{"cover":"BKN","base":600},{"cover":"FEW","base":3000},{"cover":"OVC","base":9000}],"obsTime":1778446800},"SBRF":{"icaoId":"SBRF","flightCategory":"VFR","rawOb":"METAR SBRF 102100Z 18004KT 9999 FEW020 26/23 Q1013","temp":26,"dewp":23,"wdir":180,"wspd":4,"visib":"6+","altim":1013,"clouds":[{"cover":"FEW","base":2000}],"obsTime":1778446800},"SBSG":{"icaoId":"SBSG","flightCategory":"VFR","rawOb":"METAR SBSG 102100Z 16006KT 9999 VCSH SCT007 SCT017 FEW025TCU 24/24 Q1013","temp":24,"dewp":24,"wdir":160,"wspd":6,"visib":"6+","altim":1013,"clouds":[{"cover":"SCT","base":700},{"cover":"SCT","base":1700},{"cover":"FEW","base":2500}],"obsTime":1778446800},"SBIL":{"icaoId":"SBIL","flightCategory":"VFR","rawOb":"METAR SBIL 102100Z 14004KT CAVOK 27/23 Q1015","temp":27,"dewp":23,"wdir":140,"wspd":4,"visib":"6+","altim":1015,"clouds":[],"obsTime":1778446800},"SBSL":{"icaoId":"SBSL","flightCategory":"VFR","rawOb":"METAR SBSL 102100Z 07006KT 9999 SCT025 FEW030TCU BKN100 27/24 Q1011","temp":27,"dewp":24,"wdir":70,"wspd":6,"visib":"6+","altim":1011,"clouds":[{"cover":"SCT","base":2500},{"cover":"FEW","base":3000},{"cover":"BKN","base":10000}],"obsTime":1778446800},"SBBV":{"icaoId":"SBBV","flightCategory":"VFR","rawOb":"METAR SBBV 102100Z 08005KT 9999 BKN040 FEW045TCU 32/23 Q1008","temp":32,"dewp":23,"wdir":80,"wspd":5,"visib":"6+","altim":1008,"clouds":[{"cover":"BKN","base":4000},{"cover":"FEW","base":4500}],"obsTime":1778446800},"SBJU":{"icaoId":"SBJU","flightCategory":"MVFR","rawOb":"METAR SBJU 102100Z 21002KT 9999 BKN017 24/22 Q1015","temp":24,"dewp":22,"wdir":210,"wspd":2,"visib":"6+","altim":1015,"clouds":[{"cover":"BKN","base":1700}],"obsTime":1778446800},"SBSN":{"icaoId":"SBSN","flightCategory":"VFR","rawOb":"METAR SBSN 102100Z 07006KT 9999 FEW025 FEW030TCU 30/25 Q1008","temp":30,"dewp":25,"wdir":70,"wspd":6,"visib":"6+","altim":1008,"clouds":[{"cover":"FEW","base":2500},{"cover":"FEW","base":3000}],"obsTime":1778446800},"SBEG":{"icaoId":"SBEG","flightCategory":"VFR","rawOb":"METAR SBEG 102100Z 13009KT 9999 VCSH FEW030 FEW035TCU 32/24 Q1008","temp":32,"dewp":24,"wdir":130,"wspd":9,"visib":"6+","altim":1008,"clouds":[{"cover":"FEW","base":3000},{"cover":"FEW","base":3500}],"obsTime":1778446800},"SBSV":{"icaoId":"SBSV","flightCategory":"VFR","rawOb":"METAR SBSV 102100Z 14012KT 9999 FEW023 BKN060 26/22 Q1015","temp":26,"dewp":22,"wdir":140,"wspd":12,"visib":"6+","altim":1015,"clouds":[{"cover":"FEW","base":2300},{"cover":"BKN","base":6000}],"obsTime":1778446800},"SBBR":{"icaoId":"SBBR","flightCategory":"VFR","rawOb":"METAR SBBR 102100Z 17006KT CAVOK 27/12 Q1019","temp":27,"dewp":12,"wdir":170,"wspd":6,"visib":"6+","altim":1019,"clouds":[],"obsTime":1778446800},"SBKP":{"icaoId":"SBKP","flightCategory":"IFR","rawOb":"METAR SBKP 102100Z 23012KT 4500 -RA BR BKN007 BKN020 OVC100 12/12 Q1021","temp":12,"dewp":12,"wdir":230,"wspd":12,"visib":2.8,"altim":1021,"clouds":[{"cover":"BKN","base":700},{"cover":"BKN","base":2000},{"cover":"OVC","base":10000}],"obsTime":1778446800},"SBTE":{"icaoId":"SBTE","flightCategory":"VFR","rawOb":"METAR SBTE 102100Z 19008KT 9999 SCT015 FEW015TCU BKN100 27/24 Q1011","temp":27,"dewp":24,"wdir":190,"wspd":8,"visib":"6+","altim":1011,"clouds":[{"cover":"SCT","base":1500},{"cover":"FEW","base":1500},{"cover":"BKN","base":10000}],"obsTime":1778446800},"SBUL":{"icaoId":"SBUL","flightCategory":"VFR","rawOb":"METAR SBUL 102100Z 26018KT 220V280 9999 SCT020 FEW030TCU SCT070 20/16 Q1020","temp":20,"dewp":16,"wdir":260,"wspd":18,"visib":"6+","altim":1020,"clouds":[{"cover":"SCT","base":2000},{"cover":"FEW","base":3000},{"cover":"SCT","base":7000}],"obsTime":1778446800},"SBFI":{"icaoId":"SBFI","flightCategory":"VFR","rawOb":"METAR SBFI 102100Z 18002KT 9999 BKN040 12/08 Q1023","temp":12,"dewp":8,"wdir":180,"wspd":2,"visib":"6+","altim":1023,"clouds":[{"cover":"BKN","base":4000}],"obsTime":1778446800},"SBUR":{"icaoId":"SBUR","flightCategory":"MVFR","rawOb":"METAR SBUR 102100Z 21008KT 9999 BKN011 19/16 Q1020","temp":19,"dewp":16,"wdir":210,"wspd":8,"visib":"6+","altim":1020,"clouds":[{"cover":"BKN","base":1100}],"obsTime":1778446800},"SBCB":{"icaoId":"SBCB","flightCategory":"MVFR","rawOb":"METAR SBCB 102100Z 24010KT 9999 SCT010 BKN025 23/21 Q1015","temp":23,"dewp":21,"wdir":240,"wspd":10,"visib":"6+","altim":1015,"clouds":[{"cover":"SCT","base":1000},{"cover":"BKN","base":2500}],"obsTime":1778446800},"SBCR":{"icaoId":"SBCR","flightCategory":"VFR","rawOb":"METAR SBCR 102100Z 20004KT 170V240 CAVOK 19/09 Q1021","temp":19,"dewp":9,"wdir":200,"wspd":4,"visib":"6+","altim":1021,"clouds":[],"obsTime":1778446800},"SBHT":{"icaoId":"SBHT","flightCategory":"VFR","rawOb":"METAR SBHT 102100Z 00000KT 9999 FEW030 31/24 Q1009","temp":31,"dewp":24,"wdir":0,"wspd":0,"visib":"6+","altim":1009,"clouds":[{"cover":"FEW","base":3000}],"obsTime":1778446800},"SBAT":{"icaoId":"SBAT","flightCategory":"VFR","rawOb":"METAR SBAT 102100Z 21007KT 9999 FEW040 SCT080 27/23 Q1013","temp":27,"dewp":23,"wdir":210,"wspd":7,"visib":"6+","altim":1013,"clouds":[{"cover":"FEW","base":4000},{"cover":"SCT","base":8000}],"obsTime":1778446800},"SBTT":{"icaoId":"SBTT","flightCategory":"VFR","rawOb":"METAR SBTT 102100Z 17007KT 9999 BKN032 31/22 Q1008","temp":31,"dewp":22,"wdir":170,"wspd":7,"visib":"6+","altim":1008,"clouds":[{"cover":"BKN","base":3200}],"obsTime":1778446800},"SBBH":{"icaoId":"SBBH","flightCategory":"VFR","rawOb":"METAR SBBH 102100Z 00000KT CAVOK 23/16 Q1017","temp":23,"dewp":16,"wdir":0,"wspd":0,"visib":"6+","altim":1017,"clouds":[],"obsTime":1778446800},"SBDN":{"icaoId":"SBDN","flightCategory":"VFR","rawOb":"METAR SBDN 102100Z 27004KT CAVOK 13/08 Q1022","temp":13,"dewp":8,"wdir":270,"wspd":4,"visib":"6+","altim":1022,"clouds":[],"obsTime":1778446800},"SBBU":{"icaoId":"SBBU","flightCategory":"MVFR","rawOb":"METAR SBBU 102100Z 23005KT 9999 -RA SCT004 BKN025 15/14 Q1021","temp":15,"dewp":14,"wdir":230,"wspd":5,"visib":"6+","altim":1021,"clouds":[{"cover":"SCT","base":400},{"cover":"BKN","base":2500}],"obsTime":1778446800},"SBCA":{"icaoId":"SBCA","flightCategory":"VFR","rawOb":"METAR SBCA 102100Z 23006KT 9999 SCT030 08/04 Q1023","temp":8,"dewp":4,"wdir":230,"wspd":6,"visib":"6+","altim":1023,"clouds":[{"cover":"SCT","base":3000}],"obsTime":1778446800},"SBCO":{"icaoId":"SBCO","flightCategory":"VFR","rawOb":"METAR SBCO 102100Z 29009KT CAVOK 12/05 Q1020","temp":12,"dewp":5,"wdir":290,"wspd":9,"visib":"6+","altim":1020,"clouds":[],"obsTime":1778446800},"SBAR":{"icaoId":"SBAR","flightCategory":"VFR","rawOb":"METAR SBAR 102100Z 17006KT 140V200 9999 SCT023 27/23 Q1014","temp":27,"dewp":23,"wdir":170,"wspd":6,"visib":"6+","altim":1014,"clouds":[{"cover":"SCT","base":2300}],"obsTime":1778446800},"SBIP":{"icaoId":"SBIP","flightCategory":"VFR","rawOb":"METAR SBIP 102100Z AUTO 21002KT CAVOK 22/20 Q1015","temp":22,"dewp":20,"wdir":210,"wspd":2,"visib":"6+","altim":1015,"clouds":[],"obsTime":1778446800},"SBKG":{"icaoId":"SBKG","flightCategory":"VFR","rawOb":"METAR SBKG 102100Z 08004KT 9999 FEW017 SCT080 23/22 Q1015","temp":23,"dewp":22,"wdir":80,"wspd":4,"visib":"6+","altim":1015,"clouds":[{"cover":"FEW","base":1700},{"cover":"SCT","base":8000}],"obsTime":1778446800},"SBOI":{"icaoId":"SBOI","flightCategory":"VFR","rawOb":"METAR SBOI 102100Z AUTO 08003KT 030V140 9999 FEW028 BKN047 27/24 Q1011","temp":27,"dewp":24,"wdir":80,"wspd":3,"visib":"6+","altim":1011,"clouds":[{"cover":"FEW","base":2800},{"cover":"BKN","base":4700}],"obsTime":1778446800},"SBPL":{"icaoId":"SBPL","flightCategory":"VFR","rawOb":"METAR SBPL 102100Z 11006KT 9999 SCT030 29/17 Q1014","temp":29,"dewp":17,"wdir":110,"wspd":6,"visib":"6+","altim":1014,"clouds":[{"cover":"SCT","base":3000}],"obsTime":1778446800},"SBPS":{"icaoId":"SBPS","flightCategory":"VFR","rawOb":"METAR SBPS 102100Z 09005KT 9999 FEW020 25/21 Q1015","temp":25,"dewp":21,"wdir":90,"wspd":5,"visib":"6+","altim":1015,"clouds":[{"cover":"FEW","base":2000}],"obsTime":1778446800},"SBSC":{"icaoId":"SBSC","flightCategory":"MVFR","rawOb":"METAR SBSC 102100Z 17010KT 5000 BR BKN010 OVC020 20/19 Q1017","temp":20,"dewp":19,"wdir":170,"wspd":10,"visib":3.11,"altim":1017,"clouds":[{"cover":"BKN","base":1000},{"cover":"OVC","base":2000}],"obsTime":1778446800},"SBSJ":{"icaoId":"SBSJ","flightCategory":"IFR","rawOb":"METAR SBSJ 102100Z 20006KT 3000 -RA BR BKN005 OVC017 14/13 Q1020 RERA","temp":14,"dewp":13,"wdir":200,"wspd":6,"visib":1.86,"altim":1020,"clouds":[{"cover":"BKN","base":500},{"cover":"OVC","base":1700}],"obsTime":1778446800},"SBSM":{"icaoId":"SBSM","flightCategory":"VFR","rawOb":"METAR SBSM 102100Z 27007KT CAVOK 12/05 Q1022","temp":12,"dewp":5,"wdir":270,"wspd":7,"visib":"6+","altim":1022,"clouds":[],"obsTime":1778446800},"SBSR":{"icaoId":"SBSR","flightCategory":"IFR","rawOb":"METAR SBSR 102100Z 24008KT 9999 BKN008 14/13 Q1021","temp":14,"dewp":13,"wdir":240,"wspd":8,"visib":"6+","altim":1021,"clouds":[{"cover":"BKN","base":800}],"obsTime":1778446800},"SBTF":{"icaoId":"SBTF","flightCategory":"VFR","rawOb":"METAR SBTF 102100Z 11004KT 9999 FEW020 32/26 Q1007","temp":32,"dewp":26,"wdir":110,"wspd":4,"visib":"6+","altim":1007,"clouds":[{"cover":"FEW","base":2000}],"obsTime":1778446800},"SBTU":{"icaoId":"SBTU","flightCategory":"VFR","rawOb":"METAR SBTU 102100Z AUTO 00000KT 9999 // ///////// ///// Q1011","temp":null,"dewp":null,"wdir":0,"wspd":0,"visib":"6+","altim":1011,"clouds":[],"obsTime":1778446800},"SBUY":{"icaoId":"SBUY","flightCategory":"VFR","rawOb":"METAR SBUY 102100Z 17003KT 9999 -RA FEW025 FEW035TCU 31/24 Q1007","temp":31,"dewp":24,"wdir":170,"wspd":3,"visib":"6+","altim":1007,"clouds":[{"cover":"FEW","base":2500},{"cover":"FEW","base":3500}],"obsTime":1778446800},"SBVH":{"icaoId":"SBVH","flightCategory":"MVFR","rawOb":"METAR SBVH 102100Z 16011KT 9999 BKN020 BKN090 20/16 Q1017","temp":20,"dewp":16,"wdir":160,"wspd":11,"visib":"6+","altim":1017,"clouds":[{"cover":"BKN","base":2000},{"cover":"BKN","base":9000}],"obsTime":1778446800},"SBPB":{"icaoId":"SBPB","flightCategory":"VFR","rawOb":"METAR SBPB 102100Z 06008KT 9999 SCT016 BKN100 28/25 Q1011","temp":28,"dewp":25,"wdir":60,"wspd":8,"visib":"6+","altim":1011,"clouds":[{"cover":"SCT","base":1600},{"cover":"BKN","base":10000}],"obsTime":1778446800},"SBCJ":{"icaoId":"SBCJ","flightCategory":"VFR","rawOb":"METAR SBCJ 102100Z 09008KT 9999 FEW023 FEW030TCU 26/21 Q1014","temp":26,"dewp":21,"wdir":90,"wspd":8,"visib":"6+","altim":1014,"clouds":[{"cover":"FEW","base":2300},{"cover":"FEW","base":3000}],"obsTime":1778446800},"SBPP":{"icaoId":"SBPP","flightCategory":"VFR","rawOb":"METAR SBPP 102100Z 21007KT CAVOK 12/04 Q1023","temp":12,"dewp":4,"wdir":210,"wspd":7,"visib":"6+","altim":1023,"clouds":[],"obsTime":1778446800},"SBES":{"icaoId":"SBES","flightCategory":"VFR","rawOb":"METAR SBES 102100Z VRB07KT 9999 SCT011 BKN040 23/// Q1015","temp":null,"dewp":null,"wdir":"VRB","wspd":7,"visib":"6+","altim":1015,"clouds":[{"cover":"SCT","base":1100},{"cover":"BKN","base":4000}],"obsTime":1778446800},"SBNM":{"icaoId":"SBNM","flightCategory":"VFR","rawOb":"METAR SBNM 102100Z AUTO 28004KT 9999 OVC044 10/06 Q1024","temp":10,"dewp":6,"wdir":280,"wspd":4,"visib":"6+","altim":1024,"clouds":[{"cover":"OVC","base":4400}],"obsTime":1778446800},"SBLE":{"icaoId":"SBLE","flightCategory":"VFR","rawOb":"METAR SBLE 102100Z AUTO 00000KT 9999 SCT044 23/23 Q1017","temp":23,"dewp":23,"wdir":0,"wspd":0,"visib":"6+","altim":1017,"clouds":[{"cover":"SCT","base":4400}],"obsTime":1778446800},"SBIH":{"icaoId":"SBIH","flightCategory":"VFR","rawOb":"METAR SBIH 102100Z 01007KT 9999 FEW020 FEW023TCU SCT080 27/25 Q1008","temp":27,"dewp":25,"wdir":10,"wspd":7,"visib":"6+","altim":1008,"clouds":[{"cover":"FEW","base":2000},{"cover":"FEW","base":2300},{"cover":"SCT","base":8000}],"obsTime":1778446800},"SBAF":{"icaoId":"SBAF","flightCategory":"MVFR","rawOb":"METAR SBAF 102100Z 21006KT 9999 SCT015 OVC025 21/21 Q1017","temp":21,"dewp":21,"wdir":210,"wspd":6,"visib":"6+","altim":1017,"clouds":[{"cover":"SCT","base":1500},{"cover":"OVC","base":2500}],"obsTime":1778446800},"SBGW":{"icaoId":"SBGW","flightCategory":"VFR","rawOb":"METAR SBGW 102100Z 25007KT 220V290 9999 SCT022 BKN100 20/13 Q1017","temp":20,"dewp":13,"wdir":250,"wspd":7,"visib":"6+","altim":1017,"clouds":[{"cover":"SCT","base":2200},{"cover":"BKN","base":10000}],"obsTime":1778446800},"SBJR":{"icaoId":"SBJR","flightCategory":"LIFR","rawOb":"METAR SBJR 102100Z 23007KT 1500 -RA BR BKN004 OVC020 21/20 Q1017","temp":21,"dewp":20,"wdir":230,"wspd":7,"visib":0.93,"altim":1017,"clouds":[{"cover":"BKN","base":400},{"cover":"OVC","base":2000}],"obsTime":1778446800},"SBLS":{"icaoId":"SBLS","flightCategory":"VFR","rawOb":"METAR SBLS 102100Z VRB02KT CAVOK 25/15 Q1018","temp":25,"dewp":15,"wdir":"VRB","wspd":2,"visib":"6+","altim":1018,"clouds":[],"obsTime":1778446800},"SBAN":{"icaoId":"SBAN","flightCategory":"VFR","rawOb":"METAR SBAN 102100Z 33007KT 9999 FEW040 24/17 Q1020","temp":24,"dewp":17,"wdir":330,"wspd":7,"visib":"6+","altim":1020,"clouds":[{"cover":"FEW","base":4000}],"obsTime":1778446800},"SBMT":{"icaoId":"SBMT","flightCategory":"IFR","rawOb":"METAR SBMT 102100Z 25006KT 4000 -RA SCT006 OVC010 13/12 Q1021","temp":13,"dewp":12,"wdir":250,"wspd":6,"visib":2.49,"altim":1021,"clouds":[{"cover":"SCT","base":600},{"cover":"OVC","base":1000}],"obsTime":1778446800},"SBJV":{"icaoId":"SBJV","flightCategory":"VFR","rawOb":"METAR SBJV 102100Z 19002KT CAVOK 13/12 Q1019","temp":13,"dewp":12,"wdir":190,"wspd":2,"visib":"6+","altim":1019,"clouds":[],"obsTime":1778446800},"SBJP":{"icaoId":"SBJP","flightCategory":"VFR","rawOb":"METAR SBJP 102100Z 08004KT 9999 SCT015 OVC070 25/24 Q1013","temp":25,"dewp":24,"wdir":80,"wspd":4,"visib":"6+","altim":1013,"clouds":[{"cover":"SCT","base":1500},{"cover":"OVC","base":7000}],"obsTime":1778446800},"SBST":{"icaoId":"SBST","flightCategory":"IFR","rawOb":"METAR SBST 102100Z 29005KT 3000 -RA SCT007 BKN009 OVC021 15/14 Q1019","temp":15,"dewp":14,"wdir":290,"wspd":5,"visib":1.86,"altim":1019,"clouds":[{"cover":"SCT","base":700},{"cover":"BKN","base":900},{"cover":"OVC","base":2100}],"obsTime":1778446800},"SBTA":{"icaoId":"SBTA","flightCategory":"MVFR","rawOb":"METAR SBTA 102100Z 27010G20KT 8000 -RA BKN012 17/15 Q1018","temp":17,"dewp":15,"wdir":270,"wspd":10,"visib":4.97,"altim":1018,"clouds":[{"cover":"BKN","base":1200}],"obsTime":1778446800}}}