{"updated":1777083221,"count":60,"data":{"SBSP":{"icaoId":"SBSP","flightCategory":"VFR","rawOb":"METAR SBSP 250100Z 06003KT CAVOK 21/18 Q1019","temp":21,"dewp":18,"wdir":60,"wspd":3,"visib":"6+","altim":1019,"clouds":[],"obsTime":1777078800},"SBMK":{"icaoId":"SBMK","flightCategory":"VFR","rawOb":"METAR SBMK 250100Z 19002KT CAVOK 23/17 Q1018","temp":23,"dewp":17,"wdir":190,"wspd":2,"visib":"6+","altim":1018,"clouds":[],"obsTime":1777078800},"SBGL":{"icaoId":"SBGL","flightCategory":"VFR","rawOb":"METAR SBGL 250100Z 10004KT CAVOK 23/20 Q1015","temp":23,"dewp":20,"wdir":100,"wspd":4,"visib":"6+","altim":1015,"clouds":[],"obsTime":1777078800},"SBCT":{"icaoId":"SBCT","flightCategory":"MVFR","rawOb":"METAR SBCT 250100Z 08003KT 8000 NSC 17/16 Q1018","temp":17,"dewp":16,"wdir":80,"wspd":3,"visib":4.97,"altim":1018,"clouds":[],"obsTime":1777078800},"SBMO":{"icaoId":"SBMO","flightCategory":"VFR","rawOb":"METAR SBMO 250100Z 32003KT 9999 FEW020 23/23 Q1014","temp":23,"dewp":23,"wdir":320,"wspd":3,"visib":"6+","altim":1014,"clouds":[{"cover":"FEW","base":2000}],"obsTime":1777078800},"SBBV":{"icaoId":"SBBV","flightCategory":"VFR","rawOb":"METAR SBBV 250100Z 13007KT 9999 FEW030 FEW040TCU 29/23 Q1011","temp":29,"dewp":23,"wdir":130,"wspd":7,"visib":"6+","altim":1011,"clouds":[{"cover":"FEW","base":3000},{"cover":"FEW","base":4000}],"obsTime":1777078800},"SBMQ":{"icaoId":"SBMQ","flightCategory":"MVFR","rawOb":"METAR SBMQ 250100Z 05002KT 9999 SCT012 BKN017 26/25 Q1012","temp":26,"dewp":25,"wdir":50,"wspd":2,"visib":"6+","altim":1012,"clouds":[{"cover":"SCT","base":1200},{"cover":"BKN","base":1700}],"obsTime":1777078800},"SBGO":{"icaoId":"SBGO","flightCategory":"VFR","rawOb":"METAR SBGO 250100Z 13006KT CAVOK 22/16 Q1018","temp":22,"dewp":16,"wdir":130,"wspd":6,"visib":"6+","altim":1018,"clouds":[],"obsTime":1777078800},"SBNT":{"icaoId":"SBNT","flightCategory":"VFR","rawOb":"METAR SBNT 250100Z 22003KT 9999 FEW023 SCT050 23/22 Q1012","temp":23,"dewp":22,"wdir":220,"wspd":3,"visib":"6+","altim":1012,"clouds":[{"cover":"FEW","base":2300},{"cover":"SCT","base":5000}],"obsTime":1777078800},"SBGR":{"icaoId":"SBGR","flightCategory":"VFR","rawOb":"METAR SBGR 250100Z 10001KT CAVOK 20/18 Q1019","temp":20,"dewp":18,"wdir":100,"wspd":1,"visib":"6+","altim":1019,"clouds":[],"obsTime":1777078800},"SBPA":{"icaoId":"SBPA","flightCategory":"IFR","rawOb":"METAR SBPA 250100Z 07010KT 7000 -RA BKN008 BKN045 20/20 Q1012","temp":20,"dewp":20,"wdir":70,"wspd":10,"visib":4.35,"altim":1012,"clouds":[{"cover":"BKN","base":800},{"cover":"BKN","base":4500}],"obsTime":1777078800},"SBCF":{"icaoId":"SBCF","flightCategory":"VFR","rawOb":"METAR SBCF 250100Z 16004KT CAVOK 20/16 Q1020","temp":20,"dewp":16,"wdir":160,"wspd":4,"visib":"6+","altim":1020,"clouds":[],"obsTime":1777078800},"SBPJ":{"icaoId":"SBPJ","flightCategory":"VFR","rawOb":"METAR SBPJ 250100Z 11003KT 080V140 9999 FEW030 SCT090 25/24 Q1014","temp":25,"dewp":24,"wdir":110,"wspd":3,"visib":"6+","altim":1014,"clouds":[{"cover":"FEW","base":3000},{"cover":"SCT","base":9000}],"obsTime":1777078800},"SBPV":{"icaoId":"SBPV","flightCategory":"VFR","rawOb":"METAR SBPV 250100Z 25001KT CAVOK 26/23 Q1012","temp":26,"dewp":23,"wdir":250,"wspd":1,"visib":"6+","altim":1012,"clouds":[],"obsTime":1777078800},"SBEG":{"icaoId":"SBEG","flightCategory":"VFR","rawOb":"METAR SBEG 250100Z 19002KT 9999 FEW010 25/24 Q1012","temp":25,"dewp":24,"wdir":190,"wspd":2,"visib":"6+","altim":1012,"clouds":[{"cover":"FEW","base":1000}],"obsTime":1777078800},"SBJU":{"icaoId":"SBJU","flightCategory":"VFR","rawOb":"METAR SBJU 250100Z 00000KT CAVOK 23/23 Q1015","temp":23,"dewp":23,"wdir":0,"wspd":0,"visib":"6+","altim":1015,"clouds":[],"obsTime":1777078800},"SBRB":{"icaoId":"SBRB","flightCategory":"MVFR","rawOb":"METAR SBRB 250100Z 01006KT 5000 -RA FEW009 SCT027 FEW035TCU BKN070 22/22 Q1013 RETS","temp":22,"dewp":22,"wdir":10,"wspd":6,"visib":3.11,"altim":1013,"clouds":[{"cover":"FEW","base":900},{"cover":"SCT","base":2700},{"cover":"FEW","base":3500},{"cover":"BKN","base":7000}],"obsTime":1777078800},"SBBR":{"icaoId":"SBBR","flightCategory":"VFR","rawOb":"METAR SBBR 250100Z 12004KT CAVOK 23/16 Q1020","temp":23,"dewp":16,"wdir":120,"wspd":4,"visib":"6+","altim":1020,"clouds":[],"obsTime":1777078800},"SBRF":{"icaoId":"SBRF","flightCategory":"VFR","rawOb":"METAR SBRF 250100Z 17005KT 9999 SCT022 27/23 Q1013","temp":27,"dewp":23,"wdir":170,"wspd":5,"visib":"6+","altim":1013,"clouds":[{"cover":"SCT","base":2200}],"obsTime":1777078800},"SBKP":{"icaoId":"SBKP","flightCategory":"VFR","rawOb":"METAR SBKP 250100Z 11006KT CAVOK 22/16 Q1017","temp":22,"dewp":16,"wdir":110,"wspd":6,"visib":"6+","altim":1017,"clouds":[],"obsTime":1777078800},"SBSG":{"icaoId":"SBSG","flightCategory":"VFR","rawOb":"METAR SBSG 250100Z 24004KT 9999 FEW020 BKN100 22/22 Q1013","temp":22,"dewp":22,"wdir":240,"wspd":4,"visib":"6+","altim":1013,"clouds":[{"cover":"FEW","base":2000},{"cover":"BKN","base":10000}],"obsTime":1777078800},"SBSL":{"icaoId":"SBSL","flightCategory":"VFR","rawOb":"METAR SBSL 250100Z 17002KT 9999 FEW015 BKN080 26/25 Q1013","temp":26,"dewp":25,"wdir":170,"wspd":2,"visib":"6+","altim":1013,"clouds":[{"cover":"FEW","base":1500},{"cover":"BKN","base":8000}],"obsTime":1777078800},"SBFI":{"icaoId":"SBFI","flightCategory":"VFR","rawOb":"METAR SBFI 250100Z 00000KT CAVOK 20/20 Q1013","temp":20,"dewp":20,"wdir":0,"wspd":0,"visib":"6+","altim":1013,"clouds":[],"obsTime":1777078800},"SBLO":{"icaoId":"SBLO","flightCategory":"VFR","rawOb":"METAR SBLO 250100Z 19003KT CAVOK 24/19 Q1016","temp":24,"dewp":19,"wdir":190,"wspd":3,"visib":"6+","altim":1016,"clouds":[],"obsTime":1777078800},"SBSN":{"icaoId":"SBSN","flightCategory":"VFR","rawOb":"METAR SBSN 250100Z 14004KT 9999 FEW015 SCT100 26/24 Q1012","temp":26,"dewp":24,"wdir":140,"wspd":4,"visib":"6+","altim":1012,"clouds":[{"cover":"FEW","base":1500},{"cover":"SCT","base":10000}],"obsTime":1777078800},"SBBE":{"icaoId":"SBBE","flightCategory":"VFR","rawOb":"METAR SBBE 250100Z 14002KT 9999 SCT024 SCT090 25/24 Q1011","temp":25,"dewp":24,"wdir":140,"wspd":2,"visib":"6+","altim":1011,"clouds":[{"cover":"SCT","base":2400},{"cover":"SCT","base":9000}],"obsTime":1777078800},"SBFL":{"icaoId":"SBFL","flightCategory":"VFR","rawOb":"METAR SBFL 250100Z 34006KT 9999 SCT015 24/22 Q1014","temp":24,"dewp":22,"wdir":340,"wspd":6,"visib":"6+","altim":1014,"clouds":[{"cover":"SCT","base":1500}],"obsTime":1777078800},"SBSV":{"icaoId":"SBSV","flightCategory":"VFR","rawOb":"METAR SBSV 250100Z 13008KT 100V180 9999 VCSH FEW023 SCT100 27/23 Q1014","temp":27,"dewp":23,"wdir":130,"wspd":8,"visib":"6+","altim":1014,"clouds":[{"cover":"FEW","base":2300},{"cover":"SCT","base":10000}],"obsTime":1777078800},"SBTE":{"icaoId":"SBTE","flightCategory":"MVFR","rawOb":"METAR SBTE 250100Z 08012KT 9000 -TSRA BKN015 FEW030CB BKN090 26/24 Q1013","temp":26,"dewp":24,"wdir":80,"wspd":12,"visib":5.59,"altim":1013,"clouds":[{"cover":"BKN","base":1500},{"cover":"FEW","base":3000},{"cover":"BKN","base":9000}],"obsTime":1777078800},"SBMA":{"icaoId":"SBMA","flightCategory":"VFR","rawOb":"METAR SBMA 250100Z 35004KT 9999 FEW010 SCT100 26/25 Q1014","temp":26,"dewp":25,"wdir":350,"wspd":4,"visib":"6+","altim":1014,"clouds":[{"cover":"FEW","base":1000},{"cover":"SCT","base":10000}],"obsTime":1777078800},"SBUL":{"icaoId":"SBUL","flightCategory":"VFR","rawOb":"METAR SBUL 250100Z 12005KT CAVOK 22/15 Q1019","temp":22,"dewp":15,"wdir":120,"wspd":5,"visib":"6+","altim":1019,"clouds":[],"obsTime":1777078800},"SBFZ":{"icaoId":"SBFZ","flightCategory":"VFR","rawOb":"METAR SBFZ 250100Z 18005KT 9999 SCT020 26/24 Q1012","temp":26,"dewp":24,"wdir":180,"wspd":5,"visib":"6+","altim":1012,"clouds":[{"cover":"SCT","base":2000}],"obsTime":1777078800},"SBUR":{"icaoId":"SBUR","flightCategory":"VFR","rawOb":"METAR SBUR 250100Z 02003KT CAVOK 23/15 Q1018","temp":23,"dewp":15,"wdir":20,"wspd":3,"visib":"6+","altim":1018,"clouds":[],"obsTime":1777078800},"SBME":{"icaoId":"SBME","flightCategory":"VFR","rawOb":"METAR SBME 250100Z 02004KT CAVOK 22/20 Q1017","temp":22,"dewp":20,"wdir":20,"wspd":4,"visib":"6+","altim":1017,"clouds":[],"obsTime":1777078800},"SBMG":{"icaoId":"SBMG","flightCategory":"VFR","rawOb":"METAR SBMG 250100Z 03005KT CAVOK 24/17 Q1015","temp":24,"dewp":17,"wdir":30,"wspd":5,"visib":"6+","altim":1015,"clouds":[],"obsTime":1777078800},"SBCG":{"icaoId":"SBCG","flightCategory":"VFR","rawOb":"METAR SBCG 250100Z 00000KT CAVOK 22/19 Q1015","temp":22,"dewp":19,"wdir":0,"wspd":0,"visib":"6+","altim":1015,"clouds":[],"obsTime":1777078800},"SBVT":{"icaoId":"SBVT","flightCategory":"VFR","rawOb":"METAR SBVT 250100Z 30003KT 9999 SCT020 BKN040 23/22 Q1017","temp":23,"dewp":22,"wdir":300,"wspd":3,"visib":"6+","altim":1017,"clouds":[{"cover":"SCT","base":2000},{"cover":"BKN","base":4000}],"obsTime":1777078800},"SBIL":{"icaoId":"SBIL","flightCategory":"VFR","rawOb":"METAR SBIL 250100Z 32004KT 9999 FEW010 SCT020 BKN070 24/23 Q1017","temp":24,"dewp":23,"wdir":320,"wspd":4,"visib":"6+","altim":1017,"clouds":[{"cover":"FEW","base":1000},{"cover":"SCT","base":2000},{"cover":"BKN","base":7000}],"obsTime":1777078800},"SBOI":{"icaoId":"SBOI","flightCategory":"VFR","rawOb":"METAR SBOI 250100Z AUTO 00000KT 9999 // FEW001/// 24/24 Q1012","temp":24,"dewp":24,"wdir":0,"wspd":0,"visib":"6+","altim":1012,"clouds":[{"cover":"FEW","base":100}],"obsTime":1777078800},"SBCO":{"icaoId":"SBCO","flightCategory":"LIFR","rawOb":"METAR SBCO 250100Z 08008KT 8000 -RA OVC004 20/20 Q1012","temp":20,"dewp":20,"wdir":80,"wspd":8,"visib":4.97,"altim":1012,"clouds":[{"cover":"OVC","base":400}],"obsTime":1777078800},"SBPL":{"icaoId":"SBPL","flightCategory":"VFR","rawOb":"METAR SBPL 250100Z 13007KT CAVOK 26/22 Q1015","temp":26,"dewp":22,"wdir":130,"wspd":7,"visib":"6+","altim":1015,"clouds":[],"obsTime":1777078800},"SBBH":{"icaoId":"SBBH","flightCategory":"VFR","rawOb":"METAR SBBH 250100Z 11006KT CAVOK 20/17 Q1020","temp":20,"dewp":17,"wdir":110,"wspd":6,"visib":"6+","altim":1020,"clouds":[],"obsTime":1777078800},"SBAR":{"icaoId":"SBAR","flightCategory":"VFR","rawOb":"METAR SBAR 250100Z 15007KT 9999 FEW020 27/23 Q1014","temp":27,"dewp":23,"wdir":150,"wspd":7,"visib":"6+","altim":1014,"clouds":[{"cover":"FEW","base":2000}],"obsTime":1777078800},"SBPS":{"icaoId":"SBPS","flightCategory":"VFR","rawOb":"METAR SBPS 250100Z 22002KT 9999 FEW015 BKN070 24/23 Q1016","temp":24,"dewp":23,"wdir":220,"wspd":2,"visib":"6+","altim":1016,"clouds":[{"cover":"FEW","base":1500},{"cover":"BKN","base":7000}],"obsTime":1777078800},"SBSC":{"icaoId":"SBSC","flightCategory":"VFR","rawOb":"METAR SBSC 250100Z 23003KT CAVOK 23/22 Q1015","temp":23,"dewp":22,"wdir":230,"wspd":3,"visib":"6+","altim":1015,"clouds":[],"obsTime":1777078800},"SBDN":{"icaoId":"SBDN","flightCategory":"VFR","rawOb":"METAR SBDN 250100Z 11002KT CAVOK 23/17 Q1015","temp":23,"dewp":17,"wdir":110,"wspd":2,"visib":"6+","altim":1015,"clouds":[],"obsTime":1777078800},"SBSJ":{"icaoId":"SBSJ","flightCategory":"VFR","rawOb":"METAR SBSJ 250100Z 06003KT CAVOK 19/17 Q1018","temp":19,"dewp":17,"wdir":60,"wspd":3,"visib":"6+","altim":1018,"clouds":[],"obsTime":1777078800},"SBSM":{"icaoId":"SBSM","flightCategory":"LIFR","rawOb":"METAR SBSM 250100Z VRB02KT 2500 -RADZ BR BKN004 OVC010 19/19 Q1014","temp":19,"dewp":19,"wdir":"VRB","wspd":2,"visib":1.55,"altim":1014,"clouds":[{"cover":"BKN","base":400},{"cover":"OVC","base":1000}],"obsTime":1777078800},"SBBU":{"icaoId":"SBBU","flightCategory":"VFR","rawOb":"METAR SBBU 250100Z 02002KT CAVOK 27/19 Q1016","temp":27,"dewp":19,"wdir":20,"wspd":2,"visib":"6+","altim":1016,"clouds":[],"obsTime":1777078800},"SBSR":{"icaoId":"SBSR","flightCategory":"VFR","rawOb":"METAR SBSR 250100Z 00000KT CAVOK 25/17 Q1016","temp":25,"dewp":17,"wdir":0,"wspd":0,"visib":"6+","altim":1016,"clouds":[],"obsTime":1777078800},"SBAX":{"icaoId":"SBAX","flightCategory":"VFR","rawOb":"METAR SBAX 250100Z AUTO 13007KT CAVOK 21/15 Q1020","temp":21,"dewp":15,"wdir":130,"wspd":7,"visib":"6+","altim":1020,"clouds":[],"obsTime":1777078800},"SBKG":{"icaoId":"SBKG","flightCategory":"VFR","rawOb":"METAR SBKG 250100Z 12005KT CAVOK 21/20 Q1015","temp":21,"dewp":20,"wdir":120,"wspd":5,"visib":"6+","altim":1015,"clouds":[],"obsTime":1777078800},"SBIP":{"icaoId":"SBIP","flightCategory":"VFR","rawOb":"METAR SBIP 250100Z AUTO VRB02KT CAVOK 19/19 Q1017","temp":19,"dewp":19,"wdir":"VRB","wspd":2,"visib":"6+","altim":1017,"clouds":[],"obsTime":1777078800},"SBJP":{"icaoId":"SBJP","flightCategory":"VFR","rawOb":"METAR SBJP 250100Z 14004KT 9999 FEW020 25/23 Q1013","temp":25,"dewp":23,"wdir":140,"wspd":4,"visib":"6+","altim":1013,"clouds":[{"cover":"FEW","base":2000}],"obsTime":1777078800},"SBAN":{"icaoId":"SBAN","flightCategory":"VFR","rawOb":"METAR SBAN 250100Z 18005KT 9999 FEW045 20/13 Q1021","temp":20,"dewp":13,"wdir":180,"wspd":5,"visib":"6+","altim":1021,"clouds":[{"cover":"FEW","base":4500}],"obsTime":1777078800},"SBJV":{"icaoId":"SBJV","flightCategory":"VFR","rawOb":"METAR SBJV 250100Z 29003KT 9999 SCT030 23/21 Q1014","temp":23,"dewp":21,"wdir":290,"wspd":3,"visib":"6+","altim":1014,"clouds":[{"cover":"SCT","base":3000}],"obsTime":1777078800},"SBLE":{"icaoId":"SBLE","flightCategory":"MVFR","rawOb":"METAR SBLE 250100Z AUTO 00000KT 9999 FEW003 BKN026 OVC035 ///// Q////","temp":null,"dewp":null,"wdir":0,"wspd":0,"visib":"6+","altim":null,"clouds":[{"cover":"FEW","base":300},{"cover":"BKN","base":2600},{"cover":"OVC","base":3500}],"obsTime":1777078800},"SBMT":{"icaoId":"SBMT","flightCategory":"MVFR","rawOb":"METAR SBMT 250100Z 09004KT 8000 NSC 21/18 Q1018","temp":21,"dewp":18,"wdir":90,"wspd":4,"visib":4.97,"altim":1018,"clouds":[],"obsTime":1777078800},"SBTA":{"icaoId":"SBTA","flightCategory":"VFR","rawOb":"METAR SBTA 250100Z VRB01KT CAVOK 18/18 Q1017","temp":18,"dewp":18,"wdir":"VRB","wspd":1,"visib":"6+","altim":1017,"clouds":[],"obsTime":1777078800},"SBLS":{"icaoId":"SBLS","flightCategory":"VFR","rawOb":"METAR SBLS 250100Z 14007KT CAVOK 20/16 Q1020","temp":20,"dewp":16,"wdir":140,"wspd":7,"visib":"6+","altim":1020,"clouds":[],"obsTime":1777078800}}}