{"updated":1782385831,"count":75,"data":{"SBKP":{"icaoId":"SBKP","flightCategory":"VFR","rawOb":"METAR SBKP 251000Z 16006KT 9999 FEW040 BKN100 12/11 Q1023","temp":12,"dewp":11,"wdir":160,"wspd":6,"visib":"6+","altim":1023,"clouds":[{"cover":"FEW","base":4000},{"cover":"BKN","base":10000}],"obsTime":1782381600},"SBLO":{"icaoId":"SBLO","flightCategory":"VFR","rawOb":"METAR SBLO 251000Z COR 18003KT 9999 BCFG NSC 07/07 Q1023","temp":7,"dewp":7,"wdir":180,"wspd":3,"visib":"6+","altim":1023,"clouds":[],"obsTime":1782381600},"SBCF":{"icaoId":"SBCF","flightCategory":"VFR","rawOb":"METAR SBCF 251000Z 16002KT CAVOK 17/12 Q1021","temp":17,"dewp":12,"wdir":160,"wspd":2,"visib":"6+","altim":1021,"clouds":[],"obsTime":1782381600},"SBJU":{"icaoId":"SBJU","flightCategory":"VFR","rawOb":"METAR SBJU 251000Z 00000KT CAVOK 22/17 Q1017","temp":22,"dewp":17,"wdir":0,"wspd":0,"visib":"6+","altim":1017,"clouds":[],"obsTime":1782381600},"SBEG":{"icaoId":"SBEG","flightCategory":"VFR","rawOb":"METAR SBEG 251000Z 18002KT 9999 SCT030 24/24 Q1012","temp":24,"dewp":24,"wdir":180,"wspd":2,"visib":"6+","altim":1012,"clouds":[{"cover":"SCT","base":3000}],"obsTime":1782381600},"SBFI":{"icaoId":"SBFI","flightCategory":"VFR","rawOb":"METAR SBFI 251000Z 13005KT 9999 BCFG NSC 02/02 Q1023","temp":2,"dewp":2,"wdir":130,"wspd":5,"visib":"6+","altim":1023,"clouds":[],"obsTime":1782381600},"SBMA":{"icaoId":"SBMA","flightCategory":"VFR","rawOb":"METAR SBMA 251000Z 35003KT CAVOK 26/23 Q1013","temp":26,"dewp":23,"wdir":350,"wspd":3,"visib":"6+","altim":1013,"clouds":[],"obsTime":1782381600},"SBBE":{"icaoId":"SBBE","flightCategory":"VFR","rawOb":"METAR SBBE 251000Z 02002KT 9999 FEW010 BKN100 25/24 Q1012","temp":25,"dewp":24,"wdir":20,"wspd":2,"visib":"6+","altim":1012,"clouds":[{"cover":"FEW","base":1000},{"cover":"BKN","base":10000}],"obsTime":1782381600},"SBMG":{"icaoId":"SBMG","flightCategory":"VFR","rawOb":"METAR SBMG 251000Z 10007KT 9999 BCFG NSC 08/06 Q1021","temp":8,"dewp":6,"wdir":100,"wspd":7,"visib":"6+","altim":1021,"clouds":[],"obsTime":1782381600},"SBFL":{"icaoId":"SBFL","flightCategory":"VFR","rawOb":"METAR SBFL 251000Z 30002KT CAVOK 07/05 Q1025","temp":7,"dewp":5,"wdir":300,"wspd":2,"visib":"6+","altim":1025,"clouds":[],"obsTime":1782381600},"SBCG":{"icaoId":"SBCG","flightCategory":"VFR","rawOb":"METAR SBCG 251000Z 11012KT CAVOK 11/06 Q1019","temp":11,"dewp":6,"wdir":110,"wspd":12,"visib":"6+","altim":1019,"clouds":[],"obsTime":1782381600},"SBFZ":{"icaoId":"SBFZ","flightCategory":"VFR","rawOb":"METAR SBFZ 251000Z 16011KT 9999 FEW020 25/21 Q1013","temp":25,"dewp":21,"wdir":160,"wspd":11,"visib":"6+","altim":1013,"clouds":[{"cover":"FEW","base":2000}],"obsTime":1782381600},"SBMO":{"icaoId":"SBMO","flightCategory":"MVFR","rawOb":"METAR SBMO 251000Z 33003KT 290V350 9999 VCSH BKN021 SCT050 23/22 Q1016","temp":23,"dewp":22,"wdir":330,"wspd":3,"visib":"6+","altim":1016,"clouds":[{"cover":"BKN","base":2100},{"cover":"SCT","base":5000}],"obsTime":1782381600},"SBBR":{"icaoId":"SBBR","flightCategory":"VFR","rawOb":"METAR SBBR 251000Z VRB01KT CAVOK 16/14 Q1022","temp":16,"dewp":14,"wdir":"VRB","wspd":1,"visib":"6+","altim":1022,"clouds":[],"obsTime":1782381600},"SBMQ":{"icaoId":"SBMQ","flightCategory":"VFR","rawOb":"METAR SBMQ 251000Z 27002KT 9999 SCT009 25/24 Q1012","temp":25,"dewp":24,"wdir":270,"wspd":2,"visib":"6+","altim":1012,"clouds":[{"cover":"SCT","base":900}],"obsTime":1782381600},"SBGL":{"icaoId":"SBGL","flightCategory":"IFR","rawOb":"METAR SBGL 251000Z 30003KT 8000 -DZRA BKN006 BKN020 OVC030 19/18 Q1022","temp":19,"dewp":18,"wdir":300,"wspd":3,"visib":4.97,"altim":1022,"clouds":[{"cover":"BKN","base":600},{"cover":"BKN","base":2000},{"cover":"OVC","base":3000}],"obsTime":1782381600},"SBNT":{"icaoId":"SBNT","flightCategory":"VFR","rawOb":"METAR SBNT 251000Z 19007KT 9999 FEW018 23/23 Q1014","temp":23,"dewp":23,"wdir":190,"wspd":7,"visib":"6+","altim":1014,"clouds":[{"cover":"FEW","base":1800}],"obsTime":1782381600},"SBPA":{"icaoId":"SBPA","flightCategory":"VFR","rawOb":"METAR SBPA 251000Z 25002KT CAVOK 06/06 Q1024","temp":6,"dewp":6,"wdir":250,"wspd":2,"visib":"6+","altim":1024,"clouds":[],"obsTime":1782381600},"SBCP":{"icaoId":"SBCP","flightCategory":"VFR","rawOb":"METAR SBCP 251000Z 22011KT 9999 SCT015 OVC090 21/18 Q1020","temp":21,"dewp":18,"wdir":220,"wspd":11,"visib":"6+","altim":1020,"clouds":[{"cover":"SCT","base":1500},{"cover":"OVC","base":9000}],"obsTime":1782381600},"SBPJ":{"icaoId":"SBPJ","flightCategory":"VFR","rawOb":"METAR SBPJ 251000Z 15004KT CAVOK 19/14 Q1014","temp":19,"dewp":14,"wdir":150,"wspd":4,"visib":"6+","altim":1014,"clouds":[],"obsTime":1782381600},"SBGO":{"icaoId":"SBGO","flightCategory":"VFR","rawOb":"METAR SBGO 251000Z 12003KT CAVOK 14/14 Q1020","temp":14,"dewp":14,"wdir":120,"wspd":3,"visib":"6+","altim":1020,"clouds":[],"obsTime":1782381600},"SBPV":{"icaoId":"SBPV","flightCategory":"IFR","rawOb":"METAR SBPV 251000Z 15006KT 8000 OVC008 21/19 Q1014","temp":21,"dewp":19,"wdir":150,"wspd":6,"visib":4.97,"altim":1014,"clouds":[{"cover":"OVC","base":800}],"obsTime":1782381600},"SBCR":{"icaoId":"SBCR","flightCategory":"MVFR","rawOb":"METAR SBCR 251100Z 11005KT 9999 BKN020 14/09 Q1018","temp":14,"dewp":9,"wdir":110,"wspd":5,"visib":"6+","altim":1018,"clouds":[{"cover":"BKN","base":2000}],"obsTime":1782385200},"SBRB":{"icaoId":"SBRB","flightCategory":"IFR","rawOb":"METAR SBRB 251000Z 18003KT 8000 OVC005 14/14 Q1017","temp":14,"dewp":14,"wdir":180,"wspd":3,"visib":4.97,"altim":1017,"clouds":[{"cover":"OVC","base":500}],"obsTime":1782381600},"SBTE":{"icaoId":"SBTE","flightCategory":"VFR","rawOb":"METAR SBTE 251000Z 00000KT 9999 SCT007 26/24 Q1012","temp":26,"dewp":24,"wdir":0,"wspd":0,"visib":"6+","altim":1012,"clouds":[{"cover":"SCT","base":700}],"obsTime":1782381600},"SBVT":{"icaoId":"SBVT","flightCategory":"VFR","rawOb":"METAR SBVT 251000Z 34002KT 9999 FEW040 18/18 Q1020","temp":18,"dewp":18,"wdir":340,"wspd":2,"visib":"6+","altim":1020,"clouds":[{"cover":"FEW","base":4000}],"obsTime":1782381600},"SBRF":{"icaoId":"SBRF","flightCategory":"IFR","rawOb":"SPECI SBRF 250922Z 15004KT 100V200 4000 -RA BR BKN012 BKN017 BKN050 24/23 Q1015","temp":24,"dewp":23,"wdir":150,"wspd":4,"visib":2.49,"altim":1015,"clouds":[{"cover":"BKN","base":1200},{"cover":"BKN","base":1700},{"cover":"BKN","base":5000}],"obsTime":1782379320},"SBGR":{"icaoId":"SBGR","flightCategory":"IFR","rawOb":"SPECI SBGR 250935Z 15003KT 110V180 4000 DZ BR OVC005 12/11 Q1024","temp":12,"dewp":11,"wdir":150,"wspd":3,"visib":2.49,"altim":1024,"clouds":[{"cover":"OVC","base":500}],"obsTime":1782380100},"SBSG":{"icaoId":"SBSG","flightCategory":"VFR","rawOb":"METAR SBSG 251000Z 20004KT 140V230 9999 SCT007 23/23 Q1015","temp":23,"dewp":23,"wdir":200,"wspd":4,"visib":"6+","altim":1015,"clouds":[{"cover":"SCT","base":700}],"obsTime":1782381600},"SBCB":{"icaoId":"SBCB","flightCategory":"MVFR","rawOb":"METAR SBCB 251000Z 24005KT 7000 BKN010 OVC030 21/18 Q1021","temp":21,"dewp":18,"wdir":240,"wspd":5,"visib":4.35,"altim":1021,"clouds":[{"cover":"BKN","base":1000},{"cover":"OVC","base":3000}],"obsTime":1782381600},"SBSL":{"icaoId":"SBSL","flightCategory":"VFR","rawOb":"METAR SBSL 251000Z 12009KT 9999 SCT015 SCT080 26/25 Q1012","temp":26,"dewp":25,"wdir":120,"wspd":9,"visib":"6+","altim":1012,"clouds":[{"cover":"SCT","base":1500},{"cover":"SCT","base":8000}],"obsTime":1782381600},"SBIL":{"icaoId":"SBIL","flightCategory":"VFR","rawOb":"METAR SBIL 251000Z 26004KT 9999 SCT022 BKN050 22/21 Q1019","temp":22,"dewp":21,"wdir":260,"wspd":4,"visib":"6+","altim":1019,"clouds":[{"cover":"SCT","base":2200},{"cover":"BKN","base":5000}],"obsTime":1782381600},"SBSN":{"icaoId":"SBSN","flightCategory":"VFR","rawOb":"METAR SBSN 251000Z 19004KT 9999 FEW015 24/24 Q1011","temp":24,"dewp":24,"wdir":190,"wspd":4,"visib":"6+","altim":1011,"clouds":[{"cover":"FEW","base":1500}],"obsTime":1782381600},"SBSP":{"icaoId":"SBSP","flightCategory":"IFR","rawOb":"METAR SBSP 251000Z 14009KT 9999 OVC005 12/12 Q1025","temp":12,"dewp":12,"wdir":140,"wspd":9,"visib":"6+","altim":1025,"clouds":[{"cover":"OVC","base":500}],"obsTime":1782381600},"SBCT":{"icaoId":"SBCT","flightCategory":"IFR","rawOb":"METAR SBCT 251000Z 00000KT 4500 BR NSC 02/02 Q1025","temp":2,"dewp":2,"wdir":0,"wspd":0,"visib":2.8,"altim":1025,"clouds":[],"obsTime":1782381600},"SBBV":{"icaoId":"SBBV","flightCategory":"VFR","rawOb":"METAR SBBV 251000Z 25001KT 9999 FEW020 FEW035TCU 24/23 Q1013","temp":24,"dewp":23,"wdir":250,"wspd":1,"visib":"6+","altim":1013,"clouds":[{"cover":"FEW","base":2000},{"cover":"FEW","base":3500}],"obsTime":1782381600},"SBSV":{"icaoId":"SBSV","flightCategory":"VFR","rawOb":"METAR SBSV 251000Z 13009G19KT 090V150 9999 VCSH SCT021 FEW023TCU BKN050 25/20 Q1017","temp":25,"dewp":20,"wdir":130,"wspd":9,"visib":"6+","altim":1017,"clouds":[{"cover":"SCT","base":2100},{"cover":"FEW","base":2300},{"cover":"BKN","base":5000}],"obsTime":1782381600},"SBHT":{"icaoId":"SBHT","flightCategory":"VFR","rawOb":"METAR SBHT 251000Z 00000KT 9999 SCT012 SCT080 24/24 Q1012","temp":24,"dewp":24,"wdir":0,"wspd":0,"visib":"6+","altim":1012,"clouds":[{"cover":"SCT","base":1200},{"cover":"SCT","base":8000}],"obsTime":1782381600},"SBME":{"icaoId":"SBME","flightCategory":"MVFR","rawOb":"METAR SBME 251000Z 24008KT 9999 BKN021 OVC070 20/18 Q1021","temp":20,"dewp":18,"wdir":240,"wspd":8,"visib":"6+","altim":1021,"clouds":[{"cover":"BKN","base":2100},{"cover":"OVC","base":7000}],"obsTime":1782381600},"SBMK":{"icaoId":"SBMK","flightCategory":"VFR","rawOb":"METAR SBMK 251000Z 14004KT CAVOK 17/13 Q1021","temp":17,"dewp":13,"wdir":140,"wspd":4,"visib":"6+","altim":1021,"clouds":[],"obsTime":1782381600},"SBUR":{"icaoId":"SBUR","flightCategory":"LIFR","rawOb":"METAR SBUR 251000Z 07003KT 3500 BR OVC003 14/14 Q1021","temp":14,"dewp":14,"wdir":70,"wspd":3,"visib":2.17,"altim":1021,"clouds":[{"cover":"OVC","base":300}],"obsTime":1782381600},"SBUL":{"icaoId":"SBUL","flightCategory":"LIFR","rawOb":"METAR SBUL 251000Z 23007KT 1400 R22/P2000U R04/P2000U BR OVC002 13/13 Q1022","temp":13,"dewp":13,"wdir":230,"wspd":7,"visib":0.87,"altim":1022,"clouds":[{"cover":"OVC","base":200}],"obsTime":1782381600},"SBUY":{"icaoId":"SBUY","flightCategory":"LIFR","rawOb":"METAR SBUY 251100Z 17004KT 1200 BR BKN004 BKN066 24/23 Q1012","temp":24,"dewp":23,"wdir":170,"wspd":4,"visib":0.75,"altim":1012,"clouds":[{"cover":"BKN","base":400},{"cover":"BKN","base":6600}],"obsTime":1782385200},"SBCA":{"icaoId":"SBCA","flightCategory":"VFR","rawOb":"METAR SBCA 251000Z 14005KT CAVOK 03/M02 Q1023","temp":3,"dewp":-2,"wdir":140,"wspd":5,"visib":"6+","altim":1023,"clouds":[],"obsTime":1782381600},"SBCJ":{"icaoId":"SBCJ","flightCategory":"VFR","rawOb":"SPECI SBCJ 251015Z 00000KT CAVOK 21/19 Q1017","temp":21,"dewp":19,"wdir":0,"wspd":0,"visib":"6+","altim":1017,"clouds":[],"obsTime":1782382500},"SBCO":{"icaoId":"SBCO","flightCategory":"VFR","rawOb":"METAR SBCO 251000Z VRB02KT CAVOK 05/05 Q1025","temp":5,"dewp":5,"wdir":"VRB","wspd":2,"visib":"6+","altim":1025,"clouds":[],"obsTime":1782381600},"SBKG":{"icaoId":"SBKG","flightCategory":"MVFR","rawOb":"METAR SBKG 251000Z 14006KT 5000 BR BKN010 BKN070 21/20 Q1017","temp":21,"dewp":20,"wdir":140,"wspd":6,"visib":3.11,"altim":1017,"clouds":[{"cover":"BKN","base":1000},{"cover":"BKN","base":7000}],"obsTime":1782381600},"SBOI":{"icaoId":"SBOI","flightCategory":"LIFR","rawOb":"SPECI SBOI 250915Z AUTO 31003KT 250V340 9999 BKN004 25/24 Q1012","temp":25,"dewp":24,"wdir":310,"wspd":3,"visib":"6+","altim":1012,"clouds":[{"cover":"BKN","base":400}],"obsTime":1782378900},"SBPB":{"icaoId":"SBPB","flightCategory":"VFR","rawOb":"SPECI SBPB 251015Z 13004KT 9999 FEW016 27/24 Q1012","temp":27,"dewp":24,"wdir":130,"wspd":4,"visib":"6+","altim":1012,"clouds":[{"cover":"FEW","base":1600}],"obsTime":1782382500},"SBPL":{"icaoId":"SBPL","flightCategory":"VFR","rawOb":"METAR SBPL 251000Z 12007KT 9999 FEW020 22/19 Q1018","temp":22,"dewp":19,"wdir":120,"wspd":7,"visib":"6+","altim":1018,"clouds":[{"cover":"FEW","base":2000}],"obsTime":1782381600},"SBPS":{"icaoId":"SBPS","flightCategory":"VFR","rawOb":"METAR SBPS 251000Z VRB02KT 9999 SCT020 OVC070 21/20 Q1019","temp":21,"dewp":20,"wdir":"VRB","wspd":2,"visib":"6+","altim":1019,"clouds":[{"cover":"SCT","base":2000},{"cover":"OVC","base":7000}],"obsTime":1782381600},"SBSJ":{"icaoId":"SBSJ","flightCategory":"IFR","rawOb":"METAR SBSJ 251000Z 24003KT 4000 BR FEW006 OVC010 13/12 Q1024","temp":13,"dewp":12,"wdir":240,"wspd":3,"visib":2.49,"altim":1024,"clouds":[{"cover":"FEW","base":600},{"cover":"OVC","base":1000}],"obsTime":1782381600},"SBSM":{"icaoId":"SBSM","flightCategory":"VFR","rawOb":"METAR SBSM 251000Z VRB01KT 9999 FEW040 05/05 Q1024","temp":5,"dewp":5,"wdir":"VRB","wspd":1,"visib":"6+","altim":1024,"clouds":[{"cover":"FEW","base":4000}],"obsTime":1782381600},"SBTD":{"icaoId":"SBTD","flightCategory":"VFR","rawOb":"METAR SBTD 251100Z /////KT CAVOK 05/M02 Q1024","temp":5,"dewp":-2,"wdir":null,"wspd":null,"visib":"6+","altim":1024,"clouds":[],"obsTime":1782385200},"SBTT":{"icaoId":"SBTT","flightCategory":"VFR","rawOb":"METAR SBTT 251000Z 15002KT 9999 SCT040 23/22 Q1012","temp":23,"dewp":22,"wdir":150,"wspd":2,"visib":"6+","altim":1012,"clouds":[{"cover":"SCT","base":4000}],"obsTime":1782381600},"SBAR":{"icaoId":"SBAR","flightCategory":"VFR","rawOb":"METAR SBAR 251000Z 12007KT 9999 VCSH FEW020 SCT040 26/22 Q1016","temp":26,"dewp":22,"wdir":120,"wspd":7,"visib":"6+","altim":1016,"clouds":[{"cover":"FEW","base":2000},{"cover":"SCT","base":4000}],"obsTime":1782381600},"SBSR":{"icaoId":"SBSR","flightCategory":"IFR","rawOb":"METAR SBSR 251000Z 20002KT 9000 BKN007 BKN070 13/12 Q1022","temp":13,"dewp":12,"wdir":200,"wspd":2,"visib":5.59,"altim":1022,"clouds":[{"cover":"BKN","base":700},{"cover":"BKN","base":7000}],"obsTime":1782381600},"SBAX":{"icaoId":"SBAX","flightCategory":"VFR","rawOb":"METAR SBAX 251000Z AUTO 09003KT CAVOK ///// Q1022","temp":null,"dewp":null,"wdir":90,"wspd":3,"visib":"6+","altim":1022,"clouds":[],"obsTime":1782381600},"SBBH":{"icaoId":"SBBH","flightCategory":"VFR","rawOb":"METAR SBBH 251000Z 10004KT CAVOK 17/13 Q1021","temp":17,"dewp":13,"wdir":100,"wspd":4,"visib":"6+","altim":1021,"clouds":[],"obsTime":1782381600},"SBBU":{"icaoId":"SBBU","flightCategory":"IFR","rawOb":"METAR SBBU 251000Z 12005KT 5000 BR BKN005 12/12 Q1022","temp":12,"dewp":12,"wdir":120,"wspd":5,"visib":3.11,"altim":1022,"clouds":[{"cover":"BKN","base":500}],"obsTime":1782381600},"SBIP":{"icaoId":"SBIP","flightCategory":"VFR","rawOb":"METAR SBIP 251000Z AUTO 05004KT CAVOK 18/17 Q1020","temp":18,"dewp":17,"wdir":50,"wspd":4,"visib":"6+","altim":1020,"clouds":[],"obsTime":1782381600},"SBSC":{"icaoId":"SBSC","flightCategory":"MVFR","rawOb":"METAR SBSC 251000Z 17004KT 7000 FEW006 BKN035 18/17 Q1022","temp":18,"dewp":17,"wdir":170,"wspd":4,"visib":4.35,"altim":1022,"clouds":[{"cover":"FEW","base":600},{"cover":"BKN","base":3500}],"obsTime":1782381600},"SBDN":{"icaoId":"SBDN","flightCategory":"VFR","rawOb":"METAR SBDN 251000Z 12004KT CAVOK 10/08 Q1021","temp":10,"dewp":8,"wdir":120,"wspd":4,"visib":"6+","altim":1021,"clouds":[],"obsTime":1782381600},"SBES":{"icaoId":"SBES","flightCategory":"MVFR","rawOb":"METAR SBES 251000Z 21006KT 9999 VCSH SCT010 SCT020 BKN030 19/// Q1021","temp":null,"dewp":null,"wdir":210,"wspd":6,"visib":"6+","altim":1021,"clouds":[{"cover":"SCT","base":1000},{"cover":"SCT","base":2000},{"cover":"BKN","base":3000}],"obsTime":1782381600},"SBAN":{"icaoId":"SBAN","flightCategory":"VFR","rawOb":"METAR SBAN 251000Z 09006KT CAVOK 14/13 Q1021","temp":14,"dewp":13,"wdir":90,"wspd":6,"visib":"6+","altim":1021,"clouds":[],"obsTime":1782381600},"SBLE":{"icaoId":"SBLE","flightCategory":"MVFR","rawOb":"METAR SBLE 251000Z AUTO VRB02KT 9999 OVC030 ///// Q////","temp":null,"dewp":null,"wdir":"VRB","wspd":2,"visib":"6+","altim":null,"clouds":[{"cover":"OVC","base":3000}],"obsTime":1782381600},"SBJV":{"icaoId":"SBJV","flightCategory":"VFR","rawOb":"METAR SBJV 251000Z 31003KT CAVOK 05/05 Q1026","temp":5,"dewp":5,"wdir":310,"wspd":3,"visib":"6+","altim":1026,"clouds":[],"obsTime":1782381600},"SBPF":{"icaoId":"SBPF","flightCategory":"VFR","rawOb":"METAR SBPF 251000Z 06010KT 9999 FEW007 SCT020 02/00 Q1024","temp":2,"dewp":0,"wdir":60,"wspd":10,"visib":"6+","altim":1024,"clouds":[{"cover":"FEW","base":700},{"cover":"SCT","base":2000}],"obsTime":1782381600},"SBJP":{"icaoId":"SBJP","flightCategory":"VFR","rawOb":"METAR SBJP 251000Z 17006KT 140V200 9999 SCT021 24/23 Q1015","temp":24,"dewp":23,"wdir":170,"wspd":6,"visib":"6+","altim":1015,"clouds":[{"cover":"SCT","base":2100}],"obsTime":1782381600},"SBAF":{"icaoId":"SBAF","flightCategory":"IFR","rawOb":"METAR SBAF 251000Z 21006KT 190V250 2000 -RA BR BKN008 OVC030 18/18 Q1022","temp":18,"dewp":18,"wdir":210,"wspd":6,"visib":1.24,"altim":1022,"clouds":[{"cover":"BKN","base":800},{"cover":"OVC","base":3000}],"obsTime":1782381600},"SBGW":{"icaoId":"SBGW","flightCategory":"IFR","rawOb":"METAR SBGW 251000Z 23004KT 3000 -RA BR SCT004 BKN014 OVC019 14/10 Q1023","temp":14,"dewp":10,"wdir":230,"wspd":4,"visib":1.86,"altim":1023,"clouds":[{"cover":"SCT","base":400},{"cover":"BKN","base":1400},{"cover":"OVC","base":1900}],"obsTime":1782381600},"SBJR":{"icaoId":"SBJR","flightCategory":"IFR","rawOb":"METAR SBJR 251000Z 23004KT 3000 -RA BR BKN006 SCT010 OVC020 19/18 Q1022","temp":19,"dewp":18,"wdir":230,"wspd":4,"visib":1.86,"altim":1022,"clouds":[{"cover":"BKN","base":600},{"cover":"SCT","base":1000},{"cover":"OVC","base":2000}],"obsTime":1782381600},"SBLS":{"icaoId":"SBLS","flightCategory":"VFR","rawOb":"METAR SBLS 251000Z 18006KT CAVOK 17/12 Q1021","temp":17,"dewp":12,"wdir":180,"wspd":6,"visib":"6+","altim":1021,"clouds":[],"obsTime":1782381600},"SBMT":{"icaoId":"SBMT","flightCategory":"IFR","rawOb":"METAR SBMT 251000Z 10005KT 3000 BR FEW004 OVC006 12/12 Q1024","temp":12,"dewp":12,"wdir":100,"wspd":5,"visib":1.86,"altim":1024,"clouds":[{"cover":"FEW","base":400},{"cover":"OVC","base":600}],"obsTime":1782381600},"SBTA":{"icaoId":"SBTA","flightCategory":"IFR","rawOb":"METAR SBTA 251000Z 26003KT 3000 -DZ BR SCT004 BKN013 OVC020 14/13 Q1022","temp":14,"dewp":13,"wdir":260,"wspd":3,"visib":1.86,"altim":1022,"clouds":[{"cover":"SCT","base":400},{"cover":"BKN","base":1300},{"cover":"OVC","base":2000}],"obsTime":1782381600}}}