{"updated":1775746075,"count":87,"data":{"SBBR":{"icaoId":"SBBR","flightCategory":"VFR","rawOb":"METAR SBBR 091300Z 13004KT 070V170 9999 FEW015 BKN070 24/19 Q1021","temp":24,"dewp":19,"wdir":130,"wspd":4,"visib":"6+","altim":1021,"clouds":[{"cover":"FEW","base":1500},{"cover":"BKN","base":7000}],"obsTime":1775739600},"SBCB":{"icaoId":"SBCB","flightCategory":"VFR","rawOb":"METAR SBCB 091300Z 25010KT CAVOK 30/21 Q1012","temp":30,"dewp":21,"wdir":250,"wspd":10,"visib":"6+","altim":1012,"clouds":[],"obsTime":1775739600},"SBMA":{"icaoId":"SBMA","flightCategory":"MVFR","rawOb":"METAR SBMA 091300Z 04005KT 9999 SCT015 BKN020 28/24 Q1014","temp":28,"dewp":24,"wdir":40,"wspd":5,"visib":"6+","altim":1014,"clouds":[{"cover":"SCT","base":1500},{"cover":"BKN","base":2000}],"obsTime":1775739600},"SBCZ":{"icaoId":"SBCZ","flightCategory":"IFR","rawOb":"METAR SBCZ 091300Z 24005KT 9999 BKN006 BKN100 25/25 Q1015","temp":25,"dewp":25,"wdir":240,"wspd":5,"visib":"6+","altim":1015,"clouds":[{"cover":"BKN","base":600},{"cover":"BKN","base":10000}],"obsTime":1775739600},"SBME":{"icaoId":"SBME","flightCategory":"VFR","rawOb":"METAR SBME 091300Z 15005KT 9999 FEW030 30/20 Q1011","temp":30,"dewp":20,"wdir":150,"wspd":5,"visib":"6+","altim":1011,"clouds":[{"cover":"FEW","base":3000}],"obsTime":1775739600},"SBEG":{"icaoId":"SBEG","flightCategory":"MVFR","rawOb":"METAR SBEG 091300Z 36002KT 9999 FEW009 BKN015 28/25 Q1014","temp":28,"dewp":25,"wdir":360,"wspd":2,"visib":"6+","altim":1014,"clouds":[{"cover":"FEW","base":900},{"cover":"BKN","base":1500}],"obsTime":1775739600},"SBMG":{"icaoId":"SBMG","flightCategory":"VFR","rawOb":"METAR SBMG 091300Z 21004KT 180V240 9000 SCT003 SCT030 BKN090 21/19 Q1017","temp":21,"dewp":19,"wdir":210,"wspd":4,"visib":5.59,"altim":1017,"clouds":[{"cover":"SCT","base":300},{"cover":"SCT","base":3000},{"cover":"BKN","base":9000}],"obsTime":1775739600},"SBCF":{"icaoId":"SBCF","flightCategory":"VFR","rawOb":"METAR SBCF 091300Z VRB02KT 9999 FEW030 26/18 Q1019","temp":26,"dewp":18,"wdir":"VRB","wspd":2,"visib":"6+","altim":1019,"clouds":[{"cover":"FEW","base":3000}],"obsTime":1775739600},"SBMK":{"icaoId":"SBMK","flightCategory":"VFR","rawOb":"METAR SBMK 091300Z 08004KT CAVOK 28/20 Q1018","temp":28,"dewp":20,"wdir":80,"wspd":4,"visib":"6+","altim":1018,"clouds":[],"obsTime":1775739600},"SBAT":{"icaoId":"SBAT","flightCategory":"VFR","rawOb":"METAR SBAT 091300Z 06002KT 9999 VCSH SCT020 BKN100 28/24 Q1017","temp":28,"dewp":24,"wdir":60,"wspd":2,"visib":"6+","altim":1017,"clouds":[{"cover":"SCT","base":2000},{"cover":"BKN","base":10000}],"obsTime":1775739600},"SBMO":{"icaoId":"SBMO","flightCategory":"VFR","rawOb":"METAR SBMO 091300Z 17006KT 140V210 9999 SCT021 29/22 Q1013","temp":29,"dewp":22,"wdir":170,"wspd":6,"visib":"6+","altim":1013,"clouds":[{"cover":"SCT","base":2100}],"obsTime":1775739600},"SBFI":{"icaoId":"SBFI","flightCategory":"VFR","rawOb":"METAR SBFI 091300Z 12005KT CAVOK 21/17 Q1018","temp":21,"dewp":17,"wdir":120,"wspd":5,"visib":"6+","altim":1018,"clouds":[],"obsTime":1775739600},"SBMQ":{"icaoId":"SBMQ","flightCategory":"VFR","rawOb":"METAR SBMQ 091300Z 05011KT 9999 SCT018 30/25 Q1014","temp":30,"dewp":25,"wdir":50,"wspd":11,"visib":"6+","altim":1014,"clouds":[{"cover":"SCT","base":1800}],"obsTime":1775739600},"SBCG":{"icaoId":"SBCG","flightCategory":"MVFR","rawOb":"METAR SBCG 091300Z 11007KT 9999 BKN015 SCT080 25/21 Q1017","temp":25,"dewp":21,"wdir":110,"wspd":7,"visib":"6+","altim":1017,"clouds":[{"cover":"BKN","base":1500},{"cover":"SCT","base":8000}],"obsTime":1775739600},"SBNT":{"icaoId":"SBNT","flightCategory":"VFR","rawOb":"METAR SBNT 091300Z 16012KT 9999 VCSH FEW020 SCT026 BKN039 28/23 Q1013","temp":28,"dewp":23,"wdir":160,"wspd":12,"visib":"6+","altim":1013,"clouds":[{"cover":"FEW","base":2000},{"cover":"SCT","base":2600},{"cover":"BKN","base":3900}],"obsTime":1775739600},"SBFL":{"icaoId":"SBFL","flightCategory":"VFR","rawOb":"METAR SBFL 091300Z 32003KT 260V030 9999 FEW030 25/16 Q1014","temp":25,"dewp":16,"wdir":320,"wspd":3,"visib":"6+","altim":1014,"clouds":[{"cover":"FEW","base":3000}],"obsTime":1775739600},"SBPA":{"icaoId":"SBPA","flightCategory":"VFR","rawOb":"METAR SBPA 091300Z 25010KT 220V280 9999 SCT020 20/16 Q1017","temp":20,"dewp":16,"wdir":250,"wspd":10,"visib":"6+","altim":1017,"clouds":[{"cover":"SCT","base":2000}],"obsTime":1775739600},"SBPJ":{"icaoId":"SBPJ","flightCategory":"VFR","rawOb":"METAR SBPJ 091300Z 25002KT 9999 SCT033 BKN100 28/24 Q1015","temp":28,"dewp":24,"wdir":250,"wspd":2,"visib":"6+","altim":1015,"clouds":[{"cover":"SCT","base":3300},{"cover":"BKN","base":10000}],"obsTime":1775739600},"SBFZ":{"icaoId":"SBFZ","flightCategory":"MVFR","rawOb":"METAR SBFZ 091300Z 15006KT 9999 BKN030 29/24 Q1012","temp":29,"dewp":24,"wdir":150,"wspd":6,"visib":"6+","altim":1012,"clouds":[{"cover":"BKN","base":3000}],"obsTime":1775739600},"SBPV":{"icaoId":"SBPV","flightCategory":"VFR","rawOb":"METAR SBPV 091300Z 09003KT 9999 FEW008 27/23 Q1014","temp":27,"dewp":23,"wdir":90,"wspd":3,"visib":"6+","altim":1014,"clouds":[{"cover":"FEW","base":800}],"obsTime":1775739600},"SBCP":{"icaoId":"SBCP","flightCategory":"VFR","rawOb":"METAR SBCP 091300Z /////KT CAVOK ///// Q1011","temp":null,"dewp":null,"wdir":null,"wspd":null,"visib":"6+","altim":1011,"clouds":[],"obsTime":1775739600},"SBRB":{"icaoId":"SBRB","flightCategory":"LIFR","rawOb":"METAR SBRB 091300Z 17003KT 7000 BKN003 SCT006 25/24 Q1015","temp":25,"dewp":24,"wdir":170,"wspd":3,"visib":4.35,"altim":1015,"clouds":[{"cover":"BKN","base":300},{"cover":"SCT","base":600}],"obsTime":1775739600},"SBRF":{"icaoId":"SBRF","flightCategory":"VFR","rawOb":"METAR SBRF 091300Z 15011KT 120V190 9999 FEW025 30/24 Q1013","temp":30,"dewp":24,"wdir":150,"wspd":11,"visib":"6+","altim":1013,"clouds":[{"cover":"FEW","base":2500}],"obsTime":1775739600},"SBGL":{"icaoId":"SBGL","flightCategory":"VFR","rawOb":"METAR SBGL 091300Z 02004KT 340V040 9999 FEW030 31/22 Q1012","temp":31,"dewp":22,"wdir":20,"wspd":4,"visib":"6+","altim":1012,"clouds":[{"cover":"FEW","base":3000}],"obsTime":1775739600},"SBBE":{"icaoId":"SBBE","flightCategory":"MVFR","rawOb":"METAR SBBE 091300Z 05010KT 9999 BKN020 29/25 Q1014","temp":29,"dewp":25,"wdir":50,"wspd":10,"visib":"6+","altim":1014,"clouds":[{"cover":"BKN","base":2000}],"obsTime":1775739600},"SBSG":{"icaoId":"SBSG","flightCategory":"MVFR","rawOb":"METAR SBSG 091300Z 18006KT 140V230 9999 VCSH SCT022 BKN027 FEW030TCU 28/23 Q1013","temp":28,"dewp":23,"wdir":180,"wspd":6,"visib":"6+","altim":1013,"clouds":[{"cover":"SCT","base":2200},{"cover":"BKN","base":2700},{"cover":"FEW","base":3000}],"obsTime":1775739600},"SBGO":{"icaoId":"SBGO","flightCategory":"VFR","rawOb":"METAR SBGO 091300Z 00000KT 9999 SCT045 25/21 Q1019","temp":25,"dewp":21,"wdir":0,"wspd":0,"visib":"6+","altim":1019,"clouds":[{"cover":"SCT","base":4500}],"obsTime":1775739600},"SBSL":{"icaoId":"SBSL","flightCategory":"MVFR","rawOb":"METAR SBSL 091300Z 08008KT 9999 BKN020 30/24 Q1012","temp":30,"dewp":24,"wdir":80,"wspd":8,"visib":"6+","altim":1012,"clouds":[{"cover":"BKN","base":2000}],"obsTime":1775739600},"SBCR":{"icaoId":"SBCR","flightCategory":"VFR","rawOb":"METAR SBCR 091300Z 23006KT 140V260 9999 FEW008 SCT013 BKN035 24/21 Q1016","temp":24,"dewp":21,"wdir":230,"wspd":6,"visib":"6+","altim":1016,"clouds":[{"cover":"FEW","base":800},{"cover":"SCT","base":1300},{"cover":"BKN","base":3500}],"obsTime":1775739600},"SBSN":{"icaoId":"SBSN","flightCategory":"MVFR","rawOb":"METAR SBSN 091300Z 18003KT 9999 -RA SCT005 BKN015 OVC100 27/26 Q1014","temp":27,"dewp":26,"wdir":180,"wspd":3,"visib":"6+","altim":1014,"clouds":[{"cover":"SCT","base":500},{"cover":"BKN","base":1500},{"cover":"OVC","base":10000}],"obsTime":1775739600},"SBGR":{"icaoId":"SBGR","flightCategory":"MVFR","rawOb":"METAR SBGR 091300Z 26007KT 9999 SCT020 BKN025 25/20 Q1018","temp":25,"dewp":20,"wdir":260,"wspd":7,"visib":"6+","altim":1018,"clouds":[{"cover":"SCT","base":2000},{"cover":"BKN","base":2500}],"obsTime":1775739600},"SBSP":{"icaoId":"SBSP","flightCategory":"MVFR","rawOb":"METAR SBSP 091300Z 26006KT 210V290 9999 SCT019 OVC024 23/18 Q1019","temp":23,"dewp":18,"wdir":260,"wspd":6,"visib":"6+","altim":1019,"clouds":[{"cover":"SCT","base":1900},{"cover":"OVC","base":2400}],"obsTime":1775739600},"SBBV":{"icaoId":"SBBV","flightCategory":"VFR","rawOb":"METAR SBBV 091300Z 12010KT 9999 FEW010 BKN100 27/24 Q1015","temp":27,"dewp":24,"wdir":120,"wspd":10,"visib":"6+","altim":1015,"clouds":[{"cover":"FEW","base":1000},{"cover":"BKN","base":10000}],"obsTime":1775739600},"SBSV":{"icaoId":"SBSV","flightCategory":"VFR","rawOb":"METAR SBSV 091300Z 17007KT 9999 SCT023 29/22 Q1014","temp":29,"dewp":22,"wdir":170,"wspd":7,"visib":"6+","altim":1014,"clouds":[{"cover":"SCT","base":2300}],"obsTime":1775739600},"SBHT":{"icaoId":"SBHT","flightCategory":"VFR","rawOb":"METAR SBHT 091300Z 09007KT 9999 SCT015 SCT090 28/24 Q1014","temp":28,"dewp":24,"wdir":90,"wspd":7,"visib":"6+","altim":1014,"clouds":[{"cover":"SCT","base":1500},{"cover":"SCT","base":9000}],"obsTime":1775739600},"SBTE":{"icaoId":"SBTE","flightCategory":"MVFR","rawOb":"METAR SBTE 091300Z 26003KT 9999 BKN015 28/24 Q1013","temp":28,"dewp":24,"wdir":260,"wspd":3,"visib":"6+","altim":1013,"clouds":[{"cover":"BKN","base":1500}],"obsTime":1775739600},"SBLO":{"icaoId":"SBLO","flightCategory":"VFR","rawOb":"METAR SBLO 091300Z 16004KT 9999 FEW017 23/19 Q1017","temp":23,"dewp":19,"wdir":160,"wspd":4,"visib":"6+","altim":1017,"clouds":[{"cover":"FEW","base":1700}],"obsTime":1775739600},"SBJU":{"icaoId":"SBJU","flightCategory":"MVFR","rawOb":"METAR SBJU 091300Z 00000KT 9999 BKN020 25/22 Q1016","temp":25,"dewp":22,"wdir":0,"wspd":0,"visib":"6+","altim":1016,"clouds":[{"cover":"BKN","base":2000}],"obsTime":1775739600},"SBKP":{"icaoId":"SBKP","flightCategory":"MVFR","rawOb":"METAR SBKP 091300Z 28004KT 230V330 9999 BKN010 24/21 Q1018","temp":24,"dewp":21,"wdir":280,"wspd":4,"visib":"6+","altim":1018,"clouds":[{"cover":"BKN","base":1000}],"obsTime":1775739600},"SBCT":{"icaoId":"SBCT","flightCategory":"VFR","rawOb":"METAR SBCT 091300Z 21009KT 180V270 CAVOK 19/13 Q1019","temp":19,"dewp":13,"wdir":210,"wspd":9,"visib":"6+","altim":1019,"clouds":[],"obsTime":1775739600},"SBUL":{"icaoId":"SBUL","flightCategory":"VFR","rawOb":"METAR SBUL 091300Z 06004KT CAVOK 23/20 Q1020","temp":23,"dewp":20,"wdir":60,"wspd":4,"visib":"6+","altim":1020,"clouds":[],"obsTime":1775739600},"SBIL":{"icaoId":"SBIL","flightCategory":"VFR","rawOb":"METAR SBIL 091300Z 10003KT 060V140 9999 SCT020 30/24 Q1015","temp":30,"dewp":24,"wdir":100,"wspd":3,"visib":"6+","altim":1015,"clouds":[{"cover":"SCT","base":2000}],"obsTime":1775739600},"SBUR":{"icaoId":"SBUR","flightCategory":"VFR","rawOb":"METAR SBUR 091300Z 22003KT 9999 FEW025 BKN100 24/19 Q1019","temp":24,"dewp":19,"wdir":220,"wspd":3,"visib":"6+","altim":1019,"clouds":[{"cover":"FEW","base":2500},{"cover":"BKN","base":10000}],"obsTime":1775739600},"SBVT":{"icaoId":"SBVT","flightCategory":"VFR","rawOb":"METAR SBVT 091300Z 01008KT CAVOK 31/25 Q1012","temp":31,"dewp":25,"wdir":10,"wspd":8,"visib":"6+","altim":1012,"clouds":[],"obsTime":1775739600},"SBBU":{"icaoId":"SBBU","flightCategory":"IFR","rawOb":"METAR SBBU 091300Z 23004KT 9999 BKN007 BKN070 26/22 Q1018","temp":26,"dewp":22,"wdir":230,"wspd":4,"visib":"6+","altim":1018,"clouds":[{"cover":"BKN","base":700},{"cover":"BKN","base":7000}],"obsTime":1775739600},"SBAU":{"icaoId":"SBAU","flightCategory":"VFR","rawOb":"METAR SBAU 091400Z 24006KT 9999 SCT030 30/24 Q1016","temp":30,"dewp":24,"wdir":240,"wspd":6,"visib":"6+","altim":1016,"clouds":[{"cover":"SCT","base":3000}],"obsTime":1775743200},"SBSJ":{"icaoId":"SBSJ","flightCategory":"MVFR","rawOb":"METAR SBSJ 091300Z 23006KT 200V280 9999 FEW020 BKN030 BKN076 25/20 Q1017","temp":25,"dewp":20,"wdir":230,"wspd":6,"visib":"6+","altim":1017,"clouds":[{"cover":"FEW","base":2000},{"cover":"BKN","base":3000},{"cover":"BKN","base":7600}],"obsTime":1775739600},"SBAX":{"icaoId":"SBAX","flightCategory":"VFR","rawOb":"METAR SBAX 091300Z 33006KT 9999 SCT013 SCT060 23/20 Q1020","temp":23,"dewp":20,"wdir":330,"wspd":6,"visib":"6+","altim":1020,"clouds":[{"cover":"SCT","base":1300},{"cover":"SCT","base":6000}],"obsTime":1775739600},"SBBH":{"icaoId":"SBBH","flightCategory":"VFR","rawOb":"METAR SBBH 091300Z 29002KT 9999 FEW023 SCT100 27/19 Q1018","temp":27,"dewp":19,"wdir":290,"wspd":2,"visib":"6+","altim":1018,"clouds":[{"cover":"FEW","base":2300},{"cover":"SCT","base":10000}],"obsTime":1775739600},"SBBQ":{"icaoId":"SBBQ","flightCategory":"VFR","rawOb":"METAR SBBQ 091300Z 28005KT 9999 FEW010 SCT100 22/18 Q1022","temp":22,"dewp":18,"wdir":280,"wspd":5,"visib":"6+","altim":1022,"clouds":[{"cover":"FEW","base":1000},{"cover":"SCT","base":10000}],"obsTime":1775739600},"SBCA":{"icaoId":"SBCA","flightCategory":"VFR","rawOb":"METAR SBCA 091300Z 16010KT 9999 SCT005 SCT007 17/16 Q1020","temp":17,"dewp":16,"wdir":160,"wspd":10,"visib":"6+","altim":1020,"clouds":[{"cover":"SCT","base":500},{"cover":"SCT","base":700}],"obsTime":1775739600},"SBCC":{"icaoId":"SBCC","flightCategory":"VFR","rawOb":"METAR SBCC 091300Z 31007KT 9999 FEW010 SCT020 FEW025TCU BKN100 27/22 Q0101","temp":27,"dewp":22,"wdir":310,"wspd":7,"visib":"6+","altim":101,"clouds":[{"cover":"FEW","base":1000},{"cover":"SCT","base":2000},{"cover":"FEW","base":2500},{"cover":"BKN","base":10000}],"obsTime":1775739600},"SBCJ":{"icaoId":"SBCJ","flightCategory":"VFR","rawOb":"METAR SBCJ 091300Z 00000KT 9999 SCT007 SCT011 24/22 Q1019","temp":24,"dewp":22,"wdir":0,"wspd":0,"visib":"6+","altim":1019,"clouds":[{"cover":"SCT","base":700},{"cover":"SCT","base":1100}],"obsTime":1775739600},"SBCO":{"icaoId":"SBCO","flightCategory":"VFR","rawOb":"METAR SBCO 091300Z 26011KT 9999 SCT020 21/15 Q1017","temp":21,"dewp":15,"wdir":260,"wspd":11,"visib":"6+","altim":1017,"clouds":[{"cover":"SCT","base":2000}],"obsTime":1775739600},"SBDN":{"icaoId":"SBDN","flightCategory":"VFR","rawOb":"METAR SBDN 091300Z 00000KT 9999 FEW019 BKN082 26/19 Q1017","temp":26,"dewp":19,"wdir":0,"wspd":0,"visib":"6+","altim":1017,"clouds":[{"cover":"FEW","base":1900},{"cover":"BKN","base":8200}],"obsTime":1775739600},"SBES":{"icaoId":"SBES","flightCategory":"VFR","rawOb":"METAR SBES 091300Z 23008KT 130V280 CAVOK 31/// Q1011","temp":null,"dewp":null,"wdir":230,"wspd":8,"visib":"6+","altim":1011,"clouds":[],"obsTime":1775739600},"SBGM":{"icaoId":"SBGM","flightCategory":"MVFR","rawOb":"METAR SBGM 091300Z VRB02KT 9999 FEW006 BKN016 OVC043 26/22 Q1015","temp":26,"dewp":22,"wdir":"VRB","wspd":2,"visib":"6+","altim":1015,"clouds":[{"cover":"FEW","base":600},{"cover":"BKN","base":1600},{"cover":"OVC","base":4300}],"obsTime":1775739600},"SBIP":{"icaoId":"SBIP","flightCategory":"MVFR","rawOb":"METAR SBIP 091300Z AUTO 05006KT 340V080 9999 BKN018 29/23 Q1015","temp":29,"dewp":23,"wdir":50,"wspd":6,"visib":"6+","altim":1015,"clouds":[{"cover":"BKN","base":1800}],"obsTime":1775739600},"SBKG":{"icaoId":"SBKG","flightCategory":"VFR","rawOb":"METAR SBKG 091300Z 15006KT 9999 FEW020 BKN070 25/21 Q1016","temp":25,"dewp":21,"wdir":150,"wspd":6,"visib":"6+","altim":1016,"clouds":[{"cover":"FEW","base":2000},{"cover":"BKN","base":7000}],"obsTime":1775739600},"SBPB":{"icaoId":"SBPB","flightCategory":"VFR","rawOb":"METAR SBPB 091300Z 11006KT 9999 FEW020 29/25 Q1012","temp":29,"dewp":25,"wdir":110,"wspd":6,"visib":"6+","altim":1012,"clouds":[{"cover":"FEW","base":2000}],"obsTime":1775739600},"SBPL":{"icaoId":"SBPL","flightCategory":"MVFR","rawOb":"METAR SBPL 091300Z 11007KT 9999 BKN025 29/20 Q1015","temp":29,"dewp":20,"wdir":110,"wspd":7,"visib":"6+","altim":1015,"clouds":[{"cover":"BKN","base":2500}],"obsTime":1775739600},"SBPP":{"icaoId":"SBPP","flightCategory":"MVFR","rawOb":"METAR SBPP 091300Z 12007KT 8000 BKN010 OVC070 19/17 Q1019","temp":19,"dewp":17,"wdir":120,"wspd":7,"visib":4.97,"altim":1019,"clouds":[{"cover":"BKN","base":1000},{"cover":"OVC","base":7000}],"obsTime":1775739600},"SBPS":{"icaoId":"SBPS","flightCategory":"VFR","rawOb":"METAR SBPS 091300Z 03007KT 9999 SCT030 30/23 Q1014","temp":30,"dewp":23,"wdir":30,"wspd":7,"visib":"6+","altim":1014,"clouds":[{"cover":"SCT","base":3000}],"obsTime":1775739600},"SBSC":{"icaoId":"SBSC","flightCategory":"VFR","rawOb":"METAR SBSC 091300Z 16003KT CAVOK 31/21 Q1012","temp":31,"dewp":21,"wdir":160,"wspd":3,"visib":"6+","altim":1012,"clouds":[],"obsTime":1775739600},"SBAR":{"icaoId":"SBAR","flightCategory":"MVFR","rawOb":"METAR SBAR 091300Z 13006KT 080V170 9999 VCSH BKN026 SCT070 30/23 Q1013","temp":30,"dewp":23,"wdir":130,"wspd":6,"visib":"6+","altim":1013,"clouds":[{"cover":"BKN","base":2600},{"cover":"SCT","base":7000}],"obsTime":1775739600},"SBSM":{"icaoId":"SBSM","flightCategory":"MVFR","rawOb":"METAR SBSM 091300Z 24004KT 9999 FEW010 OVC022 19/16 Q1019","temp":19,"dewp":16,"wdir":240,"wspd":4,"visib":"6+","altim":1019,"clouds":[{"cover":"FEW","base":1000},{"cover":"OVC","base":2200}],"obsTime":1775739600},"SBSR":{"icaoId":"SBSR","flightCategory":"VFR","rawOb":"METAR SBSR 091300Z 25007KT 9999 FEW030 26/21 Q1017","temp":26,"dewp":21,"wdir":250,"wspd":7,"visib":"6+","altim":1017,"clouds":[{"cover":"FEW","base":3000}],"obsTime":1775739600},"SBTD":{"icaoId":"SBTD","flightCategory":"VFR","rawOb":"METAR SBTD 091300Z /////KT 9999 FEW005 SCT012 20/17 Q1019","temp":20,"dewp":17,"wdir":null,"wspd":null,"visib":"6+","altim":1019,"clouds":[{"cover":"FEW","base":500},{"cover":"SCT","base":1200}],"obsTime":1775739600},"SBTF":{"icaoId":"SBTF","flightCategory":"VFR","rawOb":"METAR SBTF 091300Z 32004KT 9999 SCT006 SCT009 28/27 Q1013","temp":28,"dewp":27,"wdir":320,"wspd":4,"visib":"6+","altim":1013,"clouds":[{"cover":"SCT","base":600},{"cover":"SCT","base":900}],"obsTime":1775739600},"SBTT":{"icaoId":"SBTT","flightCategory":"MVFR","rawOb":"METAR SBTT 091300Z 35005KT 9999 FEW008 BKN013 26/23 Q1015","temp":26,"dewp":23,"wdir":350,"wspd":5,"visib":"6+","altim":1015,"clouds":[{"cover":"FEW","base":800},{"cover":"BKN","base":1300}],"obsTime":1775739600},"SBUY":{"icaoId":"SBUY","flightCategory":"IFR","rawOb":"METAR SBUY 091300Z 12003KT 9999 BKN007 BKN070 26/24 Q1013","temp":26,"dewp":24,"wdir":120,"wspd":3,"visib":"6+","altim":1013,"clouds":[{"cover":"BKN","base":700},{"cover":"BKN","base":7000}],"obsTime":1775739600},"SBVH":{"icaoId":"SBVH","flightCategory":"VFR","rawOb":"METAR SBVH 091300Z 11006KT 9999 SCT030 26/22 Q1018","temp":26,"dewp":22,"wdir":110,"wspd":6,"visib":"6+","altim":1018,"clouds":[{"cover":"SCT","base":3000}],"obsTime":1775739600},"SBOI":{"icaoId":"SBOI","flightCategory":"MVFR","rawOb":"METAR SBOI 091300Z AUTO 07005KT 020V120 9999 SCT016 BKN019 BKN047 29/26 Q1014","temp":29,"dewp":26,"wdir":70,"wspd":5,"visib":"6+","altim":1014,"clouds":[{"cover":"SCT","base":1600},{"cover":"BKN","base":1900},{"cover":"BKN","base":4700}],"obsTime":1775739600},"SBJV":{"icaoId":"SBJV","flightCategory":"VFR","rawOb":"METAR SBJV 091300Z 27004KT CAVOK 27/16 Q1015","temp":27,"dewp":16,"wdir":270,"wspd":4,"visib":"6+","altim":1015,"clouds":[],"obsTime":1775739600},"SBNM":{"icaoId":"SBNM","flightCategory":"MVFR","rawOb":"METAR SBNM 091300Z 12002KT 9999 BKN015 20/17 Q1019","temp":20,"dewp":17,"wdir":120,"wspd":2,"visib":"6+","altim":1019,"clouds":[{"cover":"BKN","base":1500}],"obsTime":1775739600},"SBPF":{"icaoId":"SBPF","flightCategory":"VFR","rawOb":"METAR SBPF 091300Z 24008KT 9999 SCT010 17/14 Q1020","temp":17,"dewp":14,"wdir":240,"wspd":8,"visib":"6+","altim":1020,"clouds":[{"cover":"SCT","base":1000}],"obsTime":1775739600},"SBJP":{"icaoId":"SBJP","flightCategory":"VFR","rawOb":"METAR SBJP 091300Z 20010KT 9999 FEW020 OVC070 29/23 Q1013","temp":29,"dewp":23,"wdir":200,"wspd":10,"visib":"6+","altim":1013,"clouds":[{"cover":"FEW","base":2000},{"cover":"OVC","base":7000}],"obsTime":1775739600},"SBLE":{"icaoId":"SBLE","flightCategory":"VFR","rawOb":"METAR SBLE 091300Z AUTO 09005KT 050V150 9999 FEW025 OVC037 25/20 Q1018","temp":25,"dewp":20,"wdir":90,"wspd":5,"visib":"6+","altim":1018,"clouds":[{"cover":"FEW","base":2500},{"cover":"OVC","base":3700}],"obsTime":1775739600},"SBIH":{"icaoId":"SBIH","flightCategory":"VFR","rawOb":"METAR SBIH 091300Z 00000KT 9999 FEW008 SCT100 26/25 Q1014","temp":26,"dewp":25,"wdir":0,"wspd":0,"visib":"6+","altim":1014,"clouds":[{"cover":"FEW","base":800},{"cover":"SCT","base":10000}],"obsTime":1775739600},"SBAF":{"icaoId":"SBAF","flightCategory":"VFR","rawOb":"METAR SBAF 091300Z 22011KT 9999 SCT046 32/20 Q1012","temp":32,"dewp":20,"wdir":220,"wspd":11,"visib":"6+","altim":1012,"clouds":[{"cover":"SCT","base":4600}],"obsTime":1775739600},"SBGW":{"icaoId":"SBGW","flightCategory":"VFR","rawOb":"METAR SBGW 091300Z 24005KT 200V290 9999 FEW015 SCT070 26/18 Q1016","temp":26,"dewp":18,"wdir":240,"wspd":5,"visib":"6+","altim":1016,"clouds":[{"cover":"FEW","base":1500},{"cover":"SCT","base":7000}],"obsTime":1775739600},"SBJR":{"icaoId":"SBJR","flightCategory":"VFR","rawOb":"METAR SBJR 091300Z 21008KT 9999 FEW025 32/21 Q1012","temp":32,"dewp":21,"wdir":210,"wspd":8,"visib":"6+","altim":1012,"clouds":[{"cover":"FEW","base":2500}],"obsTime":1775739600},"SBLS":{"icaoId":"SBLS","flightCategory":"VFR","rawOb":"METAR SBLS 091300Z 32003KT 220V020 9999 FEW030 27/19 Q1018","temp":27,"dewp":19,"wdir":320,"wspd":3,"visib":"6+","altim":1018,"clouds":[{"cover":"FEW","base":3000}],"obsTime":1775739600},"SBMT":{"icaoId":"SBMT","flightCategory":"MVFR","rawOb":"METAR SBMT 091300Z 28008KT 9999 BKN025 24/20 Q1018","temp":24,"dewp":20,"wdir":280,"wspd":8,"visib":"6+","altim":1018,"clouds":[{"cover":"BKN","base":2500}],"obsTime":1775739600},"SBST":{"icaoId":"SBST","flightCategory":"VFR","rawOb":"METAR SBST 091300Z 26005KT 180V340 9999 BKN041 26/19 Q1014","temp":26,"dewp":19,"wdir":260,"wspd":5,"visib":"6+","altim":1014,"clouds":[{"cover":"BKN","base":4100}],"obsTime":1775739600},"SBTA":{"icaoId":"SBTA","flightCategory":"VFR","rawOb":"METAR SBTA 091300Z 25007KT 220V280 9999 FEW015 BKN050 25/19 Q1016","temp":25,"dewp":19,"wdir":250,"wspd":7,"visib":"6+","altim":1016,"clouds":[{"cover":"FEW","base":1500},{"cover":"BKN","base":5000}],"obsTime":1775739600},"SBAN":{"icaoId":"SBAN","flightCategory":"VFR","rawOb":"METAR SBAN 091300Z 07007KT 9999 FEW030 BKN070 23/19 Q1022","temp":23,"dewp":19,"wdir":70,"wspd":7,"visib":"6+","altim":1022,"clouds":[{"cover":"FEW","base":3000},{"cover":"BKN","base":7000}],"obsTime":1775739600}}}