{"updated":1773848635,"count":87,"data":{"SBCF":{"icaoId":"SBCF","flightCategory":"MVFR","rawOb":"METAR SBCF 181400Z 04008KT 9999 BKN030 BKN100 23/21 Q1017","temp":23,"dewp":21,"wdir":40,"wspd":8,"visib":"6+","altim":1017,"clouds":[{"cover":"BKN","base":3000},{"cover":"BKN","base":10000}],"obsTime":1773842400},"SBAT":{"icaoId":"SBAT","flightCategory":"VFR","rawOb":"METAR SBAT 181400Z 23003KT 9999 SCT020 SCT023 27/24 Q1014","temp":27,"dewp":24,"wdir":230,"wspd":3,"visib":"6+","altim":1014,"clouds":[{"cover":"SCT","base":2000},{"cover":"SCT","base":2300}],"obsTime":1773842400},"SBBE":{"icaoId":"SBBE","flightCategory":"MVFR","rawOb":"METAR SBBE 181400Z 06004KT 9999 BKN015 BKN070 28/24 Q1012","temp":28,"dewp":24,"wdir":60,"wspd":4,"visib":"6+","altim":1012,"clouds":[{"cover":"BKN","base":1500},{"cover":"BKN","base":7000}],"obsTime":1773842400},"SBVT":{"icaoId":"SBVT","flightCategory":"VFR","rawOb":"METAR SBVT 181400Z 35007KT 9999 FEW035 SCT050 31/24 Q1012","temp":31,"dewp":24,"wdir":350,"wspd":7,"visib":"6+","altim":1012,"clouds":[{"cover":"FEW","base":3500},{"cover":"SCT","base":5000}],"obsTime":1773842400},"SBBR":{"icaoId":"SBBR","flightCategory":"VFR","rawOb":"METAR SBBR 181400Z 07003KT 9999 SCT030 BKN100 26/19 Q1018","temp":26,"dewp":19,"wdir":70,"wspd":3,"visib":"6+","altim":1018,"clouds":[{"cover":"SCT","base":3000},{"cover":"BKN","base":10000}],"obsTime":1773842400},"SBBV":{"icaoId":"SBBV","flightCategory":"VFR","rawOb":"METAR SBBV 181400Z 09015KT 9999 FEW035 30/19 Q1012","temp":30,"dewp":19,"wdir":90,"wspd":15,"visib":"6+","altim":1012,"clouds":[{"cover":"FEW","base":3500}],"obsTime":1773842400},"SBCB":{"icaoId":"SBCB","flightCategory":"VFR","rawOb":"METAR SBCB 181400Z 08009KT 9999 FEW020 SCT090 28/22 Q1012","temp":28,"dewp":22,"wdir":80,"wspd":9,"visib":"6+","altim":1012,"clouds":[{"cover":"FEW","base":2000},{"cover":"SCT","base":9000}],"obsTime":1773842400},"SBCG":{"icaoId":"SBCG","flightCategory":"VFR","rawOb":"METAR SBCG 181400Z 34011KT 310V010 9999 SCT030 29/22 Q1013","temp":29,"dewp":22,"wdir":340,"wspd":11,"visib":"6+","altim":1013,"clouds":[{"cover":"SCT","base":3000}],"obsTime":1773842400},"SBCP":{"icaoId":"SBCP","flightCategory":"VFR","rawOb":"METAR SBCP 181400Z 01006KT 9999 SCT015 31/22 Q1012","temp":31,"dewp":22,"wdir":10,"wspd":6,"visib":"6+","altim":1012,"clouds":[{"cover":"SCT","base":1500}],"obsTime":1773842400},"SBCR":{"icaoId":"SBCR","flightCategory":"MVFR","rawOb":"METAR SBCR 181400Z VRB02KT 9999 VCSH BKN015 FEW020TCU BKN070 28/25 Q1011","temp":28,"dewp":25,"wdir":"VRB","wspd":2,"visib":"6+","altim":1011,"clouds":[{"cover":"BKN","base":1500},{"cover":"FEW","base":2000},{"cover":"BKN","base":7000}],"obsTime":1773842400},"SBCT":{"icaoId":"SBCT","flightCategory":"MVFR","rawOb":"METAR SBCT 181400Z 02005KT 350V060 9999 BKN018 24/20 Q1017","temp":24,"dewp":20,"wdir":20,"wspd":5,"visib":"6+","altim":1017,"clouds":[{"cover":"BKN","base":1800}],"obsTime":1773842400},"SBCZ":{"icaoId":"SBCZ","flightCategory":"VFR","rawOb":"METAR SBCZ 181400Z 03004KT 9999 SCT008 BKN080 25/24 Q1011","temp":25,"dewp":24,"wdir":30,"wspd":4,"visib":"6+","altim":1011,"clouds":[{"cover":"SCT","base":800},{"cover":"BKN","base":8000}],"obsTime":1773842400},"SBEG":{"icaoId":"SBEG","flightCategory":"VFR","rawOb":"METAR SBEG 181400Z 07010KT 9999 FEW015 BKN100 29/24 Q1011","temp":29,"dewp":24,"wdir":70,"wspd":10,"visib":"6+","altim":1011,"clouds":[{"cover":"FEW","base":1500},{"cover":"BKN","base":10000}],"obsTime":1773842400},"SBFI":{"icaoId":"SBFI","flightCategory":"MVFR","rawOb":"METAR SBFI 181400Z 01003KT 9999 BKN017 SCT070 28/23 Q1012","temp":28,"dewp":23,"wdir":10,"wspd":3,"visib":"6+","altim":1012,"clouds":[{"cover":"BKN","base":1700},{"cover":"SCT","base":7000}],"obsTime":1773842400},"SBFL":{"icaoId":"SBFL","flightCategory":"VFR","rawOb":"METAR SBFL 181400Z 34011KT 9999 SCT043 28/23 Q1011","temp":28,"dewp":23,"wdir":340,"wspd":11,"visib":"6+","altim":1011,"clouds":[{"cover":"SCT","base":4300}],"obsTime":1773842400},"SBFZ":{"icaoId":"SBFZ","flightCategory":"VFR","rawOb":"METAR SBFZ 181400Z 14008KT 9999 SCT020 BKN060 25/24 Q1011","temp":25,"dewp":24,"wdir":140,"wspd":8,"visib":"6+","altim":1011,"clouds":[{"cover":"SCT","base":2000},{"cover":"BKN","base":6000}],"obsTime":1773842400},"SBGL":{"icaoId":"SBGL","flightCategory":"VFR","rawOb":"METAR SBGL 181400Z VRB04KT 9999 FEW020 30/23 Q1011","temp":30,"dewp":23,"wdir":"VRB","wspd":4,"visib":"6+","altim":1011,"clouds":[{"cover":"FEW","base":2000}],"obsTime":1773842400},"SBGO":{"icaoId":"SBGO","flightCategory":"VFR","rawOb":"METAR SBGO 181400Z 10003KT 360V170 9999 SCT025 BKN100 27/21 Q1017","temp":27,"dewp":21,"wdir":100,"wspd":3,"visib":"6+","altim":1017,"clouds":[{"cover":"SCT","base":2500},{"cover":"BKN","base":10000}],"obsTime":1773842400},"SBGR":{"icaoId":"SBGR","flightCategory":"VFR","rawOb":"METAR SBGR 181400Z 01004KT 9000 FEW030 28/21 Q1015","temp":28,"dewp":21,"wdir":10,"wspd":4,"visib":5.59,"altim":1015,"clouds":[{"cover":"FEW","base":3000}],"obsTime":1773842400},"SBHT":{"icaoId":"SBHT","flightCategory":"MVFR","rawOb":"METAR SBHT 181400Z 15005KT 9999 BKN017 BKN090 28/24 Q1013","temp":28,"dewp":24,"wdir":150,"wspd":5,"visib":"6+","altim":1013,"clouds":[{"cover":"BKN","base":1700},{"cover":"BKN","base":9000}],"obsTime":1773842400},"SBIL":{"icaoId":"SBIL","flightCategory":"VFR","rawOb":"METAR SBIL 181400Z 03007KT 9999 SCT023 31/24 Q1013","temp":31,"dewp":24,"wdir":30,"wspd":7,"visib":"6+","altim":1013,"clouds":[{"cover":"SCT","base":2300}],"obsTime":1773842400},"SBJU":{"icaoId":"SBJU","flightCategory":"MVFR","rawOb":"METAR SBJU 181400Z 00000KT 9999 BKN021 27/23 Q1014","temp":27,"dewp":23,"wdir":0,"wspd":0,"visib":"6+","altim":1014,"clouds":[{"cover":"BKN","base":2100}],"obsTime":1773842400},"SBKP":{"icaoId":"SBKP","flightCategory":"VFR","rawOb":"METAR SBKP 181400Z 33004KT 270V030 9999 SCT025 27/22 Q1015","temp":27,"dewp":22,"wdir":330,"wspd":4,"visib":"6+","altim":1015,"clouds":[{"cover":"SCT","base":2500}],"obsTime":1773842400},"SBLO":{"icaoId":"SBLO","flightCategory":"VFR","rawOb":"METAR SBLO 181400Z 30005KT 9999 SCT016 27/21 Q1014","temp":27,"dewp":21,"wdir":300,"wspd":5,"visib":"6+","altim":1014,"clouds":[{"cover":"SCT","base":1600}],"obsTime":1773842400},"SBMA":{"icaoId":"SBMA","flightCategory":"VFR","rawOb":"METAR SBMA 181400Z 15005KT 9999 FEW018 BKN100 29/25 Q1012","temp":29,"dewp":25,"wdir":150,"wspd":5,"visib":"6+","altim":1012,"clouds":[{"cover":"FEW","base":1800},{"cover":"BKN","base":10000}],"obsTime":1773842400},"SBME":{"icaoId":"SBME","flightCategory":"VFR","rawOb":"METAR SBME 181400Z 08003KT 9999 FEW040 33/21 Q1011","temp":33,"dewp":21,"wdir":80,"wspd":3,"visib":"6+","altim":1011,"clouds":[{"cover":"FEW","base":4000}],"obsTime":1773842400},"SBMG":{"icaoId":"SBMG","flightCategory":"VFR","rawOb":"METAR SBMG 181400Z 35006KT 310V040 9999 SCT017 26/21 Q1013","temp":26,"dewp":21,"wdir":350,"wspd":6,"visib":"6+","altim":1013,"clouds":[{"cover":"SCT","base":1700}],"obsTime":1773842400},"SBMK":{"icaoId":"SBMK","flightCategory":"VFR","rawOb":"METAR SBMK 181400Z 30003KT 9999 SCT035 29/22 Q1016","temp":29,"dewp":22,"wdir":300,"wspd":3,"visib":"6+","altim":1016,"clouds":[{"cover":"SCT","base":3500}],"obsTime":1773842400},"SBMO":{"icaoId":"SBMO","flightCategory":"VFR","rawOb":"METAR SBMO 181400Z 13011KT 090V170 9999 VCSH SCT025 FEW030TCU 32/22 Q1012","temp":32,"dewp":22,"wdir":130,"wspd":11,"visib":"6+","altim":1012,"clouds":[{"cover":"SCT","base":2500},{"cover":"FEW","base":3000}],"obsTime":1773842400},"SBMQ":{"icaoId":"SBMQ","flightCategory":"MVFR","rawOb":"METAR SBMQ 181400Z 03007KT 5000 -RA BR SCT005 BKN015 OVC030 26/25 Q1013","temp":26,"dewp":25,"wdir":30,"wspd":7,"visib":3.11,"altim":1013,"clouds":[{"cover":"SCT","base":500},{"cover":"BKN","base":1500},{"cover":"OVC","base":3000}],"obsTime":1773842400},"SBNT":{"icaoId":"SBNT","flightCategory":"MVFR","rawOb":"METAR SBNT 181400Z 11012KT 9999 BKN025 30/24 Q1011","temp":30,"dewp":24,"wdir":110,"wspd":12,"visib":"6+","altim":1011,"clouds":[{"cover":"BKN","base":2500}],"obsTime":1773842400},"SBPA":{"icaoId":"SBPA","flightCategory":"VFR","rawOb":"METAR SBPA 181400Z 30005KT 250V010 9999 FEW020 SCT080 28/22 Q1010","temp":28,"dewp":22,"wdir":300,"wspd":5,"visib":"6+","altim":1010,"clouds":[{"cover":"FEW","base":2000},{"cover":"SCT","base":8000}],"obsTime":1773842400},"SBPJ":{"icaoId":"SBPJ","flightCategory":"VFR","rawOb":"METAR SBPJ 181400Z 24006KT 210V270 9999 FEW017 SCT022 29/24 Q1013","temp":29,"dewp":24,"wdir":240,"wspd":6,"visib":"6+","altim":1013,"clouds":[{"cover":"FEW","base":1700},{"cover":"SCT","base":2200}],"obsTime":1773842400},"SBPV":{"icaoId":"SBPV","flightCategory":"VFR","rawOb":"METAR SBPV 181400Z 35002KT 9999 SCT009 SCT030 27/23 Q1012","temp":27,"dewp":23,"wdir":350,"wspd":2,"visib":"6+","altim":1012,"clouds":[{"cover":"SCT","base":900},{"cover":"SCT","base":3000}],"obsTime":1773842400},"SBRB":{"icaoId":"SBRB","flightCategory":"VFR","rawOb":"METAR SBRB 181400Z 29001KT 9999 FEW008 BKN080 25/23 Q1013","temp":25,"dewp":23,"wdir":290,"wspd":1,"visib":"6+","altim":1013,"clouds":[{"cover":"FEW","base":800},{"cover":"BKN","base":8000}],"obsTime":1773842400},"SBRF":{"icaoId":"SBRF","flightCategory":"VFR","rawOb":"METAR SBRF 181400Z 13009KT 9999 FEW025 32/24 Q1012","temp":32,"dewp":24,"wdir":130,"wspd":9,"visib":"6+","altim":1012,"clouds":[{"cover":"FEW","base":2500}],"obsTime":1773842400},"SBSG":{"icaoId":"SBSG","flightCategory":"MVFR","rawOb":"METAR SBSG 181400Z 11010KT 090V160 9999 BKN027 FEW030TCU 30/25 Q1011","temp":30,"dewp":25,"wdir":110,"wspd":10,"visib":"6+","altim":1011,"clouds":[{"cover":"BKN","base":2700},{"cover":"FEW","base":3000}],"obsTime":1773842400},"SBSL":{"icaoId":"SBSL","flightCategory":"MVFR","rawOb":"METAR SBSL 181400Z 07008KT 030V110 9999 BKN026 FEW027TCU SCT090 30/24 Q1011","temp":30,"dewp":24,"wdir":70,"wspd":8,"visib":"6+","altim":1011,"clouds":[{"cover":"BKN","base":2600},{"cover":"FEW","base":2700},{"cover":"SCT","base":9000}],"obsTime":1773842400},"SBSN":{"icaoId":"SBSN","flightCategory":"MVFR","rawOb":"METAR SBSN 181400Z 08009KT 9999 BKN020 BKN070 29/24 Q1012","temp":29,"dewp":24,"wdir":80,"wspd":9,"visib":"6+","altim":1012,"clouds":[{"cover":"BKN","base":2000},{"cover":"BKN","base":7000}],"obsTime":1773842400},"SBSP":{"icaoId":"SBSP","flightCategory":"VFR","rawOb":"METAR SBSP 181400Z VRB03KT 9000 FEW033 29/19 Q1016","temp":29,"dewp":19,"wdir":"VRB","wspd":3,"visib":5.59,"altim":1016,"clouds":[{"cover":"FEW","base":3300}],"obsTime":1773842400},"SBSV":{"icaoId":"SBSV","flightCategory":"VFR","rawOb":"METAR SBSV 181400Z 10010KT 9999 FEW027 30/20 Q1013","temp":30,"dewp":20,"wdir":100,"wspd":10,"visib":"6+","altim":1013,"clouds":[{"cover":"FEW","base":2700}],"obsTime":1773842400},"SBTE":{"icaoId":"SBTE","flightCategory":"VFR","rawOb":"METAR SBTE 181400Z 07014KT 9999 FEW025 30/23 Q1011","temp":30,"dewp":23,"wdir":70,"wspd":14,"visib":"6+","altim":1011,"clouds":[{"cover":"FEW","base":2500}],"obsTime":1773842400},"SBUL":{"icaoId":"SBUL","flightCategory":"VFR","rawOb":"METAR SBUL 181400Z 02007KT 9999 SCT020 BKN100 25/20 Q1018","temp":25,"dewp":20,"wdir":20,"wspd":7,"visib":"6+","altim":1018,"clouds":[{"cover":"SCT","base":2000},{"cover":"BKN","base":10000}],"obsTime":1773842400},"SBUR":{"icaoId":"SBUR","flightCategory":"MVFR","rawOb":"METAR SBUR 181400Z 31004KT 9999 VCSH SCT021 BKN028 26/21 Q1016","temp":26,"dewp":21,"wdir":310,"wspd":4,"visib":"6+","altim":1016,"clouds":[{"cover":"SCT","base":2100},{"cover":"BKN","base":2800}],"obsTime":1773842400},"SBCC":{"icaoId":"SBCC","flightCategory":"VFR","rawOb":"METAR SBCC 181400Z 03004KT 9999 SCT030 SCT100 27/21 Q1014","temp":27,"dewp":21,"wdir":30,"wspd":4,"visib":"6+","altim":1014,"clouds":[{"cover":"SCT","base":3000},{"cover":"SCT","base":10000}],"obsTime":1773842400},"SBAU":{"icaoId":"SBAU","flightCategory":"VFR","rawOb":"METAR SBAU 181400Z 33004KT 9999 SCT030 28/22 Q1013","temp":28,"dewp":22,"wdir":330,"wspd":4,"visib":"6+","altim":1013,"clouds":[{"cover":"SCT","base":3000}],"obsTime":1773842400},"SBAX":{"icaoId":"SBAX","flightCategory":"VFR","rawOb":"METAR SBAX 181400Z 32005KT 9999 SCT018 25/21 Q1018","temp":25,"dewp":21,"wdir":320,"wspd":5,"visib":"6+","altim":1018,"clouds":[{"cover":"SCT","base":1800}],"obsTime":1773842400},"SBBH":{"icaoId":"SBBH","flightCategory":"VFR","rawOb":"METAR SBBH 181400Z 29005KT 9999 SCT030 FEW035TCU SCT080 27/20 Q1017","temp":27,"dewp":20,"wdir":290,"wspd":5,"visib":"6+","altim":1017,"clouds":[{"cover":"SCT","base":3000},{"cover":"FEW","base":3500},{"cover":"SCT","base":8000}],"obsTime":1773842400},"SBBQ":{"icaoId":"SBBQ","flightCategory":"MVFR","rawOb":"METAR SBBQ 181400Z 31005KT 9999 BKN025 25/18 Q1020","temp":25,"dewp":18,"wdir":310,"wspd":5,"visib":"6+","altim":1020,"clouds":[{"cover":"BKN","base":2500}],"obsTime":1773842400},"SBBU":{"icaoId":"SBBU","flightCategory":"MVFR","rawOb":"METAR SBBU 181400Z 02005KT 9999 BKN025 28/23 Q1014","temp":28,"dewp":23,"wdir":20,"wspd":5,"visib":"6+","altim":1014,"clouds":[{"cover":"BKN","base":2500}],"obsTime":1773842400},"SBAR":{"icaoId":"SBAR","flightCategory":"VFR","rawOb":"METAR SBAR 181400Z 12008KT 080V170 9999 SCT023 30/23 Q1012","temp":30,"dewp":23,"wdir":120,"wspd":8,"visib":"6+","altim":1012,"clouds":[{"cover":"SCT","base":2300}],"obsTime":1773842400},"SBCJ":{"icaoId":"SBCJ","flightCategory":"IFR","rawOb":"METAR SBCJ 181400Z 06003KT 9999 BKN009 BKN015 25/22 Q1017","temp":25,"dewp":22,"wdir":60,"wspd":3,"visib":"6+","altim":1017,"clouds":[{"cover":"BKN","base":900},{"cover":"BKN","base":1500}],"obsTime":1773842400},"SBCO":{"icaoId":"SBCO","flightCategory":"VFR","rawOb":"METAR SBCO 181400Z 29005KT 260V330 9999 FEW025 BKN100 29/23 Q1010","temp":29,"dewp":23,"wdir":290,"wspd":5,"visib":"6+","altim":1010,"clouds":[{"cover":"FEW","base":2500},{"cover":"BKN","base":10000}],"obsTime":1773842400},"SBDN":{"icaoId":"SBDN","flightCategory":"VFR","rawOb":"METAR SBDN 181400Z 02003KT 9999 SCT026 29/22 Q1013","temp":29,"dewp":22,"wdir":20,"wspd":3,"visib":"6+","altim":1013,"clouds":[{"cover":"SCT","base":2600}],"obsTime":1773842400},"SBES":{"icaoId":"SBES","flightCategory":"VFR","rawOb":"METAR SBES 181400Z 05005KT 020V110 9999 SCT020 28/// Q1012","temp":null,"dewp":null,"wdir":50,"wspd":5,"visib":"6+","altim":1012,"clouds":[{"cover":"SCT","base":2000}],"obsTime":1773842400},"SBGM":{"icaoId":"SBGM","flightCategory":"MVFR","rawOb":"METAR SBGM 181400Z 06003KT 360V100 9999 BKN026 26/24 Q1007","temp":26,"dewp":24,"wdir":60,"wspd":3,"visib":"6+","altim":1007,"clouds":[{"cover":"BKN","base":2600}],"obsTime":1773842400},"SBIP":{"icaoId":"SBIP","flightCategory":"VFR","rawOb":"METAR SBIP 181400Z AUTO 02006KT 330V060 CAVOK 29/22 Q1014","temp":29,"dewp":22,"wdir":20,"wspd":6,"visib":"6+","altim":1014,"clouds":[],"obsTime":1773842400},"SBKG":{"icaoId":"SBKG","flightCategory":"VFR","rawOb":"METAR SBKG 181400Z 13010KT 9999 SCT028 29/21 Q1014","temp":29,"dewp":21,"wdir":130,"wspd":10,"visib":"6+","altim":1014,"clouds":[{"cover":"SCT","base":2800}],"obsTime":1773842400},"SBOI":{"icaoId":"SBOI","flightCategory":"MVFR","rawOb":"METAR SBOI 181400Z AUTO 01008KT 340V040 9999 BKN018 BKN033 28/25 Q1013","temp":28,"dewp":25,"wdir":10,"wspd":8,"visib":"6+","altim":1013,"clouds":[{"cover":"BKN","base":1800},{"cover":"BKN","base":3300}],"obsTime":1773842400},"SBPB":{"icaoId":"SBPB","flightCategory":"MVFR","rawOb":"METAR SBPB 181400Z 07012KT 9999 BKN020 29/25 Q1011","temp":29,"dewp":25,"wdir":70,"wspd":12,"visib":"6+","altim":1011,"clouds":[{"cover":"BKN","base":2000}],"obsTime":1773842400},"SBPL":{"icaoId":"SBPL","flightCategory":"VFR","rawOb":"METAR SBPL 181400Z 08007KT 9999 FEW030 31/20 Q1013","temp":31,"dewp":20,"wdir":80,"wspd":7,"visib":"6+","altim":1013,"clouds":[{"cover":"FEW","base":3000}],"obsTime":1773842400},"SBPP":{"icaoId":"SBPP","flightCategory":"IFR","rawOb":"METAR SBPP 181400Z 01005KT 8000 -TSRA BKN007 FEW025CB 21/20 Q1014","temp":21,"dewp":20,"wdir":10,"wspd":5,"visib":4.97,"altim":1014,"clouds":[{"cover":"BKN","base":700},{"cover":"FEW","base":2500}],"obsTime":1773842400},"SBPS":{"icaoId":"SBPS","flightCategory":"MVFR","rawOb":"METAR SBPS 181400Z 10005KT 9000 VCSH BKN015 BKN070 28/24 Q1013","temp":28,"dewp":24,"wdir":100,"wspd":5,"visib":5.59,"altim":1013,"clouds":[{"cover":"BKN","base":1500},{"cover":"BKN","base":7000}],"obsTime":1773842400},"SBSC":{"icaoId":"SBSC","flightCategory":"VFR","rawOb":"METAR SBSC 181400Z 33004KT 9999 SCT023 SCT036 30/22 Q1012","temp":30,"dewp":22,"wdir":330,"wspd":4,"visib":"6+","altim":1012,"clouds":[{"cover":"SCT","base":2300},{"cover":"SCT","base":3600}],"obsTime":1773842400},"SBSJ":{"icaoId":"SBSJ","flightCategory":"MVFR","rawOb":"METAR SBSJ 181400Z 27001KT 7000 NSC 28/// Q1015","temp":null,"dewp":null,"wdir":270,"wspd":1,"visib":4.35,"altim":1015,"clouds":[],"obsTime":1773842400},"SBSM":{"icaoId":"SBSM","flightCategory":"MVFR","rawOb":"METAR SBSM 181400Z 29005KT 9999 SCT012 OVC017 26/23 Q1011","temp":26,"dewp":23,"wdir":290,"wspd":5,"visib":"6+","altim":1011,"clouds":[{"cover":"SCT","base":1200},{"cover":"OVC","base":1700}],"obsTime":1773842400},"SBSR":{"icaoId":"SBSR","flightCategory":"VFR","rawOb":"METAR SBSR 181400Z 09007KT 9999 FEW012 BKN070 26/22 Q1014","temp":26,"dewp":22,"wdir":90,"wspd":7,"visib":"6+","altim":1014,"clouds":[{"cover":"FEW","base":1200},{"cover":"BKN","base":7000}],"obsTime":1773842400},"SBTD":{"icaoId":"SBTD","flightCategory":"VFR","rawOb":"METAR SBTD 181400Z /////KT 9999 FEW007 BKN100 22/22 Q1014","temp":22,"dewp":22,"wdir":null,"wspd":null,"visib":"6+","altim":1014,"clouds":[{"cover":"FEW","base":700},{"cover":"BKN","base":10000}],"obsTime":1773842400},"SBTF":{"icaoId":"SBTF","flightCategory":"VFR","rawOb":"METAR SBTF 181400Z 12009KT 9999 FEW010 SCT100 31/26 Q1011","temp":31,"dewp":26,"wdir":120,"wspd":9,"visib":"6+","altim":1011,"clouds":[{"cover":"FEW","base":1000},{"cover":"SCT","base":10000}],"obsTime":1773842400},"SBTT":{"icaoId":"SBTT","flightCategory":"IFR","rawOb":"METAR SBTT 181400Z 13004KT 1800 RA BR BKN009 BKN025 22/20 Q1014 RERA","temp":22,"dewp":20,"wdir":130,"wspd":4,"visib":1.12,"altim":1014,"clouds":[{"cover":"BKN","base":900},{"cover":"BKN","base":2500}],"obsTime":1773842400},"SBUY":{"icaoId":"SBUY","flightCategory":"IFR","rawOb":"METAR SBUY 181400Z 00000KT 9999 BKN008 BKN090 25/24 Q1011","temp":25,"dewp":24,"wdir":0,"wspd":0,"visib":"6+","altim":1011,"clouds":[{"cover":"BKN","base":800},{"cover":"BKN","base":9000}],"obsTime":1773842400},"SBVH":{"icaoId":"SBVH","flightCategory":"VFR","rawOb":"METAR SBVH 181400Z 02009KT 350V050 9999 FEW012 BKN040 BKN070 27/22 Q1015","temp":27,"dewp":22,"wdir":20,"wspd":9,"visib":"6+","altim":1015,"clouds":[{"cover":"FEW","base":1200},{"cover":"BKN","base":4000},{"cover":"BKN","base":7000}],"obsTime":1773842400},"SBCA":{"icaoId":"SBCA","flightCategory":"VFR","rawOb":"METAR SBCA 181400Z 36009KT 320V050 9999 FEW040 BKN070 24/20 Q1015","temp":24,"dewp":20,"wdir":360,"wspd":9,"visib":"6+","altim":1015,"clouds":[{"cover":"FEW","base":4000},{"cover":"BKN","base":7000}],"obsTime":1773842400},"SBTA":{"icaoId":"SBTA","flightCategory":"MVFR","rawOb":"METAR SBTA 181400Z 07003KT 350V150 8000 FEW015 27/20 Q1014","temp":27,"dewp":20,"wdir":70,"wspd":3,"visib":4.97,"altim":1014,"clouds":[{"cover":"FEW","base":1500}],"obsTime":1773842400},"SBAF":{"icaoId":"SBAF","flightCategory":"VFR","rawOb":"METAR SBAF 181400Z 20003KT 9999 SCT035 30/23 Q1012","temp":30,"dewp":23,"wdir":200,"wspd":3,"visib":"6+","altim":1012,"clouds":[{"cover":"SCT","base":3500}],"obsTime":1773842400},"SBAN":{"icaoId":"SBAN","flightCategory":"MVFR","rawOb":"METAR SBAN 181400Z 29002KT 9999 FEW008 BKN015 24/17 Q1019","temp":24,"dewp":17,"wdir":290,"wspd":2,"visib":"6+","altim":1019,"clouds":[{"cover":"FEW","base":800},{"cover":"BKN","base":1500}],"obsTime":1773842400},"SBGW":{"icaoId":"SBGW","flightCategory":"VFR","rawOb":"METAR SBGW 181400Z 36003KT 9999 FEW015 28/19 Q1014","temp":28,"dewp":19,"wdir":360,"wspd":3,"visib":"6+","altim":1014,"clouds":[{"cover":"FEW","base":1500}],"obsTime":1773842400},"SBIH":{"icaoId":"SBIH","flightCategory":"VFR","rawOb":"METAR SBIH 181400Z 01004KT 9000 -RA SCT010 OVC080 25/25 Q1013 RERA","temp":25,"dewp":25,"wdir":10,"wspd":4,"visib":5.59,"altim":1013,"clouds":[{"cover":"SCT","base":1000},{"cover":"OVC","base":8000}],"obsTime":1773842400},"SBJP":{"icaoId":"SBJP","flightCategory":"MVFR","rawOb":"METAR SBJP 181400Z 11010KT 9999 BKN030 31/22 Q1012","temp":31,"dewp":22,"wdir":110,"wspd":10,"visib":"6+","altim":1012,"clouds":[{"cover":"BKN","base":3000}],"obsTime":1773842400},"SBJR":{"icaoId":"SBJR","flightCategory":"VFR","rawOb":"METAR SBJR 181400Z 17005KT 9999 SCT020 31/22 Q1012","temp":31,"dewp":22,"wdir":170,"wspd":5,"visib":"6+","altim":1012,"clouds":[{"cover":"SCT","base":2000}],"obsTime":1773842400},"SBJV":{"icaoId":"SBJV","flightCategory":"VFR","rawOb":"METAR SBJV 181400Z 02004KT 9999 SCT020 BKN080 28/23 Q1012","temp":28,"dewp":23,"wdir":20,"wspd":4,"visib":"6+","altim":1012,"clouds":[{"cover":"SCT","base":2000},{"cover":"BKN","base":8000}],"obsTime":1773842400},"SBLE":{"icaoId":"SBLE","flightCategory":"VFR","rawOb":"METAR SBLE 181400Z AUTO VRB05KT 9999 SCT038 27/18 Q1016","temp":27,"dewp":18,"wdir":"VRB","wspd":5,"visib":"6+","altim":1016,"clouds":[{"cover":"SCT","base":3800}],"obsTime":1773842400},"SBLS":{"icaoId":"SBLS","flightCategory":"MVFR","rawOb":"METAR SBLS 181400Z 36003KT 240V050 9999 VCSH BKN023 FEW025TCU BKN080 26/20 Q1017","temp":26,"dewp":20,"wdir":360,"wspd":3,"visib":"6+","altim":1017,"clouds":[{"cover":"BKN","base":2300},{"cover":"FEW","base":2500},{"cover":"BKN","base":8000}],"obsTime":1773842400},"SBMT":{"icaoId":"SBMT","flightCategory":"VFR","rawOb":"METAR SBMT 181400Z 13002KT 9999 SCT025 FEW030TCU 28/20 Q1015","temp":28,"dewp":20,"wdir":130,"wspd":2,"visib":"6+","altim":1015,"clouds":[{"cover":"SCT","base":2500},{"cover":"FEW","base":3000}],"obsTime":1773842400},"SBNM":{"icaoId":"SBNM","flightCategory":"VFR","rawOb":"METAR SBNM 181400Z 22002KT 9999 SCT015 28/23 Q1012","temp":28,"dewp":23,"wdir":220,"wspd":2,"visib":"6+","altim":1012,"clouds":[{"cover":"SCT","base":1500}],"obsTime":1773842400},"SBST":{"icaoId":"SBST","flightCategory":"MVFR","rawOb":"METAR SBST 181400Z 12004KT 5000 HZ SCT033 27/22 Q1012","temp":27,"dewp":22,"wdir":120,"wspd":4,"visib":3.11,"altim":1012,"clouds":[{"cover":"SCT","base":3300}],"obsTime":1773842400},"SBPF":{"icaoId":"SBPF","flightCategory":"VFR","rawOb":"METAR SBPF 181400Z 33005KT 9999 FEW019 24/19 Q1015","temp":24,"dewp":19,"wdir":330,"wspd":5,"visib":"6+","altim":1015,"clouds":[{"cover":"FEW","base":1900}],"obsTime":1773842400}}}