{"updated":1784286001,"count":75,"data":{"SBPV":{"icaoId":"SBPV","flightCategory":"VFR","rawOb":"METAR SBPV 171000Z 07001KT 9999 FEW030 24/23 Q1012","temp":24,"dewp":23,"wdir":70,"wspd":1,"visib":"6+","altim":1012,"clouds":[{"cover":"FEW","base":3000}],"obsTime":1784282400},"SBBE":{"icaoId":"SBBE","flightCategory":"VFR","rawOb":"METAR SBBE 171000Z 08006KT 9999 FEW020 BKN060 26/24 Q1013","temp":26,"dewp":24,"wdir":80,"wspd":6,"visib":"6+","altim":1013,"clouds":[{"cover":"FEW","base":2000},{"cover":"BKN","base":6000}],"obsTime":1784282400},"SBRB":{"icaoId":"SBRB","flightCategory":"VFR","rawOb":"METAR SBRB 171000Z 32002KT CAVOK 23/23 Q1013","temp":23,"dewp":23,"wdir":320,"wspd":2,"visib":"6+","altim":1013,"clouds":[],"obsTime":1784282400},"SBSG":{"icaoId":"SBSG","flightCategory":"VFR","rawOb":"METAR SBSG 171000Z 18005KT 130V220 9999 SCT009 23/22 Q1016","temp":23,"dewp":22,"wdir":180,"wspd":5,"visib":"6+","altim":1016,"clouds":[{"cover":"SCT","base":900}],"obsTime":1784282400},"SBBV":{"icaoId":"SBBV","flightCategory":"VFR","rawOb":"METAR SBBV 171000Z 33001KT CAVOK 24/24 Q1014","temp":24,"dewp":24,"wdir":330,"wspd":1,"visib":"6+","altim":1014,"clouds":[],"obsTime":1784282400},"SBGO":{"icaoId":"SBGO","flightCategory":"VFR","rawOb":"METAR SBGO 171000Z 08005KT 040V120 CAVOK 17/08 Q1021","temp":17,"dewp":8,"wdir":80,"wspd":5,"visib":"6+","altim":1021,"clouds":[],"obsTime":1784282400},"SBEG":{"icaoId":"SBEG","flightCategory":"VFR","rawOb":"METAR SBEG 171000Z 10005KT CAVOK 24/22 Q1013","temp":24,"dewp":22,"wdir":100,"wspd":5,"visib":"6+","altim":1013,"clouds":[],"obsTime":1784282400},"SBCF":{"icaoId":"SBCF","flightCategory":"VFR","rawOb":"METAR SBCF 171000Z 17003KT CAVOK 10/08 Q1026","temp":10,"dewp":8,"wdir":170,"wspd":3,"visib":"6+","altim":1026,"clouds":[],"obsTime":1784282400},"SBFZ":{"icaoId":"SBFZ","flightCategory":"VFR","rawOb":"METAR SBFZ 171000Z 16010KT 9999 FEW020 BKN080 24/22 Q1015","temp":24,"dewp":22,"wdir":160,"wspd":10,"visib":"6+","altim":1015,"clouds":[{"cover":"FEW","base":2000},{"cover":"BKN","base":8000}],"obsTime":1784282400},"SBPJ":{"icaoId":"SBPJ","flightCategory":"VFR","rawOb":"METAR SBPJ 171000Z 21005KT CAVOK 23/11 Q1017","temp":23,"dewp":11,"wdir":210,"wspd":5,"visib":"6+","altim":1017,"clouds":[],"obsTime":1784282400},"SBSV":{"icaoId":"SBSV","flightCategory":"VFR","rawOb":"METAR SBSV 171000Z 12013KT 9999 VCSH SCT023 FEW025TCU BKN060 25/19 Q1021","temp":25,"dewp":19,"wdir":120,"wspd":13,"visib":"6+","altim":1021,"clouds":[{"cover":"SCT","base":2300},{"cover":"FEW","base":2500},{"cover":"BKN","base":6000}],"obsTime":1784282400},"SBKP":{"icaoId":"SBKP","flightCategory":"VFR","rawOb":"METAR SBKP 171000Z 11003KT CAVOK 12/08 Q1023","temp":12,"dewp":8,"wdir":110,"wspd":3,"visib":"6+","altim":1023,"clouds":[],"obsTime":1784282400},"SBGL":{"icaoId":"SBGL","flightCategory":"VFR","rawOb":"METAR SBGL 171000Z 07002KT CAVOK 13/12 Q1021","temp":13,"dewp":12,"wdir":70,"wspd":2,"visib":"6+","altim":1021,"clouds":[],"obsTime":1784282400},"SBGR":{"icaoId":"SBGR","flightCategory":"MVFR","rawOb":"METAR SBGR 171000Z 07008KT 8000 NSC 13/08 Q1023","temp":13,"dewp":8,"wdir":70,"wspd":8,"visib":4.97,"altim":1023,"clouds":[],"obsTime":1784282400},"SBMA":{"icaoId":"SBMA","flightCategory":"VFR","rawOb":"METAR SBMA 171000Z 16003KT CAVOK 23/21 Q1014","temp":23,"dewp":21,"wdir":160,"wspd":3,"visib":"6+","altim":1014,"clouds":[],"obsTime":1784282400},"SBMQ":{"icaoId":"SBMQ","flightCategory":"MVFR","rawOb":"METAR SBMQ 171000Z 22002KT 8000 BKN021 FEW035TCU 25/24 Q1013","temp":25,"dewp":24,"wdir":220,"wspd":2,"visib":4.97,"altim":1013,"clouds":[{"cover":"BKN","base":2100},{"cover":"FEW","base":3500}],"obsTime":1784282400},"SBPA":{"icaoId":"SBPA","flightCategory":"VFR","rawOb":"METAR SBPA 171000Z 18002KT CAVOK 16/13 Q1009","temp":16,"dewp":13,"wdir":180,"wspd":2,"visib":"6+","altim":1009,"clouds":[],"obsTime":1784282400},"SBCR":{"icaoId":"SBCR","flightCategory":"VFR","rawOb":"METAR SBCR 171100Z 04003KT CAVOK 25/22 Q1011","temp":25,"dewp":22,"wdir":40,"wspd":3,"visib":"6+","altim":1011,"clouds":[],"obsTime":1784286000},"SBFL":{"icaoId":"SBFL","flightCategory":"VFR","rawOb":"METAR SBFL 171000Z 10003KT 9999 FEW002 14/13 Q1017","temp":14,"dewp":13,"wdir":100,"wspd":3,"visib":"6+","altim":1017,"clouds":[{"cover":"FEW","base":200}],"obsTime":1784282400},"SBMO":{"icaoId":"SBMO","flightCategory":"VFR","rawOb":"METAR SBMO 171000Z 14008KT 110V170 9999 FEW019 SCT070 23/21 Q1019","temp":23,"dewp":21,"wdir":140,"wspd":8,"visib":"6+","altim":1019,"clouds":[{"cover":"FEW","base":1900},{"cover":"SCT","base":7000}],"obsTime":1784282400},"SBBR":{"icaoId":"SBBR","flightCategory":"VFR","rawOb":"METAR SBBR 171000Z 12005KT CAVOK 12/08 Q1024","temp":12,"dewp":8,"wdir":120,"wspd":5,"visib":"6+","altim":1024,"clouds":[],"obsTime":1784282400},"SBSL":{"icaoId":"SBSL","flightCategory":"VFR","rawOb":"METAR SBSL 171000Z 09004KT 060V120 9999 FEW012 SCT080 25/24 Q1014","temp":25,"dewp":24,"wdir":90,"wspd":4,"visib":"6+","altim":1014,"clouds":[{"cover":"FEW","base":1200},{"cover":"SCT","base":8000}],"obsTime":1784282400},"SBCB":{"icaoId":"SBCB","flightCategory":"VFR","rawOb":"METAR SBCB 171000Z 08013KT CAVOK 20/12 Q1022","temp":20,"dewp":12,"wdir":80,"wspd":13,"visib":"6+","altim":1022,"clouds":[],"obsTime":1784282400},"SBRF":{"icaoId":"SBRF","flightCategory":"VFR","rawOb":"METAR SBRF 171000Z 17012KT 9999 SCT020 BKN045 25/22 Q1017","temp":25,"dewp":22,"wdir":170,"wspd":12,"visib":"6+","altim":1017,"clouds":[{"cover":"SCT","base":2000},{"cover":"BKN","base":4500}],"obsTime":1784282400},"SBCT":{"icaoId":"SBCT","flightCategory":"VFR","rawOb":"METAR SBCT 171000Z 35002KT 9000 NSC 11/11 Q1022","temp":11,"dewp":11,"wdir":350,"wspd":2,"visib":5.59,"altim":1022,"clouds":[],"obsTime":1784282400},"SBCP":{"icaoId":"SBCP","flightCategory":"VFR","rawOb":"METAR SBCP 171000Z 04003KT 9999 BKN040 17/14 Q1025","temp":17,"dewp":14,"wdir":40,"wspd":3,"visib":"6+","altim":1025,"clouds":[{"cover":"BKN","base":4000}],"obsTime":1784282400},"SBLO":{"icaoId":"SBLO","flightCategory":"VFR","rawOb":"METAR SBLO 171000Z 12003KT 090V150 CAVOK 14/13 Q1020","temp":14,"dewp":13,"wdir":120,"wspd":3,"visib":"6+","altim":1020,"clouds":[],"obsTime":1784282400},"SBVT":{"icaoId":"SBVT","flightCategory":"VFR","rawOb":"METAR SBVT 171000Z 34001KT 9999 BKN045 15/14 Q1025","temp":15,"dewp":14,"wdir":340,"wspd":1,"visib":"6+","altim":1025,"clouds":[{"cover":"BKN","base":4500}],"obsTime":1784282400},"SBTE":{"icaoId":"SBTE","flightCategory":"VFR","rawOb":"METAR SBTE 171000Z 15009KT CAVOK 25/18 Q1015","temp":25,"dewp":18,"wdir":150,"wspd":9,"visib":"6+","altim":1015,"clouds":[],"obsTime":1784282400},"SBFI":{"icaoId":"SBFI","flightCategory":"VFR","rawOb":"METAR SBFI 171000Z 03011KT CAVOK 24/15 Q1010","temp":24,"dewp":15,"wdir":30,"wspd":11,"visib":"6+","altim":1010,"clouds":[],"obsTime":1784282400},"SBCG":{"icaoId":"SBCG","flightCategory":"VFR","rawOb":"METAR SBCG 171000Z 01010KT 9999 FEW020 SCT065 23/17 Q1015","temp":23,"dewp":17,"wdir":10,"wspd":10,"visib":"6+","altim":1015,"clouds":[{"cover":"FEW","base":2000},{"cover":"SCT","base":6500}],"obsTime":1784282400},"SBSN":{"icaoId":"SBSN","flightCategory":"MVFR","rawOb":"METAR SBSN 171000Z 08012KT 6000 -RA SCT013 BKN019 FEW025TCU BKN100 26/24 Q1013","temp":26,"dewp":24,"wdir":80,"wspd":12,"visib":3.73,"altim":1013,"clouds":[{"cover":"SCT","base":1300},{"cover":"BKN","base":1900},{"cover":"FEW","base":2500},{"cover":"BKN","base":10000}],"obsTime":1784282400},"SBME":{"icaoId":"SBME","flightCategory":"VFR","rawOb":"METAR SBME 171000Z 02008KT CAVOK 16/12 Q1024","temp":16,"dewp":12,"wdir":20,"wspd":8,"visib":"6+","altim":1024,"clouds":[],"obsTime":1784282400},"SBMK":{"icaoId":"SBMK","flightCategory":"VFR","rawOb":"METAR SBMK 171000Z 05003KT 9999 FEW030 14/10 Q1024","temp":14,"dewp":10,"wdir":50,"wspd":3,"visib":"6+","altim":1024,"clouds":[{"cover":"FEW","base":3000}],"obsTime":1784282400},"SBUL":{"icaoId":"SBUL","flightCategory":"VFR","rawOb":"METAR SBUL 171000Z 10018KT CAVOK 13/08 Q1024","temp":13,"dewp":8,"wdir":100,"wspd":18,"visib":"6+","altim":1024,"clouds":[],"obsTime":1784282400},"SBUR":{"icaoId":"SBUR","flightCategory":"VFR","rawOb":"METAR SBUR 171000Z 03012G24KT CAVOK 15/07 Q1022","temp":15,"dewp":7,"wdir":30,"wspd":12,"visib":"6+","altim":1022,"clouds":[],"obsTime":1784282400},"SBMG":{"icaoId":"SBMG","flightCategory":"VFR","rawOb":"METAR SBMG 171000Z 03015KT CAVOK 19/12 Q1016","temp":19,"dewp":12,"wdir":30,"wspd":15,"visib":"6+","altim":1016,"clouds":[],"obsTime":1784282400},"SBSP":{"icaoId":"SBSP","flightCategory":"VFR","rawOb":"METAR SBSP 171000Z 06004KT CAVOK 13/09 Q1024","temp":13,"dewp":9,"wdir":60,"wspd":4,"visib":"6+","altim":1024,"clouds":[],"obsTime":1784282400},"SBNT":{"icaoId":"SBNT","flightCategory":"VFR","rawOb":"METAR SBNT 171000Z 19010KT 9999 VCSH FEW016 FEW027TCU SCT050 BKN080 23/21 Q1016","temp":23,"dewp":21,"wdir":190,"wspd":10,"visib":"6+","altim":1016,"clouds":[{"cover":"FEW","base":1600},{"cover":"FEW","base":2700},{"cover":"SCT","base":5000},{"cover":"BKN","base":8000}],"obsTime":1784282400},"SBIL":{"icaoId":"SBIL","flightCategory":"VFR","rawOb":"METAR SBIL 171000Z 23005KT 200V270 9999 SCT018 SCT020 BKN070 20/19 Q1022","temp":20,"dewp":19,"wdir":230,"wspd":5,"visib":"6+","altim":1022,"clouds":[{"cover":"SCT","base":1800},{"cover":"SCT","base":2000},{"cover":"BKN","base":7000}],"obsTime":1784282400},"SBJU":{"icaoId":"SBJU","flightCategory":"VFR","rawOb":"METAR SBJU 171000Z 15005KT 9999 SCT020 21/17 Q1020","temp":21,"dewp":17,"wdir":150,"wspd":5,"visib":"6+","altim":1020,"clouds":[{"cover":"SCT","base":2000}],"obsTime":1784282400},"SBHT":{"icaoId":"SBHT","flightCategory":"VFR","rawOb":"METAR SBHT 171000Z 00000KT 9999 SCT015 BKN080 25/25 Q1014","temp":25,"dewp":25,"wdir":0,"wspd":0,"visib":"6+","altim":1014,"clouds":[{"cover":"SCT","base":1500},{"cover":"BKN","base":8000}],"obsTime":1784282400},"SBTD":{"icaoId":"SBTD","flightCategory":"VFR","rawOb":"METAR SBTD 171100Z /////KT CAVOK 20/12 Q1016","temp":20,"dewp":12,"wdir":null,"wspd":null,"visib":"6+","altim":1016,"clouds":[],"obsTime":1784286000},"SBOI":{"icaoId":"SBOI","flightCategory":"LIFR","rawOb":"SPECI SBOI 170903Z AUTO 00000KT 0700 FG VV002 22/22 Q1014","temp":22,"dewp":22,"wdir":0,"wspd":0,"visib":0.43,"altim":1014,"clouds":[{"cover":"OVX","base":200}],"obsTime":1784278980},"SBSJ":{"icaoId":"SBSJ","flightCategory":"VFR","rawOb":"METAR SBSJ 171000Z 04002KT CAVOK 11/09 Q1024","temp":11,"dewp":9,"wdir":40,"wspd":2,"visib":"6+","altim":1024,"clouds":[],"obsTime":1784282400},"SBAR":{"icaoId":"SBAR","flightCategory":"VFR","rawOb":"METAR SBAR 171000Z 14010KT 9999 FEW025 25/19 Q1019","temp":25,"dewp":19,"wdir":140,"wspd":10,"visib":"6+","altim":1019,"clouds":[{"cover":"FEW","base":2500}],"obsTime":1784282400},"SBPS":{"icaoId":"SBPS","flightCategory":"VFR","rawOb":"METAR SBPS 171000Z 26005KT 9999 SCT020 BKN066 19/17 Q1023","temp":19,"dewp":17,"wdir":260,"wspd":5,"visib":"6+","altim":1023,"clouds":[{"cover":"SCT","base":2000},{"cover":"BKN","base":6600}],"obsTime":1784282400},"SBCJ":{"icaoId":"SBCJ","flightCategory":"VFR","rawOb":"SPECI SBCJ 171015Z 09003KT CAVOK 22/19 Q1017","temp":22,"dewp":19,"wdir":90,"wspd":3,"visib":"6+","altim":1017,"clouds":[],"obsTime":1784283300},"SBTT":{"icaoId":"SBTT","flightCategory":"VFR","rawOb":"METAR SBTT 171100Z 00000KT 9999 FEW017 SCT060 23/22 Q1014","temp":23,"dewp":22,"wdir":0,"wspd":0,"visib":"6+","altim":1014,"clouds":[{"cover":"FEW","base":1700},{"cover":"SCT","base":6000}],"obsTime":1784286000},"SBPB":{"icaoId":"SBPB","flightCategory":"VFR","rawOb":"SPECI SBPB 171015Z 11006KT 9999 FEW020 27/23 Q1014","temp":27,"dewp":23,"wdir":110,"wspd":6,"visib":"6+","altim":1014,"clouds":[{"cover":"FEW","base":2000}],"obsTime":1784283300},"SBPL":{"icaoId":"SBPL","flightCategory":"MVFR","rawOb":"METAR SBPL 171000Z 12010KT 9999 BKN020 21/16 Q1020","temp":21,"dewp":16,"wdir":120,"wspd":10,"visib":"6+","altim":1020,"clouds":[{"cover":"BKN","base":2000}],"obsTime":1784282400},"SBUY":{"icaoId":"SBUY","flightCategory":"IFR","rawOb":"METAR SBUY 171100Z 00000KT 2000 BR FEW010 22/22 Q1012","temp":22,"dewp":22,"wdir":0,"wspd":0,"visib":1.24,"altim":1012,"clouds":[{"cover":"FEW","base":1000}],"obsTime":1784286000},"SBIP":{"icaoId":"SBIP","flightCategory":"VFR","rawOb":"METAR SBIP 171000Z AUTO 18001KT 9999 FEW030 OVC034 16/16 Q1026","temp":16,"dewp":16,"wdir":180,"wspd":1,"visib":"6+","altim":1026,"clouds":[{"cover":"FEW","base":3000},{"cover":"OVC","base":3400}],"obsTime":1784282400},"SBSC":{"icaoId":"SBSC","flightCategory":"VFR","rawOb":"METAR SBSC 171000Z 35013G23KT CAVOK 19/12 Q1022","temp":19,"dewp":12,"wdir":350,"wspd":13,"visib":"6+","altim":1022,"clouds":[],"obsTime":1784282400},"SBSR":{"icaoId":"SBSR","flightCategory":"VFR","rawOb":"METAR SBSR 171000Z 07010KT CAVOK 16/09 Q1021","temp":16,"dewp":9,"wdir":70,"wspd":10,"visib":"6+","altim":1021,"clouds":[],"obsTime":1784282400},"SBSM":{"icaoId":"SBSM","flightCategory":"VFR","rawOb":"METAR SBSM 171000Z 02016G26KT CAVOK 24/14 Q1006 WS ALL RWY","temp":24,"dewp":14,"wdir":20,"wspd":16,"visib":"6+","altim":1006,"clouds":[],"obsTime":1784282400},"SBCA":{"icaoId":"SBCA","flightCategory":"VFR","rawOb":"METAR SBCA 171000Z 03021G31KT CAVOK 19/12 Q1015","temp":19,"dewp":12,"wdir":30,"wspd":21,"visib":"6+","altim":1015,"clouds":[],"obsTime":1784282400},"SBTU":{"icaoId":"SBTU","flightCategory":"VFR","rawOb":"METAR SBTU 171000Z AUTO 26004KT 9999 // FEW068/// ///// Q1015","temp":null,"dewp":null,"wdir":260,"wspd":4,"visib":"6+","altim":1015,"clouds":[{"cover":"FEW","base":6800}],"obsTime":1784282400},"SBCO":{"icaoId":"SBCO","flightCategory":"VFR","rawOb":"METAR SBCO 171000Z 09004KT CAVOK 12/12 Q1010","temp":12,"dewp":12,"wdir":90,"wspd":4,"visib":"6+","altim":1010,"clouds":[],"obsTime":1784282400},"SBKG":{"icaoId":"SBKG","flightCategory":"MVFR","rawOb":"METAR SBKG 171000Z 17006KT 9999 OVC010 20/19 Q1020","temp":20,"dewp":19,"wdir":170,"wspd":6,"visib":"6+","altim":1020,"clouds":[{"cover":"OVC","base":1000}],"obsTime":1784282400},"SBBH":{"icaoId":"SBBH","flightCategory":"VFR","rawOb":"METAR SBBH 171000Z 00000KT CAVOK 10/09 Q1026","temp":10,"dewp":9,"wdir":0,"wspd":0,"visib":"6+","altim":1026,"clouds":[],"obsTime":1784282400},"SBBU":{"icaoId":"SBBU","flightCategory":"VFR","rawOb":"METAR SBBU 171000Z 07008KT CAVOK 16/12 Q1021","temp":16,"dewp":12,"wdir":70,"wspd":8,"visib":"6+","altim":1021,"clouds":[],"obsTime":1784282400},"SBDN":{"icaoId":"SBDN","flightCategory":"VFR","rawOb":"METAR SBDN 171000Z 05010KT CAVOK 17/11 Q1018","temp":17,"dewp":11,"wdir":50,"wspd":10,"visib":"6+","altim":1018,"clouds":[],"obsTime":1784282400},"SBES":{"icaoId":"SBES","flightCategory":"VFR","rawOb":"METAR SBES 171000Z 03006KT 360V080 CAVOK 17/// Q1022","temp":null,"dewp":null,"wdir":30,"wspd":6,"visib":"6+","altim":1022,"clouds":[],"obsTime":1784282400},"SBJP":{"icaoId":"SBJP","flightCategory":"IFR","rawOb":"METAR SBJP 171000Z 22009KT 2000 -RA BKN008 BKN017 BKN070 23/22 Q1017","temp":23,"dewp":22,"wdir":220,"wspd":9,"visib":1.24,"altim":1017,"clouds":[{"cover":"BKN","base":800},{"cover":"BKN","base":1700},{"cover":"BKN","base":7000}],"obsTime":1784282400},"SBMT":{"icaoId":"SBMT","flightCategory":"MVFR","rawOb":"METAR SBMT 171000Z 06003KT 7000 3000SE NSC 11/09 Q1023","temp":11,"dewp":9,"wdir":60,"wspd":3,"visib":4.35,"altim":1023,"clouds":[],"obsTime":1784282400},"SBJV":{"icaoId":"SBJV","flightCategory":"LIFR","rawOb":"METAR SBJV 171000Z 26002KT 1200 R33/P2000 -DZ OVC002 16/16 Q1018","temp":16,"dewp":16,"wdir":260,"wspd":2,"visib":0.75,"altim":1018,"clouds":[{"cover":"OVC","base":200}],"obsTime":1784282400},"SBPF":{"icaoId":"SBPF","flightCategory":"VFR","rawOb":"METAR SBPF 171000Z 07008KT CAVOK 16/10 Q1013","temp":16,"dewp":10,"wdir":70,"wspd":8,"visib":"6+","altim":1013,"clouds":[],"obsTime":1784282400},"SBLE":{"icaoId":"SBLE","flightCategory":"MVFR","rawOb":"METAR SBLE 171000Z AUTO 16003KT 130V200 9999 OVC023 ///// Q1024","temp":null,"dewp":null,"wdir":160,"wspd":3,"visib":"6+","altim":1024,"clouds":[{"cover":"OVC","base":2300}],"obsTime":1784282400},"SBAN":{"icaoId":"SBAN","flightCategory":"VFR","rawOb":"METAR SBAN 171000Z 11006KT CAVOK 12/07 Q1023","temp":12,"dewp":7,"wdir":110,"wspd":6,"visib":"6+","altim":1023,"clouds":[],"obsTime":1784282400},"SBAF":{"icaoId":"SBAF","flightCategory":"VFR","rawOb":"METAR SBAF 171000Z 25002KT CAVOK 10/10 Q1021","temp":10,"dewp":10,"wdir":250,"wspd":2,"visib":"6+","altim":1021,"clouds":[],"obsTime":1784282400},"SBGW":{"icaoId":"SBGW","flightCategory":"VFR","rawOb":"METAR SBGW 171000Z 08002KT CAVOK 10/07 Q1024","temp":10,"dewp":7,"wdir":80,"wspd":2,"visib":"6+","altim":1024,"clouds":[],"obsTime":1784282400},"SBJR":{"icaoId":"SBJR","flightCategory":"VFR","rawOb":"METAR SBJR 171000Z 02004KT CAVOK 16/13 Q1021","temp":16,"dewp":13,"wdir":20,"wspd":4,"visib":"6+","altim":1021,"clouds":[],"obsTime":1784282400},"SBLS":{"icaoId":"SBLS","flightCategory":"VFR","rawOb":"METAR SBLS 171000Z 14006KT 9999 FEW030 12/08 Q1026","temp":12,"dewp":8,"wdir":140,"wspd":6,"visib":"6+","altim":1026,"clouds":[{"cover":"FEW","base":3000}],"obsTime":1784282400},"SBTA":{"icaoId":"SBTA","flightCategory":"VFR","rawOb":"METAR SBTA 171000Z VRB01KT CAVOK 07/06 Q1023","temp":7,"dewp":6,"wdir":"VRB","wspd":1,"visib":"6+","altim":1023,"clouds":[],"obsTime":1784282400}}}