{"updated":1776275829,"count":86,"data":{"SBFI":{"icaoId":"SBFI","flightCategory":"VFR","rawOb":"METAR SBFI 151600Z 30008KT 9999 SCT011 FEW030TCU OVC090 23/21 Q1013","temp":23,"dewp":21,"wdir":300,"wspd":8,"visib":"6+","altim":1013,"clouds":[{"cover":"SCT","base":1100},{"cover":"FEW","base":3000},{"cover":"OVC","base":9000}],"obsTime":1776268800},"SBLO":{"icaoId":"SBLO","flightCategory":"VFR","rawOb":"METAR SBLO 151600Z 09008KT 060V120 CAVOK 27/16 Q1016","temp":27,"dewp":16,"wdir":90,"wspd":8,"visib":"6+","altim":1016,"clouds":[],"obsTime":1776268800},"SBMA":{"icaoId":"SBMA","flightCategory":"MVFR","rawOb":"METAR SBMA 151600Z 08008KT 9999 BKN020 BKN100 30/25 Q1010","temp":30,"dewp":25,"wdir":80,"wspd":8,"visib":"6+","altim":1010,"clouds":[{"cover":"BKN","base":2000},{"cover":"BKN","base":10000}],"obsTime":1776268800},"SBCF":{"icaoId":"SBCF","flightCategory":"VFR","rawOb":"METAR SBCF 151600Z 21005KT 160V290 9999 SCT045 25/16 Q1018","temp":25,"dewp":16,"wdir":210,"wspd":5,"visib":"6+","altim":1018,"clouds":[{"cover":"SCT","base":4500}],"obsTime":1776268800},"SBCG":{"icaoId":"SBCG","flightCategory":"VFR","rawOb":"METAR SBCG 151600Z 33010KT 310V010 9999 BKN045 BKN100 32/20 Q1013","temp":32,"dewp":20,"wdir":330,"wspd":10,"visib":"6+","altim":1013,"clouds":[{"cover":"BKN","base":4500},{"cover":"BKN","base":10000}],"obsTime":1776268800},"SBME":{"icaoId":"SBME","flightCategory":"VFR","rawOb":"METAR SBME 151600Z 19007KT 9999 SCT033 30/20 Q1014","temp":30,"dewp":20,"wdir":190,"wspd":7,"visib":"6+","altim":1014,"clouds":[{"cover":"SCT","base":3300}],"obsTime":1776268800},"SBMG":{"icaoId":"SBMG","flightCategory":"VFR","rawOb":"METAR SBMG 151600Z 02011KT 350V050 9999 FEW045 28/17 Q1015","temp":28,"dewp":17,"wdir":20,"wspd":11,"visib":"6+","altim":1015,"clouds":[{"cover":"FEW","base":4500}],"obsTime":1776268800},"SBMK":{"icaoId":"SBMK","flightCategory":"VFR","rawOb":"METAR SBMK 151600Z 07004KT 9999 BKN040 28/17 Q1016","temp":28,"dewp":17,"wdir":70,"wspd":4,"visib":"6+","altim":1016,"clouds":[{"cover":"BKN","base":4000}],"obsTime":1776268800},"SBFL":{"icaoId":"SBFL","flightCategory":"MVFR","rawOb":"METAR SBFL 151600Z 34006KT 9999 BKN020 27/21 Q1016","temp":27,"dewp":21,"wdir":340,"wspd":6,"visib":"6+","altim":1016,"clouds":[{"cover":"BKN","base":2000}],"obsTime":1776268800},"SBMO":{"icaoId":"SBMO","flightCategory":"MVFR","rawOb":"METAR SBMO 151600Z 11008KT 9999 BKN030 29/23 Q1010","temp":29,"dewp":23,"wdir":110,"wspd":8,"visib":"6+","altim":1010,"clouds":[{"cover":"BKN","base":3000}],"obsTime":1776268800},"SBBV":{"icaoId":"SBBV","flightCategory":"VFR","rawOb":"METAR SBBV 151600Z 12010KT 9999 BKN040 33/21 Q1010","temp":33,"dewp":21,"wdir":120,"wspd":10,"visib":"6+","altim":1010,"clouds":[{"cover":"BKN","base":4000}],"obsTime":1776268800},"SBMQ":{"icaoId":"SBMQ","flightCategory":"MVFR","rawOb":"METAR SBMQ 151600Z 05013KT 8000 -RA SCT008 BKN017 FEW025TCU OVC070 26/25 Q1011 RETS","temp":26,"dewp":25,"wdir":50,"wspd":13,"visib":4.97,"altim":1011,"clouds":[{"cover":"SCT","base":800},{"cover":"BKN","base":1700},{"cover":"FEW","base":2500},{"cover":"OVC","base":7000}],"obsTime":1776268800},"SBAT":{"icaoId":"SBAT","flightCategory":"VFR","rawOb":"METAR SBAT 151600Z 00000KT 9999 SCT030 34/24 Q1011","temp":34,"dewp":24,"wdir":0,"wspd":0,"visib":"6+","altim":1011,"clouds":[{"cover":"SCT","base":3000}],"obsTime":1776268800},"SBNT":{"icaoId":"SBNT","flightCategory":"MVFR","rawOb":"METAR SBNT 151600Z 14012KT 9999 VCSH SCT018 BKN023 FEW025TCU 28/24 Q1009","temp":28,"dewp":24,"wdir":140,"wspd":12,"visib":"6+","altim":1009,"clouds":[{"cover":"SCT","base":1800},{"cover":"BKN","base":2300},{"cover":"FEW","base":2500}],"obsTime":1776268800},"SBFZ":{"icaoId":"SBFZ","flightCategory":"VFR","rawOb":"METAR SBFZ 151600Z 12011KT 9999 VCSH FEW010 SCT018 FEW030TCU BKN100 27/24 Q1009","temp":27,"dewp":24,"wdir":120,"wspd":11,"visib":"6+","altim":1009,"clouds":[{"cover":"FEW","base":1000},{"cover":"SCT","base":1800},{"cover":"FEW","base":3000},{"cover":"BKN","base":10000}],"obsTime":1776268800},"SBPA":{"icaoId":"SBPA","flightCategory":"VFR","rawOb":"METAR SBPA 151600Z 07007KT 010V100 9999 FEW030 28/18 Q1013","temp":28,"dewp":18,"wdir":70,"wspd":7,"visib":"6+","altim":1013,"clouds":[{"cover":"FEW","base":3000}],"obsTime":1776268800},"SBCP":{"icaoId":"SBCP","flightCategory":"MVFR","rawOb":"METAR SBCP 151600Z 21010KT 9999 BKN020 28/19 Q1014","temp":28,"dewp":19,"wdir":210,"wspd":10,"visib":"6+","altim":1014,"clouds":[{"cover":"BKN","base":2000}],"obsTime":1776268800},"SBPJ":{"icaoId":"SBPJ","flightCategory":"VFR","rawOb":"METAR SBPJ 151600Z 08005KT 040V130 9999 BKN038 32/22 Q1011","temp":32,"dewp":22,"wdir":80,"wspd":5,"visib":"6+","altim":1011,"clouds":[{"cover":"BKN","base":3800}],"obsTime":1776268800},"SBPV":{"icaoId":"SBPV","flightCategory":"VFR","rawOb":"METAR SBPV 151600Z 01005KT 9999 SCT020 30/26 Q1010","temp":30,"dewp":26,"wdir":10,"wspd":5,"visib":"6+","altim":1010,"clouds":[{"cover":"SCT","base":2000}],"obsTime":1776268800},"SBGL":{"icaoId":"SBGL","flightCategory":"VFR","rawOb":"METAR SBGL 151600Z 23002KT 9999 SCT030 28/19 Q1015","temp":28,"dewp":19,"wdir":230,"wspd":2,"visib":"6+","altim":1015,"clouds":[{"cover":"SCT","base":3000}],"obsTime":1776268800},"SBCB":{"icaoId":"SBCB","flightCategory":"VFR","rawOb":"METAR SBCB 151600Z 25010KT 9999 SCT030 26/21 Q1016","temp":26,"dewp":21,"wdir":250,"wspd":10,"visib":"6+","altim":1016,"clouds":[{"cover":"SCT","base":3000}],"obsTime":1776268800},"SBRB":{"icaoId":"SBRB","flightCategory":"MVFR","rawOb":"METAR SBRB 151600Z 06004KT 360V120 9999 BKN025 SCT100 30/25 Q1010","temp":30,"dewp":25,"wdir":60,"wspd":4,"visib":"6+","altim":1010,"clouds":[{"cover":"BKN","base":2500},{"cover":"SCT","base":10000}],"obsTime":1776268800},"SBGO":{"icaoId":"SBGO","flightCategory":"VFR","rawOb":"METAR SBGO 151600Z 12007KT 9999 FEW040 FEW045TCU BKN100 27/19 Q1016","temp":27,"dewp":19,"wdir":120,"wspd":7,"visib":"6+","altim":1016,"clouds":[{"cover":"FEW","base":4000},{"cover":"FEW","base":4500},{"cover":"BKN","base":10000}],"obsTime":1776268800},"SBRF":{"icaoId":"SBRF","flightCategory":"VFR","rawOb":"METAR SBRF 151600Z 13011KT 9999 SCT026 30/24 Q1010","temp":30,"dewp":24,"wdir":130,"wspd":11,"visib":"6+","altim":1010,"clouds":[{"cover":"SCT","base":2600}],"obsTime":1776268800},"SBCR":{"icaoId":"SBCR","flightCategory":"VFR","rawOb":"METAR SBCR 151600Z 04009KT 9999 SCT040 FEW045TCU SCT100 27/24 Q1011","temp":27,"dewp":24,"wdir":40,"wspd":9,"visib":"6+","altim":1011,"clouds":[{"cover":"SCT","base":4000},{"cover":"FEW","base":4500},{"cover":"SCT","base":10000}],"obsTime":1776268800},"SBSG":{"icaoId":"SBSG","flightCategory":"MVFR","rawOb":"METAR SBSG 151600Z 16006KT 110V210 9999 FEW010 BKN015 FEW020TCU 28/24 Q1010","temp":28,"dewp":24,"wdir":160,"wspd":6,"visib":"6+","altim":1010,"clouds":[{"cover":"FEW","base":1000},{"cover":"BKN","base":1500},{"cover":"FEW","base":2000}],"obsTime":1776268800},"SBSL":{"icaoId":"SBSL","flightCategory":"VFR","rawOb":"METAR SBSL 151600Z 10014KT 9999 SCT030 30/24 Q1009","temp":30,"dewp":24,"wdir":100,"wspd":14,"visib":"6+","altim":1009,"clouds":[{"cover":"SCT","base":3000}],"obsTime":1776268800},"SBGR":{"icaoId":"SBGR","flightCategory":"VFR","rawOb":"METAR SBGR 151600Z 07007KT CAVOK 25/14 Q1018","temp":25,"dewp":14,"wdir":70,"wspd":7,"visib":"6+","altim":1018,"clouds":[],"obsTime":1776268800},"SBHT":{"icaoId":"SBHT","flightCategory":"MVFR","rawOb":"METAR SBHT 151600Z 02003KT 5000 -RA BKN012 FEW020TCU OVC080 24/24 Q1011","temp":24,"dewp":24,"wdir":20,"wspd":3,"visib":3.11,"altim":1011,"clouds":[{"cover":"BKN","base":1200},{"cover":"FEW","base":2000},{"cover":"OVC","base":8000}],"obsTime":1776268800},"SBSN":{"icaoId":"SBSN","flightCategory":"VFR","rawOb":"METAR SBSN 151600Z 03006KT 9999 SCT021 FEW025TCU 30/26 Q1010","temp":30,"dewp":26,"wdir":30,"wspd":6,"visib":"6+","altim":1010,"clouds":[{"cover":"SCT","base":2100},{"cover":"FEW","base":2500}],"obsTime":1776268800},"SBBE":{"icaoId":"SBBE","flightCategory":"VFR","rawOb":"METAR SBBE 151600Z 11005KT 9999 SCT023 FEW024TCU 29/24 Q1010","temp":29,"dewp":24,"wdir":110,"wspd":5,"visib":"6+","altim":1010,"clouds":[{"cover":"SCT","base":2300},{"cover":"FEW","base":2400}],"obsTime":1776268800},"SBSP":{"icaoId":"SBSP","flightCategory":"VFR","rawOb":"METAR SBSP 151600Z 09006KT 010V150 CAVOK 25/12 Q1019","temp":25,"dewp":12,"wdir":90,"wspd":6,"visib":"6+","altim":1019,"clouds":[],"obsTime":1776268800},"SBSV":{"icaoId":"SBSV","flightCategory":"VFR","rawOb":"METAR SBSV 151600Z 16009KT 9999 SCT028 30/22 Q1011","temp":30,"dewp":22,"wdir":160,"wspd":9,"visib":"6+","altim":1011,"clouds":[{"cover":"SCT","base":2800}],"obsTime":1776268800},"SBIL":{"icaoId":"SBIL","flightCategory":"VFR","rawOb":"METAR SBIL 151600Z 17008KT 130V200 9999 FEW023 29/22 Q1012","temp":29,"dewp":22,"wdir":170,"wspd":8,"visib":"6+","altim":1012,"clouds":[{"cover":"FEW","base":2300}],"obsTime":1776268800},"SBTE":{"icaoId":"SBTE","flightCategory":"MVFR","rawOb":"METAR SBTE 151600Z 11005KT 9999 BKN025 31/24 Q1009","temp":31,"dewp":24,"wdir":110,"wspd":5,"visib":"6+","altim":1009,"clouds":[{"cover":"BKN","base":2500}],"obsTime":1776268800},"SBCT":{"icaoId":"SBCT","flightCategory":"MVFR","rawOb":"METAR SBCT 151600Z 08012KT 9999 BKN030 22/15 Q1020","temp":22,"dewp":15,"wdir":80,"wspd":12,"visib":"6+","altim":1020,"clouds":[{"cover":"BKN","base":3000}],"obsTime":1776268800},"SBUL":{"icaoId":"SBUL","flightCategory":"VFR","rawOb":"METAR SBUL 151600Z 08007KT 9999 BKN035 27/17 Q1018","temp":27,"dewp":17,"wdir":80,"wspd":7,"visib":"6+","altim":1018,"clouds":[{"cover":"BKN","base":3500}],"obsTime":1776268800},"SBBR":{"icaoId":"SBBR","flightCategory":"VFR","rawOb":"METAR SBBR 151600Z 05005KT 010V090 9999 SCT040 FEW045TCU BKN100 26/17 Q1018","temp":26,"dewp":17,"wdir":50,"wspd":5,"visib":"6+","altim":1018,"clouds":[{"cover":"SCT","base":4000},{"cover":"FEW","base":4500},{"cover":"BKN","base":10000}],"obsTime":1776268800},"SBJU":{"icaoId":"SBJU","flightCategory":"MVFR","rawOb":"METAR SBJU 151600Z 12005KT 9999 BKN020 28/21 Q1012","temp":28,"dewp":21,"wdir":120,"wspd":5,"visib":"6+","altim":1012,"clouds":[{"cover":"BKN","base":2000}],"obsTime":1776268800},"SBUR":{"icaoId":"SBUR","flightCategory":"VFR","rawOb":"METAR SBUR 151600Z 06003KT 9999 BKN048 27/15 Q1017","temp":27,"dewp":15,"wdir":60,"wspd":3,"visib":"6+","altim":1017,"clouds":[{"cover":"BKN","base":4800}],"obsTime":1776268800},"SBVT":{"icaoId":"SBVT","flightCategory":"VFR","rawOb":"METAR SBVT 151600Z 17014KT 9999 FEW035 29/20 Q1014","temp":29,"dewp":20,"wdir":170,"wspd":14,"visib":"6+","altim":1014,"clouds":[{"cover":"FEW","base":3500}],"obsTime":1776268800},"SBKP":{"icaoId":"SBKP","flightCategory":"VFR","rawOb":"METAR SBKP 151600Z 00000KT 9999 SCT030 28/14 Q1017","temp":28,"dewp":14,"wdir":0,"wspd":0,"visib":"6+","altim":1017,"clouds":[{"cover":"SCT","base":3000}],"obsTime":1776268800},"SBEG":{"icaoId":"SBEG","flightCategory":"MVFR","rawOb":"METAR SBEG 151600Z VRB05KT 9999 BKN025 FEW030TCU 31/25 Q1010","temp":31,"dewp":25,"wdir":"VRB","wspd":5,"visib":"6+","altim":1010,"clouds":[{"cover":"BKN","base":2500},{"cover":"FEW","base":3000}],"obsTime":1776268800},"SBCZ":{"icaoId":"SBCZ","flightCategory":"MVFR","rawOb":"METAR SBCZ 151600Z 03003KT 9999 BKN030 32/24 Q1009","temp":32,"dewp":24,"wdir":30,"wspd":3,"visib":"6+","altim":1009,"clouds":[{"cover":"BKN","base":3000}],"obsTime":1776268800},"SBSM":{"icaoId":"SBSM","flightCategory":"VFR","rawOb":"METAR SBSM 151600Z 10008KT 9999 FEW025 28/20 Q1010","temp":28,"dewp":20,"wdir":100,"wspd":8,"visib":"6+","altim":1010,"clouds":[{"cover":"FEW","base":2500}],"obsTime":1776268800},"SBAR":{"icaoId":"SBAR","flightCategory":"VFR","rawOb":"METAR SBAR 151600Z 11009KT 9999 SCT025 SCT030 BKN100 29/24 Q1010","temp":29,"dewp":24,"wdir":110,"wspd":9,"visib":"6+","altim":1010,"clouds":[{"cover":"SCT","base":2500},{"cover":"SCT","base":3000},{"cover":"BKN","base":10000}],"obsTime":1776268800},"SBAU":{"icaoId":"SBAU","flightCategory":"VFR","rawOb":"METAR SBAU 151600Z 03006KT CAVOK 31/19 Q1019","temp":31,"dewp":19,"wdir":30,"wspd":6,"visib":"6+","altim":1019,"clouds":[],"obsTime":1776268800},"SBBH":{"icaoId":"SBBH","flightCategory":"VFR","rawOb":"METAR SBBH 151600Z 00000KT 9999 BKN040 25/16 Q1018","temp":25,"dewp":16,"wdir":0,"wspd":0,"visib":"6+","altim":1018,"clouds":[{"cover":"BKN","base":4000}],"obsTime":1776268800},"SBBQ":{"icaoId":"SBBQ","flightCategory":"VFR","rawOb":"METAR SBBQ 151600Z 10006KT 9999 BKN040 23/12 Q1021","temp":23,"dewp":12,"wdir":100,"wspd":6,"visib":"6+","altim":1021,"clouds":[{"cover":"BKN","base":4000}],"obsTime":1776268800},"SBBU":{"icaoId":"SBBU","flightCategory":"VFR","rawOb":"METAR SBBU 151600Z 06007KT CAVOK 29/17 Q1016","temp":29,"dewp":17,"wdir":60,"wspd":7,"visib":"6+","altim":1016,"clouds":[],"obsTime":1776268800},"SBCA":{"icaoId":"SBCA","flightCategory":"VFR","rawOb":"METAR SBCA 151600Z 03009KT 9999 VCSH BKN040 BKN080 22/17 Q1017","temp":22,"dewp":17,"wdir":30,"wspd":9,"visib":"6+","altim":1017,"clouds":[{"cover":"BKN","base":4000},{"cover":"BKN","base":8000}],"obsTime":1776268800},"SBCC":{"icaoId":"SBCC","flightCategory":"VFR","rawOb":"METAR SBCC 151600Z 05007KT 9999 SCT025 SCT100 30/21 Q1012","temp":30,"dewp":21,"wdir":50,"wspd":7,"visib":"6+","altim":1012,"clouds":[{"cover":"SCT","base":2500},{"cover":"SCT","base":10000}],"obsTime":1776268800},"SBCJ":{"icaoId":"SBCJ","flightCategory":"VFR","rawOb":"METAR SBCJ 151600Z 09004KT 9999 SCT020 28/23 Q1015","temp":28,"dewp":23,"wdir":90,"wspd":4,"visib":"6+","altim":1015,"clouds":[{"cover":"SCT","base":2000}],"obsTime":1776268800},"SBCO":{"icaoId":"SBCO","flightCategory":"VFR","rawOb":"METAR SBCO 151600Z 07006KT 030V100 CAVOK 28/18 Q1013","temp":28,"dewp":18,"wdir":70,"wspd":6,"visib":"6+","altim":1013,"clouds":[],"obsTime":1776268800},"SBDN":{"icaoId":"SBDN","flightCategory":"VFR","rawOb":"METAR SBDN 151600Z 06007KT CAVOK 31/17 Q1014","temp":31,"dewp":17,"wdir":60,"wspd":7,"visib":"6+","altim":1014,"clouds":[],"obsTime":1776268800},"SBES":{"icaoId":"SBES","flightCategory":"VFR","rawOb":"METAR SBES 151600Z VRB08KT 9999 FEW025 27/// Q1015","temp":null,"dewp":null,"wdir":"VRB","wspd":8,"visib":"6+","altim":1015,"clouds":[{"cover":"FEW","base":2500}],"obsTime":1776268800},"SBGM":{"icaoId":"SBGM","flightCategory":"VFR","rawOb":"METAR SBGM 151600Z 32006KT 9999 SCT020 SCT040 30/24 Q1011","temp":30,"dewp":24,"wdir":320,"wspd":6,"visib":"6+","altim":1011,"clouds":[{"cover":"SCT","base":2000},{"cover":"SCT","base":4000}],"obsTime":1776268800},"SBIP":{"icaoId":"SBIP","flightCategory":"VFR","rawOb":"METAR SBIP 151600Z AUTO VRB03KT CAVOK 29/18 Q1015","temp":29,"dewp":18,"wdir":"VRB","wspd":3,"visib":"6+","altim":1015,"clouds":[],"obsTime":1776268800},"SBKG":{"icaoId":"SBKG","flightCategory":"MVFR","rawOb":"METAR SBKG 151600Z 10006KT 060V140 9999 BKN026 FEW028TCU 29/22 Q1012","temp":29,"dewp":22,"wdir":100,"wspd":6,"visib":"6+","altim":1012,"clouds":[{"cover":"BKN","base":2600},{"cover":"FEW","base":2800}],"obsTime":1776268800},"SBOI":{"icaoId":"SBOI","flightCategory":"VFR","rawOb":"METAR SBOI 151700Z AUTO 04010KT 9999 FEW028 SCT047 31/25 Q1009","temp":31,"dewp":25,"wdir":40,"wspd":10,"visib":"6+","altim":1009,"clouds":[{"cover":"FEW","base":2800},{"cover":"SCT","base":4700}],"obsTime":1776272400},"SBPB":{"icaoId":"SBPB","flightCategory":"VFR","rawOb":"METAR SBPB 151600Z 06012KT 9999 FEW020 BKN100 32/26 Q1008","temp":32,"dewp":26,"wdir":60,"wspd":12,"visib":"6+","altim":1008,"clouds":[{"cover":"FEW","base":2000},{"cover":"BKN","base":10000}],"obsTime":1776268800},"SBPL":{"icaoId":"SBPL","flightCategory":"VFR","rawOb":"METAR SBPL 151600Z 15007KT 9999 SCT030 BKN070 30/21 Q1012","temp":30,"dewp":21,"wdir":150,"wspd":7,"visib":"6+","altim":1012,"clouds":[{"cover":"SCT","base":3000},{"cover":"BKN","base":7000}],"obsTime":1776268800},"SBPP":{"icaoId":"SBPP","flightCategory":"MVFR","rawOb":"METAR SBPP 151600Z 17013KT 9999 BKN020 30/11 Q1015","temp":30,"dewp":11,"wdir":170,"wspd":13,"visib":"6+","altim":1015,"clouds":[{"cover":"BKN","base":2000}],"obsTime":1776268800},"SBPS":{"icaoId":"SBPS","flightCategory":"VFR","rawOb":"METAR SBPS 151600Z 13007KT 090V180 9999 SCT025 FEW030TCU 28/21 Q1013","temp":28,"dewp":21,"wdir":130,"wspd":7,"visib":"6+","altim":1013,"clouds":[{"cover":"SCT","base":2500},{"cover":"FEW","base":3000}],"obsTime":1776268800},"SBSC":{"icaoId":"SBSC","flightCategory":"VFR","rawOb":"METAR SBSC 151600Z 16004KT 9999 FEW030 BKN050 26/19 Q1016","temp":26,"dewp":19,"wdir":160,"wspd":4,"visib":"6+","altim":1016,"clouds":[{"cover":"FEW","base":3000},{"cover":"BKN","base":5000}],"obsTime":1776268800},"SBSJ":{"icaoId":"SBSJ","flightCategory":"VFR","rawOb":"METAR SBSJ 151600Z 03005KT CAVOK 26/13 Q1018","temp":26,"dewp":13,"wdir":30,"wspd":5,"visib":"6+","altim":1018,"clouds":[],"obsTime":1776268800},"SBSR":{"icaoId":"SBSR","flightCategory":"VFR","rawOb":"METAR SBSR 151600Z 04010KT CAVOK 30/16 Q1015","temp":30,"dewp":16,"wdir":40,"wspd":10,"visib":"6+","altim":1015,"clouds":[],"obsTime":1776268800},"SBTF":{"icaoId":"SBTF","flightCategory":"VFR","rawOb":"METAR SBTF 151600Z 06006KT 9999 FEW014 32/25 Q1009","temp":32,"dewp":25,"wdir":60,"wspd":6,"visib":"6+","altim":1009,"clouds":[{"cover":"FEW","base":1400}],"obsTime":1776268800},"SBTT":{"icaoId":"SBTT","flightCategory":"VFR","rawOb":"METAR SBTT 151600Z 13006KT 020V180 9999 SCT023 31/23 Q1010","temp":31,"dewp":23,"wdir":130,"wspd":6,"visib":"6+","altim":1010,"clouds":[{"cover":"SCT","base":2300}],"obsTime":1776268800},"SBUY":{"icaoId":"SBUY","flightCategory":"MVFR","rawOb":"METAR SBUY 151600Z 17006KT 9999 BKN025 29/24 Q1009","temp":29,"dewp":24,"wdir":170,"wspd":6,"visib":"6+","altim":1009,"clouds":[{"cover":"BKN","base":2500}],"obsTime":1776268800},"SBVH":{"icaoId":"SBVH","flightCategory":"MVFR","rawOb":"METAR SBVH 151600Z 31005KT 9999 BKN025 29/24 Q1013","temp":29,"dewp":24,"wdir":310,"wspd":5,"visib":"6+","altim":1013,"clouds":[{"cover":"BKN","base":2500}],"obsTime":1776268800},"SBAX":{"icaoId":"SBAX","flightCategory":"VFR","rawOb":"METAR SBAX 151600Z 08003KT 9999 SCT023 26/15 Q1019","temp":26,"dewp":15,"wdir":80,"wspd":3,"visib":"6+","altim":1019,"clouds":[{"cover":"SCT","base":2300}],"obsTime":1776268800},"SBTD":{"icaoId":"SBTD","flightCategory":"VFR","rawOb":"METAR SBTD 151600Z /////KT 9999 FEW030 FEW035TCU SCT080 24/17 Q1015","temp":24,"dewp":17,"wdir":null,"wspd":null,"visib":"6+","altim":1015,"clouds":[{"cover":"FEW","base":3000},{"cover":"FEW","base":3500},{"cover":"SCT","base":8000}],"obsTime":1776268800},"SBAN":{"icaoId":"SBAN","flightCategory":"LIFR","rawOb":"METAR SBAN 151600Z 23008KT 1500 R06L/P2000 R24R/P2000 -RA BR FEW004 BKN020 FEW030TCU BKN080 20/18 Q1018","temp":20,"dewp":18,"wdir":230,"wspd":8,"visib":0.93,"altim":1018,"clouds":[{"cover":"FEW","base":400},{"cover":"BKN","base":2000},{"cover":"FEW","base":3000},{"cover":"BKN","base":8000}],"obsTime":1776268800},"SBLS":{"icaoId":"SBLS","flightCategory":"VFR","rawOb":"METAR SBLS 151600Z 21004KT 130V230 9999 SCT030 25/14 Q1018","temp":25,"dewp":14,"wdir":210,"wspd":4,"visib":"6+","altim":1018,"clouds":[{"cover":"SCT","base":3000}],"obsTime":1776268800},"SBIH":{"icaoId":"SBIH","flightCategory":"VFR","rawOb":"METAR SBIH 151600Z 10004KT 9999 SCT018 FEW025TCU 32/25 Q1009","temp":32,"dewp":25,"wdir":100,"wspd":4,"visib":"6+","altim":1009,"clouds":[{"cover":"SCT","base":1800},{"cover":"FEW","base":2500}],"obsTime":1776268800},"SBMT":{"icaoId":"SBMT","flightCategory":"VFR","rawOb":"METAR SBMT 151600Z 08008KT CAVOK 25/12 Q1018","temp":25,"dewp":12,"wdir":80,"wspd":8,"visib":"6+","altim":1018,"clouds":[],"obsTime":1776268800},"SBLE":{"icaoId":"SBLE","flightCategory":"VFR","rawOb":"METAR SBLE 151600Z AUTO VRB04KT 9999 SCT047 28/19 Q1014","temp":28,"dewp":19,"wdir":"VRB","wspd":4,"visib":"6+","altim":1014,"clouds":[{"cover":"SCT","base":4700}],"obsTime":1776268800},"SBST":{"icaoId":"SBST","flightCategory":"VFR","rawOb":"METAR SBST 151600Z 15009KT 9999 FEW040 27/19 Q1015","temp":27,"dewp":19,"wdir":150,"wspd":9,"visib":"6+","altim":1015,"clouds":[{"cover":"FEW","base":4000}],"obsTime":1776268800},"SBJV":{"icaoId":"SBJV","flightCategory":"MVFR","rawOb":"METAR SBJV 151600Z 02007KT 9999 -RA BKN015 BKN035 23/21 Q1017","temp":23,"dewp":21,"wdir":20,"wspd":7,"visib":"6+","altim":1017,"clouds":[{"cover":"BKN","base":1500},{"cover":"BKN","base":3500}],"obsTime":1776268800},"SBTA":{"icaoId":"SBTA","flightCategory":"VFR","rawOb":"METAR SBTA 151600Z 06004KT 340V150 9999 FEW030 26/13 Q1017","temp":26,"dewp":13,"wdir":60,"wspd":4,"visib":"6+","altim":1017,"clouds":[{"cover":"FEW","base":3000}],"obsTime":1776268800},"SBGW":{"icaoId":"SBGW","flightCategory":"VFR","rawOb":"METAR SBGW 151600Z 34004KT 9999 FEW030 27/12 Q1018","temp":27,"dewp":12,"wdir":340,"wspd":4,"visib":"6+","altim":1018,"clouds":[{"cover":"FEW","base":3000}],"obsTime":1776268800},"SBNM":{"icaoId":"SBNM","flightCategory":"VFR","rawOb":"METAR SBNM 151600Z 05012KT 9999 FEW030 SCT100 28/18 Q1011","temp":28,"dewp":18,"wdir":50,"wspd":12,"visib":"6+","altim":1011,"clouds":[{"cover":"FEW","base":3000},{"cover":"SCT","base":10000}],"obsTime":1776268800},"SBAF":{"icaoId":"SBAF","flightCategory":"VFR","rawOb":"METAR SBAF 151600Z 19004KT 9999 FEW030 SCT060 28/20 Q1016","temp":28,"dewp":20,"wdir":190,"wspd":4,"visib":"6+","altim":1016,"clouds":[{"cover":"FEW","base":3000},{"cover":"SCT","base":6000}],"obsTime":1776268800},"SBJR":{"icaoId":"SBJR","flightCategory":"VFR","rawOb":"METAR SBJR 151600Z 18005KT 9999 SCT025 SCT080 30/20 Q1015","temp":30,"dewp":20,"wdir":180,"wspd":5,"visib":"6+","altim":1015,"clouds":[{"cover":"SCT","base":2500},{"cover":"SCT","base":8000}],"obsTime":1776268800},"SBJP":{"icaoId":"SBJP","flightCategory":"VFR","rawOb":"METAR SBJP 151600Z 13011KT 080V170 9999 SCT030 SCT070 30/23 Q1010","temp":30,"dewp":23,"wdir":130,"wspd":11,"visib":"6+","altim":1010,"clouds":[{"cover":"SCT","base":3000},{"cover":"SCT","base":7000}],"obsTime":1776268800}}}