{"updated":1776186228,"count":86,"data":{"SBEG":{"icaoId":"SBEG","flightCategory":"MVFR","rawOb":"METAR SBEG 141600Z 22007KT 9999 VCSH BKN015 BKN046 26/25 Q1011","temp":26,"dewp":25,"wdir":220,"wspd":7,"visib":"6+","altim":1011,"clouds":[{"cover":"BKN","base":1500},{"cover":"BKN","base":4600}],"obsTime":1776182400},"SBBE":{"icaoId":"SBBE","flightCategory":"MVFR","rawOb":"METAR SBBE 141600Z 31004KT 9999 BKN030 FEW035TCU 29/25 Q1009","temp":29,"dewp":25,"wdir":310,"wspd":4,"visib":"6+","altim":1009,"clouds":[{"cover":"BKN","base":3000},{"cover":"FEW","base":3500}],"obsTime":1776182400},"SBBR":{"icaoId":"SBBR","flightCategory":"MVFR","rawOb":"METAR SBBR 141600Z 11008KT 080V150 9999 BKN030 26/16 Q1017","temp":26,"dewp":16,"wdir":110,"wspd":8,"visib":"6+","altim":1017,"clouds":[{"cover":"BKN","base":3000}],"obsTime":1776182400},"SBBV":{"icaoId":"SBBV","flightCategory":"VFR","rawOb":"METAR SBBV 141600Z 13010KT 9999 SCT030 SCT100 32/21 Q1011","temp":32,"dewp":21,"wdir":130,"wspd":10,"visib":"6+","altim":1011,"clouds":[{"cover":"SCT","base":3000},{"cover":"SCT","base":10000}],"obsTime":1776182400},"SBCB":{"icaoId":"SBCB","flightCategory":"VFR","rawOb":"METAR SBCB 141600Z 20012KT CAVOK 26/19 Q1015","temp":26,"dewp":19,"wdir":200,"wspd":12,"visib":"6+","altim":1015,"clouds":[],"obsTime":1776182400},"SBCF":{"icaoId":"SBCF","flightCategory":"VFR","rawOb":"METAR SBCF 141600Z VRB04KT 9999 SCT040 25/15 Q1017","temp":25,"dewp":15,"wdir":"VRB","wspd":4,"visib":"6+","altim":1017,"clouds":[{"cover":"SCT","base":4000}],"obsTime":1776182400},"SBCG":{"icaoId":"SBCG","flightCategory":"VFR","rawOb":"METAR SBCG 141600Z 36006KT 330V050 9999 FEW025 30/19 Q1013","temp":30,"dewp":19,"wdir":360,"wspd":6,"visib":"6+","altim":1013,"clouds":[{"cover":"FEW","base":2500}],"obsTime":1776182400},"SBCP":{"icaoId":"SBCP","flightCategory":"VFR","rawOb":"METAR SBCP 141600Z 18007KT 9999 SCT020 29/18 Q1013","temp":29,"dewp":18,"wdir":180,"wspd":7,"visib":"6+","altim":1013,"clouds":[{"cover":"SCT","base":2000}],"obsTime":1776182400},"SBCR":{"icaoId":"SBCR","flightCategory":"VFR","rawOb":"METAR SBCR 141600Z 01009KT 330V050 9999 SCT035 32/23 Q1009","temp":32,"dewp":23,"wdir":10,"wspd":9,"visib":"6+","altim":1009,"clouds":[{"cover":"SCT","base":3500}],"obsTime":1776182400},"SBCT":{"icaoId":"SBCT","flightCategory":"VFR","rawOb":"METAR SBCT 141600Z 11009KT 070V140 9999 BKN033 22/15 Q1020","temp":22,"dewp":15,"wdir":110,"wspd":9,"visib":"6+","altim":1020,"clouds":[{"cover":"BKN","base":3300}],"obsTime":1776182400},"SBFI":{"icaoId":"SBFI","flightCategory":"VFR","rawOb":"METAR SBFI 141600Z 04010KT 9999 SCT020 29/22 Q1012","temp":29,"dewp":22,"wdir":40,"wspd":10,"visib":"6+","altim":1012,"clouds":[{"cover":"SCT","base":2000}],"obsTime":1776182400},"SBFL":{"icaoId":"SBFL","flightCategory":"MVFR","rawOb":"METAR SBFL 141600Z 06003KT 9999 BKN030 26/22 Q1016","temp":26,"dewp":22,"wdir":60,"wspd":3,"visib":"6+","altim":1016,"clouds":[{"cover":"BKN","base":3000}],"obsTime":1776182400},"SBFZ":{"icaoId":"SBFZ","flightCategory":"IFR","rawOb":"METAR SBFZ 141600Z 10009KT 7000 -RA BKN008 SCT020 OVC080 25/24 Q1009","temp":25,"dewp":24,"wdir":100,"wspd":9,"visib":4.35,"altim":1009,"clouds":[{"cover":"BKN","base":800},{"cover":"SCT","base":2000},{"cover":"OVC","base":8000}],"obsTime":1776182400},"SBGL":{"icaoId":"SBGL","flightCategory":"VFR","rawOb":"METAR SBGL 141600Z 13008KT 090V160 9999 SCT035 28/18 Q1014","temp":28,"dewp":18,"wdir":130,"wspd":8,"visib":"6+","altim":1014,"clouds":[{"cover":"SCT","base":3500}],"obsTime":1776182400},"SBGO":{"icaoId":"SBGO","flightCategory":"VFR","rawOb":"METAR SBGO 141600Z 09009KT 030V150 9999 BKN046 28/17 Q1014","temp":28,"dewp":17,"wdir":90,"wspd":9,"visib":"6+","altim":1014,"clouds":[{"cover":"BKN","base":4600}],"obsTime":1776182400},"SBGR":{"icaoId":"SBGR","flightCategory":"VFR","rawOb":"METAR SBGR 141600Z 00000KT 9999 SCT040 25/15 Q1018","temp":25,"dewp":15,"wdir":0,"wspd":0,"visib":"6+","altim":1018,"clouds":[{"cover":"SCT","base":4000}],"obsTime":1776182400},"SBKP":{"icaoId":"SBKP","flightCategory":"VFR","rawOb":"METAR SBKP 141600Z 11003KT 9999 SCT040 27/15 Q1016","temp":27,"dewp":15,"wdir":110,"wspd":3,"visib":"6+","altim":1016,"clouds":[{"cover":"SCT","base":4000}],"obsTime":1776182400},"SBLO":{"icaoId":"SBLO","flightCategory":"VFR","rawOb":"METAR SBLO 141600Z 08008KT 030V120 9999 SCT039 27/18 Q1015","temp":27,"dewp":18,"wdir":80,"wspd":8,"visib":"6+","altim":1015,"clouds":[{"cover":"SCT","base":3900}],"obsTime":1776182400},"SBMA":{"icaoId":"SBMA","flightCategory":"MVFR","rawOb":"METAR SBMA 141600Z 33005KT 9999 BKN025 31/25 Q1009","temp":31,"dewp":25,"wdir":330,"wspd":5,"visib":"6+","altim":1009,"clouds":[{"cover":"BKN","base":2500}],"obsTime":1776182400},"SBMO":{"icaoId":"SBMO","flightCategory":"MVFR","rawOb":"METAR SBMO 141600Z 14009KT 9999 VCSH BKN025 BKN060 29/24 Q1010","temp":29,"dewp":24,"wdir":140,"wspd":9,"visib":"6+","altim":1010,"clouds":[{"cover":"BKN","base":2500},{"cover":"BKN","base":6000}],"obsTime":1776182400},"SBMQ":{"icaoId":"SBMQ","flightCategory":"MVFR","rawOb":"METAR SBMQ 141600Z 09008KT 060V140 9999 BKN030 FEW050TCU 31/25 Q1009","temp":31,"dewp":25,"wdir":90,"wspd":8,"visib":"6+","altim":1009,"clouds":[{"cover":"BKN","base":3000},{"cover":"FEW","base":5000}],"obsTime":1776182400},"SBPA":{"icaoId":"SBPA","flightCategory":"VFR","rawOb":"METAR SBPA 141600Z 10004KT 050V140 CAVOK 29/19 Q1014","temp":29,"dewp":19,"wdir":100,"wspd":4,"visib":"6+","altim":1014,"clouds":[],"obsTime":1776182400},"SBPJ":{"icaoId":"SBPJ","flightCategory":"VFR","rawOb":"METAR SBPJ 141600Z 27005KT 9999 SCT035 32/24 Q1010","temp":32,"dewp":24,"wdir":270,"wspd":5,"visib":"6+","altim":1010,"clouds":[{"cover":"SCT","base":3500}],"obsTime":1776182400},"SBPV":{"icaoId":"SBPV","flightCategory":"VFR","rawOb":"METAR SBPV 141600Z 01005KT 9999 SCT015 BKN100 28/26 Q1010","temp":28,"dewp":26,"wdir":10,"wspd":5,"visib":"6+","altim":1010,"clouds":[{"cover":"SCT","base":1500},{"cover":"BKN","base":10000}],"obsTime":1776182400},"SBRB":{"icaoId":"SBRB","flightCategory":"MVFR","rawOb":"SPECI SBRB 141524Z 35002KT 9999 TS FEW012 BKN020 FEW030CB BKN080 28/25 Q1011","temp":28,"dewp":25,"wdir":350,"wspd":2,"visib":"6+","altim":1011,"clouds":[{"cover":"FEW","base":1200},{"cover":"BKN","base":2000},{"cover":"FEW","base":3000},{"cover":"BKN","base":8000}],"obsTime":1776180240},"SBRF":{"icaoId":"SBRF","flightCategory":"MVFR","rawOb":"METAR SBRF 141600Z 14013KT 9000 VCSH BKN018 FEW025TCU 30/25 Q1009","temp":30,"dewp":25,"wdir":140,"wspd":13,"visib":5.59,"altim":1009,"clouds":[{"cover":"BKN","base":1800},{"cover":"FEW","base":2500}],"obsTime":1776182400},"SBSG":{"icaoId":"SBSG","flightCategory":"MVFR","rawOb":"METAR SBSG 141600Z 11006KT 060V140 9999 VCSH BKN023 FEW025TCU 27/25 Q1009","temp":27,"dewp":25,"wdir":110,"wspd":6,"visib":"6+","altim":1009,"clouds":[{"cover":"BKN","base":2300},{"cover":"FEW","base":2500}],"obsTime":1776182400},"SBSL":{"icaoId":"SBSL","flightCategory":"MVFR","rawOb":"METAR SBSL 141600Z 05010KT 020V100 9999 BKN020 SCT100 30/25 Q1008","temp":30,"dewp":25,"wdir":50,"wspd":10,"visib":"6+","altim":1008,"clouds":[{"cover":"BKN","base":2000},{"cover":"SCT","base":10000}],"obsTime":1776182400},"SBSN":{"icaoId":"SBSN","flightCategory":"VFR","rawOb":"METAR SBSN 141600Z 09005KT 9999 FEW017 SCT100 29/24 Q1010","temp":29,"dewp":24,"wdir":90,"wspd":5,"visib":"6+","altim":1010,"clouds":[{"cover":"FEW","base":1700},{"cover":"SCT","base":10000}],"obsTime":1776182400},"SBSP":{"icaoId":"SBSP","flightCategory":"VFR","rawOb":"METAR SBSP 141600Z VRB05KT 9999 SCT046 25/14 Q1019","temp":25,"dewp":14,"wdir":"VRB","wspd":5,"visib":"6+","altim":1019,"clouds":[{"cover":"SCT","base":4600}],"obsTime":1776182400},"SBSV":{"icaoId":"SBSV","flightCategory":"VFR","rawOb":"METAR SBSV 141600Z 14008KT 110V170 9999 SCT023 BKN040 BKN090 29/23 Q1011","temp":29,"dewp":23,"wdir":140,"wspd":8,"visib":"6+","altim":1011,"clouds":[{"cover":"SCT","base":2300},{"cover":"BKN","base":4000},{"cover":"BKN","base":9000}],"obsTime":1776182400},"SBTE":{"icaoId":"SBTE","flightCategory":"MVFR","rawOb":"METAR SBTE 141600Z 14004KT 9999 BKN020 FEW025TCU 30/24 Q1007","temp":30,"dewp":24,"wdir":140,"wspd":4,"visib":"6+","altim":1007,"clouds":[{"cover":"BKN","base":2000},{"cover":"FEW","base":2500}],"obsTime":1776182400},"SBVT":{"icaoId":"SBVT","flightCategory":"VFR","rawOb":"METAR SBVT 141600Z 16012KT 9999 FEW040 28/20 Q1013","temp":28,"dewp":20,"wdir":160,"wspd":12,"visib":"6+","altim":1013,"clouds":[{"cover":"FEW","base":4000}],"obsTime":1776182400},"SBIL":{"icaoId":"SBIL","flightCategory":"VFR","rawOb":"METAR SBIL 141600Z 18009KT 140V220 9999 FEW023 30/23 Q1012","temp":30,"dewp":23,"wdir":180,"wspd":9,"visib":"6+","altim":1012,"clouds":[{"cover":"FEW","base":2300}],"obsTime":1776182400},"SBJU":{"icaoId":"SBJU","flightCategory":"MVFR","rawOb":"METAR SBJU 141600Z 15008KT 9999 BKN020 29/21 Q1011","temp":29,"dewp":21,"wdir":150,"wspd":8,"visib":"6+","altim":1011,"clouds":[{"cover":"BKN","base":2000}],"obsTime":1776182400},"SBME":{"icaoId":"SBME","flightCategory":"VFR","rawOb":"METAR SBME 141600Z 17008KT 9999 FEW030 28/20 Q1014","temp":28,"dewp":20,"wdir":170,"wspd":8,"visib":"6+","altim":1014,"clouds":[{"cover":"FEW","base":3000}],"obsTime":1776182400},"SBMG":{"icaoId":"SBMG","flightCategory":"VFR","rawOb":"METAR SBMG 141600Z 08008KT 030V130 9999 SCT043 28/18 Q1014","temp":28,"dewp":18,"wdir":80,"wspd":8,"visib":"6+","altim":1014,"clouds":[{"cover":"SCT","base":4300}],"obsTime":1776182400},"SBMK":{"icaoId":"SBMK","flightCategory":"MVFR","rawOb":"METAR SBMK 141600Z 11007KT 9999 BKN030 27/18 Q1015","temp":27,"dewp":18,"wdir":110,"wspd":7,"visib":"6+","altim":1015,"clouds":[{"cover":"BKN","base":3000}],"obsTime":1776182400},"SBNT":{"icaoId":"SBNT","flightCategory":"VFR","rawOb":"METAR SBNT 141600Z 11011KT 9999 VCSH SCT023 FEW026TCU BKN060 30/24 Q1009","temp":30,"dewp":24,"wdir":110,"wspd":11,"visib":"6+","altim":1009,"clouds":[{"cover":"SCT","base":2300},{"cover":"FEW","base":2600},{"cover":"BKN","base":6000}],"obsTime":1776182400},"SBUL":{"icaoId":"SBUL","flightCategory":"VFR","rawOb":"METAR SBUL 141600Z 07008KT 9999 BKN040 27/17 Q1017","temp":27,"dewp":17,"wdir":70,"wspd":8,"visib":"6+","altim":1017,"clouds":[{"cover":"BKN","base":4000}],"obsTime":1776182400},"SBCZ":{"icaoId":"SBCZ","flightCategory":"MVFR","rawOb":"METAR SBCZ 141600Z 33005KT 9999 BKN020 31/24 Q1011","temp":31,"dewp":24,"wdir":330,"wspd":5,"visib":"6+","altim":1011,"clouds":[{"cover":"BKN","base":2000}],"obsTime":1776182400},"SBAT":{"icaoId":"SBAT","flightCategory":"VFR","rawOb":"METAR SBAT 141600Z 09002KT 9999 VCSH FEW025 SCT030 FEW032TCU 33/25 Q1011","temp":33,"dewp":25,"wdir":90,"wspd":2,"visib":"6+","altim":1011,"clouds":[{"cover":"FEW","base":2500},{"cover":"SCT","base":3000},{"cover":"FEW","base":3200}],"obsTime":1776182400},"SBUR":{"icaoId":"SBUR","flightCategory":"VFR","rawOb":"METAR SBUR 141600Z 02002KT 9999 BKN047 28/14 Q1015","temp":28,"dewp":14,"wdir":20,"wspd":2,"visib":"6+","altim":1015,"clouds":[{"cover":"BKN","base":4700}],"obsTime":1776182400},"SBHT":{"icaoId":"SBHT","flightCategory":"MVFR","rawOb":"METAR SBHT 141600Z 08003KT 9999 BKN030 31/23 Q1010","temp":31,"dewp":23,"wdir":80,"wspd":3,"visib":"6+","altim":1010,"clouds":[{"cover":"BKN","base":3000}],"obsTime":1776182400},"SBCJ":{"icaoId":"SBCJ","flightCategory":"MVFR","rawOb":"METAR SBCJ 141600Z 11006KT 9999 BKN023 28/22 Q1014","temp":28,"dewp":22,"wdir":110,"wspd":6,"visib":"6+","altim":1014,"clouds":[{"cover":"BKN","base":2300}],"obsTime":1776182400},"SBPP":{"icaoId":"SBPP","flightCategory":"VFR","rawOb":"METAR SBPP 141600Z 06011KT CAVOK 28/23 Q1013","temp":28,"dewp":23,"wdir":60,"wspd":11,"visib":"6+","altim":1013,"clouds":[],"obsTime":1776182400},"SBTT":{"icaoId":"SBTT","flightCategory":"VFR","rawOb":"METAR SBTT 141600Z VRB04KT 9999 FEW026 30/23 Q1010","temp":30,"dewp":23,"wdir":"VRB","wspd":4,"visib":"6+","altim":1010,"clouds":[{"cover":"FEW","base":2600}],"obsTime":1776182400},"SBPS":{"icaoId":"SBPS","flightCategory":"VFR","rawOb":"METAR SBPS 141600Z 15007KT 9999 SCT025 28/21 Q1013","temp":28,"dewp":21,"wdir":150,"wspd":7,"visib":"6+","altim":1013,"clouds":[{"cover":"SCT","base":2500}],"obsTime":1776182400},"SBTF":{"icaoId":"SBTF","flightCategory":"VFR","rawOb":"METAR SBTF 141600Z 07008KT 9999 SCT013 29/25 Q1010","temp":29,"dewp":25,"wdir":70,"wspd":8,"visib":"6+","altim":1010,"clouds":[{"cover":"SCT","base":1300}],"obsTime":1776182400},"SBSJ":{"icaoId":"SBSJ","flightCategory":"VFR","rawOb":"METAR SBSJ 141600Z VRB02KT 9999 SCT035 24/15 Q1017","temp":24,"dewp":15,"wdir":"VRB","wspd":2,"visib":"6+","altim":1017,"clouds":[{"cover":"SCT","base":3500}],"obsTime":1776182400},"SBOI":{"icaoId":"SBOI","flightCategory":"VFR","rawOb":"SPECI SBOI 141510Z AUTO 04005KT 9999 -RA FEW006 BKN034 26/25 Q1011 RERA","temp":26,"dewp":25,"wdir":40,"wspd":5,"visib":"6+","altim":1011,"clouds":[{"cover":"FEW","base":600},{"cover":"BKN","base":3400}],"obsTime":1776179400},"SBAR":{"icaoId":"SBAR","flightCategory":"VFR","rawOb":"METAR SBAR 141600Z 13012KT 9999 SCT020 BKN100 29/24 Q1010","temp":29,"dewp":24,"wdir":130,"wspd":12,"visib":"6+","altim":1010,"clouds":[{"cover":"SCT","base":2000},{"cover":"BKN","base":10000}],"obsTime":1776182400},"SBPB":{"icaoId":"SBPB","flightCategory":"MVFR","rawOb":"METAR SBPB 141600Z 01006KT 9999 BKN015 BKN070 27/26 Q1008","temp":27,"dewp":26,"wdir":10,"wspd":6,"visib":"6+","altim":1008,"clouds":[{"cover":"BKN","base":1500},{"cover":"BKN","base":7000}],"obsTime":1776182400},"SBUY":{"icaoId":"SBUY","flightCategory":"MVFR","rawOb":"METAR SBUY 141600Z 07003KT 9999 BKN025 FEW030TCU 31/24 Q1009","temp":31,"dewp":24,"wdir":70,"wspd":3,"visib":"6+","altim":1009,"clouds":[{"cover":"BKN","base":2500},{"cover":"FEW","base":3000}],"obsTime":1776182400},"SBPL":{"icaoId":"SBPL","flightCategory":"MVFR","rawOb":"METAR SBPL 141600Z 12009KT 9999 BKN030 30/20 Q1011","temp":30,"dewp":20,"wdir":120,"wspd":9,"visib":"6+","altim":1011,"clouds":[{"cover":"BKN","base":3000}],"obsTime":1776182400},"SBES":{"icaoId":"SBES","flightCategory":"VFR","rawOb":"METAR SBES 141600Z VRB10KT 9999 FEW025 27/// Q1015","temp":null,"dewp":null,"wdir":"VRB","wspd":10,"visib":"6+","altim":1015,"clouds":[{"cover":"FEW","base":2500}],"obsTime":1776182400},"SBGM":{"icaoId":"SBGM","flightCategory":"MVFR","rawOb":"METAR SBGM 141600Z 29005KT 260V340 9999 BKN013 BKN050 30/22 Q1010","temp":30,"dewp":22,"wdir":290,"wspd":5,"visib":"6+","altim":1010,"clouds":[{"cover":"BKN","base":1300},{"cover":"BKN","base":5000}],"obsTime":1776182400},"SBIP":{"icaoId":"SBIP","flightCategory":"VFR","rawOb":"METAR SBIP 141600Z AUTO VRB03KT CAVOK 28/17 Q1014","temp":28,"dewp":17,"wdir":"VRB","wspd":3,"visib":"6+","altim":1014,"clouds":[],"obsTime":1776182400},"SBKG":{"icaoId":"SBKG","flightCategory":"MVFR","rawOb":"METAR SBKG 141600Z 10011KT 9999 BKN020 28/22 Q1011","temp":28,"dewp":22,"wdir":100,"wspd":11,"visib":"6+","altim":1011,"clouds":[{"cover":"BKN","base":2000}],"obsTime":1776182400},"SBSC":{"icaoId":"SBSC","flightCategory":"VFR","rawOb":"METAR SBSC 141600Z 20008KT 9999 FEW020 SCT068 27/20 Q1015","temp":27,"dewp":20,"wdir":200,"wspd":8,"visib":"6+","altim":1015,"clouds":[{"cover":"FEW","base":2000},{"cover":"SCT","base":6800}],"obsTime":1776182400},"SBSM":{"icaoId":"SBSM","flightCategory":"VFR","rawOb":"METAR SBSM 141600Z 12007KT 9999 FEW020 26/21 Q1013","temp":26,"dewp":21,"wdir":120,"wspd":7,"visib":"6+","altim":1013,"clouds":[{"cover":"FEW","base":2000}],"obsTime":1776182400},"SBSR":{"icaoId":"SBSR","flightCategory":"VFR","rawOb":"METAR SBSR 141600Z 14005KT 030V160 9999 SCT035 29/13 Q1014","temp":29,"dewp":13,"wdir":140,"wspd":5,"visib":"6+","altim":1014,"clouds":[{"cover":"SCT","base":3500}],"obsTime":1776182400},"SBTD":{"icaoId":"SBTD","flightCategory":"VFR","rawOb":"METAR SBTD 141600Z /////KT 9999 SCT030 SCT080 27/20 Q1014","temp":27,"dewp":20,"wdir":null,"wspd":null,"visib":"6+","altim":1014,"clouds":[{"cover":"SCT","base":3000},{"cover":"SCT","base":8000}],"obsTime":1776182400},"SBVH":{"icaoId":"SBVH","flightCategory":"VFR","rawOb":"METAR SBVH 141600Z 10010KT 9999 SCT030 BKN100 28/22 Q1013","temp":28,"dewp":22,"wdir":100,"wspd":10,"visib":"6+","altim":1013,"clouds":[{"cover":"SCT","base":3000},{"cover":"BKN","base":10000}],"obsTime":1776182400},"SBAU":{"icaoId":"SBAU","flightCategory":"VFR","rawOb":"METAR SBAU 141600Z 12008KT CAVOK 32/17 Q1013","temp":32,"dewp":17,"wdir":120,"wspd":8,"visib":"6+","altim":1013,"clouds":[],"obsTime":1776182400},"SBAX":{"icaoId":"SBAX","flightCategory":"VFR","rawOb":"METAR SBAX 141600Z 32005KT 9999 SCT030 27/14 Q1017","temp":27,"dewp":14,"wdir":320,"wspd":5,"visib":"6+","altim":1017,"clouds":[{"cover":"SCT","base":3000}],"obsTime":1776182400},"SBBH":{"icaoId":"SBBH","flightCategory":"VFR","rawOb":"METAR SBBH 141600Z 01006KT 9999 BKN040 26/17 Q1016","temp":26,"dewp":17,"wdir":10,"wspd":6,"visib":"6+","altim":1016,"clouds":[{"cover":"BKN","base":4000}],"obsTime":1776182400},"SBBQ":{"icaoId":"SBBQ","flightCategory":"VFR","rawOb":"METAR SBBQ 141600Z 07004KT 9999 BKN033 23/14 Q1020","temp":23,"dewp":14,"wdir":70,"wspd":4,"visib":"6+","altim":1020,"clouds":[{"cover":"BKN","base":3300}],"obsTime":1776182400},"SBBU":{"icaoId":"SBBU","flightCategory":"VFR","rawOb":"METAR SBBU 141600Z 11008KT 9999 FEW030 28/19 Q1016","temp":28,"dewp":19,"wdir":110,"wspd":8,"visib":"6+","altim":1016,"clouds":[{"cover":"FEW","base":3000}],"obsTime":1776182400},"SBCA":{"icaoId":"SBCA","flightCategory":"VFR","rawOb":"METAR SBCA 141600Z 03015KT 360V060 9999 SCT020 SCT070 25/18 Q1016","temp":25,"dewp":18,"wdir":30,"wspd":15,"visib":"6+","altim":1016,"clouds":[{"cover":"SCT","base":2000},{"cover":"SCT","base":7000}],"obsTime":1776182400},"SBCC":{"icaoId":"SBCC","flightCategory":"MVFR","rawOb":"METAR SBCC 141600Z 30009KT 9999 VCSH BKN025 FEW030TCU BKN100 26/21 Q1012","temp":26,"dewp":21,"wdir":300,"wspd":9,"visib":"6+","altim":1012,"clouds":[{"cover":"BKN","base":2500},{"cover":"FEW","base":3000},{"cover":"BKN","base":10000}],"obsTime":1776182400},"SBCO":{"icaoId":"SBCO","flightCategory":"VFR","rawOb":"METAR SBCO 141600Z VRB04KT 9999 FEW035 28/20 Q1014","temp":28,"dewp":20,"wdir":"VRB","wspd":4,"visib":"6+","altim":1014,"clouds":[{"cover":"FEW","base":3500}],"obsTime":1776182400},"SBDN":{"icaoId":"SBDN","flightCategory":"VFR","rawOb":"METAR SBDN 141600Z 07008KT 9999 FEW045 31/17 Q1013","temp":31,"dewp":17,"wdir":70,"wspd":8,"visib":"6+","altim":1013,"clouds":[{"cover":"FEW","base":4500}],"obsTime":1776182400},"SBJP":{"icaoId":"SBJP","flightCategory":"MVFR","rawOb":"METAR SBJP 141600Z 08008KT 360V150 8000 VCSH BKN020 FEW025TCU 29/25 Q1009","temp":29,"dewp":25,"wdir":80,"wspd":8,"visib":4.97,"altim":1009,"clouds":[{"cover":"BKN","base":2000},{"cover":"FEW","base":2500}],"obsTime":1776182400},"SBAN":{"icaoId":"SBAN","flightCategory":"VFR","rawOb":"METAR SBAN 141600Z 13008KT 090V180 9999 BKN035 FEW040TCU 26/15 Q1017","temp":26,"dewp":15,"wdir":130,"wspd":8,"visib":"6+","altim":1017,"clouds":[{"cover":"BKN","base":3500},{"cover":"FEW","base":4000}],"obsTime":1776182400},"SBJV":{"icaoId":"SBJV","flightCategory":"MVFR","rawOb":"METAR SBJV 141600Z 04006KT 9999 BKN030 27/20 Q1016","temp":27,"dewp":20,"wdir":40,"wspd":6,"visib":"6+","altim":1016,"clouds":[{"cover":"BKN","base":3000}],"obsTime":1776182400},"SBNM":{"icaoId":"SBNM","flightCategory":"VFR","rawOb":"METAR SBNM 141600Z 07006KT 9999 FEW020 SCT100 31/24 Q1012","temp":31,"dewp":24,"wdir":70,"wspd":6,"visib":"6+","altim":1012,"clouds":[{"cover":"FEW","base":2000},{"cover":"SCT","base":10000}],"obsTime":1776182400},"SBLE":{"icaoId":"SBLE","flightCategory":"VFR","rawOb":"METAR SBLE 141600Z AUTO 16006KT 110V210 9999 FEW035 SCT041 27/19 Q1014","temp":27,"dewp":19,"wdir":160,"wspd":6,"visib":"6+","altim":1014,"clouds":[{"cover":"FEW","base":3500},{"cover":"SCT","base":4100}],"obsTime":1776182400},"SBIH":{"icaoId":"SBIH","flightCategory":"MVFR","rawOb":"METAR SBIH 141600Z 09002KT 9999 BKN018 30/25 Q1010","temp":30,"dewp":25,"wdir":90,"wspd":2,"visib":"6+","altim":1010,"clouds":[{"cover":"BKN","base":1800}],"obsTime":1776182400},"SBAF":{"icaoId":"SBAF","flightCategory":"VFR","rawOb":"METAR SBAF 141600Z 19009KT 9999 SCT030 28/19 Q1014","temp":28,"dewp":19,"wdir":190,"wspd":9,"visib":"6+","altim":1014,"clouds":[{"cover":"SCT","base":3000}],"obsTime":1776182400},"SBGW":{"icaoId":"SBGW","flightCategory":"VFR","rawOb":"METAR SBGW 141600Z VRB02KT 9999 SCT035 26/15 Q1016","temp":26,"dewp":15,"wdir":"VRB","wspd":2,"visib":"6+","altim":1016,"clouds":[{"cover":"SCT","base":3500}],"obsTime":1776182400},"SBJR":{"icaoId":"SBJR","flightCategory":"VFR","rawOb":"METAR SBJR 141600Z 18005KT 9999 SCT025 29/20 Q1014","temp":29,"dewp":20,"wdir":180,"wspd":5,"visib":"6+","altim":1014,"clouds":[{"cover":"SCT","base":2500}],"obsTime":1776182400},"SBLS":{"icaoId":"SBLS","flightCategory":"VFR","rawOb":"METAR SBLS 141600Z 13004KT 040V180 9999 SCT040 25/16 Q1016","temp":25,"dewp":16,"wdir":130,"wspd":4,"visib":"6+","altim":1016,"clouds":[{"cover":"SCT","base":4000}],"obsTime":1776182400},"SBMT":{"icaoId":"SBMT","flightCategory":"VFR","rawOb":"METAR SBMT 141600Z 08004KT 9999 FEW020 25/14 Q1017","temp":25,"dewp":14,"wdir":80,"wspd":4,"visib":"6+","altim":1017,"clouds":[{"cover":"FEW","base":2000}],"obsTime":1776182400},"SBST":{"icaoId":"SBST","flightCategory":"VFR","rawOb":"METAR SBST 141600Z 19005KT 9999 SCT045 28/20 Q1015","temp":28,"dewp":20,"wdir":190,"wspd":5,"visib":"6+","altim":1015,"clouds":[{"cover":"SCT","base":4500}],"obsTime":1776182400},"SBTA":{"icaoId":"SBTA","flightCategory":"VFR","rawOb":"METAR SBTA 141600Z VRB04KT 9999 SCT040 25/14 Q1016","temp":25,"dewp":14,"wdir":"VRB","wspd":4,"visib":"6+","altim":1016,"clouds":[{"cover":"SCT","base":4000}],"obsTime":1776182400}}}