{"updated":1779403593,"count":82,"data":{"SBGL":{"icaoId":"SBGL","flightCategory":"MVFR","rawOb":"METAR SBGL 212100Z 32004KT 9999 FEW015 BKN030 OVC050 20/18 Q1023","temp":20,"dewp":18,"wdir":320,"wspd":4,"visib":"6+","altim":1023,"clouds":[{"cover":"FEW","base":1500},{"cover":"BKN","base":3000},{"cover":"OVC","base":5000}],"obsTime":1779397200},"SBMA":{"icaoId":"SBMA","flightCategory":"VFR","rawOb":"METAR SBMA 212100Z 01006KT 9999 FEW020 SCT025TCU 31/23 Q1010","temp":31,"dewp":23,"wdir":10,"wspd":6,"visib":"6+","altim":1010,"clouds":[{"cover":"FEW","base":2000},{"cover":"SCT","base":2500}],"obsTime":1779397200},"SBCP":{"icaoId":"SBCP","flightCategory":"IFR","rawOb":"METAR SBCP 212100Z 22012KT 6000 -RA BKN008 OVC070 20/19 Q1022","temp":20,"dewp":19,"wdir":220,"wspd":12,"visib":3.73,"altim":1022,"clouds":[{"cover":"BKN","base":800},{"cover":"OVC","base":7000}],"obsTime":1779397200},"SBME":{"icaoId":"SBME","flightCategory":"MVFR","rawOb":"METAR SBME 212100Z 26007KT 6000 BKN015 OVC070 19/18 Q1022 RERA","temp":19,"dewp":18,"wdir":260,"wspd":7,"visib":3.73,"altim":1022,"clouds":[{"cover":"BKN","base":1500},{"cover":"OVC","base":7000}],"obsTime":1779397200},"SBFL":{"icaoId":"SBFL","flightCategory":"VFR","rawOb":"METAR SBFL 212100Z 15009KT 9999 FEW030 16/10 Q1025","temp":16,"dewp":10,"wdir":150,"wspd":9,"visib":"6+","altim":1025,"clouds":[{"cover":"FEW","base":3000}],"obsTime":1779397200},"SBMG":{"icaoId":"SBMG","flightCategory":"VFR","rawOb":"METAR SBMG 212100Z 09007KT CAVOK 19/14 Q1020","temp":19,"dewp":14,"wdir":90,"wspd":7,"visib":"6+","altim":1020,"clouds":[],"obsTime":1779397200},"SBCB":{"icaoId":"SBCB","flightCategory":"MVFR","rawOb":"METAR SBCB 212100Z 20007KT 9999 BKN015 OVC040 23/15 Q1023","temp":23,"dewp":15,"wdir":200,"wspd":7,"visib":"6+","altim":1023,"clouds":[{"cover":"BKN","base":1500},{"cover":"OVC","base":4000}],"obsTime":1779397200},"SBMK":{"icaoId":"SBMK","flightCategory":"VFR","rawOb":"METAR SBMK 212100Z 10008KT CAVOK 25/16 Q1020","temp":25,"dewp":16,"wdir":100,"wspd":8,"visib":"6+","altim":1020,"clouds":[],"obsTime":1779397200},"SBFZ":{"icaoId":"SBFZ","flightCategory":"VFR","rawOb":"METAR SBFZ 212100Z 10011KT 9999 FEW020 BKN070 28/23 Q1012","temp":28,"dewp":23,"wdir":100,"wspd":11,"visib":"6+","altim":1012,"clouds":[{"cover":"FEW","base":2000},{"cover":"BKN","base":7000}],"obsTime":1779397200},"SBMO":{"icaoId":"SBMO","flightCategory":"VFR","rawOb":"METAR SBMO 212100Z 15007KT 9999 FEW035 27/21 Q1015","temp":27,"dewp":21,"wdir":150,"wspd":7,"visib":"6+","altim":1015,"clouds":[{"cover":"FEW","base":3500}],"obsTime":1779397200},"SBMQ":{"icaoId":"SBMQ","flightCategory":"VFR","rawOb":"METAR SBMQ 212100Z 05010KT 9999 FEW040TCU 30/25 Q1010","temp":30,"dewp":25,"wdir":50,"wspd":10,"visib":"6+","altim":1010,"clouds":[{"cover":"FEW","base":4000}],"obsTime":1779397200},"SBBR":{"icaoId":"SBBR","flightCategory":"VFR","rawOb":"METAR SBBR 212100Z 14008KT 100V160 CAVOK 25/15 Q1020","temp":25,"dewp":15,"wdir":140,"wspd":8,"visib":"6+","altim":1020,"clouds":[],"obsTime":1779397200},"SBNT":{"icaoId":"SBNT","flightCategory":"VFR","rawOb":"METAR SBNT 212100Z 15006KT 9999 FEW020 SCT066 26/22 Q1014","temp":26,"dewp":22,"wdir":150,"wspd":6,"visib":"6+","altim":1014,"clouds":[{"cover":"FEW","base":2000},{"cover":"SCT","base":6600}],"obsTime":1779397200},"SBPA":{"icaoId":"SBPA","flightCategory":"VFR","rawOb":"METAR SBPA 212100Z 16004KT 9999 FEW045 13/05 Q1026","temp":13,"dewp":5,"wdir":160,"wspd":4,"visib":"6+","altim":1026,"clouds":[{"cover":"FEW","base":4500}],"obsTime":1779397200},"SBPJ":{"icaoId":"SBPJ","flightCategory":"VFR","rawOb":"METAR SBPJ 212100Z 16004KT 110V200 9999 FEW040 32/18 Q1013","temp":32,"dewp":18,"wdir":160,"wspd":4,"visib":"6+","altim":1013,"clouds":[{"cover":"FEW","base":4000}],"obsTime":1779397200},"SBGO":{"icaoId":"SBGO","flightCategory":"VFR","rawOb":"METAR SBGO 212100Z 14007KT 9999 SCT045 28/20 Q1018","temp":28,"dewp":20,"wdir":140,"wspd":7,"visib":"6+","altim":1018,"clouds":[{"cover":"SCT","base":4500}],"obsTime":1779397200},"SBCT":{"icaoId":"SBCT","flightCategory":"IFR","rawOb":"METAR SBCT 212100Z 08007KT 9999 BKN007 11/10 Q1025","temp":11,"dewp":10,"wdir":80,"wspd":7,"visib":"6+","altim":1025,"clouds":[{"cover":"BKN","base":700}],"obsTime":1779397200},"SBPV":{"icaoId":"SBPV","flightCategory":"MVFR","rawOb":"METAR SBPV 212100Z 10004KT 9999 BKN030 25/22 Q1014","temp":25,"dewp":22,"wdir":100,"wspd":4,"visib":"6+","altim":1014,"clouds":[{"cover":"BKN","base":3000}],"obsTime":1779397200},"SBBE":{"icaoId":"SBBE","flightCategory":"VFR","rawOb":"METAR SBBE 212100Z 07009KT 9999 SCT042 27/24 Q1011","temp":27,"dewp":24,"wdir":70,"wspd":9,"visib":"6+","altim":1011,"clouds":[{"cover":"SCT","base":4200}],"obsTime":1779397200},"SBRB":{"icaoId":"SBRB","flightCategory":"MVFR","rawOb":"METAR SBRB 212100Z 15004KT 9999 BKN026 24/19 Q1016","temp":24,"dewp":19,"wdir":150,"wspd":4,"visib":"6+","altim":1016,"clouds":[{"cover":"BKN","base":2600}],"obsTime":1779397200},"SBGR":{"icaoId":"SBGR","flightCategory":"MVFR","rawOb":"METAR SBGR 212100Z 16007KT 9999 OVC014 14/12 Q1025","temp":14,"dewp":12,"wdir":160,"wspd":7,"visib":"6+","altim":1025,"clouds":[{"cover":"OVC","base":1400}],"obsTime":1779397200},"SBRF":{"icaoId":"SBRF","flightCategory":"VFR","rawOb":"METAR SBRF 212100Z 16009KT 9999 FEW025 27/21 Q1014","temp":27,"dewp":21,"wdir":160,"wspd":9,"visib":"6+","altim":1014,"clouds":[{"cover":"FEW","base":2500}],"obsTime":1779397200},"SBCF":{"icaoId":"SBCF","flightCategory":"VFR","rawOb":"METAR SBCF 212100Z 14009KT 9999 FEW033 22/18 Q1022","temp":22,"dewp":18,"wdir":140,"wspd":9,"visib":"6+","altim":1022,"clouds":[{"cover":"FEW","base":3300}],"obsTime":1779397200},"SBSG":{"icaoId":"SBSG","flightCategory":"VFR","rawOb":"METAR SBSG 212100Z 13004KT 090V170 9999 VCSH SCT020 FEW030TCU BKN050 25/23 Q1014","temp":25,"dewp":23,"wdir":130,"wspd":4,"visib":"6+","altim":1014,"clouds":[{"cover":"SCT","base":2000},{"cover":"FEW","base":3000},{"cover":"BKN","base":5000}],"obsTime":1779397200},"SBCZ":{"icaoId":"SBCZ","flightCategory":"MVFR","rawOb":"METAR SBCZ 212100Z 16005KT 9999 SCT020 BKN025 26/21 Q1015","temp":26,"dewp":21,"wdir":160,"wspd":5,"visib":"6+","altim":1015,"clouds":[{"cover":"SCT","base":2000},{"cover":"BKN","base":2500}],"obsTime":1779397200},"SBSL":{"icaoId":"SBSL","flightCategory":"VFR","rawOb":"METAR SBSL 212100Z 06010KT 9999 SCT025 30/24 Q1011","temp":30,"dewp":24,"wdir":60,"wspd":10,"visib":"6+","altim":1011,"clouds":[{"cover":"SCT","base":2500}],"obsTime":1779397200},"SBIL":{"icaoId":"SBIL","flightCategory":"VFR","rawOb":"METAR SBIL 212100Z 19006KT 150V230 9999 FEW023 27/22 Q1017","temp":27,"dewp":22,"wdir":190,"wspd":6,"visib":"6+","altim":1017,"clouds":[{"cover":"FEW","base":2300}],"obsTime":1779397200},"SBSN":{"icaoId":"SBSN","flightCategory":"MVFR","rawOb":"METAR SBSN 212100Z 10005KT 020V140 9999 -RA BKN015 FEW030TCU BKN080 27/25 Q1011","temp":27,"dewp":25,"wdir":100,"wspd":5,"visib":"6+","altim":1011,"clouds":[{"cover":"BKN","base":1500},{"cover":"FEW","base":3000},{"cover":"BKN","base":8000}],"obsTime":1779397200},"SBCG":{"icaoId":"SBCG","flightCategory":"VFR","rawOb":"METAR SBCG 212100Z 19006KT CAVOK 20/13 Q1020","temp":20,"dewp":13,"wdir":190,"wspd":6,"visib":"6+","altim":1020,"clouds":[],"obsTime":1779397200},"SBSP":{"icaoId":"SBSP","flightCategory":"IFR","rawOb":"METAR SBSP 212100Z 17009KT 9999 BKN006 OVC009 14/13 Q1026","temp":14,"dewp":13,"wdir":170,"wspd":9,"visib":"6+","altim":1026,"clouds":[{"cover":"BKN","base":600},{"cover":"OVC","base":900}],"obsTime":1779397200},"SBJU":{"icaoId":"SBJU","flightCategory":"VFR","rawOb":"METAR SBJU 212100Z 00000KT 9999 FEW022 28/17 Q1014","temp":28,"dewp":17,"wdir":0,"wspd":0,"visib":"6+","altim":1014,"clouds":[{"cover":"FEW","base":2200}],"obsTime":1779397200},"SBSV":{"icaoId":"SBSV","flightCategory":"VFR","rawOb":"METAR SBSV 212100Z 16007KT 9999 SCT023 28/20 Q1016","temp":28,"dewp":20,"wdir":160,"wspd":7,"visib":"6+","altim":1016,"clouds":[{"cover":"SCT","base":2300}],"obsTime":1779397200},"SBKP":{"icaoId":"SBKP","flightCategory":"VFR","rawOb":"METAR SBKP 212100Z 14014KT CAVOK 17/13 Q1023","temp":17,"dewp":13,"wdir":140,"wspd":14,"visib":"6+","altim":1023,"clouds":[],"obsTime":1779397200},"SBTE":{"icaoId":"SBTE","flightCategory":"VFR","rawOb":"METAR SBTE 212100Z 11003KT CAVOK 32/21 Q1011","temp":32,"dewp":21,"wdir":110,"wspd":3,"visib":"6+","altim":1011,"clouds":[],"obsTime":1779397200},"SBEG":{"icaoId":"SBEG","flightCategory":"VFR","rawOb":"METAR SBEG 212100Z 19004KT 130V230 9999 SCT008 SCT020 FEW030TCU BKN100 26/24 Q1012","temp":26,"dewp":24,"wdir":190,"wspd":4,"visib":"6+","altim":1012,"clouds":[{"cover":"SCT","base":800},{"cover":"SCT","base":2000},{"cover":"FEW","base":3000},{"cover":"BKN","base":10000}],"obsTime":1779397200},"SBUL":{"icaoId":"SBUL","flightCategory":"VFR","rawOb":"METAR SBUL 212100Z 23011KT 9999 FEW030 23/17 Q1022","temp":23,"dewp":17,"wdir":230,"wspd":11,"visib":"6+","altim":1022,"clouds":[{"cover":"FEW","base":3000}],"obsTime":1779397200},"SBLO":{"icaoId":"SBLO","flightCategory":"VFR","rawOb":"METAR SBLO 212100Z 15002KT CAVOK 18/15 Q1021","temp":18,"dewp":15,"wdir":150,"wspd":2,"visib":"6+","altim":1021,"clouds":[],"obsTime":1779397200},"SBUR":{"icaoId":"SBUR","flightCategory":"VFR","rawOb":"METAR SBUR 212100Z 20004KT CAVOK 23/16 Q1021","temp":23,"dewp":16,"wdir":200,"wspd":4,"visib":"6+","altim":1021,"clouds":[],"obsTime":1779397200},"SBVT":{"icaoId":"SBVT","flightCategory":"VFR","rawOb":"METAR SBVT 212100Z 20012KT 9999 FEW020 SCT025 BKN050 23/19 Q1020","temp":23,"dewp":19,"wdir":200,"wspd":12,"visib":"6+","altim":1020,"clouds":[{"cover":"FEW","base":2000},{"cover":"SCT","base":2500},{"cover":"BKN","base":5000}],"obsTime":1779397200},"SBFI":{"icaoId":"SBFI","flightCategory":"VFR","rawOb":"METAR SBFI 212100Z 22005KT CAVOK 17/12 Q1021","temp":17,"dewp":12,"wdir":220,"wspd":5,"visib":"6+","altim":1021,"clouds":[],"obsTime":1779397200},"SBBV":{"icaoId":"SBBV","flightCategory":"VFR","rawOb":"METAR SBBV 212100Z 16003KT 9999 SCT030 FEW035TCU 31/23 Q1010","temp":31,"dewp":23,"wdir":160,"wspd":3,"visib":"6+","altim":1010,"clouds":[{"cover":"SCT","base":3000},{"cover":"FEW","base":3500}],"obsTime":1779397200},"SBCR":{"icaoId":"SBCR","flightCategory":"VFR","rawOb":"METAR SBCR 212100Z 21005KT 150V260 9999 OVC045 18/13 Q1020","temp":18,"dewp":13,"wdir":210,"wspd":5,"visib":"6+","altim":1020,"clouds":[{"cover":"OVC","base":4500}],"obsTime":1779397200},"SBHT":{"icaoId":"SBHT","flightCategory":"VFR","rawOb":"METAR SBHT 212100Z 00000KT 9999 FEW025 BKN100 27/25 Q1010","temp":27,"dewp":25,"wdir":0,"wspd":0,"visib":"6+","altim":1010,"clouds":[{"cover":"FEW","base":2500},{"cover":"BKN","base":10000}],"obsTime":1779397200},"SBAT":{"icaoId":"SBAT","flightCategory":"VFR","rawOb":"METAR SBAT 212100Z 22005KT CAVOK 28/23 Q1014","temp":28,"dewp":23,"wdir":220,"wspd":5,"visib":"6+","altim":1014,"clouds":[],"obsTime":1779397200},"SBVH":{"icaoId":"SBVH","flightCategory":"VFR","rawOb":"METAR SBVH 212100Z 21008KT 9999 FEW030 20/17 Q1018","temp":20,"dewp":17,"wdir":210,"wspd":8,"visib":"6+","altim":1018,"clouds":[{"cover":"FEW","base":3000}],"obsTime":1779397200},"SBAX":{"icaoId":"SBAX","flightCategory":"VFR","rawOb":"METAR SBAX 212100Z 18005KT 9999 BKN035 24/17 Q1022","temp":24,"dewp":17,"wdir":180,"wspd":5,"visib":"6+","altim":1022,"clouds":[{"cover":"BKN","base":3500}],"obsTime":1779397200},"SBCO":{"icaoId":"SBCO","flightCategory":"VFR","rawOb":"METAR SBCO 212100Z 14003KT 090V150 CAVOK 12/06 Q1027","temp":12,"dewp":6,"wdir":140,"wspd":3,"visib":"6+","altim":1027,"clouds":[],"obsTime":1779397200},"SBPS":{"icaoId":"SBPS","flightCategory":"VFR","rawOb":"METAR SBPS 212100Z 16004KT 9999 FEW020 26/22 Q1018","temp":26,"dewp":22,"wdir":160,"wspd":4,"visib":"6+","altim":1018,"clouds":[{"cover":"FEW","base":2000}],"obsTime":1779397200},"SBBU":{"icaoId":"SBBU","flightCategory":"VFR","rawOb":"METAR SBBU 212100Z 11006KT 9999 FEW040 SCT100 21/16 Q1022","temp":21,"dewp":16,"wdir":110,"wspd":6,"visib":"6+","altim":1022,"clouds":[{"cover":"FEW","base":4000},{"cover":"SCT","base":10000}],"obsTime":1779397200},"SBDN":{"icaoId":"SBDN","flightCategory":"VFR","rawOb":"METAR SBDN 212100Z 14005KT 9999 FEW040 21/16 Q1020","temp":21,"dewp":16,"wdir":140,"wspd":5,"visib":"6+","altim":1020,"clouds":[{"cover":"FEW","base":4000}],"obsTime":1779397200},"SBSC":{"icaoId":"SBSC","flightCategory":"MVFR","rawOb":"METAR SBSC 212100Z 21003KT 6000 -RA SCT010 BKN020 OVC035 19/18 Q1023","temp":19,"dewp":18,"wdir":210,"wspd":3,"visib":3.73,"altim":1023,"clouds":[{"cover":"SCT","base":1000},{"cover":"BKN","base":2000},{"cover":"OVC","base":3500}],"obsTime":1779397200},"SBAR":{"icaoId":"SBAR","flightCategory":"MVFR","rawOb":"METAR SBAR 212100Z 20008KT 9999 VCSH FEW008 BKN015 BKN035 24/23 Q1015","temp":24,"dewp":23,"wdir":200,"wspd":8,"visib":"6+","altim":1015,"clouds":[{"cover":"FEW","base":800},{"cover":"BKN","base":1500},{"cover":"BKN","base":3500}],"obsTime":1779397200},"SBSJ":{"icaoId":"SBSJ","flightCategory":"VFR","rawOb":"METAR SBSJ 212100Z 13008KT 9999 SCT017 BKN036 16/13 Q1025","temp":16,"dewp":13,"wdir":130,"wspd":8,"visib":"6+","altim":1025,"clouds":[{"cover":"SCT","base":1700},{"cover":"BKN","base":3600}],"obsTime":1779397200},"SBES":{"icaoId":"SBES","flightCategory":"MVFR","rawOb":"METAR SBES 212100Z VRB06KT 9999 -RA FEW008 BKN015 OVC040 20/// Q1023","temp":null,"dewp":null,"wdir":"VRB","wspd":6,"visib":"6+","altim":1023,"clouds":[{"cover":"FEW","base":800},{"cover":"BKN","base":1500},{"cover":"OVC","base":4000}],"obsTime":1779397200},"SBSM":{"icaoId":"SBSM","flightCategory":"VFR","rawOb":"METAR SBSM 212100Z 13003KT 9999 FEW040 09/07 Q1026","temp":9,"dewp":7,"wdir":130,"wspd":3,"visib":"6+","altim":1026,"clouds":[{"cover":"FEW","base":4000}],"obsTime":1779397200},"SBCA":{"icaoId":"SBCA","flightCategory":"VFR","rawOb":"METAR SBCA 212100Z 18006KT CAVOK 14/08 Q1023","temp":14,"dewp":8,"wdir":180,"wspd":6,"visib":"6+","altim":1023,"clouds":[],"obsTime":1779397200},"SBSR":{"icaoId":"SBSR","flightCategory":"VFR","rawOb":"METAR SBSR 212100Z 15003KT 9999 FEW030 SCT070 23/16 Q1020","temp":23,"dewp":16,"wdir":150,"wspd":3,"visib":"6+","altim":1020,"clouds":[{"cover":"FEW","base":3000},{"cover":"SCT","base":7000}],"obsTime":1779397200},"SBTF":{"icaoId":"SBTF","flightCategory":"MVFR","rawOb":"METAR SBTF 212100Z 23003KT 9999 BKN015 BKN080 26/24 Q1012","temp":26,"dewp":24,"wdir":230,"wspd":3,"visib":"6+","altim":1012,"clouds":[{"cover":"BKN","base":1500},{"cover":"BKN","base":8000}],"obsTime":1779397200},"SBKG":{"icaoId":"SBKG","flightCategory":"VFR","rawOb":"METAR SBKG 212100Z 08007KT CAVOK 25/21 Q1016","temp":25,"dewp":21,"wdir":80,"wspd":7,"visib":"6+","altim":1016,"clouds":[],"obsTime":1779397200},"SBBH":{"icaoId":"SBBH","flightCategory":"VFR","rawOb":"METAR SBBH 212100Z 10008KT CAVOK 22/17 Q1022","temp":22,"dewp":17,"wdir":100,"wspd":8,"visib":"6+","altim":1022,"clouds":[],"obsTime":1779397200},"SBTT":{"icaoId":"SBTT","flightCategory":"MVFR","rawOb":"METAR SBTT 212100Z 18004KT 9999 OVC018 23/21 Q1015","temp":23,"dewp":21,"wdir":180,"wspd":4,"visib":"6+","altim":1015,"clouds":[{"cover":"OVC","base":1800}],"obsTime":1779397200},"SBOI":{"icaoId":"SBOI","flightCategory":"VFR","rawOb":"METAR SBOI 212100Z AUTO 08004KT 030V120 CAVOK 30/24 Q1011","temp":30,"dewp":24,"wdir":80,"wspd":4,"visib":"6+","altim":1011,"clouds":[],"obsTime":1779397200},"SBTU":{"icaoId":"SBTU","flightCategory":"VFR","rawOb":"METAR SBTU 212100Z AUTO 30004KT 9999 // NCD 29/24 Q1012","temp":29,"dewp":24,"wdir":300,"wspd":4,"visib":"6+","altim":1012,"clouds":[],"obsTime":1779397200},"SBUY":{"icaoId":"SBUY","flightCategory":"VFR","rawOb":"METAR SBUY 212100Z 28002KT 9999 FEW018 SCT030 BKN100 25/23 Q1012","temp":25,"dewp":23,"wdir":280,"wspd":2,"visib":"6+","altim":1012,"clouds":[{"cover":"FEW","base":1800},{"cover":"SCT","base":3000},{"cover":"BKN","base":10000}],"obsTime":1779397200},"SBPL":{"icaoId":"SBPL","flightCategory":"VFR","rawOb":"METAR SBPL 212100Z 10010KT 9999 FEW030 30/18 Q1014","temp":30,"dewp":18,"wdir":100,"wspd":10,"visib":"6+","altim":1014,"clouds":[{"cover":"FEW","base":3000}],"obsTime":1779397200},"SBPB":{"icaoId":"SBPB","flightCategory":"VFR","rawOb":"METAR SBPB 212100Z 05008KT 9999 FEW020 SCT100 29/25 Q1011","temp":29,"dewp":25,"wdir":50,"wspd":8,"visib":"6+","altim":1011,"clouds":[{"cover":"FEW","base":2000},{"cover":"SCT","base":10000}],"obsTime":1779397200},"SBCJ":{"icaoId":"SBCJ","flightCategory":"VFR","rawOb":"METAR SBCJ 212100Z 00000KT 9999 FEW025 27/21 Q1015","temp":27,"dewp":21,"wdir":0,"wspd":0,"visib":"6+","altim":1015,"clouds":[{"cover":"FEW","base":2500}],"obsTime":1779397200},"SBPP":{"icaoId":"SBPP","flightCategory":"VFR","rawOb":"METAR SBPP 212100Z 22008KT CAVOK 16/08 Q1022","temp":16,"dewp":8,"wdir":220,"wspd":8,"visib":"6+","altim":1022,"clouds":[],"obsTime":1779397200},"SBJP":{"icaoId":"SBJP","flightCategory":"VFR","rawOb":"METAR SBJP 212100Z 13007KT CAVOK 26/22 Q1014","temp":26,"dewp":22,"wdir":130,"wspd":7,"visib":"6+","altim":1014,"clouds":[],"obsTime":1779397200},"SBAN":{"icaoId":"SBAN","flightCategory":"VFR","rawOb":"METAR SBAN 212100Z 19004KT 9999 FEW040 24/16 Q1021","temp":24,"dewp":16,"wdir":190,"wspd":4,"visib":"6+","altim":1021,"clouds":[{"cover":"FEW","base":4000}],"obsTime":1779397200},"SBJV":{"icaoId":"SBJV","flightCategory":"MVFR","rawOb":"METAR SBJV 212100Z 08004KT 050V110 9999 SCT013 BKN030 17/12 Q1025","temp":17,"dewp":12,"wdir":80,"wspd":4,"visib":"6+","altim":1025,"clouds":[{"cover":"SCT","base":1300},{"cover":"BKN","base":3000}],"obsTime":1779397200},"SBNM":{"icaoId":"SBNM","flightCategory":"VFR","rawOb":"METAR SBNM 212100Z AUTO 15007KT CAVOK 14/06 Q1024","temp":14,"dewp":6,"wdir":150,"wspd":7,"visib":"6+","altim":1024,"clouds":[],"obsTime":1779397200},"SBPF":{"icaoId":"SBPF","flightCategory":"VFR","rawOb":"METAR SBPF 212100Z 17008KT CAVOK 12/04 Q1024","temp":12,"dewp":4,"wdir":170,"wspd":8,"visib":"6+","altim":1024,"clouds":[],"obsTime":1779397200},"SBLE":{"icaoId":"SBLE","flightCategory":"VFR","rawOb":"METAR SBLE 212100Z AUTO VRB02KT CAVOK 23/22 Q1018","temp":23,"dewp":22,"wdir":"VRB","wspd":2,"visib":"6+","altim":1018,"clouds":[],"obsTime":1779397200},"SBAF":{"icaoId":"SBAF","flightCategory":"MVFR","rawOb":"METAR SBAF 212100Z 29002KT 9999 FEW008 BKN030 OVC050 19/19 Q1023","temp":19,"dewp":19,"wdir":290,"wspd":2,"visib":"6+","altim":1023,"clouds":[{"cover":"FEW","base":800},{"cover":"BKN","base":3000},{"cover":"OVC","base":5000}],"obsTime":1779397200},"SBGW":{"icaoId":"SBGW","flightCategory":"MVFR","rawOb":"METAR SBGW 212100Z 25004KT 220V290 7000 OVC033 18/12 Q1024","temp":18,"dewp":12,"wdir":250,"wspd":4,"visib":4.35,"altim":1024,"clouds":[{"cover":"OVC","base":3300}],"obsTime":1779397200},"SBJR":{"icaoId":"SBJR","flightCategory":"MVFR","rawOb":"METAR SBJR 212100Z 32001KT 7000 FEW008 BKN020 OVC040 20/17 Q1023","temp":20,"dewp":17,"wdir":320,"wspd":1,"visib":4.35,"altim":1023,"clouds":[{"cover":"FEW","base":800},{"cover":"BKN","base":2000},{"cover":"OVC","base":4000}],"obsTime":1779397200},"SBLS":{"icaoId":"SBLS","flightCategory":"VFR","rawOb":"METAR SBLS 212100Z 14009KT 9999 FEW045 22/18 Q1021","temp":22,"dewp":18,"wdir":140,"wspd":9,"visib":"6+","altim":1021,"clouds":[{"cover":"FEW","base":4500}],"obsTime":1779397200},"SBMT":{"icaoId":"SBMT","flightCategory":"MVFR","rawOb":"METAR SBMT 212100Z 14007KT 8000 BKN013 14/12 Q1025","temp":14,"dewp":12,"wdir":140,"wspd":7,"visib":4.97,"altim":1025,"clouds":[{"cover":"BKN","base":1300}],"obsTime":1779397200},"SBTA":{"icaoId":"SBTA","flightCategory":"VFR","rawOb":"METAR SBTA 212100Z 16005KT 120V210 9999 FEW020 BKN035 17/13 Q1023","temp":17,"dewp":13,"wdir":160,"wspd":5,"visib":"6+","altim":1023,"clouds":[{"cover":"FEW","base":2000},{"cover":"BKN","base":3500}],"obsTime":1779397200},"SBIH":{"icaoId":"SBIH","flightCategory":"VFR","rawOb":"METAR SBIH 212100Z 22005KT 9999 FEW015 28/25 Q1011","temp":28,"dewp":25,"wdir":220,"wspd":5,"visib":"6+","altim":1011,"clouds":[{"cover":"FEW","base":1500}],"obsTime":1779397200},"SBST":{"icaoId":"SBST","flightCategory":"MVFR","rawOb":"METAR SBST 212100Z 34004KT 6000 OVC028 17/16 Q1024","temp":17,"dewp":16,"wdir":340,"wspd":4,"visib":3.73,"altim":1024,"clouds":[{"cover":"OVC","base":2800}],"obsTime":1779397200}}}