{"updated":1784417966,"count":72,"data":{"SBBR":{"icaoId":"SBBR","flightCategory":"VFR","rawOb":"METAR SBBR 182200Z 12007KT CAVOK 21/11 Q1020","temp":21,"dewp":11,"wdir":120,"wspd":7,"visib":"6+","altim":1020,"clouds":[],"obsTime":1784412000},"SBMQ":{"icaoId":"SBMQ","flightCategory":"VFR","rawOb":"METAR SBMQ 182200Z 02004KT 9999 FEW046TCU 28/25 Q1010","temp":28,"dewp":25,"wdir":20,"wspd":4,"visib":"6+","altim":1010,"clouds":[{"cover":"FEW","base":4600}],"obsTime":1784412000},"SBMA":{"icaoId":"SBMA","flightCategory":"VFR","rawOb":"METAR SBMA 182200Z 07004KT CAVOK 31/19 Q1011","temp":31,"dewp":19,"wdir":70,"wspd":4,"visib":"6+","altim":1011,"clouds":[],"obsTime":1784412000},"SBLO":{"icaoId":"SBLO","flightCategory":"VFR","rawOb":"METAR SBLO 182200Z 04003KT CAVOK 22/11 Q1015","temp":22,"dewp":11,"wdir":40,"wspd":3,"visib":"6+","altim":1015,"clouds":[],"obsTime":1784412000},"SBMO":{"icaoId":"SBMO","flightCategory":"VFR","rawOb":"METAR SBMO 182200Z 13009KT CAVOK 24/19 Q1016","temp":24,"dewp":19,"wdir":130,"wspd":9,"visib":"6+","altim":1016,"clouds":[],"obsTime":1784412000},"SBPJ":{"icaoId":"SBPJ","flightCategory":"VFR","rawOb":"METAR SBPJ 182200Z 12004KT CAVOK 28/17 Q1013","temp":28,"dewp":17,"wdir":120,"wspd":4,"visib":"6+","altim":1013,"clouds":[],"obsTime":1784412000},"SBFZ":{"icaoId":"SBFZ","flightCategory":"VFR","rawOb":"METAR SBFZ 182200Z 13012KT 9999 FEW018 SCT025 BKN100 26/23 Q1012","temp":26,"dewp":23,"wdir":130,"wspd":12,"visib":"6+","altim":1012,"clouds":[{"cover":"FEW","base":1800},{"cover":"SCT","base":2500},{"cover":"BKN","base":10000}],"obsTime":1784412000},"SBSV":{"icaoId":"SBSV","flightCategory":"VFR","rawOb":"METAR SBSV 182200Z 11012KT 9999 SCT021 BKN060 24/20 Q1018","temp":24,"dewp":20,"wdir":110,"wspd":12,"visib":"6+","altim":1018,"clouds":[{"cover":"SCT","base":2100},{"cover":"BKN","base":6000}],"obsTime":1784412000},"SBSG":{"icaoId":"SBSG","flightCategory":"VFR","rawOb":"METAR SBSG 182200Z 16008G20KT 130V200 9999 FEW021 SCT033 24/22 Q1014","temp":24,"dewp":22,"wdir":160,"wspd":8,"visib":"6+","altim":1014,"clouds":[{"cover":"FEW","base":2100},{"cover":"SCT","base":3300}],"obsTime":1784412000},"SBKP":{"icaoId":"SBKP","flightCategory":"VFR","rawOb":"METAR SBKP 182200Z 36005KT CAVOK 21/08 Q1019","temp":21,"dewp":8,"wdir":360,"wspd":5,"visib":"6+","altim":1019,"clouds":[],"obsTime":1784412000},"SBGR":{"icaoId":"SBGR","flightCategory":"VFR","rawOb":"METAR SBGR 182200Z 04009KT CAVOK 20/10 Q1019","temp":20,"dewp":10,"wdir":40,"wspd":9,"visib":"6+","altim":1019,"clouds":[],"obsTime":1784412000},"SBCG":{"icaoId":"SBCG","flightCategory":"VFR","rawOb":"METAR SBCG 182200Z 02007KT CAVOK 25/15 Q1012","temp":25,"dewp":15,"wdir":20,"wspd":7,"visib":"6+","altim":1012,"clouds":[],"obsTime":1784412000},"SBFI":{"icaoId":"SBFI","flightCategory":"VFR","rawOb":"METAR SBFI 182200Z 04012KT CAVOK 27/17 Q1005","temp":27,"dewp":17,"wdir":40,"wspd":12,"visib":"6+","altim":1005,"clouds":[],"obsTime":1784412000},"SBRF":{"icaoId":"SBRF","flightCategory":"VFR","rawOb":"METAR SBRF 182200Z 16013KT 9999 SCT026 BKN050 26/21 Q1015","temp":26,"dewp":21,"wdir":160,"wspd":13,"visib":"6+","altim":1015,"clouds":[{"cover":"SCT","base":2600},{"cover":"BKN","base":5000}],"obsTime":1784412000},"SBGL":{"icaoId":"SBGL","flightCategory":"VFR","rawOb":"METAR SBGL 182200Z 02012KT CAVOK 26/13 Q1016","temp":26,"dewp":13,"wdir":20,"wspd":12,"visib":"6+","altim":1016,"clouds":[],"obsTime":1784412000},"SBIL":{"icaoId":"SBIL","flightCategory":"MVFR","rawOb":"METAR SBIL 182200Z 15009KT 110V180 9999 BKN023 25/20 Q1019","temp":25,"dewp":20,"wdir":150,"wspd":9,"visib":"6+","altim":1019,"clouds":[{"cover":"BKN","base":2300}],"obsTime":1784412000},"SBJU":{"icaoId":"SBJU","flightCategory":"VFR","rawOb":"METAR SBJU 182200Z 18005KT 9999 FEW020 24/18 Q1016","temp":24,"dewp":18,"wdir":180,"wspd":5,"visib":"6+","altim":1016,"clouds":[{"cover":"FEW","base":2000}],"obsTime":1784412000},"SBCT":{"icaoId":"SBCT","flightCategory":"VFR","rawOb":"METAR SBCT 182200Z 01006KT CAVOK 19/11 Q1017","temp":19,"dewp":11,"wdir":10,"wspd":6,"visib":"6+","altim":1017,"clouds":[],"obsTime":1784412000},"SBME":{"icaoId":"SBME","flightCategory":"VFR","rawOb":"METAR SBME 182200Z 03011KT CAVOK 22/18 Q1019","temp":22,"dewp":18,"wdir":30,"wspd":11,"visib":"6+","altim":1019,"clouds":[],"obsTime":1784412000},"SBMK":{"icaoId":"SBMK","flightCategory":"VFR","rawOb":"METAR SBMK 182200Z 09007KT CAVOK 21/11 Q1020","temp":21,"dewp":11,"wdir":90,"wspd":7,"visib":"6+","altim":1020,"clouds":[],"obsTime":1784412000},"SBBV":{"icaoId":"SBBV","flightCategory":"VFR","rawOb":"METAR SBBV 182200Z 35006KT 9999 FEW040 FEW045TCU SCT100 30/23 Q1009","temp":30,"dewp":23,"wdir":350,"wspd":6,"visib":"6+","altim":1009,"clouds":[{"cover":"FEW","base":4000},{"cover":"FEW","base":4500},{"cover":"SCT","base":10000}],"obsTime":1784412000},"SBUL":{"icaoId":"SBUL","flightCategory":"VFR","rawOb":"METAR SBUL 182200Z 08005KT 050V110 CAVOK 20/10 Q1020","temp":20,"dewp":10,"wdir":80,"wspd":5,"visib":"6+","altim":1020,"clouds":[],"obsTime":1784412000},"SBUR":{"icaoId":"SBUR","flightCategory":"VFR","rawOb":"METAR SBUR 182200Z 05004KT CAVOK 22/10 Q1019","temp":22,"dewp":10,"wdir":50,"wspd":4,"visib":"6+","altim":1019,"clouds":[],"obsTime":1784412000},"SBMG":{"icaoId":"SBMG","flightCategory":"VFR","rawOb":"METAR SBMG 182200Z 03013KT CAVOK 23/12 Q1013","temp":23,"dewp":12,"wdir":30,"wspd":13,"visib":"6+","altim":1013,"clouds":[],"obsTime":1784412000},"SBRB":{"icaoId":"SBRB","flightCategory":"VFR","rawOb":"METAR SBRB 182200Z 35006KT 9999 FEW035 31/23 Q1009","temp":31,"dewp":23,"wdir":350,"wspd":6,"visib":"6+","altim":1009,"clouds":[{"cover":"FEW","base":3500}],"obsTime":1784412000},"SBPV":{"icaoId":"SBPV","flightCategory":"VFR","rawOb":"METAR SBPV 182200Z 03004KT 9999 SCT035 31/23 Q1008","temp":31,"dewp":23,"wdir":30,"wspd":4,"visib":"6+","altim":1008,"clouds":[{"cover":"SCT","base":3500}],"obsTime":1784412000},"SBCZ":{"icaoId":"SBCZ","flightCategory":"VFR","rawOb":"METAR SBCZ 182200Z 30003KT 9999 FEW030 31/23 Q1009","temp":31,"dewp":23,"wdir":300,"wspd":3,"visib":"6+","altim":1009,"clouds":[{"cover":"FEW","base":3000}],"obsTime":1784412000},"SBNT":{"icaoId":"SBNT","flightCategory":"VFR","rawOb":"METAR SBNT 182200Z 18010KT 9999 FEW016 SCT040 24/22 Q1014","temp":24,"dewp":22,"wdir":180,"wspd":10,"visib":"6+","altim":1014,"clouds":[{"cover":"FEW","base":1600},{"cover":"SCT","base":4000}],"obsTime":1784412000},"SBFL":{"icaoId":"SBFL","flightCategory":"VFR","rawOb":"METAR SBFL 182200Z 35012KT CAVOK 23/14 Q1011","temp":23,"dewp":14,"wdir":350,"wspd":12,"visib":"6+","altim":1011,"clouds":[],"obsTime":1784412000},"SBTE":{"icaoId":"SBTE","flightCategory":"VFR","rawOb":"METAR SBTE 182200Z 18008KT CAVOK 31/18 Q1011","temp":31,"dewp":18,"wdir":180,"wspd":8,"visib":"6+","altim":1011,"clouds":[],"obsTime":1784412000},"SBVT":{"icaoId":"SBVT","flightCategory":"MVFR","rawOb":"METAR SBVT 182200Z 30003KT 9999 BKN030 BKN035 21/19 Q1021","temp":21,"dewp":19,"wdir":300,"wspd":3,"visib":"6+","altim":1021,"clouds":[{"cover":"BKN","base":3000},{"cover":"BKN","base":3500}],"obsTime":1784412000},"SBSN":{"icaoId":"SBSN","flightCategory":"VFR","rawOb":"METAR SBSN 182200Z 09001KT CAVOK 28/24 Q1010","temp":28,"dewp":24,"wdir":90,"wspd":1,"visib":"6+","altim":1010,"clouds":[],"obsTime":1784412000},"SBGO":{"icaoId":"SBGO","flightCategory":"VFR","rawOb":"METAR SBGO 182200Z 09009KT CAVOK 24/09 Q1017","temp":24,"dewp":9,"wdir":90,"wspd":9,"visib":"6+","altim":1017,"clouds":[],"obsTime":1784412000},"SBCF":{"icaoId":"SBCF","flightCategory":"VFR","rawOb":"METAR SBCF 182200Z 07005KT CAVOK 19/11 Q1022","temp":19,"dewp":11,"wdir":70,"wspd":5,"visib":"6+","altim":1022,"clouds":[],"obsTime":1784412000},"SBPA":{"icaoId":"SBPA","flightCategory":"VFR","rawOb":"METAR SBPA 182200Z 27004KT CAVOK 27/18 Q1004","temp":27,"dewp":18,"wdir":270,"wspd":4,"visib":"6+","altim":1004,"clouds":[],"obsTime":1784412000},"SBBE":{"icaoId":"SBBE","flightCategory":"VFR","rawOb":"METAR SBBE 182200Z 36006KT 9999 SCT043 BKN050 BKN069 29/25 Q1010","temp":29,"dewp":25,"wdir":360,"wspd":6,"visib":"6+","altim":1010,"clouds":[{"cover":"SCT","base":4300},{"cover":"BKN","base":5000},{"cover":"BKN","base":6900}],"obsTime":1784412000},"SBEG":{"icaoId":"SBEG","flightCategory":"VFR","rawOb":"METAR SBEG 182200Z 08007KT 9999 FEW030 30/23 Q1009","temp":30,"dewp":23,"wdir":80,"wspd":7,"visib":"6+","altim":1009,"clouds":[{"cover":"FEW","base":3000}],"obsTime":1784412000},"SBSL":{"icaoId":"SBSL","flightCategory":"VFR","rawOb":"METAR SBSL 182200Z 15004KT 110V190 9999 FEW020 BKN080 29/24 Q1011","temp":29,"dewp":24,"wdir":150,"wspd":4,"visib":"6+","altim":1011,"clouds":[{"cover":"FEW","base":2000},{"cover":"BKN","base":8000}],"obsTime":1784412000},"SBSP":{"icaoId":"SBSP","flightCategory":"VFR","rawOb":"METAR SBSP 182200Z 35006KT CAVOK 20/09 Q1020","temp":20,"dewp":9,"wdir":350,"wspd":6,"visib":"6+","altim":1020,"clouds":[],"obsTime":1784412000},"SBCP":{"icaoId":"SBCP","flightCategory":"VFR","rawOb":"METAR SBCP 182200Z 07014KT CAVOK 22/19 Q1019","temp":22,"dewp":19,"wdir":70,"wspd":14,"visib":"6+","altim":1019,"clouds":[],"obsTime":1784412000},"SBPL":{"icaoId":"SBPL","flightCategory":"VFR","rawOb":"METAR SBPL 182200Z 12008KT CAVOK 27/15 Q1016","temp":27,"dewp":15,"wdir":120,"wspd":8,"visib":"6+","altim":1016,"clouds":[],"obsTime":1784412000},"SBSJ":{"icaoId":"SBSJ","flightCategory":"VFR","rawOb":"METAR SBSJ 182200Z 03003KT 350V060 CAVOK 20/10 Q1019","temp":20,"dewp":10,"wdir":30,"wspd":3,"visib":"6+","altim":1019,"clouds":[],"obsTime":1784412000},"SBOI":{"icaoId":"SBOI","flightCategory":"VFR","rawOb":"METAR SBOI 182200Z AUTO VRB02KT CAVOK 29/21 Q1011","temp":29,"dewp":21,"wdir":"VRB","wspd":2,"visib":"6+","altim":1011,"clouds":[],"obsTime":1784412000},"SBAR":{"icaoId":"SBAR","flightCategory":"VFR","rawOb":"METAR SBAR 182200Z 11010KT CAVOK 26/20 Q1017","temp":26,"dewp":20,"wdir":110,"wspd":10,"visib":"6+","altim":1017,"clouds":[],"obsTime":1784412000},"SBTT":{"icaoId":"SBTT","flightCategory":"VFR","rawOb":"METAR SBTT 182200Z 13003KT 9999 FEW030 FEW035TCU 31/24 Q1008","temp":31,"dewp":24,"wdir":130,"wspd":3,"visib":"6+","altim":1008,"clouds":[{"cover":"FEW","base":3000},{"cover":"FEW","base":3500}],"obsTime":1784412000},"SBVH":{"icaoId":"SBVH","flightCategory":"VFR","rawOb":"METAR SBVH 182200Z 20008KT 9999 BKN040 27/21 Q1013","temp":27,"dewp":21,"wdir":200,"wspd":8,"visib":"6+","altim":1013,"clouds":[{"cover":"BKN","base":4000}],"obsTime":1784412000},"SBKG":{"icaoId":"SBKG","flightCategory":"MVFR","rawOb":"METAR SBKG 182200Z 14007KT 9999 BKN015 21/19 Q1017","temp":21,"dewp":19,"wdir":140,"wspd":7,"visib":"6+","altim":1017,"clouds":[{"cover":"BKN","base":1500}],"obsTime":1784412000},"SBPS":{"icaoId":"SBPS","flightCategory":"VFR","rawOb":"METAR SBPS 182200Z 08008KT 9999 FEW030 BKN070 24/20 Q1020","temp":24,"dewp":20,"wdir":80,"wspd":8,"visib":"6+","altim":1020,"clouds":[{"cover":"FEW","base":3000},{"cover":"BKN","base":7000}],"obsTime":1784412000},"SBAX":{"icaoId":"SBAX","flightCategory":"VFR","rawOb":"METAR SBAX 182200Z AUTO VRB02KT CAVOK 18/09 Q1021","temp":18,"dewp":9,"wdir":"VRB","wspd":2,"visib":"6+","altim":1021,"clouds":[],"obsTime":1784412000},"SBBH":{"icaoId":"SBBH","flightCategory":"VFR","rawOb":"METAR SBBH 182200Z 00000KT CAVOK 19/11 Q1022","temp":19,"dewp":11,"wdir":0,"wspd":0,"visib":"6+","altim":1022,"clouds":[],"obsTime":1784412000},"SBBU":{"icaoId":"SBBU","flightCategory":"VFR","rawOb":"METAR SBBU 182200Z 04003KT CAVOK 24/10 Q1017","temp":24,"dewp":10,"wdir":40,"wspd":3,"visib":"6+","altim":1017,"clouds":[],"obsTime":1784412000},"SBDN":{"icaoId":"SBDN","flightCategory":"VFR","rawOb":"METAR SBDN 182200Z 05005KT CAVOK 24/11 Q1014","temp":24,"dewp":11,"wdir":50,"wspd":5,"visib":"6+","altim":1014,"clouds":[],"obsTime":1784412000},"SBTU":{"icaoId":"SBTU","flightCategory":"VFR","rawOb":"METAR SBTU 182200Z AUTO 01002KT 9999 // NCD ///// Q1012","temp":null,"dewp":null,"wdir":10,"wspd":2,"visib":"6+","altim":1012,"clouds":[],"obsTime":1784412000},"SBIP":{"icaoId":"SBIP","flightCategory":"VFR","rawOb":"METAR SBIP 182200Z AUTO 00000KT CAVOK 17/15 Q1020","temp":17,"dewp":15,"wdir":0,"wspd":0,"visib":"6+","altim":1020,"clouds":[],"obsTime":1784412000},"SBSC":{"icaoId":"SBSC","flightCategory":"VFR","rawOb":"METAR SBSC 182200Z 01005KT CAVOK 23/14 Q1016","temp":23,"dewp":14,"wdir":10,"wspd":5,"visib":"6+","altim":1016,"clouds":[],"obsTime":1784412000},"SBSR":{"icaoId":"SBSR","flightCategory":"VFR","rawOb":"METAR SBSR 182200Z 07004KT CAVOK 24/08 Q1016","temp":24,"dewp":8,"wdir":70,"wspd":4,"visib":"6+","altim":1016,"clouds":[],"obsTime":1784412000},"SBCA":{"icaoId":"SBCA","flightCategory":"VFR","rawOb":"METAR SBCA 182200Z 03014G24KT CAVOK 23/13 Q1011","temp":23,"dewp":13,"wdir":30,"wspd":14,"visib":"6+","altim":1011,"clouds":[],"obsTime":1784412000},"SBCO":{"icaoId":"SBCO","flightCategory":"VFR","rawOb":"METAR SBCO 182200Z 30002KT CAVOK 26/18 Q1005","temp":26,"dewp":18,"wdir":300,"wspd":2,"visib":"6+","altim":1005,"clouds":[],"obsTime":1784412000},"SBSM":{"icaoId":"SBSM","flightCategory":"VFR","rawOb":"METAR SBSM 182200Z 04006KT 9999 FEW045 SCT080 28/19 Q1003","temp":28,"dewp":19,"wdir":40,"wspd":6,"visib":"6+","altim":1003,"clouds":[{"cover":"FEW","base":4500},{"cover":"SCT","base":8000}],"obsTime":1784412000},"SBTF":{"icaoId":"SBTF","flightCategory":"VFR","rawOb":"METAR SBTF 182200Z 00000KT 9999 FEW020 FEW025TCU BKN080 26/26 Q1008","temp":26,"dewp":26,"wdir":0,"wspd":0,"visib":"6+","altim":1008,"clouds":[{"cover":"FEW","base":2000},{"cover":"FEW","base":2500},{"cover":"BKN","base":8000}],"obsTime":1784412000},"SBUY":{"icaoId":"SBUY","flightCategory":"VFR","rawOb":"METAR SBUY 182200Z 17003KT 9999 VCSH FEW025 FEW030TCU 28/26 Q1007","temp":28,"dewp":26,"wdir":170,"wspd":3,"visib":"6+","altim":1007,"clouds":[{"cover":"FEW","base":2500},{"cover":"FEW","base":3000}],"obsTime":1784412000},"SBPB":{"icaoId":"SBPB","flightCategory":"VFR","rawOb":"SPECI SBPB 182145Z 07006KT 9999 FEW016 BKN090 28/25 Q1011","temp":28,"dewp":25,"wdir":70,"wspd":6,"visib":"6+","altim":1011,"clouds":[{"cover":"FEW","base":1600},{"cover":"BKN","base":9000}],"obsTime":1784411100},"SBJP":{"icaoId":"SBJP","flightCategory":"VFR","rawOb":"METAR SBJP 182200Z 15008KT 9999 SCT025 24/21 Q1015","temp":24,"dewp":21,"wdir":150,"wspd":8,"visib":"6+","altim":1015,"clouds":[{"cover":"SCT","base":2500}],"obsTime":1784412000},"SBAN":{"icaoId":"SBAN","flightCategory":"VFR","rawOb":"METAR SBAN 182200Z 36004KT CAVOK 19/09 Q1020","temp":19,"dewp":9,"wdir":360,"wspd":4,"visib":"6+","altim":1020,"clouds":[],"obsTime":1784412000},"SBLE":{"icaoId":"SBLE","flightCategory":"VFR","rawOb":"METAR SBLE 182200Z AUTO 34002KT CAVOK ///// Q1020","temp":null,"dewp":null,"wdir":340,"wspd":2,"visib":"6+","altim":1020,"clouds":[],"obsTime":1784412000},"SBAF":{"icaoId":"SBAF","flightCategory":"VFR","rawOb":"METAR SBAF 182200Z 05002KT CAVOK 24/13 Q1016","temp":24,"dewp":13,"wdir":50,"wspd":2,"visib":"6+","altim":1016,"clouds":[],"obsTime":1784412000},"SBJR":{"icaoId":"SBJR","flightCategory":"VFR","rawOb":"METAR SBJR 182200Z 00000KT CAVOK 19/16 Q1016","temp":19,"dewp":16,"wdir":0,"wspd":0,"visib":"6+","altim":1016,"clouds":[],"obsTime":1784412000},"SBLS":{"icaoId":"SBLS","flightCategory":"VFR","rawOb":"METAR SBLS 182200Z 10004KT 040V120 CAVOK 19/11 Q1022","temp":19,"dewp":11,"wdir":100,"wspd":4,"visib":"6+","altim":1022,"clouds":[],"obsTime":1784412000},"SBMT":{"icaoId":"SBMT","flightCategory":"VFR","rawOb":"METAR SBMT 182200Z 36003KT 330V030 CAVOK 20/07 Q1019","temp":20,"dewp":7,"wdir":360,"wspd":3,"visib":"6+","altim":1019,"clouds":[],"obsTime":1784412000},"SBTA":{"icaoId":"SBTA","flightCategory":"VFR","rawOb":"METAR SBTA 182300Z 00000KT CAVOK 14/11 Q1019","temp":14,"dewp":11,"wdir":0,"wspd":0,"visib":"6+","altim":1019,"clouds":[],"obsTime":1784415600},"SBJV":{"icaoId":"SBJV","flightCategory":"VFR","rawOb":"METAR SBJV 182200Z 00000KT CAVOK 20/17 Q1011","temp":20,"dewp":17,"wdir":0,"wspd":0,"visib":"6+","altim":1011,"clouds":[],"obsTime":1784412000},"SBGW":{"icaoId":"SBGW","flightCategory":"VFR","rawOb":"METAR SBGW 182200Z 07005KT CAVOK 20/09 Q1019","temp":20,"dewp":9,"wdir":70,"wspd":5,"visib":"6+","altim":1019,"clouds":[],"obsTime":1784412000}}}