{"updated":1781344073,"count":64,"data":{"SBKP":{"icaoId":"SBKP","flightCategory":"MVFR","rawOb":"METAR SBKP 130800Z 33007KT 9999 -RA FEW001 SCT004 OVC011 17/17 Q1017 RETSRA","temp":17,"dewp":17,"wdir":330,"wspd":7,"visib":"6+","altim":1017,"clouds":[{"cover":"FEW","base":100},{"cover":"SCT","base":400},{"cover":"OVC","base":1100}],"obsTime":1781337600},"SBBE":{"icaoId":"SBBE","flightCategory":"VFR","rawOb":"METAR SBBE 130800Z 08006KT 9999 SCT045 BKN100 25/22 Q1013","temp":25,"dewp":22,"wdir":80,"wspd":6,"visib":"6+","altim":1013,"clouds":[{"cover":"SCT","base":4500},{"cover":"BKN","base":10000}],"obsTime":1781337600},"SBBR":{"icaoId":"SBBR","flightCategory":"VFR","rawOb":"METAR SBBR 130800Z 28001KT CAVOK 17/17 Q1021","temp":17,"dewp":17,"wdir":280,"wspd":1,"visib":"6+","altim":1021,"clouds":[],"obsTime":1781337600},"SBSG":{"icaoId":"SBSG","flightCategory":"VFR","rawOb":"METAR SBSG 130800Z 18003KT 9999 FEW020 BKN050 23/22 Q1016","temp":23,"dewp":22,"wdir":180,"wspd":3,"visib":"6+","altim":1016,"clouds":[{"cover":"FEW","base":2000},{"cover":"BKN","base":5000}],"obsTime":1781337600},"SBBV":{"icaoId":"SBBV","flightCategory":"VFR","rawOb":"METAR SBBV 130800Z 08008KT 9999 FEW035 FEW040TCU BKN080 26/24 Q1012","temp":26,"dewp":24,"wdir":80,"wspd":8,"visib":"6+","altim":1012,"clouds":[{"cover":"FEW","base":3500},{"cover":"FEW","base":4000},{"cover":"BKN","base":8000}],"obsTime":1781337600},"SBCB":{"icaoId":"SBCB","flightCategory":"MVFR","rawOb":"METAR SBCB 130900Z 07004KT 6000 SCT008 20/18 Q1011","temp":20,"dewp":18,"wdir":70,"wspd":4,"visib":3.73,"altim":1011,"clouds":[{"cover":"SCT","base":800}],"obsTime":1781341200},"SBCF":{"icaoId":"SBCF","flightCategory":"LIFR","rawOb":"METAR SBCF 130800Z 21002KT 0900 R16R/0400U R34L/0900N FG BKN002 16/15 Q1020","temp":16,"dewp":15,"wdir":210,"wspd":2,"visib":0.56,"altim":1020,"clouds":[{"cover":"BKN","base":200}],"obsTime":1781337600},"SBCG":{"icaoId":"SBCG","flightCategory":"LIFR","rawOb":"METAR SBCG 130800Z 16004KT 5000 -RA VCTS BKN002 BKN007 BKN025 FEW030CB 19/19 Q1015 RERA","temp":19,"dewp":19,"wdir":160,"wspd":4,"visib":3.11,"altim":1015,"clouds":[{"cover":"BKN","base":200},{"cover":"BKN","base":700},{"cover":"BKN","base":2500},{"cover":"FEW","base":3000}],"obsTime":1781337600},"SBCT":{"icaoId":"SBCT","flightCategory":"VFR","rawOb":"METAR SBCT 130800Z 27007KT CAVOK 09/08 Q1016","temp":9,"dewp":8,"wdir":270,"wspd":7,"visib":"6+","altim":1016,"clouds":[],"obsTime":1781337600},"SBEG":{"icaoId":"SBEG","flightCategory":"VFR","rawOb":"METAR SBEG 130800Z 05004KT CAVOK 26/23 Q1012","temp":26,"dewp":23,"wdir":50,"wspd":4,"visib":"6+","altim":1012,"clouds":[],"obsTime":1781337600},"SBFI":{"icaoId":"SBFI","flightCategory":"MVFR","rawOb":"METAR SBFI 130800Z 09002KT 5000 BR NSC 11/11 Q1015","temp":11,"dewp":11,"wdir":90,"wspd":2,"visib":3.11,"altim":1015,"clouds":[],"obsTime":1781337600},"SBFL":{"icaoId":"SBFL","flightCategory":"VFR","rawOb":"METAR SBFL 130800Z 27004KT CAVOK 15/11 Q1010","temp":15,"dewp":11,"wdir":270,"wspd":4,"visib":"6+","altim":1010,"clouds":[],"obsTime":1781337600},"SBFZ":{"icaoId":"SBFZ","flightCategory":"VFR","rawOb":"METAR SBFZ 130800Z 16006KT 9999 SCT025 26/24 Q1015","temp":26,"dewp":24,"wdir":160,"wspd":6,"visib":"6+","altim":1015,"clouds":[{"cover":"SCT","base":2500}],"obsTime":1781337600},"SBGL":{"icaoId":"SBGL","flightCategory":"VFR","rawOb":"METAR SBGL 130800Z 16004KT CAVOK 20/18 Q1011","temp":20,"dewp":18,"wdir":160,"wspd":4,"visib":"6+","altim":1011,"clouds":[],"obsTime":1781337600},"SBGO":{"icaoId":"SBGO","flightCategory":"VFR","rawOb":"METAR SBGO 130800Z 14002KT CAVOK 19/17 Q1019","temp":19,"dewp":17,"wdir":140,"wspd":2,"visib":"6+","altim":1019,"clouds":[],"obsTime":1781337600},"SBGR":{"icaoId":"SBGR","flightCategory":"MVFR","rawOb":"METAR SBGR 130800Z COR 33005KT 9999 -TSRA FEW016 BKN021 FEW045CB 19/17 Q1016 RETS","temp":19,"dewp":17,"wdir":330,"wspd":5,"visib":"6+","altim":1016,"clouds":[{"cover":"FEW","base":1600},{"cover":"BKN","base":2100},{"cover":"FEW","base":4500}],"obsTime":1781337600},"SBJU":{"icaoId":"SBJU","flightCategory":"VFR","rawOb":"METAR SBJU 130800Z 00000KT 9999 SCT020 23/20 Q1017","temp":23,"dewp":20,"wdir":0,"wspd":0,"visib":"6+","altim":1017,"clouds":[{"cover":"SCT","base":2000}],"obsTime":1781337600},"SBLO":{"icaoId":"SBLO","flightCategory":"VFR","rawOb":"METAR SBLO 130800Z 26003KT 9999 FEW035 13/12 Q1016","temp":13,"dewp":12,"wdir":260,"wspd":3,"visib":"6+","altim":1016,"clouds":[{"cover":"FEW","base":3500}],"obsTime":1781337600},"SBMA":{"icaoId":"SBMA","flightCategory":"VFR","rawOb":"METAR SBMA 130800Z 00000KT CAVOK 25/23 Q1013","temp":25,"dewp":23,"wdir":0,"wspd":0,"visib":"6+","altim":1013,"clouds":[],"obsTime":1781337600},"SBME":{"icaoId":"SBME","flightCategory":"VFR","rawOb":"METAR SBME 130800Z 04003KT CAVOK 20/18 Q1011","temp":20,"dewp":18,"wdir":40,"wspd":3,"visib":"6+","altim":1011,"clouds":[],"obsTime":1781337600},"SBMG":{"icaoId":"SBMG","flightCategory":"VFR","rawOb":"METAR SBMG 130800Z AUTO 12005KT 9999 OVC037 13/12 Q1015","temp":13,"dewp":12,"wdir":120,"wspd":5,"visib":"6+","altim":1015,"clouds":[{"cover":"OVC","base":3700}],"obsTime":1781337600},"SBMK":{"icaoId":"SBMK","flightCategory":"VFR","rawOb":"METAR SBMK 130800Z 21003KT CAVOK 19/19 Q1018","temp":19,"dewp":19,"wdir":210,"wspd":3,"visib":"6+","altim":1018,"clouds":[],"obsTime":1781337600},"SBMO":{"icaoId":"SBMO","flightCategory":"VFR","rawOb":"METAR SBMO 130800Z 28004KT 9999 SCT020 21/21 Q1016","temp":21,"dewp":21,"wdir":280,"wspd":4,"visib":"6+","altim":1016,"clouds":[{"cover":"SCT","base":2000}],"obsTime":1781337600},"SBMQ":{"icaoId":"SBMQ","flightCategory":"VFR","rawOb":"METAR SBMQ 130800Z 35003KT 9999 FEW001 25/24 Q1013","temp":25,"dewp":24,"wdir":350,"wspd":3,"visib":"6+","altim":1013,"clouds":[{"cover":"FEW","base":100}],"obsTime":1781337600},"SBNT":{"icaoId":"SBNT","flightCategory":"VFR","rawOb":"METAR SBNT 130800Z 18005KT 9999 FEW008 23/23 Q1015","temp":23,"dewp":23,"wdir":180,"wspd":5,"visib":"6+","altim":1015,"clouds":[{"cover":"FEW","base":800}],"obsTime":1781337600},"SBPA":{"icaoId":"SBPA","flightCategory":"IFR","rawOb":"METAR SBPA 130800Z 28008KT 9999 FEW004 BKN008 OVC020 13/13 Q1014","temp":13,"dewp":13,"wdir":280,"wspd":8,"visib":"6+","altim":1014,"clouds":[{"cover":"FEW","base":400},{"cover":"BKN","base":800},{"cover":"OVC","base":2000}],"obsTime":1781337600},"SBPJ":{"icaoId":"SBPJ","flightCategory":"VFR","rawOb":"METAR SBPJ 130800Z 12003KT CAVOK 22/18 Q1014","temp":22,"dewp":18,"wdir":120,"wspd":3,"visib":"6+","altim":1014,"clouds":[],"obsTime":1781337600},"SBPV":{"icaoId":"SBPV","flightCategory":"VFR","rawOb":"METAR SBPV 130800Z 00000KT 9999 SCT030 24/23 Q1012","temp":24,"dewp":23,"wdir":0,"wspd":0,"visib":"6+","altim":1012,"clouds":[{"cover":"SCT","base":3000}],"obsTime":1781337600},"SBRB":{"icaoId":"SBRB","flightCategory":"MVFR","rawOb":"METAR SBRB 130800Z 00000KT 8000 NSC 22/22 Q1014","temp":22,"dewp":22,"wdir":0,"wspd":0,"visib":4.97,"altim":1014,"clouds":[],"obsTime":1781337600},"SBRF":{"icaoId":"SBRF","flightCategory":"VFR","rawOb":"METAR SBRF 130800Z 23003KT 9999 SCT022 23/22 Q1016","temp":23,"dewp":22,"wdir":230,"wspd":3,"visib":"6+","altim":1016,"clouds":[{"cover":"SCT","base":2200}],"obsTime":1781337600},"SBSL":{"icaoId":"SBSL","flightCategory":"VFR","rawOb":"METAR SBSL 130800Z 08004KT 9999 SCT017 BKN080 27/24 Q1013","temp":27,"dewp":24,"wdir":80,"wspd":4,"visib":"6+","altim":1013,"clouds":[{"cover":"SCT","base":1700},{"cover":"BKN","base":8000}],"obsTime":1781337600},"SBSN":{"icaoId":"SBSN","flightCategory":"VFR","rawOb":"METAR SBSN 130800Z 13001KT 9999 FEW015 24/24 Q1012","temp":24,"dewp":24,"wdir":130,"wspd":1,"visib":"6+","altim":1012,"clouds":[{"cover":"FEW","base":1500}],"obsTime":1781337600},"SBSP":{"icaoId":"SBSP","flightCategory":"MVFR","rawOb":"SPECI SBSP 130752Z AUTO 32011KT 9999 FEW010 BKN013 BKN018 19/17 Q1016","temp":19,"dewp":17,"wdir":320,"wspd":11,"visib":"6+","altim":1016,"clouds":[{"cover":"FEW","base":1000},{"cover":"BKN","base":1300},{"cover":"BKN","base":1800}],"obsTime":1781337120},"SBSV":{"icaoId":"SBSV","flightCategory":"VFR","rawOb":"METAR SBSV 130800Z VRB01KT CAVOK 21/20 Q1017","temp":21,"dewp":20,"wdir":"VRB","wspd":1,"visib":"6+","altim":1017,"clouds":[],"obsTime":1781337600},"SBTE":{"icaoId":"SBTE","flightCategory":"VFR","rawOb":"METAR SBTE 130800Z 00000KT CAVOK 25/23 Q1014","temp":25,"dewp":23,"wdir":0,"wspd":0,"visib":"6+","altim":1014,"clouds":[],"obsTime":1781337600},"SBUL":{"icaoId":"SBUL","flightCategory":"MVFR","rawOb":"METAR SBUL 130800Z 15005KT 100V170 9999 -TSRA BKN030 FEW035CB BKN100 15/14 Q1021","temp":15,"dewp":14,"wdir":150,"wspd":5,"visib":"6+","altim":1021,"clouds":[{"cover":"BKN","base":3000},{"cover":"FEW","base":3500},{"cover":"BKN","base":10000}],"obsTime":1781337600},"SBUR":{"icaoId":"SBUR","flightCategory":"VFR","rawOb":"METAR SBUR 130800Z 23006KT 9999 -TSRA FEW045 FEW052CB BKN090 16/15 Q1020","temp":16,"dewp":15,"wdir":230,"wspd":6,"visib":"6+","altim":1020,"clouds":[{"cover":"FEW","base":4500},{"cover":"FEW","base":5200},{"cover":"BKN","base":9000}],"obsTime":1781337600},"SBVT":{"icaoId":"SBVT","flightCategory":"VFR","rawOb":"METAR SBVT 130800Z 03006KT CAVOK 21/20 Q1014","temp":21,"dewp":20,"wdir":30,"wspd":6,"visib":"6+","altim":1014,"clouds":[],"obsTime":1781337600},"SBOI":{"icaoId":"SBOI","flightCategory":"LIFR","rawOb":"METAR SBOI 130800Z AUTO 00000KT 1100 // VV001 22/22 Q1013","temp":22,"dewp":22,"wdir":0,"wspd":0,"visib":0.68,"altim":1013,"clouds":[{"cover":"OVX","base":100}],"obsTime":1781337600},"SBPS":{"icaoId":"SBPS","flightCategory":"VFR","rawOb":"METAR SBPS 130800Z 26006KT 9999 FEW020 SCT040 BKN100 21/21 Q1019","temp":21,"dewp":21,"wdir":260,"wspd":6,"visib":"6+","altim":1019,"clouds":[{"cover":"FEW","base":2000},{"cover":"SCT","base":4000},{"cover":"BKN","base":10000}],"obsTime":1781337600},"SBES":{"icaoId":"SBES","flightCategory":"VFR","rawOb":"METAR SBES 130800Z VRB02KT CAVOK 16/// Q1011","temp":null,"dewp":null,"wdir":"VRB","wspd":2,"visib":"6+","altim":1011,"clouds":[],"obsTime":1781337600},"SBSC":{"icaoId":"SBSC","flightCategory":"MVFR","rawOb":"METAR SBSC 130800Z 36006KT 8000 SCT006 SCT015 BKN070 20/16 Q1012","temp":20,"dewp":16,"wdir":360,"wspd":6,"visib":4.97,"altim":1012,"clouds":[{"cover":"SCT","base":600},{"cover":"SCT","base":1500},{"cover":"BKN","base":7000}],"obsTime":1781337600},"SBSJ":{"icaoId":"SBSJ","flightCategory":"LIFR","rawOb":"SPECI SBSJ 130830Z 33029G41KT 1000 R34///// R16/0900U +TSRA BKN011 FEW033CB 15/15 Q1018","temp":15,"dewp":15,"wdir":330,"wspd":29,"visib":0.62,"altim":1018,"clouds":[{"cover":"BKN","base":1100},{"cover":"FEW","base":3300}],"obsTime":1781339400},"SBSM":{"icaoId":"SBSM","flightCategory":"VFR","rawOb":"METAR SBSM 130900Z VRB01KT 9999 FEW013 10/10 Q1016","temp":10,"dewp":10,"wdir":"VRB","wspd":1,"visib":"6+","altim":1016,"clouds":[{"cover":"FEW","base":1300}],"obsTime":1781341200},"SBAX":{"icaoId":"SBAX","flightCategory":"VFR","rawOb":"METAR SBAX 130800Z AUTO 27009KT 230V290 9999 -RA NSC 16/16 Q1021","temp":16,"dewp":16,"wdir":270,"wspd":9,"visib":"6+","altim":1021,"clouds":[],"obsTime":1781337600},"SBSR":{"icaoId":"SBSR","flightCategory":"VFR","rawOb":"METAR SBSR 130800Z VRB04KT 9999 -RA SCT040 FEW040TCU SCT080 17/17 Q1017","temp":17,"dewp":17,"wdir":"VRB","wspd":4,"visib":"6+","altim":1017,"clouds":[{"cover":"SCT","base":4000},{"cover":"FEW","base":4000},{"cover":"SCT","base":8000}],"obsTime":1781337600},"SBTU":{"icaoId":"SBTU","flightCategory":"LIFR","rawOb":"METAR SBTU 130800Z AUTO 21007KT 9999 // OVC003/// ///// Q1015","temp":null,"dewp":null,"wdir":210,"wspd":7,"visib":"6+","altim":1015,"clouds":[{"cover":"OVC","base":300}],"obsTime":1781337600},"SBBH":{"icaoId":"SBBH","flightCategory":"MVFR","rawOb":"METAR SBBH 130900Z 04004KT 9999 BKN018 BKN090 17/17 Q1020","temp":17,"dewp":17,"wdir":40,"wspd":4,"visib":"6+","altim":1020,"clouds":[{"cover":"BKN","base":1800},{"cover":"BKN","base":9000}],"obsTime":1781341200},"SBIP":{"icaoId":"SBIP","flightCategory":"IFR","rawOb":"METAR SBIP 130800Z AUTO VRB02KT 9999 OVC007 19/19 Q1017","temp":19,"dewp":19,"wdir":"VRB","wspd":2,"visib":"6+","altim":1017,"clouds":[{"cover":"OVC","base":700}],"obsTime":1781337600},"SBBU":{"icaoId":"SBBU","flightCategory":"LIFR","rawOb":"METAR SBBU 130900Z 36003KT 9999 OVC003 19/19 Q1018","temp":19,"dewp":19,"wdir":360,"wspd":3,"visib":"6+","altim":1018,"clouds":[{"cover":"OVC","base":300}],"obsTime":1781341200},"SBKG":{"icaoId":"SBKG","flightCategory":"VFR","rawOb":"METAR SBKG 130800Z 00000KT 9999 SCT018 19/19 Q1018","temp":19,"dewp":19,"wdir":0,"wspd":0,"visib":"6+","altim":1018,"clouds":[{"cover":"SCT","base":1800}],"obsTime":1781337600},"SBCO":{"icaoId":"SBCO","flightCategory":"IFR","rawOb":"METAR SBCO 130900Z 29009KT 9999 BKN008 OVC027 13/12 Q1015","temp":13,"dewp":12,"wdir":290,"wspd":9,"visib":"6+","altim":1015,"clouds":[{"cover":"BKN","base":800},{"cover":"OVC","base":2700}],"obsTime":1781341200},"SBPL":{"icaoId":"SBPL","flightCategory":"VFR","rawOb":"METAR SBPL 130800Z 10006KT CAVOK 23/19 Q1018","temp":23,"dewp":19,"wdir":100,"wspd":6,"visib":"6+","altim":1018,"clouds":[],"obsTime":1781337600},"SBDN":{"icaoId":"SBDN","flightCategory":"VFR","rawOb":"METAR SBDN 130800Z 20002KT CAVOK 16/14 Q1016","temp":16,"dewp":14,"wdir":200,"wspd":2,"visib":"6+","altim":1016,"clouds":[],"obsTime":1781337600},"SBAR":{"icaoId":"SBAR","flightCategory":"VFR","rawOb":"METAR SBAR 130800Z 30003KT 9999 FEW023 22/22 Q1016","temp":22,"dewp":22,"wdir":300,"wspd":3,"visib":"6+","altim":1016,"clouds":[{"cover":"FEW","base":2300}],"obsTime":1781337600},"SBJP":{"icaoId":"SBJP","flightCategory":"VFR","rawOb":"METAR SBJP 130800Z 21002KT 9999 FEW020 SCT070 23/23 Q1016","temp":23,"dewp":23,"wdir":210,"wspd":2,"visib":"6+","altim":1016,"clouds":[{"cover":"FEW","base":2000},{"cover":"SCT","base":7000}],"obsTime":1781337600},"SBGW":{"icaoId":"SBGW","flightCategory":"MVFR","rawOb":"METAR SBGW 130900Z VRB03KT 5000 -TSRA HZ SCT020 FEW025CB BKN100 17/13 Q1016","temp":17,"dewp":13,"wdir":"VRB","wspd":3,"visib":3.11,"altim":1016,"clouds":[{"cover":"SCT","base":2000},{"cover":"FEW","base":2500},{"cover":"BKN","base":10000}],"obsTime":1781341200},"SBLS":{"icaoId":"SBLS","flightCategory":"MVFR","rawOb":"METAR SBLS 130900Z 16002KT 8000 2000SW BCFG BKN015 BKN100 16/16 Q1020","temp":16,"dewp":16,"wdir":160,"wspd":2,"visib":4.97,"altim":1020,"clouds":[{"cover":"BKN","base":1500},{"cover":"BKN","base":10000}],"obsTime":1781341200},"SBMT":{"icaoId":"SBMT","flightCategory":"MVFR","rawOb":"METAR SBMT 130900Z 32008KT 290V360 9999 BKN017 18/16 Q1017","temp":18,"dewp":16,"wdir":320,"wspd":8,"visib":"6+","altim":1017,"clouds":[{"cover":"BKN","base":1700}],"obsTime":1781341200},"SBTA":{"icaoId":"SBTA","flightCategory":"MVFR","rawOb":"METAR SBTA 130900Z 30003KT 240V040 8000 -TSRA FEW015 FEW030CB BKN040 BKN090 17/16 Q1017","temp":17,"dewp":16,"wdir":300,"wspd":3,"visib":4.97,"altim":1017,"clouds":[{"cover":"FEW","base":1500},{"cover":"FEW","base":3000},{"cover":"BKN","base":4000},{"cover":"BKN","base":9000}],"obsTime":1781341200},"SBLE":{"icaoId":"SBLE","flightCategory":"MVFR","rawOb":"METAR SBLE 130800Z AUTO 03004KT 7000 BKN013 BKN015 OVC025 ///// Q////","temp":null,"dewp":null,"wdir":30,"wspd":4,"visib":4.35,"altim":null,"clouds":[{"cover":"BKN","base":1300},{"cover":"BKN","base":1500},{"cover":"OVC","base":2500}],"obsTime":1781337600},"SBAN":{"icaoId":"SBAN","flightCategory":"VFR","rawOb":"METAR SBAN 130800Z 06003KT CAVOK 17/16 Q1021","temp":17,"dewp":16,"wdir":60,"wspd":3,"visib":"6+","altim":1021,"clouds":[],"obsTime":1781337600},"SBJV":{"icaoId":"SBJV","flightCategory":"VFR","rawOb":"METAR SBJV 130900Z 27005KT CAVOK 17/10 Q1013","temp":17,"dewp":10,"wdir":270,"wspd":5,"visib":"6+","altim":1013,"clouds":[],"obsTime":1781341200},"SBPF":{"icaoId":"SBPF","flightCategory":"VFR","rawOb":"METAR SBPF 130800Z 23005KT 9999 SCT004 10/09 Q1016","temp":10,"dewp":9,"wdir":230,"wspd":5,"visib":"6+","altim":1016,"clouds":[{"cover":"SCT","base":400}],"obsTime":1781337600}}}